{"type":"FeatureCollection","features":[{"type":"Feature","geometry":{"type":"LineString","coordinates":[[7.51244,44.99819],[7.51245,44.9983],[7.51258,44.9985],[7.51339,44.99877]]},"properties":{}},{"type":"Feature","geometry":{"type":"LineString","coordinates":[[7.51339,44.99877],[7.51294,44.99879],[7.51279,44.99864],[7.5124,44.99848],[7.51231,44.99848],[7.51223,44.99844],[7.5122,44.99837],[7.51223,44.99832],[7.51244,44.99819]]},"properties":{}},{"type":"Feature","geometry":{"type":"LineString","coordinates":[[7.51244,44.99819],[7.51394,44.99507]]},"properties":{}},{"type":"Feature","geometry":{"type":"LineString","coordinates":[[7.51339,44.99877],[7.51785,45.0]]},"properties":{}},{"type":"Feature","geometry":{"type":"LineString","coordinates":[[7.51394,44.99507],[7.5094,44.99379],[7.50929,44.9938],[7.5092,44.99374],[7.50919,44.99368],[7.50927,44.99361],[7.50939,44.99361],[7.50948,44.9937],[7.51016,44.99391],[7.51398,44.99498],[7.51394,44.99507]]},"properties":{}},{"type":"Feature","geometry":{"type":"LineString","coordinates":[[7.52998,45.0],[7.53229,44.99931],[7.53377,44.99911],[7.53385,44.99955],[7.53399,45.0]]},"properties":{}},{"type":"Feature","geometry":{"type":"LineString","coordinates":[[7.60805,44.99882],[7.60829,44.99883],[7.60842,44.99876]]},"properties":{}},{"type":"Feature","geometry":{"type":"LineString","coordinates":[[7.60938,45.0],[7.60805,44.99882]]},"properties":{}},{"type":"Feature","geometry":{"type":"LineString","coordinates":[[7.60805,44.99882],[7.60727,44.99813],[7.60755,44.99797],[7.60842,44.99876]]},"properties":{}},{"type":"Feature","geometry":{"type":"LineString","coordinates":[[7.60977,45.0],[7.60842,44.99876]]},"properties":{}},{"type":"Feature","geometry":{"type":"LineString","coordinates":[[7.63196,45.0],[7.63169,44.99936],[7.63148,44.99905],[7.63136,44.99897],[7.63134,44.99887],[7.63141,44.99878],[7.63154,44.99875],[7.63173,44.99881],[7.63227,44.99876]]},"properties":{}},{"type":"Feature","geometry":{"type":"LineString","coordinates":[[7.63227,44.99876],[7.63204,44.99887],[7.63188,44.999],[7.63183,44.99911],[7.63181,44.99925],[7.63198,45.0]]},"properties":{}},{"type":"Feature","geometry":{"type":"LineString","coordinates":[[7.63596,44.99795],[7.63227,44.99876]]},"properties":{}},{"type":"Feature","geometry":{"type":"LineString","coordinates":[[7.63596,44.99795],[7.63625,44.99785]]},"properties":{}},{"type":"Feature","geometry":{"type":"LineString","coordinates":[[7.63631,44.99795],[7.63596,44.99795]]},"properties":{}},{"type":"Feature","geometry":{"type":"LineString","coordinates":[[7.63631,44.99795],[7.63625,44.99785]]},"properties":{}},{"type":"Feature","geometry":{"type":"LineString","coordinates":[[7.63625,44.99785],[7.63631,44.99775],[7.63629,44.99751],[7.63414,44.99252],[7.63416,44.9923],[7.63432,44.99209],[7.63553,44.99124],[7.63571,44.99118],[7.63587,44.99116],[7.64031,44.99198],[7.64364,44.99284],[7.64397,44.99292],[7.64441,44.99295]]},"properties":{}},{"type":"Feature","geometry":{"type":"LineString","coordinates":[[7.64383,44.9957],[7.64299,44.99583],[7.64091,44.99681],[7.64045,44.99699],[7.64005,44.99722],[7.63962,44.9972],[7.63928,44.99723],[7.6368,44.99778],[7.63663,44.99785],[7.63658,44.99794],[7.63649,44.99798],[7.63631,44.99795]]},"properties":{}},{"type":"Feature","geometry":{"type":"LineString","coordinates":[[7.64044,45.0],[7.6409,44.9987],[7.64286,44.9982],[7.64348,44.99793],[7.64515,44.99665]]},"properties":{}},{"type":"Feature","geometry":{"type":"LineString","coordinates":[[7.64854,44.9963],[7.64263,45.0]]},"properties":{}},{"type":"Feature","geometry":{"type":"LineString","coordinates":[[7.64392,44.99571],[7.64383,44.9957]]},"properties":{}},{"type":"Feature","geometry":{"type":"LineString","coordinates":[[7.64383,44.9957],[7.64376,44.99565],[7.64374,44.99555],[7.64383,44.99543],[7.64391,44.99523]]},"properties":{}},{"type":"Feature","geometry":{"type":"LineString","coordinates":[[7.64391,44.99523],[7.64398,44.99543],[7.64408,44.99558],[7.64405,44.99566],[7.64392,44.99571]]},"properties":{}},{"type":"Feature","geometry":{"type":"LineString","coordinates":[[7.64441,44.99295],[7.64369,44.99365],[7.64361,44.99379],[7.64361,44.99392],[7.64391,44.99523]]},"properties":{}},{"type":"Feature","geometry":{"type":"LineString","coordinates":[[7.64515,44.99665],[7.64428,44.99583],[7.64392,44.99571]]},"properties":{}},{"type":"Feature","geometry":{"type":"LineString","coordinates":[[7.64441,44.99295],[7.64595,44.99421]]},"properties":{}},{"type":"Feature","geometry":{"type":"LineString","coordinates":[[7.652,44.9939],[7.65079,44.99082],[7.65067,44.99066],[7.65067,44.99042],[7.65035,44.98965],[7.64794,44.99076],[7.64786,44.99084],[7.64784,44.99097],[7.64775,44.99102],[7.64765,44.99104],[7.64751,44.99099],[7.64746,44.99093],[7.64745,44.99086],[7.6475,44.99079],[7.64749,44.99069],[7.64742,44.99051],[7.6472,44.99038],[7.64674,44.99022],[7.64573,44.99016],[7.64409,44.99017],[7.64282,44.99005],[7.64254,44.99142],[7.64285,44.99168],[7.64291,44.99176],[7.64441,44.99295]]},"properties":{}},{"type":"Feature","geometry":{"type":"LineString","coordinates":[[7.64515,44.99665],[7.646,44.99607],[7.64626,44.99597],[7.64603,44.99566],[7.64593,44.99529],[7.64703,44.99508]]},"properties":{}},{"type":"Feature","geometry":{"type":"LineString","coordinates":[[7.64703,44.99508],[7.64595,44.99421]]},"properties":{}},{"type":"Feature","geometry":{"type":"LineString","coordinates":[[7.64595,44.99421],[7.64616,44.99414],[7.64832,44.99382],[7.64879,44.99356],[7.64882,44.99351],[7.64936,44.99368],[7.64927,44.99377],[7.64848,44.99426],[7.64707,44.99511]]},"properties":{}},{"type":"Feature","geometry":{"type":"LineString","coordinates":[[7.64707,44.99511],[7.64703,44.99508]]},"properties":{}},{"type":"Feature","geometry":{"type":"LineString","coordinates":[[7.64707,44.99511],[7.64743,44.9954]]},"properties":{}},{"type":"Feature","geometry":{"type":"LineString","coordinates":[[7.64743,44.9954],[7.64854,44.9963]]},"properties":{}},{"type":"Feature","geometry":{"type":"LineString","coordinates":[[7.652,44.9939],[7.64889,44.99481],[7.64743,44.9954]]},"properties":{}},{"type":"Feature","geometry":{"type":"LineString","coordinates":[[7.64854,44.9963],[7.65183,44.99896]]},"properties":{}},{"type":"Feature","geometry":{"type":"LineString","coordinates":[[7.65183,44.99896],[7.65312,45.0]]},"properties":{}},{"type":"Feature","geometry":{"type":"LineString","coordinates":[[7.65183,44.99896],[7.65198,44.99891],[7.65889,44.9982],[7.65883,44.99866],[7.65892,44.9992],[7.65887,45.0]]},"properties":{}},{"type":"Feature","geometry":{"type":"LineString","coordinates":[[7.65455,44.99315],[7.65438,44.99323],[7.652,44.9939]]},"properties":{}},{"type":"Feature","geometry":{"type":"LineString","coordinates":[[7.65411,44.97382],[7.65417,44.97366],[7.65431,44.97349],[7.6544,44.97366],[7.65643,44.97618],[7.65668,44.97662],[7.65674,44.97698],[7.65675,44.97727],[7.65671,44.97756],[7.65659,44.97785],[7.6555,44.97949],[7.65544,44.97969],[7.65542,44.97991],[7.65553,44.98036],[7.65573,44.98078],[7.65611,44.98182]]},"properties":{}},{"type":"Feature","geometry":{"type":"LineString","coordinates":[[7.65473,44.99295],[7.65483,44.99299],[7.65488,44.99306],[7.65486,44.99313],[7.65473,44.9932],[7.65463,44.99319],[7.65455,44.99315]]},"properties":{}},{"type":"Feature","geometry":{"type":"LineString","coordinates":[[7.65455,44.99315],[7.65452,44.99307],[7.65455,44.993],[7.65463,44.99296],[7.65473,44.99295]]},"properties":{}},{"type":"Feature","geometry":{"type":"LineString","coordinates":[[7.65473,44.99295],[7.65489,44.99275],[7.65553,44.9924],[7.65912,44.99072],[7.66087,44.98984],[7.66149,44.98949]]},"properties":{}},{"type":"Feature","geometry":{"type":"LineString","coordinates":[[7.65611,44.98182],[7.65625,44.98214],[7.65653,44.98265],[7.65664,44.98272],[7.65695,44.98278],[7.65701,44.98282],[7.65703,44.98287],[7.65698,44.98295],[7.65696,44.98308],[7.65698,44.98318],[7.65758,44.98375],[7.65781,44.98403]]},"properties":{}},{"type":"Feature","geometry":{"type":"LineString","coordinates":[[7.67055,44.98027],[7.6701,44.98015],[7.66977,44.98001],[7.66941,44.97978],[7.66917,44.97951],[7.66912,44.97933],[7.66907,44.97924],[7.66873,44.97906],[7.66837,44.97877],[7.66814,44.97847],[7.66794,44.97837],[7.66713,44.97804],[7.66652,44.97785],[7.66556,44.97773],[7.66524,44.97773],[7.6649,44.9778],[7.6647,44.97788],[7.6646,44.978],[7.66462,44.97809],[7.66453,44.97814],[7.66441,44.97812],[7.66438,44.97804],[7.6638,44.97822],[7.66336,44.97826],[7.66275,44.97844],[7.66161,44.97853],[7.66151,44.97858],[7.66127,44.97892],[7.66089,44.97904],[7.65724,44.98119],[7.65611,44.98182]]},"properties":{}},{"type":"Feature","geometry":{"type":"LineString","coordinates":[[7.65781,44.98403],[7.65792,44.98404],[7.65801,44.9841],[7.65801,44.98422]]},"properties":{}},{"type":"Feature","geometry":{"type":"LineString","coordinates":[[7.65801,44.98422],[7.65794,44.98428],[7.65784,44.98431],[7.65767,44.98425],[7.65763,44.98417],[7.65764,44.98412],[7.65771,44.98405],[7.65781,44.98403]]},"properties":{}},{"type":"Feature","geometry":{"type":"LineString","coordinates":[[7.65801,44.98422],[7.65815,44.98444],[7.65932,44.98562],[7.65983,44.98631],[7.66074,44.98742],[7.66092,44.98753],[7.66108,44.98758]]},"properties":{}},{"type":"Feature","geometry":{"type":"LineString","coordinates":[[7.66121,44.98778],[7.66105,44.98776]]},"properties":{}},{"type":"Feature","geometry":{"type":"LineString","coordinates":[[7.66116,44.98798],[7.66107,44.98785],[7.66105,44.98776]]},"properties":{}},{"type":"Feature","geometry":{"type":"LineString","coordinates":[[7.66105,44.98776],[7.661,44.9877],[7.661,44.98765],[7.66108,44.98758]]},"properties":{}},{"type":"Feature","geometry":{"type":"LineString","coordinates":[[7.66108,44.98758],[7.66122,44.98757],[7.66131,44.98765]]},"properties":{}},{"type":"Feature","geometry":{"type":"LineString","coordinates":[[7.66149,44.98949],[7.66124,44.98809],[7.66116,44.98798]]},"properties":{}},{"type":"Feature","geometry":{"type":"LineString","coordinates":[[7.66121,44.98778],[7.66115,44.98789],[7.66116,44.98798]]},"properties":{}},{"type":"Feature","geometry":{"type":"LineString","coordinates":[[7.66131,44.98765],[7.6613,44.98772],[7.66121,44.98778]]},"properties":{}},{"type":"Feature","geometry":{"type":"LineString","coordinates":[[7.66131,44.98765],[7.66152,44.98776],[7.66161,44.98777],[7.66252,44.98778],[7.66281,44.98772],[7.66419,44.98725],[7.66518,44.98697],[7.66586,44.98686],[7.66695,44.98683],[7.66814,44.98673],[7.66843,44.98675],[7.66875,44.98687],[7.66883,44.98698],[7.66896,44.98735],[7.66907,44.98743],[7.6708,44.98761],[7.6711,44.98761],[7.67089,44.9849],[7.67079,44.9847],[7.67065,44.98457],[7.67061,44.98449],[7.67063,44.98441],[7.67079,44.98419],[7.67083,44.98404],[7.67055,44.98027]]},"properties":{}},{"type":"Feature","geometry":{"type":"LineString","coordinates":[[7.66149,44.98949],[7.66207,44.99016],[7.66253,44.99065],[7.66276,44.99083],[7.66297,44.99093],[7.66305,44.99114],[7.66391,44.99189],[7.66445,44.99256],[7.66559,44.99421],[7.66576,44.99511],[7.66586,44.99528],[7.66596,44.99537]]},"properties":{}},{"type":"Feature","geometry":{"type":"LineString","coordinates":[[7.66601,44.99536],[7.66617,44.99509],[7.66635,44.99276],[7.66631,44.99253],[7.66617,44.99216],[7.66571,44.99169],[7.66543,44.99145],[7.66304,44.98988],[7.66217,44.98905],[7.66149,44.98949]]},"properties":{}},{"type":"Feature","geometry":{"type":"LineString","coordinates":[[7.66632,44.99583],[7.66611,44.99568],[7.66593,44.99565],[7.66585,44.99558],[7.66585,44.99546],[7.66596,44.99537]]},"properties":{}},{"type":"Feature","geometry":{"type":"LineString","coordinates":[[7.66596,44.99537],[7.66601,44.99536]]},"properties":{}},{"type":"Feature","geometry":{"type":"LineString","coordinates":[[7.66601,44.99536],[7.66621,44.99539],[7.66629,44.99547],[7.66628,44.99572],[7.66632,44.99583]]},"properties":{}},{"type":"Feature","geometry":{"type":"LineString","coordinates":[[7.67127,44.99898],[7.66914,44.99805],[7.6682,44.99758],[7.66737,44.99699],[7.6668,44.99645],[7.66632,44.99583]]},"properties":{}},{"type":"Feature","geometry":{"type":"LineString","coordinates":[[7.67763,44.97451],[7.67741,44.97451],[7.6771,44.97461],[7.67693,44.97471],[7.67653,44.97508],[7.67644,44.97513],[7.67602,44.97521],[7.67574,44.97546],[7.67549,44.9756],[7.67478,44.97584],[7.674,44.97623],[7.67328,44.97684],[7.67319,44.97695],[7.67306,44.97718],[7.67247,44.97846],[7.67205,44.97926],[7.67186,44.9794],[7.67148,44.97957],[7.67052,44.97979],[7.67055,44.98027]]},"properties":{}},{"type":"Feature","geometry":{"type":"LineString","coordinates":[[7.67127,44.99898],[7.67159,44.99903],[7.67172,44.99899],[7.67183,44.99902],[7.67187,44.99911],[7.67181,44.99925],[7.6718,44.9994]]},"properties":{}},{"type":"Feature","geometry":{"type":"LineString","coordinates":[[7.6718,44.9994],[7.67155,44.99912],[7.67127,44.99898]]},"properties":{}},{"type":"Feature","geometry":{"type":"LineString","coordinates":[[7.67186,45.0],[7.67188,44.99969],[7.6718,44.9994]]},"properties":{}},{"type":"Feature","geometry":{"type":"LineString","coordinates":[[7.67426,44.5],[7.67683,44.50185],[7.67726,44.50219],[7.67898,44.50375],[7.68295,44.50697],[7.6848,44.50854],[7.68568,44.50919],[7.68723,44.51012],[7.68853,44.51111],[7.68948,44.51172],[7.68972,44.51192],[7.69204,44.51425],[7.6931,44.51555],[7.69433,44.51673],[7.6947,44.51702],[7.69492,44.51715],[7.69659,44.518],[7.69714,44.51851],[7.69882,44.52047],[7.6993,44.52092],[7.70046,44.52179],[7.70212,44.5229],[7.70263,44.5233],[7.70296,44.52361],[7.704,44.52475],[7.706,44.52729],[7.70638,44.52781],[7.70741,44.52935],[7.70786,44.53023],[7.70888,44.53162],[7.70954,44.53244],[7.71036,44.53333],[7.71069,44.53361],[7.71182,44.53439],[7.7121,44.53468],[7.71245,44.53518],[7.71298,44.53626],[7.71438,44.53778],[7.71574,44.53975],[7.71603,44.54011],[7.71633,44.54035]]},"properties":{}},{"type":"Feature","geometry":{"type":"LineString","coordinates":[[7.6752,45.0],[7.67531,44.99953],[7.67601,44.99828],[7.67657,44.99742],[7.67691,44.997],[7.6773,44.99663],[7.67799,44.99607],[7.67869,44.99562],[7.67975,44.99509],[7.69252,44.99029],[7.69382,44.98976],[7.6948,44.98926],[7.69537,44.98891],[7.69587,44.98856],[7.69681,44.98775],[7.69722,44.98732],[7.69784,44.98652],[7.69809,44.98613],[7.69843,44.98548],[7.69867,44.98487],[7.69958,44.98151],[7.70233,44.97094]]},"properties":{}},{"type":"Feature","geometry":{"type":"LineString","coordinates":[[7.70144,44.97519],[7.69965,44.98208],[7.69892,44.98475],[7.69864,44.98549],[7.69829,44.98618],[7.69774,44.98698],[7.69696,44.98784],[7.6965,44.98826],[7.69547,44.98903],[7.69492,44.98937],[7.69391,44.98989],[7.69225,44.99055],[7.67987,44.99522],[7.67879,44.99575],[7.67811,44.99618],[7.67751,44.99667],[7.67708,44.99706],[7.67672,44.99748],[7.67646,44.99782],[7.67613,44.99837],[7.67544,44.99959],[7.67537,44.9998],[7.67534,45.0]]},"properties":{}},{"type":"Feature","geometry":{"type":"LineString","coordinates":[[7.67721,45.0],[7.67792,44.99946]]},"properties":{}},{"type":"Feature","geometry":{"type":"LineString","coordinates":[[7.67874,45.0],[7.67796,44.99952],[7.67792,44.99946]]},"properties":{}},{"type":"Feature","geometry":{"type":"LineString","coordinates":[[7.67792,44.99946],[7.67909,44.9986],[7.67973,44.99823],[7.6799,44.99817]]},"properties":{}},{"type":"Feature","geometry":{"type":"LineString","coordinates":[[7.67934,45.0],[7.67907,45.0]]},"properties":{}},{"type":"Feature","geometry":{"type":"LineString","coordinates":[[7.67968,45.0],[7.67981,44.99986]]},"properties":{}},{"type":"Feature","geometry":{"type":"LineString","coordinates":[[7.6799,44.99992],[7.6798,45.0]]},"properties":{}},{"type":"Feature","geometry":{"type":"LineString","coordinates":[[7.6799,44.99992],[7.67981,44.99986]]},"properties":{}},{"type":"Feature","geometry":{"type":"LineString","coordinates":[[7.67981,44.99986],[7.68018,44.99855],[7.6801,44.99837],[7.67994,44.9983],[7.6799,44.99817]]},"properties":{}},{"type":"Feature","geometry":{"type":"LineString","coordinates":[[7.67994,44.99992],[7.6799,44.99992]]},"properties":{}},{"type":"Feature","geometry":{"type":"LineString","coordinates":[[7.6799,44.99817],[7.67996,44.99808],[7.68014,44.99802]]},"properties":{}},{"type":"Feature","geometry":{"type":"LineString","coordinates":[[7.68024,45.0],[7.67994,44.99992]]},"properties":{}},{"type":"Feature","geometry":{"type":"LineString","coordinates":[[7.68004,44.99984],[7.68001,44.99989],[7.67994,44.99992]]},"properties":{}},{"type":"Feature","geometry":{"type":"LineString","coordinates":[[7.68004,44.99984],[7.68024,45.0]]},"properties":{}},{"type":"Feature","geometry":{"type":"LineString","coordinates":[[7.68023,44.99872],[7.68005,44.9993],[7.67998,44.99963],[7.67999,44.99977],[7.68004,44.99984]]},"properties":{}},{"type":"Feature","geometry":{"type":"LineString","coordinates":[[7.68008,44.99975],[7.68047,44.99984],[7.68074,44.99995],[7.68116,45.0]]},"properties":{}},{"type":"Feature","geometry":{"type":"LineString","coordinates":[[7.68014,44.99802],[7.68028,44.99805],[7.68037,44.99813]]},"properties":{}},{"type":"Feature","geometry":{"type":"LineString","coordinates":[[7.68014,44.99802],[7.68083,44.9975],[7.68128,44.99727]]},"properties":{}},{"type":"Feature","geometry":{"type":"LineString","coordinates":[[7.68039,44.99818],[7.68037,44.99828],[7.68028,44.99835],[7.68023,44.99872]]},"properties":{}},{"type":"Feature","geometry":{"type":"LineString","coordinates":[[7.68083,44.99824],[7.68044,44.9984],[7.68033,44.99853],[7.68023,44.99872]]},"properties":{}},{"type":"Feature","geometry":{"type":"LineString","coordinates":[[7.68024,45.0],[7.68024,45.0]]},"properties":{}},{"type":"Feature","geometry":{"type":"LineString","coordinates":[[7.68037,44.99813],[7.68039,44.99818]]},"properties":{}},{"type":"Feature","geometry":{"type":"LineString","coordinates":[[7.68128,44.99727],[7.68084,44.99762],[7.68037,44.99813]]},"properties":{}},{"type":"Feature","geometry":{"type":"LineString","coordinates":[[7.68039,44.99818],[7.68049,44.99824],[7.68083,44.99824]]},"properties":{}},{"type":"Feature","geometry":{"type":"LineString","coordinates":[[7.68083,44.99824],[7.68287,44.99808],[7.68358,44.99807],[7.68438,44.99834],[7.68849,45.0]]},"properties":{}},{"type":"Feature","geometry":{"type":"LineString","coordinates":[[7.68128,44.99727],[7.68161,44.99708],[7.68203,44.99691],[7.68264,44.99674]]},"properties":{}},{"type":"Feature","geometry":{"type":"LineString","coordinates":[[7.68264,44.99674],[7.68291,44.99666],[7.68415,44.99647],[7.68431,44.99639],[7.68444,44.99643],[7.68499,44.99633]]},"properties":{}},{"type":"Feature","geometry":{"type":"LineString","coordinates":[[7.68499,44.99633],[7.68452,44.99647],[7.68437,44.99654],[7.68412,44.99654],[7.68264,44.99674]]},"properties":{}},{"type":"Feature","geometry":{"type":"LineString","coordinates":[[7.68499,44.99633],[7.68633,44.99607],[7.68807,44.99581]]},"properties":{}},{"type":"Feature","geometry":{"type":"LineString","coordinates":[[7.68807,44.99581],[7.6884,44.99574],[7.68867,44.99559],[7.68879,44.99558],[7.68892,44.99565],[7.68895,44.99572],[7.68893,44.99579],[7.68906,44.99596]]},"properties":{}},{"type":"Feature","geometry":{"type":"LineString","coordinates":[[7.68906,44.99596],[7.6886,44.99583],[7.68838,44.9958],[7.68807,44.99581]]},"properties":{}},{"type":"Feature","geometry":{"type":"LineString","coordinates":[[7.68906,44.99596],[7.69048,44.99719],[7.69069,44.99729],[7.69102,44.99734],[7.692,44.99719]]},"properties":{}},{"type":"Feature","geometry":{"type":"LineString","coordinates":[[7.69321,45.0],[7.69308,44.99953],[7.69245,44.99922],[7.69249,44.99901],[7.69247,44.99882],[7.69226,44.99832],[7.692,44.99719]]},"properties":{}},{"type":"Feature","geometry":{"type":"LineString","coordinates":[[7.692,44.99719],[7.69486,44.99677],[7.69501,44.99673],[7.6953,44.99659]]},"properties":{}},{"type":"Feature","geometry":{"type":"LineString","coordinates":[[7.6953,44.99659],[7.69566,44.9963],[7.69573,44.99623],[7.6958,44.99606],[7.69609,44.99598],[7.69624,44.99588],[7.69661,44.99571]]},"properties":{}},{"type":"Feature","geometry":{"type":"LineString","coordinates":[[7.69661,44.99571],[7.69624,44.99595],[7.6962,44.99605],[7.696,44.99613],[7.69543,44.99654],[7.6953,44.99659]]},"properties":{}},{"type":"Feature","geometry":{"type":"LineString","coordinates":[[7.69583,45.0],[7.70161,44.99819],[7.70194,44.99808],[7.70287,44.99768]]},"properties":{}},{"type":"Feature","geometry":{"type":"LineString","coordinates":[[7.69661,44.99571],[7.69722,44.99531],[7.69735,44.99525],[7.69748,44.9953],[7.69794,44.99558],[7.69824,44.99565]]},"properties":{}},{"type":"Feature","geometry":{"type":"LineString","coordinates":[[7.69824,44.99565],[7.6987,44.99573],[7.69888,44.99556],[7.69906,44.99544],[7.69913,44.99546]]},"properties":{}},{"type":"Feature","geometry":{"type":"LineString","coordinates":[[7.69913,44.99546],[7.69897,44.99574],[7.69898,44.99581],[7.69887,44.99588],[7.69876,44.99588],[7.69869,44.99582],[7.69824,44.99565]]},"properties":{}},{"type":"Feature","geometry":{"type":"LineString","coordinates":[[7.70246,44.99545],[7.70106,44.99548],[7.69913,44.99546]]},"properties":{}},{"type":"Feature","geometry":{"type":"LineString","coordinates":[[7.7026,44.97092],[7.70144,44.97519]]},"properties":{}},{"type":"Feature","geometry":{"type":"LineString","coordinates":[[7.77682,44.95965],[7.77523,44.95974],[7.77421,44.95984],[7.77286,44.96005],[7.73994,44.96556],[7.73764,44.96606],[7.73679,44.96621],[7.73403,44.96654],[7.70868,44.97034],[7.70823,44.97048],[7.70727,44.97064],[7.70658,44.97084],[7.70621,44.97101],[7.70591,44.97123],[7.70579,44.97137],[7.70528,44.97222],[7.70513,44.9724],[7.70481,44.97269],[7.70443,44.97293],[7.70402,44.97312],[7.70264,44.97354],[7.7023,44.97372],[7.70215,44.97385],[7.70206,44.97394],[7.70188,44.97421],[7.7016,44.97494],[7.70144,44.97519]]},"properties":{}},{"type":"Feature","geometry":{"type":"LineString","coordinates":[[7.70244,44.97053],[7.70242,44.97012],[7.7025,44.96973],[7.70247,44.9695],[7.70239,44.96937],[7.70228,44.96926],[7.70212,44.96917],[7.70186,44.96911],[7.70161,44.96911],[7.70133,44.96919],[7.70061,44.96952],[7.70007,44.96992],[7.69988,44.97012],[7.69977,44.97032],[7.69977,44.97052],[7.69986,44.97067],[7.70002,44.97082],[7.70029,44.97093],[7.70132,44.971],[7.70233,44.97094]]},"properties":{}},{"type":"Feature","geometry":{"type":"LineString","coordinates":[[7.70233,44.97094],[7.70244,44.97053]]},"properties":{}},{"type":"Feature","geometry":{"type":"LineString","coordinates":[[7.70233,44.97094],[7.7026,44.97092]]},"properties":{}},{"type":"Feature","geometry":{"type":"LineString","coordinates":[[7.70244,44.97053],[7.70436,44.96338],[7.70465,44.96257],[7.70501,44.96185],[7.7055,44.9611],[7.70573,44.9608],[7.7065,44.95994],[7.70706,44.95943],[7.70894,44.95787],[7.70981,44.95706],[7.71081,44.95592],[7.71164,44.95472],[7.71218,44.95372],[7.71245,44.95314],[7.71262,44.95267],[7.71365,44.94943],[7.71409,44.94827],[7.71436,44.94768],[7.71497,44.94656],[7.7154,44.94588],[7.71691,44.94368],[7.73103,44.92317],[7.74169,44.90762],[7.74234,44.90657],[7.74279,44.90574],[7.74349,44.90431],[7.74397,44.90314],[7.74417,44.90254],[7.74467,44.90084],[7.74498,44.89925],[7.74515,44.89784],[7.74728,44.87139],[7.74836,44.85597],[7.74837,44.85564],[7.74823,44.85518],[7.74819,44.85489],[7.74821,44.85414],[7.74824,44.8537],[7.74847,44.8531],[7.74859,44.85237],[7.74926,44.84324],[7.75301,44.78984],[7.75304,44.78763],[7.75302,44.78686],[7.75291,44.78508],[7.75041,44.7604],[7.75002,44.75623],[7.74997,44.75509],[7.74997,44.75336],[7.75005,44.75172],[7.75019,44.75026],[7.75034,44.7492],[7.75065,44.74755],[7.75113,44.74554],[7.77515,44.66195]]},"properties":{}},{"type":"Feature","geometry":{"type":"LineString","coordinates":[[7.70246,44.99545],[7.70264,44.99728],[7.70287,44.99768]]},"properties":{}},{"type":"Feature","geometry":{"type":"LineString","coordinates":[[7.70888,44.99513],[7.70786,44.994],[7.70525,44.9948],[7.70401,44.99522],[7.70246,44.99545]]},"properties":{}},{"type":"Feature","geometry":{"type":"LineString","coordinates":[[7.77539,44.66199],[7.75137,44.74556],[7.75078,44.74813],[7.75043,44.75028],[7.7503,44.75172],[7.75022,44.75336],[7.75022,44.75508],[7.75026,44.75623],[7.75315,44.78507],[7.75328,44.78684],[7.75328,44.78928],[7.75267,44.7984],[7.74886,44.85266],[7.74882,44.85386],[7.74865,44.85566],[7.74842,44.85872],[7.74761,44.87037],[7.74536,44.89834],[7.74515,44.89984],[7.74495,44.90072],[7.74448,44.90242],[7.74422,44.90318],[7.74381,44.90421],[7.74306,44.90576],[7.74234,44.90703],[7.74187,44.90777],[7.71564,44.94593],[7.71532,44.94645],[7.71461,44.94772],[7.71434,44.9483],[7.71408,44.94896],[7.7127,44.95316],[7.71227,44.95408],[7.71158,44.95525],[7.71078,44.95632],[7.71003,44.95715],[7.70915,44.95799],[7.70683,44.95997],[7.70631,44.96049],[7.70583,44.96106],[7.70525,44.96189],[7.70487,44.96261],[7.70455,44.96338],[7.70345,44.96767],[7.70308,44.96897],[7.7026,44.97092]]},"properties":{}},{"type":"Feature","geometry":{"type":"LineString","coordinates":[[7.7026,44.97092],[7.70385,44.97082],[7.70443,44.97082],[7.70557,44.97066],[7.7342,44.96637],[7.73656,44.96581],[7.73722,44.96571],[7.73924,44.96552],[7.73989,44.96542],[7.77283,44.95992],[7.77519,44.95961],[7.77677,44.95952]]},"properties":{}},{"type":"Feature","geometry":{"type":"LineString","coordinates":[[7.70287,44.99768],[7.70888,44.99513]]},"properties":{}},{"type":"Feature","geometry":{"type":"LineString","coordinates":[[7.70888,44.99513],[7.70975,44.99476]]},"properties":{}},{"type":"Feature","geometry":{"type":"LineString","coordinates":[[7.70975,44.99476],[7.70993,44.99528],[7.71023,44.99646],[7.71018,44.99659]]},"properties":{}},{"type":"Feature","geometry":{"type":"LineString","coordinates":[[7.70975,44.99476],[7.71319,44.99329]]},"properties":{}},{"type":"Feature","geometry":{"type":"LineString","coordinates":[[7.71018,44.99659],[7.71001,44.99679],[7.71,44.99691],[7.71023,44.99723],[7.71077,44.99716],[7.71124,44.99703],[7.71176,44.99679],[7.71238,44.99657],[7.71366,44.9962],[7.71436,44.99595]]},"properties":{}},{"type":"Feature","geometry":{"type":"LineString","coordinates":[[7.71018,44.99659],[7.7104,44.99656]]},"properties":{}},{"type":"Feature","geometry":{"type":"LineString","coordinates":[[7.7104,44.99656],[7.7111,44.99645],[7.71098,44.99607],[7.71028,44.99618],[7.7104,44.99656]]},"properties":{}},{"type":"Feature","geometry":{"type":"LineString","coordinates":[[7.71319,44.99329],[7.71368,44.99425],[7.714,44.99536],[7.71416,44.99569],[7.71436,44.99595]]},"properties":{}},{"type":"Feature","geometry":{"type":"LineString","coordinates":[[7.71319,44.99329],[7.71985,44.99045]]},"properties":{}},{"type":"Feature","geometry":{"type":"LineString","coordinates":[[7.72309,45.0],[7.72269,44.9995],[7.72225,44.99921],[7.72193,44.99914],[7.72057,44.99895],[7.72009,44.99882],[7.71955,44.99857],[7.71836,44.99789],[7.7181,44.9977],[7.7179,44.99717],[7.71771,44.99691],[7.71757,44.99679],[7.71666,44.99616],[7.71594,44.99577],[7.71579,44.99573],[7.71539,44.99571],[7.71461,44.99587],[7.71436,44.99595]]},"properties":{}},{"type":"Feature","geometry":{"type":"LineString","coordinates":[[7.7164,44.54492],[7.71634,44.54496],[7.71628,44.54494],[7.71627,44.54489],[7.71632,44.54486]]},"properties":{}},{"type":"Feature","geometry":{"type":"LineString","coordinates":[[7.71656,44.54114],[7.71486,44.54266],[7.7161,44.54339],[7.71622,44.5435],[7.71637,44.54382],[7.71632,44.54486]]},"properties":{}},{"type":"Feature","geometry":{"type":"LineString","coordinates":[[7.71632,44.54486],[7.71637,44.54487],[7.7164,44.54492]]},"properties":{}},{"type":"Feature","geometry":{"type":"LineString","coordinates":[[7.71633,44.54035],[7.7166,44.54048],[7.71696,44.54058]]},"properties":{}},{"type":"Feature","geometry":{"type":"LineString","coordinates":[[7.71687,44.54069],[7.71633,44.54035]]},"properties":{}},{"type":"Feature","geometry":{"type":"LineString","coordinates":[[7.71835,44.55018],[7.71776,44.54786],[7.71769,44.54548],[7.71774,44.54505],[7.71686,44.54492],[7.7164,44.54492]]},"properties":{}},{"type":"Feature","geometry":{"type":"LineString","coordinates":[[7.71656,44.54114],[7.71688,44.54074]]},"properties":{}},{"type":"Feature","geometry":{"type":"LineString","coordinates":[[7.71701,44.54083],[7.71656,44.54114]]},"properties":{}},{"type":"Feature","geometry":{"type":"LineString","coordinates":[[7.71688,44.54074],[7.71687,44.54069]]},"properties":{}},{"type":"Feature","geometry":{"type":"LineString","coordinates":[[7.71687,44.54069],[7.71696,44.54058]]},"properties":{}},{"type":"Feature","geometry":{"type":"LineString","coordinates":[[7.71701,44.54083],[7.71688,44.54074]]},"properties":{}},{"type":"Feature","geometry":{"type":"LineString","coordinates":[[7.71696,44.54058],[7.71713,44.54057],[7.71725,44.54068],[7.7172,44.54079],[7.71701,44.54083]]},"properties":{}},{"type":"Feature","geometry":{"type":"LineString","coordinates":[[7.71839,44.55031],[7.7183,44.55029],[7.71828,44.55025],[7.71835,44.55018]]},"properties":{}},{"type":"Feature","geometry":{"type":"LineString","coordinates":[[7.71835,44.55018],[7.71846,44.55022],[7.71846,44.55028],[7.71839,44.55031]]},"properties":{}},{"type":"Feature","geometry":{"type":"LineString","coordinates":[[7.71839,44.55031],[7.7184,44.55044],[7.71859,44.55075],[7.71857,44.55088]]},"properties":{}},{"type":"Feature","geometry":{"type":"LineString","coordinates":[[7.71851,44.55525],[7.71861,44.55533],[7.71861,44.55538],[7.71854,44.55543]]},"properties":{}},{"type":"Feature","geometry":{"type":"LineString","coordinates":[[7.71854,44.55543],[7.71842,44.55543],[7.71835,44.55537],[7.71839,44.55527],[7.71851,44.55525]]},"properties":{}},{"type":"Feature","geometry":{"type":"LineString","coordinates":[[7.71851,44.55525],[7.72014,44.55356],[7.72028,44.55345],[7.72044,44.55321],[7.72118,44.55248],[7.72118,44.55241],[7.7211,44.55235]]},"properties":{}},{"type":"Feature","geometry":{"type":"LineString","coordinates":[[7.72117,44.55598],[7.72107,44.55601],[7.72097,44.55598],[7.72091,44.55592],[7.72091,44.55585],[7.72057,44.55584],[7.71854,44.55543]]},"properties":{}},{"type":"Feature","geometry":{"type":"LineString","coordinates":[[7.71857,44.55088],[7.71869,44.55098],[7.7189,44.55136],[7.71911,44.5516]]},"properties":{}},{"type":"Feature","geometry":{"type":"LineString","coordinates":[[7.71911,44.5516],[7.71891,44.55155],[7.71884,44.55149],[7.71862,44.5511],[7.71857,44.55088]]},"properties":{}},{"type":"Feature","geometry":{"type":"LineString","coordinates":[[7.71911,44.5516],[7.71919,44.55169],[7.71926,44.55194],[7.71922,44.5523],[7.71909,44.55265],[7.7191,44.55271],[7.71919,44.55278],[7.71936,44.55278],[7.72004,44.55252],[7.72035,44.55244],[7.7211,44.55235]]},"properties":{}},{"type":"Feature","geometry":{"type":"LineString","coordinates":[[7.71985,44.99045],[7.72052,44.99121],[7.72198,44.99313],[7.72219,44.9933],[7.72234,44.9941],[7.72234,44.99437],[7.72272,44.99511],[7.72361,44.99467],[7.72457,44.99446],[7.72461,44.99461]]},"properties":{}},{"type":"Feature","geometry":{"type":"LineString","coordinates":[[7.71985,44.99045],[7.72121,44.98987]]},"properties":{}},{"type":"Feature","geometry":{"type":"LineString","coordinates":[[7.7211,44.55235],[7.72133,44.55228],[7.72168,44.55233],[7.72165,44.55272],[7.7213,44.55438],[7.72118,44.55517],[7.72111,44.55577],[7.72118,44.5558],[7.72123,44.55587],[7.72117,44.55598]]},"properties":{}},{"type":"Feature","geometry":{"type":"LineString","coordinates":[[7.72173,44.55684],[7.72117,44.55598]]},"properties":{}},{"type":"Feature","geometry":{"type":"LineString","coordinates":[[7.72121,44.98987],[7.72144,44.9897],[7.72149,44.98959],[7.72156,44.98953],[7.72186,44.98953],[7.72213,44.98948]]},"properties":{}},{"type":"Feature","geometry":{"type":"LineString","coordinates":[[7.72213,44.98948],[7.72191,44.98961],[7.72176,44.98976],[7.72148,44.98978],[7.72121,44.98987]]},"properties":{}},{"type":"Feature","geometry":{"type":"LineString","coordinates":[[7.72185,44.55705],[7.72176,44.55705],[7.72166,44.557],[7.72165,44.5569],[7.72173,44.55684]]},"properties":{}},{"type":"Feature","geometry":{"type":"LineString","coordinates":[[7.72173,44.55684],[7.72186,44.55685],[7.72193,44.55689],[7.72193,44.557],[7.72185,44.55705]]},"properties":{}},{"type":"Feature","geometry":{"type":"LineString","coordinates":[[7.7268,44.57085],[7.72447,44.56904],[7.72424,44.56879],[7.72399,44.56838],[7.72388,44.56797],[7.72388,44.56437],[7.72375,44.56343],[7.72362,44.5629],[7.72245,44.55918],[7.72221,44.55775],[7.72207,44.55742],[7.72185,44.55705]]},"properties":{}},{"type":"Feature","geometry":{"type":"LineString","coordinates":[[7.74479,44.9821],[7.74351,44.98294],[7.74192,44.98385],[7.74149,44.98405],[7.74004,44.98427],[7.73933,44.98428],[7.73862,44.98424],[7.73804,44.98428],[7.73167,44.98548],[7.73126,44.9856],[7.72213,44.98948]]},"properties":{}},{"type":"Feature","geometry":{"type":"LineString","coordinates":[[7.7268,44.57085],[7.72713,44.57095],[7.72733,44.57086],[7.72738,44.57077],[7.72742,44.56975],[7.72749,44.56912],[7.72748,44.56845],[7.72742,44.56825],[7.72715,44.56784]]},"properties":{}},{"type":"Feature","geometry":{"type":"LineString","coordinates":[[7.74806,44.57278],[7.74777,44.57219],[7.74757,44.572],[7.74756,44.57189],[7.74761,44.57183],[7.74771,44.57179],[7.74785,44.5718],[7.74842,44.5717],[7.74873,44.57158],[7.74885,44.57144],[7.74886,44.5713],[7.74882,44.57119],[7.74871,44.57108],[7.74643,44.56981],[7.74438,44.56875],[7.74354,44.56837],[7.74215,44.5679],[7.74123,44.5677],[7.74071,44.56763],[7.73968,44.56757],[7.73909,44.56757],[7.73812,44.56764],[7.73107,44.56832],[7.72814,44.56868],[7.72784,44.56882],[7.7277,44.56896],[7.7276,44.56913],[7.72757,44.56923],[7.72745,44.57082],[7.7275,44.57092],[7.72768,44.57104],[7.72771,44.57116],[7.72767,44.57127],[7.72758,44.57135],[7.7274,44.57141],[7.72713,44.57136],[7.72701,44.57123],[7.72701,44.57107],[7.7268,44.57085]]},"properties":{}},{"type":"Feature","geometry":{"type":"LineString","coordinates":[[7.72715,44.56784],[7.72806,44.56808],[7.72839,44.56821],[7.72944,44.5683],[7.73009,44.5683],[7.73095,44.56826],[7.73812,44.56756],[7.73915,44.5675],[7.73978,44.56749],[7.74075,44.56756],[7.74124,44.56763],[7.74224,44.56782],[7.74363,44.5683],[7.74445,44.56866],[7.74633,44.56962],[7.74784,44.57035],[7.74839,44.57066],[7.74874,44.57091],[7.74893,44.57115],[7.74895,44.57136],[7.74889,44.57152],[7.74873,44.57166],[7.74804,44.57195],[7.74792,44.57208],[7.74792,44.57224],[7.74806,44.57278]]},"properties":{}},{"type":"Feature","geometry":{"type":"LineString","coordinates":[[7.72715,44.56784],[7.72654,44.56694],[7.72625,44.56669],[7.72612,44.56663],[7.72593,44.56661],[7.72575,44.56665],[7.72556,44.56673],[7.7255,44.56681],[7.72545,44.56695],[7.72547,44.56707],[7.72563,44.56726],[7.72637,44.56758],[7.72715,44.56784]]},"properties":{}},{"type":"Feature","geometry":{"type":"LineString","coordinates":[[7.74479,44.9821],[7.74497,44.98186],[7.74531,44.98185]]},"properties":{}},{"type":"Feature","geometry":{"type":"LineString","coordinates":[[7.74531,44.98185],[7.74479,44.9821]]},"properties":{}},{"type":"Feature","geometry":{"type":"LineString","coordinates":[[7.75959,44.97462],[7.75064,44.98039],[7.74957,44.98105],[7.74886,44.98121],[7.74531,44.98185]]},"properties":{}},{"type":"Feature","geometry":{"type":"LineString","coordinates":[[7.76071,44.59843],[7.75903,44.59608],[7.75689,44.59333],[7.75641,44.59263],[7.75485,44.58919],[7.75472,44.58901],[7.75373,44.58794],[7.7526,44.58698],[7.75228,44.58658],[7.75211,44.58628],[7.74825,44.57334],[7.74806,44.57278]]},"properties":{}},{"type":"Feature","geometry":{"type":"LineString","coordinates":[[7.75959,44.97462],[7.7598,44.97445],[7.75991,44.97422],[7.76001,44.97414],[7.76018,44.97409],[7.76031,44.9741],[7.76065,44.97393]]},"properties":{}},{"type":"Feature","geometry":{"type":"LineString","coordinates":[[7.76065,44.97393],[7.76055,44.97411],[7.76051,44.97425],[7.76052,44.97436],[7.76042,44.97449],[7.76026,44.97454],[7.75987,44.97455],[7.75959,44.97462]]},"properties":{}},{"type":"Feature","geometry":{"type":"LineString","coordinates":[[7.77038,44.96764],[7.76065,44.97393]]},"properties":{}},{"type":"Feature","geometry":{"type":"LineString","coordinates":[[7.76093,44.59877],[7.76071,44.59843]]},"properties":{}},{"type":"Feature","geometry":{"type":"LineString","coordinates":[[7.77596,44.65913],[7.77771,44.65308],[7.77824,44.65096],[7.7785,44.64966],[7.77864,44.64878],[7.77891,44.64638],[7.77899,44.64441],[7.77898,44.64304],[7.77886,44.64112],[7.77878,44.64028],[7.77852,44.63848],[7.77796,44.63593],[7.77751,44.6343],[7.77676,44.63215],[7.77604,44.63043],[7.77562,44.62951],[7.77481,44.62792],[7.77346,44.62562],[7.7644,44.61163],[7.76333,44.60985],[7.76257,44.60837],[7.76226,44.60768],[7.76165,44.60604],[7.76128,44.60478],[7.76096,44.60335],[7.76079,44.60222],[7.76067,44.60076],[7.76065,44.59957],[7.76071,44.59843]]},"properties":{}},{"type":"Feature","geometry":{"type":"LineString","coordinates":[[7.76071,44.59843],[7.76083,44.59724],[7.76102,44.59603],[7.76129,44.59484],[7.76162,44.59373],[7.76203,44.5926],[7.76258,44.59128],[7.76324,44.58997],[7.76361,44.58933],[7.76477,44.58752],[7.78076,44.56437],[7.78139,44.56334],[7.78192,44.56236],[7.78231,44.56151],[7.78271,44.56049],[7.78299,44.55964],[7.78331,44.55835],[7.78578,44.54551],[7.78623,44.54345],[7.78686,44.54135],[7.78761,44.53941],[7.78793,44.53871],[7.78873,44.53707],[7.78983,44.53513],[7.81009,44.5]]},"properties":{}},{"type":"Feature","geometry":{"type":"LineString","coordinates":[[7.80457,44.65237],[7.80219,44.65009],[7.80025,44.64808],[7.78298,44.62884],[7.78288,44.62867],[7.78282,44.62848],[7.78279,44.62833],[7.78281,44.62813],[7.78287,44.62785],[7.78347,44.62638],[7.7835,44.62609],[7.78349,44.62579],[7.7834,44.62546],[7.7831,44.62502],[7.77648,44.61677],[7.77496,44.61519],[7.77317,44.6129],[7.767,44.60615],[7.76408,44.60326],[7.76337,44.60239],[7.76093,44.59877]]},"properties":{}},{"type":"Feature","geometry":{"type":"LineString","coordinates":[[7.76093,44.59877],[7.7609,44.60019],[7.76096,44.60144],[7.76124,44.60344],[7.76154,44.60475],[7.76193,44.60608],[7.76251,44.60764],[7.76282,44.60832],[7.76357,44.60978],[7.7646,44.61149],[7.77381,44.62573],[7.77493,44.62765],[7.77586,44.62946],[7.77667,44.63126],[7.77721,44.63265],[7.77774,44.63422],[7.77801,44.63512],[7.7784,44.63664],[7.77877,44.63847],[7.7789,44.63929],[7.77917,44.64169],[7.77924,44.64303],[7.77925,44.6444],[7.77918,44.64638],[7.77901,44.64802],[7.7789,44.64882],[7.77845,44.65123],[7.77796,44.6531],[7.77608,44.65961]]},"properties":{}},{"type":"Feature","geometry":{"type":"LineString","coordinates":[[7.81024,44.5],[7.78915,44.53659],[7.78852,44.53779],[7.78806,44.53875],[7.78776,44.53945],[7.78701,44.54143],[7.78644,44.54333],[7.78597,44.54554],[7.78416,44.55502],[7.78336,44.55904],[7.7832,44.55963],[7.78273,44.56103],[7.7824,44.56183],[7.78199,44.5627],[7.78141,44.56376],[7.78085,44.56466],[7.76472,44.58798],[7.76385,44.58936],[7.76305,44.59084],[7.7626,44.59181],[7.76199,44.59337],[7.76167,44.5944],[7.76148,44.5951],[7.76119,44.59647],[7.76102,44.59765],[7.76093,44.59877]]},"properties":{}},{"type":"Feature","geometry":{"type":"LineString","coordinates":[[7.76759,44.94312],[7.77131,44.94673],[7.77143,44.94681],[7.77157,44.94685],[7.77212,44.9469],[7.77234,44.94707],[7.77265,44.94756],[7.77272,44.94813],[7.77267,44.94912],[7.77281,44.94946],[7.77333,44.95005]]},"properties":{}},{"type":"Feature","geometry":{"type":"LineString","coordinates":[[7.76759,44.94312],[7.76727,44.94315],[7.76719,44.94297],[7.76742,44.94295],[7.76759,44.94312]]},"properties":{}},{"type":"Feature","geometry":{"type":"LineString","coordinates":[[7.77038,44.96764],[7.77085,44.96769],[7.77135,44.96771],[7.77332,44.96746],[7.77345,44.96742]]},"properties":{}},{"type":"Feature","geometry":{"type":"LineString","coordinates":[[7.77182,44.96677],[7.77038,44.96764]]},"properties":{}},{"type":"Feature","geometry":{"type":"LineString","coordinates":[[7.77182,44.96677],[7.77345,44.96742]]},"properties":{}},{"type":"Feature","geometry":{"type":"LineString","coordinates":[[7.77659,44.9636],[7.77279,44.96609],[7.77215,44.96646],[7.77182,44.96677]]},"properties":{}},{"type":"Feature","geometry":{"type":"LineString","coordinates":[[7.77333,44.95005],[7.77351,44.95005],[7.77381,44.95],[7.77439,44.95002],[7.77504,44.95029]]},"properties":{}},{"type":"Feature","geometry":{"type":"LineString","coordinates":[[7.77457,44.95217],[7.77445,44.95186],[7.7743,44.95159],[7.77358,44.95039],[7.77333,44.95005]]},"properties":{}},{"type":"Feature","geometry":{"type":"LineString","coordinates":[[7.77345,44.96742],[7.77386,44.96759],[7.77432,44.96785],[7.77579,44.96894],[7.77677,44.97047]]},"properties":{}},{"type":"Feature","geometry":{"type":"LineString","coordinates":[[7.77457,44.95217],[7.77497,44.95352]]},"properties":{}},{"type":"Feature","geometry":{"type":"LineString","coordinates":[[7.77612,44.9509],[7.77585,44.95114],[7.77574,44.9513],[7.77563,44.95197],[7.77549,44.95203],[7.77457,44.95217]]},"properties":{}},{"type":"Feature","geometry":{"type":"LineString","coordinates":[[7.77497,44.95352],[7.77677,44.95952]]},"properties":{}},{"type":"Feature","geometry":{"type":"LineString","coordinates":[[7.77497,44.95352],[7.77578,44.9532],[7.77625,44.95306],[7.77637,44.95298],[7.77673,44.95199],[7.77684,44.95183]]},"properties":{}},{"type":"Feature","geometry":{"type":"LineString","coordinates":[[7.77504,44.95029],[7.77545,44.95046]]},"properties":{}},{"type":"Feature","geometry":{"type":"LineString","coordinates":[[7.77545,44.95046],[7.7749,44.95056],[7.77481,44.95034],[7.77504,44.95029]]},"properties":{}},{"type":"Feature","geometry":{"type":"LineString","coordinates":[[7.77515,44.66195],[7.77539,44.66199]]},"properties":{}},{"type":"Feature","geometry":{"type":"LineString","coordinates":[[7.77596,44.65913],[7.77586,44.65928],[7.77567,44.6598],[7.77558,44.65996],[7.77539,44.66015],[7.77517,44.6603],[7.77489,44.66043],[7.77393,44.66067],[7.77354,44.66082],[7.77339,44.66095],[7.77329,44.66113],[7.77329,44.6614],[7.77339,44.66155],[7.77357,44.66169],[7.77379,44.66176],[7.77515,44.66195]]},"properties":{}},{"type":"Feature","geometry":{"type":"LineString","coordinates":[[7.77515,44.66195],[7.77596,44.65913]]},"properties":{}},{"type":"Feature","geometry":{"type":"LineString","coordinates":[[7.80283,44.66367],[7.80296,44.66371],[7.80313,44.66372],[7.80376,44.66357],[7.80468,44.66343],[7.80568,44.66341],[7.80694,44.66324],[7.80731,44.66322],[7.80806,44.66327],[7.80877,44.66344],[7.80913,44.66359],[7.80941,44.66376],[7.80972,44.66403],[7.8098,44.66427],[7.8098,44.66446],[7.80972,44.66467],[7.80942,44.66493],[7.80912,44.66505],[7.80879,44.6651],[7.80836,44.66507],[7.80756,44.66494],[7.80639,44.66488],[7.80509,44.66493],[7.80399,44.66491],[7.80265,44.66484],[7.78544,44.66337],[7.7816,44.66294],[7.77788,44.66239],[7.77539,44.66199]]},"properties":{}},{"type":"Feature","geometry":{"type":"LineString","coordinates":[[7.77608,44.65961],[7.77539,44.66199]]},"properties":{}},{"type":"Feature","geometry":{"type":"LineString","coordinates":[[7.77545,44.95046],[7.77612,44.9509]]},"properties":{}},{"type":"Feature","geometry":{"type":"LineString","coordinates":[[7.77608,44.65961],[7.77606,44.6599],[7.77595,44.66042],[7.77589,44.66109],[7.77597,44.66144],[7.77615,44.66168],[7.77628,44.66179],[7.7766,44.66197],[7.77739,44.66218],[7.77927,44.66245],[7.78045,44.66268],[7.78304,44.66301],[7.78601,44.66333],[7.80063,44.66457],[7.80326,44.66476],[7.80423,44.66479],[7.80535,44.66479],[7.80667,44.66464],[7.80695,44.66456],[7.80723,44.66442],[7.80744,44.66421],[7.8075,44.664],[7.80745,44.6638],[7.80726,44.66356],[7.807,44.66345],[7.80657,44.66337],[7.80547,44.66351],[7.80488,44.66366],[7.804,44.6638],[7.80312,44.66401],[7.80288,44.66412]]},"properties":{}},{"type":"Feature","geometry":{"type":"LineString","coordinates":[[7.77612,44.9509],[7.77639,44.95115],[7.77673,44.95162],[7.77684,44.95183]]},"properties":{}},{"type":"Feature","geometry":{"type":"LineString","coordinates":[[7.77659,44.9636],[7.77729,44.96307],[7.77735,44.96293],[7.77741,44.96287]]},"properties":{}},{"type":"Feature","geometry":{"type":"LineString","coordinates":[[7.7778,44.96298],[7.77778,44.96306],[7.77771,44.96313],[7.7775,44.96316],[7.77659,44.9636]]},"properties":{}},{"type":"Feature","geometry":{"type":"LineString","coordinates":[[7.77677,44.97047],[7.77954,44.97005],[7.77986,44.97004],[7.78001,44.97008],[7.78014,44.97016],[7.78027,44.97152],[7.78042,44.97211],[7.77802,44.97259],[7.77789,44.97252],[7.77772,44.97234],[7.77738,44.97148],[7.77677,44.97047]]},"properties":{}},{"type":"Feature","geometry":{"type":"LineString","coordinates":[[7.77677,44.95952],[7.77682,44.95965]]},"properties":{}},{"type":"Feature","geometry":{"type":"LineString","coordinates":[[7.77677,44.95952],[7.77851,44.95949],[7.78262,44.95964]]},"properties":{}},{"type":"Feature","geometry":{"type":"LineString","coordinates":[[7.77682,44.95965],[7.77759,44.96232],[7.7776,44.96247]]},"properties":{}},{"type":"Feature","geometry":{"type":"LineString","coordinates":[[7.78245,44.95975],[7.7785,44.95962],[7.77682,44.95965]]},"properties":{}},{"type":"Feature","geometry":{"type":"LineString","coordinates":[[7.77684,44.95183],[7.77699,44.95205],[7.77719,44.95222],[7.78064,44.9545],[7.7833,44.95601],[7.78374,44.95617],[7.7867,44.95683]]},"properties":{}},{"type":"Feature","geometry":{"type":"LineString","coordinates":[[7.77741,44.96287],[7.7776,44.96247]]},"properties":{}},{"type":"Feature","geometry":{"type":"LineString","coordinates":[[7.77741,44.96287],[7.77762,44.96284]]},"properties":{}},{"type":"Feature","geometry":{"type":"LineString","coordinates":[[7.7776,44.96247],[7.77762,44.96284]]},"properties":{}},{"type":"Feature","geometry":{"type":"LineString","coordinates":[[7.77762,44.96284],[7.77765,44.96285]]},"properties":{}},{"type":"Feature","geometry":{"type":"LineString","coordinates":[[7.77765,44.96285],[7.77776,44.96291],[7.7778,44.96298]]},"properties":{}},{"type":"Feature","geometry":{"type":"LineString","coordinates":[[7.77765,44.96285],[7.77816,44.96258],[7.77992,44.96138],[7.78245,44.95975]]},"properties":{}},{"type":"Feature","geometry":{"type":"LineString","coordinates":[[7.78257,44.95975],[7.77996,44.96142],[7.77818,44.96262],[7.7778,44.96298]]},"properties":{}},{"type":"Feature","geometry":{"type":"LineString","coordinates":[[7.78257,44.95975],[7.78245,44.95975]]},"properties":{}},{"type":"Feature","geometry":{"type":"LineString","coordinates":[[7.78245,44.95975],[7.78262,44.95964]]},"properties":{}},{"type":"Feature","geometry":{"type":"LineString","coordinates":[[8.0,44.93238],[7.99436,44.93498],[7.99085,44.93667],[7.98817,44.93811],[7.9864,44.93915],[7.98439,44.94044],[7.97788,44.94495],[7.97668,44.94564],[7.97526,44.94628],[7.97442,44.94662],[7.97251,44.94724],[7.97028,44.94779],[7.96855,44.94806],[7.9612,44.94891],[7.95417,44.94964],[7.94145,44.95105],[7.92322,44.95316],[7.91629,44.95384],[7.91324,44.95411],[7.91055,44.9543],[7.90549,44.95456],[7.86415,44.95616],[7.84169,44.95708],[7.83787,44.95726],[7.81591,44.95855],[7.81279,44.9587],[7.78662,44.95981],[7.78531,44.95981],[7.78257,44.95975]]},"properties":{}},{"type":"Feature","geometry":{"type":"LineString","coordinates":[[7.78274,44.95964],[7.78257,44.95975]]},"properties":{}},{"type":"Feature","geometry":{"type":"LineString","coordinates":[[7.78262,44.95964],[7.78274,44.95964]]},"properties":{}},{"type":"Feature","geometry":{"type":"LineString","coordinates":[[7.78262,44.95964],[7.78516,44.958],[7.78682,44.95714]]},"properties":{}},{"type":"Feature","geometry":{"type":"LineString","coordinates":[[7.78274,44.95964],[7.78544,44.95971],[7.78685,44.95971],[7.81279,44.95862],[7.8159,44.95846],[7.83864,44.95711],[7.86415,44.95607],[7.88975,44.95508],[7.91052,44.95421],[7.91323,44.95402],[7.91489,44.95387],[7.91771,44.95359],[7.92029,44.95328],[7.92083,44.95318],[7.92238,44.95281],[7.92311,44.95269],[7.92353,44.95267],[7.92553,44.95271],[7.92671,44.9526],[7.96853,44.94794],[7.97027,44.94768],[7.97144,44.94743],[7.97253,44.94715],[7.97449,44.94649],[7.97535,44.94613],[7.9766,44.94553],[7.97778,44.94486],[7.97902,44.94406],[7.98141,44.94235],[7.98432,44.94036],[7.98633,44.93906],[7.98809,44.93801],[7.99078,44.93655],[7.99426,44.93488],[8.0,44.93224]]},"properties":{}},{"type":"Feature","geometry":{"type":"LineString","coordinates":[[7.7875,44.95704],[7.78744,44.95708],[7.78674,44.95727],[7.78521,44.95804],[7.78274,44.95964]]},"properties":{}},{"type":"Feature","geometry":{"type":"LineString","coordinates":[[7.7867,44.95683],[7.78706,44.95683],[7.78725,44.95677]]},"properties":{}},{"type":"Feature","geometry":{"type":"LineString","coordinates":[[7.78684,44.95688],[7.7867,44.95683]]},"properties":{}},{"type":"Feature","geometry":{"type":"LineString","coordinates":[[7.78682,44.95714],[7.7869,44.95705],[7.78684,44.95688]]},"properties":{}},{"type":"Feature","geometry":{"type":"LineString","coordinates":[[7.78682,44.95714],[7.78721,44.957],[7.78727,44.95695]]},"properties":{}},{"type":"Feature","geometry":{"type":"LineString","coordinates":[[7.78724,44.9569],[7.78684,44.95688]]},"properties":{}},{"type":"Feature","geometry":{"type":"LineString","coordinates":[[7.78727,44.95695],[7.78724,44.9569]]},"properties":{}},{"type":"Feature","geometry":{"type":"LineString","coordinates":[[7.78724,44.9569],[7.78725,44.95677]]},"properties":{}},{"type":"Feature","geometry":{"type":"LineString","coordinates":[[7.78725,44.95677],[7.7874,44.95666],[7.7876,44.95666]]},"properties":{}},{"type":"Feature","geometry":{"type":"LineString","coordinates":[[7.7875,44.95704],[7.78736,44.95702],[7.78727,44.95695]]},"properties":{}},{"type":"Feature","geometry":{"type":"LineString","coordinates":[[7.78777,44.9569],[7.7877,44.95699],[7.7875,44.95704]]},"properties":{}},{"type":"Feature","geometry":{"type":"LineString","coordinates":[[7.7876,44.95666],[7.78774,44.95673],[7.78777,44.95679],[7.78777,44.9569]]},"properties":{}},{"type":"Feature","geometry":{"type":"LineString","coordinates":[[7.7876,44.95666],[7.78859,44.95633]]},"properties":{}},{"type":"Feature","geometry":{"type":"LineString","coordinates":[[7.78842,44.95644],[7.78777,44.9569]]},"properties":{}},{"type":"Feature","geometry":{"type":"LineString","coordinates":[[7.78859,44.95633],[7.78842,44.95644]]},"properties":{}},{"type":"Feature","geometry":{"type":"LineString","coordinates":[[7.7897,44.95577],[7.78962,44.95591],[7.78934,44.95605],[7.7891,44.95622],[7.78868,44.95643],[7.78842,44.95644]]},"properties":{}},{"type":"Feature","geometry":{"type":"LineString","coordinates":[[7.78859,44.95633],[7.78913,44.95605]]},"properties":{}},{"type":"Feature","geometry":{"type":"LineString","coordinates":[[7.78913,44.95605],[7.78907,44.95599],[7.79021,44.95541],[7.79027,44.95548]]},"properties":{}},{"type":"Feature","geometry":{"type":"LineString","coordinates":[[7.78913,44.95605],[7.7897,44.95577]]},"properties":{}},{"type":"Feature","geometry":{"type":"LineString","coordinates":[[7.7897,44.95577],[7.79027,44.95548]]},"properties":{}},{"type":"Feature","geometry":{"type":"LineString","coordinates":[[7.79027,44.95548],[7.79089,44.95517]]},"properties":{}},{"type":"Feature","geometry":{"type":"LineString","coordinates":[[7.79089,44.95517],[7.79121,44.95498],[7.79129,44.95482],[7.7914,44.95475],[7.79155,44.95474],[7.79166,44.95477],[7.79177,44.9549],[7.79174,44.95501],[7.79158,44.9551],[7.79121,44.95507],[7.79089,44.95517]]},"properties":{}},{"type":"Feature","geometry":{"type":"LineString","coordinates":[[7.80288,44.66412],[7.80273,44.66422],[7.80251,44.66427],[7.8023,44.66426],[7.80205,44.66412],[7.80196,44.66395],[7.80201,44.66377],[7.80217,44.66362],[7.80239,44.66356]]},"properties":{}},{"type":"Feature","geometry":{"type":"LineString","coordinates":[[7.80239,44.66356],[7.80268,44.66332]]},"properties":{}},{"type":"Feature","geometry":{"type":"LineString","coordinates":[[7.80239,44.66356],[7.80265,44.66358]]},"properties":{}},{"type":"Feature","geometry":{"type":"LineString","coordinates":[[7.80265,44.66358],[7.80283,44.66367]]},"properties":{}},{"type":"Feature","geometry":{"type":"LineString","coordinates":[[7.80268,44.66332],[7.80261,44.66345],[7.80265,44.66358]]},"properties":{}},{"type":"Feature","geometry":{"type":"LineString","coordinates":[[7.80268,44.66332],[7.80291,44.6632],[7.80317,44.66316],[7.80751,44.66295],[7.80821,44.66302],[7.8095,44.66332],[7.80984,44.66337],[7.81041,44.66341],[7.8107,44.66339],[7.81104,44.66336],[7.81164,44.66323],[7.81344,44.66254],[7.81397,44.66241],[7.81466,44.66231],[7.81522,44.66211]]},"properties":{}},{"type":"Feature","geometry":{"type":"LineString","coordinates":[[7.80283,44.66367],[7.80291,44.66375],[7.80297,44.66393],[7.80288,44.66412]]},"properties":{}},{"type":"Feature","geometry":{"type":"LineString","coordinates":[[7.80457,44.65237],[7.80485,44.65256],[7.80498,44.65257],[7.80507,44.65261],[7.80511,44.65267],[7.80514,44.65284],[7.80526,44.65305]]},"properties":{}},{"type":"Feature","geometry":{"type":"LineString","coordinates":[[7.80526,44.65305],[7.80504,44.6529],[7.8048,44.65283],[7.80473,44.65278],[7.8047,44.65258],[7.80457,44.65237]]},"properties":{}},{"type":"Feature","geometry":{"type":"LineString","coordinates":[[7.80997,44.65758],[7.80933,44.65701],[7.80526,44.65305]]},"properties":{}},{"type":"Feature","geometry":{"type":"LineString","coordinates":[[7.8066,44.99627],[7.80644,44.99644],[7.80637,44.99668],[7.80638,44.99684],[7.80665,44.99777],[7.80933,44.99829]]},"properties":{}},{"type":"Feature","geometry":{"type":"LineString","coordinates":[[7.8066,44.99627],[7.80648,44.99612],[7.80664,44.996],[7.80683,44.99607],[7.8066,44.99627]]},"properties":{}},{"type":"Feature","geometry":{"type":"LineString","coordinates":[[7.80942,44.99918],[7.80949,44.99901],[7.80945,44.99837],[7.80933,44.99829]]},"properties":{}},{"type":"Feature","geometry":{"type":"LineString","coordinates":[[7.80933,44.99829],[7.80943,44.99817],[7.8094,44.99771]]},"properties":{}},{"type":"Feature","geometry":{"type":"LineString","coordinates":[[7.80953,44.99772],[7.8094,44.99771]]},"properties":{}},{"type":"Feature","geometry":{"type":"LineString","coordinates":[[7.8094,44.99771],[7.80934,44.99767],[7.80933,44.99757],[7.80939,44.99752],[7.80951,44.9975],[7.8096,44.99753],[7.80965,44.99761],[7.8096,44.99769],[7.80953,44.99772]]},"properties":{}},{"type":"Feature","geometry":{"type":"LineString","coordinates":[[7.80962,44.99936],[7.80949,44.9994],[7.80937,44.99937],[7.80933,44.99927],[7.80942,44.99918]]},"properties":{}},{"type":"Feature","geometry":{"type":"LineString","coordinates":[[7.80942,44.99918],[7.80958,44.99919]]},"properties":{}},{"type":"Feature","geometry":{"type":"LineString","coordinates":[[7.80953,44.99772],[7.80952,44.99806],[7.80958,44.99919]]},"properties":{}},{"type":"Feature","geometry":{"type":"LineString","coordinates":[[7.80958,44.99919],[7.80965,44.99927]]},"properties":{}},{"type":"Feature","geometry":{"type":"LineString","coordinates":[[7.80993,44.99938],[7.80962,44.99936]]},"properties":{}},{"type":"Feature","geometry":{"type":"LineString","coordinates":[[7.80965,44.99927],[7.80962,44.99936]]},"properties":{}},{"type":"Feature","geometry":{"type":"LineString","coordinates":[[7.80965,44.99927],[7.80993,44.99938]]},"properties":{}},{"type":"Feature","geometry":{"type":"LineString","coordinates":[[7.80993,44.99938],[7.81031,44.99946],[7.81097,44.99952],[7.8119,44.99969],[7.81283,45.0]]},"properties":{}},{"type":"Feature","geometry":{"type":"LineString","coordinates":[[7.80997,44.65758],[7.8102,44.65772],[7.81034,44.65776]]},"properties":{}},{"type":"Feature","geometry":{"type":"LineString","coordinates":[[7.81011,44.65791],[7.81008,44.65776],[7.80997,44.65758]]},"properties":{}},{"type":"Feature","geometry":{"type":"LineString","coordinates":[[7.8105,44.65828],[7.81037,44.65827],[7.81016,44.65817],[7.8101,44.65809],[7.81008,44.658],[7.81011,44.65791]]},"properties":{}},{"type":"Feature","geometry":{"type":"LineString","coordinates":[[7.81011,44.65791],[7.81017,44.65784],[7.81034,44.65776]]},"properties":{}},{"type":"Feature","geometry":{"type":"LineString","coordinates":[[7.81034,44.65776],[7.81057,44.65775],[7.81076,44.65785]]},"properties":{}},{"type":"Feature","geometry":{"type":"LineString","coordinates":[[7.81083,44.65851],[7.8105,44.65828]]},"properties":{}},{"type":"Feature","geometry":{"type":"LineString","coordinates":[[7.81076,44.65818],[7.8105,44.65828]]},"properties":{}},{"type":"Feature","geometry":{"type":"LineString","coordinates":[[7.81076,44.65818],[7.81077,44.65833],[7.81083,44.65851]]},"properties":{}},{"type":"Feature","geometry":{"type":"LineString","coordinates":[[7.81082,44.6581],[7.81076,44.65818]]},"properties":{}},{"type":"Feature","geometry":{"type":"LineString","coordinates":[[7.81076,44.65785],[7.81135,44.65812]]},"properties":{}},{"type":"Feature","geometry":{"type":"LineString","coordinates":[[7.81076,44.65785],[7.81084,44.65801],[7.81082,44.6581]]},"properties":{}},{"type":"Feature","geometry":{"type":"LineString","coordinates":[[7.81135,44.65812],[7.81102,44.65804],[7.81082,44.6581]]},"properties":{}},{"type":"Feature","geometry":{"type":"LineString","coordinates":[[7.81083,44.65851],[7.81108,44.65878],[7.81145,44.65912],[7.81266,44.66002],[7.813,44.66023],[7.81467,44.66104],[7.81522,44.66136]]},"properties":{}},{"type":"Feature","geometry":{"type":"LineString","coordinates":[[7.81135,44.65812],[7.8122,44.65836],[7.81876,44.6594]]},"properties":{}},{"type":"Feature","geometry":{"type":"LineString","coordinates":[[7.81522,44.66136],[7.81559,44.66155]]},"properties":{}},{"type":"Feature","geometry":{"type":"LineString","coordinates":[[7.81541,44.66169],[7.81537,44.66154],[7.81522,44.66136]]},"properties":{}},{"type":"Feature","geometry":{"type":"LineString","coordinates":[[7.81522,44.66211],[7.81539,44.66187]]},"properties":{}},{"type":"Feature","geometry":{"type":"LineString","coordinates":[[7.81558,44.66204],[7.81539,44.66205],[7.81522,44.66211]]},"properties":{}},{"type":"Feature","geometry":{"type":"LineString","coordinates":[[7.81558,44.66204],[7.81543,44.66194],[7.81539,44.66187]]},"properties":{}},{"type":"Feature","geometry":{"type":"LineString","coordinates":[[7.81539,44.66187],[7.81541,44.66169]]},"properties":{}},{"type":"Feature","geometry":{"type":"LineString","coordinates":[[7.81541,44.66169],[7.81559,44.66155]]},"properties":{}},{"type":"Feature","geometry":{"type":"LineString","coordinates":[[7.81559,44.66155],[7.81581,44.66153],[7.81594,44.66155],[7.8161,44.66167],[7.81614,44.66176],[7.8161,44.66193],[7.81594,44.66204],[7.81581,44.66207],[7.81558,44.66204]]},"properties":{}},{"type":"Feature","geometry":{"type":"LineString","coordinates":[[7.81914,44.6595],[7.81876,44.6594]]},"properties":{}},{"type":"Feature","geometry":{"type":"LineString","coordinates":[[7.81876,44.6594],[7.81916,44.65935]]},"properties":{}},{"type":"Feature","geometry":{"type":"LineString","coordinates":[[7.81954,44.65956],[7.81933,44.65961],[7.8192,44.65956],[7.81914,44.6595]]},"properties":{}},{"type":"Feature","geometry":{"type":"LineString","coordinates":[[7.81914,44.6595],[7.81913,44.65941],[7.81916,44.65935]]},"properties":{}},{"type":"Feature","geometry":{"type":"LineString","coordinates":[[7.81916,44.65935],[7.81924,44.65929],[7.81938,44.65926],[7.81951,44.65929],[7.81961,44.65939]]},"properties":{}},{"type":"Feature","geometry":{"type":"LineString","coordinates":[[7.82003,44.65961],[7.81954,44.65956]]},"properties":{}},{"type":"Feature","geometry":{"type":"LineString","coordinates":[[7.81961,44.65939],[7.81961,44.65948],[7.81954,44.65956]]},"properties":{}},{"type":"Feature","geometry":{"type":"LineString","coordinates":[[7.81961,44.65939],[7.82003,44.65961]]},"properties":{}},{"type":"Feature","geometry":{"type":"LineString","coordinates":[[7.82003,44.65961],[7.82105,44.65983],[7.82212,44.66017],[7.8227,44.66041],[7.82357,44.66087],[7.82623,44.66273],[7.82897,44.66481],[7.83019,44.66569],[7.83282,44.66702]]},"properties":{}},{"type":"Feature","geometry":{"type":"LineString","coordinates":[[7.83282,44.66702],[7.8331,44.66715]]},"properties":{}},{"type":"Feature","geometry":{"type":"LineString","coordinates":[[7.8329,44.66721],[7.83282,44.66702]]},"properties":{}},{"type":"Feature","geometry":{"type":"LineString","coordinates":[[7.83322,44.66736],[7.83313,44.66741],[7.83297,44.6674],[7.83287,44.66731],[7.8329,44.66721]]},"properties":{}},{"type":"Feature","geometry":{"type":"LineString","coordinates":[[7.8329,44.66721],[7.83299,44.66716],[7.8331,44.66715]]},"properties":{}},{"type":"Feature","geometry":{"type":"LineString","coordinates":[[7.8331,44.66715],[7.8332,44.6672]]},"properties":{}},{"type":"Feature","geometry":{"type":"LineString","coordinates":[[7.8332,44.6672],[7.83364,44.66736]]},"properties":{}},{"type":"Feature","geometry":{"type":"LineString","coordinates":[[7.8332,44.6672],[7.83325,44.66728],[7.83322,44.66736]]},"properties":{}},{"type":"Feature","geometry":{"type":"LineString","coordinates":[[7.83364,44.66736],[7.83322,44.66736]]},"properties":{}},{"type":"Feature","geometry":{"type":"LineString","coordinates":[[7.8398,44.66976],[7.83364,44.66736]]},"properties":{}},{"type":"Feature","geometry":{"type":"LineString","coordinates":[[7.83502,45.0],[7.83515,44.99983]]},"properties":{}},{"type":"Feature","geometry":{"type":"LineString","coordinates":[[7.83515,44.99983],[7.83537,44.99951],[7.8354,44.99936],[7.83547,44.99929]]},"properties":{}},{"type":"Feature","geometry":{"type":"LineString","coordinates":[[7.83547,44.99929],[7.8355,44.99956],[7.83558,44.99965],[7.83556,44.99971],[7.83548,44.99976],[7.83529,44.99977],[7.83515,44.99983]]},"properties":{}},{"type":"Feature","geometry":{"type":"LineString","coordinates":[[7.83547,44.99929],[7.83649,44.99777],[7.83699,44.99691]]},"properties":{}},{"type":"Feature","geometry":{"type":"LineString","coordinates":[[7.83699,44.99691],[7.83703,44.99669],[7.83694,44.9966],[7.83693,44.99647],[7.83707,44.99632],[7.83711,44.99616]]},"properties":{}},{"type":"Feature","geometry":{"type":"LineString","coordinates":[[7.83711,44.99616],[7.83719,44.99623],[7.8375,44.99636],[7.83756,44.99644],[7.83758,44.99652],[7.8375,44.99667],[7.83731,44.99675],[7.8372,44.99675],[7.83709,44.9968],[7.83699,44.99691]]},"properties":{}},{"type":"Feature","geometry":{"type":"LineString","coordinates":[[7.83711,44.99616],[7.83701,44.99583],[7.83693,44.99499],[7.83677,44.99014],[7.83683,44.98922],[7.83695,44.98853],[7.8398,44.97583]]},"properties":{}},{"type":"Feature","geometry":{"type":"LineString","coordinates":[[7.8398,44.66976],[7.84019,44.66984],[7.84057,44.66985]]},"properties":{}},{"type":"Feature","geometry":{"type":"LineString","coordinates":[[7.84056,44.67005],[7.8398,44.66976]]},"properties":{}},{"type":"Feature","geometry":{"type":"LineString","coordinates":[[7.83988,44.97539],[7.84096,44.96813]]},"properties":{}},{"type":"Feature","geometry":{"type":"LineString","coordinates":[[7.8407,44.6701],[7.84056,44.67005]]},"properties":{}},{"type":"Feature","geometry":{"type":"LineString","coordinates":[[7.84056,44.67005],[7.84051,44.66997],[7.84057,44.66985]]},"properties":{}},{"type":"Feature","geometry":{"type":"LineString","coordinates":[[7.84057,44.66985],[7.84074,44.66981],[7.84085,44.66985],[7.84091,44.66992],[7.84089,44.67002]]},"properties":{}},{"type":"Feature","geometry":{"type":"LineString","coordinates":[[7.84117,44.67028],[7.8407,44.6701]]},"properties":{}},{"type":"Feature","geometry":{"type":"LineString","coordinates":[[7.84089,44.67002],[7.84081,44.67008],[7.8407,44.6701]]},"properties":{}},{"type":"Feature","geometry":{"type":"LineString","coordinates":[[7.84089,44.67002],[7.841,44.67017],[7.84117,44.67028]]},"properties":{}},{"type":"Feature","geometry":{"type":"LineString","coordinates":[[7.84096,44.96813],[7.84134,44.96557],[7.84134,44.96553],[7.84126,44.9655],[7.84124,44.96545],[7.84128,44.96539],[7.84137,44.96537]]},"properties":{}},{"type":"Feature","geometry":{"type":"LineString","coordinates":[[7.84145,44.96542],[7.84186,44.96558],[7.84455,44.96722],[7.84478,44.96737],[7.8448,44.96743],[7.84472,44.96748],[7.84434,44.96748],[7.84277,44.96776],[7.84096,44.96813]]},"properties":{}},{"type":"Feature","geometry":{"type":"LineString","coordinates":[[7.84117,44.67028],[7.84205,44.67067],[7.84232,44.67091],[7.84246,44.67115],[7.84279,44.67203],[7.84453,44.67699],[7.84473,44.67745],[7.84871,44.68289],[7.84947,44.68385]]},"properties":{}},{"type":"Feature","geometry":{"type":"LineString","coordinates":[[7.84878,44.69426],[7.84802,44.69452],[7.84797,44.69435],[7.84799,44.69426],[7.84795,44.6941],[7.8487,44.694],[7.84878,44.69426]]},"properties":{}},{"type":"Feature","geometry":{"type":"LineString","coordinates":[[7.84878,44.69426],[7.84884,44.69424]]},"properties":{}},{"type":"Feature","geometry":{"type":"LineString","coordinates":[[7.84884,44.69424],[7.84921,44.69406]]},"properties":{}},{"type":"Feature","geometry":{"type":"LineString","coordinates":[[7.84924,44.69413],[7.84884,44.69424]]},"properties":{}},{"type":"Feature","geometry":{"type":"LineString","coordinates":[[7.84924,44.69413],[7.84921,44.69406]]},"properties":{}},{"type":"Feature","geometry":{"type":"LineString","coordinates":[[7.84921,44.69406],[7.84932,44.694]]},"properties":{}},{"type":"Feature","geometry":{"type":"LineString","coordinates":[[7.84941,44.69405],[7.84937,44.69413],[7.84924,44.69413]]},"properties":{}},{"type":"Feature","geometry":{"type":"LineString","coordinates":[[7.84932,44.694],[7.84941,44.69405]]},"properties":{}},{"type":"Feature","geometry":{"type":"LineString","coordinates":[[7.84932,44.694],[7.84959,44.69378],[7.85007,44.69355]]},"properties":{}},{"type":"Feature","geometry":{"type":"LineString","coordinates":[[7.85007,44.69355],[7.85009,44.69362],[7.85005,44.69366],[7.84973,44.69383],[7.84941,44.69405]]},"properties":{}},{"type":"Feature","geometry":{"type":"LineString","coordinates":[[7.84947,44.68385],[7.84975,44.68411],[7.8499,44.6842]]},"properties":{}},{"type":"Feature","geometry":{"type":"LineString","coordinates":[[7.84976,44.68427],[7.84947,44.68385]]},"properties":{}},{"type":"Feature","geometry":{"type":"LineString","coordinates":[[7.84993,44.68446],[7.84977,44.68439],[7.84974,44.68433],[7.84976,44.68427]]},"properties":{}},{"type":"Feature","geometry":{"type":"LineString","coordinates":[[7.84976,44.68427],[7.8499,44.6842]]},"properties":{}},{"type":"Feature","geometry":{"type":"LineString","coordinates":[[7.8499,44.6842],[7.85,44.68421],[7.8501,44.6843],[7.8501,44.68437],[7.85003,44.68443]]},"properties":{}},{"type":"Feature","geometry":{"type":"LineString","coordinates":[[7.8501,44.68473],[7.84993,44.68446]]},"properties":{}},{"type":"Feature","geometry":{"type":"LineString","coordinates":[[7.85003,44.68443],[7.84993,44.68446]]},"properties":{}},{"type":"Feature","geometry":{"type":"LineString","coordinates":[[7.85003,44.68443],[7.8501,44.68473]]},"properties":{}},{"type":"Feature","geometry":{"type":"LineString","coordinates":[[7.85007,44.69355],[7.85022,44.69347],[7.85103,44.69325],[7.85254,44.6927],[7.85352,44.69244]]},"properties":{}},{"type":"Feature","geometry":{"type":"LineString","coordinates":[[7.8501,44.68473],[7.85025,44.68495],[7.85087,44.68568],[7.85161,44.68636],[7.85243,44.68703],[7.85344,44.68759],[7.85365,44.68776],[7.85397,44.68842],[7.85462,44.68956],[7.85469,44.69009]]},"properties":{}},{"type":"Feature","geometry":{"type":"LineString","coordinates":[[7.85352,44.69244],[7.8541,44.69235],[7.85484,44.69228]]},"properties":{}},{"type":"Feature","geometry":{"type":"LineString","coordinates":[[7.85483,44.69236],[7.85352,44.69244]]},"properties":{}},{"type":"Feature","geometry":{"type":"LineString","coordinates":[[7.85469,44.69009],[7.85482,44.69024]]},"properties":{}},{"type":"Feature","geometry":{"type":"LineString","coordinates":[[7.85471,44.6903],[7.85469,44.69009]]},"properties":{}},{"type":"Feature","geometry":{"type":"LineString","coordinates":[[7.85475,44.69038],[7.85471,44.6903]]},"properties":{}},{"type":"Feature","geometry":{"type":"LineString","coordinates":[[7.85471,44.6903],[7.85482,44.69024]]},"properties":{}},{"type":"Feature","geometry":{"type":"LineString","coordinates":[[7.85488,44.69038],[7.85475,44.69038]]},"properties":{}},{"type":"Feature","geometry":{"type":"LineString","coordinates":[[7.85477,44.69074],[7.85475,44.69038]]},"properties":{}},{"type":"Feature","geometry":{"type":"LineString","coordinates":[[7.85477,44.69074],[7.85492,44.69181]]},"properties":{}},{"type":"Feature","geometry":{"type":"LineString","coordinates":[[7.85488,44.69038],[7.85477,44.69074]]},"properties":{}},{"type":"Feature","geometry":{"type":"LineString","coordinates":[[7.85482,44.69024],[7.85491,44.69029],[7.85491,44.69033],[7.85488,44.69038]]},"properties":{}},{"type":"Feature","geometry":{"type":"LineString","coordinates":[[7.85505,44.69238],[7.85493,44.69242],[7.85483,44.69236]]},"properties":{}},{"type":"Feature","geometry":{"type":"LineString","coordinates":[[7.85483,44.69236],[7.85484,44.69228]]},"properties":{}},{"type":"Feature","geometry":{"type":"LineString","coordinates":[[7.85484,44.69228],[7.85489,44.69225]]},"properties":{}},{"type":"Feature","geometry":{"type":"LineString","coordinates":[[7.85489,44.69225],[7.85492,44.69214],[7.85492,44.69181]]},"properties":{}},{"type":"Feature","geometry":{"type":"LineString","coordinates":[[7.85489,44.69225],[7.85502,44.69225]]},"properties":{}},{"type":"Feature","geometry":{"type":"LineString","coordinates":[[7.85492,44.69181],[7.85502,44.69225]]},"properties":{}},{"type":"Feature","geometry":{"type":"LineString","coordinates":[[7.85502,44.69225],[7.85507,44.69229]]},"properties":{}},{"type":"Feature","geometry":{"type":"LineString","coordinates":[[7.85507,44.69229],[7.85505,44.69238]]},"properties":{}},{"type":"Feature","geometry":{"type":"LineString","coordinates":[[7.85675,44.69271],[7.85583,44.69246],[7.85534,44.69239],[7.85505,44.69238]]},"properties":{}},{"type":"Feature","geometry":{"type":"LineString","coordinates":[[7.85507,44.69229],[7.85595,44.69243],[7.85637,44.69255],[7.85675,44.69271]]},"properties":{}},{"type":"Feature","geometry":{"type":"LineString","coordinates":[[7.85675,44.69271],[7.85762,44.69312]]},"properties":{}},{"type":"Feature","geometry":{"type":"LineString","coordinates":[[7.85762,44.69312],[7.85803,44.69326]]},"properties":{}},{"type":"Feature","geometry":{"type":"LineString","coordinates":[[7.85794,44.69333],[7.85762,44.69312]]},"properties":{}},{"type":"Feature","geometry":{"type":"LineString","coordinates":[[7.85805,44.69338],[7.85797,44.69337],[7.85794,44.69333]]},"properties":{}},{"type":"Feature","geometry":{"type":"LineString","coordinates":[[7.85794,44.69333],[7.85797,44.69327],[7.85803,44.69326]]},"properties":{}},{"type":"Feature","geometry":{"type":"LineString","coordinates":[[7.85803,44.69326],[7.85809,44.69327],[7.85812,44.69332]]},"properties":{}},{"type":"Feature","geometry":{"type":"LineString","coordinates":[[7.85842,44.69358],[7.85805,44.69338]]},"properties":{}},{"type":"Feature","geometry":{"type":"LineString","coordinates":[[7.85812,44.69332],[7.85805,44.69338]]},"properties":{}},{"type":"Feature","geometry":{"type":"LineString","coordinates":[[7.85812,44.69332],[7.85842,44.69358]]},"properties":{}},{"type":"Feature","geometry":{"type":"LineString","coordinates":[[7.85911,44.69416],[7.85866,44.69374],[7.85842,44.69358]]},"properties":{}},{"type":"Feature","geometry":{"type":"LineString","coordinates":[[7.85911,44.69416],[7.85938,44.6943]]},"properties":{}},{"type":"Feature","geometry":{"type":"LineString","coordinates":[[7.85927,44.69437],[7.85911,44.69416]]},"properties":{}},{"type":"Feature","geometry":{"type":"LineString","coordinates":[[7.85961,44.69443],[7.85952,44.69452],[7.85937,44.69453],[7.85928,44.69447],[7.85927,44.69437]]},"properties":{}},{"type":"Feature","geometry":{"type":"LineString","coordinates":[[7.85927,44.69437],[7.85938,44.6943]]},"properties":{}},{"type":"Feature","geometry":{"type":"LineString","coordinates":[[7.85938,44.6943],[7.85955,44.69432]]},"properties":{}},{"type":"Feature","geometry":{"type":"LineString","coordinates":[[7.85955,44.69432],[7.85961,44.69443]]},"properties":{}},{"type":"Feature","geometry":{"type":"LineString","coordinates":[[7.85955,44.69432],[7.85988,44.69429]]},"properties":{}},{"type":"Feature","geometry":{"type":"LineString","coordinates":[[7.85988,44.69429],[7.85972,44.69435],[7.85961,44.69443]]},"properties":{}},{"type":"Feature","geometry":{"type":"LineString","coordinates":[[7.85988,44.69429],[7.86029,44.69414],[7.86041,44.69405],[7.86062,44.69366],[7.86077,44.6936],[7.86089,44.69363],[7.86094,44.69371],[7.86092,44.69381],[7.86032,44.69488],[7.86029,44.69506],[7.86032,44.69512],[7.86042,44.69522],[7.86309,44.69711],[7.86341,44.69726],[7.86369,44.69728],[7.87109,44.69622],[7.87149,44.69628],[7.87268,44.69663],[7.87387,44.69715],[7.87629,44.6977],[7.87925,44.69825],[7.87968,44.6983],[7.88015,44.69826],[7.90157,44.69525],[7.90264,44.69514],[7.90996,44.69459]]},"properties":{}},{"type":"Feature","geometry":{"type":"LineString","coordinates":[[7.90996,44.69459],[7.91045,44.69452]]},"properties":{}},{"type":"Feature","geometry":{"type":"LineString","coordinates":[[7.91044,44.69464],[7.9102,44.69459],[7.90996,44.69459]]},"properties":{}},{"type":"Feature","geometry":{"type":"LineString","coordinates":[[7.91074,44.69454],[7.91072,44.69465],[7.91064,44.69469],[7.91052,44.69469],[7.91044,44.69464]]},"properties":{}},{"type":"Feature","geometry":{"type":"LineString","coordinates":[[7.91044,44.69464],[7.91045,44.69452]]},"properties":{}},{"type":"Feature","geometry":{"type":"LineString","coordinates":[[7.91045,44.69452],[7.91051,44.69447],[7.91061,44.69446],[7.91074,44.69454]]},"properties":{}},{"type":"Feature","geometry":{"type":"LineString","coordinates":[[7.91074,44.69454],[7.91217,44.69439],[7.92976,44.69222],[7.93101,44.69212],[7.93174,44.69213],[7.93244,44.69224],[7.93977,44.69394]]},"properties":{}},{"type":"Feature","geometry":{"type":"LineString","coordinates":[[7.92922,44.68036],[7.9291,44.68039],[7.92898,44.68034],[7.92896,44.68026],[7.92904,44.68019]]},"properties":{}},{"type":"Feature","geometry":{"type":"LineString","coordinates":[[7.92904,44.68019],[7.92913,44.68006],[7.92916,44.67991]]},"properties":{}},{"type":"Feature","geometry":{"type":"LineString","coordinates":[[7.92904,44.68019],[7.92921,44.6802]]},"properties":{}},{"type":"Feature","geometry":{"type":"LineString","coordinates":[[7.92916,44.67991],[7.92921,44.6802]]},"properties":{}},{"type":"Feature","geometry":{"type":"LineString","coordinates":[[7.93203,44.6771],[7.93211,44.67721],[7.93214,44.67733],[7.93212,44.67746],[7.93203,44.67763],[7.93122,44.6783],[7.92941,44.67944],[7.92925,44.67962],[7.92917,44.67977],[7.92916,44.67991]]},"properties":{}},{"type":"Feature","geometry":{"type":"LineString","coordinates":[[7.92921,44.6802],[7.92926,44.68027]]},"properties":{}},{"type":"Feature","geometry":{"type":"LineString","coordinates":[[7.92957,44.68038],[7.92922,44.68036]]},"properties":{}},{"type":"Feature","geometry":{"type":"LineString","coordinates":[[7.92926,44.68027],[7.92922,44.68036]]},"properties":{}},{"type":"Feature","geometry":{"type":"LineString","coordinates":[[7.92926,44.68027],[7.92957,44.68038]]},"properties":{}},{"type":"Feature","geometry":{"type":"LineString","coordinates":[[7.92957,44.68038],[7.93131,44.68062],[7.93221,44.6808],[7.93262,44.68092],[7.9334,44.68134],[7.93386,44.68152],[7.93774,44.68291],[7.93906,44.68331],[7.93964,44.68342],[7.94019,44.68347],[7.94635,44.68353],[7.94679,44.6835],[7.94824,44.68323],[7.94859,44.68322],[7.94902,44.68329],[7.94996,44.6836],[7.95036,44.6837],[7.95685,44.68459]]},"properties":{}},{"type":"Feature","geometry":{"type":"LineString","coordinates":[[7.9314,44.67671],[7.93094,44.6764],[7.93043,44.67592],[7.93036,44.67576],[7.93036,44.67557],[7.93044,44.67542]]},"properties":{}},{"type":"Feature","geometry":{"type":"LineString","coordinates":[[7.93044,44.67542],[7.93068,44.67517]]},"properties":{}},{"type":"Feature","geometry":{"type":"LineString","coordinates":[[7.93074,44.67525],[7.93044,44.67542]]},"properties":{}},{"type":"Feature","geometry":{"type":"LineString","coordinates":[[7.93074,44.67525],[7.93068,44.67517]]},"properties":{}},{"type":"Feature","geometry":{"type":"LineString","coordinates":[[7.93068,44.67517],[7.9307,44.67509],[7.93083,44.67504]]},"properties":{}},{"type":"Feature","geometry":{"type":"LineString","coordinates":[[7.931,44.6752],[7.93089,44.67527],[7.93074,44.67525]]},"properties":{}},{"type":"Feature","geometry":{"type":"LineString","coordinates":[[7.93083,44.67504],[7.93098,44.67509],[7.931,44.6752]]},"properties":{}},{"type":"Feature","geometry":{"type":"LineString","coordinates":[[7.931,44.6752],[7.93195,44.67567],[7.93243,44.67584],[7.93276,44.67588],[7.93309,44.67586],[7.93333,44.67582],[7.93369,44.67566],[7.93522,44.67479],[7.93533,44.67469],[7.9354,44.67455],[7.93541,44.67444],[7.93521,44.67371],[7.93497,44.67341],[7.93444,44.67306],[7.93433,44.67301],[7.93423,44.67302],[7.934,44.67319],[7.93378,44.67322],[7.93299,44.67307],[7.93289,44.67311],[7.93267,44.67335],[7.93211,44.67382],[7.93107,44.67464],[7.93093,44.6748],[7.93083,44.67504]]},"properties":{}},{"type":"Feature","geometry":{"type":"LineString","coordinates":[[7.9314,44.67671],[7.93169,44.6768]]},"properties":{}},{"type":"Feature","geometry":{"type":"LineString","coordinates":[[7.93164,44.67686],[7.9314,44.67671]]},"properties":{}},{"type":"Feature","geometry":{"type":"LineString","coordinates":[[7.93183,44.67698],[7.93169,44.67697],[7.93164,44.67692],[7.93164,44.67686]]},"properties":{}},{"type":"Feature","geometry":{"type":"LineString","coordinates":[[7.93164,44.67686],[7.93169,44.6768]]},"properties":{}},{"type":"Feature","geometry":{"type":"LineString","coordinates":[[7.93169,44.6768],[7.93178,44.67679],[7.93186,44.67681],[7.93192,44.67686],[7.9319,44.67693]]},"properties":{}},{"type":"Feature","geometry":{"type":"LineString","coordinates":[[7.93203,44.6771],[7.93183,44.67698]]},"properties":{}},{"type":"Feature","geometry":{"type":"LineString","coordinates":[[7.9319,44.67693],[7.93183,44.67698]]},"properties":{}},{"type":"Feature","geometry":{"type":"LineString","coordinates":[[7.9319,44.67693],[7.93203,44.6771]]},"properties":{}},{"type":"Feature","geometry":{"type":"LineString","coordinates":[[7.94031,44.69406],[7.94021,44.69416],[7.93996,44.6942],[7.93978,44.69409],[7.93977,44.69394]]},"properties":{}},{"type":"Feature","geometry":{"type":"LineString","coordinates":[[7.93977,44.69394],[7.93992,44.69381],[7.94016,44.69382],[7.94031,44.69395],[7.94031,44.69406]]},"properties":{}},{"type":"Feature","geometry":{"type":"LineString","coordinates":[[7.94031,44.69406],[7.94261,44.69458]]},"properties":{}},{"type":"Feature","geometry":{"type":"LineString","coordinates":[[7.94261,44.69458],[7.9435,44.69472],[7.94394,44.69466],[7.94404,44.6947],[7.94414,44.69482],[7.94428,44.6949],[7.94482,44.69508]]},"properties":{}},{"type":"Feature","geometry":{"type":"LineString","coordinates":[[7.94482,44.69508],[7.94466,44.69508],[7.94425,44.695],[7.94379,44.69506],[7.94368,44.69501],[7.94359,44.6949],[7.94334,44.69478],[7.94261,44.69458]]},"properties":{}},{"type":"Feature","geometry":{"type":"LineString","coordinates":[[7.94482,44.69508],[7.95842,44.69828],[7.96968,44.70087]]},"properties":{}},{"type":"Feature","geometry":{"type":"LineString","coordinates":[[7.95685,44.68459],[7.95718,44.68466],[7.95739,44.68466]]},"properties":{}},{"type":"Feature","geometry":{"type":"LineString","coordinates":[[7.95713,44.68486],[7.95702,44.6847],[7.95685,44.68459]]},"properties":{}},{"type":"Feature","geometry":{"type":"LineString","coordinates":[[7.95769,44.68483],[7.95764,44.68497],[7.95744,44.68506],[7.95722,44.68501],[7.95715,44.68495],[7.95713,44.68486]]},"properties":{}},{"type":"Feature","geometry":{"type":"LineString","coordinates":[[7.95713,44.68486],[7.95719,44.68474],[7.95739,44.68466]]},"properties":{}},{"type":"Feature","geometry":{"type":"LineString","coordinates":[[7.95739,44.68466],[7.95748,44.68467]]},"properties":{}},{"type":"Feature","geometry":{"type":"LineString","coordinates":[[7.95748,44.68467],[7.9576,44.68471],[7.95769,44.68483]]},"properties":{}},{"type":"Feature","geometry":{"type":"LineString","coordinates":[[7.95748,44.68467],[7.95804,44.68463]]},"properties":{}},{"type":"Feature","geometry":{"type":"LineString","coordinates":[[7.95804,44.68463],[7.9578,44.68472],[7.95769,44.68483]]},"properties":{}},{"type":"Feature","geometry":{"type":"LineString","coordinates":[[7.95804,44.68463],[7.95866,44.68456],[7.95905,44.68456],[7.96084,44.68471],[7.96258,44.68478],[7.96383,44.685],[7.9648,44.68511],[7.96709,44.6852],[7.96791,44.6852],[7.96882,44.68515],[7.97083,44.68491]]},"properties":{}},{"type":"Feature","geometry":{"type":"LineString","coordinates":[[7.96968,44.70087],[7.97017,44.70093],[7.97034,44.70092],[7.97053,44.70103],[7.97088,44.70114]]},"properties":{}},{"type":"Feature","geometry":{"type":"LineString","coordinates":[[7.97088,44.70114],[7.97055,44.70112],[7.97036,44.70119],[7.97022,44.7012],[7.97011,44.70115],[7.97001,44.701],[7.96968,44.70087]]},"properties":{}},{"type":"Feature","geometry":{"type":"LineString","coordinates":[[7.97083,44.68491],[7.97128,44.68472]]},"properties":{}},{"type":"Feature","geometry":{"type":"LineString","coordinates":[[7.97134,44.68483],[7.97083,44.68491]]},"properties":{}},{"type":"Feature","geometry":{"type":"LineString","coordinates":[[7.97088,44.70114],[7.9836,44.70409]]},"properties":{}},{"type":"Feature","geometry":{"type":"LineString","coordinates":[[7.97134,44.68483],[7.97128,44.68479],[7.97128,44.68472]]},"properties":{}},{"type":"Feature","geometry":{"type":"LineString","coordinates":[[7.97128,44.68472],[7.97134,44.68467]]},"properties":{}},{"type":"Feature","geometry":{"type":"LineString","coordinates":[[7.97134,44.68467],[7.97141,44.6845]]},"properties":{}},{"type":"Feature","geometry":{"type":"LineString","coordinates":[[7.97134,44.68467],[7.97147,44.68467]]},"properties":{}},{"type":"Feature","geometry":{"type":"LineString","coordinates":[[7.97147,44.68467],[7.97154,44.68472],[7.97153,44.68479],[7.97147,44.68484],[7.97134,44.68483]]},"properties":{}},{"type":"Feature","geometry":{"type":"LineString","coordinates":[[7.97141,44.6845],[7.97147,44.68467]]},"properties":{}},{"type":"Feature","geometry":{"type":"LineString","coordinates":[[7.98478,44.67935],[7.98298,44.67762],[7.98274,44.67742],[7.98248,44.67727],[7.97883,44.67597],[7.97759,44.67577],[7.97673,44.67574],[7.97524,44.67594],[7.97401,44.67602],[7.97326,44.67616],[7.97242,44.67638],[7.97206,44.67643],[7.97115,44.6765],[7.97003,44.67666],[7.96797,44.67686],[7.96498,44.67746],[7.96442,44.67747],[7.96328,44.6774],[7.96329,44.67755],[7.96339,44.67767],[7.964,44.67799],[7.9646,44.67843],[7.96489,44.67857],[7.96522,44.67866],[7.96576,44.67869],[7.96651,44.67861],[7.96702,44.67862],[7.96743,44.67867],[7.96832,44.6789],[7.96875,44.67897],[7.97014,44.67894],[7.97086,44.67883],[7.97166,44.67878],[7.97246,44.67894],[7.97314,44.67899],[7.97322,44.67929],[7.9734,44.67957],[7.97368,44.68],[7.97388,44.68015],[7.97509,44.6806],[7.97587,44.68066],[7.97589,44.68074],[7.97581,44.68079],[7.97455,44.68092],[7.97407,44.6809],[7.97301,44.68077],[7.97257,44.68058],[7.97222,44.68038],[7.97208,44.68035],[7.97153,44.68041],[7.97132,44.68049],[7.97061,44.68112],[7.97054,44.68122],[7.97059,44.68128],[7.97069,44.68129],[7.97123,44.68107],[7.97139,44.68109],[7.97146,44.68112],[7.97186,44.6817],[7.97188,44.68186],[7.97141,44.6845]]},"properties":{}},{"type":"Feature","geometry":{"type":"LineString","coordinates":[[7.97775,44.64635],[7.97661,44.64546],[7.97638,44.64527],[7.97617,44.64503],[7.97662,44.64441],[7.97718,44.64346],[7.97744,44.64232],[7.97749,44.64194],[7.97745,44.64082],[7.97746,44.64041],[7.9775,44.64029],[7.97755,44.64021],[7.97811,44.63984],[7.97822,44.63973],[7.97833,44.63956],[7.97839,44.6394],[7.97843,44.63911],[7.97848,44.63849],[7.97861,44.63756],[7.97859,44.63741],[7.97848,44.63737],[7.97841,44.63741],[7.97831,44.63787],[7.97816,44.63802],[7.97803,44.63805],[7.97768,44.63806],[7.97743,44.63801],[7.97688,44.63782],[7.97679,44.63773],[7.97683,44.63765],[7.97696,44.63764],[7.97723,44.63774],[7.97752,44.63779],[7.97774,44.63774],[7.97789,44.63759],[7.97793,44.63742],[7.9779,44.63703],[7.97802,44.63616],[7.97806,44.6355],[7.978,44.6349],[7.97805,44.63477],[7.97817,44.63461],[7.97834,44.6342],[7.97826,44.63389],[7.97783,44.63334],[7.97779,44.63322],[7.97779,44.63305],[7.97814,44.63126],[7.97837,44.63077],[7.97846,44.63048],[7.97857,44.63005],[7.97857,44.62987],[7.97843,44.62949],[7.97773,44.62868],[7.97681,44.62785],[7.97644,44.62761],[7.97623,44.6274],[7.97531,44.62597],[7.97515,44.62567],[7.97478,44.62442],[7.97492,44.62378],[7.97492,44.62363],[7.97472,44.62299],[7.97458,44.62276]]},"properties":{}},{"type":"Feature","geometry":{"type":"LineString","coordinates":[[7.97458,44.62276],[7.97444,44.62275],[7.97427,44.62246],[7.97428,44.62242],[7.97435,44.6224],[7.97458,44.62276]]},"properties":{}},{"type":"Feature","geometry":{"type":"LineString","coordinates":[[7.97775,44.64635],[7.97802,44.64657]]},"properties":{}},{"type":"Feature","geometry":{"type":"LineString","coordinates":[[7.97785,44.64664],[7.97775,44.64635]]},"properties":{}},{"type":"Feature","geometry":{"type":"LineString","coordinates":[[7.97808,44.6469],[7.97794,44.64689],[7.97784,44.64683],[7.9778,44.64674],[7.97785,44.64664]]},"properties":{}},{"type":"Feature","geometry":{"type":"LineString","coordinates":[[7.97785,44.64664],[7.97802,44.64657]]},"properties":{}},{"type":"Feature","geometry":{"type":"LineString","coordinates":[[7.97802,44.64657],[7.97819,44.64661],[7.97826,44.6467],[7.97827,44.64675]]},"properties":{}},{"type":"Feature","geometry":{"type":"LineString","coordinates":[[7.97856,44.64724],[7.97839,44.64701],[7.97826,44.64694],[7.97808,44.6469]]},"properties":{}},{"type":"Feature","geometry":{"type":"LineString","coordinates":[[7.97827,44.64675],[7.97824,44.64682],[7.97808,44.6469]]},"properties":{}},{"type":"Feature","geometry":{"type":"LineString","coordinates":[[7.97827,44.64675],[7.97846,44.647],[7.97856,44.64724]]},"properties":{}},{"type":"Feature","geometry":{"type":"LineString","coordinates":[[7.98012,44.66095],[7.98031,44.65949],[7.98064,44.65832],[7.98069,44.65693],[7.98066,44.65633],[7.98049,44.65574],[7.98024,44.65533],[7.97993,44.65467],[7.97973,44.6541],[7.97898,44.65247],[7.97892,44.65224],[7.97891,44.65208],[7.97896,44.65192],[7.97939,44.65112],[7.97947,44.6508],[7.97947,44.65053],[7.97935,44.64914],[7.97887,44.6479],[7.97856,44.64724]]},"properties":{}},{"type":"Feature","geometry":{"type":"LineString","coordinates":[[7.98002,44.66111],[7.98014,44.66113]]},"properties":{}},{"type":"Feature","geometry":{"type":"LineString","coordinates":[[7.9801,44.66135],[7.97996,44.66134],[7.97986,44.66125],[7.97988,44.66117],[7.98002,44.66111]]},"properties":{}},{"type":"Feature","geometry":{"type":"LineString","coordinates":[[7.98002,44.66111],[7.98012,44.66095]]},"properties":{}},{"type":"Feature","geometry":{"type":"LineString","coordinates":[[7.98023,44.66142],[7.9801,44.66135]]},"properties":{}},{"type":"Feature","geometry":{"type":"LineString","coordinates":[[7.9802,44.66128],[7.9801,44.66135]]},"properties":{}},{"type":"Feature","geometry":{"type":"LineString","coordinates":[[7.98012,44.66095],[7.98014,44.66113]]},"properties":{}},{"type":"Feature","geometry":{"type":"LineString","coordinates":[[7.98014,44.66113],[7.98021,44.6612],[7.9802,44.66128]]},"properties":{}},{"type":"Feature","geometry":{"type":"LineString","coordinates":[[7.9802,44.66128],[7.98023,44.66142]]},"properties":{}},{"type":"Feature","geometry":{"type":"LineString","coordinates":[[7.98244,44.66477],[7.98023,44.66142]]},"properties":{}},{"type":"Feature","geometry":{"type":"LineString","coordinates":[[7.98249,44.66516],[7.98234,44.66514],[7.98228,44.66508],[7.9823,44.66501],[7.98239,44.66496]]},"properties":{}},{"type":"Feature","geometry":{"type":"LineString","coordinates":[[7.98239,44.66496],[7.98244,44.66477]]},"properties":{}},{"type":"Feature","geometry":{"type":"LineString","coordinates":[[7.98239,44.66496],[7.98252,44.66497]]},"properties":{}},{"type":"Feature","geometry":{"type":"LineString","coordinates":[[7.98244,44.66477],[7.9825,44.66486],[7.98252,44.66497]]},"properties":{}},{"type":"Feature","geometry":{"type":"LineString","coordinates":[[7.98273,44.66521],[7.98249,44.66516]]},"properties":{}},{"type":"Feature","geometry":{"type":"LineString","coordinates":[[7.98258,44.66507],[7.98249,44.66516]]},"properties":{}},{"type":"Feature","geometry":{"type":"LineString","coordinates":[[7.98252,44.66497],[7.98258,44.66507]]},"properties":{}},{"type":"Feature","geometry":{"type":"LineString","coordinates":[[7.98258,44.66507],[7.98273,44.66521]]},"properties":{}},{"type":"Feature","geometry":{"type":"LineString","coordinates":[[7.98273,44.66521],[7.98313,44.6658],[7.98329,44.66599],[7.98365,44.66624],[7.98521,44.66693],[7.9864,44.66797],[7.98664,44.6682],[7.9869,44.66851],[7.98699,44.6687],[7.98707,44.66904],[7.98722,44.66991],[7.98759,44.67081],[7.98779,44.67117],[7.98811,44.6715],[7.98836,44.6718],[7.98892,44.67282],[7.98901,44.67317],[7.98907,44.67425],[7.98917,44.67467],[7.98944,44.67516],[7.99017,44.67626]]},"properties":{}},{"type":"Feature","geometry":{"type":"LineString","coordinates":[[7.9836,44.70409],[7.98406,44.70412],[7.9843,44.70409],[7.98442,44.70414],[7.98459,44.70428],[7.98491,44.70439]]},"properties":{}},{"type":"Feature","geometry":{"type":"LineString","coordinates":[[7.98491,44.70439],[7.98455,44.70439],[7.98431,44.70447],[7.98415,44.70447],[7.98399,44.70439],[7.98385,44.70422],[7.9836,44.70409]]},"properties":{}},{"type":"Feature","geometry":{"type":"LineString","coordinates":[[7.98478,44.67935],[7.98499,44.6794],[7.98512,44.67939],[7.98542,44.67928]]},"properties":{}},{"type":"Feature","geometry":{"type":"LineString","coordinates":[[7.98542,44.67928],[7.98509,44.67962],[7.98478,44.67935]]},"properties":{}},{"type":"Feature","geometry":{"type":"LineString","coordinates":[[7.98491,44.70439],[7.9954,44.7068],[7.99788,44.70747],[8.0,44.7081]]},"properties":{}},{"type":"Feature","geometry":{"type":"LineString","coordinates":[[7.99002,44.67706],[7.98833,44.67794],[7.98623,44.67887],[7.98559,44.67917],[7.98542,44.67928]]},"properties":{}},{"type":"Feature","geometry":{"type":"LineString","coordinates":[[7.99002,44.67706],[7.9902,44.67689],[7.99032,44.67673]]},"properties":{}},{"type":"Feature","geometry":{"type":"LineString","coordinates":[[7.99048,44.67681],[7.99002,44.67706]]},"properties":{}},{"type":"Feature","geometry":{"type":"LineString","coordinates":[[7.99017,44.67626],[7.99048,44.67655]]},"properties":{}},{"type":"Feature","geometry":{"type":"LineString","coordinates":[[7.99034,44.67661],[7.99017,44.67626]]},"properties":{}},{"type":"Feature","geometry":{"type":"LineString","coordinates":[[7.99048,44.67681],[7.99038,44.67679],[7.99032,44.67673]]},"properties":{}},{"type":"Feature","geometry":{"type":"LineString","coordinates":[[7.99032,44.67673],[7.9903,44.67669],[7.99034,44.67661]]},"properties":{}},{"type":"Feature","geometry":{"type":"LineString","coordinates":[[7.99034,44.67661],[7.99048,44.67655]]},"properties":{}},{"type":"Feature","geometry":{"type":"LineString","coordinates":[[7.99053,44.67681],[7.99048,44.67681]]},"properties":{}},{"type":"Feature","geometry":{"type":"LineString","coordinates":[[7.99048,44.67655],[7.99063,44.6766],[7.99066,44.67672]]},"properties":{}},{"type":"Feature","geometry":{"type":"LineString","coordinates":[[7.9909,44.67692],[7.99053,44.67681]]},"properties":{}},{"type":"Feature","geometry":{"type":"LineString","coordinates":[[7.99066,44.67672],[7.99053,44.67681]]},"properties":{}},{"type":"Feature","geometry":{"type":"LineString","coordinates":[[7.99066,44.67672],[7.9909,44.67692]]},"properties":{}},{"type":"Feature","geometry":{"type":"LineString","coordinates":[[8.0,44.68148],[7.99311,44.67813],[7.9909,44.67692]]},"properties":{}}]}