{"type":"FeatureCollection","features":[{"type":"Feature","geometry":{"type":"LineString","coordinates":[[7.5,45.74326],[7.50476,45.74316],[7.5086,45.74298],[7.51147,45.7428],[7.51364,45.74263],[7.52289,45.7417],[7.52504,45.74152],[7.52746,45.74135],[7.52991,45.74122],[7.53301,45.74112],[7.53755,45.74111],[7.54058,45.74119],[7.54301,45.74131],[7.54535,45.74145],[7.54834,45.74171],[7.55174,45.74208],[7.55468,45.74247],[7.55813,45.74303],[7.56279,45.74383],[7.56524,45.74417],[7.5673,45.74436],[7.56889,45.74446],[7.57084,45.74451],[7.57242,45.7445],[7.57396,45.74446],[7.5754,45.74437],[7.57706,45.74422],[7.57871,45.74402],[7.58108,45.74364],[7.59108,45.74175],[7.5927,45.74157],[7.59422,45.74154],[7.5953,45.74159],[7.60355,45.74227],[7.60456,45.7424],[7.60592,45.74262],[7.60711,45.74287],[7.60832,45.74318],[7.6097,45.74364],[7.61186,45.74458],[7.61383,45.74561],[7.61482,45.74608],[7.61629,45.74663],[7.61767,45.74705],[7.61878,45.74731],[7.61974,45.74749],[7.62158,45.74772],[7.62283,45.74778],[7.62377,45.7478],[7.62465,45.74777],[7.62601,45.74766],[7.62728,45.74751],[7.62877,45.74722],[7.63061,45.7467],[7.63197,45.74618],[7.63281,45.7458],[7.63383,45.74527],[7.63943,45.74199],[7.64028,45.74156],[7.64157,45.74103],[7.64294,45.74062],[7.64427,45.74036],[7.64797,45.73995],[7.64934,45.73973],[7.65019,45.73951],[7.65127,45.73915],[7.65183,45.73891],[7.65255,45.73855],[7.65324,45.73814],[7.65459,45.73725],[7.65515,45.73686],[7.65598,45.73616],[7.65695,45.73518],[7.66076,45.73078],[7.66201,45.72964],[7.66443,45.72757]]},"properties":{}},{"type":"Feature","geometry":{"type":"LineString","coordinates":[[7.66557,45.7294],[7.66259,45.73192],[7.65714,45.7357],[7.65524,45.73698],[7.65338,45.73821],[7.65266,45.73863],[7.65196,45.73898],[7.65142,45.73921],[7.65068,45.73947],[7.64936,45.73982],[7.64784,45.74005],[7.64429,45.74044],[7.64297,45.7407],[7.64164,45.74109],[7.64083,45.74141],[7.63986,45.74186],[7.63391,45.74534],[7.63288,45.74588],[7.63204,45.74625],[7.63067,45.74678],[7.62988,45.74703],[7.62881,45.74731],[7.6273,45.7476],[7.62567,45.74777],[7.62378,45.74787],[7.62213,45.74784],[7.62026,45.74765],[7.61882,45.74741],[7.61796,45.74721],[7.61657,45.74681],[7.6151,45.74629],[7.61376,45.74568],[7.61136,45.74448],[7.60962,45.74374],[7.60825,45.74328],[7.60704,45.74298],[7.60588,45.74273],[7.60454,45.74251],[7.6029,45.74232],[7.59476,45.74164],[7.59309,45.74163],[7.59227,45.74168],[7.5911,45.74183],[7.5811,45.74372],[7.57874,45.7441],[7.57706,45.7443],[7.57539,45.74445],[7.57397,45.74454],[7.57242,45.74458],[7.57084,45.7446],[7.56858,45.74453],[7.56661,45.74439],[7.56522,45.74425],[7.56276,45.74391],[7.55702,45.74292],[7.55465,45.74255],[7.55173,45.74216],[7.54831,45.74179],[7.54534,45.74153],[7.543,45.74138],[7.54057,45.74127],[7.53754,45.74119],[7.53301,45.74121],[7.52991,45.7413],[7.52746,45.74143],[7.52505,45.74159],[7.52291,45.74178],[7.51364,45.7427],[7.51148,45.74288],[7.50861,45.74306],[7.50611,45.74319],[7.50357,45.74328],[7.5,45.74334]]},"properties":{}},{"type":"Feature","geometry":{"type":"LineString","coordinates":[[7.52223,45.74249],[7.50878,45.74499],[7.50635,45.74557],[7.50567,45.74562],[7.5013,45.74567],[7.50089,45.74571],[7.5,45.74586]]},"properties":{}},{"type":"Feature","geometry":{"type":"LineString","coordinates":[[7.52566,45.74264],[7.52512,45.74258],[7.52503,45.74254],[7.52473,45.74254],[7.52421,45.74268],[7.52342,45.7425],[7.52243,45.74255],[7.52223,45.74249]]},"properties":{}},{"type":"Feature","geometry":{"type":"LineString","coordinates":[[7.52223,45.74249],[7.52288,45.74243],[7.52469,45.74244],[7.52486,45.74243],[7.52521,45.74234],[7.52531,45.74237],[7.52549,45.74257],[7.52566,45.74264]]},"properties":{}},{"type":"Feature","geometry":{"type":"LineString","coordinates":[[7.52566,45.74264],[7.52788,45.74327],[7.52837,45.74339],[7.52888,45.74347],[7.53134,45.74344],[7.53309,45.7437],[7.5336,45.74373],[7.53407,45.74369],[7.53581,45.74345],[7.53642,45.74344],[7.53705,45.74353],[7.53832,45.7439],[7.53874,45.74396],[7.54279,45.7438]]},"properties":{}},{"type":"Feature","geometry":{"type":"LineString","coordinates":[[7.54545,45.74356],[7.54462,45.7437],[7.54389,45.74377],[7.54383,45.74384],[7.54371,45.74387],[7.5436,45.74386],[7.54351,45.7438],[7.54279,45.7438]]},"properties":{}},{"type":"Feature","geometry":{"type":"LineString","coordinates":[[7.54279,45.7438],[7.54334,45.74375],[7.54349,45.7437],[7.54354,45.74363],[7.54366,45.74359],[7.54378,45.7436],[7.54399,45.74369],[7.54425,45.74371],[7.54545,45.74356]]},"properties":{}},{"type":"Feature","geometry":{"type":"LineString","coordinates":[[7.54545,45.74356],[7.5492,45.74303],[7.54979,45.74299],[7.55054,45.74304],[7.5511,45.74303]]},"properties":{}},{"type":"Feature","geometry":{"type":"LineString","coordinates":[[7.55218,45.74292],[7.55174,45.74307],[7.5511,45.74303]]},"properties":{}},{"type":"Feature","geometry":{"type":"LineString","coordinates":[[7.5511,45.74303],[7.55141,45.74297],[7.5517,45.74283],[7.55218,45.74292]]},"properties":{}},{"type":"Feature","geometry":{"type":"LineString","coordinates":[[7.55218,45.74292],[7.55291,45.74292],[7.55337,45.74298],[7.55643,45.74385],[7.55873,45.74429],[7.55932,45.74436],[7.56066,45.74439],[7.56113,45.74446],[7.56353,45.74512],[7.56425,45.74527],[7.56478,45.74531],[7.56544,45.74525],[7.56614,45.74526],[7.56779,45.74552]]},"properties":{}},{"type":"Feature","geometry":{"type":"LineString","coordinates":[[7.56779,45.74552],[7.56846,45.74554],[7.56873,45.74549],[7.56904,45.74533],[7.56919,45.74535],[7.56925,45.74538]]},"properties":{}},{"type":"Feature","geometry":{"type":"LineString","coordinates":[[7.56927,45.74551],[7.5692,45.74558],[7.56907,45.7456],[7.56894,45.74557],[7.56817,45.74559],[7.56779,45.74552]]},"properties":{}},{"type":"Feature","geometry":{"type":"LineString","coordinates":[[7.56925,45.74538],[7.56997,45.74541],[7.57015,45.74546]]},"properties":{}},{"type":"Feature","geometry":{"type":"LineString","coordinates":[[7.56925,45.74538],[7.56927,45.74551]]},"properties":{}},{"type":"Feature","geometry":{"type":"LineString","coordinates":[[7.57015,45.74546],[7.56947,45.74547],[7.56927,45.74551]]},"properties":{}},{"type":"Feature","geometry":{"type":"LineString","coordinates":[[7.57015,45.74546],[7.57425,45.74557],[7.57663,45.74571],[7.57848,45.74556],[7.58035,45.74566],[7.58088,45.74565],[7.58191,45.74553],[7.58302,45.74531],[7.58341,45.74529],[7.58589,45.74554],[7.58609,45.74562],[7.58664,45.74601],[7.58705,45.74612],[7.58745,45.7461],[7.58884,45.74581],[7.59047,45.74571],[7.59065,45.74576],[7.59114,45.74603],[7.59152,45.74614],[7.5919,45.74632]]},"properties":{}},{"type":"Feature","geometry":{"type":"LineString","coordinates":[[7.5919,45.74632],[7.59226,45.74645],[7.59261,45.74646]]},"properties":{}},{"type":"Feature","geometry":{"type":"LineString","coordinates":[[7.59261,45.74646],[7.59245,45.74653],[7.59216,45.7465],[7.5919,45.74632]]},"properties":{}},{"type":"Feature","geometry":{"type":"LineString","coordinates":[[7.59261,45.74646],[7.59334,45.74632],[7.59435,45.74623],[7.59509,45.74624],[7.5956,45.74617],[7.59837,45.74629],[7.60061,45.74652],[7.60117,45.74662],[7.60163,45.74675],[7.60223,45.74698],[7.60403,45.748]]},"properties":{}},{"type":"Feature","geometry":{"type":"LineString","coordinates":[[7.60403,45.748],[7.60439,45.74822]]},"properties":{}},{"type":"Feature","geometry":{"type":"LineString","coordinates":[[7.60403,45.748],[7.60386,45.74815],[7.6043,45.74823],[7.60439,45.74822]]},"properties":{}},{"type":"Feature","geometry":{"type":"LineString","coordinates":[[7.60439,45.74822],[7.60443,45.74824]]},"properties":{}},{"type":"Feature","geometry":{"type":"LineString","coordinates":[[7.60443,45.74824],[7.6055,45.74852],[7.60538,45.74878]]},"properties":{}},{"type":"Feature","geometry":{"type":"LineString","coordinates":[[7.60538,45.74878],[7.60504,45.74862],[7.60468,45.74857],[7.60463,45.74852],[7.60462,45.74843],[7.60443,45.74824]]},"properties":{}},{"type":"Feature","geometry":{"type":"LineString","coordinates":[[7.61642,45.74979],[7.61554,45.75015],[7.61598,45.75062],[7.61617,45.75066],[7.6164,45.75059],[7.61654,45.75059],[7.61661,45.75062],[7.617,45.75093],[7.61755,45.75109],[7.61766,45.75115],[7.61786,45.7516],[7.61627,45.7519],[7.61594,45.75194],[7.61522,45.75196],[7.61175,45.75164],[7.61045,45.75146],[7.60964,45.75116],[7.60538,45.74878]]},"properties":{}},{"type":"Feature","geometry":{"type":"LineString","coordinates":[[7.61642,45.74979],[7.61652,45.74988],[7.61659,45.75],[7.61667,45.75004],[7.6168,45.75004],[7.6169,45.74997],[7.61691,45.74989],[7.61685,45.74983],[7.61653,45.74975]]},"properties":{}},{"type":"Feature","geometry":{"type":"LineString","coordinates":[[7.61653,45.74975],[7.61642,45.74979]]},"properties":{}},{"type":"Feature","geometry":{"type":"LineString","coordinates":[[7.61653,45.74975],[7.6166,45.74972]]},"properties":{}},{"type":"Feature","geometry":{"type":"LineString","coordinates":[[7.6166,45.74972],[7.61664,45.74965],[7.61662,45.74957],[7.6167,45.7495],[7.61711,45.74956]]},"properties":{}},{"type":"Feature","geometry":{"type":"LineString","coordinates":[[7.61711,45.74956],[7.61689,45.7496],[7.61681,45.74967],[7.6166,45.74972]]},"properties":{}},{"type":"Feature","geometry":{"type":"LineString","coordinates":[[7.61675,45.92023],[7.61686,45.92066],[7.61684,45.92089],[7.61666,45.9214],[7.6167,45.92159],[7.61714,45.9221],[7.61773,45.92316],[7.6178,45.92323],[7.61809,45.92339],[7.61891,45.92368],[7.61913,45.9238],[7.61946,45.92413],[7.61952,45.92422],[7.61954,45.92432],[7.61952,45.92482],[7.61971,45.92535],[7.61993,45.92572]]},"properties":{}},{"type":"Feature","geometry":{"type":"LineString","coordinates":[[7.61711,45.74956],[7.62335,45.7504],[7.62516,45.75068],[7.62879,45.75181],[7.6314,45.7522],[7.63254,45.75258],[7.63371,45.75292],[7.63451,45.75309],[7.635,45.75311],[7.63565,45.75308],[7.63795,45.75291],[7.64087,45.75169],[7.64112,45.75163],[7.64145,45.75166],[7.64161,45.75173],[7.6419,45.75181],[7.6423,45.75184],[7.64522,45.75178],[7.64535,45.75182],[7.64559,45.75176],[7.64574,45.75192],[7.64584,45.75194],[7.6462,45.75189],[7.64629,45.75178],[7.64625,45.75167],[7.6473,45.75156],[7.64875,45.75146],[7.64974,45.75126],[7.65019,45.75115],[7.65029,45.75094],[7.65065,45.75043],[7.65069,45.75029],[7.65081,45.75022],[7.65099,45.74997],[7.65233,45.74796],[7.65359,45.74697],[7.6539,45.74661],[7.65397,45.74647],[7.65404,45.74619],[7.65409,45.74518],[7.65414,45.74497],[7.65427,45.74481],[7.65521,45.74389],[7.6557,45.74346],[7.6558,45.74333],[7.65588,45.74314],[7.65594,45.74297],[7.65594,45.74271],[7.65556,45.74168]]},"properties":{}},{"type":"Feature","geometry":{"type":"LineString","coordinates":[[7.62801,45.92995],[7.62815,45.93012],[7.62822,45.93037],[7.62868,45.93096],[7.62882,45.93105],[7.62953,45.93137],[7.63007,45.93173],[7.63038,45.93185],[7.6313,45.93257],[7.63134,45.93277],[7.63121,45.9334],[7.63122,45.93368],[7.63136,45.93432],[7.63131,45.93444],[7.63114,45.93452],[7.631,45.93454],[7.63062,45.93423],[7.62931,45.93334],[7.6291,45.93328],[7.62886,45.93325],[7.62874,45.93328],[7.6287,45.93338],[7.62858,45.93338],[7.62828,45.93314],[7.62858,45.93289],[7.62676,45.93176],[7.62622,45.93132],[7.62396,45.92863],[7.6229,45.92788],[7.62029,45.9265],[7.62008,45.92631],[7.62001,45.92622],[7.61995,45.92603],[7.61993,45.92572]]},"properties":{}},{"type":"Feature","geometry":{"type":"LineString","coordinates":[[7.61993,45.92572],[7.62072,45.92548],[7.62095,45.92549],[7.62112,45.92554],[7.62136,45.92568],[7.62174,45.92616],[7.62195,45.92634],[7.62211,45.92642],[7.62239,45.92645],[7.6225,45.92642],[7.62257,45.92635],[7.62258,45.92625],[7.62254,45.92614],[7.62234,45.92588],[7.62205,45.92559],[7.62202,45.92552],[7.62205,45.92547],[7.6222,45.92543],[7.62287,45.9259],[7.62337,45.92632],[7.62379,45.92676],[7.62418,45.92708],[7.62437,45.92717],[7.62555,45.92747],[7.62576,45.92756],[7.62656,45.92804],[7.62704,45.92843],[7.62756,45.92869],[7.62762,45.92876],[7.62766,45.92891],[7.62753,45.92955],[7.62754,45.92962],[7.62801,45.92995]]},"properties":{}},{"type":"Feature","geometry":{"type":"LineString","coordinates":[[7.63713,45.93012],[7.63742,45.93043],[7.63744,45.93051],[7.63733,45.93062],[7.63719,45.93067],[7.63676,45.93054],[7.63659,45.9306],[7.63657,45.93071],[7.63661,45.9308],[7.63695,45.93107],[7.63697,45.93112],[7.63691,45.93118],[7.63682,45.9312],[7.63635,45.93103],[7.63565,45.93062],[7.63551,45.93057],[7.63426,45.93033],[7.634,45.93034],[7.63361,45.93043],[7.63349,45.93042],[7.63338,45.93037],[7.63335,45.9303],[7.63351,45.93005],[7.63351,45.93],[7.63346,45.92994],[7.63337,45.92993],[7.63323,45.92997],[7.63286,45.93017],[7.63273,45.93018],[7.63266,45.93014],[7.63268,45.92931],[7.63266,45.92922],[7.63255,45.92917],[7.63203,45.92913],[7.63153,45.92902],[7.63111,45.92883],[7.63081,45.9286],[7.63061,45.92858],[7.62936,45.92881],[7.62924,45.9288],[7.62894,45.92865],[7.62882,45.92862],[7.6287,45.92866],[7.62858,45.92887],[7.62841,45.92907],[7.62806,45.92928],[7.62794,45.9294],[7.62788,45.92952],[7.62788,45.92964],[7.62801,45.92995]]},"properties":{}},{"type":"Feature","geometry":{"type":"LineString","coordinates":[[7.65556,45.74168],[7.65553,45.74157],[7.65555,45.74144],[7.65567,45.74127],[7.65678,45.74039],[7.65695,45.74033],[7.65756,45.73986]]},"properties":{}},{"type":"Feature","geometry":{"type":"LineString","coordinates":[[7.65756,45.73986],[7.65701,45.74041],[7.65568,45.74151],[7.65556,45.74168]]},"properties":{}},{"type":"Feature","geometry":{"type":"LineString","coordinates":[[7.65756,45.73986],[7.65821,45.73934],[7.65842,45.73913],[7.65855,45.73897],[7.65881,45.73848],[7.65895,45.7383],[7.65916,45.73812],[7.66048,45.73736],[7.66094,45.73724],[7.66192,45.73708],[7.66434,45.7361],[7.66537,45.73584],[7.66557,45.73571],[7.66575,45.73553],[7.66603,45.73516],[7.66614,45.73495],[7.66617,45.73476],[7.66612,45.73432],[7.66613,45.73403],[7.66639,45.73291],[7.66649,45.73227],[7.66643,45.73199],[7.66613,45.73115],[7.66562,45.73021],[7.66567,45.73004],[7.66592,45.72978],[7.66595,45.72962],[7.66582,45.72948],[7.66557,45.7294]]},"properties":{}},{"type":"Feature","geometry":{"type":"LineString","coordinates":[[7.66557,45.7294],[7.66509,45.72924],[7.66499,45.72916],[7.66487,45.729],[7.6646,45.72832],[7.66444,45.72773],[7.66443,45.72757]]},"properties":{}},{"type":"Feature","geometry":{"type":"LineString","coordinates":[[7.66443,45.72757],[7.66449,45.72705],[7.66461,45.72687],[7.66487,45.72671],[7.66579,45.72642]]},"properties":{}},{"type":"Feature","geometry":{"type":"LineString","coordinates":[[7.66443,45.72757],[7.66579,45.72642]]},"properties":{}},{"type":"Feature","geometry":{"type":"LineString","coordinates":[[7.66968,45.7217],[7.66869,45.7252],[7.66624,45.72883],[7.66557,45.7294]]},"properties":{}},{"type":"Feature","geometry":{"type":"LineString","coordinates":[[7.66579,45.72642],[7.66671,45.72562]]},"properties":{}},{"type":"Feature","geometry":{"type":"LineString","coordinates":[[7.66579,45.72642],[7.66608,45.72627],[7.66629,45.72613],[7.66664,45.72579],[7.6667,45.7257],[7.66671,45.72562]]},"properties":{}},{"type":"Feature","geometry":{"type":"LineString","coordinates":[[7.66671,45.72562],[7.66666,45.72521],[7.66662,45.72506],[7.66646,45.72477],[7.66645,45.72455],[7.66653,45.72404],[7.66688,45.72349],[7.66692,45.72337],[7.66692,45.72318],[7.66681,45.72278],[7.66686,45.72263],[7.667,45.72253],[7.66765,45.7222],[7.66827,45.72202],[7.66864,45.72181],[7.66901,45.72174],[7.66939,45.72174]]},"properties":{}},{"type":"Feature","geometry":{"type":"LineString","coordinates":[[7.66671,45.72562],[7.66747,45.72494],[7.66822,45.72403],[7.66874,45.72317],[7.66939,45.72174]]},"properties":{}},{"type":"Feature","geometry":{"type":"LineString","coordinates":[[7.66939,45.72174],[7.66992,45.72038],[7.67015,45.71954],[7.6703,45.71873],[7.67038,45.71812],[7.67041,45.71677],[7.67033,45.71594],[7.67003,45.71373],[7.66944,45.71007],[7.66869,45.70622],[7.66791,45.70265],[7.66774,45.70145],[7.66773,45.70042],[7.66782,45.69933],[7.66805,45.69823],[7.66851,45.69666],[7.66865,45.69592],[7.66872,45.69508],[7.66872,45.69445],[7.66868,45.69381],[7.66853,45.69282],[7.66833,45.69209],[7.66766,45.68994],[7.66757,45.68951],[7.66752,45.68908],[7.66753,45.68842],[7.66767,45.68756],[7.66789,45.68689],[7.66826,45.68616],[7.66871,45.68548],[7.67301,45.67999],[7.67353,45.6794],[7.67392,45.67901],[7.67467,45.6784],[7.67552,45.67785],[7.67651,45.67736],[7.67824,45.67661],[7.67924,45.67607],[7.67988,45.67562],[7.68026,45.67531],[7.68078,45.67482],[7.68116,45.67439],[7.68149,45.67395],[7.68176,45.67351],[7.6821,45.67279],[7.68371,45.66826],[7.68393,45.66771],[7.68421,45.66711],[7.68464,45.66637],[7.68517,45.66563],[7.68586,45.66483],[7.68648,45.66423],[7.68731,45.66353],[7.69105,45.66092],[7.69211,45.66011],[7.69329,45.65903],[7.69377,45.65851],[7.69467,45.65747],[7.69554,45.65656],[7.69653,45.65568],[7.69763,45.65485],[7.69828,45.65441],[7.7153,45.64379],[7.71672,45.64286],[7.71831,45.64173]]},"properties":{}},{"type":"Feature","geometry":{"type":"LineString","coordinates":[[7.66939,45.72174],[7.66968,45.7217]]},"properties":{}},{"type":"Feature","geometry":{"type":"LineString","coordinates":[[7.71827,45.64189],[7.7168,45.64292],[7.71536,45.64385],[7.69836,45.65447],[7.69772,45.65491],[7.69662,45.65573],[7.69559,45.65666],[7.69477,45.65752],[7.69338,45.65907],[7.6922,45.66015],[7.69114,45.66097],[7.6874,45.66359],[7.68658,45.66427],[7.68596,45.66487],[7.68527,45.66566],[7.68475,45.6664],[7.68432,45.66713],[7.68392,45.66802],[7.6821,45.67307],[7.68174,45.67377],[7.68126,45.67444],[7.68088,45.67486],[7.68035,45.67536],[7.67997,45.67567],[7.67931,45.67613],[7.67831,45.67668],[7.6762,45.6776],[7.6756,45.67791],[7.67475,45.67846],[7.67402,45.67906],[7.67362,45.67944],[7.67312,45.68002],[7.66923,45.68498],[7.66848,45.686],[7.66824,45.6864],[7.668,45.68691],[7.66778,45.68757],[7.66764,45.68842],[7.66764,45.68908],[7.66777,45.68992],[7.66845,45.69208],[7.66864,45.69281],[7.66882,45.69402],[7.66884,45.69508],[7.66876,45.69593],[7.66863,45.69665],[7.66817,45.69824],[7.66794,45.69935],[7.66784,45.70042],[7.66784,45.7011],[7.66789,45.70179],[7.66803,45.70265],[7.66881,45.70621],[7.66949,45.70971],[7.66997,45.71261],[7.67049,45.71635],[7.67054,45.71719],[7.67052,45.71779],[7.67042,45.71874],[7.67026,45.71955],[7.66968,45.7217]]},"properties":{}},{"type":"Feature","geometry":{"type":"LineString","coordinates":[[7.66968,45.7217],[7.67011,45.72148],[7.67023,45.72133],[7.67023,45.7212],[7.67013,45.72073],[7.67019,45.72054],[7.67043,45.72019],[7.67051,45.72],[7.67049,45.71925],[7.67068,45.71837],[7.67124,45.71734],[7.67167,45.71623],[7.67164,45.71599],[7.67155,45.71588],[7.67103,45.71553],[7.67092,45.71542],[7.6708,45.71524],[7.67076,45.71511],[7.67076,45.71464],[7.67088,45.71326],[7.67094,45.71305],[7.67184,45.71106],[7.67228,45.7101],[7.67244,45.70985]]},"properties":{}},{"type":"Feature","geometry":{"type":"LineString","coordinates":[[7.67137,45.70176],[7.67157,45.70176],[7.67192,45.70168],[7.67211,45.7017],[7.67222,45.70174],[7.67227,45.70181],[7.67223,45.70206],[7.67227,45.70214]]},"properties":{}},{"type":"Feature","geometry":{"type":"LineString","coordinates":[[7.67227,45.70214],[7.67178,45.70189],[7.67137,45.70176]]},"properties":{}},{"type":"Feature","geometry":{"type":"LineString","coordinates":[[7.67137,45.70176],[7.6709,45.70163],[7.67028,45.7013],[7.66989,45.70115],[7.66834,45.70078],[7.66815,45.70067],[7.66809,45.70055],[7.6681,45.70045],[7.6682,45.70023],[7.6699,45.6973],[7.67048,45.69659],[7.67058,45.69633],[7.67056,45.69589],[7.67059,45.69571],[7.6709,45.69508],[7.67103,45.69353],[7.67101,45.69289],[7.67086,45.69212],[7.6706,45.69154],[7.67027,45.69096],[7.67023,45.69066],[7.67085,45.68856],[7.67101,45.68829],[7.67198,45.68714],[7.67211,45.68691],[7.67228,45.68642],[7.67277,45.68572],[7.67308,45.68517],[7.67356,45.68414],[7.67406,45.68298],[7.67444,45.68193],[7.67476,45.68148],[7.67501,45.68091],[7.67504,45.68071],[7.67495,45.68042],[7.67503,45.68001],[7.67544,45.67882],[7.67581,45.67827],[7.67621,45.67791],[7.67669,45.6776],[7.67823,45.67696],[7.67876,45.67671],[7.6795,45.67629],[7.68,45.67595],[7.68045,45.6756],[7.68126,45.67485],[7.68176,45.67423],[7.68277,45.6726],[7.68285,45.67237]]},"properties":{}},{"type":"Feature","geometry":{"type":"LineString","coordinates":[[7.67494,45.70613],[7.67497,45.70595],[7.67495,45.70549],[7.67488,45.70517],[7.67479,45.70501],[7.67463,45.70481],[7.67392,45.70413],[7.67375,45.70387],[7.67347,45.70334],[7.67335,45.7032],[7.67256,45.70237],[7.67227,45.70214]]},"properties":{}},{"type":"Feature","geometry":{"type":"LineString","coordinates":[[7.67244,45.70985],[7.67265,45.7095],[7.6731,45.70895],[7.67333,45.70873]]},"properties":{}},{"type":"Feature","geometry":{"type":"LineString","coordinates":[[7.67333,45.70873],[7.67244,45.70985]]},"properties":{}},{"type":"Feature","geometry":{"type":"LineString","coordinates":[[7.67333,45.70873],[7.67462,45.70713]]},"properties":{}},{"type":"Feature","geometry":{"type":"LineString","coordinates":[[7.67479,45.70688],[7.67488,45.707],[7.67479,45.70714],[7.67462,45.70713]]},"properties":{}},{"type":"Feature","geometry":{"type":"LineString","coordinates":[[7.67462,45.70713],[7.67479,45.70688]]},"properties":{}},{"type":"Feature","geometry":{"type":"LineString","coordinates":[[7.67479,45.70688],[7.67483,45.70675]]},"properties":{}},{"type":"Feature","geometry":{"type":"LineString","coordinates":[[7.67483,45.70675],[7.67478,45.70664],[7.67463,45.7065],[7.67458,45.70639],[7.67461,45.70634],[7.67484,45.70624],[7.67494,45.70613]]},"properties":{}},{"type":"Feature","geometry":{"type":"LineString","coordinates":[[7.67494,45.70613],[7.67491,45.70632],[7.67496,45.70644],[7.67486,45.70656],[7.67483,45.70675]]},"properties":{}},{"type":"Feature","geometry":{"type":"LineString","coordinates":[[7.68285,45.67237],[7.68278,45.67212],[7.68282,45.67205],[7.6829,45.67201],[7.68304,45.67202],[7.68321,45.67196]]},"properties":{}},{"type":"Feature","geometry":{"type":"LineString","coordinates":[[7.68321,45.67196],[7.68313,45.67208],[7.68311,45.67219],[7.68285,45.67237]]},"properties":{}},{"type":"Feature","geometry":{"type":"LineString","coordinates":[[7.68321,45.67196],[7.68395,45.6715],[7.68527,45.67076],[7.68659,45.66983]]},"properties":{}},{"type":"Feature","geometry":{"type":"LineString","coordinates":[[7.68659,45.66983],[7.68673,45.66963],[7.68673,45.66952],[7.68667,45.66944],[7.68669,45.66934],[7.68706,45.66915],[7.68719,45.66905]]},"properties":{}},{"type":"Feature","geometry":{"type":"LineString","coordinates":[[7.68719,45.66905],[7.68701,45.66931],[7.68707,45.66938],[7.68704,45.66948],[7.68659,45.66983]]},"properties":{}},{"type":"Feature","geometry":{"type":"LineString","coordinates":[[7.68719,45.66905],[7.68747,45.66862],[7.68756,45.66839],[7.68768,45.66783],[7.68792,45.66782]]},"properties":{}},{"type":"Feature","geometry":{"type":"LineString","coordinates":[[7.68802,45.66744],[7.68795,45.66748],[7.68792,45.66782]]},"properties":{}},{"type":"Feature","geometry":{"type":"LineString","coordinates":[[7.68792,45.66782],[7.68803,45.66777],[7.68807,45.66772],[7.68807,45.66748],[7.68802,45.66744]]},"properties":{}},{"type":"Feature","geometry":{"type":"LineString","coordinates":[[7.68802,45.66737],[7.68905,45.66754]]},"properties":{}},{"type":"Feature","geometry":{"type":"LineString","coordinates":[[7.68802,45.66737],[7.68802,45.66744]]},"properties":{}},{"type":"Feature","geometry":{"type":"LineString","coordinates":[[7.68802,45.66737],[7.6878,45.66731],[7.68815,45.66564]]},"properties":{}},{"type":"Feature","geometry":{"type":"LineString","coordinates":[[7.68815,45.66564],[7.68818,45.66534],[7.68809,45.66519],[7.68809,45.66513],[7.68819,45.66505],[7.6883,45.66503],[7.68838,45.66496],[7.68853,45.66472],[7.68862,45.66465]]},"properties":{}},{"type":"Feature","geometry":{"type":"LineString","coordinates":[[7.68862,45.66465],[7.68847,45.66497],[7.68845,45.66509],[7.68847,45.66521],[7.68825,45.6654],[7.68815,45.66564]]},"properties":{}},{"type":"Feature","geometry":{"type":"LineString","coordinates":[[7.68862,45.66465],[7.68885,45.66437],[7.68927,45.664],[7.69129,45.66261]]},"properties":{}},{"type":"Feature","geometry":{"type":"LineString","coordinates":[[7.68923,45.6675],[7.68926,45.66758],[7.6892,45.66763],[7.68907,45.66761],[7.68905,45.66754]]},"properties":{}},{"type":"Feature","geometry":{"type":"LineString","coordinates":[[7.68905,45.66754],[7.6891,45.66749],[7.68923,45.6675]]},"properties":{}},{"type":"Feature","geometry":{"type":"LineString","coordinates":[[7.68923,45.6675],[7.69063,45.66654],[7.69111,45.66606]]},"properties":{}},{"type":"Feature","geometry":{"type":"LineString","coordinates":[[7.69054,45.66587],[7.69036,45.66605],[7.69056,45.66614],[7.69075,45.66597],[7.69054,45.66587]]},"properties":{}},{"type":"Feature","geometry":{"type":"LineString","coordinates":[[7.69111,45.66606],[7.69063,45.6658],[7.69054,45.66587]]},"properties":{}},{"type":"Feature","geometry":{"type":"LineString","coordinates":[[7.69111,45.66606],[7.69189,45.66528],[7.69169,45.66499],[7.69166,45.66488],[7.69154,45.6632],[7.69143,45.66288],[7.69129,45.66261]]},"properties":{}},{"type":"Feature","geometry":{"type":"LineString","coordinates":[[7.69129,45.66261],[7.69297,45.66146],[7.69344,45.66103],[7.69379,45.66062],[7.69405,45.6602],[7.69418,45.65995],[7.69444,45.65925]]},"properties":{}},{"type":"Feature","geometry":{"type":"LineString","coordinates":[[7.69444,45.65925],[7.69449,45.65891],[7.69447,45.65883],[7.69438,45.65875],[7.69437,45.65867],[7.69443,45.6586],[7.69454,45.65855],[7.69485,45.65818]]},"properties":{}},{"type":"Feature","geometry":{"type":"LineString","coordinates":[[7.69485,45.65818],[7.6947,45.65844],[7.69468,45.65856],[7.69478,45.65862],[7.69481,45.65866],[7.6948,45.65876],[7.69466,45.65885],[7.69458,45.65904],[7.69444,45.65925]]},"properties":{}},{"type":"Feature","geometry":{"type":"LineString","coordinates":[[7.69485,45.65818],[7.69504,45.65794],[7.69533,45.65768],[7.69907,45.65516],[7.70091,45.65444],[7.70279,45.65329],[7.70319,45.65314],[7.70357,45.65306],[7.70668,45.65273],[7.70729,45.65262],[7.70874,45.65208],[7.70948,45.65176],[7.7111,45.65066],[7.71286,45.64976],[7.71365,45.64914],[7.71619,45.64735],[7.71745,45.6464],[7.71773,45.64617],[7.71782,45.64605],[7.71787,45.64592],[7.71789,45.64555]]},"properties":{}},{"type":"Feature","geometry":{"type":"LineString","coordinates":[[7.71789,45.64555],[7.71785,45.64517],[7.71772,45.64496],[7.71775,45.64488],[7.71786,45.64479],[7.71797,45.64414]]},"properties":{}},{"type":"Feature","geometry":{"type":"LineString","coordinates":[[7.71797,45.64414],[7.71796,45.64469],[7.71807,45.64496],[7.71792,45.64523],[7.71789,45.64555]]},"properties":{}},{"type":"Feature","geometry":{"type":"LineString","coordinates":[[7.71797,45.64414],[7.71811,45.64258],[7.71827,45.64189]]},"properties":{}},{"type":"Feature","geometry":{"type":"LineString","coordinates":[[7.71827,45.64189],[7.71831,45.64173]]},"properties":{}},{"type":"Feature","geometry":{"type":"LineString","coordinates":[[7.72597,45.63347],[7.72494,45.63502],[7.72415,45.63611],[7.72344,45.63701],[7.72259,45.63797],[7.72165,45.63896],[7.72069,45.63988],[7.71958,45.64084],[7.71827,45.64189]]},"properties":{}},{"type":"Feature","geometry":{"type":"LineString","coordinates":[[7.71831,45.64173],[7.71851,45.64107]]},"properties":{}},{"type":"Feature","geometry":{"type":"LineString","coordinates":[[7.71831,45.64173],[7.71949,45.64079],[7.7206,45.63983],[7.72153,45.63895],[7.72274,45.63767],[7.72404,45.63608],[7.72483,45.63499],[7.72582,45.63351]]},"properties":{}},{"type":"Feature","geometry":{"type":"LineString","coordinates":[[7.71851,45.64107],[7.71842,45.64089],[7.71861,45.64073]]},"properties":{}},{"type":"Feature","geometry":{"type":"LineString","coordinates":[[7.71861,45.64073],[7.7187,45.64091],[7.71851,45.64107]]},"properties":{}},{"type":"Feature","geometry":{"type":"LineString","coordinates":[[7.71861,45.64073],[7.71943,45.63805],[7.71967,45.63738],[7.72111,45.6358],[7.72144,45.6355],[7.72187,45.6352],[7.72336,45.63425],[7.72376,45.6341],[7.72582,45.63351]]},"properties":{}},{"type":"Feature","geometry":{"type":"LineString","coordinates":[[7.72582,45.63351],[7.73803,45.61512],[7.73837,45.61442],[7.73854,45.61394],[7.73871,45.6133],[7.73879,45.61273],[7.73877,45.61172],[7.7386,45.60985],[7.73864,45.60916],[7.73876,45.60859],[7.73914,45.60761],[7.73948,45.60702],[7.73966,45.60677],[7.74005,45.60633],[7.74043,45.60598],[7.74098,45.60552],[7.74165,45.60504],[7.74236,45.60461],[7.74319,45.60421],[7.74386,45.60394],[7.74456,45.60371],[7.74537,45.60352],[7.74847,45.60291],[7.74984,45.60259],[7.75095,45.60228],[7.75395,45.60135],[7.75494,45.60107],[7.75603,45.60082],[7.7567,45.6007],[7.75831,45.60051],[7.76001,45.60043],[7.7615,45.60046],[7.76428,45.60071],[7.766,45.60081],[7.76786,45.60083],[7.76964,45.60075],[7.77163,45.60056],[7.77388,45.60019],[7.77569,45.59977],[7.77745,45.59926],[7.779,45.5987],[7.78032,45.59815],[7.78162,45.59753],[7.78324,45.59661],[7.78408,45.59607],[7.78505,45.59538],[7.78928,45.5922],[7.79036,45.5915],[7.79509,45.5888],[7.79561,45.58847],[7.79632,45.58793],[7.79699,45.58731],[7.79745,45.58677],[7.79784,45.58617],[7.79831,45.58533],[7.8005,45.58003],[7.80378,45.57224],[7.80408,45.57161],[7.80435,45.57116],[7.80538,45.56975],[7.81001,45.56365],[7.81071,45.56279],[7.81135,45.56217],[7.81181,45.56179],[7.8146,45.55976],[7.81661,45.55826],[7.81688,45.55801],[7.81751,45.5573],[7.81783,45.55685],[7.8238,45.54701],[7.82406,45.54641],[7.82413,45.5461],[7.8243,45.54473],[7.82437,45.54444],[7.82446,45.54415],[7.82472,45.54359],[7.82504,45.54311],[7.82783,45.53999],[7.82823,45.5395],[7.82847,45.53915],[7.82886,45.53842],[7.82915,45.53767],[7.82996,45.53413],[7.83011,45.53358],[7.83051,45.53279],[7.83324,45.5282],[7.8336,45.52752],[7.83378,45.52709],[7.83391,45.52668],[7.8341,45.5258],[7.83431,45.52391]]},"properties":{}},{"type":"Feature","geometry":{"type":"LineString","coordinates":[[7.72582,45.63351],[7.72597,45.63347]]},"properties":{}},{"type":"Feature","geometry":{"type":"LineString","coordinates":[[7.83444,45.52392],[7.83417,45.52622],[7.83406,45.52669],[7.83377,45.52755],[7.83343,45.52826],[7.8308,45.53287],[7.83027,45.5339],[7.82993,45.53489],[7.82929,45.53768],[7.829,45.53845],[7.8286,45.53918],[7.82835,45.53955],[7.82796,45.54004],[7.82536,45.54292],[7.82516,45.54316],[7.82485,45.54363],[7.82471,45.54388],[7.8245,45.54446],[7.82443,45.54474],[7.82426,45.54611],[7.82418,45.54642],[7.82392,45.54704],[7.81809,45.55667],[7.81764,45.55734],[7.817,45.55806],[7.81639,45.55858],[7.8119,45.56184],[7.8112,45.56245],[7.81085,45.56281],[7.81032,45.56341],[7.80445,45.5712],[7.80419,45.57164],[7.80388,45.57226],[7.7984,45.58534],[7.79799,45.58621],[7.79706,45.58738],[7.79639,45.588],[7.79576,45.58848],[7.79518,45.58886],[7.79045,45.59155],[7.78929,45.59231],[7.78705,45.59402],[7.78473,45.59573],[7.7833,45.59668],[7.78195,45.59745],[7.78068,45.59808],[7.77906,45.59877],[7.77749,45.59933],[7.77645,45.59965],[7.77536,45.59994],[7.77345,45.60035],[7.77166,45.60063],[7.76962,45.60083],[7.76787,45.60091],[7.766,45.60089],[7.76467,45.60082],[7.76151,45.60054],[7.76002,45.60051],[7.75832,45.60059],[7.75638,45.60083],[7.75452,45.60126],[7.75098,45.60235],[7.74989,45.60266],[7.74851,45.60298],[7.74586,45.6035],[7.74499,45.60372],[7.74396,45.60408],[7.74345,45.6043],[7.7427,45.60467],[7.74209,45.60502],[7.74147,45.60545],[7.74098,45.60584],[7.74029,45.60646],[7.73992,45.60686],[7.73959,45.60735],[7.73916,45.60831],[7.73891,45.60909],[7.73878,45.60992],[7.73878,45.61055],[7.73892,45.61233],[7.73886,45.61312],[7.73871,45.61378],[7.73856,45.61425],[7.7384,45.61463],[7.73813,45.61515],[7.72597,45.63347]]},"properties":{}},{"type":"Feature","geometry":{"type":"LineString","coordinates":[[7.72597,45.63347],[7.73385,45.63121],[7.73438,45.63102],[7.73458,45.63091],[7.73474,45.63077],[7.73566,45.62968],[7.73628,45.62841],[7.73631,45.62822],[7.73633,45.62649],[7.73693,45.62463],[7.7373,45.62375],[7.73806,45.62087],[7.73823,45.6206],[7.74017,45.61828]]},"properties":{}},{"type":"Feature","geometry":{"type":"LineString","coordinates":[[7.74017,45.61828],[7.74032,45.61806],[7.74034,45.61794],[7.74031,45.61786],[7.74037,45.61776],[7.74047,45.61772],[7.74068,45.61771],[7.74107,45.61747]]},"properties":{}},{"type":"Feature","geometry":{"type":"LineString","coordinates":[[7.74107,45.61747],[7.74073,45.61778],[7.74066,45.61795],[7.74039,45.61808],[7.74017,45.61828]]},"properties":{}},{"type":"Feature","geometry":{"type":"LineString","coordinates":[[7.74107,45.61747],[7.74147,45.61712],[7.74259,45.61493],[7.74272,45.61479],[7.74368,45.61409],[7.74377,45.614],[7.7441,45.61347],[7.74422,45.61324],[7.74433,45.61277],[7.74464,45.61204],[7.74505,45.61079],[7.74507,45.61065],[7.74495,45.61049],[7.74432,45.61026],[7.74371,45.61016],[7.74359,45.6101],[7.74294,45.6096],[7.74283,45.60946],[7.74267,45.6091],[7.74239,45.60864],[7.74231,45.60831],[7.74234,45.6081],[7.7424,45.60796],[7.74275,45.60767],[7.74309,45.60716],[7.74379,45.60665],[7.74401,45.6064],[7.74413,45.60616],[7.74439,45.60514],[7.74462,45.60486],[7.74509,45.60456],[7.74549,45.60442],[7.74757,45.60405],[7.75398,45.60278],[7.75461,45.60277],[7.75553,45.6029],[7.75602,45.60292],[7.75843,45.60258],[7.76008,45.6023]]},"properties":{}},{"type":"Feature","geometry":{"type":"LineString","coordinates":[[7.75134,45.50863],[7.75156,45.50869],[7.75169,45.50868],[7.75234,45.5084],[7.75238,45.50836],[7.75239,45.50827],[7.75224,45.50792],[7.75212,45.50752],[7.75192,45.50641],[7.75194,45.50629],[7.75214,45.50607],[7.75223,45.50576],[7.75233,45.5056],[7.7527,45.5053],[7.75318,45.50484],[7.75362,45.50466],[7.75377,45.50455],[7.75394,45.50426],[7.75398,45.50412],[7.75427,45.50366],[7.75517,45.50291],[7.75528,45.50277],[7.75545,45.50244],[7.75586,45.50202],[7.75603,45.50191],[7.75634,45.5018],[7.75687,45.50155],[7.7582,45.50059],[7.75856,45.50043],[7.7587,45.50041],[7.75933,45.50049],[7.75969,45.50044],[7.75994,45.50032],[7.76012,45.50013],[7.76018,45.5]]},"properties":{}},{"type":"Feature","geometry":{"type":"LineString","coordinates":[[7.76008,45.6023],[7.7603,45.60223],[7.76046,45.60209],[7.76097,45.60211]]},"properties":{}},{"type":"Feature","geometry":{"type":"LineString","coordinates":[[7.76097,45.60211],[7.76054,45.60224],[7.76008,45.6023]]},"properties":{}},{"type":"Feature","geometry":{"type":"LineString","coordinates":[[7.76097,45.60211],[7.76222,45.60211],[7.76277,45.60218],[7.76297,45.60225],[7.76605,45.60295],[7.76661,45.60314],[7.769,45.60321],[7.77094,45.60311],[7.77344,45.60292],[7.78761,45.60172]]},"properties":{}},{"type":"Feature","geometry":{"type":"LineString","coordinates":[[7.7623,45.5],[7.76255,45.50018],[7.76271,45.50022],[7.76302,45.50015],[7.76318,45.5]]},"properties":{}},{"type":"Feature","geometry":{"type":"LineString","coordinates":[[7.78823,45.60101],[7.78824,45.60124],[7.78827,45.60134],[7.78842,45.60148],[7.78841,45.60159],[7.78831,45.60165],[7.78815,45.60169],[7.78761,45.60172]]},"properties":{}},{"type":"Feature","geometry":{"type":"LineString","coordinates":[[7.78761,45.60172],[7.78781,45.60168],[7.78802,45.60154],[7.78823,45.60101]]},"properties":{}},{"type":"Feature","geometry":{"type":"LineString","coordinates":[[7.79121,45.59691],[7.79028,45.59747],[7.78993,45.59773],[7.78952,45.5981],[7.78907,45.59864],[7.78893,45.59886],[7.7887,45.59933],[7.78823,45.60101]]},"properties":{}},{"type":"Feature","geometry":{"type":"LineString","coordinates":[[7.7915,45.59675],[7.79121,45.59691]]},"properties":{}},{"type":"Feature","geometry":{"type":"LineString","coordinates":[[7.7915,45.59675],[7.79148,45.59683],[7.79136,45.59689],[7.79121,45.59691]]},"properties":{}},{"type":"Feature","geometry":{"type":"LineString","coordinates":[[7.7915,45.59675],[7.79162,45.5966],[7.79164,45.59653],[7.79176,45.59647],[7.79188,45.59651],[7.79192,45.59659],[7.79208,45.59671]]},"properties":{}},{"type":"Feature","geometry":{"type":"LineString","coordinates":[[7.79208,45.59671],[7.7919,45.59666],[7.79172,45.59668],[7.7915,45.59675]]},"properties":{}},{"type":"Feature","geometry":{"type":"LineString","coordinates":[[7.79208,45.59671],[7.7939,45.59763],[7.79413,45.59778],[7.79418,45.59796],[7.79411,45.59808],[7.79361,45.59852],[7.79352,45.59866],[7.79349,45.59883],[7.79351,45.599],[7.79395,45.59981],[7.79486,45.60128],[7.79539,45.60111],[7.79703,45.60015],[7.79881,45.59959],[7.799,45.59951]]},"properties":{}},{"type":"Feature","geometry":{"type":"LineString","coordinates":[[7.79834,45.5947],[7.79539,45.59036]]},"properties":{}},{"type":"Feature","geometry":{"type":"LineString","coordinates":[[7.79539,45.59036],[7.79525,45.59017],[7.79525,45.59011],[7.79553,45.58991],[7.79661,45.58952],[7.7968,45.58984],[7.79546,45.59018],[7.79538,45.5902],[7.79539,45.59036]]},"properties":{}},{"type":"Feature","geometry":{"type":"LineString","coordinates":[[7.79834,45.5947],[7.79839,45.59473],[7.79838,45.59504],[7.79846,45.59508],[7.79851,45.59516],[7.79836,45.59547]]},"properties":{}},{"type":"Feature","geometry":{"type":"LineString","coordinates":[[7.79836,45.59547],[7.79831,45.59534],[7.79816,45.59517],[7.79818,45.59511],[7.79833,45.59497],[7.79834,45.5947]]},"properties":{}},{"type":"Feature","geometry":{"type":"LineString","coordinates":[[7.79927,45.59927],[7.79998,45.59845],[7.80007,45.59833],[7.80008,45.59817],[7.79997,45.598],[7.7984,45.59616],[7.79832,45.59581],[7.79836,45.59547]]},"properties":{}},{"type":"Feature","geometry":{"type":"LineString","coordinates":[[7.79927,45.59927],[7.79954,45.59941],[7.79929,45.59966],[7.799,45.59951]]},"properties":{}},{"type":"Feature","geometry":{"type":"LineString","coordinates":[[7.799,45.59951],[7.7991,45.59946],[7.79927,45.59927]]},"properties":{}},{"type":"Feature","geometry":{"type":"LineString","coordinates":[[7.82923,45.5],[7.82931,45.50052],[7.82922,45.50087],[7.82879,45.50201],[7.8287,45.50239],[7.82865,45.50304],[7.82817,45.50476],[7.82815,45.50501],[7.82818,45.50615],[7.82824,45.50623],[7.82916,45.50647],[7.82938,45.50655],[7.82947,45.50661],[7.82951,45.50674],[7.82936,45.50731],[7.82933,45.50761],[7.82937,45.50772],[7.82952,45.50788],[7.82976,45.50802],[7.83005,45.50812],[7.83076,45.50848],[7.83153,45.50897],[7.83199,45.50933],[7.83218,45.50953],[7.83276,45.51031],[7.83297,45.51116],[7.83294,45.51131],[7.83263,45.51193],[7.8325,45.51247],[7.83231,45.51306],[7.83228,45.51328],[7.8323,45.51356],[7.83242,45.51398],[7.83275,45.51451],[7.83284,45.51482],[7.83288,45.51592],[7.83281,45.51668],[7.83283,45.51705],[7.83293,45.51734],[7.83322,45.51775],[7.83413,45.51864],[7.83433,45.51891],[7.83432,45.51903],[7.83404,45.51973],[7.83411,45.51988],[7.83426,45.51998],[7.83472,45.52003]]},"properties":{}},{"type":"Feature","geometry":{"type":"LineString","coordinates":[[7.83472,45.52003],[7.83484,45.51882],[7.83482,45.51802],[7.83473,45.51732],[7.83228,45.50751],[7.83207,45.50625],[7.83127,45.5]]},"properties":{}},{"type":"Feature","geometry":{"type":"LineString","coordinates":[[7.83141,45.5],[7.83235,45.50718],[7.83486,45.51731],[7.83496,45.51802],[7.83498,45.51881],[7.83486,45.52004]]},"properties":{}},{"type":"Feature","geometry":{"type":"LineString","coordinates":[[7.83313,45.52382],[7.83431,45.52391]]},"properties":{}},{"type":"Feature","geometry":{"type":"LineString","coordinates":[[7.83431,45.52391],[7.83444,45.52392]]},"properties":{}},{"type":"Feature","geometry":{"type":"LineString","coordinates":[[7.83431,45.52391],[7.83472,45.52003]]},"properties":{}},{"type":"Feature","geometry":{"type":"LineString","coordinates":[[7.83486,45.52004],[7.83523,45.52009],[7.83539,45.52024],[7.8354,45.52036],[7.83525,45.52068],[7.83517,45.52103],[7.83523,45.52173],[7.83536,45.52235],[7.83512,45.52397],[7.83444,45.52392]]},"properties":{}},{"type":"Feature","geometry":{"type":"LineString","coordinates":[[7.83486,45.52004],[7.83444,45.52392]]},"properties":{}},{"type":"Feature","geometry":{"type":"LineString","coordinates":[[7.83472,45.52003],[7.83486,45.52004]]},"properties":{}},{"type":"Feature","geometry":{"type":"LineString","coordinates":[[7.85236,45.52481],[7.85251,45.52489],[7.8524,45.52499],[7.85222,45.52492],[7.85236,45.52481]]},"properties":{}},{"type":"Feature","geometry":{"type":"LineString","coordinates":[[7.85236,45.52481],[7.85297,45.5243],[7.85378,45.52352],[7.85393,45.52292],[7.8548,45.52123]]},"properties":{}},{"type":"Feature","geometry":{"type":"LineString","coordinates":[[7.8548,45.52123],[7.85353,45.52106],[7.8529,45.52115],[7.85259,45.52113],[7.85391,45.51838],[7.85435,45.51738],[7.85476,45.51608],[7.85488,45.51541]]},"properties":{}},{"type":"Feature","geometry":{"type":"LineString","coordinates":[[7.8548,45.52123],[7.85752,45.51605],[7.85769,45.51567]]},"properties":{}},{"type":"Feature","geometry":{"type":"LineString","coordinates":[[7.85488,45.51541],[7.85769,45.51567]]},"properties":{}},{"type":"Feature","geometry":{"type":"LineString","coordinates":[[7.85488,45.51541],[7.85534,45.51383],[7.85552,45.51312],[7.85605,45.51187],[7.85645,45.51013],[7.85642,45.50965],[7.85635,45.50915],[7.85597,45.50722],[7.85598,45.50664],[7.85624,45.50491],[7.85636,45.50436],[7.85765,45.5]]},"properties":{}},{"type":"Feature","geometry":{"type":"LineString","coordinates":[[7.85769,45.51567],[7.86059,45.51586],[7.86372,45.51591],[7.86492,45.51569],[7.86548,45.5155],[7.86658,45.51503],[7.86709,45.515],[7.86746,45.51506],[7.86788,45.51518],[7.86839,45.5154],[7.86879,45.51554],[7.86901,45.51555],[7.86919,45.51552],[7.86938,45.51541],[7.87243,45.51337],[7.87274,45.5132],[7.87321,45.51308],[7.87368,45.51305],[7.87403,45.51316],[7.8742,45.51381],[7.87417,45.51401],[7.87411,45.51414],[7.87378,45.51446],[7.87364,45.51466],[7.87357,45.51485],[7.87355,45.5152],[7.87345,45.51555],[7.87309,45.51656],[7.87307,45.51677],[7.87312,45.51689],[7.87326,45.51698],[7.8734,45.517],[7.8736,45.51695],[7.87405,45.51656],[7.87444,45.51641],[7.87476,45.51616],[7.87558,45.51572],[7.87587,45.51573],[7.87599,45.51584],[7.87596,45.51596],[7.87584,45.51609],[7.87534,45.51637],[7.87501,45.51663],[7.87433,45.51724],[7.87321,45.51816],[7.87275,45.5188],[7.87235,45.51919],[7.87208,45.51941],[7.87194,45.51949],[7.8717,45.51951],[7.87025,45.5195],[7.86965,45.51947],[7.86778,45.5192],[7.86757,45.51921],[7.86703,45.51958],[7.86674,45.5197],[7.86518,45.52],[7.86454,45.52016],[7.86287,45.52081],[7.86271,45.52097],[7.86186,45.52219],[7.86186,45.52232],[7.86193,45.52246],[7.86209,45.52255],[7.86221,45.52259],[7.86241,45.5226],[7.86254,45.52257],[7.86341,45.52203],[7.86355,45.52197],[7.86387,45.5219],[7.86402,45.52191],[7.86426,45.52198],[7.86442,45.52208],[7.86448,45.52216],[7.86447,45.52226],[7.8643,45.52263],[7.86416,45.52266],[7.86343,45.52265],[7.86316,45.52276],[7.86177,45.52356],[7.86137,45.52372],[7.86121,45.52389],[7.86091,45.52466],[7.86085,45.52491],[7.86083,45.52516],[7.86086,45.52541],[7.86093,45.52557],[7.86094,45.52604],[7.86099,45.52616],[7.86135,45.52663],[7.86141,45.52676],[7.8614,45.52688],[7.86134,45.52699],[7.86093,45.52741],[7.86068,45.52779],[7.86045,45.52825],[7.86043,45.52853],[7.86062,45.52902],[7.8611,45.52981],[7.86153,45.53094],[7.86158,45.53117],[7.86151,45.53126],[7.86108,45.53128],[7.8609,45.53139],[7.86084,45.53149],[7.86087,45.53186],[7.8608,45.53254],[7.86024,45.53281],[7.86012,45.53294],[7.85998,45.53316],[7.85996,45.53329],[7.86017,45.53368],[7.86036,45.53393],[7.86089,45.53413],[7.86091,45.53431],[7.8607,45.53477],[7.86024,45.53529],[7.8601,45.5354],[7.85948,45.5357],[7.85944,45.53576],[7.85946,45.53581],[7.85965,45.53592],[7.8598,45.53594],[7.86034,45.53588],[7.86128,45.53548],[7.86146,45.53537],[7.86159,45.53528],[7.86184,45.53487],[7.86204,45.53461],[7.86222,45.53428],[7.86243,45.53411],[7.86257,45.53392],[7.86272,45.53379],[7.86362,45.5332],[7.86374,45.53314],[7.86402,45.5331],[7.86416,45.533],[7.86414,45.5327],[7.86379,45.53225],[7.86381,45.53207],[7.86405,45.53185],[7.86408,45.53176],[7.86405,45.53167],[7.86366,45.53139],[7.86351,45.53077],[7.86352,45.5306],[7.86403,45.5297],[7.86402,45.52934],[7.86406,45.52916],[7.86415,45.52904],[7.8646,45.5288],[7.86486,45.52836],[7.86493,45.52794],[7.86488,45.52754],[7.86495,45.52699],[7.86512,45.52648],[7.86531,45.52614],[7.86583,45.52579],[7.8659,45.52567],[7.8659,45.52555],[7.86578,45.52525],[7.86588,45.52511],[7.86614,45.52484],[7.86637,45.52467],[7.86653,45.52462],[7.86699,45.52461],[7.86709,45.52469],[7.86711,45.52483],[7.86673,45.52549],[7.86668,45.52575],[7.86655,45.52596],[7.86653,45.52647],[7.86647,45.52662],[7.86612,45.52716],[7.86609,45.52751],[7.8661,45.52788],[7.86618,45.52816],[7.86652,45.5285],[7.86677,45.52884],[7.86726,45.52915],[7.86773,45.52929],[7.868,45.52944],[7.86821,45.52962],[7.86833,45.52962],[7.86838,45.52954],[7.86828,45.52942],[7.86748,45.529],[7.8673,45.52884],[7.86708,45.5285],[7.86697,45.52823],[7.86698,45.52803],[7.86706,45.52781],[7.86712,45.52769],[7.86745,45.52735],[7.86773,45.52721],[7.8679,45.52716],[7.86812,45.52702],[7.8683,45.5268],[7.86872,45.52662],[7.86882,45.52653],[7.86906,45.52603],[7.86918,45.5259],[7.86949,45.52572],[7.86966,45.52568],[7.87057,45.52567],[7.87087,45.52568],[7.87115,45.52573],[7.87129,45.52579],[7.87151,45.52593],[7.8718,45.52621],[7.87186,45.52632],[7.87186,45.5267],[7.87194,45.52682],[7.87222,45.52692],[7.87232,45.52702],[7.87238,45.52717],[7.87229,45.52731],[7.87206,45.52742],[7.87192,45.52742],[7.8713,45.52717],[7.87105,45.52718],[7.87059,45.52728],[7.8705,45.52739],[7.87046,45.52752],[7.87051,45.52762],[7.87081,45.52791],[7.87104,45.52807],[7.8715,45.52828],[7.8718,45.5283],[7.87194,45.52827],[7.87335,45.52747],[7.87465,45.52687],[7.87488,45.52693],[7.87513,45.52728],[7.87515,45.52785],[7.87517,45.52791],[7.87522,45.52794],[7.87539,45.5279],[7.87581,45.52772],[7.87673,45.52746],[7.87691,45.52746],[7.87776,45.52772]]},"properties":{}},{"type":"Feature","geometry":{"type":"LineString","coordinates":[[7.89697,45.5],[7.89712,45.50011],[7.89762,45.50067],[7.89768,45.50079],[7.8977,45.50093],[7.89767,45.50112],[7.89771,45.50128],[7.89777,45.50142],[7.89831,45.5023],[7.89841,45.5027],[7.89868,45.50338],[7.89873,45.5036],[7.89874,45.50375],[7.89872,45.50385],[7.89854,45.50414],[7.89843,45.50482],[7.89843,45.50511],[7.89854,45.50554],[7.89846,45.50613],[7.89847,45.50676],[7.89854,45.50735],[7.89865,45.50773],[7.89902,45.50862],[7.89936,45.50897],[7.89942,45.50911],[7.89933,45.50949],[7.8992,45.5098],[7.89904,45.50999],[7.89824,45.51069],[7.89746,45.51096],[7.89709,45.51113],[7.89636,45.51129],[7.89584,45.51156],[7.89529,45.51179],[7.89511,45.51183],[7.89408,45.51187],[7.89254,45.5122],[7.89232,45.51221],[7.89188,45.51215],[7.89118,45.5122],[7.89103,45.51216],[7.89089,45.51205]]},"properties":{}},{"type":"Feature","geometry":{"type":"LineString","coordinates":[[7.89089,45.51205],[7.89069,45.51192],[7.89091,45.51185],[7.89093,45.51193],[7.89089,45.51205]]},"properties":{}}]}