{"type":"FeatureCollection","features":[{"type":"Feature","geometry":{"type":"LineString","coordinates":[[8.0,43.86882],[8.00236,43.86991]]},"properties":{}},{"type":"Feature","geometry":{"type":"LineString","coordinates":[[8.0,43.87975],[8.00543,43.88306],[8.00654,43.88369],[8.00965,43.88557],[8.01089,43.88625],[8.01247,43.88698],[8.01457,43.88779],[8.01588,43.88821],[8.01686,43.88847],[8.01876,43.88889],[8.0235,43.88981],[8.02452,43.89005],[8.02505,43.89023],[8.02581,43.89055],[8.02641,43.8909],[8.02676,43.89114],[8.02711,43.89144],[8.02758,43.89191],[8.02796,43.89242],[8.0281,43.89267],[8.02842,43.89347],[8.02851,43.89396],[8.02853,43.89448],[8.02849,43.89492],[8.02842,43.89527],[8.02689,43.90029],[8.02679,43.90095],[8.02679,43.9017],[8.02685,43.90211],[8.02693,43.90245],[8.02708,43.90287],[8.02725,43.90323],[8.02763,43.90382],[8.02805,43.90434],[8.02868,43.90494],[8.02931,43.90538],[8.02985,43.90568],[8.03044,43.90597],[8.03116,43.90625],[8.03185,43.90645],[8.03247,43.90659],[8.03349,43.90673],[8.03455,43.90677],[8.0351,43.90673],[8.03591,43.90662],[8.03657,43.90649],[8.03737,43.90627],[8.03815,43.90598],[8.0388,43.90567],[8.03943,43.90529],[8.03993,43.90493],[8.04066,43.90428]]},"properties":{}},{"type":"Feature","geometry":{"type":"LineString","coordinates":[[8.04161,43.9035],[8.04078,43.90433],[8.04029,43.90479],[8.03954,43.90538],[8.0391,43.90568],[8.03811,43.9062],[8.03739,43.90649],[8.03678,43.90666],[8.03606,43.90682],[8.03519,43.90695],[8.0342,43.90702],[8.03361,43.90701],[8.03263,43.90689],[8.03152,43.90665],[8.03082,43.90643],[8.03009,43.90613],[8.02949,43.90582],[8.02914,43.90561],[8.02853,43.90515],[8.02792,43.90458],[8.02748,43.90407],[8.02704,43.90339],[8.02677,43.90272],[8.02668,43.90237],[8.02663,43.90207],[8.0266,43.90142],[8.02668,43.90064],[8.02679,43.90017],[8.02777,43.89696],[8.02816,43.89515],[8.02823,43.89451],[8.0282,43.89378],[8.02804,43.89312],[8.0279,43.89277],[8.02776,43.89249],[8.02747,43.89206],[8.02696,43.8915],[8.02664,43.89122],[8.02572,43.89065],[8.025,43.89031],[8.02439,43.89011],[8.02354,43.8899],[8.02238,43.88967],[8.02011,43.88924],[8.01786,43.88887],[8.01678,43.88863],[8.01572,43.88835],[8.01438,43.88794],[8.01298,43.88744],[8.01226,43.88714],[8.01098,43.88655],[8.00921,43.88557],[8.00648,43.8839],[8.00481,43.88279],[8.00304,43.88169],[8.0,43.87985]]},"properties":{}},{"type":"Feature","geometry":{"type":"LineString","coordinates":[[8.00236,43.86991],[8.00407,43.87083],[8.00437,43.87094]]},"properties":{}},{"type":"Feature","geometry":{"type":"LineString","coordinates":[[8.00437,43.87094],[8.00423,43.87094],[8.00398,43.87087],[8.00339,43.87057],[8.00296,43.87035],[8.00236,43.86991]]},"properties":{}},{"type":"Feature","geometry":{"type":"LineString","coordinates":[[8.01039,43.87286],[8.01027,43.87261],[8.00992,43.87206],[8.00969,43.87182],[8.00912,43.87154],[8.00765,43.87097],[8.00672,43.87045],[8.00634,43.87039],[8.00606,43.87041],[8.00478,43.87087],[8.00457,43.87093],[8.00437,43.87094]]},"properties":{}},{"type":"Feature","geometry":{"type":"LineString","coordinates":[[8.01039,43.87286],[8.01063,43.87311],[8.01092,43.87324]]},"properties":{}},{"type":"Feature","geometry":{"type":"LineString","coordinates":[[8.01092,43.87324],[8.01059,43.87323],[8.01047,43.87326],[8.01035,43.87323],[8.0103,43.87311],[8.01036,43.87304],[8.01039,43.87286]]},"properties":{}},{"type":"Feature","geometry":{"type":"LineString","coordinates":[[8.01092,43.87324],[8.01193,43.87344],[8.01215,43.87345]]},"properties":{}},{"type":"Feature","geometry":{"type":"LineString","coordinates":[[8.01702,43.87373],[8.01381,43.87575],[8.01345,43.876],[8.01292,43.87534],[8.01273,43.87506],[8.01253,43.87446],[8.0122,43.87372],[8.01215,43.87345]]},"properties":{}},{"type":"Feature","geometry":{"type":"LineString","coordinates":[[8.01215,43.87345],[8.01234,43.87342],[8.01243,43.87337],[8.01252,43.87288],[8.01274,43.87268],[8.01333,43.87251],[8.01444,43.87238],[8.01514,43.8725],[8.01551,43.87262],[8.01653,43.87325],[8.01702,43.87373]]},"properties":{}},{"type":"Feature","geometry":{"type":"LineString","coordinates":[[8.01634,43.87842],[8.01682,43.87874],[8.01701,43.87901],[8.01723,43.87944],[8.01744,43.87968],[8.01839,43.8803],[8.01849,43.88039],[8.01857,43.88056],[8.01867,43.88064],[8.0189,43.88077],[8.01921,43.8809],[8.02006,43.88152],[8.02142,43.88207],[8.02147,43.88214],[8.02158,43.88221],[8.0226,43.88263],[8.02307,43.88278],[8.02347,43.88285]]},"properties":{}},{"type":"Feature","geometry":{"type":"LineString","coordinates":[[8.02347,43.88285],[8.02254,43.88294],[8.02168,43.88291],[8.02116,43.88285],[8.02076,43.88266],[8.02064,43.88257],[8.02045,43.88225],[8.02027,43.88203],[8.02014,43.88192],[8.01885,43.88132],[8.01824,43.88056],[8.01775,43.88023],[8.01735,43.87982],[8.01708,43.87949],[8.01676,43.87892],[8.01634,43.87842]]},"properties":{}},{"type":"Feature","geometry":{"type":"LineString","coordinates":[[8.01702,43.87373],[8.01777,43.8745],[8.01781,43.87465],[8.0178,43.87514],[8.01768,43.87537],[8.01686,43.87623],[8.01597,43.87709],[8.01593,43.87721],[8.01592,43.87796],[8.01602,43.87814],[8.01634,43.87842]]},"properties":{}},{"type":"Feature","geometry":{"type":"LineString","coordinates":[[8.03429,43.89043],[8.03279,43.88901],[8.03215,43.88811],[8.03204,43.88803],[8.03147,43.88787],[8.03017,43.88681],[8.02866,43.88576],[8.02806,43.88539],[8.02772,43.88524],[8.0266,43.88451],[8.02628,43.8842],[8.02513,43.88331],[8.02484,43.88315],[8.02416,43.88293],[8.02383,43.88286],[8.02347,43.88285]]},"properties":{}},{"type":"Feature","geometry":{"type":"LineString","coordinates":[[8.03429,43.89043],[8.03484,43.89055]]},"properties":{}},{"type":"Feature","geometry":{"type":"LineString","coordinates":[[8.03484,43.89055],[8.03463,43.8906],[8.03429,43.89043]]},"properties":{}},{"type":"Feature","geometry":{"type":"LineString","coordinates":[[8.03484,43.89055],[8.03764,43.89004]]},"properties":{}},{"type":"Feature","geometry":{"type":"LineString","coordinates":[[8.03655,43.89799],[8.03659,43.89808],[8.03674,43.89817],[8.03694,43.89823],[8.03705,43.89834],[8.03707,43.89851],[8.03693,43.89869],[8.03696,43.89882],[8.03708,43.89902]]},"properties":{}},{"type":"Feature","geometry":{"type":"LineString","coordinates":[[8.03708,43.89902],[8.03673,43.89873],[8.03651,43.89866],[8.03637,43.89854],[8.03636,43.89837],[8.0364,43.8983],[8.03653,43.89821],[8.03655,43.89799]]},"properties":{}},{"type":"Feature","geometry":{"type":"LineString","coordinates":[[8.03655,43.89799],[8.03657,43.89786],[8.03827,43.8931],[8.03839,43.89283],[8.03846,43.89278],[8.03861,43.89275],[8.03936,43.89271],[8.04012,43.89259]]},"properties":{}},{"type":"Feature","geometry":{"type":"LineString","coordinates":[[8.03708,43.89902],[8.03882,43.90115],[8.03885,43.90142],[8.03865,43.90199],[8.03868,43.9021],[8.03881,43.90224],[8.03897,43.90231],[8.03915,43.90234],[8.03938,43.9023],[8.03951,43.90223],[8.03958,43.90214],[8.03961,43.90203],[8.03943,43.9014],[8.03945,43.90127],[8.03954,43.90114],[8.03967,43.90108],[8.03987,43.90105],[8.04004,43.90109],[8.04022,43.90121],[8.04027,43.90139],[8.03993,43.90216],[8.03984,43.90245],[8.03985,43.90259],[8.03992,43.90271],[8.04015,43.90284],[8.04029,43.90287],[8.04054,43.90283],[8.04066,43.90276],[8.04077,43.90258],[8.04077,43.90242],[8.04064,43.90186],[8.04072,43.9016],[8.04087,43.90144]]},"properties":{}},{"type":"Feature","geometry":{"type":"LineString","coordinates":[[8.03784,43.88999],[8.03784,43.89004],[8.03777,43.89008],[8.0377,43.89008],[8.03764,43.89004]]},"properties":{}},{"type":"Feature","geometry":{"type":"LineString","coordinates":[[8.03764,43.89004],[8.03764,43.88999],[8.03771,43.88994],[8.03778,43.88994],[8.03784,43.88999]]},"properties":{}},{"type":"Feature","geometry":{"type":"LineString","coordinates":[[8.03784,43.88999],[8.03912,43.88975]]},"properties":{}},{"type":"Feature","geometry":{"type":"LineString","coordinates":[[8.03936,43.88996],[8.03926,43.88979],[8.03912,43.88975]]},"properties":{}},{"type":"Feature","geometry":{"type":"LineString","coordinates":[[8.03912,43.88975],[8.03931,43.88967]]},"properties":{}},{"type":"Feature","geometry":{"type":"LineString","coordinates":[[8.03928,43.89049],[8.03937,43.89016]]},"properties":{}},{"type":"Feature","geometry":{"type":"LineString","coordinates":[[8.03936,43.88996],[8.03937,43.88978],[8.03931,43.88967]]},"properties":{}},{"type":"Feature","geometry":{"type":"LineString","coordinates":[[8.03931,43.88967],[8.03938,43.88956],[8.03954,43.88952]]},"properties":{}},{"type":"Feature","geometry":{"type":"LineString","coordinates":[[8.03937,43.89016],[8.03936,43.88996]]},"properties":{}},{"type":"Feature","geometry":{"type":"LineString","coordinates":[[8.03982,43.89032],[8.03937,43.89016]]},"properties":{}},{"type":"Feature","geometry":{"type":"LineString","coordinates":[[8.03954,43.88952],[8.03966,43.88956],[8.03973,43.88966]]},"properties":{}},{"type":"Feature","geometry":{"type":"LineString","coordinates":[[8.03954,43.88952],[8.03963,43.88941],[8.03968,43.88918],[8.0401,43.88806],[8.04013,43.888],[8.0403,43.88788],[8.04037,43.88787],[8.04177,43.88796],[8.04491,43.88801],[8.0455,43.88788],[8.04639,43.88784],[8.04657,43.88836]]},"properties":{}},{"type":"Feature","geometry":{"type":"LineString","coordinates":[[8.03973,43.88966],[8.0397,43.88975],[8.0399,43.88997],[8.03993,43.89007]]},"properties":{}},{"type":"Feature","geometry":{"type":"LineString","coordinates":[[8.04551,43.88856],[8.03982,43.88962],[8.03973,43.88966]]},"properties":{}},{"type":"Feature","geometry":{"type":"LineString","coordinates":[[8.04034,43.89153],[8.04026,43.89142],[8.03996,43.89044],[8.03982,43.89032]]},"properties":{}},{"type":"Feature","geometry":{"type":"LineString","coordinates":[[8.03993,43.89007],[8.03982,43.89032]]},"properties":{}},{"type":"Feature","geometry":{"type":"LineString","coordinates":[[8.03993,43.89007],[8.04034,43.89143],[8.04034,43.89153]]},"properties":{}},{"type":"Feature","geometry":{"type":"LineString","coordinates":[[8.04012,43.89259],[8.04028,43.89251],[8.04036,43.8924],[8.04036,43.89203]]},"properties":{}},{"type":"Feature","geometry":{"type":"LineString","coordinates":[[8.04036,43.89203],[8.04043,43.89215],[8.04063,43.89222],[8.04064,43.89232],[8.04057,43.89237],[8.04048,43.89239],[8.04041,43.89252],[8.04029,43.89257],[8.04012,43.89259]]},"properties":{}},{"type":"Feature","geometry":{"type":"LineString","coordinates":[[8.04036,43.89203],[8.04034,43.89153]]},"properties":{}},{"type":"Feature","geometry":{"type":"LineString","coordinates":[[8.04066,43.90428],[8.04083,43.90404],[8.04186,43.90292],[8.04201,43.90265],[8.0421,43.90219]]},"properties":{}},{"type":"Feature","geometry":{"type":"LineString","coordinates":[[8.04066,43.90428],[8.04131,43.90366],[8.04234,43.90255]]},"properties":{}},{"type":"Feature","geometry":{"type":"LineString","coordinates":[[8.04087,43.90144],[8.04144,43.90103],[8.04164,43.90079],[8.04172,43.90061],[8.04205,43.89947]]},"properties":{}},{"type":"Feature","geometry":{"type":"LineString","coordinates":[[8.04205,43.89947],[8.04192,43.90031],[8.04179,43.90076],[8.04163,43.90097],[8.04144,43.90115],[8.04087,43.90144]]},"properties":{}},{"type":"Feature","geometry":{"type":"LineString","coordinates":[[8.04242,43.90261],[8.04161,43.9035]]},"properties":{}},{"type":"Feature","geometry":{"type":"LineString","coordinates":[[8.04299,43.90318],[8.04285,43.9031],[8.04263,43.90304],[8.04224,43.90305],[8.04206,43.90312],[8.04161,43.9035]]},"properties":{}},{"type":"Feature","geometry":{"type":"LineString","coordinates":[[8.04205,43.89947],[8.04219,43.89881],[8.04228,43.89868],[8.04244,43.89859],[8.04267,43.89856],[8.04288,43.89862],[8.043,43.89871],[8.04307,43.89888],[8.04303,43.89904],[8.0426,43.89933],[8.0425,43.8995],[8.04248,43.89962],[8.04256,43.89981],[8.04292,43.90033],[8.04303,43.9006]]},"properties":{}},{"type":"Feature","geometry":{"type":"LineString","coordinates":[[8.0421,43.90219],[8.0422,43.9024],[8.04234,43.90255]]},"properties":{}},{"type":"Feature","geometry":{"type":"LineString","coordinates":[[8.0421,43.90219],[8.04213,43.902],[8.04225,43.90179]]},"properties":{}},{"type":"Feature","geometry":{"type":"LineString","coordinates":[[8.04225,43.90179],[8.04241,43.90148],[8.04293,43.90082],[8.04303,43.9006]]},"properties":{}},{"type":"Feature","geometry":{"type":"LineString","coordinates":[[8.04303,43.9006],[8.04305,43.90079],[8.043,43.90095],[8.04244,43.90163],[8.04225,43.90179]]},"properties":{}},{"type":"Feature","geometry":{"type":"LineString","coordinates":[[8.04234,43.90255],[8.04242,43.90261]]},"properties":{}},{"type":"Feature","geometry":{"type":"LineString","coordinates":[[8.04234,43.90255],[8.0424,43.90249]]},"properties":{}},{"type":"Feature","geometry":{"type":"LineString","coordinates":[[8.04247,43.90255],[8.0424,43.90249]]},"properties":{}},{"type":"Feature","geometry":{"type":"LineString","coordinates":[[8.0424,43.90249],[8.0423,43.90237],[8.04226,43.90224],[8.04229,43.9021],[8.04234,43.90202],[8.04309,43.90154],[8.0434,43.90123],[8.04365,43.90105]]},"properties":{}},{"type":"Feature","geometry":{"type":"LineString","coordinates":[[8.0424,43.90249],[8.04365,43.90105]]},"properties":{}},{"type":"Feature","geometry":{"type":"LineString","coordinates":[[8.04242,43.90261],[8.04281,43.90292],[8.04293,43.90304],[8.04299,43.90318]]},"properties":{}},{"type":"Feature","geometry":{"type":"LineString","coordinates":[[8.04247,43.90255],[8.04242,43.90261]]},"properties":{}},{"type":"Feature","geometry":{"type":"LineString","coordinates":[[8.04373,43.90394],[8.04379,43.90381],[8.04379,43.90373],[8.04371,43.90356],[8.04247,43.90255]]},"properties":{}},{"type":"Feature","geometry":{"type":"LineString","coordinates":[[8.0433,43.90167],[8.04247,43.90255]]},"properties":{}},{"type":"Feature","geometry":{"type":"LineString","coordinates":[[8.04373,43.90394],[8.04371,43.90376],[8.04365,43.90367],[8.04299,43.90318]]},"properties":{}},{"type":"Feature","geometry":{"type":"LineString","coordinates":[[8.04299,43.90318],[8.04301,43.90328],[8.04298,43.90341],[8.04278,43.90374],[8.04278,43.90391],[8.04284,43.90403],[8.043,43.90416],[8.04323,43.9042],[8.04348,43.90416],[8.04368,43.90405]]},"properties":{}},{"type":"Feature","geometry":{"type":"LineString","coordinates":[[8.0433,43.90167],[8.04291,43.90224],[8.04286,43.90249],[8.04295,43.90272],[8.04375,43.90343],[8.04383,43.90354],[8.04387,43.90372],[8.04385,43.90385],[8.04368,43.90405]]},"properties":{}},{"type":"Feature","geometry":{"type":"LineString","coordinates":[[8.13181,44.0],[8.13215,43.99935],[8.13245,43.99894],[8.13283,43.99847],[8.13386,43.99738],[8.13479,43.99649],[8.13557,43.9956],[8.13618,43.99467],[8.13652,43.99399],[8.13687,43.99292],[8.13699,43.99219],[8.13703,43.99145],[8.13694,43.99034],[8.13629,43.98525],[8.13629,43.98472],[8.13633,43.98435],[8.1365,43.98364],[8.13667,43.98321],[8.1369,43.98277],[8.13718,43.98238],[8.13879,43.98034],[8.13957,43.97901],[8.14026,43.97737],[8.14103,43.97532],[8.14141,43.97453],[8.14201,43.97354],[8.14319,43.97182],[8.14358,43.9711],[8.1438,43.97046],[8.14391,43.97],[8.14399,43.96926],[8.14397,43.96879],[8.14389,43.96826],[8.14377,43.9678],[8.14361,43.96737],[8.14341,43.96696],[8.14313,43.9665],[8.14254,43.96574],[8.14209,43.9653],[8.14125,43.96466],[8.13678,43.96179],[8.13626,43.96137],[8.13588,43.96099],[8.13566,43.96074],[8.13525,43.96017],[8.13502,43.95977],[8.13482,43.9593],[8.13468,43.95884],[8.1346,43.95836],[8.13458,43.95804],[8.1346,43.95734],[8.13477,43.95561],[8.13476,43.95493],[8.13467,43.95441],[8.1345,43.95383],[8.13431,43.95336],[8.134,43.95279],[8.13349,43.9521],[8.13308,43.95167],[8.13234,43.95104],[8.13195,43.95078],[8.13014,43.94982],[8.12926,43.94945],[8.12626,43.94835],[8.11378,43.94368],[8.11282,43.94327],[8.11235,43.94303],[8.11152,43.94253],[8.11051,43.94178],[8.10979,43.94108],[8.10931,43.94053],[8.10876,43.93973],[8.10727,43.93719],[8.10677,43.93651],[8.10633,43.93604],[8.10563,43.93539],[8.1002,43.93093],[8.09967,43.93046],[8.09862,43.92942],[8.09473,43.92527],[8.09386,43.9245],[8.09327,43.92409],[8.09294,43.92391],[8.09187,43.92345],[8.09103,43.92318],[8.0902,43.92301],[8.08935,43.92291],[8.08668,43.92281],[8.08463,43.92279],[8.07718,43.92254],[8.07575,43.92242],[8.07456,43.92218],[8.07372,43.92191],[8.07282,43.92151],[8.0723,43.92121],[8.07157,43.92068],[8.07099,43.92018],[8.07074,43.91992],[8.07027,43.91933],[8.06998,43.91875],[8.06975,43.91797],[8.06821,43.91118],[8.06797,43.91045],[8.06756,43.90958],[8.067,43.90872],[8.06666,43.90827],[8.06602,43.90758],[8.06537,43.90699],[8.06482,43.90655],[8.06376,43.90587],[8.05373,43.90044],[8.05255,43.89987],[8.05203,43.89966],[8.05136,43.89945],[8.05072,43.89929],[8.04988,43.89916],[8.04886,43.89913],[8.04779,43.89923],[8.04684,43.89946],[8.04596,43.89976],[8.04496,43.90027],[8.04447,43.90058],[8.04393,43.90102],[8.0433,43.90167]]},"properties":{}},{"type":"Feature","geometry":{"type":"LineString","coordinates":[[8.04365,43.90105],[8.0442,43.90053],[8.04483,43.9001],[8.04577,43.8996],[8.04675,43.89924],[8.04775,43.899],[8.04867,43.89889],[8.04983,43.89892],[8.05089,43.89906],[8.0516,43.89923],[8.05243,43.89952],[8.05362,43.90008],[8.06422,43.90587],[8.06526,43.90659],[8.0663,43.90751],[8.06694,43.90821],[8.06728,43.90866],[8.06782,43.9095],[8.06808,43.91001],[8.06835,43.91065],[8.06851,43.91119],[8.06999,43.91785],[8.07021,43.91852],[8.07035,43.91884],[8.07062,43.91928],[8.07085,43.91958],[8.07175,43.92047],[8.07242,43.92098],[8.07337,43.9215],[8.0743,43.92186],[8.07503,43.92206],[8.07604,43.92224],[8.07728,43.92234],[8.08407,43.92257],[8.08622,43.92271],[8.08947,43.92284],[8.09026,43.92294],[8.09124,43.92316],[8.09197,43.92339],[8.09296,43.92382],[8.09331,43.92401],[8.0938,43.92434],[8.09421,43.92466],[8.09469,43.92509],[8.09843,43.92908],[8.0998,43.93045],[8.10571,43.93533],[8.10645,43.93601],[8.10691,43.93653],[8.10736,43.93713],[8.10875,43.93951],[8.10928,43.94027],[8.10997,43.94106],[8.11052,43.94156],[8.11115,43.94206],[8.11158,43.94235],[8.11233,43.94279],[8.11352,43.94335],[8.12944,43.94921],[8.13026,43.94955],[8.13119,43.94999],[8.13222,43.95063],[8.13288,43.95117],[8.13348,43.95179],[8.13393,43.95238],[8.13432,43.95303],[8.13455,43.95356],[8.13476,43.95426],[8.13486,43.95482],[8.13489,43.9556],[8.1347,43.95757],[8.1347,43.95829],[8.13478,43.95876],[8.1349,43.95918],[8.13507,43.95961],[8.13531,43.96006],[8.13576,43.96071],[8.13616,43.96114],[8.13657,43.96151],[8.13729,43.96202],[8.14135,43.96462],[8.14208,43.96518],[8.14264,43.96571],[8.14299,43.96611],[8.14334,43.96664],[8.14377,43.96747],[8.14401,43.96834],[8.14409,43.96888],[8.1441,43.96935],[8.14405,43.96987],[8.14396,43.97032],[8.14382,43.97079],[8.14362,43.97127],[8.14309,43.97218],[8.14211,43.97358],[8.14185,43.974],[8.14147,43.97467],[8.14115,43.97533],[8.14074,43.9765],[8.14038,43.97802],[8.14016,43.97858],[8.13974,43.97933],[8.1394,43.97984],[8.13886,43.98052],[8.13806,43.98144],[8.13713,43.98261],[8.13687,43.98303],[8.13661,43.98363],[8.13644,43.98438],[8.1364,43.98471],[8.13641,43.98531],[8.13706,43.99034],[8.13714,43.99145],[8.1371,43.99219],[8.13705,43.99256],[8.13688,43.99329],[8.13663,43.99401],[8.13629,43.9947],[8.13594,43.99527],[8.13569,43.99563],[8.13412,43.9976],[8.13269,43.99929],[8.13216,44.0]]},"properties":{}},{"type":"Feature","geometry":{"type":"LineString","coordinates":[[8.04368,43.90405],[8.04373,43.90394]]},"properties":{}},{"type":"Feature","geometry":{"type":"LineString","coordinates":[[8.04566,43.88853],[8.04565,43.88858],[8.04561,43.8886],[8.04551,43.88856]]},"properties":{}},{"type":"Feature","geometry":{"type":"LineString","coordinates":[[8.04551,43.88856],[8.04556,43.88849],[8.04566,43.88853]]},"properties":{}},{"type":"Feature","geometry":{"type":"LineString","coordinates":[[8.04566,43.88853],[8.04657,43.88836]]},"properties":{}},{"type":"Feature","geometry":{"type":"LineString","coordinates":[[8.04657,43.88836],[8.04765,43.88817],[8.04979,43.88811],[8.05043,43.88795],[8.0515,43.88806],[8.05268,43.88801],[8.05291,43.88809],[8.05323,43.88827],[8.05342,43.88833],[8.05357,43.88836],[8.05421,43.88835],[8.05441,43.8884],[8.05501,43.88865],[8.05549,43.88871],[8.05559,43.88874],[8.0558,43.88891],[8.05617,43.88944],[8.05639,43.88965],[8.05662,43.88971],[8.05702,43.88958],[8.05718,43.88958],[8.05729,43.88963],[8.05753,43.88984],[8.0578,43.89],[8.05809,43.89001],[8.05834,43.88994],[8.05842,43.88987],[8.05863,43.8896],[8.05882,43.88947],[8.05916,43.88933],[8.05942,43.88934],[8.05982,43.88942],[8.0607,43.88943],[8.06095,43.88948],[8.06138,43.88974],[8.0616,43.88981],[8.06182,43.88982],[8.06229,43.88974],[8.06249,43.88976],[8.06301,43.8899],[8.0636,43.88999],[8.06436,43.8902],[8.06515,43.89032],[8.06591,43.8906],[8.06617,43.89084],[8.06626,43.89087],[8.06659,43.89089],[8.06738,43.89085],[8.06796,43.89091],[8.06825,43.891],[8.0697,43.89157],[8.07042,43.892],[8.07198,43.89259],[8.07242,43.89278],[8.07267,43.89292],[8.07349,43.89356],[8.07414,43.89417],[8.0746,43.89494],[8.07469,43.89504],[8.07485,43.89513],[8.07505,43.89516],[8.0756,43.89511],[8.07597,43.89517],[8.07613,43.89528],[8.07627,43.89571],[8.07664,43.89616],[8.07661,43.89633],[8.07654,43.8964],[8.07634,43.89649],[8.07582,43.89656],[8.07481,43.89656],[8.07467,43.89661],[8.07458,43.89673],[8.07457,43.89683],[8.07463,43.89695],[8.07511,43.89739],[8.0755,43.89763],[8.07626,43.89798],[8.07664,43.89825],[8.07676,43.8984],[8.07678,43.89847],[8.07675,43.89861],[8.07665,43.89872],[8.07643,43.89877],[8.07593,43.89871],[8.07491,43.89848],[8.07468,43.89848],[8.0746,43.89852],[8.07459,43.8986],[8.07464,43.89869],[8.07501,43.89908],[8.0753,43.8996],[8.07564,43.89992],[8.07571,43.90005],[8.07568,43.90019],[8.07547,43.90063],[8.0754,43.90101],[8.07527,43.90116],[8.07503,43.90123],[8.07469,43.90122],[8.07453,43.90125],[8.07442,43.90131],[8.07438,43.9014],[8.07438,43.90151],[8.07453,43.90182],[8.07462,43.90192],[8.07492,43.90213],[8.07534,43.90284],[8.07551,43.90304],[8.07565,43.90315],[8.07715,43.90366],[8.07738,43.90377],[8.07758,43.90392],[8.07809,43.90452],[8.08047,43.90691],[8.08103,43.90746],[8.08205,43.90834],[8.08246,43.90862],[8.08518,43.91021],[8.08528,43.91035],[8.08527,43.91054],[8.08532,43.91064],[8.08937,43.91624],[8.09037,43.91756],[8.09068,43.91777],[8.09109,43.91793],[8.10316,43.92183]]},"properties":{}},{"type":"Feature","geometry":{"type":"LineString","coordinates":[[8.10316,43.92183],[8.10332,43.92184]]},"properties":{}},{"type":"Feature","geometry":{"type":"LineString","coordinates":[[8.10327,43.92191],[8.10316,43.92183]]},"properties":{}},{"type":"Feature","geometry":{"type":"LineString","coordinates":[[8.10357,43.922],[8.1035,43.92204],[8.10337,43.92204],[8.10328,43.92197],[8.10327,43.92191]]},"properties":{}},{"type":"Feature","geometry":{"type":"LineString","coordinates":[[8.10327,43.92191],[8.10332,43.92184]]},"properties":{}},{"type":"Feature","geometry":{"type":"LineString","coordinates":[[8.10332,43.92184],[8.10349,43.92181],[8.10358,43.92186],[8.1036,43.92193]]},"properties":{}},{"type":"Feature","geometry":{"type":"LineString","coordinates":[[8.10378,43.92202],[8.10357,43.922]]},"properties":{}},{"type":"Feature","geometry":{"type":"LineString","coordinates":[[8.1036,43.92193],[8.10357,43.922]]},"properties":{}},{"type":"Feature","geometry":{"type":"LineString","coordinates":[[8.1036,43.92193],[8.10378,43.92202]]},"properties":{}},{"type":"Feature","geometry":{"type":"LineString","coordinates":[[8.10378,43.92202],[8.10716,43.92315],[8.10838,43.92338],[8.10857,43.92352],[8.109,43.92399],[8.10912,43.92407],[8.10932,43.92414],[8.11037,43.92425],[8.1121,43.92436],[8.11272,43.92445],[8.11371,43.92465],[8.11491,43.92474],[8.11694,43.92547],[8.11743,43.92561],[8.11781,43.92554],[8.11855,43.92531],[8.1188,43.92532],[8.11922,43.92538],[8.11977,43.9256],[8.12,43.92578],[8.12016,43.92586],[8.12082,43.9261],[8.12142,43.92613],[8.12174,43.92628],[8.12245,43.92639],[8.12281,43.92649],[8.12329,43.92667],[8.12378,43.9267],[8.12484,43.92683],[8.12597,43.92726],[8.12741,43.9281],[8.12771,43.92817],[8.12828,43.92817],[8.12841,43.92822],[8.12889,43.92864],[8.12895,43.92889],[8.12903,43.929],[8.12915,43.92912],[8.12947,43.92929],[8.12963,43.92943],[8.12967,43.92974],[8.12972,43.92984],[8.12995,43.93002],[8.13023,43.93018],[8.13062,43.93084],[8.13095,43.93122],[8.13108,43.9316],[8.13116,43.93169],[8.13143,43.93189],[8.1315,43.93198],[8.13153,43.93206],[8.13137,43.93241],[8.13135,43.93251],[8.13139,43.93264],[8.1317,43.93306],[8.13172,43.93321],[8.13164,43.93403],[8.13168,43.93447],[8.13173,43.93465],[8.13193,43.93494],[8.13215,43.93514],[8.13238,43.9353],[8.13255,43.9355],[8.13259,43.93562],[8.13256,43.93597],[8.13244,43.93631],[8.13248,43.93646],[8.13264,43.93663],[8.13301,43.93693],[8.13364,43.93766],[8.13378,43.93788],[8.13384,43.93822],[8.13417,43.93866],[8.13419,43.93881],[8.13416,43.93898],[8.13372,43.93969],[8.13369,43.93998],[8.1335,43.94033],[8.13346,43.94047],[8.13348,43.94057],[8.13354,43.94067],[8.13374,43.94079],[8.13403,43.94086],[8.13438,43.94088],[8.13466,43.94095],[8.13474,43.94101],[8.1348,43.94109],[8.13482,43.94131],[8.13489,43.94146],[8.13532,43.94185],[8.13542,43.94201],[8.13545,43.94221],[8.13551,43.94238],[8.13561,43.94254],[8.13578,43.94269],[8.13588,43.94283],[8.13597,43.94336],[8.1362,43.94355],[8.13657,43.94369],[8.13677,43.94385],[8.13685,43.94402],[8.13691,43.94434],[8.13701,43.94444],[8.13727,43.9446],[8.13742,43.94477],[8.13757,43.94518],[8.13782,43.94553],[8.13795,43.94576],[8.13799,43.94592],[8.13795,43.94618],[8.13773,43.9466],[8.1377,43.94671],[8.13769,43.94681],[8.13774,43.94696],[8.13787,43.94714],[8.13852,43.94778],[8.13865,43.94802],[8.1388,43.94848],[8.1389,43.94864],[8.13911,43.94881],[8.13938,43.94888],[8.14234,43.9492],[8.14269,43.94927],[8.15107,43.95131]]},"properties":{}},{"type":"Feature","geometry":{"type":"LineString","coordinates":[[8.15107,43.95131],[8.15125,43.95134]]},"properties":{}},{"type":"Feature","geometry":{"type":"LineString","coordinates":[[8.1512,43.95142],[8.15107,43.95131]]},"properties":{}},{"type":"Feature","geometry":{"type":"LineString","coordinates":[[8.15145,43.95148],[8.15131,43.95151],[8.15124,43.95148],[8.1512,43.95142]]},"properties":{}},{"type":"Feature","geometry":{"type":"LineString","coordinates":[[8.1512,43.95142],[8.15125,43.95134]]},"properties":{}},{"type":"Feature","geometry":{"type":"LineString","coordinates":[[8.15125,43.95134],[8.15139,43.95132],[8.15148,43.95139]]},"properties":{}},{"type":"Feature","geometry":{"type":"LineString","coordinates":[[8.15148,43.95139],[8.15145,43.95148]]},"properties":{}},{"type":"Feature","geometry":{"type":"LineString","coordinates":[[8.15167,43.95145],[8.15145,43.95148]]},"properties":{}},{"type":"Feature","geometry":{"type":"LineString","coordinates":[[8.15148,43.95139],[8.15167,43.95145]]},"properties":{}},{"type":"Feature","geometry":{"type":"LineString","coordinates":[[8.15167,43.95145],[8.15498,43.95229],[8.15612,43.95243],[8.15764,43.95279],[8.1585,43.95278],[8.15885,43.9528],[8.15913,43.95285],[8.1602,43.95325],[8.16049,43.9533],[8.16075,43.9533],[8.16117,43.95322],[8.16442,43.95255],[8.16461,43.95254],[8.16572,43.95265],[8.166,43.95271],[8.16647,43.95289],[8.16665,43.95292],[8.16754,43.95301],[8.16823,43.95325],[8.16842,43.95337],[8.16894,43.95393],[8.16916,43.95407],[8.17041,43.95422],[8.17146,43.9545],[8.17175,43.95461],[8.17235,43.95509],[8.17249,43.95526],[8.17255,43.95543],[8.17258,43.95584],[8.17262,43.95598],[8.17298,43.95651],[8.17303,43.95674],[8.17299,43.95715],[8.17279,43.95764],[8.17272,43.95797],[8.17272,43.95832],[8.1727,43.95842],[8.1726,43.95855],[8.17248,43.95865],[8.17193,43.95892],[8.17151,43.95905],[8.17125,43.95925],[8.17098,43.95953],[8.17064,43.95977],[8.17046,43.96002],[8.17027,43.96018],[8.16986,43.96043],[8.16884,43.96155],[8.16833,43.96195],[8.16751,43.96242],[8.16697,43.96305],[8.16686,43.96323],[8.16653,43.96412],[8.16585,43.96503],[8.16566,43.96551],[8.16518,43.96586],[8.1648,43.96656],[8.16434,43.96698],[8.16399,43.9677],[8.16386,43.96789],[8.16361,43.96815],[8.16315,43.96851],[8.1623,43.96891],[8.16135,43.96958],[8.16123,43.96972],[8.16096,43.97012],[8.16077,43.97074],[8.15996,43.97224],[8.1595,43.97399],[8.15935,43.97443],[8.15919,43.9746],[8.15841,43.97501],[8.15828,43.97514],[8.15819,43.97532],[8.15773,43.97771],[8.15775,43.97793],[8.15858,43.9806],[8.15889,43.98122],[8.15987,43.98541],[8.16015,43.98638],[8.16047,43.9871],[8.16127,43.98864],[8.16232,43.99044],[8.16256,43.99089],[8.16276,43.99152],[8.16284,43.99237],[8.1629,43.99267],[8.16299,43.99298],[8.16318,43.99344],[8.16377,43.9945],[8.16533,43.99714],[8.16535,43.99737],[8.16511,43.99942],[8.16533,44.0]]},"properties":{}},{"type":"Feature","geometry":{"type":"LineString","coordinates":[[8.03932,43.89047],[8.03939,43.89022],[8.03962,43.89029],[8.03955,43.89044],[8.03932,43.89047]]},"properties":{}}]}