{"type":"FeatureCollection","features":[{"type":"Feature","geometry":{"type":"LineString","coordinates":[[8.0,44.39024],[8.00655,44.38807],[8.00726,44.38777],[8.00783,44.38745],[8.0086,44.38686],[8.00965,44.38588],[8.01429,44.38148],[8.01767,44.37814],[8.01933,44.37655],[8.02043,44.37561],[8.02109,44.37514],[8.02183,44.37467],[8.02891,44.37052],[8.02944,44.37026],[8.03,44.37006],[8.03103,44.36979],[8.03213,44.36965],[8.03307,44.36965],[8.03383,44.36972],[8.0345,44.36984],[8.03543,44.37011],[8.03611,44.3704],[8.03667,44.3707],[8.04024,44.37299],[8.04079,44.37329],[8.04161,44.37362],[8.04218,44.37379],[8.04285,44.37393],[8.04384,44.37404],[8.04445,44.37405],[8.04526,44.374],[8.06122,44.3724],[8.0627,44.37231],[8.06947,44.37211],[8.07014,44.3721],[8.07377,44.37218],[8.07778,44.37211],[8.08031,44.37214],[8.08194,44.37222],[8.08528,44.3725],[8.0876,44.37264],[8.09563,44.37292]]},"properties":{}},{"type":"Feature","geometry":{"type":"LineString","coordinates":[[8.09563,44.37292],[8.0954,44.37313],[8.09503,44.37337],[8.09454,44.37359],[8.09415,44.37371],[8.0924,44.37394],[8.09156,44.37401],[8.09096,44.37401],[8.08264,44.37372],[8.07896,44.37355],[8.07819,44.37347],[8.0771,44.37329],[8.07498,44.37278],[8.0733,44.37247],[8.07112,44.37222],[8.0699,44.37219],[8.06174,44.37246],[8.04513,44.37411],[8.04446,44.37416],[8.04389,44.37415],[8.04296,44.37406],[8.04226,44.37392],[8.04167,44.37375],[8.04081,44.37342],[8.0402,44.3731],[8.0365,44.37073],[8.03585,44.3704],[8.03523,44.37016],[8.03415,44.36988],[8.03317,44.36976],[8.03222,44.36975],[8.03123,44.36986],[8.0301,44.37014],[8.02956,44.37033],[8.02906,44.37057],[8.02199,44.37471],[8.0212,44.3752],[8.02055,44.37566],[8.01942,44.37661],[8.01379,44.38212],[8.00866,44.38697],[8.00804,44.38745],[8.00743,44.38781],[8.00663,44.38816],[8.0,44.39035]]},"properties":{}},{"type":"Feature","geometry":{"type":"LineString","coordinates":[[8.09563,44.37292],[8.09713,44.37302],[8.09851,44.37326],[8.0993,44.37346],[8.10017,44.37375],[8.10139,44.37431],[8.1018,44.37453],[8.10264,44.37508],[8.10501,44.377],[8.10594,44.37769],[8.10936,44.38011],[8.11002,44.38052],[8.11077,44.38091],[8.11215,44.38146],[8.1136,44.38185],[8.11452,44.382],[8.1187,44.38237],[8.11967,44.38241],[8.12066,44.38238],[8.12162,44.38226],[8.12281,44.38204],[8.12431,44.38161],[8.12515,44.38126],[8.12589,44.38089],[8.13253,44.3771],[8.15019,44.36643],[8.15047,44.36623],[8.15095,44.36581],[8.15175,44.36498],[8.1522,44.36444],[8.15403,44.36191],[8.15459,44.36123],[8.15508,44.36078],[8.15579,44.3603]]},"properties":{}},{"type":"Feature","geometry":{"type":"LineString","coordinates":[[8.15579,44.3603],[8.15489,44.35996],[8.15056,44.35787],[8.14992,44.35766],[8.14921,44.35758],[8.14809,44.35761],[8.14729,44.35767],[8.14669,44.35781],[8.14638,44.35796],[8.14594,44.35822],[8.14474,44.35907],[8.14419,44.35954],[8.14399,44.35983],[8.14388,44.36005],[8.14351,44.36097],[8.14335,44.36122],[8.14312,44.36145],[8.1416,44.36249],[8.14071,44.36295],[8.13963,44.36332],[8.13554,44.36427],[8.13491,44.36428],[8.13367,44.36408],[8.13325,44.36403],[8.13264,44.36405],[8.13204,44.36416],[8.1316,44.36432],[8.13101,44.36457],[8.12199,44.36863],[8.12146,44.36901],[8.12104,44.36951],[8.12094,44.3697],[8.12079,44.37014],[8.12042,44.37171],[8.12021,44.37229],[8.11996,44.37275],[8.11965,44.3732],[8.11894,44.37397],[8.11802,44.37466],[8.11737,44.37502],[8.11444,44.37652],[8.11411,44.37667],[8.11357,44.37683],[8.1114,44.37721],[8.11059,44.37732],[8.10989,44.37736],[8.10908,44.37728],[8.10831,44.37708],[8.10778,44.37686],[8.10539,44.37543],[8.10498,44.3751],[8.10477,44.37482],[8.10461,44.37452],[8.10394,44.37305],[8.10366,44.37235],[8.10325,44.37092],[8.10281,44.36968],[8.10259,44.36927],[8.10237,44.36901],[8.10201,44.36871],[8.10163,44.3685],[8.10103,44.36829],[8.09998,44.36802],[8.09933,44.36777],[8.09872,44.36743],[8.09727,44.36633],[8.09693,44.36617],[8.09632,44.36605],[8.09588,44.36605],[8.09546,44.36612],[8.09513,44.36625],[8.09475,44.36647],[8.0946,44.3666],[8.09429,44.36698],[8.09408,44.36739],[8.09378,44.36806],[8.09373,44.36838],[8.09373,44.36852],[8.09383,44.36882],[8.09406,44.36915],[8.09444,44.36945],[8.09551,44.37009],[8.0958,44.37037],[8.09606,44.37087],[8.09619,44.37141],[8.09621,44.37166],[8.09616,44.37205],[8.09603,44.3724],[8.09582,44.37271],[8.09563,44.37292]]},"properties":{}},{"type":"Feature","geometry":{"type":"LineString","coordinates":[[8.173,44.06442],[8.17199,44.06332],[8.16889,44.0595],[8.16815,44.05868],[8.16667,44.05729],[8.16563,44.05647],[8.16467,44.05581],[8.16402,44.0554],[8.16306,44.05486],[8.16187,44.05427],[8.16015,44.05355],[8.15713,44.05244],[8.15592,44.05195],[8.15392,44.05103],[8.15235,44.05021],[8.15098,44.0494],[8.15007,44.04881],[8.1443,44.04485],[8.14378,44.04453],[8.14243,44.0438],[8.13666,44.04109],[8.13569,44.04054],[8.13518,44.04016],[8.13472,44.03975],[8.13426,44.03923],[8.13391,44.03874],[8.13362,44.03817],[8.1334,44.03753],[8.13333,44.03722],[8.13326,44.03659],[8.13333,44.03576],[8.13369,44.03369],[8.13373,44.03272],[8.13362,44.03195],[8.13333,44.03108],[8.13159,44.02774],[8.13137,44.02725],[8.13111,44.02653],[8.13099,44.02608],[8.13087,44.0252],[8.13086,44.02466],[8.13089,44.02396],[8.13104,44.02308],[8.1315,44.0209],[8.1316,44.02],[8.13168,44.01849],[8.13107,44.0036],[8.13107,44.00289],[8.13116,44.00192],[8.1313,44.0013],[8.13149,44.00074],[8.13181,44.0]]},"properties":{}},{"type":"Feature","geometry":{"type":"LineString","coordinates":[[8.13216,44.0],[8.13185,44.0006],[8.13159,44.00124],[8.13139,44.00207],[8.13134,44.00258],[8.13136,44.00391],[8.13192,44.01817],[8.13182,44.01957],[8.13164,44.02087],[8.13126,44.02258],[8.131,44.02397],[8.13097,44.02465],[8.13098,44.02519],[8.1311,44.02606],[8.13122,44.02649],[8.13148,44.02722],[8.13169,44.0277],[8.13344,44.03106],[8.13373,44.03195],[8.13384,44.03271],[8.13381,44.03369],[8.1337,44.0344],[8.13343,44.03574],[8.13339,44.03607],[8.13337,44.03659],[8.13343,44.0372],[8.1335,44.03751],[8.13373,44.03816],[8.134,44.03867],[8.13436,44.03919],[8.13482,44.0397],[8.13532,44.04015],[8.13583,44.04052],[8.1367,44.041],[8.1425,44.04373],[8.14361,44.04427],[8.14419,44.0446],[8.15075,44.04906],[8.15245,44.05009],[8.15402,44.05093],[8.15669,44.05217],[8.16021,44.05348],[8.16193,44.0542],[8.16357,44.05504],[8.16494,44.05587],[8.16601,44.05663],[8.16677,44.05722],[8.16721,44.05761],[8.16827,44.05863],[8.16902,44.05945],[8.16974,44.06033],[8.17032,44.06109],[8.17208,44.06328],[8.17277,44.06404],[8.17374,44.06498]]},"properties":{}},{"type":"Feature","geometry":{"type":"LineString","coordinates":[[8.16922,44.35823],[8.16674,44.35895],[8.16557,44.35923],[8.16426,44.35947],[8.16243,44.36003],[8.16204,44.36011],[8.16158,44.36012],[8.15938,44.35989],[8.15897,44.35988],[8.15819,44.35999],[8.15681,44.36035],[8.1562,44.36038],[8.15579,44.3603]]},"properties":{}},{"type":"Feature","geometry":{"type":"LineString","coordinates":[[8.15579,44.3603],[8.15642,44.35997],[8.15694,44.35976],[8.15776,44.35952],[8.15854,44.35937],[8.15973,44.35928],[8.16055,44.35931],[8.16262,44.35949],[8.16384,44.35943],[8.16491,44.35924],[8.16804,44.35829],[8.16858,44.35822],[8.16922,44.35823]]},"properties":{}},{"type":"Feature","geometry":{"type":"LineString","coordinates":[[8.16674,44.00241],[8.16574,44.00098],[8.16533,44.0]]},"properties":{}},{"type":"Feature","geometry":{"type":"LineString","coordinates":[[8.16674,44.00241],[8.16686,44.00253],[8.16695,44.00255],[8.16695,44.00261],[8.16704,44.00278]]},"properties":{}},{"type":"Feature","geometry":{"type":"LineString","coordinates":[[8.16704,44.00278],[8.16682,44.0026],[8.16682,44.00255],[8.16674,44.00241]]},"properties":{}},{"type":"Feature","geometry":{"type":"LineString","coordinates":[[8.1717,44.00722],[8.16804,44.00424],[8.16704,44.00278]]},"properties":{}},{"type":"Feature","geometry":{"type":"LineString","coordinates":[[8.16922,44.35823],[8.17031,44.35828],[8.17087,44.35826],[8.17296,44.35772],[8.17366,44.3576],[8.17418,44.35755],[8.17694,44.35779],[8.17736,44.35775],[8.17882,44.3575],[8.17934,44.35747],[8.17983,44.35755],[8.18091,44.35787],[8.18146,44.35799],[8.18218,44.35807],[8.18271,44.35803],[8.18304,44.35797],[8.184,44.35768],[8.18441,44.35761],[8.18479,44.35759],[8.18525,44.35764],[8.18585,44.35785],[8.18844,44.35919],[8.18886,44.35936],[8.18936,44.35946],[8.18959,44.35947],[8.19088,44.35937],[8.19139,44.35938],[8.1919,44.3595],[8.19242,44.35978],[8.19263,44.35995],[8.19278,44.36013],[8.19301,44.36054],[8.19355,44.3621],[8.19355,44.36304],[8.19365,44.3634],[8.19381,44.36366],[8.19411,44.36405],[8.19455,44.36451],[8.19507,44.3649],[8.19561,44.36514],[8.19595,44.36522],[8.19642,44.36525],[8.19707,44.36518],[8.19781,44.365],[8.20194,44.36375],[8.20254,44.36349],[8.20299,44.36322],[8.20338,44.36292],[8.20482,44.36152],[8.20627,44.36019],[8.20671,44.35988],[8.20715,44.35969],[8.20823,44.35939],[8.2088,44.35933],[8.2094,44.35941],[8.21035,44.35978],[8.21068,44.35988],[8.21129,44.35994],[8.2118,44.35989],[8.21276,44.35959],[8.21318,44.35939],[8.21356,44.35911],[8.21439,44.35839],[8.21469,44.3582],[8.21499,44.35806],[8.2154,44.35794],[8.21766,44.35746],[8.21944,44.35691],[8.22024,44.35669],[8.22135,44.3565]]},"properties":{}},{"type":"Feature","geometry":{"type":"LineString","coordinates":[[8.22135,44.3565],[8.22028,44.3564],[8.21955,44.3564],[8.21672,44.35668],[8.21557,44.35671],[8.21485,44.35668],[8.21407,44.35663],[8.2133,44.35654],[8.20874,44.35574],[8.208,44.35563],[8.20644,44.35552],[8.20479,44.35552],[8.20336,44.35561],[8.19914,44.35608],[8.18994,44.35682],[8.18829,44.3569],[8.18643,44.35693],[8.18202,44.3569],[8.17433,44.35717],[8.17288,44.3573],[8.17215,44.3574],[8.17146,44.35756],[8.16922,44.35823]]},"properties":{}},{"type":"Feature","geometry":{"type":"LineString","coordinates":[[8.1717,44.00722],[8.1719,44.00733],[8.17222,44.00759],[8.17226,44.00766]]},"properties":{}},{"type":"Feature","geometry":{"type":"LineString","coordinates":[[8.17226,44.00766],[8.17203,44.00757],[8.17174,44.00735],[8.1717,44.00722]]},"properties":{}},{"type":"Feature","geometry":{"type":"LineString","coordinates":[[8.20791,44.03889],[8.20789,44.03835],[8.20779,44.03754],[8.20775,44.03652],[8.20755,44.03607],[8.2075,44.0359],[8.20759,44.03483],[8.20755,44.03461],[8.20744,44.03439],[8.2063,44.03266],[8.20603,44.03242],[8.20569,44.03229],[8.20544,44.03225],[8.20506,44.03226],[8.20466,44.03238],[8.20402,44.03236],[8.20373,44.03224],[8.20299,44.03182],[8.20198,44.03089],[8.20117,44.02993],[8.20009,44.02848],[8.19985,44.02823],[8.19934,44.02784],[8.19922,44.0277],[8.19898,44.02724],[8.19881,44.02704],[8.19835,44.02659],[8.19771,44.02613],[8.19742,44.0257],[8.19719,44.02556],[8.19692,44.02546],[8.19659,44.02524],[8.19581,44.02504],[8.19538,44.02472],[8.1952,44.02466],[8.19487,44.02462],[8.19467,44.02453],[8.19356,44.0235],[8.19321,44.02302],[8.19309,44.02295],[8.192,44.02254],[8.19174,44.02234],[8.19166,44.02217],[8.19143,44.02145],[8.19124,44.02098],[8.19063,44.01889],[8.19065,44.01879],[8.19098,44.01834],[8.19172,44.01673],[8.19176,44.01659],[8.19175,44.01644],[8.19161,44.01625],[8.19142,44.01617],[8.19125,44.01616],[8.18937,44.01642],[8.18909,44.0164],[8.18848,44.01613],[8.18722,44.01596],[8.18635,44.0158],[8.18546,44.01561],[8.18467,44.0154],[8.18247,44.01466],[8.18026,44.0138],[8.17971,44.01353],[8.17907,44.01312],[8.1785,44.01271],[8.17763,44.01196],[8.17689,44.01146],[8.17643,44.01121],[8.17558,44.01089],[8.17523,44.01068],[8.17495,44.01043],[8.17339,44.00858],[8.17226,44.00766]]},"properties":{}},{"type":"Feature","geometry":{"type":"LineString","coordinates":[[8.17476,44.06595],[8.17401,44.06534],[8.173,44.06442]]},"properties":{}},{"type":"Feature","geometry":{"type":"LineString","coordinates":[[8.17332,44.0657],[8.17351,44.06546],[8.17352,44.06523],[8.17339,44.06493],[8.173,44.06442]]},"properties":{}},{"type":"Feature","geometry":{"type":"LineString","coordinates":[[8.17332,44.0657],[8.17319,44.06591],[8.17323,44.06611],[8.17338,44.06627],[8.17362,44.06637],[8.17387,44.06638],[8.17403,44.06634],[8.17473,44.06597]]},"properties":{}},{"type":"Feature","geometry":{"type":"LineString","coordinates":[[8.17473,44.06597],[8.17424,44.06567],[8.17397,44.06559],[8.17364,44.06557],[8.17332,44.0657]]},"properties":{}},{"type":"Feature","geometry":{"type":"LineString","coordinates":[[8.17374,44.06498],[8.17424,44.06528],[8.17453,44.06538],[8.17488,44.06544],[8.17541,44.06542],[8.1761,44.06518]]},"properties":{}},{"type":"Feature","geometry":{"type":"LineString","coordinates":[[8.17374,44.06498],[8.17484,44.06591]]},"properties":{}},{"type":"Feature","geometry":{"type":"LineString","coordinates":[[8.17497,44.06612],[8.17473,44.06597]]},"properties":{}},{"type":"Feature","geometry":{"type":"LineString","coordinates":[[8.17473,44.06597],[8.17476,44.06595]]},"properties":{}},{"type":"Feature","geometry":{"type":"LineString","coordinates":[[8.17497,44.06612],[8.17476,44.06595]]},"properties":{}},{"type":"Feature","geometry":{"type":"LineString","coordinates":[[8.17476,44.06595],[8.17484,44.06591]]},"properties":{}},{"type":"Feature","geometry":{"type":"LineString","coordinates":[[8.17484,44.06591],[8.176,44.06677]]},"properties":{}},{"type":"Feature","geometry":{"type":"LineString","coordinates":[[8.17484,44.06591],[8.1761,44.06518]]},"properties":{}},{"type":"Feature","geometry":{"type":"LineString","coordinates":[[8.43549,44.28601],[8.43142,44.28282],[8.43067,44.28219],[8.43031,44.28182],[8.42995,44.28133],[8.42972,44.28091],[8.42888,44.27872],[8.42851,44.278],[8.42807,44.27739],[8.4275,44.27681],[8.42665,44.27616],[8.42171,44.27285],[8.42093,44.27224],[8.42001,44.27138],[8.41586,44.26687],[8.41537,44.26638],[8.41468,44.26584],[8.41386,44.26531],[8.41327,44.26499],[8.4105,44.26363],[8.40996,44.26334],[8.40939,44.26298],[8.40861,44.26235],[8.40795,44.26162],[8.40767,44.26122],[8.40737,44.26074],[8.40715,44.26025],[8.40698,44.25972],[8.40688,44.25917],[8.40685,44.25871],[8.40688,44.25408],[8.40686,44.25334],[8.40677,44.25273],[8.40661,44.2521],[8.40632,44.25138],[8.40593,44.25067],[8.40558,44.25013],[8.40466,44.24875],[8.40023,44.24259],[8.39967,44.24175],[8.3994,44.2413],[8.3992,44.24086],[8.39898,44.24022],[8.39878,44.23937],[8.39871,44.23882],[8.39872,44.23822],[8.39881,44.23734],[8.39895,44.23655],[8.39949,44.23452],[8.39957,44.23411],[8.39962,44.23346],[8.39957,44.23292],[8.39941,44.23229],[8.39929,44.23199],[8.39894,44.2313],[8.39873,44.23101],[8.39828,44.23048],[8.39779,44.23004],[8.39696,44.22947],[8.39603,44.22901],[8.39493,44.22864],[8.39358,44.22836],[8.38854,44.22753],[8.38757,44.2273],[8.38528,44.22658],[8.38448,44.2264],[8.3836,44.22629],[8.38277,44.22625],[8.37916,44.2263],[8.37817,44.22634],[8.37728,44.22644],[8.37638,44.2266],[8.37548,44.22681],[8.37139,44.2279],[8.37045,44.2281],[8.36913,44.22827],[8.36837,44.22828],[8.36752,44.22822],[8.36649,44.22809],[8.36535,44.22785],[8.36447,44.22762],[8.36298,44.22712],[8.35825,44.22534],[8.35714,44.22502],[8.35571,44.22475],[8.3541,44.22463],[8.35307,44.22464],[8.35242,44.22469],[8.35144,44.22481],[8.34782,44.22542],[8.34673,44.22555],[8.34555,44.22559],[8.34468,44.22558],[8.34408,44.22555],[8.34259,44.2254],[8.34161,44.22522],[8.33496,44.22357],[8.32987,44.22224],[8.32883,44.22185],[8.32838,44.22164],[8.32758,44.22119],[8.32693,44.22072],[8.32622,44.22008],[8.32585,44.21964],[8.32146,44.21312],[8.32088,44.21236],[8.32009,44.21152],[8.31926,44.21077],[8.31851,44.21018],[8.31414,44.20711],[8.30809,44.20319],[8.30663,44.20198],[8.3063,44.20163],[8.30573,44.20091],[8.30539,44.20033],[8.30508,44.19965],[8.30489,44.19864],[8.30489,44.19789],[8.30494,44.19743],[8.30605,44.19233],[8.30615,44.19164],[8.30619,44.19111],[8.30614,44.19022],[8.30605,44.18957],[8.3058,44.18872],[8.30544,44.18785],[8.30481,44.18672],[8.30419,44.18585],[8.30375,44.18532],[8.30275,44.18438],[8.30078,44.18274],[8.30006,44.18208],[8.29624,44.17818],[8.29563,44.17735],[8.29408,44.17504],[8.29368,44.17452],[8.29306,44.17388],[8.29251,44.17341],[8.29176,44.17289],[8.29065,44.17227],[8.28956,44.17181],[8.28893,44.17159],[8.28823,44.17141],[8.28219,44.17004],[8.28117,44.1697],[8.28062,44.16947],[8.28009,44.16923],[8.27921,44.16872],[8.2784,44.16811],[8.27781,44.16761],[8.27717,44.16692],[8.27681,44.16641],[8.27636,44.16567],[8.27378,44.16036],[8.27331,44.15963],[8.27274,44.15888],[8.272,44.15809],[8.27125,44.15743],[8.27015,44.1566],[8.26964,44.15627],[8.26833,44.15555],[8.26209,44.15264],[8.26055,44.15189],[8.25816,44.15066],[8.25455,44.14855],[8.25125,44.14646],[8.2492,44.14495],[8.2484,44.14429],[8.24759,44.14354],[8.2463,44.14224],[8.24358,44.13909],[8.2416,44.13696],[8.23921,44.13443],[8.23825,44.13356],[8.23736,44.13292],[8.23674,44.13256],[8.23596,44.13215],[8.23511,44.13178],[8.23156,44.13044],[8.23092,44.13015],[8.23017,44.12975],[8.22957,44.12941],[8.22885,44.12894],[8.22815,44.12839],[8.22756,44.12782],[8.22682,44.12699],[8.22626,44.12623],[8.22572,44.1253],[8.22536,44.12441],[8.22505,44.12324],[8.22495,44.12251],[8.22493,44.1219],[8.22501,44.12093],[8.22516,44.12019],[8.22537,44.11954],[8.22571,44.11875],[8.22621,44.1179],[8.22807,44.11529],[8.23072,44.11146],[8.23111,44.11075],[8.23133,44.11023],[8.23154,44.10956],[8.23161,44.10909],[8.23163,44.10834],[8.23154,44.10739],[8.23142,44.10679],[8.23121,44.10613],[8.23087,44.10534],[8.23039,44.10453],[8.23014,44.10414],[8.22918,44.10304],[8.22868,44.10261],[8.22809,44.10218],[8.22744,44.10176],[8.22683,44.10143],[8.22573,44.10093],[8.22389,44.10022],[8.22254,44.09962],[8.22159,44.09912],[8.2201,44.09819],[8.2028,44.08583],[8.18863,44.07613],[8.17497,44.06612]]},"properties":{}},{"type":"Feature","geometry":{"type":"LineString","coordinates":[[8.176,44.06677],[8.18868,44.07605],[8.19015,44.07708],[8.20298,44.08584],[8.22018,44.09812],[8.22133,44.09887],[8.22262,44.09956],[8.22406,44.1002],[8.22652,44.10114],[8.22754,44.10163],[8.22848,44.10218],[8.22944,44.1029],[8.23001,44.10349],[8.23073,44.10438],[8.23117,44.10516],[8.23154,44.10599],[8.2317,44.1064],[8.23181,44.1068],[8.23193,44.10744],[8.23199,44.10802],[8.232,44.10872],[8.2319,44.10932],[8.23183,44.10954],[8.23152,44.11031],[8.23124,44.11085],[8.2307,44.1117],[8.22783,44.11581],[8.22632,44.11791],[8.226,44.11842],[8.22565,44.11916],[8.22544,44.11968],[8.22529,44.12016],[8.22518,44.12063],[8.2251,44.12115],[8.22505,44.12203],[8.22509,44.12278],[8.22523,44.12347],[8.22553,44.12446],[8.22592,44.12534],[8.22629,44.12594],[8.22692,44.1268],[8.22785,44.12779],[8.22828,44.12818],[8.22896,44.12869],[8.23008,44.12939],[8.23114,44.12992],[8.2339,44.13102],[8.23564,44.13178],[8.23642,44.13219],[8.23738,44.13276],[8.23811,44.13325],[8.2388,44.13377],[8.23975,44.13457],[8.24178,44.1368],[8.24486,44.1404],[8.24675,44.14251],[8.24822,44.14397],[8.2488,44.14448],[8.24973,44.14524],[8.25093,44.14613],[8.25269,44.14728],[8.25465,44.14847],[8.2583,44.1506],[8.26031,44.15167],[8.26183,44.15242],[8.2684,44.15549],[8.26911,44.15586],[8.2703,44.15659],[8.27134,44.15738],[8.27168,44.15766],[8.27246,44.15841],[8.27296,44.15899],[8.27345,44.15965],[8.27408,44.16069],[8.27632,44.16532],[8.27656,44.16575],[8.27693,44.16628],[8.27742,44.16687],[8.27808,44.16754],[8.27867,44.16803],[8.27937,44.16849],[8.28017,44.16894],[8.28109,44.16937],[8.28189,44.16965],[8.28277,44.16991],[8.28774,44.17101],[8.28918,44.17142],[8.28972,44.17162],[8.29053,44.17195],[8.29124,44.17232],[8.29202,44.17282],[8.29292,44.17351],[8.29368,44.17431],[8.29423,44.17506],[8.29519,44.17651],[8.29592,44.17745],[8.30373,44.18516],[8.30423,44.18574],[8.30463,44.18627],[8.30496,44.18674],[8.30541,44.18753],[8.30587,44.18858],[8.30614,44.18947],[8.30628,44.19029],[8.3063,44.19111],[8.30627,44.19163],[8.30616,44.19234],[8.30533,44.19612],[8.30521,44.19684],[8.30516,44.19752],[8.30517,44.19813],[8.30524,44.19891],[8.30556,44.19975],[8.30623,44.20093],[8.30673,44.2015],[8.30738,44.2021],[8.30828,44.20282],[8.31204,44.20536],[8.31582,44.20799],[8.31718,44.20889],[8.31875,44.21004],[8.32004,44.21119],[8.32052,44.21171],[8.32124,44.21262],[8.3256,44.21911],[8.32597,44.21961],[8.32656,44.22024],[8.32721,44.22077],[8.32795,44.22124],[8.3285,44.22153],[8.32898,44.22174],[8.32992,44.22208],[8.3314,44.22246],[8.33374,44.223],[8.34173,44.22503],[8.34265,44.22523],[8.34347,44.22533],[8.3443,44.2254],[8.34505,44.22542],[8.34676,44.22538],[8.34836,44.22524],[8.35186,44.22466],[8.35299,44.22453],[8.35376,44.22449],[8.35458,44.22449],[8.35575,44.22458],[8.35666,44.22471],[8.35744,44.22487],[8.35814,44.22506],[8.3629,44.22663],[8.36455,44.2272],[8.36615,44.22771],[8.36733,44.22796],[8.36791,44.22803],[8.36876,44.22809],[8.36984,44.22806],[8.37125,44.22783],[8.37568,44.22668],[8.3767,44.22645],[8.37753,44.22632],[8.37906,44.22622],[8.38264,44.22617],[8.38403,44.22621],[8.38481,44.22631],[8.38557,44.22647],[8.38818,44.22729],[8.38919,44.22754],[8.39374,44.22831],[8.39506,44.22859],[8.39629,44.22903],[8.39725,44.22955],[8.39803,44.23012],[8.39835,44.2304],[8.39882,44.23095],[8.39903,44.23124],[8.39939,44.23192],[8.39954,44.23233],[8.39969,44.23295],[8.39974,44.23348],[8.39972,44.23387],[8.39956,44.2347],[8.39912,44.23666],[8.39897,44.23864],[8.399,44.23915],[8.39918,44.24002],[8.39939,44.24067],[8.39967,44.24126],[8.40023,44.24217],[8.40496,44.24877],[8.40579,44.24999],[8.40643,44.25104],[8.40676,44.25187],[8.40694,44.25274],[8.40699,44.25336],[8.40697,44.25891],[8.40705,44.2595],[8.4072,44.26005],[8.40762,44.26097],[8.40805,44.26158],[8.40839,44.26197],[8.40893,44.2625],[8.40948,44.26293],[8.41,44.26326],[8.41058,44.26357],[8.41272,44.26461],[8.41399,44.26528],[8.41462,44.26568],[8.41547,44.26634],[8.41649,44.26739],[8.41965,44.27086],[8.42054,44.27176],[8.42102,44.27219],[8.4218,44.27279],[8.4262,44.27573],[8.42717,44.27641],[8.42748,44.27666],[8.42783,44.27698],[8.42816,44.27734],[8.42861,44.27797],[8.42899,44.27871],[8.42983,44.28091],[8.43005,44.28131],[8.43046,44.28184],[8.43104,44.28239],[8.43152,44.28278],[8.43493,44.28546],[8.43598,44.28623]]},"properties":{}},{"type":"Feature","geometry":{"type":"LineString","coordinates":[[8.17671,44.06481],[8.17657,44.06498],[8.17562,44.06567],[8.17543,44.06592],[8.17541,44.06611],[8.17546,44.06625],[8.176,44.06677]]},"properties":{}},{"type":"Feature","geometry":{"type":"LineString","coordinates":[[8.1761,44.06518],[8.17671,44.06481]]},"properties":{}},{"type":"Feature","geometry":{"type":"LineString","coordinates":[[8.17671,44.06481],[8.17718,44.06447],[8.1773,44.06433],[8.17742,44.06411],[8.17746,44.06376],[8.17738,44.06316]]},"properties":{}},{"type":"Feature","geometry":{"type":"LineString","coordinates":[[8.17738,44.06316],[8.17732,44.06291],[8.17734,44.06275],[8.1774,44.06261],[8.17762,44.06235],[8.17849,44.06173],[8.17886,44.06157],[8.17928,44.06146],[8.17936,44.06138],[8.17976,44.06122],[8.1799,44.06111]]},"properties":{}},{"type":"Feature","geometry":{"type":"LineString","coordinates":[[8.1799,44.06111],[8.17976,44.06147],[8.17976,44.06158],[8.17968,44.06166],[8.17946,44.06171],[8.1792,44.06163],[8.17904,44.06163],[8.1788,44.06174],[8.17845,44.06209],[8.17768,44.06266],[8.17751,44.0629],[8.17738,44.06316]]},"properties":{}},{"type":"Feature","geometry":{"type":"LineString","coordinates":[[8.1799,44.06111],[8.18006,44.06062],[8.18016,44.06044],[8.18066,44.05995]]},"properties":{}},{"type":"Feature","geometry":{"type":"LineString","coordinates":[[8.18066,44.05995],[8.18072,44.05981],[8.18068,44.05971],[8.18073,44.05964],[8.18101,44.05954],[8.18139,44.0593]]},"properties":{}},{"type":"Feature","geometry":{"type":"LineString","coordinates":[[8.18139,44.0593],[8.18111,44.0596],[8.18104,44.05981],[8.18066,44.05995]]},"properties":{}},{"type":"Feature","geometry":{"type":"LineString","coordinates":[[8.18139,44.0593],[8.18241,44.05838],[8.18305,44.05789],[8.18649,44.05572],[8.18677,44.05557],[8.18715,44.05543]]},"properties":{}},{"type":"Feature","geometry":{"type":"LineString","coordinates":[[8.18715,44.05543],[8.18726,44.05535],[8.18738,44.05519],[8.18776,44.05506]]},"properties":{}},{"type":"Feature","geometry":{"type":"LineString","coordinates":[[8.18776,44.05506],[8.18773,44.05522],[8.18776,44.05533],[8.18769,44.05543],[8.18753,44.05548],[8.18728,44.05543],[8.18715,44.05543]]},"properties":{}},{"type":"Feature","geometry":{"type":"LineString","coordinates":[[8.18776,44.05506],[8.18807,44.05484],[8.1886,44.05463],[8.18948,44.05444],[8.19541,44.05404],[8.19807,44.05381]]},"properties":{}},{"type":"Feature","geometry":{"type":"LineString","coordinates":[[8.19863,44.05375],[8.19845,44.05384],[8.19844,44.05389],[8.19838,44.05391],[8.19807,44.05381]]},"properties":{}},{"type":"Feature","geometry":{"type":"LineString","coordinates":[[8.19807,44.05381],[8.19863,44.05375]]},"properties":{}},{"type":"Feature","geometry":{"type":"LineString","coordinates":[[8.19863,44.05375],[8.19998,44.05363],[8.20088,44.05351],[8.20235,44.05317],[8.20483,44.05267],[8.20545,44.05252],[8.20577,44.05243],[8.20634,44.05217]]},"properties":{}},{"type":"Feature","geometry":{"type":"LineString","coordinates":[[8.20595,44.05434],[8.20602,44.05437],[8.20603,44.05443]]},"properties":{}},{"type":"Feature","geometry":{"type":"LineString","coordinates":[[8.20603,44.05443],[8.20594,44.05446],[8.20588,44.05443],[8.20588,44.05437],[8.20595,44.05434]]},"properties":{}},{"type":"Feature","geometry":{"type":"LineString","coordinates":[[8.20595,44.05434],[8.20621,44.05393],[8.2063,44.05371],[8.20636,44.0534],[8.20642,44.0528],[8.20665,44.0523]]},"properties":{}},{"type":"Feature","geometry":{"type":"LineString","coordinates":[[8.20603,44.05443],[8.2087,44.05426],[8.20893,44.05435],[8.20918,44.05463]]},"properties":{}},{"type":"Feature","geometry":{"type":"LineString","coordinates":[[8.20634,44.05217],[8.20654,44.05208]]},"properties":{}},{"type":"Feature","geometry":{"type":"LineString","coordinates":[[8.20651,44.05216],[8.20634,44.05217]]},"properties":{}},{"type":"Feature","geometry":{"type":"LineString","coordinates":[[8.20665,44.0523],[8.20655,44.05224],[8.20651,44.05216]]},"properties":{}},{"type":"Feature","geometry":{"type":"LineString","coordinates":[[8.20651,44.05216],[8.20654,44.05208]]},"properties":{}},{"type":"Feature","geometry":{"type":"LineString","coordinates":[[8.20654,44.05208],[8.20717,44.0518],[8.20754,44.05156],[8.20803,44.0514]]},"properties":{}},{"type":"Feature","geometry":{"type":"LineString","coordinates":[[8.20803,44.0514],[8.20733,44.05181],[8.20686,44.05227],[8.20677,44.0523],[8.20665,44.0523]]},"properties":{}},{"type":"Feature","geometry":{"type":"LineString","coordinates":[[8.20713,44.04501],[8.20646,44.0451],[8.20634,44.0452],[8.20628,44.0454],[8.20636,44.0455],[8.20647,44.04558],[8.20659,44.04561],[8.20682,44.04556],[8.20696,44.04543],[8.20703,44.04523],[8.20711,44.04514],[8.20713,44.04501]]},"properties":{}},{"type":"Feature","geometry":{"type":"LineString","coordinates":[[8.20713,44.04501],[8.20786,44.03957],[8.20791,44.03889]]},"properties":{}},{"type":"Feature","geometry":{"type":"LineString","coordinates":[[8.20713,44.04501],[8.20948,44.04465],[8.20992,44.04463],[8.21161,44.04481],[8.2135,44.04439]]},"properties":{}},{"type":"Feature","geometry":{"type":"LineString","coordinates":[[8.20791,44.03889],[8.20801,44.03914],[8.20827,44.03934],[8.20879,44.03965],[8.21181,44.04121],[8.21204,44.04139],[8.21317,44.04299],[8.21371,44.04383],[8.21376,44.04407],[8.21372,44.04423],[8.21365,44.04435]]},"properties":{}},{"type":"Feature","geometry":{"type":"LineString","coordinates":[[8.20803,44.0514],[8.20884,44.05117]]},"properties":{}},{"type":"Feature","geometry":{"type":"LineString","coordinates":[[8.2093,44.05117],[8.20928,44.05122],[8.2092,44.05125],[8.20899,44.05118],[8.20884,44.05117]]},"properties":{}},{"type":"Feature","geometry":{"type":"LineString","coordinates":[[8.20884,44.05117],[8.20949,44.05101]]},"properties":{}},{"type":"Feature","geometry":{"type":"LineString","coordinates":[[8.22243,44.08199],[8.22177,44.08106],[8.22028,44.07878],[8.21908,44.07721],[8.21887,44.07681],[8.21719,44.07244],[8.21687,44.0717],[8.21564,44.06911],[8.21476,44.06771],[8.21334,44.06457],[8.21281,44.06329],[8.21266,44.06304],[8.21188,44.06125],[8.21163,44.06052],[8.21089,44.05785],[8.21078,44.05755],[8.20918,44.05463]]},"properties":{}},{"type":"Feature","geometry":{"type":"LineString","coordinates":[[8.20918,44.05463],[8.20868,44.05373],[8.20869,44.05357],[8.20875,44.05343],[8.20885,44.05335],[8.209,44.05328],[8.20992,44.0531],[8.2093,44.05117]]},"properties":{}},{"type":"Feature","geometry":{"type":"LineString","coordinates":[[8.20949,44.05101],[8.20934,44.05108],[8.2093,44.05117]]},"properties":{}},{"type":"Feature","geometry":{"type":"LineString","coordinates":[[8.20949,44.05101],[8.21104,44.05063],[8.21128,44.05064],[8.2115,44.05071]]},"properties":{}},{"type":"Feature","geometry":{"type":"LineString","coordinates":[[8.2115,44.05071],[8.21157,44.05075],[8.21177,44.05078]]},"properties":{}},{"type":"Feature","geometry":{"type":"LineString","coordinates":[[8.21177,44.05078],[8.21156,44.05085],[8.21151,44.05082],[8.2115,44.05071]]},"properties":{}},{"type":"Feature","geometry":{"type":"LineString","coordinates":[[8.21177,44.05078],[8.21284,44.0506]]},"properties":{}},{"type":"Feature","geometry":{"type":"LineString","coordinates":[[8.21328,44.05052],[8.21306,44.05067],[8.21284,44.0506]]},"properties":{}},{"type":"Feature","geometry":{"type":"LineString","coordinates":[[8.21284,44.0506],[8.21302,44.05053],[8.21312,44.05055],[8.21328,44.05052]]},"properties":{}},{"type":"Feature","geometry":{"type":"LineString","coordinates":[[8.21328,44.05052],[8.21529,44.04908],[8.21499,44.04841]]},"properties":{}},{"type":"Feature","geometry":{"type":"LineString","coordinates":[[8.21358,44.04449],[8.21352,44.04447],[8.2135,44.04439]]},"properties":{}},{"type":"Feature","geometry":{"type":"LineString","coordinates":[[8.2135,44.04439],[8.21357,44.04434],[8.21365,44.04435]]},"properties":{}},{"type":"Feature","geometry":{"type":"LineString","coordinates":[[8.21358,44.04449],[8.21311,44.0455],[8.21316,44.04589],[8.21336,44.04622],[8.2136,44.04649],[8.21452,44.04768]]},"properties":{}},{"type":"Feature","geometry":{"type":"LineString","coordinates":[[8.21365,44.04435],[8.2137,44.04439],[8.2137,44.04444],[8.21358,44.04449]]},"properties":{}},{"type":"Feature","geometry":{"type":"LineString","coordinates":[[8.21499,44.04841],[8.2149,44.04841],[8.21485,44.04835],[8.21477,44.04833],[8.21438,44.04781],[8.21452,44.04768]]},"properties":{}},{"type":"Feature","geometry":{"type":"LineString","coordinates":[[8.21499,44.04841],[8.21503,44.04837],[8.21503,44.04832],[8.21497,44.04829],[8.21489,44.0483],[8.21486,44.04819],[8.2146,44.0478],[8.21465,44.04776],[8.21465,44.04771],[8.2146,44.04768],[8.21452,44.04768]]},"properties":{}},{"type":"Feature","geometry":{"type":"LineString","coordinates":[[8.22855,44.35774],[8.2276,44.35774],[8.22635,44.3576],[8.22445,44.35725],[8.22221,44.35667],[8.22135,44.3565]]},"properties":{}},{"type":"Feature","geometry":{"type":"LineString","coordinates":[[8.22135,44.3565],[8.22271,44.35636],[8.22321,44.35637],[8.22359,44.35642],[8.2243,44.35658],[8.22551,44.35712],[8.22603,44.35728],[8.22855,44.35774]]},"properties":{}},{"type":"Feature","geometry":{"type":"LineString","coordinates":[[8.22253,44.08215],[8.22245,44.08214],[8.22239,44.0821],[8.22238,44.08204],[8.22243,44.08199]]},"properties":{}},{"type":"Feature","geometry":{"type":"LineString","coordinates":[[8.22243,44.08199],[8.22255,44.08198],[8.22261,44.08202],[8.2226,44.08211],[8.22253,44.08215]]},"properties":{}},{"type":"Feature","geometry":{"type":"LineString","coordinates":[[8.23063,44.09376],[8.23057,44.09363],[8.23011,44.09303],[8.22984,44.09259],[8.22905,44.09113],[8.22804,44.08992],[8.22591,44.08618],[8.22518,44.08465],[8.22496,44.08438],[8.22305,44.08276],[8.22253,44.08215]]},"properties":{}},{"type":"Feature","geometry":{"type":"LineString","coordinates":[[8.22855,44.35774],[8.22939,44.35788],[8.22994,44.35794],[8.23178,44.35799],[8.23243,44.35811],[8.23301,44.35829],[8.23372,44.35866],[8.23535,44.36004],[8.23608,44.36049],[8.23666,44.36073],[8.23837,44.36137],[8.23971,44.36211],[8.24065,44.36268],[8.24339,44.36414],[8.2441,44.36444],[8.24455,44.36457],[8.24507,44.36467],[8.25211,44.36557],[8.25279,44.36571],[8.25326,44.36583],[8.25671,44.36698],[8.25796,44.36737],[8.2586,44.36753],[8.25948,44.36758],[8.26376,44.36755],[8.26451,44.36751],[8.26535,44.36737],[8.26599,44.3672],[8.26766,44.36663],[8.26869,44.36632],[8.27206,44.36549],[8.27275,44.36525],[8.27332,44.36489],[8.27375,44.36445],[8.2749,44.36241],[8.27718,44.35826],[8.27962,44.35365],[8.27994,44.35322],[8.28027,44.35292],[8.28061,44.35269],[8.28112,44.35243],[8.2816,44.35226],[8.28208,44.35215],[8.28252,44.35209],[8.28321,44.35209],[8.28623,44.35238],[8.28656,44.35245],[8.28815,44.35292],[8.28891,44.35304],[8.28949,44.35306],[8.28987,44.35304],[8.29053,44.3529],[8.29213,44.35238],[8.2926,44.35217],[8.29305,44.35191],[8.29351,44.35153],[8.2956,44.34939],[8.29605,44.34889],[8.29624,44.34859],[8.2964,44.34826],[8.29651,44.34791],[8.29665,44.34629],[8.29669,44.34606],[8.29699,44.34534],[8.2972,44.34496],[8.29767,44.34447]]},"properties":{}},{"type":"Feature","geometry":{"type":"LineString","coordinates":[[8.29767,44.34447],[8.29632,44.34419],[8.29519,44.34407],[8.29441,44.34404],[8.29281,44.34415],[8.28579,44.34478],[8.28364,44.34501],[8.26915,44.34624],[8.26736,44.34625],[8.26637,44.34619],[8.26349,44.3459],[8.26105,44.34581],[8.25986,44.34583],[8.25922,44.34589],[8.25786,44.34605],[8.25693,44.34621],[8.25603,44.3464],[8.25435,44.34686],[8.2535,44.34713],[8.2523,44.34762],[8.2498,44.3488],[8.2319,44.35702],[8.23115,44.35729],[8.23035,44.35751],[8.22948,44.35767],[8.22855,44.35774]]},"properties":{}},{"type":"Feature","geometry":{"type":"LineString","coordinates":[[8.23063,44.09376],[8.23073,44.09379],[8.23083,44.09406],[8.23075,44.09413]]},"properties":{}},{"type":"Feature","geometry":{"type":"LineString","coordinates":[[8.23075,44.09413],[8.23065,44.09412],[8.23059,44.09408],[8.23056,44.09382],[8.23063,44.09376]]},"properties":{}},{"type":"Feature","geometry":{"type":"LineString","coordinates":[[8.23137,44.09586],[8.23075,44.09413]]},"properties":{}},{"type":"Feature","geometry":{"type":"LineString","coordinates":[[8.23137,44.09586],[8.23144,44.09586],[8.2315,44.09593],[8.23149,44.09598],[8.23144,44.09601]]},"properties":{}},{"type":"Feature","geometry":{"type":"LineString","coordinates":[[8.23144,44.09601],[8.23136,44.09602],[8.23128,44.09597],[8.23129,44.0959],[8.23137,44.09586]]},"properties":{}},{"type":"Feature","geometry":{"type":"LineString","coordinates":[[8.23613,44.1012],[8.23561,44.10055],[8.23265,44.09761],[8.23204,44.09706],[8.23172,44.09661],[8.23144,44.09601]]},"properties":{}},{"type":"Feature","geometry":{"type":"LineString","coordinates":[[8.23626,44.10129],[8.23615,44.10129],[8.23611,44.10124],[8.23613,44.1012]]},"properties":{}},{"type":"Feature","geometry":{"type":"LineString","coordinates":[[8.23613,44.1012],[8.23626,44.10119],[8.23629,44.10125],[8.23626,44.10129]]},"properties":{}},{"type":"Feature","geometry":{"type":"LineString","coordinates":[[8.24233,44.11059],[8.2423,44.11039],[8.2422,44.1101],[8.242,44.10972],[8.24155,44.10936],[8.24104,44.10877],[8.24039,44.1081],[8.23863,44.10663],[8.23855,44.10645],[8.23856,44.10624],[8.23886,44.10568],[8.23893,44.10549],[8.23904,44.10466],[8.23901,44.10443],[8.23865,44.10373],[8.23822,44.10336],[8.23775,44.10285],[8.23735,44.10258],[8.23675,44.10172],[8.23626,44.10129]]},"properties":{}},{"type":"Feature","geometry":{"type":"LineString","coordinates":[[8.24233,44.11059],[8.2424,44.11065],[8.24236,44.11071]]},"properties":{}},{"type":"Feature","geometry":{"type":"LineString","coordinates":[[8.24236,44.11071],[8.24226,44.11072],[8.2422,44.11067],[8.24224,44.1106],[8.24233,44.11059]]},"properties":{}},{"type":"Feature","geometry":{"type":"LineString","coordinates":[[8.24653,44.11461],[8.24275,44.11117],[8.24251,44.11092],[8.24236,44.11071]]},"properties":{}},{"type":"Feature","geometry":{"type":"LineString","coordinates":[[8.24697,44.11502],[8.24653,44.11461]]},"properties":{}},{"type":"Feature","geometry":{"type":"LineString","coordinates":[[8.24653,44.11461],[8.24665,44.11457],[8.24694,44.11484],[8.24697,44.11502]]},"properties":{}},{"type":"Feature","geometry":{"type":"LineString","coordinates":[[8.24907,44.11959],[8.24892,44.1193],[8.24844,44.11727],[8.24827,44.11666],[8.24813,44.11633],[8.24752,44.11553],[8.24697,44.11502]]},"properties":{}},{"type":"Feature","geometry":{"type":"LineString","coordinates":[[8.24907,44.11959],[8.24929,44.11973]]},"properties":{}},{"type":"Feature","geometry":{"type":"LineString","coordinates":[[8.24914,44.11978],[8.24907,44.11959]]},"properties":{}},{"type":"Feature","geometry":{"type":"LineString","coordinates":[[8.2493,44.11994],[8.24915,44.1199],[8.24912,44.11984],[8.24914,44.11978]]},"properties":{}},{"type":"Feature","geometry":{"type":"LineString","coordinates":[[8.24914,44.11978],[8.24929,44.11973]]},"properties":{}},{"type":"Feature","geometry":{"type":"LineString","coordinates":[[8.24929,44.11973],[8.24938,44.11976],[8.24942,44.11986]]},"properties":{}},{"type":"Feature","geometry":{"type":"LineString","coordinates":[[8.24957,44.12012],[8.2493,44.11994]]},"properties":{}},{"type":"Feature","geometry":{"type":"LineString","coordinates":[[8.24942,44.11986],[8.2493,44.11994]]},"properties":{}},{"type":"Feature","geometry":{"type":"LineString","coordinates":[[8.24942,44.11986],[8.24957,44.12012]]},"properties":{}},{"type":"Feature","geometry":{"type":"LineString","coordinates":[[8.25569,44.12585],[8.25388,44.12343],[8.25371,44.12325],[8.25319,44.12285],[8.25138,44.12159],[8.24957,44.12012]]},"properties":{}},{"type":"Feature","geometry":{"type":"LineString","coordinates":[[8.2558,44.12624],[8.25569,44.12624],[8.2556,44.12618],[8.2556,44.12611],[8.25568,44.12605]]},"properties":{}},{"type":"Feature","geometry":{"type":"LineString","coordinates":[[8.25568,44.12605],[8.25569,44.12585]]},"properties":{}},{"type":"Feature","geometry":{"type":"LineString","coordinates":[[8.25568,44.12605],[8.25577,44.12604]]},"properties":{}},{"type":"Feature","geometry":{"type":"LineString","coordinates":[[8.25569,44.12585],[8.25578,44.12597],[8.25577,44.12604]]},"properties":{}},{"type":"Feature","geometry":{"type":"LineString","coordinates":[[8.25577,44.12604],[8.25584,44.12607],[8.25588,44.12614]]},"properties":{}},{"type":"Feature","geometry":{"type":"LineString","coordinates":[[8.25602,44.12633],[8.2558,44.12624]]},"properties":{}},{"type":"Feature","geometry":{"type":"LineString","coordinates":[[8.25588,44.12614],[8.25586,44.1262],[8.2558,44.12624]]},"properties":{}},{"type":"Feature","geometry":{"type":"LineString","coordinates":[[8.25588,44.12614],[8.256,44.12626],[8.25602,44.12633]]},"properties":{}},{"type":"Feature","geometry":{"type":"LineString","coordinates":[[8.25755,44.12787],[8.25724,44.12753],[8.25638,44.12673],[8.25602,44.12633]]},"properties":{}},{"type":"Feature","geometry":{"type":"LineString","coordinates":[[8.25755,44.12787],[8.25767,44.12802],[8.25772,44.12815]]},"properties":{}},{"type":"Feature","geometry":{"type":"LineString","coordinates":[[8.25758,44.12816],[8.2576,44.12802],[8.25755,44.12787]]},"properties":{}},{"type":"Feature","geometry":{"type":"LineString","coordinates":[[8.25775,44.12833],[8.25765,44.12836],[8.25754,44.12831],[8.25751,44.12825],[8.25758,44.12816]]},"properties":{}},{"type":"Feature","geometry":{"type":"LineString","coordinates":[[8.25758,44.12816],[8.25772,44.12815]]},"properties":{}},{"type":"Feature","geometry":{"type":"LineString","coordinates":[[8.25772,44.12815],[8.25779,44.12819],[8.25781,44.12826]]},"properties":{}},{"type":"Feature","geometry":{"type":"LineString","coordinates":[[8.2583,44.12882],[8.25786,44.12837],[8.25775,44.12833]]},"properties":{}},{"type":"Feature","geometry":{"type":"LineString","coordinates":[[8.25781,44.12826],[8.25775,44.12833]]},"properties":{}},{"type":"Feature","geometry":{"type":"LineString","coordinates":[[8.25781,44.12826],[8.25795,44.12836],[8.2583,44.12882]]},"properties":{}},{"type":"Feature","geometry":{"type":"LineString","coordinates":[[8.26209,44.13333],[8.26037,44.13148],[8.25928,44.13012],[8.2583,44.12882]]},"properties":{}},{"type":"Feature","geometry":{"type":"LineString","coordinates":[[8.26209,44.13333],[8.26232,44.13346]]},"properties":{}},{"type":"Feature","geometry":{"type":"LineString","coordinates":[[8.26228,44.13352],[8.26214,44.13343],[8.26209,44.13333]]},"properties":{}},{"type":"Feature","geometry":{"type":"LineString","coordinates":[[8.26232,44.13358],[8.26228,44.13352]]},"properties":{}},{"type":"Feature","geometry":{"type":"LineString","coordinates":[[8.26228,44.13352],[8.26232,44.13346]]},"properties":{}},{"type":"Feature","geometry":{"type":"LineString","coordinates":[[8.26248,44.13356],[8.26241,44.1336],[8.26232,44.13358]]},"properties":{}},{"type":"Feature","geometry":{"type":"LineString","coordinates":[[8.26249,44.13378],[8.26232,44.13358]]},"properties":{}},{"type":"Feature","geometry":{"type":"LineString","coordinates":[[8.26232,44.13346],[8.26247,44.13347],[8.26248,44.13356]]},"properties":{}},{"type":"Feature","geometry":{"type":"LineString","coordinates":[[8.26248,44.13356],[8.26249,44.13378]]},"properties":{}},{"type":"Feature","geometry":{"type":"LineString","coordinates":[[8.27262,44.14251],[8.26885,44.13953],[8.26833,44.13903],[8.26709,44.1377],[8.26685,44.1375],[8.26662,44.13735],[8.26541,44.1368],[8.26507,44.13653],[8.26249,44.13378]]},"properties":{}},{"type":"Feature","geometry":{"type":"LineString","coordinates":[[8.27262,44.14251],[8.27321,44.14297]]},"properties":{}},{"type":"Feature","geometry":{"type":"LineString","coordinates":[[8.27321,44.14297],[8.27265,44.14289],[8.2726,44.1428],[8.27264,44.14272],[8.27262,44.14251]]},"properties":{}},{"type":"Feature","geometry":{"type":"LineString","coordinates":[[8.27481,44.14419],[8.27473,44.1441],[8.27321,44.14297]]},"properties":{}},{"type":"Feature","geometry":{"type":"LineString","coordinates":[[8.27481,44.14419],[8.275,44.14433],[8.27539,44.14451]]},"properties":{}},{"type":"Feature","geometry":{"type":"LineString","coordinates":[[8.27539,44.14451],[8.27517,44.1445],[8.27498,44.14455],[8.27489,44.14453],[8.27483,44.14445],[8.27485,44.14439],[8.27481,44.14419]]},"properties":{}},{"type":"Feature","geometry":{"type":"LineString","coordinates":[[8.28234,44.1498],[8.28221,44.14976],[8.28088,44.14885],[8.27941,44.14841],[8.27831,44.14794],[8.27809,44.14778],[8.27789,44.14758],[8.27724,44.14616],[8.27709,44.14592],[8.27676,44.14561],[8.27539,44.14451]]},"properties":{}},{"type":"Feature","geometry":{"type":"LineString","coordinates":[[8.28249,44.14986],[8.28238,44.14988],[8.28234,44.14984],[8.28234,44.1498]]},"properties":{}},{"type":"Feature","geometry":{"type":"LineString","coordinates":[[8.28234,44.1498],[8.28245,44.14978],[8.28249,44.14981],[8.28249,44.14986]]},"properties":{}},{"type":"Feature","geometry":{"type":"LineString","coordinates":[[8.28701,44.15075],[8.28563,44.15078],[8.28436,44.15061],[8.2841,44.15053],[8.28361,44.15033],[8.28313,44.15002],[8.283,44.14996],[8.28249,44.14986]]},"properties":{}},{"type":"Feature","geometry":{"type":"LineString","coordinates":[[8.28701,44.15075],[8.28716,44.15061],[8.28777,44.15087]]},"properties":{}},{"type":"Feature","geometry":{"type":"LineString","coordinates":[[8.28777,44.15087],[8.2873,44.15082],[8.28723,44.15075],[8.28701,44.15075]]},"properties":{}},{"type":"Feature","geometry":{"type":"LineString","coordinates":[[8.34087,44.1686],[8.34064,44.16848],[8.34039,44.16829],[8.33891,44.16703],[8.33789,44.1664],[8.33742,44.16599],[8.33721,44.16571],[8.33699,44.16517],[8.33685,44.16389],[8.33675,44.16348],[8.33668,44.16332],[8.3364,44.1629],[8.33617,44.16269],[8.33585,44.16247],[8.33531,44.16223],[8.33469,44.16209],[8.32069,44.16],[8.31875,44.15967],[8.31274,44.15846],[8.31172,44.15817],[8.31066,44.158],[8.30587,44.15699],[8.30313,44.15636],[8.29397,44.15356],[8.28777,44.15087]]},"properties":{}},{"type":"Feature","geometry":{"type":"LineString","coordinates":[[8.29448,44.20506],[8.29427,44.20529],[8.29462,44.20575],[8.29482,44.20588],[8.29517,44.20602],[8.29528,44.20609],[8.29533,44.20617],[8.29537,44.20647],[8.29561,44.20671],[8.29585,44.20735],[8.29595,44.20748],[8.29642,44.20773],[8.29649,44.20783],[8.29654,44.20812],[8.29664,44.20832],[8.29698,44.20871],[8.2975,44.20951],[8.29773,44.21],[8.29805,44.21047],[8.2981,44.2109],[8.29819,44.21127],[8.29837,44.21154],[8.29945,44.21265],[8.29948,44.21275],[8.29945,44.2128],[8.29911,44.21304],[8.29906,44.21313],[8.29905,44.21321],[8.29945,44.21409],[8.29973,44.21447],[8.29979,44.21474],[8.29989,44.21491],[8.3002,44.21503],[8.30077,44.21514],[8.30154,44.2154],[8.30231,44.2157],[8.30254,44.21596],[8.30261,44.21619],[8.30261,44.21625],[8.30256,44.21631],[8.3024,44.21635],[8.30231,44.21633],[8.30193,44.2161],[8.30095,44.21584],[8.30074,44.21583],[8.30039,44.21588],[8.3002,44.21596],[8.30007,44.21606],[8.29997,44.21619],[8.29979,44.21659],[8.29955,44.21739],[8.29959,44.21747],[8.29971,44.2175],[8.2998,44.21745],[8.29991,44.21707],[8.30003,44.21692],[8.30013,44.2169],[8.3002,44.21693],[8.30022,44.21698],[8.30011,44.21744],[8.30022,44.21808],[8.29988,44.21835],[8.29984,44.21845],[8.29993,44.21865],[8.29991,44.21878],[8.29982,44.21886],[8.2992,44.21901],[8.29899,44.21921],[8.29871,44.21975],[8.29868,44.21988],[8.29871,44.22021],[8.29865,44.22026],[8.29826,44.22038],[8.29812,44.22059],[8.29796,44.22097],[8.29796,44.22106],[8.29808,44.22108],[8.29836,44.22065],[8.29846,44.22061],[8.29857,44.22063],[8.29908,44.22088],[8.2992,44.2209],[8.2993,44.22088],[8.29936,44.2208],[8.29923,44.22026],[8.29934,44.22005],[8.2996,44.21991],[8.30034,44.2197],[8.30092,44.21945],[8.30133,44.21937],[8.30157,44.21927],[8.30171,44.21917],[8.302,44.21886],[8.3022,44.21876],[8.30241,44.21877],[8.30257,44.21889],[8.30276,44.2191],[8.30295,44.21913],[8.30342,44.21906],[8.30358,44.21914],[8.30353,44.21923],[8.3032,44.21925],[8.30288,44.21942],[8.30247,44.21942],[8.30222,44.21946],[8.30162,44.2197],[8.30119,44.22003],[8.30069,44.22034],[8.30054,44.22055],[8.30044,44.22088],[8.30044,44.221],[8.30077,44.22146],[8.30082,44.22159],[8.30081,44.22168],[8.30068,44.22186],[8.30034,44.22211],[8.29998,44.22235],[8.29964,44.22247],[8.29927,44.22268],[8.29916,44.22279],[8.29913,44.22289],[8.29915,44.22314],[8.29904,44.22346],[8.29907,44.2235],[8.29921,44.2235],[8.29933,44.22337],[8.29936,44.2233],[8.29931,44.22295],[8.29955,44.2228],[8.29979,44.2227],[8.30019,44.22275],[8.30033,44.22271],[8.30059,44.22255],[8.30091,44.22246],[8.30119,44.22241],[8.30152,44.22241],[8.30186,44.22228],[8.30197,44.22217],[8.30201,44.22193],[8.30194,44.22183],[8.30157,44.22162],[8.30152,44.22157],[8.30159,44.22145],[8.30208,44.22094],[8.30228,44.22086],[8.30245,44.22084],[8.30273,44.22098],[8.30416,44.22114],[8.3044,44.22125],[8.30482,44.22151],[8.30518,44.22162],[8.306,44.22149],[8.30683,44.22165],[8.30699,44.22166],[8.30707,44.22162],[8.30721,44.22144],[8.30743,44.22088],[8.30755,44.22075],[8.3081,44.22041],[8.30842,44.22016],[8.30866,44.21957],[8.30888,44.21928],[8.31043,44.2181],[8.31047,44.21802],[8.3105,44.21771],[8.31112,44.21704],[8.31124,44.21684],[8.31131,44.21659],[8.31138,44.21653],[8.31145,44.21653]]},"properties":{}},{"type":"Feature","geometry":{"type":"LineString","coordinates":[[8.44249,44.28921],[8.44237,44.28947],[8.44223,44.28965],[8.44191,44.28987],[8.43988,44.29073],[8.43804,44.2917],[8.4358,44.29255],[8.43535,44.29276],[8.43496,44.29298],[8.4347,44.29319],[8.43426,44.2938],[8.43401,44.29409],[8.43373,44.29432],[8.43311,44.29469],[8.43161,44.29532],[8.43074,44.29577],[8.43034,44.29599],[8.42829,44.29733],[8.42745,44.29801],[8.42484,44.30021],[8.42448,44.30047],[8.42395,44.30074],[8.42333,44.30101],[8.4162,44.30346],[8.41323,44.30452],[8.4119,44.30505],[8.41043,44.30576],[8.4097,44.30614],[8.40766,44.30731],[8.4047,44.30909],[8.40337,44.30974],[8.40126,44.3107],[8.40014,44.31129],[8.39029,44.31754],[8.38678,44.31984],[8.38628,44.32014],[8.38524,44.32063],[8.38433,44.32088],[8.37974,44.32155],[8.37906,44.32169],[8.3785,44.32184],[8.37784,44.3221],[8.37715,44.32246],[8.37685,44.32264],[8.37565,44.32348],[8.37509,44.3238],[8.37475,44.32396],[8.37375,44.32429],[8.37157,44.32476],[8.3706,44.32503],[8.36985,44.32534],[8.36953,44.32551],[8.36893,44.32589],[8.36823,44.32649],[8.36787,44.3269],[8.36766,44.3272],[8.36739,44.32775],[8.36696,44.32877],[8.36653,44.32988],[8.36644,44.33058],[8.36647,44.33099],[8.36663,44.33155],[8.36687,44.332],[8.36704,44.33224],[8.36726,44.3325],[8.36766,44.33288],[8.36892,44.33384],[8.3694,44.33413],[8.36982,44.33432],[8.37052,44.33456],[8.37144,44.33474],[8.37265,44.33482],[8.37364,44.33478],[8.37507,44.33465],[8.37527,44.33466],[8.37619,44.33489],[8.37669,44.33511],[8.37724,44.33543],[8.37784,44.33583],[8.3784,44.3363],[8.37869,44.33659],[8.37887,44.33681],[8.37903,44.33706],[8.37929,44.33759],[8.37955,44.33859],[8.37961,44.33893],[8.37965,44.3398],[8.37959,44.34013],[8.37948,44.34041],[8.37933,44.34071],[8.37892,44.34131],[8.37851,44.34171],[8.37806,44.34206],[8.37745,44.34238],[8.37128,44.34476],[8.37057,44.34498],[8.36985,44.34516],[8.36956,44.34522],[8.36904,44.34527],[8.36728,44.34524],[8.36423,44.34508],[8.36347,44.34498],[8.35279,44.34255],[8.34967,44.34191],[8.33759,44.33923],[8.33471,44.33856],[8.33395,44.33841],[8.33311,44.3383],[8.33202,44.33825],[8.33153,44.33829],[8.33125,44.33839],[8.33067,44.33867],[8.32992,44.33914],[8.32919,44.33966],[8.32729,44.34163],[8.32685,44.34234],[8.32653,44.34278],[8.32615,44.34309],[8.32494,44.34388],[8.32451,44.34425],[8.32427,44.34456],[8.32358,44.34568],[8.32334,44.34598],[8.32303,44.34621],[8.32273,44.34639],[8.32241,44.34652],[8.32179,44.34667],[8.32113,44.34672],[8.31965,44.34669],[8.31857,44.34673],[8.31774,44.3468],[8.31709,44.34696],[8.31664,44.34718],[8.3163,44.34744],[8.31607,44.34772],[8.31557,44.3485],[8.31532,44.34881],[8.31504,44.34903],[8.3147,44.34924],[8.3139,44.34959],[8.31356,44.34971],[8.31269,44.34992],[8.31172,44.35003],[8.31109,44.35004],[8.3102,44.34995],[8.30955,44.3498],[8.30893,44.3495],[8.30762,44.34859],[8.30678,44.34819],[8.30311,44.34663],[8.29887,44.34487],[8.29767,44.34447]]},"properties":{}},{"type":"Feature","geometry":{"type":"LineString","coordinates":[[8.29767,44.34447],[8.29822,44.34401],[8.29883,44.34363],[8.29943,44.34331],[8.30027,44.34297],[8.3008,44.34281],[8.30127,44.34269],[8.30202,44.34255],[8.30272,44.34248],[8.30366,44.34247],[8.30467,44.34255],[8.30561,44.34278],[8.30611,44.34297],[8.3081,44.34394],[8.31066,44.34507],[8.31335,44.34634],[8.3141,44.34659],[8.3149,44.34672],[8.31562,44.34677],[8.31672,44.34675],[8.31911,44.3466],[8.32153,44.3466],[8.32196,44.34654],[8.32234,44.34644],[8.32286,44.3462],[8.32332,44.34582],[8.32356,44.34549],[8.32403,44.34466],[8.32455,44.34402],[8.32489,44.34375],[8.32624,44.34285],[8.32654,44.34254],[8.32673,44.34219],[8.32733,44.34139],[8.32804,44.34065],[8.32824,44.3404],[8.32834,44.34018],[8.32838,44.33987],[8.32832,44.33957],[8.32818,44.33928],[8.32755,44.33857],[8.32741,44.33828],[8.32738,44.33797],[8.32741,44.33772],[8.32751,44.33747],[8.32768,44.33724],[8.3281,44.33685],[8.32837,44.33669],[8.3306,44.33556],[8.33118,44.33533],[8.33183,44.3352],[8.33421,44.33481],[8.33578,44.33438],[8.33616,44.33431],[8.33651,44.33428],[8.33685,44.3343],[8.33937,44.33486],[8.33989,44.33494],[8.34075,44.33493],[8.34145,44.33479],[8.34176,44.33468],[8.34222,44.33446],[8.34509,44.33297],[8.34672,44.33221],[8.34907,44.33119],[8.34946,44.331],[8.34991,44.3307],[8.35048,44.33017],[8.3507,44.32988],[8.35151,44.32848],[8.35227,44.32706],[8.35234,44.32688],[8.35239,44.32668],[8.35234,44.32639],[8.35226,44.32615],[8.35164,44.32487],[8.35143,44.32435],[8.35138,44.32404],[8.35139,44.32376],[8.3515,44.32348],[8.35162,44.3233],[8.35182,44.32309],[8.35203,44.32296],[8.35262,44.32275],[8.35425,44.32249],[8.35528,44.32236],[8.35601,44.32236],[8.35826,44.32257],[8.35977,44.32261],[8.36047,44.3226],[8.36091,44.32256],[8.36227,44.32223],[8.36295,44.32198],[8.36338,44.32174],[8.36543,44.32034],[8.36609,44.32012],[8.36667,44.32001],[8.36729,44.31994],[8.37094,44.31952],[8.37148,44.31949],[8.37173,44.3195],[8.3724,44.31964],[8.37274,44.31979]]},"properties":{}},{"type":"Feature","geometry":{"type":"LineString","coordinates":[[8.34211,44.16932],[8.34194,44.16942],[8.34138,44.16956],[8.34111,44.16915],[8.34083,44.1689],[8.34082,44.16876],[8.34087,44.16869],[8.34087,44.1686]]},"properties":{}},{"type":"Feature","geometry":{"type":"LineString","coordinates":[[8.34087,44.1686],[8.34096,44.16856],[8.34103,44.16857],[8.34108,44.16864],[8.34106,44.16869],[8.34211,44.16932]]},"properties":{}},{"type":"Feature","geometry":{"type":"LineString","coordinates":[[8.35901,44.1722],[8.35838,44.17204],[8.35308,44.171],[8.3516,44.17059],[8.35086,44.17046],[8.35038,44.17045],[8.35,44.17035],[8.34967,44.17035],[8.349,44.17064],[8.34858,44.17071],[8.34688,44.1706],[8.3459,44.17067],[8.34541,44.17058],[8.34474,44.17055],[8.34455,44.17048],[8.34211,44.16932]]},"properties":{}},{"type":"Feature","geometry":{"type":"LineString","coordinates":[[8.35919,44.17225],[8.35917,44.17233],[8.35904,44.17236],[8.35894,44.17229],[8.35901,44.1722]]},"properties":{}},{"type":"Feature","geometry":{"type":"LineString","coordinates":[[8.35901,44.1722],[8.35911,44.17219],[8.35919,44.17225]]},"properties":{}},{"type":"Feature","geometry":{"type":"LineString","coordinates":[[8.35919,44.17225],[8.35934,44.17223],[8.36063,44.1725],[8.36279,44.17303],[8.36538,44.17346],[8.36725,44.17412],[8.36751,44.17424],[8.36792,44.17456],[8.3685,44.17508],[8.3686,44.17534],[8.36865,44.17582],[8.36872,44.17601],[8.36928,44.17651],[8.36976,44.17714],[8.37013,44.17749],[8.37063,44.17774],[8.37122,44.17797],[8.37229,44.17824],[8.37405,44.17862],[8.37524,44.17879],[8.38173,44.1801],[8.38228,44.18029],[8.38325,44.18076],[8.38354,44.18084],[8.38518,44.18102],[8.38551,44.18109],[8.38692,44.18147],[8.39948,44.18169],[8.39982,44.18174],[8.40254,44.18231],[8.40369,44.18259],[8.40514,44.18325],[8.40548,44.18349],[8.40624,44.18426],[8.4075,44.1858],[8.40773,44.18602],[8.40871,44.1866],[8.40891,44.18682],[8.40904,44.18711],[8.40916,44.18729],[8.40933,44.18746],[8.4099,44.18792],[8.4105,44.18828],[8.41471,44.19014],[8.41717,44.19144],[8.41744,44.19152],[8.41778,44.19158],[8.4196,44.1917],[8.42,44.19178],[8.42019,44.19186],[8.42057,44.19212],[8.4208,44.19233],[8.42116,44.19246],[8.42136,44.1926],[8.42148,44.19264],[8.42172,44.19263],[8.42199,44.19273],[8.4223,44.19302],[8.42263,44.19322],[8.42279,44.1934],[8.42291,44.19359],[8.42297,44.19393],[8.42303,44.19406],[8.4232,44.19421],[8.42368,44.19446],[8.42392,44.19476],[8.42405,44.19482],[8.42431,44.19486],[8.42448,44.19496],[8.42496,44.19561],[8.42501,44.1958],[8.42493,44.19645],[8.42494,44.19662],[8.4249,44.19677],[8.42483,44.19693],[8.424,44.19768],[8.42325,44.19806],[8.4221,44.19849],[8.42194,44.19852],[8.42114,44.19848],[8.42041,44.19835],[8.42025,44.19836],[8.41948,44.19868],[8.41889,44.19909],[8.41806,44.19933],[8.41766,44.19952],[8.41732,44.19981],[8.41672,44.20042],[8.41604,44.20176],[8.41592,44.20208],[8.41586,44.20248],[8.41593,44.20345],[8.41654,44.20579],[8.41673,44.2063],[8.41751,44.20752],[8.41755,44.20765],[8.41752,44.20851],[8.41756,44.20989],[8.41802,44.21099],[8.41803,44.21112],[8.41796,44.21136],[8.41788,44.21146],[8.41766,44.21171],[8.41698,44.2123],[8.41676,44.21263],[8.41669,44.21277],[8.41639,44.2144],[8.41629,44.21469],[8.4154,44.21592],[8.41522,44.21635],[8.41508,44.21679],[8.41486,44.21778],[8.41476,44.21857],[8.41473,44.21907],[8.41479,44.21939]]},"properties":{}},{"type":"Feature","geometry":{"type":"LineString","coordinates":[[8.37274,44.31979],[8.37368,44.32031],[8.37418,44.32046],[8.37484,44.32055],[8.37547,44.32057],[8.37585,44.3205],[8.37628,44.32034],[8.37743,44.31971],[8.37786,44.31937],[8.37825,44.31889],[8.37836,44.31866],[8.37918,44.3167],[8.37921,44.31637],[8.37914,44.31605],[8.37909,44.31593],[8.37886,44.31561],[8.37862,44.31541],[8.37833,44.31525],[8.3777,44.31501],[8.3775,44.31498],[8.37677,44.31499],[8.37634,44.31509],[8.37591,44.31527],[8.37561,44.31548],[8.37532,44.31579],[8.37485,44.3165],[8.37451,44.31709],[8.37274,44.31979]]},"properties":{}},{"type":"Feature","geometry":{"type":"LineString","coordinates":[[8.37274,44.31979],[8.37229,44.32047],[8.37195,44.32115],[8.37189,44.32148],[8.37191,44.3224],[8.37197,44.32262],[8.37213,44.32295],[8.37239,44.32325],[8.37282,44.32353],[8.37311,44.32366],[8.37345,44.32374],[8.3741,44.32379],[8.37476,44.32367],[8.3751,44.32353],[8.37537,44.32338],[8.3755,44.32327],[8.3763,44.32238],[8.37656,44.32216],[8.37686,44.32201],[8.37754,44.32179],[8.37954,44.3214],[8.38012,44.32118],[8.38051,44.32094],[8.38083,44.32063],[8.38103,44.32034],[8.38119,44.31999],[8.38128,44.31952],[8.3811,44.31853],[8.38109,44.31836],[8.38114,44.31812],[8.38129,44.3178],[8.38181,44.31708],[8.38197,44.31673],[8.38205,44.31631],[8.38213,44.31562],[8.38214,44.31514],[8.3822,44.31493],[8.38233,44.31472],[8.38256,44.31452],[8.38275,44.3144],[8.3839,44.31385],[8.38475,44.3133],[8.38502,44.3132],[8.38532,44.31315],[8.38571,44.31313],[8.38608,44.31316],[8.38762,44.31356],[8.38815,44.31364],[8.38847,44.31364],[8.38896,44.31352],[8.38928,44.3134],[8.39061,44.31246],[8.39133,44.31199],[8.39187,44.31173],[8.39303,44.31102],[8.39355,44.31078],[8.39544,44.31017],[8.39617,44.30987],[8.39676,44.30954],[8.39746,44.30907],[8.39828,44.30862],[8.399,44.30816],[8.3997,44.30782],[8.40046,44.30754],[8.40242,44.307],[8.40455,44.30602],[8.40639,44.30501],[8.40803,44.30432],[8.4085,44.30409],[8.40903,44.30366],[8.41084,44.30205],[8.41136,44.30154],[8.412,44.3005],[8.41233,44.30003],[8.41281,44.29964],[8.41331,44.29943],[8.41373,44.29931],[8.41652,44.29878],[8.41727,44.29881],[8.41958,44.29912],[8.42015,44.29913],[8.42551,44.2987],[8.42597,44.29862],[8.42648,44.29844],[8.42707,44.29812],[8.42779,44.29754],[8.42851,44.29703],[8.43218,44.29461],[8.43483,44.29291],[8.43521,44.2927],[8.43601,44.29233],[8.43782,44.29166],[8.44048,44.29025],[8.44108,44.28998],[8.44173,44.28977],[8.44191,44.28964],[8.44196,44.28957],[8.44199,44.28941],[8.44195,44.28927],[8.44162,44.289],[8.43886,44.28787]]},"properties":{}},{"type":"Feature","geometry":{"type":"LineString","coordinates":[[8.41453,44.2203],[8.4144,44.2215],[8.41428,44.22311],[8.41433,44.22358],[8.41441,44.22395],[8.41464,44.22458],[8.41476,44.22485],[8.41512,44.22536],[8.41645,44.2269],[8.41672,44.22715],[8.41766,44.22784],[8.41852,44.22824],[8.42016,44.22867],[8.42068,44.22884],[8.42115,44.22905],[8.42204,44.22966],[8.42257,44.22996],[8.42332,44.2303],[8.42402,44.23072],[8.42511,44.23146],[8.42629,44.23211],[8.42726,44.23244],[8.4276,44.23259],[8.42779,44.23278],[8.42809,44.23338],[8.42834,44.23367],[8.4295,44.23435],[8.431,44.23513],[8.43319,44.23614],[8.43785,44.23802],[8.43813,44.23811],[8.43836,44.23815],[8.4388,44.23809],[8.43899,44.23801],[8.43951,44.23758],[8.43966,44.2375],[8.44001,44.23739],[8.44044,44.23732],[8.44133,44.23726],[8.44172,44.23726],[8.44229,44.23739],[8.44253,44.23751],[8.4426,44.23759],[8.44275,44.23788],[8.44282,44.23808],[8.44279,44.23829],[8.4425,44.23867],[8.44242,44.23887],[8.44244,44.23902],[8.44253,44.23922],[8.44297,44.23979],[8.44313,44.23992],[8.4438,44.2403],[8.44419,44.24062],[8.4443,44.2408],[8.44449,44.24139],[8.4446,44.24156],[8.44479,44.24175],[8.44491,44.24196],[8.44496,44.24211],[8.44492,44.24233],[8.44483,44.24256],[8.44443,44.24337],[8.44423,44.24356],[8.44373,44.24395],[8.44356,44.2442],[8.44353,44.2444],[8.4436,44.24469],[8.44375,44.24492],[8.44393,44.24509]]},"properties":{}},{"type":"Feature","geometry":{"type":"LineString","coordinates":[[8.41453,44.2203],[8.41452,44.21997],[8.41448,44.21991],[8.41447,44.21983],[8.41457,44.21972],[8.4147,44.21969],[8.41478,44.21954],[8.41479,44.21939]]},"properties":{}},{"type":"Feature","geometry":{"type":"LineString","coordinates":[[8.41479,44.21939],[8.41484,44.21964],[8.41492,44.21981],[8.41492,44.21992],[8.41483,44.22],[8.41469,44.22003],[8.41453,44.2203]]},"properties":{}},{"type":"Feature","geometry":{"type":"LineString","coordinates":[[8.43893,44.28778],[8.43714,44.28701],[8.4364,44.28661],[8.43549,44.28601]]},"properties":{}},{"type":"Feature","geometry":{"type":"LineString","coordinates":[[8.43703,44.28709],[8.43648,44.28679],[8.43594,44.28642],[8.43549,44.28601]]},"properties":{}},{"type":"Feature","geometry":{"type":"LineString","coordinates":[[8.43598,44.28623],[8.43702,44.28676],[8.43793,44.28714]]},"properties":{}},{"type":"Feature","geometry":{"type":"LineString","coordinates":[[8.43598,44.28623],[8.43651,44.28656],[8.43738,44.28703],[8.43899,44.2877]]},"properties":{}},{"type":"Feature","geometry":{"type":"LineString","coordinates":[[8.43872,44.28782],[8.43703,44.28709]]},"properties":{}},{"type":"Feature","geometry":{"type":"LineString","coordinates":[[8.43774,44.28817],[8.43759,44.28798],[8.43754,44.28757],[8.43746,44.28742],[8.43732,44.28728],[8.43703,44.28709]]},"properties":{}},{"type":"Feature","geometry":{"type":"LineString","coordinates":[[8.43774,44.28817],[8.43795,44.28828],[8.4383,44.28829],[8.43859,44.28815],[8.43886,44.28787]]},"properties":{}},{"type":"Feature","geometry":{"type":"LineString","coordinates":[[8.43872,44.28782],[8.43818,44.28765],[8.43801,44.28764],[8.43787,44.28768],[8.43774,44.28777],[8.43767,44.28789],[8.43768,44.28802],[8.43774,44.28817]]},"properties":{}},{"type":"Feature","geometry":{"type":"LineString","coordinates":[[8.43793,44.28714],[8.43825,44.28721],[8.43862,44.28722],[8.43901,44.28714],[8.43992,44.28681],[8.44046,44.28673],[8.44104,44.28674]]},"properties":{}},{"type":"Feature","geometry":{"type":"LineString","coordinates":[[8.43793,44.28714],[8.43905,44.28762]]},"properties":{}},{"type":"Feature","geometry":{"type":"LineString","coordinates":[[8.43886,44.28787],[8.43872,44.28782]]},"properties":{}},{"type":"Feature","geometry":{"type":"LineString","coordinates":[[8.43886,44.28787],[8.43893,44.28778]]},"properties":{}},{"type":"Feature","geometry":{"type":"LineString","coordinates":[[8.44249,44.28921],[8.43893,44.28778]]},"properties":{}},{"type":"Feature","geometry":{"type":"LineString","coordinates":[[8.43893,44.28778],[8.43899,44.2877]]},"properties":{}},{"type":"Feature","geometry":{"type":"LineString","coordinates":[[8.43899,44.2877],[8.44255,44.28914]]},"properties":{}},{"type":"Feature","geometry":{"type":"LineString","coordinates":[[8.43899,44.2877],[8.43905,44.28762]]},"properties":{}},{"type":"Feature","geometry":{"type":"LineString","coordinates":[[8.43905,44.28762],[8.44047,44.28819]]},"properties":{}},{"type":"Feature","geometry":{"type":"LineString","coordinates":[[8.43905,44.28762],[8.43925,44.28736],[8.43968,44.28705],[8.44005,44.2869],[8.44048,44.28682]]},"properties":{}},{"type":"Feature","geometry":{"type":"LineString","coordinates":[[8.44047,44.28819],[8.44263,44.28905]]},"properties":{}},{"type":"Feature","geometry":{"type":"LineString","coordinates":[[8.44102,44.28694],[8.44053,44.28691],[8.44023,44.28697],[8.44,44.28707],[8.43982,44.28726],[8.43976,44.28742],[8.43976,44.28755],[8.43985,44.28776],[8.44003,44.28794],[8.44047,44.28819]]},"properties":{}},{"type":"Feature","geometry":{"type":"LineString","coordinates":[[8.44102,44.28694],[8.44048,44.28682]]},"properties":{}},{"type":"Feature","geometry":{"type":"LineString","coordinates":[[8.44048,44.28682],[8.44056,44.28678],[8.44104,44.28674]]},"properties":{}},{"type":"Feature","geometry":{"type":"LineString","coordinates":[[8.44171,44.26525],[8.44127,44.26623],[8.44097,44.26677],[8.4408,44.26701],[8.44074,44.26718],[8.44069,44.26722],[8.44057,44.26723]]},"properties":{}},{"type":"Feature","geometry":{"type":"LineString","coordinates":[[8.44466,44.28318],[8.44459,44.28294],[8.44301,44.28019],[8.4397,44.27465],[8.43922,44.27352],[8.43876,44.27222],[8.43868,44.27167],[8.43875,44.27117],[8.4388,44.27096],[8.43904,44.27039],[8.43989,44.26887],[8.44046,44.26769],[8.44055,44.26749],[8.44057,44.26723]]},"properties":{}},{"type":"Feature","geometry":{"type":"LineString","coordinates":[[8.44057,44.26723],[8.44051,44.2672],[8.4405,44.26712],[8.44054,44.26707],[8.44064,44.26705],[8.44095,44.26668],[8.44171,44.26525]]},"properties":{}},{"type":"Feature","geometry":{"type":"LineString","coordinates":[[8.44703,44.28789],[8.44569,44.2874],[8.44546,44.28735],[8.44536,44.28723],[8.44511,44.28709],[8.44476,44.28697],[8.44424,44.28693],[8.44325,44.28702],[8.44255,44.28703],[8.44102,44.28694]]},"properties":{}},{"type":"Feature","geometry":{"type":"LineString","coordinates":[[8.44104,44.28674],[8.44289,44.28687],[8.44306,44.28682],[8.44363,44.28649],[8.4437,44.28647],[8.44393,44.2865],[8.44563,44.28706],[8.44576,44.28714],[8.44578,44.28717],[8.44575,44.28723],[8.44581,44.28729],[8.44605,44.28737],[8.44666,44.28766],[8.44691,44.28778],[8.44703,44.28789]]},"properties":{}},{"type":"Feature","geometry":{"type":"LineString","coordinates":[[8.44171,44.26525],[8.44186,44.26495],[8.44213,44.26461],[8.44231,44.26444],[8.44272,44.26416],[8.4471,44.26186]]},"properties":{}},{"type":"Feature","geometry":{"type":"LineString","coordinates":[[8.5,44.33267],[8.49951,44.33186],[8.49904,44.33122],[8.49869,44.3308],[8.49817,44.33029],[8.49113,44.32467],[8.49044,44.32419],[8.48979,44.32382],[8.48905,44.32352],[8.48847,44.32334],[8.48634,44.32286],[8.4851,44.32251],[8.48442,44.32228],[8.4836,44.32193],[8.48298,44.32162],[8.48249,44.3213],[8.48037,44.31973],[8.47979,44.3194],[8.47923,44.31917],[8.4787,44.31902],[8.47779,44.31886],[8.47418,44.31862],[8.47327,44.31849],[8.47272,44.31834],[8.472,44.31806],[8.47147,44.31778],[8.47121,44.31761],[8.47072,44.31722],[8.47054,44.31704],[8.47022,44.31663],[8.4668,44.31059],[8.46608,44.30941],[8.46569,44.30888],[8.46495,44.30808],[8.46431,44.30751],[8.46361,44.30698],[8.46286,44.3065],[8.46198,44.30603],[8.46117,44.30566],[8.46044,44.30538],[8.45961,44.30511],[8.45869,44.30487],[8.45726,44.30461],[8.45293,44.30413],[8.45217,44.30401],[8.45133,44.3038],[8.45033,44.30345],[8.44979,44.30321],[8.44905,44.30281],[8.44832,44.30231],[8.44753,44.30155],[8.44702,44.30091],[8.44663,44.30018],[8.44648,44.29984],[8.44626,44.29901],[8.44621,44.29849],[8.44632,44.29347],[8.44626,44.29272],[8.44605,44.29202],[8.4459,44.29171],[8.44569,44.29137],[8.44542,44.29103],[8.44514,44.29072],[8.44454,44.29022],[8.44398,44.28987],[8.44346,44.28961],[8.44249,44.28921]]},"properties":{}},{"type":"Feature","geometry":{"type":"LineString","coordinates":[[8.44255,44.28914],[8.44249,44.28921]]},"properties":{}},{"type":"Feature","geometry":{"type":"LineString","coordinates":[[8.44255,44.28914],[8.44395,44.28975],[8.44461,44.29017],[8.44499,44.29046],[8.44553,44.291],[8.44579,44.29134],[8.44601,44.29168],[8.44616,44.292],[8.44637,44.2926],[8.44646,44.29324],[8.44635,44.2985],[8.44645,44.29933],[8.44667,44.30001],[8.44689,44.30045],[8.44714,44.30087],[8.44781,44.30168],[8.44848,44.30231],[8.44925,44.30283],[8.44977,44.30311],[8.45039,44.30339],[8.45136,44.30372],[8.45192,44.30387],[8.45293,44.30405],[8.45721,44.30453],[8.45795,44.30464],[8.45881,44.30482],[8.46011,44.30518],[8.4612,44.30557],[8.46195,44.30591],[8.46281,44.30636],[8.46384,44.30703],[8.46475,44.30775],[8.46549,44.30849],[8.4662,44.30938],[8.46655,44.30993],[8.46985,44.31568],[8.47035,44.31662],[8.47081,44.31716],[8.47125,44.31752],[8.4718,44.31786],[8.47215,44.31804],[8.47276,44.31826],[8.47344,44.31842],[8.47471,44.31857],[8.47782,44.31877],[8.47852,44.31888],[8.47929,44.3191],[8.47991,44.31936],[8.48045,44.31967],[8.48208,44.32086],[8.48264,44.32121],[8.48323,44.32154],[8.48412,44.32196],[8.48532,44.32238],[8.48925,44.32347],[8.48978,44.32366],[8.49036,44.32393],[8.49086,44.32422],[8.49131,44.32454],[8.49837,44.33017],[8.49872,44.3305],[8.49924,44.33109],[8.49957,44.33154],[8.5,44.33224]]},"properties":{}},{"type":"Feature","geometry":{"type":"LineString","coordinates":[[8.44263,44.28905],[8.44255,44.28914]]},"properties":{}},{"type":"Feature","geometry":{"type":"LineString","coordinates":[[8.44263,44.28905],[8.44319,44.28923],[8.44347,44.28926],[8.4437,44.28922],[8.44377,44.28917],[8.44384,44.28911],[8.44389,44.28896],[8.44385,44.28883],[8.44379,44.28877],[8.44359,44.28868],[8.44347,44.28867],[8.44333,44.28868],[8.44309,44.28877],[8.44263,44.28905]]},"properties":{}},{"type":"Feature","geometry":{"type":"LineString","coordinates":[[8.44402,44.24521],[8.4439,44.24517],[8.44389,44.24514],[8.44393,44.24509]]},"properties":{}},{"type":"Feature","geometry":{"type":"LineString","coordinates":[[8.44393,44.24509],[8.444,44.24507],[8.44408,44.24511],[8.44408,44.24517],[8.44402,44.24521]]},"properties":{}},{"type":"Feature","geometry":{"type":"LineString","coordinates":[[8.44402,44.24521],[8.44433,44.24598],[8.44446,44.24614],[8.44495,44.24656],[8.44514,44.24681],[8.4456,44.24809],[8.44571,44.24827],[8.4471,44.25001],[8.4474,44.25051],[8.44768,44.25106],[8.44835,44.25178],[8.44873,44.25206],[8.44915,44.25225],[8.44982,44.25247],[8.45,44.25257],[8.45018,44.25276],[8.45028,44.25292],[8.45033,44.25312],[8.45033,44.25344]]},"properties":{}},{"type":"Feature","geometry":{"type":"LineString","coordinates":[[8.44474,44.2833],[8.44467,44.28331],[8.4446,44.28326],[8.44461,44.28321],[8.44466,44.28318]]},"properties":{}},{"type":"Feature","geometry":{"type":"LineString","coordinates":[[8.44466,44.28318],[8.44472,44.28318],[8.44478,44.28323],[8.44474,44.2833]]},"properties":{}},{"type":"Feature","geometry":{"type":"LineString","coordinates":[[8.45382,44.29126],[8.45319,44.29069],[8.45291,44.29049],[8.45222,44.28992],[8.45207,44.28976],[8.45102,44.28883],[8.45074,44.28863],[8.44835,44.2865],[8.44797,44.28621],[8.44705,44.28539],[8.44602,44.28454],[8.44474,44.2833]]},"properties":{}},{"type":"Feature","geometry":{"type":"LineString","coordinates":[[8.44703,44.28789],[8.44764,44.28822],[8.44831,44.28872],[8.44913,44.28935],[8.44962,44.28988],[8.45013,44.2905],[8.45036,44.2909],[8.45045,44.29118],[8.45056,44.292],[8.45063,44.29229],[8.45079,44.29259],[8.45119,44.29304],[8.45162,44.29336],[8.45193,44.29354]]},"properties":{}},{"type":"Feature","geometry":{"type":"LineString","coordinates":[[8.4471,44.26186],[8.44725,44.26177],[8.44757,44.26168],[8.44775,44.26158],[8.44787,44.26159],[8.44803,44.26165],[8.44854,44.2617]]},"properties":{}},{"type":"Feature","geometry":{"type":"LineString","coordinates":[[8.44854,44.2617],[8.44809,44.26173],[8.44783,44.26184],[8.44747,44.26177],[8.4471,44.26186]]},"properties":{}},{"type":"Feature","geometry":{"type":"LineString","coordinates":[[8.44854,44.2617],[8.44935,44.26179],[8.44989,44.26181],[8.45049,44.26172],[8.45088,44.2616],[8.4514,44.26134],[8.45197,44.26096],[8.45242,44.26054],[8.45276,44.2601],[8.45293,44.25976],[8.453,44.25937],[8.45295,44.25869],[8.45285,44.25826],[8.45269,44.25795],[8.45179,44.2568]]},"properties":{}},{"type":"Feature","geometry":{"type":"LineString","coordinates":[[8.45033,44.25344],[8.45036,44.25357],[8.45046,44.25375],[8.45107,44.25419],[8.45174,44.25496],[8.45201,44.25535],[8.45207,44.25555],[8.45205,44.25573],[8.45178,44.25617],[8.45171,44.25636],[8.45171,44.25653],[8.45179,44.2568]]},"properties":{}},{"type":"Feature","geometry":{"type":"LineString","coordinates":[[8.45179,44.2568],[8.45156,44.25649],[8.45152,44.25608],[8.45155,44.25592],[8.45153,44.25573],[8.4514,44.25538],[8.45113,44.25504],[8.4505,44.25454],[8.45038,44.2544],[8.45035,44.25428],[8.45033,44.25344]]},"properties":{}},{"type":"Feature","geometry":{"type":"LineString","coordinates":[[8.45193,44.29354],[8.45226,44.29366],[8.45242,44.29365],[8.45256,44.29355]]},"properties":{}},{"type":"Feature","geometry":{"type":"LineString","coordinates":[[8.45276,44.29387],[8.45208,44.29365],[8.45193,44.29354]]},"properties":{}},{"type":"Feature","geometry":{"type":"LineString","coordinates":[[8.45276,44.29387],[8.45256,44.29369],[8.45256,44.29355]]},"properties":{}},{"type":"Feature","geometry":{"type":"LineString","coordinates":[[8.45256,44.29355],[8.45269,44.2931],[8.45283,44.29281],[8.45315,44.29229],[8.45326,44.2922]]},"properties":{}},{"type":"Feature","geometry":{"type":"LineString","coordinates":[[8.45256,44.29355],[8.45276,44.29344],[8.45286,44.29343],[8.45309,44.29353]]},"properties":{}},{"type":"Feature","geometry":{"type":"LineString","coordinates":[[8.45447,44.29465],[8.45276,44.29387]]},"properties":{}},{"type":"Feature","geometry":{"type":"LineString","coordinates":[[8.45309,44.29353],[8.45447,44.29465]]},"properties":{}},{"type":"Feature","geometry":{"type":"LineString","coordinates":[[8.45326,44.2922],[8.45323,44.29234],[8.45292,44.29284],[8.45282,44.29306],[8.45282,44.29315],[8.45289,44.29331],[8.45309,44.29353]]},"properties":{}},{"type":"Feature","geometry":{"type":"LineString","coordinates":[[8.45326,44.2922],[8.45337,44.29206],[8.45399,44.29168]]},"properties":{}},{"type":"Feature","geometry":{"type":"LineString","coordinates":[[8.45382,44.29126],[8.45398,44.29139],[8.45407,44.29154]]},"properties":{}},{"type":"Feature","geometry":{"type":"LineString","coordinates":[[8.45399,44.29158],[8.45382,44.29126]]},"properties":{}},{"type":"Feature","geometry":{"type":"LineString","coordinates":[[8.45399,44.29168],[8.45397,44.29163],[8.45399,44.29158]]},"properties":{}},{"type":"Feature","geometry":{"type":"LineString","coordinates":[[8.45399,44.29158],[8.45407,44.29154]]},"properties":{}},{"type":"Feature","geometry":{"type":"LineString","coordinates":[[8.45417,44.29169],[8.45406,44.29171],[8.45399,44.29168]]},"properties":{}},{"type":"Feature","geometry":{"type":"LineString","coordinates":[[8.45407,44.29154],[8.4542,44.29159],[8.45421,44.29164],[8.45417,44.29169]]},"properties":{}},{"type":"Feature","geometry":{"type":"LineString","coordinates":[[8.47445,44.3003],[8.47339,44.29993],[8.46914,44.29833],[8.46869,44.29825],[8.46722,44.29831],[8.46692,44.29828],[8.46539,44.29786],[8.46451,44.29754],[8.45927,44.29473],[8.4591,44.29467],[8.45801,44.29403],[8.45749,44.29379],[8.45685,44.29353],[8.4548,44.29218],[8.45417,44.29169]]},"properties":{}},{"type":"Feature","geometry":{"type":"LineString","coordinates":[[8.45447,44.29465],[8.45573,44.29549]]},"properties":{}},{"type":"Feature","geometry":{"type":"LineString","coordinates":[[8.45573,44.29549],[8.45619,44.29571],[8.45659,44.29597],[8.4574,44.29641],[8.4576,44.29655]]},"properties":{}},{"type":"Feature","geometry":{"type":"LineString","coordinates":[[8.4576,44.29655],[8.4572,44.29638],[8.4567,44.29638],[8.45641,44.29629],[8.45625,44.29614],[8.45628,44.29586],[8.45624,44.29582],[8.4558,44.29556],[8.45573,44.29549]]},"properties":{}},{"type":"Feature","geometry":{"type":"LineString","coordinates":[[8.4576,44.29655],[8.45945,44.29764],[8.46036,44.29805],[8.46188,44.29858]]},"properties":{}},{"type":"Feature","geometry":{"type":"LineString","coordinates":[[8.46188,44.29858],[8.46251,44.29874],[8.46298,44.29863],[8.46315,44.29864],[8.46326,44.2987]]},"properties":{}},{"type":"Feature","geometry":{"type":"LineString","coordinates":[[8.46326,44.2987],[8.46304,44.29867],[8.46293,44.29869],[8.46278,44.29884],[8.46279,44.29891],[8.46275,44.29897],[8.46268,44.29901],[8.46255,44.29903],[8.46242,44.29897],[8.46238,44.29886],[8.4623,44.29878],[8.46188,44.29858]]},"properties":{}},{"type":"Feature","geometry":{"type":"LineString","coordinates":[[8.46891,44.3026],[8.46876,44.30202],[8.46869,44.30189],[8.46857,44.3018],[8.46646,44.30063],[8.46536,44.29992],[8.46326,44.2987]]},"properties":{}},{"type":"Feature","geometry":{"type":"LineString","coordinates":[[8.46906,44.30267],[8.46904,44.30272],[8.46899,44.30276],[8.46888,44.30275],[8.46883,44.30271],[8.46882,44.30265],[8.46891,44.3026]]},"properties":{}},{"type":"Feature","geometry":{"type":"LineString","coordinates":[[8.46891,44.3026],[8.46899,44.3026],[8.46906,44.30267]]},"properties":{}},{"type":"Feature","geometry":{"type":"LineString","coordinates":[[8.46906,44.30267],[8.47004,44.30261]]},"properties":{}},{"type":"Feature","geometry":{"type":"LineString","coordinates":[[8.47014,44.3027],[8.47007,44.30267],[8.47004,44.30261]]},"properties":{}},{"type":"Feature","geometry":{"type":"LineString","coordinates":[[8.47004,44.30261],[8.47008,44.30253],[8.47019,44.3025],[8.47029,44.30254],[8.47032,44.30262]]},"properties":{}},{"type":"Feature","geometry":{"type":"LineString","coordinates":[[8.47032,44.30262],[8.47025,44.30269],[8.47014,44.3027]]},"properties":{}},{"type":"Feature","geometry":{"type":"LineString","coordinates":[[8.47057,44.30433],[8.47049,44.30416],[8.47013,44.30284],[8.47014,44.3027]]},"properties":{}},{"type":"Feature","geometry":{"type":"LineString","coordinates":[[8.47032,44.30262],[8.47625,44.30379],[8.47854,44.30428]]},"properties":{}},{"type":"Feature","geometry":{"type":"LineString","coordinates":[[8.47064,44.30447],[8.47053,44.30442],[8.47053,44.30437],[8.47057,44.30433]]},"properties":{}},{"type":"Feature","geometry":{"type":"LineString","coordinates":[[8.47057,44.30433],[8.47067,44.30432],[8.47073,44.30435],[8.47073,44.30443],[8.47064,44.30447]]},"properties":{}},{"type":"Feature","geometry":{"type":"LineString","coordinates":[[8.47079,44.30511],[8.47064,44.30463],[8.47064,44.30447]]},"properties":{}},{"type":"Feature","geometry":{"type":"LineString","coordinates":[[8.47079,44.30511],[8.47081,44.30528],[8.47086,44.30535],[8.4709,44.30593],[8.47095,44.30603],[8.47108,44.30616],[8.47157,44.30639],[8.4717,44.30649],[8.47177,44.30667],[8.47171,44.30692],[8.47114,44.30848],[8.47114,44.30868],[8.47123,44.30876],[8.4712,44.30882]]},"properties":{}},{"type":"Feature","geometry":{"type":"LineString","coordinates":[[8.4712,44.30882],[8.47105,44.30886],[8.47096,44.30878],[8.47097,44.30873],[8.47106,44.30864],[8.47109,44.30853],[8.47098,44.3083],[8.47104,44.30817],[8.4712,44.30805],[8.47144,44.30744],[8.47145,44.30737],[8.4714,44.3072],[8.47159,44.30678],[8.47161,44.30659],[8.47152,44.30646],[8.47108,44.30626],[8.47085,44.30609],[8.4708,44.30599],[8.47072,44.30547],[8.47062,44.30545],[8.47056,44.30538],[8.47057,44.30531],[8.47073,44.30521],[8.47079,44.30511]]},"properties":{}},{"type":"Feature","geometry":{"type":"LineString","coordinates":[[8.4712,44.30882],[8.4714,44.30882],[8.47439,44.30926],[8.47443,44.30931],[8.47615,44.30965],[8.47646,44.30969],[8.477,44.30818],[8.47942,44.30864]]},"properties":{}},{"type":"Feature","geometry":{"type":"LineString","coordinates":[[8.47926,44.30244],[8.47679,44.30152],[8.47632,44.3013],[8.47574,44.30088],[8.47545,44.30072],[8.47457,44.30036]]},"properties":{}},{"type":"Feature","geometry":{"type":"LineString","coordinates":[[8.47854,44.30428],[8.47939,44.30445]]},"properties":{}},{"type":"Feature","geometry":{"type":"LineString","coordinates":[[8.47854,44.30428],[8.47926,44.30244]]},"properties":{}},{"type":"Feature","geometry":{"type":"LineString","coordinates":[[8.47926,44.30244],[8.48004,44.30273],[8.47939,44.30445]]},"properties":{}},{"type":"Feature","geometry":{"type":"LineString","coordinates":[[8.47939,44.30445],[8.48091,44.30476]]},"properties":{}},{"type":"Feature","geometry":{"type":"LineString","coordinates":[[8.48471,44.30968],[8.47942,44.30864]]},"properties":{}},{"type":"Feature","geometry":{"type":"LineString","coordinates":[[8.47942,44.30864],[8.47899,44.30975],[8.47967,44.31028],[8.47956,44.31054]]},"properties":{}},{"type":"Feature","geometry":{"type":"LineString","coordinates":[[8.48091,44.30476],[8.47942,44.30864]]},"properties":{}},{"type":"Feature","geometry":{"type":"LineString","coordinates":[[8.48091,44.30476],[8.48215,44.30502],[8.48361,44.30583]]},"properties":{}},{"type":"Feature","geometry":{"type":"LineString","coordinates":[[8.48361,44.30583],[8.48386,44.30588],[8.48402,44.30588]]},"properties":{}},{"type":"Feature","geometry":{"type":"LineString","coordinates":[[8.48403,44.30604],[8.48388,44.30601],[8.48361,44.30583]]},"properties":{}},{"type":"Feature","geometry":{"type":"LineString","coordinates":[[8.48403,44.30604],[8.48398,44.30596],[8.48402,44.30588]]},"properties":{}},{"type":"Feature","geometry":{"type":"LineString","coordinates":[[8.48402,44.30588],[8.48411,44.30583],[8.4842,44.30583]]},"properties":{}},{"type":"Feature","geometry":{"type":"LineString","coordinates":[[8.48408,44.30606],[8.48403,44.30604]]},"properties":{}},{"type":"Feature","geometry":{"type":"LineString","coordinates":[[8.48427,44.30604],[8.4842,44.30607],[8.48408,44.30606]]},"properties":{}},{"type":"Feature","geometry":{"type":"LineString","coordinates":[[8.48467,44.30651],[8.48414,44.30613],[8.48408,44.30606]]},"properties":{}},{"type":"Feature","geometry":{"type":"LineString","coordinates":[[8.4842,44.30583],[8.48432,44.30591]]},"properties":{}},{"type":"Feature","geometry":{"type":"LineString","coordinates":[[8.4842,44.30583],[8.48434,44.30579],[8.48472,44.30577]]},"properties":{}},{"type":"Feature","geometry":{"type":"LineString","coordinates":[[8.48427,44.30604],[8.4843,44.30616],[8.48436,44.30623],[8.48462,44.30643],[8.48467,44.30651]]},"properties":{}},{"type":"Feature","geometry":{"type":"LineString","coordinates":[[8.48432,44.30591],[8.48432,44.30598],[8.48427,44.30604]]},"properties":{}},{"type":"Feature","geometry":{"type":"LineString","coordinates":[[8.48472,44.30577],[8.48443,44.30584],[8.48432,44.30591]]},"properties":{}},{"type":"Feature","geometry":{"type":"LineString","coordinates":[[8.48467,44.30651],[8.48479,44.3066],[8.48505,44.30693],[8.48513,44.30706],[8.4852,44.30729],[8.48519,44.30738],[8.48511,44.30755],[8.48478,44.30797],[8.48467,44.30817],[8.48458,44.30854],[8.48459,44.30871],[8.48466,44.30902],[8.48483,44.30945]]},"properties":{}},{"type":"Feature","geometry":{"type":"LineString","coordinates":[[8.48498,44.31011],[8.48483,44.31],[8.48473,44.30987],[8.48469,44.30975],[8.48471,44.30968]]},"properties":{}},{"type":"Feature","geometry":{"type":"LineString","coordinates":[[8.48471,44.30968],[8.48483,44.30945]]},"properties":{}},{"type":"Feature","geometry":{"type":"LineString","coordinates":[[8.48472,44.30577],[8.48599,44.30574],[8.48646,44.30583],[8.4868,44.30602],[8.48835,44.30715],[8.48868,44.30743]]},"properties":{}},{"type":"Feature","geometry":{"type":"LineString","coordinates":[[8.48483,44.30945],[8.48495,44.30986]]},"properties":{}},{"type":"Feature","geometry":{"type":"LineString","coordinates":[[8.48487,44.30978],[8.48495,44.30986]]},"properties":{}},{"type":"Feature","geometry":{"type":"LineString","coordinates":[[8.48495,44.30986],[8.48533,44.31036]]},"properties":{}},{"type":"Feature","geometry":{"type":"LineString","coordinates":[[8.48495,44.30986],[8.48496,44.30994],[8.48505,44.31006],[8.48503,44.3101],[8.48498,44.31011]]},"properties":{}},{"type":"Feature","geometry":{"type":"LineString","coordinates":[[8.48533,44.31036],[8.4851,44.31018],[8.48498,44.31011]]},"properties":{}},{"type":"Feature","geometry":{"type":"LineString","coordinates":[[8.5,44.32539],[8.49895,44.32382],[8.49865,44.32332],[8.4984,44.32271],[8.49827,44.32252],[8.49807,44.32234],[8.49728,44.32183],[8.49683,44.32158],[8.49599,44.32121],[8.4954,44.32086],[8.49527,44.32066],[8.49498,44.32],[8.49485,44.31982],[8.49394,44.31921],[8.49263,44.31775],[8.49188,44.31702],[8.49098,44.31621],[8.49067,44.31588],[8.49025,44.31514],[8.49017,44.31504],[8.48982,44.31481],[8.48913,44.31456],[8.48891,44.31443],[8.48785,44.31362],[8.48777,44.31351],[8.48769,44.31324],[8.48772,44.31254],[8.48761,44.31231],[8.4875,44.3122],[8.48662,44.31169],[8.48617,44.31131],[8.48533,44.31036]]},"properties":{}},{"type":"Feature","geometry":{"type":"LineString","coordinates":[[8.48886,44.3083],[8.48877,44.30865],[8.48832,44.30987]]},"properties":{}},{"type":"Feature","geometry":{"type":"LineString","coordinates":[[8.48868,44.30743],[8.48905,44.30778],[8.48901,44.30796],[8.48886,44.3083]]},"properties":{}},{"type":"Feature","geometry":{"type":"LineString","coordinates":[[8.48886,44.3083],[8.48888,44.30807],[8.48881,44.30793],[8.48873,44.30789],[8.48868,44.30781],[8.48872,44.30772],[8.48868,44.30743]]},"properties":{}},{"type":"Feature","geometry":{"type":"LineString","coordinates":[[8.5,44.34515],[8.49958,44.34542],[8.49896,44.34569],[8.4983,44.34588],[8.49677,44.34616],[8.49635,44.3463],[8.49594,44.34652],[8.49564,44.34662],[8.49473,44.34677],[8.4944,44.3468],[8.4932,44.34676]]},"properties":{}},{"type":"Feature","geometry":{"type":"LineString","coordinates":[[8.4932,44.34676],[8.49255,44.34673],[8.49261,44.34667],[8.49278,44.34661],[8.49317,44.34658],[8.49328,44.34661],[8.4932,44.34676]]},"properties":{}},{"type":"Feature","geometry":{"type":"LineString","coordinates":[[8.47104,44.30808],[8.47092,44.30807],[8.47085,44.30803],[8.471,44.30756],[8.47112,44.30737],[8.47138,44.30743],[8.47114,44.30803],[8.47104,44.30808]]},"properties":{}}]}