{"type":"FeatureCollection","features":[{"type":"Feature","geometry":{"type":"LineString","coordinates":[[8.43237,45.92844],[8.43158,45.9291],[8.43112,45.92961],[8.43093,45.9299],[8.43079,45.93021],[8.43067,45.93068],[8.42977,45.93557],[8.42984,45.93594],[8.42998,45.93599],[8.43001,45.93609],[8.42997,45.93615],[8.42984,45.93619],[8.42964,45.93635],[8.42763,45.94698],[8.42718,45.94944],[8.42715,45.94991],[8.42719,45.95028],[8.42731,45.9507],[8.42749,45.95107],[8.42784,45.95154],[8.42852,45.95216],[8.43027,45.95352],[8.43085,45.954],[8.43114,45.95428],[8.43126,45.95451],[8.43132,45.95492],[8.43129,45.95512],[8.43117,45.9554],[8.43102,45.95562],[8.43076,45.95585],[8.43045,45.95604],[8.43002,45.95619],[8.4297,45.95625],[8.42882,45.95627],[8.42497,45.95623],[8.4246,45.95628],[8.42433,45.95636],[8.42404,45.95651],[8.42373,45.95673],[8.42354,45.95702],[8.42332,45.95772],[8.4233,45.95803],[8.42322,45.95816],[8.41919,45.96416],[8.41705,45.96729],[8.41698,45.96738],[8.41678,45.96751],[8.41614,45.96764],[8.41608,45.96769],[8.41598,45.96785],[8.41579,45.96831],[8.41563,45.96902],[8.41399,45.97163],[8.41366,45.97184],[8.41283,45.9725],[8.41175,45.97357],[8.40878,45.97691],[8.40584,45.98016],[8.40312,45.98329],[8.40134,45.98521],[8.40083,45.98573],[8.40045,45.98587],[8.39969,45.98603],[8.39612,45.98668],[8.39358,45.98718],[8.39337,45.98719],[8.39308,45.98714],[8.39128,45.98663],[8.38988,45.98633],[8.38382,45.98548],[8.38345,45.98546],[8.38317,45.98552],[8.38298,45.98562],[8.38276,45.98586],[8.38196,45.98723],[8.38167,45.98761],[8.38132,45.98789],[8.38106,45.98802],[8.38038,45.98827],[8.38005,45.98841],[8.37983,45.98854],[8.37963,45.98873],[8.37944,45.98898],[8.37816,45.99116],[8.37804,45.9915],[8.37795,45.99255],[8.37807,45.99272],[8.37842,45.99303],[8.37848,45.99313],[8.37847,45.99326],[8.3784,45.99339],[8.37826,45.99353],[8.378,45.99362],[8.37778,45.99361],[8.37729,45.99352],[8.37697,45.99355],[8.37687,45.99363],[8.37681,45.99376],[8.37685,45.99388],[8.37696,45.99397],[8.37693,45.99405],[8.37686,45.99409],[8.37663,45.99407],[8.37629,45.9941],[8.37132,45.99531],[8.37016,45.99553],[8.36998,45.99553],[8.36945,45.9954],[8.36821,45.9945],[8.36774,45.99425],[8.36759,45.99422],[8.36719,45.99419],[8.36659,45.99423],[8.36563,45.99434],[8.36275,45.99476],[8.36137,45.99507],[8.35359,45.99703],[8.35148,45.9975],[8.34965,45.99799],[8.34172,46.0]]},"properties":{}},{"type":"Feature","geometry":{"type":"LineString","coordinates":[[8.43237,45.92844],[8.43243,45.92835],[8.43249,45.92838]]},"properties":{}},{"type":"Feature","geometry":{"type":"LineString","coordinates":[[8.43249,45.92838],[8.43237,45.92844]]},"properties":{}},{"type":"Feature","geometry":{"type":"LineString","coordinates":[[8.43265,45.92828],[8.43262,45.92837],[8.43249,45.92838]]},"properties":{}},{"type":"Feature","geometry":{"type":"LineString","coordinates":[[8.43265,45.92828],[8.43258,45.92822],[8.43274,45.9281]]},"properties":{}},{"type":"Feature","geometry":{"type":"LineString","coordinates":[[8.43274,45.9281],[8.43265,45.92828]]},"properties":{}},{"type":"Feature","geometry":{"type":"LineString","coordinates":[[8.44926,45.92444],[8.449,45.92435],[8.44344,45.92395],[8.44323,45.92399],[8.443,45.92417],[8.44286,45.92418],[8.44258,45.92403],[8.44213,45.92393],[8.43946,45.92366],[8.43877,45.92366],[8.43843,45.92369],[8.43786,45.9238],[8.4373,45.92407],[8.43274,45.9281]]},"properties":{}},{"type":"Feature","geometry":{"type":"LineString","coordinates":[[8.44926,45.92444],[8.44948,45.92444]]},"properties":{}},{"type":"Feature","geometry":{"type":"LineString","coordinates":[[8.44941,45.92456],[8.44926,45.92444]]},"properties":{}},{"type":"Feature","geometry":{"type":"LineString","coordinates":[[8.44997,45.92457],[8.44991,45.92468],[8.44985,45.92472],[8.44968,45.92476],[8.44951,45.92471],[8.44945,45.92466],[8.44941,45.92456]]},"properties":{}},{"type":"Feature","geometry":{"type":"LineString","coordinates":[[8.44941,45.92456],[8.44945,45.92447]]},"properties":{}},{"type":"Feature","geometry":{"type":"LineString","coordinates":[[8.44997,45.92457],[8.44992,45.92445],[8.45013,45.92446]]},"properties":{}},{"type":"Feature","geometry":{"type":"LineString","coordinates":[[8.45013,45.92446],[8.44997,45.92457]]},"properties":{}},{"type":"Feature","geometry":{"type":"LineString","coordinates":[[8.45013,45.92446],[8.46281,45.9254],[8.46683,45.92573],[8.47063,45.92599],[8.4711,45.92605],[8.47143,45.92611],[8.47225,45.92642],[8.47647,45.92867],[8.47694,45.92889],[8.47738,45.929],[8.4791,45.92913]]},"properties":{}},{"type":"Feature","geometry":{"type":"LineString","coordinates":[[8.47922,45.92918],[8.4791,45.92913]]},"properties":{}},{"type":"Feature","geometry":{"type":"LineString","coordinates":[[8.4791,45.92913],[8.47924,45.92911],[8.47922,45.92918]]},"properties":{}},{"type":"Feature","geometry":{"type":"LineString","coordinates":[[8.47943,45.92912],[8.47944,45.92918],[8.47937,45.92923],[8.47928,45.92923],[8.47922,45.92918]]},"properties":{}},{"type":"Feature","geometry":{"type":"LineString","coordinates":[[8.47943,45.92912],[8.47938,45.92909],[8.47951,45.929]]},"properties":{}},{"type":"Feature","geometry":{"type":"LineString","coordinates":[[8.47951,45.929],[8.47943,45.92912]]},"properties":{}},{"type":"Feature","geometry":{"type":"LineString","coordinates":[[8.47951,45.929],[8.4802,45.92835],[8.48056,45.92807],[8.48322,45.927],[8.48456,45.92613],[8.48649,45.92548],[8.48932,45.92391],[8.49031,45.92325],[8.49577,45.91897],[8.49589,45.91898],[8.49597,45.91894],[8.49599,45.91888],[8.49595,45.91882],[8.49629,45.91867],[8.4982,45.91738],[8.49857,45.91717],[8.5,45.91672]]},"properties":{}}]}