{"type":"FeatureCollection","features":[{"type":"Feature","geometry":{"type":"LineString","coordinates":[[8.53584,40.0],[8.53566,40.00019],[8.53551,40.00043],[8.53439,40.00231],[8.53421,40.00253],[8.53406,40.00262],[8.53393,40.00265],[8.53384,40.00273],[8.53382,40.00283],[8.53386,40.00291],[8.53386,40.00301],[8.53371,40.00339],[8.52838,40.01134],[8.5274,40.01286],[8.51839,40.0262],[8.51825,40.02651],[8.51784,40.02792],[8.51749,40.02942],[8.51741,40.02967],[8.5169,40.03067],[8.51365,40.03656],[8.51157,40.04191],[8.50815,40.04691],[8.50588,40.04961],[8.50494,40.05202],[8.50346,40.05429],[8.50188,40.05654],[8.5,40.05947]]},"properties":{}},{"type":"Feature","geometry":{"type":"LineString","coordinates":[[8.5,40.06382],[8.50026,40.06385],[8.50084,40.06382],[8.50109,40.06384],[8.5013,40.0639],[8.5015,40.06402],[8.50163,40.06415],[8.50174,40.06429],[8.5018,40.0645],[8.50178,40.06488],[8.50165,40.06511],[8.50127,40.06554],[8.5,40.06664]]},"properties":{}},{"type":"Feature","geometry":{"type":"LineString","coordinates":[[8.5,40.13356],[8.50193,40.13451],[8.5055,40.13637],[8.51311,40.1402],[8.5233,40.1454],[8.52363,40.14567],[8.52384,40.14606],[8.52573,40.15296],[8.5264,40.15554],[8.52653,40.15593],[8.52736,40.15915],[8.52932,40.16648],[8.52959,40.16737],[8.52975,40.16768],[8.53317,40.17261],[8.53732,40.1788],[8.5375,40.17896],[8.54045,40.18081],[8.54724,40.18501],[8.54737,40.18506],[8.54958,40.18479],[8.54989,40.18467],[8.55059,40.18415],[8.55086,40.18404],[8.55117,40.18396],[8.55146,40.18392],[8.55174,40.18393],[8.55256,40.184],[8.55466,40.18356],[8.55507,40.18351],[8.5564,40.18366],[8.55673,40.18365],[8.55696,40.18361],[8.55788,40.18328],[8.55919,40.18276],[8.55948,40.18269],[8.56102,40.18247],[8.56136,40.18249],[8.56158,40.18258],[8.56166,40.1827],[8.5617,40.18282],[8.56167,40.18297],[8.56155,40.18316],[8.56103,40.18372],[8.56072,40.18397],[8.5603,40.18413],[8.55954,40.1843],[8.55802,40.18494],[8.55792,40.18501],[8.55785,40.18513],[8.55784,40.18523],[8.55802,40.18558],[8.55803,40.18571]]},"properties":{}},{"type":"Feature","geometry":{"type":"LineString","coordinates":[[8.57304,40.19347],[8.57313,40.19361],[8.57316,40.19375],[8.5732,40.19418],[8.57317,40.19427],[8.5731,40.19438],[8.57228,40.19501],[8.57221,40.1951],[8.57219,40.19531],[8.57224,40.19542],[8.57311,40.19628],[8.57331,40.19638],[8.57343,40.19639],[8.57422,40.19625],[8.57443,40.19624],[8.57527,40.19634],[8.5753,40.19627],[8.57652,40.19601],[8.57755,40.19589],[8.57811,40.19572],[8.57861,40.1956],[8.57885,40.19557],[8.5798,40.1957],[8.57995,40.19577],[8.58018,40.19598],[8.58059,40.19615],[8.5809,40.19642],[8.58109,40.19647],[8.58136,40.19636],[8.58212,40.19588],[8.58264,40.19546],[8.58293,40.19534],[8.5831,40.19532],[8.58324,40.19537],[8.58331,40.19547],[8.58307,40.19609],[8.58304,40.19643],[8.58312,40.19654],[8.58327,40.19659],[8.58436,40.19663],[8.5846,40.19659],[8.58517,40.19644],[8.58535,40.19648],[8.58548,40.19662],[8.58563,40.19688],[8.58563,40.19698],[8.58555,40.19709],[8.58511,40.19743],[8.58493,40.19767],[8.58477,40.19794],[8.58459,40.19815],[8.58447,40.1982],[8.58437,40.19819],[8.58374,40.19795],[8.58338,40.19798],[8.58289,40.1982],[8.58235,40.19831],[8.5822,40.19838],[8.58207,40.19847],[8.5816,40.19895],[8.58132,40.19916],[8.58129,40.19933],[8.58139,40.19946],[8.58259,40.1999],[8.58278,40.2],[8.58321,40.20033],[8.58336,40.20038],[8.58369,40.20045],[8.584,40.20046],[8.58434,40.20023],[8.58463,40.20018],[8.58489,40.20022],[8.58536,40.20035],[8.58594,40.20042],[8.58636,40.20074],[8.58649,40.2008],[8.58685,40.20079],[8.58728,40.20083],[8.58848,40.20068],[8.5887,40.2007],[8.58948,40.20088],[8.58962,40.20087],[8.59048,40.20064],[8.59099,40.20071],[8.59115,40.2007],[8.59208,40.20017],[8.59223,40.19995],[8.59232,40.19991],[8.59258,40.19994],[8.59298,40.19981],[8.59321,40.19984],[8.5935,40.19997],[8.59395,40.19997],[8.59427,40.19991],[8.59447,40.19974],[8.5947,40.19964],[8.59491,40.19963],[8.59506,40.19969],[8.59508,40.19982],[8.59484,40.20013],[8.59469,40.20027],[8.59416,40.20064],[8.59368,40.20075],[8.5933,40.20095],[8.59322,40.20105],[8.59332,40.20167],[8.59309,40.2022],[8.59303,40.20267],[8.59304,40.20278],[8.59336,40.20347],[8.59339,40.20361],[8.59337,40.2037],[8.59316,40.20384],[8.59257,40.20431],[8.59238,40.20468],[8.59227,40.20482],[8.59153,40.20542],[8.59141,40.20555],[8.59137,40.2057],[8.5914,40.20584],[8.59204,40.20627],[8.5921,40.20636],[8.59212,40.20647],[8.59204,40.2066],[8.59126,40.20724],[8.591,40.20799],[8.59059,40.20858],[8.59053,40.20873],[8.59058,40.20906],[8.59052,40.20934],[8.59052,40.20948],[8.59078,40.21017],[8.59075,40.21032],[8.5906,40.21046],[8.58979,40.21086],[8.58937,40.21137],[8.58927,40.21157],[8.58923,40.2118],[8.58925,40.21195],[8.58949,40.21325],[8.58936,40.21346],[8.58855,40.21394],[8.58808,40.21445],[8.58759,40.21537],[8.58692,40.21581],[8.58685,40.21592],[8.58662,40.21611],[8.58646,40.21629],[8.58653,40.21686],[8.58656,40.21689],[8.58817,40.21742],[8.58925,40.21789],[8.58955,40.21809],[8.58962,40.21828],[8.58938,40.21905],[8.58914,40.21924],[8.58863,40.21943],[8.58816,40.21935],[8.58764,40.2192],[8.58765,40.21911],[8.5876,40.21905],[8.58756,40.21901],[8.58747,40.21899],[8.58372,40.21906],[8.58336,40.2191],[8.58162,40.21949],[8.58131,40.21953],[8.58114,40.21949],[8.58061,40.21917],[8.58042,40.21909],[8.58018,40.21906],[8.57951,40.21906],[8.57929,40.21902],[8.57821,40.21858],[8.57794,40.21852],[8.57498,40.21872],[8.57471,40.21878],[8.57416,40.21898],[8.57405,40.21904],[8.5739,40.21923],[8.57382,40.21944],[8.57382,40.21955],[8.57389,40.22065],[8.57383,40.22075],[8.57371,40.22083],[8.57347,40.22086],[8.57326,40.22077],[8.57252,40.22031],[8.572,40.22004],[8.56983,40.21974],[8.56826,40.21916],[8.56734,40.21853],[8.55953,40.21541],[8.55819,40.21532],[8.55699,40.21474],[8.55677,40.21453],[8.55582,40.2132],[8.55577,40.21304],[8.55561,40.21302],[8.55535,40.21307],[8.55282,40.21458],[8.55246,40.21484],[8.552,40.21535],[8.5518,40.21564],[8.55157,40.21633],[8.55118,40.2195],[8.551,40.21988],[8.55074,40.22016],[8.55049,40.22033],[8.5502,40.22047],[8.54541,40.22213],[8.54496,40.22233],[8.54441,40.22266],[8.54394,40.22304],[8.53822,40.22844],[8.53566,40.23081],[8.53551,40.231],[8.53544,40.23121],[8.53545,40.23148],[8.53557,40.23176],[8.53592,40.23221],[8.53609,40.23234],[8.53796,40.23259],[8.53816,40.23257],[8.53925,40.23227],[8.53945,40.23238],[8.53968,40.23271],[8.53968,40.23279],[8.53806,40.2339],[8.53762,40.23412],[8.53726,40.23428],[8.53628,40.23455],[8.5354,40.23496],[8.53494,40.2353],[8.53453,40.23578],[8.53425,40.23601],[8.53251,40.23698],[8.52855,40.23948],[8.52822,40.23977],[8.52793,40.24046],[8.52768,40.2408],[8.52595,40.24202],[8.52568,40.24243],[8.52546,40.24257],[8.52542,40.24267],[8.52544,40.24292],[8.52583,40.24384],[8.52584,40.24401],[8.52566,40.24417],[8.52509,40.24442],[8.52482,40.2445],[8.52377,40.24461],[8.52351,40.24468],[8.52299,40.24493],[8.52274,40.24514],[8.52261,40.24538],[8.52248,40.24607],[8.5213,40.24898],[8.52073,40.24968],[8.52011,40.25075],[8.51975,40.25111],[8.51967,40.2513],[8.51969,40.25138],[8.51974,40.25143],[8.5204,40.25192],[8.52086,40.25219],[8.5213,40.2524],[8.52155,40.25265],[8.52194,40.25319],[8.52219,40.25389],[8.52217,40.25483],[8.52212,40.25498],[8.52221,40.25532],[8.52251,40.2557],[8.52282,40.25604],[8.52338,40.25642],[8.52423,40.25687],[8.52454,40.25709],[8.52461,40.2572],[8.52518,40.25865],[8.52539,40.25926],[8.52551,40.25943],[8.52593,40.25974],[8.52713,40.26034],[8.52735,40.2604],[8.52771,40.26038],[8.52917,40.26094],[8.53111,40.26181],[8.53247,40.26256],[8.53378,40.26348],[8.53413,40.26395],[8.53459,40.26487],[8.53486,40.26512],[8.53522,40.26533],[8.53562,40.26547],[8.53591,40.26551],[8.53605,40.2655],[8.53661,40.26533],[8.53703,40.26535],[8.5374,40.26547],[8.53755,40.26556],[8.53769,40.26577],[8.53774,40.26599],[8.53772,40.26623],[8.53735,40.26723],[8.53735,40.26728],[8.5374,40.26733],[8.53747,40.26736],[8.53757,40.26733],[8.53796,40.26701],[8.53841,40.26674],[8.53899,40.2666],[8.53952,40.26658],[8.54226,40.26722],[8.54742,40.26796],[8.54758,40.268],[8.54769,40.26808],[8.54782,40.26822],[8.54826,40.26928],[8.54941,40.27104],[8.54953,40.27138],[8.54964,40.2719],[8.54972,40.27209],[8.54986,40.27228],[8.55036,40.27276],[8.55055,40.27306],[8.55059,40.2732],[8.55056,40.27368],[8.54978,40.27835],[8.54936,40.28055],[8.54917,40.28137],[8.5492,40.28161],[8.54929,40.28172],[8.55219,40.2831],[8.55231,40.28321],[8.55234,40.28328],[8.55234,40.28334],[8.55226,40.28349],[8.5518,40.28362],[8.5514,40.28368],[8.55102,40.28369],[8.54536,40.28357],[8.545,40.28362],[8.54467,40.28385],[8.54446,40.28408],[8.54419,40.2843],[8.54212,40.28545],[8.54193,40.28563],[8.54181,40.28582],[8.54176,40.28602],[8.5417,40.28698],[8.54164,40.28728],[8.54144,40.28752],[8.54123,40.28766],[8.5409,40.28774],[8.54022,40.28767],[8.53997,40.28769],[8.53902,40.28799],[8.53832,40.28803],[8.53761,40.28778],[8.53728,40.28758],[8.53607,40.28663],[8.53532,40.2862],[8.5339,40.28579],[8.53316,40.28577],[8.53259,40.28564],[8.53216,40.28535],[8.53199,40.28515],[8.53187,40.28431],[8.53171,40.28377],[8.53153,40.28359],[8.53076,40.2831],[8.53028,40.28294],[8.52916,40.28302],[8.52887,40.28292],[8.5282,40.28185],[8.52771,40.28141],[8.52713,40.28122],[8.52595,40.2812],[8.52567,40.28116],[8.52529,40.28095],[8.52458,40.28071],[8.5243,40.2805],[8.52383,40.2803],[8.52345,40.28001],[8.52193,40.27943],[8.52153,40.2794],[8.52131,40.27942],[8.52062,40.27959],[8.52014,40.27959],[8.52001,40.27956],[8.51971,40.27938],[8.51901,40.27907],[8.51831,40.27894],[8.51795,40.27891],[8.51776,40.27891],[8.51758,40.27897],[8.51714,40.2793],[8.51679,40.27939],[8.5161,40.27939],[8.51583,40.27936],[8.5152,40.2792],[8.51502,40.2792],[8.51482,40.27928],[8.51474,40.27935],[8.51472,40.27972],[8.51457,40.28053],[8.51458,40.28117],[8.51444,40.28164],[8.51417,40.28199],[8.51367,40.28235],[8.51303,40.2829],[8.51293,40.28311],[8.51291,40.28383],[8.51283,40.28399],[8.51097,40.28525],[8.51059,40.28579],[8.50919,40.28712],[8.50899,40.28727],[8.50874,40.28734],[8.50842,40.28734],[8.50678,40.28721],[8.50525,40.28719],[8.50477,40.2873],[8.50452,40.28741],[8.50394,40.28787],[8.50333,40.28843],[8.50308,40.28852],[8.50271,40.28857],[8.50267,40.2886],[8.50265,40.28865],[8.50271,40.28876],[8.50279,40.28881],[8.50299,40.28885],[8.50535,40.2889],[8.50589,40.28886],[8.5061,40.28896],[8.50619,40.28911],[8.50616,40.28927],[8.50606,40.28937],[8.50518,40.28949],[8.5042,40.28982],[8.50396,40.28991],[8.50361,40.29011],[8.5034,40.29033],[8.50329,40.29055],[8.50326,40.29087],[8.50339,40.29292],[8.5032,40.29315],[8.50298,40.29322],[8.5,40.29293]]},"properties":{}},{"type":"Feature","geometry":{"type":"LineString","coordinates":[[8.5586,40.18583],[8.55858,40.18596],[8.55847,40.18606],[8.55833,40.18611],[8.55817,40.1861],[8.55803,40.18603],[8.55796,40.18591],[8.55796,40.18584],[8.55803,40.18571]]},"properties":{}},{"type":"Feature","geometry":{"type":"LineString","coordinates":[[8.55803,40.18571],[8.55817,40.18564],[8.55834,40.18563],[8.55849,40.18569],[8.5586,40.18583]]},"properties":{}},{"type":"Feature","geometry":{"type":"LineString","coordinates":[[8.5586,40.18583],[8.55889,40.18568],[8.56247,40.18461],[8.56279,40.18459],[8.56384,40.18472],[8.56411,40.1847],[8.56423,40.18464],[8.56442,40.18445],[8.56458,40.184],[8.56464,40.18391],[8.56481,40.18377],[8.56503,40.18369],[8.56517,40.18368],[8.56568,40.18372],[8.56586,40.1838],[8.56597,40.1839],[8.566,40.18397],[8.566,40.18417],[8.56574,40.18462],[8.56561,40.18476],[8.56496,40.18516],[8.56485,40.1853],[8.56478,40.18548],[8.56481,40.18573],[8.56503,40.18659],[8.5649,40.18724],[8.56494,40.18746],[8.56499,40.18752],[8.56512,40.18762],[8.56519,40.18764],[8.56535,40.18763],[8.56549,40.18757],[8.56558,40.18747],[8.56568,40.18715],[8.56576,40.18702],[8.56635,40.18648],[8.5666,40.18608],[8.56689,40.18548],[8.567,40.18538],[8.56708,40.18536],[8.56727,40.18538],[8.56735,40.18545],[8.5674,40.18561],[8.56734,40.18606],[8.56737,40.18654],[8.56736,40.18692],[8.56729,40.18747],[8.56708,40.18797],[8.56707,40.18809],[8.56709,40.18817],[8.56734,40.18846],[8.5678,40.1895],[8.56811,40.19033],[8.56862,40.19101],[8.56872,40.19109],[8.56903,40.19122],[8.56921,40.19128],[8.56939,40.1913],[8.56959,40.19128],[8.57065,40.19097],[8.57097,40.19095],[8.57156,40.19121],[8.57187,40.19149],[8.57201,40.19155],[8.57215,40.19157],[8.57267,40.19155],[8.57315,40.19145],[8.57332,40.19136],[8.57365,40.19105],[8.57377,40.19098],[8.57402,40.19097],[8.5742,40.19108],[8.57426,40.1912],[8.57428,40.19232],[8.57425,40.19251],[8.57413,40.19274],[8.57388,40.19303],[8.57358,40.19311],[8.57339,40.19308]]},"properties":{}},{"type":"Feature","geometry":{"type":"LineString","coordinates":[[8.57339,40.19308],[8.57349,40.19322],[8.57348,40.19332],[8.57342,40.19342],[8.57324,40.1935],[8.57304,40.19347]]},"properties":{}},{"type":"Feature","geometry":{"type":"LineString","coordinates":[[8.57304,40.19347],[8.57294,40.19341],[8.57288,40.19333],[8.57287,40.19323],[8.57291,40.19313],[8.57303,40.19305],[8.57317,40.19302],[8.57339,40.19308]]},"properties":{}}]}