{"type":"FeatureCollection","features":[{"type":"Feature","geometry":{"type":"LineString","coordinates":[[10.19469,42.80218],[10.19663,42.80402],[10.19752,42.80482]]},"properties":{}},{"type":"Feature","geometry":{"type":"LineString","coordinates":[[10.19752,42.80482],[10.19659,42.80529],[10.19575,42.80578],[10.19564,42.80574],[10.1956,42.8056],[10.19534,42.80529],[10.19507,42.80505],[10.19499,42.80503],[10.19385,42.80505],[10.19332,42.80511],[10.19315,42.80515],[10.19265,42.80536],[10.19255,42.80537],[10.1925,42.80534],[10.19173,42.80343],[10.19174,42.80336],[10.19184,42.80329],[10.1934,42.80284],[10.19469,42.80218]]},"properties":{}},{"type":"Feature","geometry":{"type":"LineString","coordinates":[[10.22635,42.74569],[10.22524,42.74524],[10.22481,42.74512],[10.22066,42.74453],[10.21922,42.74436],[10.21889,42.74425],[10.21816,42.74371],[10.2176,42.74342],[10.21721,42.74333],[10.2169,42.7433],[10.21519,42.74321],[10.21497,42.74312],[10.21364,42.74242],[10.2131,42.74227],[10.21261,42.74227],[10.21214,42.74235],[10.21158,42.74259],[10.21095,42.74308],[10.21029,42.74337],[10.21016,42.74337],[10.21006,42.74333],[10.21,42.74324],[10.21001,42.74311],[10.2104,42.74281],[10.21089,42.74212],[10.21106,42.7418],[10.21113,42.74159],[10.21119,42.74125],[10.21109,42.74066],[10.211,42.74053],[10.2105,42.74014],[10.21024,42.73998],[10.20976,42.73979],[10.20959,42.73969],[10.20902,42.73898],[10.20886,42.73884],[10.20861,42.73869],[10.20758,42.73826],[10.20731,42.73795],[10.2072,42.73791],[10.20677,42.73788],[10.20668,42.73785],[10.20649,42.73754],[10.20635,42.73745],[10.20624,42.73744],[10.20601,42.73748],[10.20545,42.73766],[10.20453,42.7378],[10.20427,42.73782],[10.20365,42.73778],[10.20332,42.73761],[10.20281,42.73749],[10.202,42.73692],[10.20169,42.73676],[10.201,42.73648],[10.20047,42.73636],[10.19926,42.73634],[10.199,42.73631],[10.19882,42.73625],[10.19858,42.73609],[10.19837,42.73602],[10.19779,42.73591],[10.19753,42.73578],[10.19737,42.73574],[10.19701,42.73574],[10.19656,42.73584],[10.19623,42.73597],[10.19607,42.736],[10.19571,42.73597],[10.19538,42.73601],[10.19468,42.73629],[10.19382,42.73643],[10.19276,42.7363],[10.19206,42.73608],[10.19149,42.73598],[10.19053,42.73566],[10.19039,42.73564],[10.19018,42.73567],[10.19012,42.7357],[10.1901,42.73582],[10.1902,42.73608],[10.19045,42.73654],[10.19047,42.73688],[10.19075,42.73764],[10.19086,42.73778],[10.19123,42.73805],[10.19189,42.73839],[10.19195,42.73846],[10.19193,42.73855],[10.19186,42.73863],[10.19168,42.7387],[10.19063,42.73892],[10.18944,42.73889],[10.1884,42.73904],[10.18821,42.73904],[10.18765,42.73895],[10.1864,42.73896],[10.18626,42.73888],[10.1862,42.73878],[10.18617,42.73848],[10.1861,42.7384],[10.18592,42.73828],[10.18546,42.73807],[10.18524,42.73798],[10.1838,42.73778],[10.18363,42.73773],[10.18353,42.73765],[10.18347,42.73753],[10.1835,42.73717],[10.18344,42.73701],[10.18312,42.7366],[10.18177,42.73569],[10.18156,42.73557],[10.18142,42.73553],[10.1812,42.73553],[10.18095,42.73558],[10.17931,42.73597],[10.17921,42.73605],[10.17915,42.73631],[10.17899,42.73643],[10.17809,42.73643],[10.17787,42.73647],[10.17777,42.73655],[10.17774,42.73669],[10.17781,42.73684],[10.17793,42.737],[10.17794,42.73711],[10.17789,42.73721],[10.17767,42.73743],[10.17719,42.73766],[10.17689,42.73771],[10.17672,42.73769],[10.17611,42.73753],[10.17546,42.73753],[10.17528,42.73744],[10.1752,42.73731],[10.17521,42.73725],[10.17526,42.73714],[10.17534,42.73707],[10.1757,42.73686],[10.17575,42.73678],[10.17577,42.73668],[10.17571,42.73635],[10.17553,42.73582],[10.17545,42.73571],[10.17416,42.73495],[10.17369,42.73483],[10.17195,42.73461],[10.17174,42.73452],[10.17141,42.73427],[10.17129,42.73424],[10.16997,42.73418],[10.16785,42.73372],[10.1676,42.73363],[10.16695,42.73323],[10.16673,42.73314],[10.16558,42.73295],[10.16475,42.73264],[10.16397,42.73261],[10.16159,42.7324],[10.15972,42.73263],[10.15875,42.73256],[10.15841,42.73261],[10.15797,42.7327],[10.15775,42.73278],[10.15733,42.73308],[10.15717,42.73317],[10.15647,42.73327],[10.15533,42.7338],[10.15479,42.73387],[10.15459,42.73395],[10.15423,42.7342],[10.15349,42.73452],[10.15331,42.73466],[10.15317,42.73489],[10.15305,42.73498],[10.15277,42.73503],[10.15175,42.73505],[10.15146,42.73516],[10.15094,42.73545],[10.15073,42.7355],[10.15058,42.73548],[10.15001,42.73529],[10.14968,42.73523],[10.14915,42.7352],[10.14869,42.73527],[10.14854,42.73532],[10.14794,42.7357],[10.14781,42.73576],[10.14762,42.73578],[10.14715,42.7357],[10.14686,42.73561],[10.14672,42.73549],[10.14666,42.73541],[10.14667,42.73527],[10.14678,42.73507],[10.1468,42.73488],[10.14674,42.73474],[10.1463,42.73427],[10.14613,42.73419],[10.14499,42.73408],[10.14486,42.73403],[10.14466,42.73388],[10.14453,42.73359],[10.14445,42.73349],[10.14422,42.7334],[10.14402,42.73337],[10.14242,42.73349],[10.14208,42.73362],[10.14157,42.73386],[10.14095,42.73443],[10.13994,42.73498],[10.13874,42.73569],[10.13853,42.73579],[10.13826,42.73585],[10.13713,42.73581],[10.13698,42.73582],[10.13679,42.73591],[10.13667,42.73605],[10.13654,42.73632],[10.13597,42.73731],[10.13569,42.73765],[10.13557,42.73772],[10.13377,42.73823],[10.13276,42.7384],[10.13219,42.73864],[10.13103,42.73881],[10.13079,42.73887],[10.13062,42.73895],[10.1292,42.73985],[10.12919,42.73993],[10.12923,42.74001],[10.12949,42.74019],[10.12955,42.74029],[10.12954,42.74038],[10.12947,42.74046],[10.12887,42.74069],[10.12829,42.74077],[10.12762,42.74098],[10.12737,42.74109],[10.127,42.74137],[10.12682,42.74147],[10.1264,42.74162],[10.12629,42.7417],[10.12625,42.74179],[10.12626,42.74209],[10.1262,42.74218],[10.12612,42.74221],[10.1254,42.74226],[10.1252,42.7423],[10.12489,42.74244],[10.1246,42.74261],[10.12414,42.74296],[10.12401,42.7431],[10.12393,42.74331],[10.12393,42.74365],[10.12388,42.74377],[10.12367,42.74387],[10.12335,42.7439],[10.12297,42.74398],[10.12251,42.74421],[10.12234,42.74433],[10.1221,42.74468],[10.12158,42.74522],[10.12044,42.74569],[10.12037,42.74581],[10.12039,42.74593],[10.12055,42.74615],[10.12075,42.74632],[10.12105,42.74648],[10.12168,42.74673],[10.12207,42.74695],[10.12223,42.74699],[10.12279,42.74702],[10.12292,42.74707],[10.12298,42.74719],[10.12287,42.74742],[10.12274,42.74751],[10.12227,42.74758],[10.12142,42.74816],[10.12124,42.74829],[10.12092,42.7488],[10.12085,42.74886],[10.12003,42.74916],[10.11903,42.74962],[10.1188,42.74988],[10.11822,42.75075],[10.11747,42.75129],[10.11727,42.75138],[10.11695,42.75142],[10.11582,42.75136],[10.11561,42.75141],[10.11552,42.75148],[10.11543,42.75167],[10.11545,42.7521],[10.11555,42.75235],[10.1155,42.75292],[10.11555,42.75304],[10.11609,42.75391],[10.11611,42.75406],[10.11573,42.75467],[10.11565,42.75476],[10.11535,42.75491],[10.11514,42.7556],[10.11454,42.75658],[10.11433,42.75739],[10.11434,42.75755],[10.11438,42.75762],[10.11459,42.75784],[10.11463,42.75796],[10.11461,42.75803],[10.11433,42.75828],[10.11348,42.75864],[10.11325,42.75903],[10.11285,42.75936],[10.11255,42.75974],[10.11245,42.76006],[10.11222,42.76045],[10.11214,42.76053],[10.11199,42.76056],[10.11042,42.76069],[10.10958,42.76097],[10.10935,42.76094],[10.10899,42.76076],[10.10859,42.76069],[10.10849,42.76071],[10.10795,42.76116],[10.10771,42.76131],[10.10704,42.76158],[10.10694,42.76165],[10.10686,42.76174],[10.10674,42.7621],[10.10656,42.76236],[10.10657,42.76252],[10.10667,42.76278],[10.10663,42.7629],[10.10634,42.76316],[10.10631,42.7634],[10.10633,42.76367],[10.10653,42.76437],[10.10635,42.7662],[10.1063,42.76633],[10.10569,42.76679],[10.10551,42.76678],[10.10477,42.76664],[10.10457,42.76666],[10.10441,42.76677],[10.10444,42.76684],[10.10464,42.76696],[10.10532,42.76759],[10.10571,42.76774],[10.10579,42.76786],[10.10577,42.76805],[10.10553,42.76871],[10.10557,42.76882],[10.10578,42.76909],[10.10589,42.76919],[10.1062,42.7694],[10.10653,42.76987],[10.10661,42.77006],[10.10671,42.77061],[10.1069,42.77097],[10.10692,42.77151],[10.10701,42.77181],[10.10702,42.77208],[10.10725,42.77227],[10.10728,42.77235],[10.10726,42.77267],[10.1072,42.77295],[10.1068,42.77363],[10.10664,42.77399],[10.10665,42.77428],[10.1069,42.77497],[10.10699,42.77533],[10.1069,42.77545],[10.10673,42.77556],[10.10661,42.77569],[10.10659,42.77577],[10.10663,42.77597],[10.10662,42.77605],[10.10627,42.77642],[10.10622,42.7766],[10.10645,42.77728],[10.10648,42.77746],[10.10642,42.7778],[10.10666,42.7784],[10.10667,42.77861],[10.10621,42.77971],[10.10588,42.78016],[10.10587,42.78049],[10.10584,42.7806],[10.1053,42.78144],[10.1053,42.78207],[10.10518,42.78292],[10.10523,42.78309],[10.10544,42.78351],[10.1058,42.78395],[10.10596,42.78434],[10.10605,42.78442],[10.10633,42.78444],[10.10731,42.78412],[10.1078,42.78392],[10.10807,42.78376],[10.1083,42.78357],[10.10887,42.78285],[10.10916,42.78258],[10.10967,42.78201],[10.10985,42.78189],[10.10994,42.78188],[10.11022,42.78195],[10.11029,42.78201],[10.11033,42.7821],[10.11036,42.78254],[10.11052,42.78307],[10.11066,42.78333],[10.11086,42.78356],[10.11116,42.78381],[10.11129,42.78387],[10.11142,42.78389],[10.11201,42.78389],[10.11214,42.78396],[10.11219,42.78407],[10.1122,42.78413],[10.11215,42.78422],[10.11192,42.78447],[10.11176,42.78486],[10.11179,42.78565],[10.11201,42.78617],[10.11223,42.78632],[10.11256,42.78641],[10.11268,42.78653],[10.11275,42.78695],[10.11289,42.78737],[10.11267,42.78782],[10.11269,42.78795],[10.1128,42.78804],[10.11288,42.78806],[10.11348,42.78801],[10.11376,42.78805],[10.11461,42.78872],[10.11488,42.78887],[10.11516,42.7889],[10.11587,42.78875],[10.11613,42.78875],[10.11694,42.78888],[10.11778,42.78911],[10.11794,42.78921],[10.11823,42.78955],[10.11841,42.78971],[10.11888,42.78996],[10.11927,42.79023],[10.11979,42.79038],[10.11985,42.79081],[10.11976,42.79095],[10.11955,42.79101],[10.11935,42.79103],[10.11917,42.79102],[10.11731,42.79071],[10.11709,42.7908],[10.11702,42.79088],[10.117,42.79106],[10.11723,42.79139],[10.11789,42.79178],[10.11802,42.79189],[10.11849,42.79249],[10.11855,42.79259],[10.11857,42.79269],[10.11849,42.79302],[10.11858,42.79346],[10.1188,42.79376],[10.11989,42.79463],[10.12032,42.79485],[10.12041,42.79496],[10.12052,42.79524],[10.12064,42.79536],[10.12186,42.796],[10.12253,42.79619],[10.12287,42.79634],[10.12358,42.79682],[10.12393,42.797],[10.12451,42.79743],[10.12512,42.79772],[10.12578,42.79786],[10.1276,42.79791],[10.12829,42.79796],[10.12866,42.79803],[10.12938,42.79832],[10.1296,42.79836],[10.13053,42.79833],[10.1314,42.79827],[10.13162,42.79828],[10.13176,42.79835],[10.132,42.79857],[10.13222,42.79872],[10.13493,42.7997],[10.13541,42.79994],[10.13731,42.8002],[10.1379,42.80022],[10.13878,42.80019],[10.14047,42.79999],[10.14069,42.7999],[10.14086,42.7997],[10.14104,42.79958],[10.14126,42.79951],[10.14141,42.7995],[10.14196,42.79973],[10.14216,42.79995],[10.1423,42.80002],[10.14296,42.8003],[10.14392,42.8006],[10.14423,42.80084],[10.14514,42.80122],[10.1459,42.80131],[10.14616,42.80163],[10.14644,42.8019],[10.14666,42.80198],[10.14714,42.80202],[10.14743,42.80209],[10.14754,42.80215],[10.14789,42.8025],[10.14801,42.80257],[10.14816,42.80261],[10.14843,42.80263],[10.14925,42.80247],[10.15023,42.80245],[10.15036,42.80247],[10.15044,42.80251],[10.15075,42.80288],[10.15156,42.80338],[10.15169,42.80345],[10.1518,42.80346],[10.15204,42.80337],[10.15229,42.80317],[10.1529,42.8029],[10.15319,42.80249],[10.15353,42.80212],[10.15368,42.80203],[10.1539,42.80201],[10.15407,42.80209],[10.15424,42.80225],[10.15483,42.80298],[10.15504,42.80319],[10.15528,42.80336],[10.15557,42.8035],[10.15657,42.80376],[10.15712,42.80386],[10.15811,42.80431],[10.15839,42.80432],[10.15863,42.80423],[10.15871,42.80417],[10.15907,42.80371],[10.15921,42.8036],[10.15935,42.80324],[10.15949,42.80307],[10.15968,42.80295],[10.16028,42.80279],[10.16068,42.80258],[10.16127,42.80238],[10.16157,42.80215],[10.16164,42.80198],[10.16163,42.80185],[10.16143,42.80121],[10.16145,42.80105],[10.1615,42.80099],[10.16194,42.8007],[10.16209,42.80055],[10.16214,42.80039],[10.16208,42.79998],[10.1621,42.79988],[10.1622,42.79972],[10.16242,42.79954],[10.1625,42.7994],[10.16254,42.79868],[10.16261,42.79844],[10.1628,42.79818],[10.16329,42.79771],[10.16343,42.79745],[10.16345,42.79723],[10.16332,42.79667],[10.16331,42.79626],[10.16336,42.79614],[10.16364,42.796],[10.16383,42.79599],[10.16516,42.79659],[10.1654,42.79678],[10.16614,42.7976],[10.16627,42.79768],[10.1665,42.79775],[10.1668,42.79778],[10.16742,42.79769],[10.1682,42.79763],[10.16838,42.79757],[10.16912,42.79724],[10.16936,42.79716],[10.16955,42.79714],[10.16978,42.79722],[10.17028,42.79773],[10.17047,42.79833],[10.1706,42.79845],[10.17113,42.79858],[10.17211,42.79875],[10.17225,42.79874],[10.1724,42.79866],[10.17244,42.79854],[10.17236,42.7981],[10.17238,42.79794],[10.17266,42.79708],[10.17279,42.79688],[10.17295,42.79669],[10.17341,42.79642],[10.17346,42.79628],[10.17339,42.7962],[10.1725,42.7956],[10.1713,42.79502],[10.17103,42.79476],[10.17077,42.79417],[10.17063,42.79401],[10.1704,42.7939],[10.16999,42.79381],[10.1697,42.79371],[10.1689,42.79337],[10.16867,42.79319],[10.16862,42.79307],[10.1688,42.79264],[10.16873,42.7925],[10.16847,42.79217],[10.16846,42.79191],[10.16842,42.7918],[10.16831,42.79168],[10.16816,42.7916],[10.16786,42.79152],[10.16773,42.79143],[10.16748,42.79103],[10.1675,42.79082],[10.1682,42.79009],[10.16857,42.79008],[10.16996,42.78984],[10.17038,42.78969],[10.17044,42.78966],[10.17047,42.78956],[10.17016,42.78919],[10.16942,42.78867],[10.16933,42.78856],[10.16929,42.78837],[10.16919,42.78821],[10.16883,42.78793],[10.16852,42.78761],[10.16821,42.7872],[10.16755,42.78666],[10.16753,42.78657],[10.16762,42.78647],[10.16798,42.78615],[10.1681,42.78607],[10.16819,42.78606],[10.1683,42.78607],[10.16931,42.78632],[10.16995,42.78626],[10.17058,42.78655],[10.17105,42.78665],[10.1714,42.7868],[10.17213,42.7869],[10.17287,42.7872],[10.17343,42.78729],[10.17446,42.78759],[10.17478,42.78772],[10.17582,42.78827],[10.17628,42.78842],[10.17723,42.78888],[10.17739,42.7889],[10.17754,42.78883],[10.17779,42.78786],[10.17785,42.78774],[10.17823,42.78749],[10.17851,42.78724],[10.17926,42.78691],[10.17933,42.78684],[10.17937,42.78676],[10.17942,42.78648],[10.17942,42.78635],[10.17927,42.78605],[10.1787,42.78542],[10.17824,42.78499],[10.17792,42.7848],[10.17793,42.78473],[10.17799,42.78466],[10.17808,42.78462],[10.17828,42.78462],[10.17906,42.78474],[10.18066,42.78485],[10.18084,42.78489],[10.18156,42.78523],[10.18183,42.78543],[10.18238,42.78596],[10.18293,42.78658],[10.18315,42.78673],[10.18359,42.78669],[10.18441,42.78622],[10.18467,42.78593],[10.1848,42.7859],[10.18488,42.78593],[10.18488,42.786],[10.18455,42.78631],[10.18408,42.78669],[10.18406,42.78674],[10.1841,42.78677],[10.1843,42.78678],[10.18435,42.78674],[10.1844,42.78659],[10.18448,42.78652],[10.18499,42.78618],[10.18522,42.78593],[10.18533,42.78588],[10.18548,42.78592],[10.18547,42.786],[10.18519,42.78624],[10.18488,42.78665],[10.18439,42.78706],[10.1843,42.78717],[10.1843,42.78748],[10.18436,42.78787],[10.18433,42.78803],[10.18394,42.78873],[10.18395,42.78888],[10.18417,42.78916],[10.1842,42.78938],[10.18414,42.78946],[10.18393,42.78952],[10.18362,42.78952],[10.18333,42.78947],[10.18323,42.78951],[10.18325,42.78958],[10.1833,42.78963],[10.18342,42.78965],[10.18411,42.78965],[10.18422,42.78962],[10.18438,42.78933],[10.18451,42.7893],[10.1846,42.78932],[10.1847,42.78945],[10.18469,42.78965],[10.18463,42.78972],[10.18422,42.78982],[10.18362,42.78989],[10.18299,42.78984],[10.18272,42.78974],[10.18252,42.7896],[10.18232,42.78922],[10.18226,42.78917],[10.18216,42.78917],[10.18211,42.78923],[10.18213,42.7893],[10.18227,42.78951],[10.18238,42.7898],[10.1826,42.79004],[10.18283,42.79018],[10.18306,42.79026],[10.18398,42.79039],[10.1843,42.7904],[10.1847,42.79038],[10.18491,42.79032],[10.18534,42.7901],[10.18545,42.79],[10.1855,42.7899],[10.18568,42.78922],[10.18562,42.78885],[10.18591,42.7884],[10.18606,42.78799],[10.18677,42.78745],[10.18692,42.78743],[10.187,42.78746],[10.18703,42.78752],[10.18676,42.78786],[10.18668,42.78807],[10.18622,42.78871],[10.18619,42.78883],[10.18625,42.78912],[10.18613,42.78956],[10.18615,42.78963],[10.18622,42.78967],[10.18637,42.78967],[10.18643,42.78961],[10.18651,42.78934],[10.18663,42.78919],[10.18763,42.78825],[10.18803,42.78807],[10.18819,42.78804],[10.18831,42.78806],[10.18846,42.78822],[10.18856,42.78839],[10.18862,42.7886],[10.18861,42.78903],[10.18865,42.78913],[10.18915,42.78942],[10.18917,42.78949],[10.18912,42.78954],[10.18903,42.78955],[10.18852,42.78933],[10.18841,42.78932],[10.18831,42.78935],[10.18827,42.78944],[10.18829,42.78956],[10.18854,42.78984],[10.18914,42.7903],[10.18913,42.7904],[10.18907,42.79048],[10.18897,42.79053],[10.18885,42.79051],[10.18877,42.79045],[10.18871,42.79033],[10.1886,42.79026],[10.18847,42.79025],[10.1884,42.79029],[10.18838,42.79052],[10.1884,42.79084],[10.1883,42.79117],[10.18833,42.79128],[10.18842,42.79134],[10.18909,42.79149],[10.18921,42.79155],[10.18925,42.79164],[10.18921,42.79172],[10.18897,42.79188],[10.18893,42.79194],[10.18895,42.792],[10.18901,42.79205],[10.18933,42.79212],[10.18942,42.79222],[10.18942,42.79228],[10.18937,42.79234],[10.1889,42.79264],[10.18887,42.79274],[10.1889,42.7928],[10.18904,42.79286],[10.18959,42.79291],[10.18988,42.79301],[10.19,42.79311],[10.18999,42.79318],[10.18993,42.79323],[10.18921,42.79369],[10.18914,42.79377],[10.18914,42.79388],[10.18922,42.79397],[10.18946,42.79407],[10.18989,42.79417],[10.19029,42.79448],[10.19032,42.79455],[10.18973,42.7953],[10.18964,42.79547],[10.18966,42.79563],[10.19045,42.79611],[10.19057,42.79622],[10.1906,42.79634],[10.19055,42.79645],[10.19027,42.79664],[10.19024,42.79672],[10.1903,42.79679],[10.19131,42.79726],[10.19141,42.79735],[10.19153,42.79779],[10.19152,42.7979],[10.19129,42.7984],[10.19128,42.79852],[10.19137,42.79895],[10.19148,42.79926],[10.19239,42.80042],[10.19307,42.801],[10.19329,42.80111],[10.1935,42.80117],[10.19375,42.80129],[10.19469,42.80218]]},"properties":{}},{"type":"Feature","geometry":{"type":"LineString","coordinates":[[10.19752,42.80482],[10.20053,42.80404],[10.20086,42.80421],[10.20127,42.80446],[10.20142,42.80461],[10.20146,42.80468],[10.20147,42.80485],[10.20137,42.80514],[10.20138,42.8053],[10.20148,42.80548],[10.20179,42.80565],[10.20232,42.80576],[10.20259,42.80585],[10.20299,42.80618],[10.20319,42.80631],[10.20338,42.80635],[10.20395,42.80628],[10.20409,42.8063],[10.2045,42.80651],[10.20529,42.80667],[10.2055,42.80666],[10.20577,42.80656],[10.20596,42.80645],[10.20602,42.80636],[10.20597,42.80611],[10.20597,42.80605],[10.20603,42.80599],[10.20662,42.80551],[10.20704,42.80552],[10.20725,42.80541],[10.20766,42.80493],[10.2079,42.80458],[10.20829,42.80424],[10.20862,42.80389],[10.20871,42.80376],[10.2088,42.80343],[10.20885,42.80338],[10.20896,42.80333],[10.20955,42.80329],[10.20974,42.80321],[10.20987,42.80308],[10.21014,42.80231],[10.21014,42.80201],[10.20999,42.80155],[10.21007,42.80145],[10.21025,42.80139],[10.21085,42.80129],[10.21104,42.8012],[10.21119,42.80104],[10.21155,42.80041],[10.21165,42.8],[10.21185,42.79973],[10.21193,42.79951],[10.21197,42.79923],[10.21193,42.799],[10.212,42.79884],[10.21221,42.79851],[10.21301,42.79792],[10.21306,42.79782],[10.21309,42.79739],[10.21316,42.79729],[10.21329,42.79726],[10.21342,42.79726],[10.21393,42.79741],[10.21421,42.79737],[10.21457,42.79704],[10.21478,42.79669],[10.21486,42.79664],[10.21546,42.79664],[10.21564,42.79661],[10.21582,42.79652],[10.21592,42.79637],[10.21604,42.79599],[10.21611,42.79547],[10.21607,42.79527],[10.21575,42.79498],[10.21574,42.79491],[10.21585,42.79479],[10.21637,42.79468],[10.21664,42.79449],[10.21676,42.79447],[10.21718,42.79465],[10.21738,42.79465],[10.21747,42.79462],[10.21754,42.79454],[10.21755,42.79445],[10.21742,42.79403],[10.21743,42.79393],[10.21773,42.79362],[10.21775,42.79338],[10.21781,42.79329],[10.21793,42.79322],[10.21809,42.7932],[10.21851,42.79328],[10.21885,42.79324],[10.21897,42.79318],[10.21907,42.79308],[10.21928,42.79268],[10.22007,42.79233],[10.22011,42.79217],[10.21999,42.79181],[10.22001,42.79173],[10.22011,42.79166],[10.22071,42.79163],[10.22082,42.79165],[10.22117,42.79197],[10.22176,42.79225],[10.22195,42.79225],[10.22209,42.7922],[10.22284,42.79175],[10.2229,42.79167],[10.22291,42.79149],[10.22277,42.7911],[10.22286,42.79099],[10.22303,42.79093],[10.2234,42.79083],[10.22353,42.79083],[10.22406,42.79105],[10.22431,42.79108],[10.22483,42.79125],[10.22516,42.79125],[10.22533,42.7912],[10.22545,42.7911],[10.22606,42.79016],[10.22621,42.79007],[10.22651,42.78999],[10.22663,42.78992],[10.22674,42.78971],[10.22709,42.78937],[10.22716,42.78921],[10.22714,42.78911],[10.22709,42.78902],[10.22669,42.7885],[10.22626,42.78782],[10.22603,42.78723],[10.22601,42.78708],[10.22611,42.78696],[10.22626,42.78691],[10.22647,42.78692],[10.22776,42.78779],[10.22902,42.78838],[10.22917,42.78842],[10.2294,42.78845],[10.23043,42.78844],[10.23078,42.78839],[10.23108,42.78821],[10.23151,42.78778],[10.23171,42.7875],[10.23201,42.78738],[10.23219,42.78736],[10.23236,42.78739],[10.23319,42.78777],[10.23381,42.78816],[10.23401,42.78818],[10.23415,42.78811],[10.23421,42.78801],[10.23422,42.78709],[10.23414,42.78689],[10.23377,42.78642],[10.23375,42.7863],[10.23379,42.7862],[10.23388,42.78613],[10.2344,42.78585],[10.23461,42.78581],[10.23514,42.78586],[10.23536,42.78585],[10.2357,42.78572],[10.236,42.78542],[10.23608,42.78522],[10.2361,42.78484],[10.23624,42.78476],[10.23737,42.78493],[10.2379,42.78489],[10.23797,42.78494],[10.23802,42.78504],[10.238,42.78579],[10.23803,42.78606],[10.23814,42.78627],[10.23859,42.78672],[10.23867,42.78686],[10.23867,42.78697],[10.23863,42.78705],[10.23821,42.7874],[10.23816,42.78752],[10.23817,42.78761],[10.23846,42.78814],[10.23866,42.78825],[10.23885,42.78826],[10.2401,42.78785],[10.2402,42.78778],[10.24027,42.78769],[10.24044,42.78729],[10.24074,42.78696],[10.24142,42.78655],[10.24193,42.78605],[10.24214,42.78593],[10.24229,42.78589],[10.24259,42.7859],[10.24429,42.78597]]},"properties":{}},{"type":"Feature","geometry":{"type":"LineString","coordinates":[[10.22665,42.74571],[10.22659,42.74581],[10.22649,42.74583],[10.22637,42.74578],[10.22635,42.74569]]},"properties":{}},{"type":"Feature","geometry":{"type":"LineString","coordinates":[[10.22635,42.74569],[10.22644,42.74562],[10.22653,42.74561],[10.22661,42.74565],[10.22665,42.74571]]},"properties":{}},{"type":"Feature","geometry":{"type":"LineString","coordinates":[[10.23208,42.74584],[10.23133,42.74582],[10.23016,42.74566],[10.22895,42.74561],[10.22813,42.74554],[10.2272,42.74571],[10.22665,42.74571]]},"properties":{}},{"type":"Feature","geometry":{"type":"LineString","coordinates":[[10.2341,42.74665],[10.23391,42.74652],[10.2335,42.74669],[10.23307,42.74673],[10.2328,42.7467],[10.23225,42.7464],[10.23211,42.74628],[10.23215,42.74592],[10.23208,42.74584]]},"properties":{}},{"type":"Feature","geometry":{"type":"LineString","coordinates":[[10.23208,42.74584],[10.23211,42.74579],[10.23218,42.74576],[10.23227,42.74579],[10.2323,42.74585],[10.23398,42.74586],[10.23399,42.74641],[10.2341,42.74665]]},"properties":{}},{"type":"Feature","geometry":{"type":"LineString","coordinates":[[10.2341,42.74665],[10.23502,42.7484],[10.23448,42.75061],[10.23447,42.75089],[10.23478,42.75294],[10.23491,42.75338],[10.23512,42.7537],[10.23528,42.75385],[10.23566,42.75406],[10.23689,42.7545],[10.23791,42.75481]]},"properties":{}},{"type":"Feature","geometry":{"type":"LineString","coordinates":[[10.24466,42.78558],[10.245,42.78531],[10.2453,42.78523],[10.24567,42.78519],[10.24562,42.78466],[10.24536,42.78344],[10.24519,42.78312],[10.24491,42.78272],[10.24484,42.78238],[10.24488,42.78207],[10.24514,42.7811],[10.24543,42.78054],[10.24577,42.77973],[10.24594,42.77946],[10.2462,42.77917],[10.2464,42.77883],[10.2465,42.77848],[10.24652,42.77825],[10.24649,42.77798],[10.24642,42.77779],[10.24618,42.77728],[10.24595,42.77693],[10.24473,42.7759],[10.24332,42.77434],[10.24265,42.77374],[10.24235,42.77354],[10.24218,42.77347],[10.2412,42.77323],[10.24082,42.7731],[10.2395,42.77236],[10.2391,42.77209],[10.23882,42.77181],[10.23858,42.77148],[10.2385,42.77126],[10.23848,42.77099],[10.23852,42.77036],[10.23844,42.7701],[10.23752,42.76775],[10.23611,42.76479],[10.23591,42.76451],[10.23551,42.76424]]},"properties":{}},{"type":"Feature","geometry":{"type":"LineString","coordinates":[[10.23551,42.76424],[10.23541,42.76416],[10.23542,42.76408],[10.23547,42.76403],[10.23576,42.76387]]},"properties":{}},{"type":"Feature","geometry":{"type":"LineString","coordinates":[[10.23576,42.76387],[10.23553,42.7641],[10.23551,42.76424]]},"properties":{}},{"type":"Feature","geometry":{"type":"LineString","coordinates":[[10.23871,42.75508],[10.23954,42.75565],[10.24004,42.75613],[10.24064,42.75641],[10.24072,42.7565],[10.24074,42.75666],[10.23991,42.75772],[10.23963,42.75803],[10.23878,42.75879],[10.23803,42.76007],[10.238,42.76022],[10.23812,42.76088],[10.23807,42.76107],[10.23785,42.7614],[10.23728,42.76212],[10.23576,42.76387]]},"properties":{}},{"type":"Feature","geometry":{"type":"LineString","coordinates":[[10.23871,42.75508],[10.23849,42.75501],[10.23831,42.75501],[10.23791,42.75481]]},"properties":{}},{"type":"Feature","geometry":{"type":"LineString","coordinates":[[10.23791,42.75481],[10.23813,42.75479],[10.23835,42.75468],[10.2385,42.7547],[10.23862,42.75479],[10.23864,42.75486],[10.2386,42.75494],[10.23871,42.75508]]},"properties":{}},{"type":"Feature","geometry":{"type":"LineString","coordinates":[[10.24429,42.78597],[10.24449,42.78598]]},"properties":{}},{"type":"Feature","geometry":{"type":"LineString","coordinates":[[10.24429,42.78597],[10.24426,42.78594],[10.24427,42.78585],[10.24466,42.78558]]},"properties":{}},{"type":"Feature","geometry":{"type":"LineString","coordinates":[[10.24449,42.78598],[10.24532,42.78602],[10.24549,42.78604],[10.24561,42.78609],[10.24565,42.78614],[10.2457,42.78659],[10.24593,42.78745],[10.24604,42.7876],[10.24628,42.78771],[10.24639,42.78772],[10.24703,42.78753],[10.24718,42.78746],[10.24763,42.78697],[10.24785,42.7868],[10.24827,42.78658],[10.24976,42.78627],[10.2499,42.78628],[10.25004,42.78634],[10.25077,42.787],[10.25095,42.78707],[10.25114,42.78708],[10.25131,42.78701],[10.25144,42.78691],[10.25172,42.78633],[10.25186,42.78619],[10.25241,42.78591],[10.2527,42.78588],[10.25289,42.78588],[10.25311,42.78594],[10.25399,42.78658],[10.25421,42.78671],[10.25438,42.78676],[10.25475,42.78675],[10.2555,42.7866],[10.25564,42.78662],[10.25573,42.78668],[10.25586,42.78696],[10.25594,42.78705],[10.25609,42.78712],[10.25718,42.78717],[10.25737,42.78716],[10.25822,42.78693],[10.2592,42.78651],[10.25934,42.78651],[10.2599,42.78662],[10.25999,42.7867],[10.26001,42.7868],[10.25996,42.78689],[10.25964,42.78722],[10.2595,42.78759],[10.25953,42.78768],[10.2596,42.78775],[10.26031,42.78807],[10.26037,42.78816],[10.26036,42.78825],[10.26026,42.78836],[10.25932,42.78895],[10.25923,42.78906],[10.25922,42.78919],[10.25931,42.78947],[10.25925,42.78979],[10.25926,42.78987],[10.25935,42.78999],[10.25959,42.79019],[10.25961,42.79027],[10.25957,42.79034],[10.25944,42.7904],[10.25914,42.79046],[10.25886,42.7906],[10.25881,42.79069],[10.25879,42.79101],[10.25875,42.7911],[10.25865,42.7912],[10.25844,42.79129],[10.25762,42.79143],[10.25742,42.79154],[10.25738,42.79165],[10.25743,42.79176],[10.25764,42.79202],[10.25826,42.79247],[10.25832,42.79259],[10.25831,42.79273],[10.25853,42.79359],[10.2587,42.7937],[10.25894,42.79368],[10.2594,42.79356],[10.25967,42.79335],[10.26042,42.79251],[10.26062,42.79241],[10.26116,42.79234],[10.26128,42.79227],[10.26151,42.79202],[10.26174,42.79187],[10.26291,42.7915],[10.26372,42.79157],[10.26392,42.79149],[10.26478,42.79089],[10.26492,42.79089],[10.26513,42.79096],[10.26532,42.79116],[10.2654,42.79128],[10.26586,42.79244],[10.26593,42.79254],[10.26621,42.79276],[10.26632,42.79288],[10.26633,42.793],[10.26622,42.7935],[10.26626,42.79359],[10.26638,42.79367],[10.26669,42.79379],[10.26679,42.79387],[10.26685,42.79408],[10.26686,42.7945],[10.26691,42.79462],[10.267,42.79471],[10.2671,42.79475],[10.26739,42.79469],[10.26791,42.79425],[10.26808,42.79416],[10.26834,42.79408],[10.26858,42.79405],[10.26895,42.79416],[10.26975,42.7945],[10.26997,42.79457],[10.27082,42.7946],[10.27106,42.79463],[10.27126,42.7947],[10.27178,42.795],[10.27225,42.79515],[10.27253,42.79518],[10.27295,42.79517],[10.27374,42.79528],[10.274,42.79539],[10.27445,42.79572],[10.2747,42.79587],[10.275,42.79601],[10.27543,42.79615],[10.27568,42.79615],[10.27641,42.79598],[10.27658,42.79597],[10.27674,42.796],[10.27698,42.79619],[10.27732,42.79667],[10.27744,42.79676],[10.27758,42.79681],[10.27776,42.79682],[10.27816,42.79676],[10.27918,42.79652],[10.27927,42.79636],[10.27921,42.79604],[10.27923,42.79593],[10.27933,42.79584],[10.27949,42.79579],[10.27967,42.7958],[10.27979,42.79585],[10.28016,42.79613],[10.28054,42.79632],[10.28065,42.79634],[10.28111,42.79628],[10.28151,42.79632],[10.28171,42.79623],[10.28196,42.79594],[10.28217,42.79589],[10.28231,42.79592],[10.28311,42.79634],[10.28323,42.79637],[10.28336,42.79637],[10.28348,42.79631],[10.2837,42.79607],[10.28384,42.79599],[10.28402,42.79596],[10.28415,42.79596],[10.28477,42.7961],[10.28506,42.79611],[10.28524,42.796],[10.28529,42.79592],[10.28539,42.79522],[10.28544,42.79504],[10.28552,42.79493],[10.28568,42.79482],[10.28649,42.79446],[10.28733,42.79418],[10.28813,42.79408],[10.28947,42.79426],[10.28966,42.79433],[10.29059,42.79501],[10.29075,42.7951],[10.29092,42.79515],[10.29109,42.79516],[10.29152,42.7951],[10.29253,42.79511],[10.29299,42.79513],[10.29385,42.79527],[10.2941,42.79535],[10.29497,42.79577],[10.29657,42.79615],[10.29925,42.79707],[10.29954,42.79721],[10.30034,42.79781],[10.30057,42.79792],[10.30078,42.79796],[10.30106,42.79795],[10.30307,42.79779],[10.3035,42.79786],[10.30367,42.79797],[10.30542,42.80012],[10.30569,42.80041],[10.30742,42.80193]]},"properties":{}},{"type":"Feature","geometry":{"type":"LineString","coordinates":[[10.24466,42.78558],[10.24455,42.78573],[10.24449,42.78598]]},"properties":{}},{"type":"Feature","geometry":{"type":"LineString","coordinates":[[10.30742,42.80193],[10.3077,42.80213],[10.30806,42.80228]]},"properties":{}},{"type":"Feature","geometry":{"type":"LineString","coordinates":[[10.30773,42.80253],[10.30742,42.80193]]},"properties":{}},{"type":"Feature","geometry":{"type":"LineString","coordinates":[[10.3144,42.81121],[10.31387,42.81091],[10.31362,42.81081],[10.31316,42.81071],[10.3126,42.8107],[10.31086,42.81095],[10.31066,42.81096],[10.31049,42.81092],[10.30985,42.81061],[10.3087,42.8099],[10.30864,42.80983],[10.30862,42.80967],[10.30876,42.80917],[10.30879,42.80888],[10.30861,42.80787],[10.30857,42.80719],[10.30875,42.80603],[10.30875,42.80562],[10.30865,42.8051],[10.30833,42.80416],[10.30776,42.80269],[10.30773,42.80253]]},"properties":{}},{"type":"Feature","geometry":{"type":"LineString","coordinates":[[10.30773,42.80253],[10.30788,42.80236],[10.30806,42.80228]]},"properties":{}},{"type":"Feature","geometry":{"type":"LineString","coordinates":[[10.30806,42.80228],[10.30833,42.8023]]},"properties":{}},{"type":"Feature","geometry":{"type":"LineString","coordinates":[[10.30833,42.8023],[10.30862,42.80231],[10.30887,42.80228]]},"properties":{}},{"type":"Feature","geometry":{"type":"LineString","coordinates":[[10.30833,42.8023],[10.30846,42.80237],[10.30854,42.80247],[10.30857,42.80258]]},"properties":{}},{"type":"Feature","geometry":{"type":"LineString","coordinates":[[10.30857,42.80258],[10.30856,42.80266],[10.30845,42.8028],[10.30833,42.80306],[10.30831,42.80325],[10.3085,42.8043],[10.30875,42.80509],[10.30884,42.80551],[10.30886,42.80588],[10.30867,42.80721],[10.30871,42.80781],[10.30882,42.80838],[10.30898,42.809],[10.30921,42.80945],[10.30932,42.8095],[10.30943,42.80964],[10.30945,42.80972],[10.30941,42.80985],[10.30946,42.81007],[10.30957,42.81026],[10.30981,42.81047],[10.31045,42.81082],[10.31068,42.81088],[10.31257,42.81062],[10.31287,42.81061],[10.31329,42.81065],[10.31463,42.81091],[10.31472,42.81095]]},"properties":{}},{"type":"Feature","geometry":{"type":"LineString","coordinates":[[10.30887,42.80228],[10.30857,42.80258]]},"properties":{}},{"type":"Feature","geometry":{"type":"LineString","coordinates":[[10.30887,42.80228],[10.31397,42.80013],[10.31477,42.79997],[10.31805,42.79962]]},"properties":{}},{"type":"Feature","geometry":{"type":"LineString","coordinates":[[10.31468,42.81121],[10.31457,42.81124],[10.3144,42.81121]]},"properties":{}},{"type":"Feature","geometry":{"type":"LineString","coordinates":[[10.31475,42.81157],[10.31446,42.8113],[10.3144,42.81121]]},"properties":{}},{"type":"Feature","geometry":{"type":"LineString","coordinates":[[10.31468,42.81121],[10.31475,42.81157]]},"properties":{}},{"type":"Feature","geometry":{"type":"LineString","coordinates":[[10.31469,42.8112],[10.31468,42.81121]]},"properties":{}},{"type":"Feature","geometry":{"type":"LineString","coordinates":[[10.32095,42.81331],[10.32094,42.81322],[10.31988,42.81122],[10.31973,42.81111],[10.31967,42.81099],[10.3196,42.81095],[10.31934,42.81092],[10.31738,42.81126],[10.31469,42.8112]]},"properties":{}},{"type":"Feature","geometry":{"type":"LineString","coordinates":[[10.31472,42.81095],[10.31478,42.81108],[10.31469,42.8112]]},"properties":{}},{"type":"Feature","geometry":{"type":"LineString","coordinates":[[10.31472,42.81095],[10.31521,42.81112],[10.31548,42.81116],[10.31732,42.81118],[10.31933,42.81083],[10.31959,42.81086],[10.3198,42.81095],[10.31991,42.81096],[10.31996,42.81101],[10.31999,42.81119],[10.32109,42.81327]]},"properties":{}},{"type":"Feature","geometry":{"type":"LineString","coordinates":[[10.31475,42.81157],[10.31515,42.81201],[10.31666,42.8135],[10.31727,42.81388],[10.31835,42.8144],[10.31877,42.81456],[10.31907,42.81462],[10.31954,42.81463],[10.32005,42.81456],[10.32104,42.81433],[10.32142,42.8143]]},"properties":{}},{"type":"Feature","geometry":{"type":"LineString","coordinates":[[10.31922,42.79949],[10.31903,42.79961],[10.31903,42.79967],[10.31896,42.79971],[10.31845,42.79976],[10.31805,42.79962]]},"properties":{}},{"type":"Feature","geometry":{"type":"LineString","coordinates":[[10.31805,42.79962],[10.31866,42.79959],[10.31884,42.79953],[10.31922,42.79949]]},"properties":{}},{"type":"Feature","geometry":{"type":"LineString","coordinates":[[10.31922,42.79949],[10.32792,42.79855],[10.32817,42.79845],[10.32945,42.79775],[10.32954,42.79763],[10.32967,42.79732],[10.32966,42.79688],[10.32971,42.79681],[10.32989,42.79675],[10.33007,42.7968],[10.33013,42.7969],[10.33012,42.79702],[10.32995,42.79745],[10.32995,42.79761],[10.33002,42.79773],[10.33043,42.79798],[10.33051,42.79811],[10.3305,42.79821],[10.33044,42.79833],[10.33012,42.79863],[10.33009,42.79871],[10.33014,42.79886],[10.33029,42.79895],[10.33044,42.799],[10.33114,42.79909],[10.33129,42.79917],[10.33161,42.79953],[10.33179,42.79964],[10.33219,42.7998],[10.33245,42.79978],[10.33256,42.79971],[10.33263,42.79956],[10.33239,42.79892],[10.33239,42.79874],[10.33256,42.79857],[10.33314,42.79839],[10.33328,42.79824],[10.33327,42.79809],[10.33311,42.79783],[10.33309,42.79775],[10.33313,42.79758],[10.33333,42.79731],[10.33339,42.79714],[10.33331,42.79665],[10.33335,42.79651],[10.33354,42.79642],[10.3351,42.79642],[10.33531,42.79639],[10.33542,42.79631],[10.33544,42.79617],[10.33537,42.79603],[10.335,42.79562],[10.33498,42.79549],[10.33509,42.79535],[10.33524,42.79528],[10.33714,42.79482],[10.33724,42.79479],[10.33736,42.79467],[10.33738,42.7946],[10.33736,42.79445],[10.33709,42.79406],[10.3369,42.7939],[10.33565,42.79323],[10.33559,42.79308],[10.33564,42.79294]]},"properties":{}},{"type":"Feature","geometry":{"type":"LineString","coordinates":[[10.32099,42.81342],[10.32094,42.81336],[10.32095,42.81331]]},"properties":{}},{"type":"Feature","geometry":{"type":"LineString","coordinates":[[10.32095,42.81331],[10.32101,42.81327],[10.32109,42.81327]]},"properties":{}},{"type":"Feature","geometry":{"type":"LineString","coordinates":[[10.32115,42.81338],[10.32107,42.81343],[10.32099,42.81342]]},"properties":{}},{"type":"Feature","geometry":{"type":"LineString","coordinates":[[10.32142,42.8143],[10.32099,42.81342]]},"properties":{}},{"type":"Feature","geometry":{"type":"LineString","coordinates":[[10.32109,42.81327],[10.32117,42.81328],[10.32229,42.81297],[10.32237,42.81301],[10.32239,42.81311]]},"properties":{}},{"type":"Feature","geometry":{"type":"LineString","coordinates":[[10.32115,42.81338],[10.32115,42.81348],[10.32146,42.81407],[10.32153,42.81426],[10.32151,42.8143],[10.32142,42.8143]]},"properties":{}},{"type":"Feature","geometry":{"type":"LineString","coordinates":[[10.32183,42.81322],[10.32179,42.81318],[10.32115,42.81338]]},"properties":{}},{"type":"Feature","geometry":{"type":"LineString","coordinates":[[10.32239,42.81311],[10.32219,42.81324],[10.32205,42.81328],[10.32193,42.81328],[10.32183,42.81322]]},"properties":{}},{"type":"Feature","geometry":{"type":"LineString","coordinates":[[10.32183,42.81322],[10.32179,42.81323],[10.32193,42.81341],[10.32241,42.81317],[10.32239,42.81311]]},"properties":{}},{"type":"Feature","geometry":{"type":"LineString","coordinates":[[10.32239,42.81311],[10.32235,42.81305],[10.32183,42.81322]]},"properties":{}},{"type":"Feature","geometry":{"type":"LineString","coordinates":[[10.33564,42.7928],[10.33573,42.79281],[10.33578,42.79287],[10.33574,42.79293],[10.33564,42.79294]]},"properties":{}},{"type":"Feature","geometry":{"type":"LineString","coordinates":[[10.33564,42.79294],[10.33558,42.79286],[10.33564,42.7928]]},"properties":{}},{"type":"Feature","geometry":{"type":"LineString","coordinates":[[10.33564,42.7928],[10.33561,42.79275],[10.33561,42.79268],[10.33591,42.79191],[10.33645,42.79094],[10.3366,42.79075],[10.33683,42.79055],[10.33727,42.79032],[10.33768,42.79025],[10.3384,42.79022],[10.3386,42.79017],[10.33874,42.7901],[10.33885,42.78999],[10.33891,42.78979],[10.33887,42.78964],[10.33827,42.78871],[10.33821,42.7885],[10.33818,42.78804],[10.33823,42.78789],[10.33835,42.78777],[10.34029,42.78685],[10.34041,42.78674],[10.34049,42.78659],[10.3405,42.78644],[10.34046,42.78631],[10.34035,42.78618],[10.3396,42.7857],[10.33952,42.7856],[10.33949,42.7855],[10.33953,42.78537],[10.33965,42.78523],[10.34167,42.78363],[10.34212,42.78332],[10.34334,42.78275],[10.34485,42.78118],[10.34692,42.77926],[10.34717,42.7791],[10.3484,42.77862],[10.34862,42.77849],[10.34946,42.77749],[10.34965,42.77717],[10.34992,42.77618],[10.35042,42.77538],[10.3507,42.77397],[10.35078,42.77373],[10.35092,42.77346],[10.35145,42.77283],[10.35188,42.77162],[10.35203,42.77127],[10.35259,42.77047],[10.35325,42.76977],[10.35333,42.76965],[10.35353,42.76902],[10.3536,42.7689],[10.35375,42.76875],[10.35401,42.76861],[10.35426,42.76855],[10.35531,42.76853],[10.35551,42.76848],[10.35567,42.76836],[10.35577,42.76819],[10.35598,42.76691],[10.35607,42.76676],[10.35622,42.7666],[10.35641,42.76647],[10.35695,42.7662],[10.35713,42.76605],[10.35717,42.76593],[10.35715,42.76562],[10.35718,42.76541],[10.35734,42.76499],[10.35752,42.76477],[10.35812,42.7643],[10.35835,42.76416],[10.36198,42.76233],[10.36253,42.76211],[10.36543,42.76117],[10.37491,42.75891],[10.3752,42.7589],[10.38281,42.75933],[10.38327,42.75939],[10.38367,42.75953],[10.38462,42.76017],[10.38643,42.76147],[10.38679,42.76169],[10.38694,42.76174],[10.38733,42.76184],[10.3876,42.76184],[10.38776,42.76179],[10.38834,42.76153],[10.38849,42.76149],[10.38862,42.76149],[10.38904,42.76159],[10.38919,42.76165],[10.38943,42.76182],[10.39006,42.76204],[10.39046,42.76234],[10.3906,42.76236],[10.39098,42.7623],[10.39116,42.76232],[10.39189,42.76261],[10.39277,42.76308],[10.39288,42.76308],[10.39356,42.76294],[10.39413,42.76291],[10.39469,42.76265],[10.39487,42.76265],[10.395,42.76276],[10.395,42.76288],[10.39488,42.76323],[10.39505,42.76372],[10.39503,42.76411],[10.39561,42.76474]]},"properties":{}},{"type":"Feature","geometry":{"type":"LineString","coordinates":[[10.3956,42.76512],[10.39469,42.76725],[10.39462,42.76751],[10.39464,42.76761],[10.39471,42.76771],[10.39566,42.76867],[10.3969,42.76985],[10.3971,42.76996],[10.39829,42.77032],[10.39857,42.77046],[10.40056,42.77201],[10.40111,42.77238],[10.40235,42.77288],[10.4062,42.77431],[10.40646,42.77433],[10.40722,42.77406],[10.40777,42.77401],[10.40897,42.77412],[10.40923,42.77418],[10.40951,42.77434],[10.4096,42.77451],[10.40964,42.77469],[10.40941,42.7762],[10.40939,42.77664],[10.40944,42.77686],[10.4096,42.77732],[10.40965,42.77765],[10.40962,42.77799],[10.40918,42.78033],[10.409,42.78087],[10.40884,42.7812],[10.40819,42.78212],[10.40797,42.78233],[10.40692,42.78314],[10.40655,42.7837],[10.40596,42.78425],[10.40511,42.78515],[10.40401,42.78592],[10.40367,42.78609],[10.40278,42.78633],[10.40266,42.78642],[10.40262,42.7865],[10.40263,42.78664],[10.40269,42.78672],[10.4038,42.78703],[10.40399,42.78717],[10.40404,42.78726],[10.40406,42.78737],[10.40397,42.78782],[10.40394,42.78823],[10.4041,42.7889],[10.40411,42.78916],[10.40406,42.78946],[10.40408,42.78953],[10.40422,42.78962],[10.40443,42.78964],[10.40496,42.78931],[10.40506,42.78913],[10.40502,42.78864],[10.4051,42.78842],[10.40526,42.78825],[10.40566,42.78803],[10.40589,42.78796],[10.40615,42.78798],[10.40721,42.78839],[10.40747,42.7884],[10.40796,42.78829],[10.40816,42.7883],[10.40838,42.78842],[10.4086,42.78865],[10.40879,42.78912],[10.40897,42.78923],[10.40912,42.78924],[10.41042,42.78898],[10.41052,42.78899],[10.41071,42.78907],[10.41113,42.78942],[10.41136,42.78956],[10.41165,42.78964],[10.41301,42.78969],[10.41327,42.78976],[10.41342,42.78991],[10.41345,42.79008],[10.4134,42.79022],[10.41296,42.79062],[10.41258,42.79116],[10.41256,42.79133],[10.41273,42.79176],[10.4127,42.79189],[10.41256,42.79199],[10.41237,42.79203],[10.41169,42.79196],[10.41154,42.79201],[10.41146,42.79211],[10.41139,42.79243],[10.41125,42.79261],[10.41055,42.79313],[10.41032,42.79324],[10.4088,42.79377],[10.40784,42.79402],[10.40771,42.79414],[10.40766,42.79424],[10.40769,42.79488],[10.40766,42.79499],[10.40753,42.79509],[10.40735,42.79511],[10.40719,42.79505],[10.40658,42.79459],[10.40597,42.79437],[10.40507,42.79392],[10.40491,42.79391],[10.40436,42.79409],[10.40416,42.7941],[10.40365,42.79401],[10.40353,42.79402],[10.4031,42.79418],[10.40296,42.79421],[10.40281,42.7942],[10.40206,42.79398],[10.40192,42.794],[10.4018,42.7941],[10.40187,42.7945],[10.40179,42.79466],[10.40167,42.79471],[10.40084,42.79471],[10.40068,42.79479],[10.40048,42.79585],[10.40051,42.79601],[10.40067,42.79633],[10.4008,42.79643],[10.40131,42.79673],[10.40142,42.79692],[10.40142,42.79701],[10.40136,42.79716],[10.4009,42.79789],[10.40014,42.7984],[10.40012,42.79858],[10.4004,42.79886],[10.40047,42.79903],[10.40017,42.7995],[10.40015,42.79962],[10.40018,42.7997],[10.40025,42.79976],[10.40073,42.79998],[10.40115,42.80042],[10.40127,42.80047],[10.40148,42.80043],[10.40222,42.79994],[10.40237,42.79987],[10.4026,42.79983],[10.40294,42.79987],[10.40358,42.80012],[10.40408,42.80048],[10.40522,42.80117],[10.40533,42.80127],[10.40538,42.80137],[10.40538,42.80163],[10.40529,42.8018],[10.40503,42.80204],[10.40473,42.80223],[10.40426,42.80242],[10.40335,42.80268],[10.40284,42.8028],[10.40217,42.80289],[10.40205,42.80296],[10.40196,42.80309],[10.40194,42.80322],[10.40199,42.80332],[10.40211,42.80342],[10.40398,42.8044],[10.40405,42.80449],[10.40411,42.80466],[10.40415,42.80496],[10.40413,42.8054],[10.40407,42.80551],[10.40331,42.80625],[10.40298,42.80645],[10.40266,42.80659],[10.40218,42.80673],[10.40073,42.80742],[10.40059,42.80753],[10.40057,42.80758],[10.40059,42.8077],[10.40163,42.80947],[10.40174,42.8096],[10.40189,42.80967],[10.40235,42.80976],[10.40272,42.80989]]},"properties":{}},{"type":"Feature","geometry":{"type":"LineString","coordinates":[[10.3956,42.76512],[10.39567,42.76487],[10.39561,42.76474]]},"properties":{}},{"type":"Feature","geometry":{"type":"LineString","coordinates":[[10.3956,42.76512],[10.39584,42.7649],[10.39561,42.76474]]},"properties":{}},{"type":"Feature","geometry":{"type":"LineString","coordinates":[[10.40272,42.80989],[10.403,42.80998],[10.4034,42.81017]]},"properties":{}},{"type":"Feature","geometry":{"type":"LineString","coordinates":[[10.4034,42.81017],[10.40303,42.81009],[10.40293,42.8101],[10.40272,42.80989]]},"properties":{}},{"type":"Feature","geometry":{"type":"LineString","coordinates":[[10.4034,42.81017],[10.40386,42.81041],[10.40413,42.8106],[10.40457,42.81105],[10.40468,42.81111],[10.40483,42.81116],[10.40526,42.81116],[10.40592,42.81102],[10.40607,42.81103],[10.40648,42.81119],[10.40681,42.81121],[10.40697,42.81118],[10.4079,42.81084],[10.40802,42.81075],[10.40812,42.81059],[10.40845,42.80992],[10.40858,42.80981],[10.4087,42.80977],[10.40883,42.8098],[10.40891,42.80989],[10.40896,42.81002],[10.40899,42.81042],[10.40909,42.81063],[10.40923,42.81076],[10.40931,42.81088],[10.40935,42.81103],[10.40931,42.81149],[10.40924,42.81162],[10.40866,42.81217],[10.40858,42.8123],[10.40858,42.81245],[10.4087,42.81265],[10.40886,42.81272],[10.40907,42.81275],[10.41013,42.81258],[10.41197,42.81249],[10.41188,42.81157],[10.41188,42.81138],[10.41195,42.81119],[10.41229,42.81075],[10.41277,42.81043],[10.41304,42.81033],[10.41319,42.81034],[10.41465,42.81193],[10.41555,42.8126],[10.41559,42.81276],[10.41558,42.8129],[10.41668,42.81371],[10.41712,42.81383],[10.4174,42.81388],[10.41765,42.81385],[10.41836,42.81367],[10.4188,42.81363],[10.4193,42.81354],[10.42007,42.81357],[10.4204,42.81367],[10.42102,42.81402],[10.42143,42.81418],[10.42182,42.81426],[10.42261,42.81432],[10.42365,42.81446],[10.4251,42.81471],[10.42558,42.81484],[10.42709,42.81542],[10.42776,42.81562],[10.4279,42.81585],[10.42822,42.816],[10.42861,42.81651],[10.42879,42.81681],[10.42877,42.81732],[10.42883,42.81754],[10.42921,42.8183],[10.42942,42.81864],[10.4294,42.81901],[10.42947,42.82004],[10.42943,42.82025],[10.42829,42.82179],[10.42829,42.82189],[10.42833,42.822],[10.42851,42.82229],[10.42852,42.82246],[10.42841,42.82261],[10.42803,42.82283],[10.4279,42.82299],[10.42789,42.82309],[10.42807,42.82354],[10.4281,42.82374],[10.42808,42.8239],[10.428,42.82399],[10.42735,42.82443],[10.42734,42.8246],[10.42745,42.8247],[10.42839,42.82495],[10.42904,42.82519],[10.4292,42.82532],[10.42933,42.82546],[10.42943,42.82568],[10.42947,42.82595],[10.42952,42.82605],[10.42961,42.82615],[10.42977,42.82623],[10.43026,42.8264],[10.43051,42.82659],[10.43075,42.82707],[10.43074,42.82723],[10.43064,42.82745],[10.43062,42.82761],[10.43067,42.82774],[10.43143,42.82817],[10.43198,42.82834],[10.43214,42.82845],[10.43249,42.82888],[10.43262,42.8293],[10.43268,42.82938],[10.43321,42.82981],[10.43333,42.83025],[10.4335,42.83053],[10.43353,42.83065],[10.43359,42.83113],[10.4339,42.83169],[10.43388,42.83209],[10.43385,42.8322],[10.43374,42.8324],[10.43364,42.8325],[10.43339,42.83256],[10.43259,42.83253],[10.4324,42.83262],[10.43235,42.83274],[10.43237,42.83327],[10.4336,42.83448],[10.43369,42.83461],[10.43375,42.83473],[10.43376,42.83498],[10.43392,42.83558],[10.43393,42.83585],[10.43388,42.8361],[10.43381,42.83625],[10.43369,42.83637],[10.43318,42.83672],[10.43252,42.83689],[10.43235,42.83702],[10.43235,42.83708],[10.43238,42.83715],[10.43249,42.83723],[10.4327,42.83727],[10.43463,42.83725],[10.43486,42.83719],[10.43506,42.83711],[10.4355,42.83684],[10.43581,42.83671],[10.43612,42.83668],[10.43657,42.83671],[10.43664,42.83678],[10.43659,42.83687],[10.43589,42.83702],[10.43581,42.83707],[10.4358,42.83714],[10.43585,42.83718],[10.43595,42.8372],[10.43632,42.83707],[10.43663,42.83705],[10.43679,42.83709],[10.43709,42.83733],[10.43762,42.83761],[10.4379,42.83788],[10.43802,42.8382],[10.43842,42.83856],[10.43868,42.83914],[10.43869,42.83982],[10.43901,42.8403],[10.43904,42.84043],[10.4391,42.84147],[10.43911,42.84235],[10.43915,42.84268],[10.43926,42.8429],[10.43921,42.84327],[10.43924,42.84346],[10.4393,42.84363],[10.43977,42.84409],[10.43988,42.84462],[10.43987,42.84482],[10.43982,42.84495],[10.43965,42.84513],[10.4391,42.84548],[10.43904,42.8456],[10.43905,42.84584],[10.439,42.8461],[10.43892,42.84625],[10.4389,42.84643],[10.43903,42.8466],[10.43941,42.84684],[10.43947,42.84695],[10.43956,42.84744],[10.4398,42.84787],[10.43984,42.84806],[10.43976,42.84823],[10.4396,42.84835],[10.4387,42.84885],[10.43825,42.84932],[10.43768,42.84954],[10.43737,42.84984],[10.4363,42.85041],[10.43509,42.85113],[10.43438,42.85122],[10.43338,42.85121],[10.43285,42.85127],[10.43263,42.85134],[10.43253,42.85146],[10.43253,42.8516],[10.43325,42.85238],[10.43393,42.85284],[10.43399,42.85302],[10.43398,42.85329],[10.43389,42.85356],[10.43388,42.85402],[10.43356,42.85453],[10.43361,42.85465],[10.43393,42.85499],[10.4342,42.85519],[10.43425,42.85532],[10.4342,42.85544],[10.43365,42.85601],[10.43334,42.85615],[10.4317,42.8564],[10.43099,42.85639],[10.43046,42.85645],[10.43009,42.85641],[10.42902,42.85604],[10.42874,42.85607],[10.42853,42.85616],[10.42787,42.85668],[10.42761,42.85677],[10.42741,42.85679],[10.42723,42.85679],[10.42671,42.85665],[10.42601,42.85622],[10.4257,42.85621],[10.42562,42.85625],[10.42555,42.85636],[10.42507,42.85726],[10.42415,42.85773],[10.42355,42.85821],[10.42301,42.85879],[10.42256,42.85888]]},"properties":{}},{"type":"Feature","geometry":{"type":"LineString","coordinates":[[10.42256,42.85888],[10.42237,42.85894],[10.42117,42.8597],[10.42106,42.85973],[10.42098,42.85967],[10.42098,42.8596],[10.42104,42.85953],[10.42204,42.85893],[10.42222,42.85889],[10.42256,42.85888]]},"properties":{}}]}