{"type":"FeatureCollection","features":[{"type":"Feature","geometry":{"type":"LineString","coordinates":[[10.3255,43.49148],[10.32491,43.49316],[10.32413,43.49399],[10.3238,43.49441],[10.32355,43.4952],[10.32349,43.49585],[10.32343,43.4961],[10.32263,43.49708],[10.3225,43.49727],[10.32162,43.5]]},"properties":{}},{"type":"Feature","geometry":{"type":"LineString","coordinates":[[10.32537,43.5],[10.32519,43.49752],[10.32522,43.49701],[10.32534,43.49669],[10.32784,43.49215]]},"properties":{}},{"type":"Feature","geometry":{"type":"LineString","coordinates":[[10.3255,43.49148],[10.32784,43.49215]]},"properties":{}},{"type":"Feature","geometry":{"type":"LineString","coordinates":[[10.32599,43.49081],[10.32565,43.49116],[10.3255,43.49148]]},"properties":{}},{"type":"Feature","geometry":{"type":"LineString","coordinates":[[10.32599,43.49081],[10.3268,43.49],[10.32697,43.4899],[10.32717,43.48982],[10.32745,43.48977],[10.32857,43.48975]]},"properties":{}},{"type":"Feature","geometry":{"type":"LineString","coordinates":[[10.32857,43.48975],[10.3263,43.49063],[10.32599,43.49081]]},"properties":{}},{"type":"Feature","geometry":{"type":"LineString","coordinates":[[10.32784,43.49215],[10.32915,43.48977],[10.32857,43.48975]]},"properties":{}},{"type":"Feature","geometry":{"type":"LineString","coordinates":[[10.34476,43.49777],[10.3441,43.49824],[10.34347,43.49858],[10.34266,43.49951],[10.3423,43.5]]},"properties":{}},{"type":"Feature","geometry":{"type":"LineString","coordinates":[[10.34476,43.49777],[10.34472,43.49773],[10.34474,43.49769],[10.34482,43.49767],[10.34487,43.49771],[10.34484,43.49777],[10.34476,43.49777]]},"properties":{}},{"type":"Feature","geometry":{"type":"LineString","coordinates":[[10.42877,43.39703],[10.42861,43.39702],[10.42852,43.39693],[10.42858,43.39682],[10.42868,43.39679],[10.42879,43.3968]]},"properties":{}},{"type":"Feature","geometry":{"type":"LineString","coordinates":[[10.42887,43.3969],[10.42885,43.39697],[10.42877,43.39703]]},"properties":{}},{"type":"Feature","geometry":{"type":"LineString","coordinates":[[10.42961,43.39743],[10.42954,43.39732],[10.42942,43.39725],[10.42891,43.39703],[10.42877,43.39703]]},"properties":{}},{"type":"Feature","geometry":{"type":"LineString","coordinates":[[10.42879,43.3968],[10.42887,43.3969]]},"properties":{}},{"type":"Feature","geometry":{"type":"LineString","coordinates":[[10.42895,43.39652],[10.42879,43.3968]]},"properties":{}},{"type":"Feature","geometry":{"type":"LineString","coordinates":[[10.42887,43.3969],[10.42893,43.39696],[10.42975,43.3973]]},"properties":{}},{"type":"Feature","geometry":{"type":"LineString","coordinates":[[10.42895,43.39652],[10.42907,43.39618],[10.42904,43.39602]]},"properties":{}},{"type":"Feature","geometry":{"type":"LineString","coordinates":[[10.42928,43.39609],[10.42918,43.39619],[10.42895,43.39652]]},"properties":{}},{"type":"Feature","geometry":{"type":"LineString","coordinates":[[10.42928,43.39609],[10.42915,43.39608],[10.42904,43.39602]]},"properties":{}},{"type":"Feature","geometry":{"type":"LineString","coordinates":[[10.42904,43.39602],[10.42902,43.3959],[10.42909,43.39582]]},"properties":{}},{"type":"Feature","geometry":{"type":"LineString","coordinates":[[10.42909,43.39582],[10.42912,43.39571],[10.42913,43.39539]]},"properties":{}},{"type":"Feature","geometry":{"type":"LineString","coordinates":[[10.42909,43.39582],[10.4292,43.39579],[10.42933,43.39581]]},"properties":{}},{"type":"Feature","geometry":{"type":"LineString","coordinates":[[10.42913,43.39539],[10.42923,43.39568],[10.42933,43.39581]]},"properties":{}},{"type":"Feature","geometry":{"type":"LineString","coordinates":[[10.42921,43.39509],[10.42913,43.39526],[10.42913,43.39539]]},"properties":{}},{"type":"Feature","geometry":{"type":"LineString","coordinates":[[10.42933,43.39581],[10.42941,43.39587],[10.42943,43.39596],[10.42937,43.39605],[10.42928,43.39609]]},"properties":{}},{"type":"Feature","geometry":{"type":"LineString","coordinates":[[10.43013,43.39741],[10.4299,43.39762],[10.42981,43.39763],[10.42967,43.39758],[10.42961,43.39743]]},"properties":{}},{"type":"Feature","geometry":{"type":"LineString","coordinates":[[10.42961,43.39743],[10.42964,43.39735],[10.42975,43.3973]]},"properties":{}},{"type":"Feature","geometry":{"type":"LineString","coordinates":[[10.42971,43.39445],[10.43444,43.38843],[10.43463,43.38799],[10.43536,43.38708]]},"properties":{}},{"type":"Feature","geometry":{"type":"LineString","coordinates":[[10.42975,43.3973],[10.43004,43.3973],[10.43013,43.39741]]},"properties":{}},{"type":"Feature","geometry":{"type":"LineString","coordinates":[[10.43033,43.39727],[10.43013,43.39741]]},"properties":{}},{"type":"Feature","geometry":{"type":"LineString","coordinates":[[10.43033,43.39727],[10.43073,43.39687],[10.4311,43.39644],[10.43126,43.39632]]},"properties":{}},{"type":"Feature","geometry":{"type":"LineString","coordinates":[[10.43223,43.39665],[10.43184,43.39656],[10.4318,43.39664],[10.4316,43.39677],[10.43128,43.3969],[10.43077,43.39699],[10.43033,43.39727]]},"properties":{}},{"type":"Feature","geometry":{"type":"LineString","coordinates":[[10.4307,43.39505],[10.43125,43.39527]]},"properties":{}},{"type":"Feature","geometry":{"type":"LineString","coordinates":[[10.4318,43.39519],[10.43166,43.39541],[10.43125,43.39527]]},"properties":{}},{"type":"Feature","geometry":{"type":"LineString","coordinates":[[10.43125,43.39527],[10.43131,43.39519]]},"properties":{}},{"type":"Feature","geometry":{"type":"LineString","coordinates":[[10.43126,43.39632],[10.43118,43.39635],[10.4311,43.39632],[10.43105,43.39627],[10.43106,43.39622],[10.43113,43.39616],[10.43125,43.39617],[10.43131,43.39625],[10.43126,43.39632]]},"properties":{}},{"type":"Feature","geometry":{"type":"LineString","coordinates":[[10.43151,43.39527],[10.43131,43.39519]]},"properties":{}},{"type":"Feature","geometry":{"type":"LineString","coordinates":[[10.43131,43.39519],[10.43136,43.39514]]},"properties":{}},{"type":"Feature","geometry":{"type":"LineString","coordinates":[[10.43155,43.39522],[10.43136,43.39514]]},"properties":{}},{"type":"Feature","geometry":{"type":"LineString","coordinates":[[10.43136,43.39514],[10.4314,43.39508]]},"properties":{}},{"type":"Feature","geometry":{"type":"LineString","coordinates":[[10.43159,43.39517],[10.4314,43.39508]]},"properties":{}},{"type":"Feature","geometry":{"type":"LineString","coordinates":[[10.4314,43.39508],[10.43144,43.39503]]},"properties":{}},{"type":"Feature","geometry":{"type":"LineString","coordinates":[[10.4318,43.39519],[10.43144,43.39503]]},"properties":{}},{"type":"Feature","geometry":{"type":"LineString","coordinates":[[10.43144,43.39503],[10.43154,43.3949],[10.43177,43.39498],[10.43188,43.39509],[10.4318,43.39519]]},"properties":{}},{"type":"Feature","geometry":{"type":"LineString","coordinates":[[10.43495,43.39742],[10.43475,43.39728],[10.43397,43.39704],[10.43223,43.39665]]},"properties":{}},{"type":"Feature","geometry":{"type":"LineString","coordinates":[[10.43382,43.39722],[10.43244,43.39707],[10.43232,43.397],[10.43223,43.3969],[10.4322,43.39679],[10.43223,43.39665]]},"properties":{}},{"type":"Feature","geometry":{"type":"LineString","coordinates":[[10.43223,43.39665],[10.4323,43.39652],[10.43241,43.39641]]},"properties":{}},{"type":"Feature","geometry":{"type":"LineString","coordinates":[[10.43823,43.38742],[10.43225,43.395]]},"properties":{}},{"type":"Feature","geometry":{"type":"LineString","coordinates":[[10.43241,43.39641],[10.43467,43.39703],[10.43475,43.397],[10.43551,43.39606],[10.43595,43.39624],[10.43594,43.39634]]},"properties":{}},{"type":"Feature","geometry":{"type":"LineString","coordinates":[[10.43241,43.39641],[10.43322,43.39497],[10.43337,43.39488]]},"properties":{}},{"type":"Feature","geometry":{"type":"LineString","coordinates":[[10.4339,43.39466],[10.43394,43.39471],[10.43396,43.39484],[10.43388,43.39495],[10.43381,43.39499],[10.43358,43.39501],[10.43349,43.39499],[10.43337,43.39488]]},"properties":{}},{"type":"Feature","geometry":{"type":"LineString","coordinates":[[10.43337,43.39488],[10.43335,43.39481],[10.43338,43.39469],[10.4335,43.3946],[10.43376,43.39459],[10.4339,43.39466]]},"properties":{}},{"type":"Feature","geometry":{"type":"LineString","coordinates":[[10.4339,43.39466],[10.43404,43.39463],[10.43419,43.39454],[10.43579,43.39256],[10.43604,43.39223],[10.43638,43.39167],[10.43658,43.3914],[10.43686,43.39087]]},"properties":{}},{"type":"Feature","geometry":{"type":"LineString","coordinates":[[10.43537,43.39726],[10.4354,43.39732],[10.43539,43.39741],[10.43529,43.3975],[10.43509,43.39751],[10.43495,43.39742]]},"properties":{}},{"type":"Feature","geometry":{"type":"LineString","coordinates":[[10.43495,43.39742],[10.43496,43.39727],[10.43505,43.3972],[10.43524,43.39718],[10.43537,43.39726]]},"properties":{}},{"type":"Feature","geometry":{"type":"LineString","coordinates":[[10.43594,43.39634],[10.43541,43.39702],[10.43537,43.39726]]},"properties":{}},{"type":"Feature","geometry":{"type":"LineString","coordinates":[[10.43688,43.39518],[10.43654,43.39557],[10.43594,43.39634]]},"properties":{}},{"type":"Feature","geometry":{"type":"LineString","coordinates":[[10.43622,43.39071],[10.43624,43.39068],[10.43615,43.39066],[10.4363,43.39042],[10.43645,43.39046],[10.43658,43.3903],[10.43664,43.39032]]},"properties":{}},{"type":"Feature","geometry":{"type":"LineString","coordinates":[[10.43688,43.39075],[10.43695,43.39061],[10.43695,43.39048],[10.43872,43.38821],[10.44073,43.38576]]},"properties":{}},{"type":"Feature","geometry":{"type":"LineString","coordinates":[[10.43688,43.39518],[10.44438,43.39837]]},"properties":{}},{"type":"Feature","geometry":{"type":"LineString","coordinates":[[10.43688,43.39518],[10.43867,43.39294]]},"properties":{}},{"type":"Feature","geometry":{"type":"LineString","coordinates":[[10.43867,43.39294],[10.43869,43.39281]]},"properties":{}},{"type":"Feature","geometry":{"type":"LineString","coordinates":[[10.43882,43.39286],[10.43867,43.39294]]},"properties":{}},{"type":"Feature","geometry":{"type":"LineString","coordinates":[[10.43882,43.39286],[10.43869,43.39281]]},"properties":{}},{"type":"Feature","geometry":{"type":"LineString","coordinates":[[10.43869,43.39281],[10.43867,43.39275],[10.43871,43.39269],[10.43884,43.39266]]},"properties":{}},{"type":"Feature","geometry":{"type":"LineString","coordinates":[[10.43893,43.39273],[10.43891,43.39282],[10.43882,43.39286]]},"properties":{}},{"type":"Feature","geometry":{"type":"LineString","coordinates":[[10.43884,43.39266],[10.43893,43.39273]]},"properties":{}},{"type":"Feature","geometry":{"type":"LineString","coordinates":[[10.43884,43.39266],[10.43899,43.39258]]},"properties":{}},{"type":"Feature","geometry":{"type":"LineString","coordinates":[[10.43899,43.39258],[10.43893,43.39273]]},"properties":{}},{"type":"Feature","geometry":{"type":"LineString","coordinates":[[10.43899,43.39258],[10.4415,43.38938],[10.44247,43.38821]]},"properties":{}},{"type":"Feature","geometry":{"type":"LineString","coordinates":[[10.44084,43.38574],[10.44073,43.38576]]},"properties":{}},{"type":"Feature","geometry":{"type":"LineString","coordinates":[[10.44073,43.38576],[10.44068,43.38569],[10.44076,43.38563],[10.44086,43.38567],[10.44084,43.38574]]},"properties":{}},{"type":"Feature","geometry":{"type":"LineString","coordinates":[[10.44344,43.3868],[10.44095,43.38576],[10.44084,43.38574]]},"properties":{}},{"type":"Feature","geometry":{"type":"LineString","coordinates":[[10.44258,43.38807],[10.44266,43.38813],[10.44264,43.3882],[10.44255,43.38823],[10.44247,43.38821]]},"properties":{}},{"type":"Feature","geometry":{"type":"LineString","coordinates":[[10.44247,43.38821],[10.44244,43.38812],[10.44249,43.38808],[10.44258,43.38807]]},"properties":{}},{"type":"Feature","geometry":{"type":"LineString","coordinates":[[10.44258,43.38807],[10.44348,43.38691]]},"properties":{}},{"type":"Feature","geometry":{"type":"LineString","coordinates":[[10.44348,43.38691],[10.44344,43.38687],[10.44344,43.3868]]},"properties":{}},{"type":"Feature","geometry":{"type":"LineString","coordinates":[[10.44344,43.3868],[10.44352,43.38676],[10.44363,43.38681],[10.4436,43.3869],[10.44348,43.38691]]},"properties":{}}]}