{"type":"FeatureCollection","features":[{"type":"Feature","geometry":{"type":"LineString","coordinates":[[10.83028,44.5],[10.8302,44.49988],[10.83013,44.49983],[10.83004,44.49983],[10.82995,44.49991],[10.82996,44.5]]},"properties":{}},{"type":"Feature","geometry":{"type":"LineString","coordinates":[[10.84195,44.5],[10.84153,44.49983],[10.84103,44.49976],[10.84024,44.49972],[10.84001,44.49967],[10.8394,44.49941],[10.83925,44.49939],[10.83909,44.49942],[10.83847,44.49964],[10.83794,44.49979],[10.83784,44.49977],[10.8377,44.49965],[10.83753,44.49867],[10.83741,44.49851],[10.83645,44.49803],[10.83568,44.49758],[10.83558,44.49755],[10.83509,44.49753],[10.83482,44.49761],[10.83467,44.49769],[10.83408,44.49822],[10.83373,44.49845],[10.83295,44.49863],[10.83129,44.49917],[10.83114,44.49927],[10.83105,44.49938],[10.83084,44.5]]},"properties":{}},{"type":"Feature","geometry":{"type":"LineString","coordinates":[[10.85508,44.49654],[10.85611,44.49703],[10.85628,44.49718],[10.85638,44.49734],[10.85644,44.49755],[10.85655,44.49825],[10.85657,44.4986],[10.85652,44.49907],[10.85633,44.4997],[10.85636,44.5]]},"properties":{}},{"type":"Feature","geometry":{"type":"LineString","coordinates":[[10.874,44.49792],[10.87394,44.49805],[10.87358,44.49849],[10.87231,44.49998],[10.87226,44.5]]},"properties":{}},{"type":"Feature","geometry":{"type":"LineString","coordinates":[[10.874,44.49792],[10.87381,44.49713],[10.87345,44.4959]]},"properties":{}},{"type":"Feature","geometry":{"type":"LineString","coordinates":[[10.87345,44.4959],[10.87343,44.49584],[10.8735,44.49581]]},"properties":{}},{"type":"Feature","geometry":{"type":"LineString","coordinates":[[10.87345,44.4959],[10.87359,44.49588]]},"properties":{}},{"type":"Feature","geometry":{"type":"LineString","coordinates":[[10.8735,44.49581],[10.87359,44.49588]]},"properties":{}},{"type":"Feature","geometry":{"type":"LineString","coordinates":[[10.87359,44.49588],[10.87414,44.49583],[10.87412,44.49568],[10.87356,44.49573],[10.87351,44.49576],[10.8735,44.49581]]},"properties":{}},{"type":"Feature","geometry":{"type":"LineString","coordinates":[[10.87671,44.5],[10.87637,44.49945],[10.87575,44.49873],[10.87537,44.49836],[10.87506,44.49821],[10.87425,44.49794],[10.874,44.49792]]},"properties":{}},{"type":"Feature","geometry":{"type":"LineString","coordinates":[[10.88086,44.0],[10.88071,44.00012],[10.8795,44.00073],[10.87936,44.00074],[10.87926,44.00067],[10.87925,44.00058],[10.8793,44.00051],[10.88001,44.0]]},"properties":{}},{"type":"Feature","geometry":{"type":"LineString","coordinates":[[10.88426,44.00454],[10.88356,44.00431],[10.88308,44.00407],[10.88156,44.00373],[10.88132,44.00365],[10.88126,44.00357],[10.88122,44.00337],[10.88122,44.00317],[10.88136,44.00266],[10.88144,44.00184],[10.88142,44.0017],[10.88122,44.0014],[10.88094,44.00126],[10.88154,44.00055],[10.88154,44.0]]},"properties":{}},{"type":"Feature","geometry":{"type":"LineString","coordinates":[[10.85514,44.49651],[10.8551,44.49649],[10.85516,44.4965],[10.85514,44.49651]]},"properties":{}}]}