{"type":"FeatureCollection","features":[{"type":"Feature","geometry":{"type":"LineString","coordinates":[[11.61133,43.0],[11.61055,42.99962],[11.61018,42.9995],[11.60985,42.99947],[11.6087,42.99951],[11.60846,42.99946],[11.60823,42.99933],[11.60671,42.99793],[11.60659,42.99771],[11.60633,42.99695],[11.60617,42.99672],[11.60572,42.99618],[11.60482,42.99554],[11.60456,42.9953],[11.60441,42.99513],[11.60436,42.99498],[11.60427,42.9944],[11.60407,42.99374],[11.6039,42.99286],[11.60385,42.99244],[11.60384,42.99156],[11.60373,42.99096],[11.60305,42.98958],[11.60206,42.98778],[11.60183,42.98723],[11.60151,42.98634],[11.60135,42.98569],[11.60122,42.98456],[11.60118,42.98383],[11.60112,42.98355],[11.60058,42.98221],[11.60028,42.98184],[11.60021,42.98169],[11.60021,42.98149],[11.60042,42.981],[11.60048,42.98079],[11.6005,42.98051],[11.60047,42.98028],[11.60023,42.97939],[11.60016,42.97881],[11.59977,42.97816],[11.59946,42.9778],[11.59946,42.97771],[11.59953,42.97748],[11.59938,42.97636],[11.59926,42.97615],[11.59864,42.97557],[11.59839,42.97545],[11.59778,42.97535],[11.59766,42.97522],[11.59766,42.97509],[11.59779,42.97497],[11.59797,42.97494],[11.59897,42.97513],[11.5994,42.97516],[11.59977,42.97508],[11.60015,42.97486],[11.60041,42.97461],[11.60089,42.97387],[11.60176,42.97343],[11.60195,42.97329],[11.6021,42.97313],[11.60224,42.97292],[11.60234,42.97263],[11.6024,42.9724],[11.6024,42.97199],[11.6025,42.97184],[11.60278,42.97165],[11.60342,42.97155],[11.60377,42.97138],[11.60514,42.97005],[11.60583,42.96929],[11.60601,42.96915],[11.60628,42.96901],[11.60658,42.96892],[11.60692,42.96889],[11.60952,42.96892],[11.61283,42.96847],[11.61367,42.96843],[11.61396,42.96832],[11.61429,42.96789],[11.61441,42.96779],[11.61465,42.96768],[11.61498,42.96762],[11.61596,42.96762],[11.61617,42.96756],[11.61636,42.96745],[11.61654,42.96723],[11.61667,42.96671],[11.61674,42.96656],[11.61723,42.96604],[11.61734,42.96582],[11.61741,42.96512],[11.61758,42.96452],[11.61757,42.96435],[11.61748,42.96397],[11.61749,42.96383],[11.6176,42.9636],[11.61807,42.96291],[11.61813,42.96267],[11.61813,42.96227],[11.61825,42.96203],[11.61938,42.96115],[11.61955,42.96092],[11.61978,42.96048],[11.61995,42.96029],[11.6202,42.96015],[11.6212,42.95974],[11.62139,42.95956],[11.62155,42.95917],[11.62168,42.95903],[11.62186,42.95894],[11.62263,42.95875],[11.62286,42.95864],[11.62309,42.95845],[11.62348,42.95798],[11.62364,42.95787],[11.62385,42.95781],[11.62402,42.95779],[11.62525,42.95785],[11.6256,42.95783],[11.62733,42.95739],[11.62883,42.95743],[11.62929,42.95738],[11.62955,42.95727],[11.63058,42.95661],[11.63134,42.95588],[11.63176,42.95563],[11.63204,42.95555],[11.63229,42.95551],[11.63384,42.9555],[11.6351,42.95535],[11.63547,42.9552],[11.63633,42.95458],[11.63657,42.95447],[11.63736,42.95445],[11.6377,42.9545],[11.63788,42.95458],[11.63848,42.95502],[11.63878,42.95513],[11.63915,42.95513],[11.63951,42.95501],[11.63995,42.9546],[11.64014,42.95433],[11.64023,42.95402],[11.6404,42.95305],[11.64046,42.95291],[11.64059,42.95277],[11.64076,42.95268],[11.641,42.95262],[11.64208,42.95269],[11.64243,42.95264],[11.64372,42.95214],[11.64419,42.95177],[11.64433,42.95157],[11.64433,42.95137],[11.64418,42.95117],[11.6432,42.95064],[11.64275,42.95055],[11.6416,42.95054],[11.64134,42.95046],[11.64113,42.95031],[11.64103,42.95016],[11.641,42.95003],[11.64106,42.94935],[11.64112,42.94922],[11.64126,42.94905],[11.64161,42.94884]]},"properties":{}},{"type":"Feature","geometry":{"type":"LineString","coordinates":[[11.64161,42.94884],[11.6415,42.94879],[11.64144,42.94867],[11.64163,42.94826],[11.64182,42.94746],[11.64183,42.94733],[11.6418,42.94721],[11.64173,42.94711],[11.64157,42.94697],[11.64037,42.94621],[11.64028,42.9461],[11.64026,42.946],[11.6403,42.94584],[11.64057,42.94549],[11.64097,42.94525],[11.64109,42.94513],[11.64115,42.94501],[11.64119,42.94484],[11.64141,42.94307],[11.64097,42.94149],[11.64105,42.94122],[11.64128,42.94089],[11.64133,42.94076],[11.64133,42.9406],[11.64121,42.94017],[11.64122,42.93996],[11.64223,42.93759],[11.64435,42.93563],[11.64442,42.93553],[11.64443,42.93538],[11.64435,42.93527],[11.64396,42.93512],[11.64301,42.93484],[11.64286,42.93473],[11.64284,42.93463],[11.64287,42.93456],[11.64299,42.93447],[11.64315,42.93444],[11.64442,42.93446],[11.64458,42.9344],[11.64462,42.9343],[11.64451,42.93416],[11.64405,42.93402],[11.64373,42.93368],[11.64353,42.93357],[11.64181,42.93331],[11.64098,42.93337],[11.64076,42.93332],[11.6406,42.93317],[11.64088,42.93298],[11.64099,42.93285],[11.64137,42.93283],[11.64217,42.93289],[11.64239,42.93283],[11.64279,42.93249],[11.64285,42.93237],[11.64283,42.93231],[11.64276,42.93225],[11.64239,42.93217],[11.64223,42.93207],[11.6422,42.9319],[11.64235,42.93162],[11.64245,42.93156],[11.64347,42.93121],[11.64486,42.93039],[11.64553,42.92987],[11.64613,42.92946],[11.64674,42.92887],[11.64731,42.92873],[11.64834,42.92865],[11.65057,42.92797],[11.65167,42.92771],[11.65212,42.92763],[11.65266,42.92768],[11.65277,42.92762],[11.65284,42.92738],[11.65297,42.9273],[11.65313,42.92731],[11.65336,42.92743],[11.65352,42.92742],[11.65514,42.92649],[11.65591,42.92624],[11.6566,42.92553],[11.65701,42.92503],[11.6571,42.9248],[11.65709,42.92469],[11.65704,42.92458],[11.6568,42.92439],[11.656,42.924],[11.65583,42.92388],[11.65576,42.92378],[11.6556,42.92334],[11.65558,42.92315],[11.65568,42.92304],[11.65587,42.92299],[11.65753,42.92306],[11.65775,42.92302],[11.65788,42.92294],[11.65802,42.92273],[11.65816,42.92241],[11.65819,42.92225],[11.65812,42.92189],[11.65777,42.92086],[11.65777,42.92071],[11.65785,42.92046],[11.65793,42.92034],[11.65802,42.92027],[11.65847,42.92013],[11.65868,42.92013],[11.65916,42.92026],[11.65929,42.92025],[11.65942,42.92019],[11.65955,42.92007],[11.65965,42.91986],[11.65979,42.91928],[11.65976,42.91912],[11.65965,42.91899],[11.65903,42.91861],[11.65843,42.91836],[11.65753,42.91821],[11.65741,42.91814],[11.65732,42.91803],[11.65732,42.91761],[11.65722,42.91718],[11.65727,42.91664],[11.65731,42.91652],[11.65755,42.91618],[11.65756,42.91564],[11.65768,42.91529],[11.65769,42.91477],[11.65778,42.91449],[11.65801,42.91407],[11.65805,42.91389],[11.65803,42.91373],[11.65797,42.91363],[11.65751,42.91329],[11.65742,42.91315],[11.65743,42.91297],[11.65754,42.91252],[11.65765,42.9124],[11.65811,42.91216],[11.6582,42.91207],[11.65831,42.9113],[11.65831,42.91101],[11.65834,42.91093],[11.65843,42.91087],[11.65889,42.91072],[11.65932,42.91045],[11.65945,42.91031],[11.65967,42.90991],[11.6603,42.90927],[11.6604,42.90904],[11.66049,42.90854],[11.66084,42.9076],[11.66191,42.90627],[11.66254,42.90518],[11.66259,42.90496],[11.66253,42.90464],[11.66251,42.9044],[11.66282,42.90353],[11.66287,42.90326],[11.66279,42.903],[11.66238,42.90221],[11.66236,42.90201],[11.66245,42.90181],[11.66259,42.9017],[11.66279,42.9016],[11.663,42.90156],[11.66324,42.90158],[11.66446,42.90189],[11.66554,42.90241],[11.66583,42.90251],[11.66623,42.90253],[11.66654,42.90242],[11.66671,42.90227],[11.66681,42.90205],[11.66681,42.90183],[11.66673,42.90138],[11.66676,42.90106],[11.66703,42.90062],[11.66731,42.90029],[11.66726,42.9002],[11.66722,42.9],[11.66726,42.89973],[11.66747,42.89945],[11.66849,42.8984],[11.66862,42.89815],[11.66862,42.8979],[11.6684,42.8969],[11.66826,42.89607],[11.66831,42.89585],[11.66856,42.89514],[11.66857,42.895],[11.66855,42.89482],[11.66756,42.89265],[11.66608,42.88974],[11.66604,42.8896],[11.66609,42.88935],[11.66614,42.88923],[11.66656,42.88898],[11.66674,42.88872],[11.66689,42.8884],[11.667,42.88781],[11.66719,42.88749],[11.66757,42.88698],[11.66797,42.88668],[11.6685,42.88638],[11.66944,42.88613],[11.6697,42.88602],[11.66989,42.88584],[11.66997,42.88559],[11.66942,42.88502],[11.66924,42.88495],[11.66867,42.88485],[11.66849,42.88472],[11.66845,42.88464],[11.66839,42.88417],[11.66824,42.8838],[11.6682,42.88362],[11.66837,42.88323],[11.66838,42.88311],[11.66829,42.88292],[11.66781,42.88233],[11.66876,42.88227],[11.66901,42.88222],[11.66923,42.88213],[11.66946,42.88208],[11.67117,42.88189],[11.67128,42.88184],[11.67135,42.88172],[11.67125,42.88128],[11.67416,42.88094],[11.67424,42.88088],[11.67447,42.88036],[11.67463,42.8802],[11.67742,42.87818],[11.67766,42.87805],[11.6779,42.87797],[11.67868,42.87788],[11.67874,42.87783],[11.67876,42.87768],[11.67886,42.87765],[11.67896,42.87751],[11.67915,42.87739]]},"properties":{}},{"type":"Feature","geometry":{"type":"LineString","coordinates":[[11.64161,42.94884],[11.6419,42.94877],[11.64223,42.94877],[11.64329,42.94903],[11.64369,42.94902],[11.6439,42.94895],[11.64449,42.94866],[11.64509,42.94847],[11.64652,42.94787],[11.64674,42.94783],[11.64694,42.94784],[11.64756,42.94803],[11.64779,42.94806],[11.64806,42.94802],[11.64866,42.94785],[11.6489,42.94785],[11.65002,42.94819],[11.65037,42.94827],[11.65316,42.94858],[11.65353,42.94854],[11.65424,42.94833],[11.65453,42.94828],[11.65599,42.94842],[11.65629,42.94842],[11.65663,42.94836],[11.65813,42.94796],[11.66095,42.94712],[11.66133,42.94705],[11.66161,42.94707],[11.66188,42.94713],[11.66424,42.94797],[11.66455,42.94808],[11.66502,42.94836],[11.66524,42.94834],[11.66602,42.94793],[11.66622,42.94786]]},"properties":{}},{"type":"Feature","geometry":{"type":"LineString","coordinates":[[11.66622,42.94786],[11.66625,42.94781],[11.66633,42.94779],[11.6664,42.94782],[11.66641,42.94786],[11.66637,42.94792],[11.66631,42.94793],[11.66625,42.94791],[11.66622,42.94786]]},"properties":{}},{"type":"Feature","geometry":{"type":"LineString","coordinates":[[11.67915,42.87739],[11.67901,42.87757],[11.67895,42.87772]]},"properties":{}},{"type":"Feature","geometry":{"type":"LineString","coordinates":[[11.67915,42.87739],[11.67935,42.87734],[11.67982,42.87733],[11.68042,42.8775],[11.68073,42.87752],[11.68095,42.87748],[11.68241,42.877],[11.68275,42.87678],[11.68416,42.87537],[11.68426,42.8752],[11.68426,42.87501],[11.68417,42.87483],[11.68398,42.87457],[11.68373,42.87432],[11.68289,42.87386],[11.68277,42.87371],[11.68274,42.87353],[11.68279,42.8734],[11.6829,42.87328],[11.68343,42.87301],[11.68374,42.8727],[11.68378,42.8726],[11.68378,42.87226],[11.68385,42.87212],[11.684,42.87201],[11.68446,42.8718],[11.68453,42.8717],[11.68458,42.87149],[11.68465,42.87094],[11.68458,42.87067],[11.68407,42.86971],[11.68383,42.86947],[11.68355,42.86923],[11.68301,42.86888],[11.68258,42.86875],[11.68179,42.86863],[11.68152,42.86852],[11.68139,42.86835],[11.68136,42.86816],[11.6814,42.86748],[11.68125,42.86716],[11.68113,42.86703],[11.68081,42.86679],[11.6801,42.86653],[11.6796,42.86621],[11.67948,42.86609],[11.6794,42.86589],[11.6796,42.86543],[11.67963,42.8652],[11.67952,42.86507],[11.67899,42.86467],[11.67889,42.86448],[11.67861,42.86322],[11.67865,42.86295],[11.679,42.86181],[11.6791,42.86158],[11.67927,42.86141],[11.67964,42.86128],[11.68018,42.86126],[11.68078,42.8613],[11.68112,42.86127],[11.68139,42.86119],[11.68204,42.86081],[11.68216,42.86067],[11.68237,42.85997],[11.68237,42.85959],[11.68243,42.85942],[11.68254,42.8593],[11.68296,42.85902],[11.68324,42.85877],[11.68344,42.85837],[11.68357,42.8578],[11.68365,42.85765],[11.68415,42.8572],[11.68428,42.85702],[11.68428,42.85692],[11.68423,42.85674],[11.68407,42.85653],[11.68326,42.856],[11.68319,42.85593],[11.68315,42.85582],[11.68321,42.85568],[11.68334,42.85552],[11.68401,42.85511],[11.68436,42.85484],[11.68509,42.85395],[11.68511,42.8538],[11.68508,42.85369],[11.68471,42.85344],[11.68458,42.85331],[11.68457,42.85323],[11.68463,42.85313],[11.68477,42.85306],[11.68541,42.85297],[11.68573,42.85287],[11.6889,42.85146],[11.69226,42.84982],[11.69219,42.84974],[11.69225,42.84964],[11.69238,42.84966],[11.69246,42.84978]]},"properties":{}},{"type":"Feature","geometry":{"type":"LineString","coordinates":[[11.91936,43.0],[11.91962,42.99923],[11.91981,42.99842],[11.92102,42.98956],[11.92115,42.98875],[11.9213,42.9882],[11.92149,42.98768],[11.92175,42.98712],[11.92214,42.98644],[11.92271,42.98564],[11.93024,42.97697],[11.93795,42.968],[11.93838,42.96741],[11.93907,42.96634],[11.93946,42.96565],[11.94485,42.95438],[11.94756,42.94957],[11.95707,42.93248],[11.95806,42.9309],[11.96987,42.91473],[11.97054,42.91392],[11.97097,42.91349],[11.97152,42.913],[11.97275,42.91215],[11.97363,42.91165],[11.97464,42.9112],[11.97567,42.91082],[11.98997,42.90601],[11.99108,42.90555],[11.99198,42.90504],[11.99277,42.90456],[12.0,42.89933]]},"properties":{}},{"type":"Feature","geometry":{"type":"LineString","coordinates":[[12.0,42.89953],[11.99332,42.90439],[11.99234,42.90504],[11.99153,42.90549],[11.99095,42.90577],[11.99003,42.90615],[11.98079,42.90922],[11.97478,42.91129],[11.97359,42.91184],[11.97277,42.91231],[11.97225,42.91266],[11.97153,42.91322],[11.97109,42.91361],[11.97067,42.91402],[11.97011,42.91467],[11.95825,42.93096],[11.95721,42.93259],[11.94768,42.9496],[11.94529,42.95399],[11.94491,42.95471],[11.93955,42.96585],[11.9393,42.96633],[11.93873,42.96726],[11.93788,42.96839],[11.93032,42.97701],[11.92282,42.98569],[11.9226,42.98596],[11.9222,42.98657],[11.92182,42.98725],[11.92156,42.98783],[11.92128,42.98875],[11.92004,42.99774],[11.91987,42.99875],[11.91975,42.99925],[11.91949,43.0]]},"properties":{}},{"type":"Feature","geometry":{"type":"LineString","coordinates":[[11.95614,42.99842],[11.95616,42.99781],[11.95614,42.99689],[11.95611,42.9966],[11.95604,42.99635],[11.95562,42.99562],[11.95462,42.9942],[11.95346,42.99239]]},"properties":{}},{"type":"Feature","geometry":{"type":"LineString","coordinates":[[11.95346,42.99239],[11.95332,42.99217],[11.95336,42.9921],[11.95349,42.99201],[11.95369,42.99195],[11.95389,42.99184]]},"properties":{}},{"type":"Feature","geometry":{"type":"LineString","coordinates":[[11.95389,42.99184],[11.95358,42.99214],[11.9535,42.99224],[11.95346,42.99239]]},"properties":{}},{"type":"Feature","geometry":{"type":"LineString","coordinates":[[11.95389,42.99184],[11.95402,42.99172],[11.95409,42.99177],[11.954,42.99195],[11.95401,42.99201]]},"properties":{}},{"type":"Feature","geometry":{"type":"LineString","coordinates":[[11.95614,42.99842],[11.95496,42.99822],[11.95416,42.99803],[11.95301,42.99809],[11.95246,42.99804],[11.95239,42.99848],[11.95245,42.99859],[11.95482,42.99941],[11.95571,42.99976],[11.95575,42.9998],[11.95569,42.99983],[11.95557,43.0]]},"properties":{}},{"type":"Feature","geometry":{"type":"LineString","coordinates":[[11.95592,43.0],[11.95583,42.99976],[11.95583,42.99958],[11.95614,42.99842]]},"properties":{}}]}