{"type":"FeatureCollection","features":[{"type":"Feature","geometry":{"type":"LineString","coordinates":[[11.54834,43.08457],[11.54807,43.08466],[11.54579,43.08576],[11.54597,43.08645],[11.54609,43.08673],[11.54549,43.0869],[11.54464,43.08719],[11.54325,43.08787],[11.54309,43.08791],[11.54283,43.08786],[11.54274,43.08775],[11.54271,43.08765],[11.54278,43.08749],[11.54327,43.08716],[11.54338,43.08702],[11.54341,43.08693],[11.54322,43.08528],[11.54309,43.08507],[11.54279,43.08492],[11.54246,43.08491],[11.5422,43.085],[11.54205,43.08513],[11.54197,43.08532],[11.54201,43.08555],[11.54219,43.08597],[11.54219,43.0863],[11.54215,43.08645],[11.54165,43.08745],[11.54153,43.08778],[11.54023,43.09025],[11.54005,43.09054],[11.53982,43.09085],[11.53945,43.09128],[11.53906,43.09163],[11.53862,43.09197],[11.53816,43.09226],[11.5376,43.09255],[11.53697,43.09281],[11.53634,43.09301],[11.53522,43.09323],[11.53211,43.09355],[11.53101,43.09373],[11.53028,43.09391],[11.5296,43.09412],[11.5288,43.09442],[11.52821,43.0947],[11.52736,43.09519],[11.52655,43.09577],[11.52399,43.09812],[11.52255,43.09929],[11.52209,43.09987],[11.52102,43.10072],[11.52054,43.101],[11.5192,43.10154],[11.51906,43.10164],[11.51883,43.10194],[11.51864,43.10209],[11.51803,43.10235],[11.51747,43.10273],[11.51719,43.10287],[11.51689,43.10297],[11.51645,43.10306],[11.51479,43.10326],[11.51373,43.10364],[11.51311,43.10376],[11.51247,43.10398],[11.51072,43.10443],[11.50987,43.10455],[11.50944,43.10464],[11.50564,43.10571],[11.50518,43.10576],[11.5,43.10604]]},"properties":{}},{"type":"Feature","geometry":{"type":"LineString","coordinates":[[11.5,43.27382],[11.50052,43.27393],[11.5008,43.2739],[11.50092,43.27385],[11.50169,43.27321],[11.50209,43.27306],[11.50258,43.27301],[11.50327,43.27306],[11.50343,43.27315],[11.5038,43.27345],[11.50404,43.27355],[11.50433,43.27361],[11.50548,43.2736],[11.50644,43.27366],[11.50673,43.27363],[11.50755,43.27346],[11.50809,43.27327],[11.50862,43.27294],[11.50884,43.27285],[11.50911,43.27277],[11.50996,43.27264],[11.51028,43.27256],[11.51106,43.27218],[11.51178,43.272],[11.51233,43.27178],[11.51358,43.27148],[11.51387,43.27142],[11.51457,43.27138],[11.51481,43.27133],[11.51507,43.27116],[11.51556,43.27057],[11.51564,43.27036],[11.51557,43.27017],[11.51542,43.26994],[11.51493,43.2694],[11.51453,43.26888],[11.51435,43.26874],[11.51332,43.26824],[11.513,43.268],[11.5126,43.26755],[11.51169,43.26669],[11.51159,43.26656],[11.51145,43.26629],[11.51125,43.26563],[11.51115,43.26538],[11.51098,43.26513],[11.51077,43.26491],[11.51027,43.26456],[11.5095,43.26408],[11.50926,43.26387],[11.509,43.26352],[11.50863,43.26281],[11.50853,43.26253],[11.50849,43.26216],[11.5085,43.26171],[11.50864,43.26115],[11.50886,43.26064],[11.50932,43.25983],[11.51039,43.25885],[11.51092,43.25819],[11.51172,43.25678],[11.51208,43.25605],[11.51276,43.25512],[11.51391,43.25388],[11.51424,43.25358],[11.51443,43.25345],[11.51528,43.253],[11.51676,43.25231],[11.51748,43.25208],[11.5184,43.25183],[11.51882,43.25175],[11.51939,43.25169],[11.52025,43.25166],[11.52072,43.25159],[11.52157,43.25132],[11.52202,43.25109],[11.52322,43.2503],[11.52358,43.2501],[11.52392,43.24997],[11.52453,43.24981],[11.52504,43.24976],[11.52547,43.24978],[11.52578,43.24982],[11.52687,43.25006],[11.52736,43.25013],[11.52993,43.24996],[11.53167,43.2498],[11.53192,43.24983],[11.53305,43.25008],[11.53338,43.2501],[11.534,43.25008],[11.53445,43.25001],[11.53518,43.24979],[11.53683,43.24969],[11.53728,43.2496],[11.53754,43.24941],[11.53827,43.24851],[11.53851,43.24834],[11.53889,43.24821],[11.53927,43.24816],[11.54059,43.2481],[11.54104,43.248],[11.54188,43.24773],[11.54286,43.24752],[11.54324,43.24753],[11.54385,43.24762],[11.54428,43.24764],[11.54452,43.2476],[11.54502,43.24744],[11.54519,43.24735],[11.54578,43.24678],[11.54605,43.2466],[11.54693,43.24619],[11.54809,43.24545],[11.54839,43.24522],[11.54909,43.24435],[11.55003,43.24358],[11.55011,43.24341],[11.55012,43.24302],[11.55019,43.24287],[11.55044,43.24265],[11.55092,43.2424],[11.551,43.24232],[11.55111,43.24216],[11.5513,43.24177],[11.55155,43.24111],[11.55175,43.24097],[11.5524,43.24071],[11.55401,43.2397],[11.55435,43.23944],[11.55459,43.23918],[11.55462,43.23904],[11.55458,43.23884],[11.55466,43.23876],[11.55485,43.23868],[11.55494,43.23859],[11.55543,43.23777],[11.55552,43.23767],[11.55634,43.23709],[11.55656,43.23703],[11.55712,43.23697],[11.55721,43.23692],[11.55724,43.23681],[11.55715,43.2364],[11.55658,43.23608],[11.55648,43.23598],[11.55644,43.23587],[11.55647,43.23576],[11.55698,43.23488],[11.55714,43.23468],[11.55822,43.23391],[11.55848,43.2338],[11.55881,43.23379],[11.55986,43.23396],[11.56053,43.23401],[11.56079,43.234],[11.56096,43.23396]]},"properties":{}},{"type":"Feature","geometry":{"type":"LineString","coordinates":[[11.5,43.31861],[11.50113,43.31889],[11.504,43.31977],[11.50516,43.32008],[11.50589,43.32022]]},"properties":{}},{"type":"Feature","geometry":{"type":"LineString","coordinates":[[11.50586,43.3203],[11.50477,43.32007],[11.50397,43.31985],[11.50107,43.31896],[11.5,43.3187]]},"properties":{}},{"type":"Feature","geometry":{"type":"LineString","coordinates":[[11.80575,43.21593],[11.80458,43.2154],[11.80378,43.21511],[11.80286,43.21488],[11.80177,43.21475],[11.80108,43.21474],[11.80035,43.21478],[11.79644,43.21525],[11.79604,43.21532],[11.7953,43.21551],[11.79429,43.2159],[11.78278,43.22101],[11.78172,43.22142],[11.78082,43.22169],[11.77981,43.22192],[11.77887,43.22208],[11.7782,43.22216],[11.7765,43.22226],[11.75405,43.22265],[11.75275,43.22269],[11.75162,43.22279],[11.7504,43.22298],[11.74946,43.22319],[11.74875,43.22339],[11.7414,43.22573],[11.73772,43.22693],[11.73663,43.22741],[11.73236,43.22965],[11.73179,43.23002],[11.73133,43.23042],[11.73086,43.23093],[11.7279,43.23519],[11.72574,43.23853],[11.72465,43.24016],[11.72257,43.24314],[11.72155,43.2445],[11.7201,43.24623],[11.71846,43.24807],[11.71668,43.25001],[11.71582,43.2508],[11.71489,43.25148],[11.71412,43.25195],[11.71314,43.25245],[11.71215,43.25285],[11.71119,43.25317],[11.70483,43.25508],[11.7035,43.25551],[11.70246,43.25576],[11.70031,43.25614],[11.69934,43.25625],[11.69867,43.25628],[11.6923,43.25609],[11.691,43.256],[11.69002,43.25581],[11.68913,43.25553],[11.68658,43.25443],[11.68583,43.25414],[11.68505,43.25388],[11.68419,43.25365],[11.67919,43.25253],[11.67827,43.25235],[11.67599,43.25198],[11.67485,43.25175],[11.67389,43.25149],[11.67297,43.25118],[11.66997,43.25006],[11.66848,43.24956],[11.66703,43.24915],[11.66553,43.24882],[11.66421,43.24858],[11.65451,43.24702],[11.65331,43.24683],[11.65212,43.24671],[11.65093,43.24668],[11.6497,43.24677],[11.64834,43.24701],[11.64702,43.24738],[11.64634,43.24765],[11.64572,43.24793],[11.64424,43.24877],[11.64022,43.25126],[11.63745,43.25301],[11.63698,43.25334],[11.63649,43.25372],[11.63594,43.25421],[11.63374,43.25635],[11.63339,43.25674],[11.63292,43.25733],[11.63229,43.25831],[11.63009,43.26296],[11.62956,43.2642],[11.62943,43.2646],[11.62924,43.26542],[11.62914,43.26669],[11.6293,43.27216],[11.62931,43.27376],[11.62941,43.2765],[11.6294,43.27746],[11.6293,43.27842],[11.62909,43.27946],[11.6288,43.2804],[11.6284,43.28133],[11.62813,43.28183],[11.62751,43.2828],[11.62719,43.28326],[11.62635,43.28432],[11.62471,43.2863],[11.62385,43.28724],[11.62321,43.28777],[11.62224,43.28836],[11.62149,43.2887],[11.62072,43.28896],[11.61996,43.28914],[11.6191,43.28928],[11.61632,43.28958],[11.6154,43.28971],[11.61435,43.28997],[11.61337,43.29032],[11.61234,43.29083],[11.60507,43.29532],[11.60269,43.29682],[11.60191,43.29738],[11.60115,43.298],[11.60057,43.29855],[11.60002,43.29915],[11.5991,43.30021],[11.59846,43.30104],[11.59755,43.30212],[11.59718,43.30245],[11.5969,43.30266],[11.59641,43.30298],[11.59571,43.30331],[11.59112,43.30515],[11.59009,43.3056],[11.58932,43.30609],[11.58852,43.30675],[11.58651,43.30874],[11.58598,43.30914],[11.58523,43.30958],[11.58472,43.30983],[11.5821,43.31084],[11.58144,43.31113],[11.58088,43.31146],[11.57892,43.31314],[11.57825,43.31365],[11.57562,43.3155],[11.57447,43.31642],[11.5738,43.31701],[11.57318,43.31763],[11.57124,43.31972],[11.57042,43.32043],[11.5697,43.32096],[11.56885,43.32148],[11.56827,43.32179],[11.56759,43.32211],[11.5662,43.32265],[11.55548,43.32661],[11.55489,43.3268],[11.55418,43.32697],[11.55333,43.32709],[11.55262,43.32712],[11.55219,43.32711],[11.55135,43.32702],[11.5502,43.32678],[11.5393,43.32394],[11.5379,43.32355],[11.53654,43.32301],[11.53311,43.32127],[11.5324,43.32097],[11.53163,43.32071],[11.53075,43.32053],[11.52997,43.32046],[11.52917,43.32046],[11.52834,43.32055],[11.5235,43.32136],[11.52217,43.32155],[11.52115,43.32162],[11.52036,43.32164],[11.51896,43.32155],[11.51169,43.32088],[11.507,43.32044],[11.50586,43.3203]]},"properties":{}},{"type":"Feature","geometry":{"type":"LineString","coordinates":[[11.50945,43.32525],[11.5095,43.32504],[11.50949,43.32489],[11.50943,43.32475],[11.50932,43.32464],[11.5091,43.32451],[11.50792,43.32401],[11.50777,43.32387],[11.50767,43.32367],[11.50763,43.32297],[11.50759,43.32276],[11.50752,43.32265],[11.5071,43.32231],[11.5059,43.32149],[11.50577,43.32136],[11.50566,43.32114],[11.50566,43.32094],[11.50586,43.3203]]},"properties":{}},{"type":"Feature","geometry":{"type":"LineString","coordinates":[[11.50586,43.3203],[11.50589,43.32022]]},"properties":{}},{"type":"Feature","geometry":{"type":"LineString","coordinates":[[11.50589,43.32022],[11.50597,43.32024]]},"properties":{}},{"type":"Feature","geometry":{"type":"LineString","coordinates":[[11.50589,43.32022],[11.50598,43.31998],[11.50609,43.3198],[11.50625,43.3197],[11.50643,43.31966]]},"properties":{}},{"type":"Feature","geometry":{"type":"LineString","coordinates":[[11.50597,43.32024],[11.50701,43.32037],[11.50954,43.3206]]},"properties":{}},{"type":"Feature","geometry":{"type":"LineString","coordinates":[[11.50597,43.32024],[11.50619,43.32023],[11.50755,43.32035],[11.50774,43.32027],[11.50788,43.32009]]},"properties":{}},{"type":"Feature","geometry":{"type":"LineString","coordinates":[[11.50792,43.31981],[11.50643,43.31966]]},"properties":{}},{"type":"Feature","geometry":{"type":"LineString","coordinates":[[11.50643,43.31966],[11.50677,43.31965],[11.50788,43.31978],[11.50792,43.31981]]},"properties":{}},{"type":"Feature","geometry":{"type":"LineString","coordinates":[[11.50788,43.32009],[11.50797,43.32032],[11.50816,43.32042],[11.50919,43.32053],[11.50954,43.3206]]},"properties":{}},{"type":"Feature","geometry":{"type":"LineString","coordinates":[[11.50788,43.32009],[11.50792,43.31981]]},"properties":{}},{"type":"Feature","geometry":{"type":"LineString","coordinates":[[11.50954,43.3206],[11.51961,43.32152],[11.52038,43.32155],[11.52215,43.32147],[11.52347,43.32128],[11.52835,43.32046],[11.52918,43.32038],[11.52998,43.32038],[11.5308,43.32046],[11.53169,43.32064],[11.53246,43.32089],[11.53319,43.32121],[11.53659,43.32295],[11.53752,43.32333],[11.53863,43.32369],[11.54978,43.32659],[11.5509,43.32686],[11.55176,43.32699],[11.5526,43.32704],[11.55334,43.32702],[11.55439,43.32685],[11.5551,43.32666],[11.55575,43.32643],[11.56684,43.32232],[11.56756,43.32204],[11.56878,43.32142],[11.56966,43.32089],[11.57035,43.32038],[11.57115,43.31968],[11.57309,43.31759],[11.57438,43.31638],[11.57553,43.31546],[11.57818,43.3136],[11.57885,43.31308],[11.58035,43.31178],[11.58082,43.3114],[11.58136,43.31107],[11.58205,43.31077],[11.58467,43.30975],[11.58517,43.30951],[11.58592,43.30907],[11.58645,43.30868],[11.58881,43.30637],[11.58923,43.30604],[11.59,43.30554],[11.59582,43.30318],[11.59669,43.3027],[11.59733,43.30221]]},"properties":{}},{"type":"Feature","geometry":{"type":"LineString","coordinates":[[11.54934,43.08596],[11.54915,43.08557],[11.54849,43.08487],[11.5484,43.08474],[11.54834,43.08457]]},"properties":{}},{"type":"Feature","geometry":{"type":"LineString","coordinates":[[11.60215,43.06142],[11.60155,43.06124],[11.60005,43.06056],[11.59921,43.06023],[11.5984,43.06001],[11.5976,43.05987],[11.59695,43.05982],[11.59627,43.0598],[11.59448,43.05983],[11.59352,43.05997],[11.59244,43.06028],[11.59179,43.06056],[11.58982,43.06158],[11.58733,43.06249],[11.58679,43.06275],[11.5863,43.06305],[11.58578,43.06344],[11.58519,43.06407],[11.58492,43.06445],[11.58401,43.06606],[11.58337,43.06707],[11.58276,43.06787],[11.58203,43.06858],[11.58161,43.06891],[11.58115,43.06921],[11.58065,43.06948],[11.58017,43.06969],[11.57962,43.06988],[11.57902,43.07004],[11.57845,43.07015],[11.57789,43.07021],[11.57683,43.07023],[11.57571,43.07008],[11.57466,43.06981],[11.57374,43.06945],[11.57299,43.06908],[11.5719,43.06843],[11.56745,43.06532],[11.5665,43.06473],[11.56581,43.06439],[11.56524,43.06417],[11.56455,43.06399],[11.56381,43.06385],[11.56285,43.06377],[11.5618,43.06379],[11.55688,43.06413],[11.55573,43.06424],[11.55495,43.0644],[11.55378,43.06473],[11.55096,43.06562],[11.54968,43.06609],[11.54882,43.06655],[11.54837,43.06687],[11.54802,43.06717],[11.54763,43.06762],[11.54732,43.06805],[11.54714,43.0684],[11.54699,43.06879],[11.54685,43.06945],[11.54684,43.0701],[11.54691,43.07056],[11.54716,43.07146],[11.54733,43.07193],[11.54747,43.07254],[11.54753,43.07308],[11.54749,43.07358],[11.54741,43.07407],[11.54665,43.07713],[11.54649,43.07808],[11.54641,43.0782],[11.54603,43.07838],[11.54597,43.07848],[11.54599,43.0786],[11.54659,43.07959],[11.54677,43.07995],[11.54685,43.08019],[11.54704,43.08121],[11.54714,43.08147],[11.54731,43.08164],[11.5481,43.08201],[11.54824,43.08213],[11.54835,43.08231],[11.54839,43.08263],[11.54834,43.08457]]},"properties":{}},{"type":"Feature","geometry":{"type":"LineString","coordinates":[[11.56096,43.23396],[11.56147,43.23418]]},"properties":{}},{"type":"Feature","geometry":{"type":"LineString","coordinates":[[11.56162,43.23363],[11.56096,43.23396]]},"properties":{}},{"type":"Feature","geometry":{"type":"LineString","coordinates":[[11.56162,43.23363],[11.56244,43.2331],[11.56279,43.23292],[11.56293,43.23312],[11.56307,43.23341],[11.56325,43.23408],[11.56326,43.2342],[11.56314,43.23428],[11.56299,43.23426],[11.56162,43.23363]]},"properties":{}},{"type":"Feature","geometry":{"type":"LineString","coordinates":[[11.5974,43.30084],[11.5972,43.30191],[11.59709,43.3022],[11.59682,43.30245],[11.59614,43.30284]]},"properties":{}},{"type":"Feature","geometry":{"type":"LineString","coordinates":[[11.59733,43.30221],[11.5974,43.30207],[11.59809,43.30126],[11.59812,43.30117],[11.59812,43.30104],[11.59803,43.30087],[11.59786,43.30077],[11.59761,43.30071]]},"properties":{}},{"type":"Feature","geometry":{"type":"LineString","coordinates":[[11.59733,43.30221],[11.59787,43.30164],[11.59902,43.30017],[11.60012,43.29889],[11.6005,43.29848],[11.60099,43.29802],[11.60182,43.29733],[11.60228,43.29699],[11.60324,43.29636],[11.61236,43.29072],[11.61282,43.29048],[11.61352,43.29017],[11.61403,43.28999],[11.61481,43.28976],[11.61556,43.28961],[11.61641,43.28949],[11.61909,43.28921],[11.61993,43.28908],[11.62109,43.28878],[11.62182,43.28848],[11.62283,43.28793],[11.62345,43.28748],[11.62407,43.2869],[11.62641,43.2841],[11.6271,43.28322],[11.62775,43.28228],[11.62805,43.2818],[11.62831,43.2813],[11.62871,43.28038],[11.62899,43.27945],[11.62921,43.27841],[11.6293,43.27746],[11.62931,43.27651],[11.62921,43.27376],[11.62905,43.26669],[11.62906,43.26619]]},"properties":{}},{"type":"Feature","geometry":{"type":"LineString","coordinates":[[11.5974,43.30084],[11.59736,43.30059],[11.59742,43.30023]]},"properties":{}},{"type":"Feature","geometry":{"type":"LineString","coordinates":[[11.59761,43.30071],[11.59742,43.30073],[11.5974,43.30084]]},"properties":{}},{"type":"Feature","geometry":{"type":"LineString","coordinates":[[11.59761,43.30071],[11.59746,43.30065],[11.59741,43.30059],[11.59744,43.3003],[11.59742,43.30023]]},"properties":{}},{"type":"Feature","geometry":{"type":"LineString","coordinates":[[11.59742,43.30023],[11.59748,43.30003],[11.59758,43.29988],[11.59804,43.29958],[11.59818,43.29941],[11.59823,43.29924],[11.59819,43.29909],[11.59813,43.29898],[11.59773,43.2987],[11.59749,43.29844],[11.59734,43.29803],[11.59733,43.29778],[11.59738,43.29758],[11.59748,43.29735],[11.59768,43.29711],[11.59851,43.29653]]},"properties":{}},{"type":"Feature","geometry":{"type":"LineString","coordinates":[[11.59851,43.29653],[11.59856,43.29643],[11.59851,43.29622],[11.59857,43.29616],[11.59865,43.29612],[11.59894,43.29615],[11.59917,43.29609]]},"properties":{}},{"type":"Feature","geometry":{"type":"LineString","coordinates":[[11.59874,43.29639],[11.59851,43.29653]]},"properties":{}},{"type":"Feature","geometry":{"type":"LineString","coordinates":[[11.59917,43.29609],[11.59888,43.2963]]},"properties":{}},{"type":"Feature","geometry":{"type":"LineString","coordinates":[[11.62906,43.26619],[11.62898,43.26648],[11.62899,43.26742],[11.62888,43.26766],[11.62877,43.26775],[11.62863,43.26781],[11.62835,43.26786],[11.62667,43.26788],[11.62632,43.26781],[11.62625,43.26771],[11.62604,43.26763],[11.62588,43.26763],[11.62571,43.2677],[11.62562,43.2678],[11.62557,43.26801],[11.62545,43.26819],[11.62342,43.2695],[11.62315,43.26971],[11.62191,43.27085],[11.62098,43.27156],[11.62008,43.27214],[11.61975,43.27238],[11.61955,43.27248],[11.6182,43.27289],[11.61742,43.27318],[11.61713,43.27336],[11.6167,43.27371],[11.61632,43.27408],[11.61619,43.27436],[11.61607,43.27477],[11.61589,43.27494],[11.61544,43.27512],[11.61472,43.27569],[11.61454,43.27579],[11.61409,43.27595],[11.61359,43.27595],[11.6129,43.27643],[11.61245,43.27688],[11.61213,43.27739],[11.61189,43.27764],[11.61177,43.27774],[11.61107,43.27809],[11.61084,43.27826],[11.61059,43.2786],[11.61034,43.27902],[11.61008,43.27976],[11.61004,43.27998],[11.61007,43.28023],[11.61014,43.28047],[11.61023,43.28064],[11.6107,43.281],[11.61072,43.28107],[11.61069,43.28112],[11.61062,43.28115],[11.61051,43.28113],[11.6098,43.28074],[11.60966,43.28069],[11.6086,43.28072],[11.60829,43.28077],[11.60813,43.28088],[11.60749,43.28155],[11.60663,43.28225],[11.60605,43.28269],[11.6054,43.28307],[11.60527,43.28332],[11.60432,43.28637],[11.6044,43.28688],[11.60454,43.28734],[11.60449,43.28801],[11.60474,43.28949],[11.60465,43.28971],[11.60467,43.28976],[11.60478,43.28983],[11.60488,43.28997],[11.60486,43.29015],[11.60469,43.29066],[11.60364,43.29333],[11.60356,43.29346],[11.60337,43.29359],[11.60173,43.29434],[11.59917,43.29609]]},"properties":{}},{"type":"Feature","geometry":{"type":"LineString","coordinates":[[11.60392,43.06156],[11.60316,43.06155],[11.60215,43.06142]]},"properties":{}},{"type":"Feature","geometry":{"type":"LineString","coordinates":[[11.60215,43.06142],[11.60316,43.06146],[11.60333,43.06137],[11.60336,43.0612]]},"properties":{}},{"type":"Feature","geometry":{"type":"LineString","coordinates":[[11.60229,43.06119],[11.6024,43.06124],[11.60253,43.06124],[11.60311,43.06107],[11.60327,43.06112],[11.60336,43.0612]]},"properties":{}},{"type":"Feature","geometry":{"type":"LineString","coordinates":[[11.60229,43.06119],[11.60221,43.06111],[11.60199,43.06074],[11.60159,43.06049],[11.60145,43.06032],[11.60145,43.06016],[11.60153,43.05989],[11.60141,43.05951],[11.60125,43.05845],[11.6012,43.05835],[11.60109,43.05834],[11.60104,43.05829],[11.60106,43.05823],[11.60115,43.05821],[11.60128,43.05798],[11.60156,43.0576],[11.60187,43.05726],[11.60272,43.05701],[11.6035,43.05672],[11.60368,43.05664],[11.60382,43.05649],[11.60401,43.05662],[11.60434,43.05678],[11.60476,43.05708],[11.60655,43.05773],[11.60689,43.05795],[11.60699,43.05805],[11.60703,43.05815],[11.607,43.05824],[11.60602,43.05943],[11.60588,43.05967],[11.60583,43.05996],[11.60596,43.06074],[11.60582,43.06077],[11.60543,43.06093],[11.60512,43.06098],[11.60403,43.06094],[11.60317,43.06095],[11.60245,43.06087]]},"properties":{}},{"type":"Feature","geometry":{"type":"LineString","coordinates":[[11.60245,43.06087],[11.60234,43.06092],[11.60226,43.061],[11.60225,43.06109],[11.60229,43.06119]]},"properties":{}},{"type":"Feature","geometry":{"type":"LineString","coordinates":[[11.60235,43.06086],[11.60245,43.06087]]},"properties":{}},{"type":"Feature","geometry":{"type":"LineString","coordinates":[[11.60336,43.0612],[11.60359,43.06145],[11.60392,43.06156]]},"properties":{}},{"type":"Feature","geometry":{"type":"LineString","coordinates":[[11.6253,43.02835],[11.62536,43.0285],[11.62573,43.02878],[11.6258,43.02888],[11.62607,43.0295],[11.62642,43.0301],[11.62657,43.03073],[11.62751,43.0337],[11.62766,43.03425],[11.6269,43.03872],[11.62687,43.04021],[11.62683,43.04046],[11.62672,43.04079],[11.62659,43.04136],[11.62647,43.04165],[11.62522,43.04409],[11.6251,43.04447],[11.62506,43.04489],[11.62507,43.04567],[11.62511,43.04583],[11.6254,43.04639],[11.62547,43.04666],[11.62551,43.04769],[11.62549,43.04786],[11.62544,43.04798],[11.6253,43.04812],[11.62507,43.04826],[11.62368,43.04894],[11.62304,43.04921],[11.62208,43.04946],[11.6212,43.04955],[11.62036,43.04952],[11.61604,43.04912],[11.61545,43.04897],[11.61311,43.04823],[11.61263,43.04813],[11.61223,43.04812],[11.61195,43.04816],[11.61164,43.04825],[11.6114,43.04838],[11.61115,43.04858],[11.611,43.04879],[11.61077,43.04967],[11.61065,43.04994],[11.60954,43.05117],[11.60842,43.05304],[11.6083,43.05339],[11.60833,43.05367],[11.60843,43.05387],[11.61094,43.05687],[11.61104,43.05711],[11.61106,43.05731],[11.61093,43.05769],[11.6108,43.05788],[11.61058,43.05806],[11.60568,43.06112],[11.60534,43.06129],[11.60491,43.06144],[11.60447,43.06152],[11.60392,43.06156]]},"properties":{}},{"type":"Feature","geometry":{"type":"LineString","coordinates":[[11.6253,43.02835],[11.6254,43.02819],[11.62605,43.02763],[11.6262,43.0276],[11.62662,43.02766],[11.62686,43.02765],[11.62728,43.0275],[11.62757,43.02733],[11.62771,43.02712],[11.62789,43.02606],[11.62797,43.02586],[11.62776,43.02589],[11.6269,43.02633],[11.62678,43.02634],[11.62669,43.02629],[11.62635,43.02535],[11.62627,43.02525],[11.62597,43.025],[11.62586,43.02484],[11.62592,43.0247],[11.62623,43.02443],[11.62629,43.02424],[11.62632,43.0237],[11.62627,43.02346],[11.62617,43.02324],[11.62575,43.02284],[11.62461,43.0216],[11.62451,43.02142],[11.62425,43.02057],[11.62419,43.02047],[11.62403,43.02044],[11.62391,43.02053],[11.62389,43.02065],[11.62396,43.02148],[11.62387,43.02159],[11.6237,43.0216],[11.62362,43.02154],[11.62357,43.02146],[11.62332,43.02067],[11.62329,43.02051],[11.62331,43.02017],[11.62326,43.02007],[11.62312,43.02],[11.62267,43.0199],[11.62238,43.01981],[11.62186,43.01959],[11.62167,43.01944],[11.62089,43.01809],[11.62042,43.01696],[11.62023,43.01659],[11.61939,43.01552],[11.61899,43.01509],[11.61897,43.01487],[11.61907,43.01452],[11.61909,43.01425],[11.61907,43.01405],[11.61901,43.01389],[11.6189,43.01375],[11.61878,43.01365],[11.6181,43.01338],[11.61783,43.01316],[11.61776,43.01302],[11.61762,43.01238],[11.61739,43.01178],[11.61742,43.01165],[11.61753,43.01155],[11.61769,43.0115],[11.618,43.01148],[11.61825,43.01153],[11.61879,43.01179],[11.61891,43.01191],[11.619,43.01253],[11.61907,43.0127],[11.61918,43.01288],[11.61933,43.01304],[11.61951,43.01315],[11.61965,43.01316],[11.61977,43.0131],[11.61981,43.01304],[11.61978,43.01292],[11.61953,43.01259],[11.61945,43.01234],[11.61948,43.0122],[11.61986,43.01144],[11.62001,43.01128],[11.62068,43.01083],[11.62108,43.01037],[11.62163,43.00991],[11.62194,43.0091],[11.62203,43.00882],[11.62204,43.00866],[11.62172,43.00779],[11.62175,43.00735],[11.62163,43.00725],[11.6204,43.00691],[11.62022,43.00691],[11.62013,43.00697],[11.62016,43.0071],[11.62068,43.0073],[11.62079,43.00741],[11.62086,43.00762],[11.62077,43.0078],[11.62034,43.00805],[11.62005,43.00818],[11.61983,43.00822],[11.61925,43.00819],[11.61903,43.00826],[11.61855,43.00848],[11.61844,43.00846],[11.61837,43.00842],[11.61834,43.00834],[11.61837,43.00826],[11.61862,43.00801],[11.6191,43.00774],[11.61915,43.00766],[11.6191,43.00755],[11.61878,43.00735],[11.61853,43.0073],[11.6183,43.00733],[11.61812,43.00739],[11.618,43.0075],[11.61806,43.00776],[11.61798,43.00787],[11.61764,43.00798],[11.61749,43.00799],[11.61738,43.00796],[11.6169,43.00731],[11.61688,43.0069],[11.61667,43.00648],[11.61663,43.00635],[11.6167,43.00586],[11.61708,43.00544],[11.61714,43.0053],[11.61712,43.00517],[11.61695,43.00482],[11.61698,43.00445],[11.61691,43.0043],[11.61628,43.00369],[11.616,43.00346],[11.61486,43.00302],[11.61419,43.00255],[11.6136,43.002],[11.61327,43.00152],[11.61307,43.00129],[11.61285,43.00113],[11.61241,43.00088],[11.6119,43.00039],[11.61133,43.0]]},"properties":{}},{"type":"Feature","geometry":{"type":"LineString","coordinates":[[11.6253,43.02835],[11.62438,43.02802],[11.62389,43.02794],[11.62355,43.02792],[11.62311,43.02797],[11.62237,43.02815],[11.62089,43.02838],[11.61976,43.02851],[11.61957,43.02851],[11.61938,43.02847]]},"properties":{}},{"type":"Feature","geometry":{"type":"LineString","coordinates":[[11.62906,43.26619],[11.6291,43.26569],[11.62929,43.26473],[11.62964,43.26371],[11.6322,43.25828],[11.63284,43.2573],[11.6334,43.25659],[11.63582,43.2542],[11.63649,43.25361],[11.63761,43.25281],[11.64256,43.24971],[11.64538,43.24801],[11.64643,43.24752],[11.64742,43.24717],[11.64858,43.24688],[11.64968,43.24669],[11.65093,43.24661],[11.65152,43.24661],[11.65212,43.24664],[11.65332,43.24676],[11.66422,43.2485],[11.66631,43.24891],[11.66706,43.24908],[11.66851,43.24949],[11.66927,43.24973],[11.67261,43.25097],[11.67391,43.25142],[11.67489,43.25168],[11.67922,43.25246],[11.68422,43.25358],[11.68508,43.25381],[11.68586,43.25406],[11.68917,43.25546],[11.68961,43.25562],[11.69004,43.25574],[11.69101,43.25594],[11.69231,43.25603],[11.69834,43.25621],[11.69975,43.25614],[11.70074,43.256],[11.70298,43.25557],[11.70685,43.25439]]},"properties":{}},{"type":"Feature","geometry":{"type":"LineString","coordinates":[[11.65776,43.5],[11.65872,43.49961],[11.66256,43.49822],[11.66327,43.49791],[11.66397,43.49756],[11.66494,43.49695],[11.66584,43.49627],[11.66639,43.49577],[11.66797,43.49421],[11.66853,43.49371],[11.66948,43.49302],[11.67017,43.49261],[11.67091,43.49224],[11.67169,43.49192],[11.67251,43.49164],[11.67379,43.49132],[11.68146,43.4898],[11.69486,43.48702],[11.70251,43.48537],[11.70911,43.48388],[11.71036,43.48372],[11.71164,43.48363],[11.7125,43.48363],[11.7184,43.48405],[11.71888,43.48402],[11.72022,43.4838],[11.72124,43.48349],[11.7241,43.48227],[11.72525,43.48181],[11.72793,43.48084],[11.7339,43.47856],[11.7346,43.47828],[11.73527,43.47796],[11.73621,43.4774],[11.73679,43.47698],[11.73734,43.47653],[11.7381,43.4758],[11.73856,43.47529],[11.73898,43.47476],[11.74065,43.4722],[11.74194,43.47063],[11.74298,43.46959],[11.74756,43.46532],[11.75001,43.4631],[11.75113,43.46194],[11.75197,43.46094],[11.75286,43.45959],[11.7531,43.45902],[11.75341,43.45779],[11.75362,43.45714],[11.75398,43.45587],[11.75476,43.45351],[11.7555,43.45103],[11.75576,43.45047],[11.75593,43.45021],[11.75636,43.44971],[11.75663,43.44949],[11.75723,43.44909],[11.75757,43.44891],[11.75832,43.44862],[11.75915,43.44841],[11.76265,43.44781],[11.76398,43.4475],[11.76482,43.44727],[11.76603,43.44683],[11.7668,43.44649],[11.76753,43.4461],[11.76822,43.44566],[11.77146,43.44335],[11.77232,43.44268],[11.77312,43.44187],[11.77361,43.44133],[11.77401,43.44079],[11.77451,43.43995],[11.77492,43.43897]]},"properties":{}},{"type":"Feature","geometry":{"type":"LineString","coordinates":[[11.77505,43.439],[11.77464,43.43999],[11.77375,43.44138],[11.77297,43.44222],[11.77242,43.44275],[11.77137,43.44358],[11.76833,43.44573],[11.76744,43.44629],[11.7662,43.44691],[11.76542,43.44724],[11.76403,43.44767],[11.7627,43.44797],[11.75942,43.44858],[11.7586,43.44876],[11.75809,43.44892],[11.75761,43.44912],[11.75717,43.44936],[11.75659,43.44978],[11.75626,43.45009],[11.75586,43.45061],[11.75567,43.45098],[11.75553,43.45136],[11.75501,43.45322],[11.75411,43.45594],[11.75374,43.4573],[11.75354,43.45782],[11.75321,43.45905],[11.75294,43.45964],[11.7527,43.46006],[11.75207,43.46099],[11.75168,43.46147],[11.7509,43.46232],[11.74361,43.46918],[11.74308,43.46962],[11.74254,43.4702],[11.74186,43.47096],[11.74081,43.47224],[11.739,43.47504],[11.73827,43.4759],[11.73786,43.47631],[11.73718,43.47689],[11.73643,43.47743],[11.73532,43.47808],[11.73412,43.47863],[11.72533,43.48193],[11.72105,43.48369],[11.72044,43.48389],[11.71978,43.48404],[11.7191,43.48413],[11.7184,43.48415],[11.71769,43.48413],[11.71339,43.48381],[11.71234,43.48378],[11.71096,43.4838],[11.7096,43.48395],[11.70825,43.48419],[11.70048,43.48595],[11.69744,43.48661],[11.67329,43.49159],[11.67265,43.49177],[11.6714,43.4922],[11.67052,43.49261],[11.66969,43.49306],[11.66918,43.4934],[11.66825,43.49413],[11.6661,43.49622],[11.66526,43.49688],[11.66433,43.49748],[11.66306,43.49814],[11.66223,43.49848],[11.65807,43.5]]},"properties":{}},{"type":"Feature","geometry":{"type":"LineString","coordinates":[[11.70685,43.25439],[11.70734,43.25418],[11.70826,43.2539],[11.70995,43.25313],[11.71015,43.25298],[11.7103,43.25279],[11.7103,43.25271],[11.71022,43.25246],[11.71023,43.2524]]},"properties":{}},{"type":"Feature","geometry":{"type":"LineString","coordinates":[[11.70685,43.25439],[11.71115,43.2531],[11.71193,43.25285],[11.71273,43.25254],[11.71362,43.25213],[11.71451,43.25162],[11.71545,43.25098],[11.71607,43.25047],[11.71671,43.24986],[11.71837,43.24804],[11.72002,43.24619],[11.72146,43.24446],[11.72345,43.24172],[11.72509,43.23936],[11.72757,43.2355],[11.73031,43.23153],[11.73077,43.23089],[11.73124,43.23038],[11.73172,43.22996],[11.73227,43.2296],[11.7351,43.22811],[11.73696,43.22716],[11.7378,43.22682],[11.73851,43.22657]]},"properties":{}},{"type":"Feature","geometry":{"type":"LineString","coordinates":[[11.73851,43.22657],[11.73875,43.22645],[11.73995,43.22604],[11.74039,43.22574],[11.7406,43.22549],[11.74117,43.22448],[11.74126,43.22426],[11.74131,43.22424],[11.74152,43.22391],[11.74168,43.22372],[11.74234,43.22314],[11.74288,43.22251],[11.74331,43.22209],[11.74379,43.22128],[11.74403,43.22077],[11.74417,43.22039],[11.74426,43.21934],[11.74418,43.21786],[11.74404,43.21719],[11.74406,43.21653],[11.74399,43.21633]]},"properties":{}},{"type":"Feature","geometry":{"type":"LineString","coordinates":[[11.73851,43.22657],[11.74877,43.22331],[11.75014,43.22295],[11.75166,43.22271],[11.75277,43.22262],[11.75405,43.22258],[11.77672,43.22218],[11.7783,43.22208],[11.77922,43.22195],[11.78,43.22181],[11.78074,43.22162],[11.78166,43.22135],[11.78272,43.22094],[11.79447,43.21573],[11.79519,43.21546],[11.79593,43.21527],[11.79695,43.2151],[11.79976,43.21476],[11.80077,43.21467],[11.801,43.21463],[11.80186,43.21462],[11.80212,43.21457],[11.80226,43.2145],[11.803,43.21399],[11.80509,43.21236],[11.80519,43.21221],[11.80523,43.21205]]},"properties":{}},{"type":"Feature","geometry":{"type":"LineString","coordinates":[[11.74402,43.21608],[11.74456,43.21615],[11.74459,43.21618],[11.74458,43.21635],[11.74453,43.21641],[11.7444,43.21642],[11.74427,43.21641],[11.74416,43.21633],[11.74399,43.21633]]},"properties":{}},{"type":"Feature","geometry":{"type":"LineString","coordinates":[[11.74399,43.21633],[11.7439,43.21626],[11.74389,43.2162],[11.74392,43.21613],[11.74402,43.21608]]},"properties":{}},{"type":"Feature","geometry":{"type":"LineString","coordinates":[[11.74402,43.21608],[11.7441,43.21592],[11.74411,43.21573],[11.74411,43.21488],[11.74407,43.21478],[11.74383,43.21455],[11.74363,43.21395],[11.74362,43.21385],[11.74376,43.21327],[11.74438,43.21207],[11.74474,43.21114],[11.74509,43.21016],[11.74511,43.20993],[11.74506,43.20941],[11.74499,43.2092],[11.74488,43.20904]]},"properties":{}},{"type":"Feature","geometry":{"type":"LineString","coordinates":[[11.74485,43.20901],[11.74453,43.20863],[11.74444,43.20842],[11.74409,43.20699],[11.74408,43.20662],[11.74414,43.20605],[11.74412,43.20586],[11.744,43.20557],[11.74329,43.20429],[11.74325,43.20413],[11.74321,43.20333],[11.74293,43.20251],[11.74304,43.20177],[11.74388,43.20009],[11.74398,43.19981],[11.7441,43.19678],[11.74413,43.19663],[11.74418,43.19653],[11.74443,43.19633],[11.74678,43.19511],[11.74854,43.19383],[11.74889,43.19371],[11.74975,43.19356],[11.75018,43.1934],[11.75139,43.19275],[11.76367,43.18645],[11.76605,43.18518],[11.76927,43.1836],[11.76955,43.1834],[11.76978,43.18311],[11.77,43.18256],[11.77008,43.18245],[11.77245,43.17731],[11.77356,43.17476],[11.77376,43.1741],[11.77454,43.16964],[11.77466,43.1692],[11.77473,43.16906],[11.77485,43.169],[11.77544,43.16903],[11.77607,43.16926],[11.77651,43.16937],[11.7781,43.16948],[11.77912,43.1696],[11.7797,43.16978],[11.78,43.16995],[11.78052,43.17006],[11.78155,43.1702],[11.78225,43.17047],[11.78254,43.17043],[11.78271,43.17033],[11.78315,43.16981],[11.78335,43.16947],[11.78396,43.16781],[11.78428,43.16668],[11.78466,43.16606],[11.78505,43.16559],[11.78514,43.16542],[11.78517,43.16525],[11.78513,43.16509],[11.78468,43.16407],[11.78466,43.1637],[11.78474,43.16354],[11.78507,43.16322],[11.78657,43.1622],[11.78682,43.16193],[11.78685,43.16188],[11.78685,43.16175],[11.78696,43.16162],[11.78717,43.16155],[11.78751,43.16152],[11.78781,43.16141],[11.78869,43.16087],[11.78913,43.16056],[11.78998,43.15963],[11.7908,43.15864],[11.79171,43.15768],[11.79221,43.1571],[11.79265,43.15641],[11.7929,43.15594],[11.79379,43.15351],[11.79385,43.15314],[11.79377,43.15204],[11.79384,43.15181],[11.79401,43.15163],[11.79519,43.15064],[11.79619,43.14937],[11.79708,43.14852],[11.79755,43.14818],[11.79825,43.14787],[11.79858,43.14775],[11.79895,43.14772],[11.7995,43.1478],[11.79979,43.14781],[11.801,43.14766],[11.80295,43.14705],[11.80432,43.14673],[11.80512,43.14663],[11.8054,43.14656],[11.80569,43.14641],[11.80644,43.14591],[11.80662,43.14586],[11.80716,43.14578],[11.80759,43.14558],[11.80788,43.14535],[11.80905,43.14415],[11.80944,43.14386],[11.80975,43.14372],[11.81224,43.14321],[11.81396,43.14299],[11.81524,43.14267],[11.81556,43.14265],[11.81632,43.14271],[11.8173,43.14264],[11.81774,43.14252],[11.8179,43.14244],[11.81828,43.14215],[11.81962,43.14098],[11.82048,43.14028],[11.82263,43.13869],[11.82349,43.13809],[11.82428,43.13767],[11.82473,43.13728],[11.82501,43.13689],[11.82528,43.1363],[11.82545,43.13603],[11.82854,43.13215],[11.82852,43.13208],[11.82843,43.13203],[11.8274,43.13189],[11.82643,43.13166],[11.82623,43.13158],[11.82614,43.13146],[11.82618,43.13128],[11.82683,43.13024],[11.82685,43.12999],[11.82678,43.12915],[11.82687,43.12856],[11.8268,43.12841],[11.82667,43.1283],[11.82501,43.12716],[11.82485,43.12701],[11.82473,43.12676],[11.82471,43.12642],[11.82533,43.1229],[11.82529,43.12269],[11.8252,43.12253],[11.82459,43.12181]]},"properties":{}},{"type":"Feature","geometry":{"type":"LineString","coordinates":[[11.77505,43.439],[11.77492,43.43897]]},"properties":{}},{"type":"Feature","geometry":{"type":"LineString","coordinates":[[11.77492,43.43897],[11.77412,43.43876],[11.77392,43.43861],[11.77387,43.43848],[11.77387,43.43835],[11.77394,43.43818],[11.77409,43.43808],[11.77438,43.43801],[11.77485,43.43799],[11.77505,43.43792],[11.77524,43.43781],[11.77536,43.4377],[11.77574,43.43692]]},"properties":{}},{"type":"Feature","geometry":{"type":"LineString","coordinates":[[11.77492,43.43897],[11.77574,43.43692]]},"properties":{}},{"type":"Feature","geometry":{"type":"LineString","coordinates":[[11.7793,43.43805],[11.77872,43.43801],[11.77851,43.43806],[11.77834,43.43816],[11.77817,43.43814],[11.778,43.43819],[11.77785,43.43825],[11.77697,43.43882],[11.7763,43.43906],[11.77583,43.43913],[11.77505,43.439]]},"properties":{}},{"type":"Feature","geometry":{"type":"LineString","coordinates":[[11.77591,43.43697],[11.77505,43.439]]},"properties":{}},{"type":"Feature","geometry":{"type":"LineString","coordinates":[[11.77574,43.43692],[11.77699,43.434],[11.77809,43.43119],[11.77836,43.43024],[11.77848,43.42927],[11.77848,43.42862],[11.77841,43.42797],[11.77828,43.42732],[11.77796,43.42638],[11.77767,43.42578],[11.77733,43.42519],[11.77693,43.42462],[11.77647,43.42406],[11.77474,43.4221],[11.76913,43.4156],[11.76702,43.41302],[11.76658,43.41244],[11.76578,43.41125],[11.76421,43.40845],[11.75922,43.39929],[11.75785,43.39668],[11.75732,43.3954],[11.75692,43.3941],[11.75671,43.39309],[11.75654,43.39142],[11.75654,43.38697],[11.75657,43.38464],[11.75661,43.38378],[11.75658,43.38198],[11.75665,43.37809],[11.75665,43.37671],[11.75659,43.37579],[11.75667,43.37398],[11.75676,43.37331],[11.75689,43.37265],[11.75732,43.37135],[11.75759,43.37072],[11.75866,43.3685],[11.76361,43.35905],[11.76392,43.35838],[11.76419,43.35767],[11.76438,43.35694],[11.76452,43.35607],[11.76457,43.35531],[11.76452,43.35432],[11.7643,43.35172],[11.76337,43.34189],[11.76297,43.33693],[11.76209,43.32787],[11.76151,43.32143],[11.76125,43.31808],[11.76122,43.31708],[11.76123,43.31574],[11.76263,43.30127],[11.76297,43.29825],[11.76332,43.29413],[11.76357,43.29173],[11.7638,43.28999],[11.76399,43.28894],[11.76423,43.28793],[11.76524,43.28433],[11.76573,43.28235],[11.76893,43.27063],[11.76938,43.26878],[11.76936,43.26769],[11.76926,43.26705],[11.76894,43.26609],[11.76792,43.2639],[11.76754,43.26299],[11.76744,43.26268],[11.76733,43.26206],[11.76732,43.26143],[11.76735,43.26112],[11.7674,43.26082],[11.76759,43.26021],[11.76858,43.25776],[11.77149,43.2502],[11.77177,43.24959],[11.77209,43.249],[11.77246,43.24842],[11.77289,43.24786],[11.77364,43.24707],[11.77897,43.24228],[11.78008,43.24123],[11.78288,43.2387],[11.7846,43.23734],[11.78551,43.23666],[11.78918,43.23419],[11.79011,43.23344],[11.79096,43.23265],[11.79838,43.22429],[11.79954,43.22292],[11.80194,43.22028],[11.80575,43.21593]]},"properties":{}},{"type":"Feature","geometry":{"type":"LineString","coordinates":[[11.77591,43.43697],[11.77569,43.43765],[11.77564,43.43783],[11.77564,43.43804],[11.77568,43.43829],[11.77578,43.43852],[11.77592,43.43868],[11.77608,43.43875],[11.77646,43.4388],[11.77677,43.4387],[11.77724,43.4384],[11.77803,43.43798],[11.77807,43.43788],[11.7782,43.43781],[11.77836,43.43781],[11.7793,43.43805]]},"properties":{}},{"type":"Feature","geometry":{"type":"LineString","coordinates":[[11.80585,43.21598],[11.80226,43.22007],[11.79963,43.22298],[11.7986,43.22418],[11.79173,43.23196],[11.79095,43.23281],[11.79008,43.23362],[11.78961,43.23399],[11.78862,43.23472],[11.78524,43.23696],[11.78426,43.2377],[11.78309,43.23867],[11.7782,43.24307],[11.7769,43.24429],[11.7738,43.24709],[11.77318,43.2477],[11.7728,43.24814],[11.77246,43.24859],[11.77202,43.24929],[11.77156,43.25026],[11.76777,43.26023],[11.76755,43.26093],[11.76747,43.26144],[11.76745,43.26195],[11.76751,43.26247],[11.76763,43.26297],[11.76782,43.26347],[11.76895,43.2659],[11.76925,43.26664],[11.76939,43.26714],[11.76948,43.26765],[11.76952,43.26842],[11.76951,43.26878],[11.76936,43.2697],[11.76741,43.27664],[11.7644,43.28786],[11.76412,43.28913],[11.76389,43.2904],[11.76366,43.29244],[11.76343,43.29413],[11.76143,43.31529],[11.76139,43.31606],[11.7614,43.31837],[11.76145,43.31939],[11.76176,43.32298],[11.76202,43.32529],[11.76258,43.33145],[11.76442,43.3517],[11.76464,43.35432],[11.76467,43.35532],[11.76464,43.35607],[11.7645,43.35693],[11.7643,43.35769],[11.76405,43.35839],[11.76372,43.35907],[11.75877,43.36853],[11.7577,43.37074],[11.75742,43.37137],[11.75715,43.37215],[11.75692,43.37336],[11.75683,43.37413],[11.75675,43.37578],[11.75678,43.37696],[11.75673,43.37927],[11.75672,43.38462],[11.75666,43.39135],[11.75677,43.39264],[11.7569,43.39341],[11.75707,43.39417],[11.75745,43.39542],[11.75796,43.39665],[11.75932,43.39926],[11.76168,43.40348],[11.76472,43.40909],[11.76556,43.41057],[11.7659,43.41125],[11.76635,43.41195],[11.76684,43.41262],[11.76778,43.41376],[11.76861,43.41486],[11.76977,43.41615],[11.7769,43.42442],[11.77755,43.42534],[11.77805,43.4263],[11.77825,43.42679],[11.77847,43.42754],[11.7786,43.42831],[11.77864,43.42907],[11.77859,43.42984],[11.77845,43.4306],[11.77813,43.4316],[11.77591,43.43697]]},"properties":{}},{"type":"Feature","geometry":{"type":"LineString","coordinates":[[11.7793,43.43805],[11.78076,43.43843],[11.78212,43.43887],[11.78543,43.44011],[11.79377,43.44338],[11.79484,43.44389],[11.79589,43.44453],[11.81181,43.45635],[11.81314,43.45728],[11.81393,43.45774],[11.81491,43.45818],[11.82148,43.46006],[11.8232,43.46045],[11.82475,43.46074],[11.82659,43.46101],[11.83168,43.46151],[11.83474,43.46184],[11.83544,43.46198],[11.83577,43.46208],[11.83641,43.46235],[11.83673,43.46253],[11.8374,43.46295],[11.83789,43.46338],[11.8384,43.46394],[11.83913,43.46491],[11.84007,43.46601],[11.84113,43.467],[11.84162,43.46736],[11.84228,43.46777],[11.84297,43.46811],[11.84407,43.46852],[11.8449,43.46872],[11.84575,43.46889],[11.84656,43.46895],[11.84756,43.46895],[11.84928,43.46886],[11.85762,43.46845],[11.85999,43.46829],[11.86029,43.4682],[11.86068,43.46789],[11.86088,43.46782],[11.86119,43.46778],[11.8616,43.4679]]},"properties":{}},{"type":"Feature","geometry":{"type":"LineString","coordinates":[[11.78534,43.09807],[11.78539,43.09799],[11.78529,43.0979],[11.78502,43.09715],[11.78504,43.09701],[11.78514,43.09691],[11.78513,43.09627],[11.7851,43.0962],[11.78458,43.09589],[11.78394,43.09566],[11.78293,43.09494],[11.78255,43.09491],[11.7823,43.09464],[11.78214,43.09441],[11.78207,43.0942],[11.78204,43.09398],[11.78214,43.09325],[11.78232,43.09288],[11.78232,43.09274],[11.78204,43.09235],[11.78143,43.09133],[11.78132,43.09125]]},"properties":{}},{"type":"Feature","geometry":{"type":"LineString","coordinates":[[11.78135,43.09113],[11.78126,43.091],[11.78119,43.09069],[11.78114,43.09059],[11.78054,43.09031],[11.77984,43.09009],[11.77971,43.09008],[11.77939,43.09019],[11.77924,43.09029],[11.77919,43.09036],[11.77922,43.09076],[11.77927,43.09093],[11.77935,43.09103],[11.77998,43.09152],[11.78035,43.09206],[11.78071,43.09267],[11.78118,43.09252],[11.78144,43.09237],[11.78128,43.09199],[11.78131,43.09185],[11.78132,43.09125]]},"properties":{}},{"type":"Feature","geometry":{"type":"LineString","coordinates":[[11.78132,43.09125],[11.78135,43.09113]]},"properties":{}},{"type":"Feature","geometry":{"type":"LineString","coordinates":[[11.78135,43.09113],[11.78164,43.09102],[11.78186,43.09082],[11.78196,43.0908],[11.78205,43.09082],[11.78214,43.09102],[11.78217,43.09125],[11.78226,43.0913],[11.7823,43.09149],[11.78256,43.09181],[11.78291,43.0921]]},"properties":{}},{"type":"Feature","geometry":{"type":"LineString","coordinates":[[11.78291,43.0921],[11.78325,43.09251],[11.78338,43.09276],[11.78345,43.09298],[11.78345,43.09323],[11.7832,43.0939],[11.78318,43.09404],[11.78331,43.0944],[11.78348,43.09464],[11.78377,43.09494],[11.78404,43.09508],[11.78429,43.09513],[11.785,43.09519],[11.78528,43.09533],[11.78549,43.0954],[11.78629,43.09615],[11.78702,43.09679],[11.78717,43.09704]]},"properties":{}},{"type":"Feature","geometry":{"type":"LineString","coordinates":[[11.78291,43.0921],[11.78246,43.09149],[11.78231,43.09094],[11.78216,43.09076],[11.78181,43.08996],[11.78158,43.08973],[11.78051,43.08929],[11.77911,43.08848],[11.7789,43.0884],[11.77803,43.0882],[11.77647,43.08744],[11.77617,43.08738],[11.77597,43.08731],[11.77612,43.08721],[11.77639,43.08684],[11.77674,43.08645],[11.77743,43.08583],[11.77818,43.08488],[11.77895,43.08406],[11.77902,43.0839],[11.77904,43.08376],[11.77899,43.08304],[11.77901,43.08272],[11.77907,43.08246],[11.77921,43.08217],[11.77936,43.08196],[11.77955,43.08178],[11.78063,43.08104],[11.78164,43.08004],[11.78175,43.07988],[11.78253,43.07783],[11.78269,43.07759],[11.78306,43.07734],[11.7841,43.07673],[11.78556,43.07619],[11.7868,43.07553],[11.78704,43.07536],[11.78722,43.07502],[11.78742,43.07482],[11.78784,43.07457],[11.78837,43.07433],[11.78869,43.07429],[11.78898,43.07434],[11.78915,43.07442],[11.78965,43.07479],[11.79025,43.07511],[11.79051,43.07519],[11.79075,43.07515],[11.79089,43.07502],[11.79158,43.07407],[11.79203,43.07295],[11.79225,43.07274],[11.79248,43.07264],[11.79267,43.07261],[11.79322,43.07265],[11.79358,43.07276],[11.79388,43.07293],[11.79439,43.07329],[11.7946,43.07355],[11.79505,43.07475],[11.7952,43.07493],[11.79535,43.07502],[11.79549,43.07506],[11.79573,43.07506],[11.79722,43.07475],[11.79752,43.07473],[11.7978,43.07475],[11.79826,43.07486],[11.79959,43.07547],[11.80052,43.07575],[11.8007,43.07578],[11.80084,43.07577],[11.80098,43.0757],[11.80102,43.07564],[11.801,43.07547],[11.80083,43.07534],[11.80009,43.07502],[11.79987,43.07489],[11.79972,43.07466],[11.79972,43.07443],[11.80004,43.0736],[11.80015,43.07344],[11.80042,43.07327],[11.80131,43.07297]]},"properties":{}},{"type":"Feature","geometry":{"type":"LineString","coordinates":[[11.78716,43.09843],[11.78696,43.09844],[11.78657,43.09837],[11.78534,43.09807]]},"properties":{}},{"type":"Feature","geometry":{"type":"LineString","coordinates":[[11.7861,43.10656],[11.786,43.10551],[11.78585,43.10453],[11.78542,43.09946],[11.78532,43.09817],[11.78534,43.09807]]},"properties":{}},{"type":"Feature","geometry":{"type":"LineString","coordinates":[[11.78895,43.10972],[11.78752,43.10892],[11.78724,43.1087],[11.78625,43.1072],[11.78615,43.1069],[11.7861,43.10656]]},"properties":{}},{"type":"Feature","geometry":{"type":"LineString","coordinates":[[11.7861,43.10656],[11.7879,43.10652],[11.78802,43.10648],[11.78806,43.10643],[11.78806,43.10635],[11.78798,43.10586],[11.78796,43.10554],[11.78802,43.10536],[11.78836,43.10466],[11.78834,43.10454],[11.78826,43.10443],[11.78746,43.10398],[11.78714,43.10374],[11.78699,43.10355],[11.78693,43.10332],[11.787,43.10312],[11.78743,43.1024],[11.78744,43.10228],[11.78738,43.10217],[11.78754,43.10217],[11.78809,43.10252],[11.78856,43.10202],[11.78857,43.10195],[11.78595,43.10068],[11.7861,43.10031],[11.78634,43.10013],[11.78682,43.09983],[11.78706,43.09964],[11.78722,43.09944],[11.7874,43.09902],[11.78779,43.09876],[11.78789,43.09865],[11.78786,43.09852],[11.78739,43.09849],[11.78729,43.09845]]},"properties":{}},{"type":"Feature","geometry":{"type":"LineString","coordinates":[[11.78729,43.09845],[11.78721,43.09847],[11.78716,43.09843]]},"properties":{}},{"type":"Feature","geometry":{"type":"LineString","coordinates":[[11.78716,43.09843],[11.78717,43.09838],[11.78724,43.09836]]},"properties":{}},{"type":"Feature","geometry":{"type":"LineString","coordinates":[[11.78717,43.09704],[11.7871,43.09756],[11.78724,43.09836]]},"properties":{}},{"type":"Feature","geometry":{"type":"LineString","coordinates":[[11.78717,43.09704],[11.78725,43.09692],[11.78724,43.09666]]},"properties":{}},{"type":"Feature","geometry":{"type":"LineString","coordinates":[[11.78724,43.09836],[11.7873,43.09839],[11.78729,43.09845]]},"properties":{}},{"type":"Feature","geometry":{"type":"LineString","coordinates":[[11.78895,43.10972],[11.78941,43.10978]]},"properties":{}},{"type":"Feature","geometry":{"type":"LineString","coordinates":[[11.78941,43.10978],[11.78918,43.10979],[11.7891,43.10982],[11.78895,43.10972]]},"properties":{}},{"type":"Feature","geometry":{"type":"LineString","coordinates":[[11.78941,43.10978],[11.78966,43.10979],[11.78994,43.10975],[11.79061,43.10955],[11.7912,43.10942],[11.79293,43.10935],[11.79319,43.10927],[11.79353,43.10911],[11.79387,43.10884]]},"properties":{}},{"type":"Feature","geometry":{"type":"LineString","coordinates":[[11.79387,43.10884],[11.7941,43.10862],[11.79439,43.10842],[11.79453,43.10839],[11.79459,43.10842],[11.79463,43.1087],[11.79459,43.1088],[11.79415,43.1089],[11.79387,43.10884]]},"properties":{}},{"type":"Feature","geometry":{"type":"LineString","coordinates":[[11.80141,43.07317],[11.80131,43.07297]]},"properties":{}},{"type":"Feature","geometry":{"type":"LineString","coordinates":[[11.80131,43.07297],[11.80544,43.07159],[11.80624,43.07123],[11.80659,43.07103],[11.80676,43.07084],[11.8073,43.07009],[11.80878,43.06835],[11.80905,43.06792],[11.80949,43.06705],[11.80966,43.06681],[11.81144,43.06504],[11.81166,43.06487],[11.81199,43.06477],[11.81238,43.06481],[11.81263,43.06492],[11.81326,43.06534],[11.81347,43.0654],[11.81378,43.06542],[11.814,43.06539],[11.81425,43.0653],[11.81485,43.06484],[11.81523,43.06467],[11.81551,43.06463],[11.81575,43.06462],[11.81687,43.06476],[11.81718,43.06477],[11.81759,43.06467],[11.81778,43.06457],[11.81793,43.06444],[11.81805,43.06426],[11.81809,43.06412],[11.81808,43.06382],[11.81742,43.06274],[11.81729,43.06245],[11.81708,43.06178],[11.81707,43.06147],[11.81729,43.06032],[11.81728,43.06007],[11.81719,43.05995],[11.81708,43.05985],[11.81624,43.0594],[11.81601,43.0592],[11.81597,43.05911],[11.81597,43.05892],[11.816,43.05882],[11.81632,43.05832],[11.81649,43.05823],[11.81682,43.05819],[11.81733,43.05824],[11.81839,43.05856],[11.81918,43.05887],[11.82012,43.05894],[11.82048,43.05889],[11.82069,43.05881],[11.82078,43.05871],[11.82089,43.05846],[11.82102,43.05839],[11.8212,43.05842],[11.8215,43.05871],[11.82172,43.05872],[11.82185,43.05861],[11.82203,43.05827],[11.82213,43.0582],[11.82227,43.05816],[11.82238,43.05816],[11.82253,43.05824],[11.82283,43.05858],[11.82294,43.05862],[11.82305,43.05861],[11.82317,43.05852],[11.82321,43.05821],[11.82326,43.05809],[11.82341,43.05798],[11.82369,43.05787],[11.82388,43.05791],[11.82406,43.05817],[11.82424,43.05825],[11.82471,43.05827],[11.82564,43.05822]]},"properties":{}},{"type":"Feature","geometry":{"type":"LineString","coordinates":[[11.80141,43.07317],[11.80224,43.07291],[11.80232,43.07292],[11.8024,43.07299],[11.80236,43.07306],[11.80228,43.0731],[11.80136,43.0732],[11.80141,43.07317]]},"properties":{}},{"type":"Feature","geometry":{"type":"LineString","coordinates":[[11.80462,43.21056],[11.80274,43.20866],[11.80263,43.20852],[11.80253,43.20829]]},"properties":{}},{"type":"Feature","geometry":{"type":"LineString","coordinates":[[11.80253,43.20829],[11.80225,43.2084],[11.80213,43.20855],[11.80193,43.20844],[11.80211,43.20829],[11.80231,43.20824],[11.80237,43.20816],[11.80246,43.20813],[11.80251,43.20812],[11.80253,43.20829]]},"properties":{}},{"type":"Feature","geometry":{"type":"LineString","coordinates":[[11.80462,43.21056],[11.80542,43.2113]]},"properties":{}},{"type":"Feature","geometry":{"type":"LineString","coordinates":[[11.8053,43.21165],[11.80535,43.21144],[11.8053,43.21133],[11.80462,43.21056]]},"properties":{}},{"type":"Feature","geometry":{"type":"LineString","coordinates":[[11.80561,43.21215],[11.80542,43.21215],[11.80523,43.21205]]},"properties":{}},{"type":"Feature","geometry":{"type":"LineString","coordinates":[[11.80523,43.21205],[11.80515,43.21193],[11.80514,43.21184],[11.80521,43.21171],[11.8053,43.21165]]},"properties":{}},{"type":"Feature","geometry":{"type":"LineString","coordinates":[[11.8053,43.21165],[11.80543,43.21161],[11.80565,43.21162]]},"properties":{}},{"type":"Feature","geometry":{"type":"LineString","coordinates":[[11.80542,43.2113],[11.80571,43.21143],[11.80619,43.21151]]},"properties":{}},{"type":"Feature","geometry":{"type":"LineString","coordinates":[[11.80542,43.2113],[11.80565,43.21162]]},"properties":{}},{"type":"Feature","geometry":{"type":"LineString","coordinates":[[11.80651,43.21249],[11.80609,43.21224],[11.80561,43.21215]]},"properties":{}},{"type":"Feature","geometry":{"type":"LineString","coordinates":[[11.80589,43.21193],[11.80582,43.21205],[11.80561,43.21215]]},"properties":{}},{"type":"Feature","geometry":{"type":"LineString","coordinates":[[11.80565,43.21162],[11.80571,43.21164]]},"properties":{}},{"type":"Feature","geometry":{"type":"LineString","coordinates":[[11.80571,43.21164],[11.80585,43.21174],[11.8059,43.21188]]},"properties":{}},{"type":"Feature","geometry":{"type":"LineString","coordinates":[[11.80571,43.21164],[11.80619,43.21151]]},"properties":{}},{"type":"Feature","geometry":{"type":"LineString","coordinates":[[11.80585,43.21598],[11.80575,43.21593]]},"properties":{}},{"type":"Feature","geometry":{"type":"LineString","coordinates":[[11.80575,43.21593],[11.80646,43.21512],[11.80753,43.21377]]},"properties":{}},{"type":"Feature","geometry":{"type":"LineString","coordinates":[[11.80997,43.21793],[11.80585,43.21598]]},"properties":{}},{"type":"Feature","geometry":{"type":"LineString","coordinates":[[11.80773,43.21369],[11.80701,43.21461],[11.80585,43.21598]]},"properties":{}},{"type":"Feature","geometry":{"type":"LineString","coordinates":[[11.80589,43.21193],[11.80598,43.21205],[11.80639,43.21236],[11.80651,43.21249]]},"properties":{}},{"type":"Feature","geometry":{"type":"LineString","coordinates":[[11.8059,43.21188],[11.80589,43.21193]]},"properties":{}},{"type":"Feature","geometry":{"type":"LineString","coordinates":[[11.80655,43.2118],[11.8062,43.21178],[11.8059,43.21188]]},"properties":{}},{"type":"Feature","geometry":{"type":"LineString","coordinates":[[11.80619,43.21151],[11.8071,43.21154],[11.80793,43.21172]]},"properties":{}},{"type":"Feature","geometry":{"type":"LineString","coordinates":[[11.80714,43.21311],[11.80651,43.21249]]},"properties":{}},{"type":"Feature","geometry":{"type":"LineString","coordinates":[[11.80655,43.04043],[11.806,43.04055],[11.80599,43.04049],[11.80602,43.04042],[11.80614,43.04039],[11.80655,43.04043]]},"properties":{}},{"type":"Feature","geometry":{"type":"LineString","coordinates":[[11.80655,43.04043],[11.80732,43.04033],[11.80805,43.04018],[11.80835,43.04008],[11.80926,43.03968],[11.80958,43.03961],[11.81004,43.03957]]},"properties":{}},{"type":"Feature","geometry":{"type":"LineString","coordinates":[[11.80739,43.21181],[11.80655,43.2118]]},"properties":{}},{"type":"Feature","geometry":{"type":"LineString","coordinates":[[11.80655,43.2118],[11.80636,43.21186],[11.80628,43.21193],[11.80625,43.21203],[11.80626,43.21213],[11.80714,43.21311]]},"properties":{}},{"type":"Feature","geometry":{"type":"LineString","coordinates":[[11.80763,43.21359],[11.80714,43.21311]]},"properties":{}},{"type":"Feature","geometry":{"type":"LineString","coordinates":[[11.80763,43.21359],[11.80812,43.21255],[11.80816,43.21231],[11.80812,43.21217],[11.80795,43.21197],[11.80777,43.21189],[11.80739,43.21181]]},"properties":{}},{"type":"Feature","geometry":{"type":"LineString","coordinates":[[11.80793,43.21172],[11.80739,43.21181]]},"properties":{}},{"type":"Feature","geometry":{"type":"LineString","coordinates":[[11.80753,43.21377],[11.80763,43.21359]]},"properties":{}},{"type":"Feature","geometry":{"type":"LineString","coordinates":[[11.80753,43.21377],[11.80765,43.21362]]},"properties":{}},{"type":"Feature","geometry":{"type":"LineString","coordinates":[[11.80765,43.21362],[11.80763,43.21359]]},"properties":{}},{"type":"Feature","geometry":{"type":"LineString","coordinates":[[11.80773,43.21369],[11.80765,43.21362]]},"properties":{}},{"type":"Feature","geometry":{"type":"LineString","coordinates":[[11.80765,43.21362],[11.80884,43.21197]]},"properties":{}},{"type":"Feature","geometry":{"type":"LineString","coordinates":[[11.80966,43.21638],[11.80853,43.21455],[11.80824,43.21421],[11.80773,43.21369]]},"properties":{}},{"type":"Feature","geometry":{"type":"LineString","coordinates":[[11.80817,43.21309],[11.80773,43.21369]]},"properties":{}},{"type":"Feature","geometry":{"type":"LineString","coordinates":[[11.80793,43.21172],[11.80841,43.21182],[11.80884,43.21197]]},"properties":{}},{"type":"Feature","geometry":{"type":"LineString","coordinates":[[11.80793,43.21172],[11.80853,43.2116],[11.80877,43.21149],[11.80904,43.21129],[11.81021,43.20992],[11.81103,43.2088],[11.81132,43.20846]]},"properties":{}},{"type":"Feature","geometry":{"type":"LineString","coordinates":[[11.80894,43.21201],[11.80817,43.21309]]},"properties":{}},{"type":"Feature","geometry":{"type":"LineString","coordinates":[[11.809,43.21203],[11.80854,43.21268],[11.80817,43.21309]]},"properties":{}},{"type":"Feature","geometry":{"type":"LineString","coordinates":[[11.80884,43.21197],[11.80894,43.21201]]},"properties":{}},{"type":"Feature","geometry":{"type":"LineString","coordinates":[[11.80884,43.21197],[11.81132,43.20846]]},"properties":{}},{"type":"Feature","geometry":{"type":"LineString","coordinates":[[11.80894,43.21201],[11.809,43.21203]]},"properties":{}},{"type":"Feature","geometry":{"type":"LineString","coordinates":[[11.81056,43.20975],[11.80894,43.21201]]},"properties":{}},{"type":"Feature","geometry":{"type":"LineString","coordinates":[[11.809,43.21203],[11.80964,43.21226],[11.80985,43.21228],[11.81003,43.21225],[11.81018,43.21218],[11.81033,43.21201],[11.81034,43.2118],[11.8102,43.21161]]},"properties":{}},{"type":"Feature","geometry":{"type":"LineString","coordinates":[[11.8102,43.21161],[11.80994,43.21152],[11.80976,43.21151],[11.80961,43.21154],[11.80939,43.21164],[11.80922,43.21176],[11.809,43.21203]]},"properties":{}},{"type":"Feature","geometry":{"type":"LineString","coordinates":[[11.80966,43.21638],[11.80985,43.21657],[11.81025,43.21673],[11.81036,43.21688]]},"properties":{}},{"type":"Feature","geometry":{"type":"LineString","coordinates":[[11.80991,43.21751],[11.80989,43.21733],[11.80983,43.21719],[11.80969,43.21712],[11.8096,43.217],[11.8096,43.21686],[11.80968,43.21675],[11.8097,43.2166],[11.80966,43.21638]]},"properties":{}},{"type":"Feature","geometry":{"type":"LineString","coordinates":[[11.80997,43.21793],[11.80992,43.21769],[11.80991,43.21751]]},"properties":{}},{"type":"Feature","geometry":{"type":"LineString","coordinates":[[11.81036,43.21688],[11.81037,43.21695],[11.81031,43.21708],[11.81003,43.21725],[11.80991,43.21751]]},"properties":{}},{"type":"Feature","geometry":{"type":"LineString","coordinates":[[11.81153,43.21925],[11.8116,43.21907],[11.81161,43.21896],[11.81156,43.21881],[11.81149,43.21873],[11.81058,43.21822],[11.80997,43.21793]]},"properties":{}},{"type":"Feature","geometry":{"type":"LineString","coordinates":[[11.8102,43.21965],[11.81014,43.21866],[11.80997,43.21793]]},"properties":{}},{"type":"Feature","geometry":{"type":"LineString","coordinates":[[11.81004,43.03957],[11.81007,43.03946],[11.81093,43.03876],[11.81134,43.03832],[11.81153,43.03819],[11.81274,43.03796],[11.81304,43.03798],[11.81328,43.03811],[11.81337,43.03823],[11.8134,43.03841],[11.81338,43.0385],[11.81326,43.03866],[11.813,43.03882],[11.81221,43.03907],[11.81215,43.03916]]},"properties":{}},{"type":"Feature","geometry":{"type":"LineString","coordinates":[[11.81215,43.03916],[11.81168,43.0392],[11.81074,43.03949],[11.81004,43.03957]]},"properties":{}},{"type":"Feature","geometry":{"type":"LineString","coordinates":[[11.8102,43.21965],[11.81025,43.2199],[11.81038,43.22003],[11.81048,43.22007],[11.81066,43.22006],[11.81089,43.21997]]},"properties":{}},{"type":"Feature","geometry":{"type":"LineString","coordinates":[[11.81089,43.21997],[11.81062,43.22026],[11.81059,43.22038],[11.81051,43.22047],[11.81029,43.22055],[11.81002,43.2205],[11.8099,43.22038],[11.80987,43.22027],[11.80993,43.22014],[11.81015,43.21992],[11.8102,43.21965]]},"properties":{}},{"type":"Feature","geometry":{"type":"LineString","coordinates":[[11.81056,43.20975],[11.81007,43.21055],[11.80994,43.21088],[11.80993,43.21113],[11.80996,43.21128],[11.8102,43.21161]]},"properties":{}},{"type":"Feature","geometry":{"type":"LineString","coordinates":[[11.81036,43.21688],[11.81046,43.21699],[11.81065,43.21712],[11.81194,43.21772],[11.81225,43.2179],[11.81232,43.21799],[11.81237,43.21812],[11.81228,43.21853],[11.8123,43.21873],[11.81237,43.21885],[11.8125,43.21897],[11.81268,43.21909],[11.81347,43.21944],[11.81363,43.21956],[11.81459,43.21996],[11.81604,43.22047],[11.8179,43.22101],[11.82879,43.22378],[11.83052,43.22438],[11.83624,43.22674],[11.83743,43.22742],[11.83835,43.228],[11.83919,43.22864],[11.84304,43.23189],[11.84384,43.23249],[11.84449,43.23284],[11.84527,43.23311],[11.84651,43.23345],[11.8475,43.23358],[11.84831,43.23357],[11.84943,43.23341],[11.85032,43.23317],[11.85127,43.23277],[11.85369,43.23133],[11.85471,43.23098],[11.85567,43.23075],[11.85687,43.23069],[11.86113,43.23076],[11.86588,43.23074],[11.86725,43.23064],[11.87152,43.23014],[11.87673,43.22959],[11.87899,43.22946],[11.8806,43.22947],[11.88272,43.22959],[11.88363,43.22961],[11.88445,43.22958],[11.88574,43.22946],[11.88648,43.22935],[11.88728,43.22918],[11.8884,43.22889],[11.88946,43.22855],[11.89179,43.22756],[11.89311,43.22709],[11.89517,43.22653],[11.89798,43.22589],[11.89943,43.22529],[11.90072,43.22459],[11.90233,43.22355],[11.90398,43.22275],[11.90541,43.22219],[11.90729,43.22176],[11.90855,43.22158],[11.91401,43.22109],[11.91613,43.22073],[11.91708,43.22042],[11.91835,43.21993],[11.9199,43.21923],[11.92055,43.21898],[11.92301,43.21825],[11.92426,43.21798],[11.9284,43.21743],[11.93062,43.21703],[11.93229,43.21659],[11.93429,43.216],[11.93682,43.21505],[11.94025,43.21364],[11.94181,43.21286],[11.94287,43.21226],[11.94413,43.21142],[11.94532,43.21058],[11.94634,43.20994],[11.94768,43.2092],[11.94885,43.20871],[11.95029,43.20818],[11.95172,43.20776],[11.95466,43.20713],[11.95681,43.20663],[11.95941,43.20595],[11.96353,43.20465],[11.97517,43.20048],[11.97782,43.19951],[11.98615,43.19612],[11.98835,43.1953],[11.99039,43.19462],[12.0,43.19159]]},"properties":{}},{"type":"Feature","geometry":{"type":"LineString","coordinates":[[11.8774,43.11211],[11.87184,43.11775],[11.87138,43.11839],[11.87106,43.11903],[11.8709,43.11948],[11.87081,43.11991],[11.87076,43.12029],[11.87076,43.12076],[11.87134,43.12529],[11.87139,43.12601],[11.87131,43.12681],[11.87114,43.12751],[11.87089,43.12812],[11.87062,43.12859],[11.86997,43.12951],[11.84733,43.15696],[11.83657,43.17004],[11.83605,43.17071],[11.83556,43.1714],[11.83496,43.17233],[11.82862,43.18274],[11.82162,43.19411],[11.82073,43.19543],[11.81056,43.20975]]},"properties":{}},{"type":"Feature","geometry":{"type":"LineString","coordinates":[[11.81069,43.0423],[11.81096,43.04251],[11.81193,43.04263]]},"properties":{}},{"type":"Feature","geometry":{"type":"LineString","coordinates":[[11.81153,43.21925],[11.81089,43.21997]]},"properties":{}},{"type":"Feature","geometry":{"type":"LineString","coordinates":[[11.81132,43.20846],[11.81974,43.19665],[11.8215,43.19409],[11.82385,43.19028],[11.83472,43.17234],[11.83532,43.17141],[11.8358,43.17073],[11.83632,43.17006],[11.84724,43.15691],[11.85408,43.14855],[11.86463,43.1358],[11.86674,43.13323],[11.87052,43.12855],[11.87076,43.12812],[11.871,43.12757],[11.87119,43.12686],[11.87127,43.12615],[11.87124,43.12547],[11.87064,43.12076],[11.87063,43.12049],[11.87069,43.1199],[11.87078,43.11949],[11.87094,43.11903],[11.87137,43.1182],[11.87171,43.11774],[11.87728,43.11209]]},"properties":{}},{"type":"Feature","geometry":{"type":"LineString","coordinates":[[12.0,43.19166],[11.99041,43.19469],[11.98838,43.19536],[11.98619,43.19618],[11.9788,43.1992],[11.97688,43.19993],[11.96241,43.20512],[11.95945,43.206],[11.95681,43.20672],[11.95174,43.20786],[11.95031,43.20827],[11.94889,43.20879],[11.94775,43.20928],[11.94643,43.21],[11.94537,43.21066],[11.94297,43.21232],[11.94214,43.21278],[11.94012,43.2138],[11.93689,43.2151],[11.93432,43.21609],[11.93232,43.2167],[11.9307,43.21711],[11.92842,43.21752],[11.92429,43.21806],[11.92207,43.21859],[11.92097,43.21891],[11.91993,43.2193],[11.91874,43.21985],[11.91768,43.22028],[11.91617,43.22081],[11.91451,43.22109],[11.91362,43.2212],[11.90856,43.22169],[11.90734,43.22186],[11.90551,43.22225],[11.90403,43.22282],[11.90302,43.2233],[11.90241,43.22363],[11.90079,43.22463],[11.8995,43.22533],[11.89802,43.22597],[11.89367,43.22703],[11.89179,43.22765],[11.89065,43.22811],[11.88941,43.22865],[11.88839,43.22897],[11.88732,43.22925],[11.88651,43.22942],[11.88576,43.22953],[11.8844,43.22965],[11.88366,43.22968],[11.88269,43.22966],[11.88148,43.22957],[11.88056,43.22954],[11.87899,43.22954],[11.87521,43.22982],[11.87444,43.22994],[11.86989,43.23042],[11.86716,43.23075],[11.86596,43.23083],[11.86051,43.23087],[11.85691,43.23078],[11.8557,43.23085],[11.85476,43.23106],[11.85379,43.23138],[11.85136,43.2328],[11.8503,43.23328],[11.84955,43.23348],[11.84836,43.23368],[11.84746,43.23369],[11.84653,43.23357],[11.8452,43.23319],[11.84443,43.23288],[11.84371,43.23248],[11.84182,43.231],[11.83909,43.22867],[11.83826,43.22804],[11.83737,43.22748],[11.83614,43.2268],[11.83133,43.22484],[11.83046,43.22444],[11.82874,43.22385],[11.8173,43.22093],[11.81602,43.22054],[11.81456,43.22003],[11.81345,43.21956],[11.81324,43.21952],[11.81233,43.21912],[11.81191,43.21909],[11.81174,43.21913],[11.81153,43.21925]]},"properties":{}},{"type":"Feature","geometry":{"type":"LineString","coordinates":[[11.81424,43.0447],[11.81322,43.04402],[11.81301,43.04393],[11.81252,43.04384],[11.8124,43.04377],[11.81228,43.04363],[11.81217,43.04345],[11.81194,43.04281],[11.81193,43.04263]]},"properties":{}},{"type":"Feature","geometry":{"type":"LineString","coordinates":[[11.81193,43.04263],[11.81201,43.04254],[11.8124,43.04225],[11.81247,43.04215],[11.81249,43.04205],[11.81201,43.04086],[11.81184,43.04012],[11.81184,43.03997],[11.81193,43.03985],[11.81215,43.03978],[11.81244,43.03982],[11.81298,43.04],[11.81318,43.03995],[11.81325,43.03983],[11.81323,43.03975],[11.81315,43.03968],[11.81261,43.03932],[11.81236,43.0392],[11.81215,43.03916]]},"properties":{}},{"type":"Feature","geometry":{"type":"LineString","coordinates":[[11.81554,43.04292],[11.81435,43.04469],[11.81424,43.0447]]},"properties":{}},{"type":"Feature","geometry":{"type":"LineString","coordinates":[[11.81424,43.0447],[11.81487,43.04512],[11.81403,43.04619],[11.81447,43.04631],[11.8154,43.04647],[11.8156,43.04656],[11.8157,43.04663],[11.81635,43.04753],[11.8174,43.04826],[11.81777,43.04943],[11.81846,43.05017],[11.81673,43.04985],[11.81623,43.04981],[11.81546,43.04989],[11.81539,43.04997],[11.81538,43.05007],[11.81537,43.05017],[11.81543,43.05027],[11.81582,43.05067],[11.81739,43.05213],[11.81746,43.05213],[11.81945,43.05121],[11.8208,43.0528],[11.82157,43.05425],[11.82158,43.05449],[11.82111,43.05542],[11.82108,43.05552],[11.82113,43.05563]]},"properties":{}},{"type":"Feature","geometry":{"type":"LineString","coordinates":[[11.81424,43.0447],[11.81422,43.04464],[11.81427,43.04454],[11.81535,43.04293]]},"properties":{}},{"type":"Feature","geometry":{"type":"LineString","coordinates":[[11.81554,43.04292],[11.81545,43.04296],[11.81535,43.04293]]},"properties":{}},{"type":"Feature","geometry":{"type":"LineString","coordinates":[[11.81535,43.04293],[11.81634,43.04147]]},"properties":{}},{"type":"Feature","geometry":{"type":"LineString","coordinates":[[11.81663,43.0415],[11.81651,43.0415],[11.81646,43.04153],[11.81554,43.04292]]},"properties":{}},{"type":"Feature","geometry":{"type":"LineString","coordinates":[[11.81634,43.04147],[11.81643,43.04127],[11.81658,43.04124],[11.81675,43.04137],[11.81728,43.04158],[11.81722,43.04171]]},"properties":{}},{"type":"Feature","geometry":{"type":"LineString","coordinates":[[11.81634,43.04147],[11.81648,43.04144],[11.81663,43.0415]]},"properties":{}},{"type":"Feature","geometry":{"type":"LineString","coordinates":[[11.81663,43.0415],[11.81722,43.04171]]},"properties":{}},{"type":"Feature","geometry":{"type":"LineString","coordinates":[[11.81722,43.04171],[11.81792,43.04196]]},"properties":{}},{"type":"Feature","geometry":{"type":"LineString","coordinates":[[11.81792,43.04196],[11.81825,43.04201],[11.81859,43.04196]]},"properties":{}},{"type":"Feature","geometry":{"type":"LineString","coordinates":[[11.81884,43.04205],[11.81821,43.04208],[11.81805,43.04204],[11.81792,43.04196]]},"properties":{}},{"type":"Feature","geometry":{"type":"LineString","coordinates":[[11.81859,43.04196],[11.81884,43.04205]]},"properties":{}},{"type":"Feature","geometry":{"type":"LineString","coordinates":[[11.81859,43.04196],[11.81884,43.04185],[11.81913,43.0416]]},"properties":{}},{"type":"Feature","geometry":{"type":"LineString","coordinates":[[11.81884,43.04205],[11.81829,43.04289],[11.81769,43.04366],[11.8176,43.04387],[11.81757,43.04405],[11.81757,43.0444],[11.81761,43.04456],[11.81784,43.04519],[11.81833,43.04673],[11.81842,43.04687],[11.8187,43.0471],[11.81876,43.04726],[11.81883,43.04734],[11.81869,43.04762],[11.81874,43.04788],[11.81947,43.04917],[11.82012,43.05008],[11.82071,43.05133],[11.82093,43.05162],[11.82127,43.05198],[11.82215,43.05276],[11.823,43.05342],[11.82315,43.05361],[11.82323,43.05402],[11.82319,43.05446],[11.82302,43.05485],[11.8226,43.05539],[11.82246,43.05593]]},"properties":{}},{"type":"Feature","geometry":{"type":"LineString","coordinates":[[11.81913,43.0416],[11.81884,43.04205]]},"properties":{}},{"type":"Feature","geometry":{"type":"LineString","coordinates":[[11.81913,43.0416],[11.81926,43.04124],[11.81927,43.04106],[11.81924,43.04085],[11.81912,43.04057],[11.8185,43.03955],[11.81847,43.03942],[11.81853,43.03934],[11.81956,43.03897],[11.81995,43.03879],[11.82192,43.03745],[11.82223,43.03725],[11.82251,43.03713],[11.82282,43.03703],[11.82304,43.03701],[11.82408,43.03704],[11.8251,43.03683]]},"properties":{}},{"type":"Feature","geometry":{"type":"LineString","coordinates":[[11.82042,43.05604],[11.82038,43.056],[11.82038,43.05593],[11.82046,43.05583],[11.82113,43.05563]]},"properties":{}},{"type":"Feature","geometry":{"type":"LineString","coordinates":[[11.82113,43.05563],[11.82175,43.05599],[11.82203,43.05606],[11.82214,43.05594],[11.82228,43.05585],[11.82246,43.05593]]},"properties":{}},{"type":"Feature","geometry":{"type":"LineString","coordinates":[[11.82246,43.05593],[11.82241,43.05636],[11.82242,43.05646],[11.82248,43.05654],[11.8246,43.05744],[11.82502,43.05772],[11.82516,43.05789],[11.8252,43.05803],[11.82531,43.05815],[11.82564,43.05822]]},"properties":{}},{"type":"Feature","geometry":{"type":"LineString","coordinates":[[11.82459,43.12181],[11.82445,43.12166],[11.82445,43.1216],[11.82451,43.12155],[11.82464,43.12153],[11.82485,43.12166]]},"properties":{}},{"type":"Feature","geometry":{"type":"LineString","coordinates":[[11.82485,43.12166],[11.82467,43.12159],[11.82456,43.12159],[11.82451,43.12166],[11.82459,43.12181]]},"properties":{}},{"type":"Feature","geometry":{"type":"LineString","coordinates":[[11.82485,43.12166],[11.82586,43.12225],[11.82628,43.12239],[11.82787,43.12244],[11.82937,43.12266],[11.83144,43.12286],[11.83277,43.12289],[11.83433,43.12283],[11.83615,43.12294],[11.8371,43.12282],[11.83817,43.12262],[11.83848,43.12251],[11.83953,43.12203],[11.83976,43.12187],[11.83988,43.1217],[11.83996,43.1215],[11.84015,43.12047],[11.84027,43.12024],[11.84039,43.12017],[11.84052,43.12013],[11.84275,43.11985],[11.84436,43.11976],[11.84474,43.11967],[11.84498,43.11955],[11.84524,43.11933],[11.84559,43.11865],[11.84573,43.11847],[11.84613,43.11813],[11.8466,43.11782],[11.84702,43.11767],[11.84915,43.11741],[11.85001,43.11702],[11.85045,43.11689],[11.85094,43.11681],[11.85124,43.11682],[11.85227,43.11725],[11.85266,43.1173],[11.85311,43.11728],[11.85467,43.11689],[11.85629,43.11665],[11.85659,43.11667],[11.85739,43.1169],[11.85785,43.1169],[11.85819,43.11684],[11.85907,43.11658],[11.86104,43.11581],[11.86293,43.11451],[11.86365,43.11413],[11.86414,43.11381],[11.86529,43.11321],[11.86561,43.11315],[11.86711,43.11316],[11.86786,43.11301],[11.86823,43.11288],[11.86851,43.11271],[11.86905,43.11216],[11.86929,43.11201],[11.87181,43.11134],[11.87205,43.11132],[11.87234,43.11135],[11.87594,43.11201],[11.87676,43.112],[11.87728,43.11209]]},"properties":{}},{"type":"Feature","geometry":{"type":"LineString","coordinates":[[11.8251,43.03683],[11.82594,43.03664],[11.82633,43.03667],[11.82658,43.0368],[11.82689,43.03687]]},"properties":{}},{"type":"Feature","geometry":{"type":"LineString","coordinates":[[11.82689,43.03687],[11.82615,43.03698],[11.82583,43.03694],[11.82549,43.03683],[11.8251,43.03683]]},"properties":{}},{"type":"Feature","geometry":{"type":"LineString","coordinates":[[11.8282,43.05821],[11.82794,43.05815],[11.82564,43.05822]]},"properties":{}},{"type":"Feature","geometry":{"type":"LineString","coordinates":[[11.82689,43.03687],[11.8274,43.03694],[11.82886,43.03724],[11.8294,43.03727],[11.83041,43.03711],[11.83069,43.037],[11.83129,43.0367],[11.83194,43.03659],[11.83223,43.0366],[11.83303,43.03683],[11.83348,43.03683],[11.83412,43.03665],[11.83436,43.0365],[11.83453,43.03632]]},"properties":{}},{"type":"Feature","geometry":{"type":"LineString","coordinates":[[11.8282,43.05821],[11.82856,43.05821],[11.82863,43.05829],[11.82859,43.05832],[11.82851,43.05833],[11.8282,43.05821]]},"properties":{}},{"type":"Feature","geometry":{"type":"LineString","coordinates":[[11.83453,43.03632],[11.83479,43.03593],[11.83499,43.0358],[11.83547,43.03561],[11.83601,43.03554]]},"properties":{}},{"type":"Feature","geometry":{"type":"LineString","coordinates":[[11.83601,43.03554],[11.83549,43.03567],[11.83505,43.03585],[11.83483,43.036],[11.83453,43.03632]]},"properties":{}},{"type":"Feature","geometry":{"type":"LineString","coordinates":[[11.83601,43.03554],[11.83691,43.03541],[11.8379,43.03535],[11.83865,43.03526],[11.84217,43.03472],[11.84348,43.0344],[11.84697,43.03392],[11.84752,43.03373],[11.84859,43.03311],[11.84904,43.03288],[11.8503,43.03241],[11.85175,43.03203],[11.85285,43.03147],[11.85342,43.03124],[11.85479,43.03102],[11.8557,43.03097],[11.85688,43.03086],[11.85797,43.03066],[11.85874,43.03047],[11.85968,43.03008],[11.86304,43.02917],[11.86602,43.02858],[11.8688,43.02816],[11.87088,43.02767],[11.87206,43.02756],[11.87244,43.02755],[11.87577,43.02801],[11.87809,43.02812],[11.88062,43.02816],[11.88193,43.02811],[11.88242,43.02806],[11.88282,43.02792],[11.88312,43.02774],[11.88326,43.02758],[11.88368,43.02698],[11.88381,43.02687],[11.88403,43.02677],[11.88475,43.02672],[11.88529,43.02664],[11.88616,43.02642],[11.88648,43.02626],[11.88709,43.02586],[11.88787,43.02547],[11.88854,43.02508],[11.89497,43.02196],[11.89603,43.02132],[11.89638,43.02116],[11.89715,43.02087],[11.89762,43.0208],[11.89907,43.02094],[11.90005,43.02111],[11.90084,43.02103],[11.90111,43.02095],[11.90183,43.02059],[11.90208,43.02037],[11.90238,43.02004],[11.90266,43.01986],[11.90413,43.01942]]},"properties":{}},{"type":"Feature","geometry":{"type":"LineString","coordinates":[[11.8616,43.4679],[11.86198,43.46796],[11.86255,43.46791],[11.86279,43.46783],[11.86309,43.46764],[11.86329,43.46746],[11.86379,43.46684],[11.86418,43.46656],[11.86475,43.46632],[11.86583,43.46615]]},"properties":{}},{"type":"Feature","geometry":{"type":"LineString","coordinates":[[11.86583,43.46615],[11.86459,43.4666],[11.86433,43.46672],[11.86399,43.46696],[11.86309,43.46774],[11.86261,43.46802],[11.86248,43.46821],[11.86239,43.46827],[11.86221,43.4683],[11.8621,43.46826],[11.86192,43.46807],[11.8616,43.4679]]},"properties":{}},{"type":"Feature","geometry":{"type":"LineString","coordinates":[[11.86583,43.46615],[11.86674,43.46595],[11.86811,43.46592]]},"properties":{}},{"type":"Feature","geometry":{"type":"LineString","coordinates":[[11.8703,43.46508],[11.87005,43.46518],[11.86901,43.46578],[11.86861,43.4659],[11.86811,43.46592]]},"properties":{}},{"type":"Feature","geometry":{"type":"LineString","coordinates":[[11.86811,43.46592],[11.86863,43.46578],[11.86916,43.46547]]},"properties":{}},{"type":"Feature","geometry":{"type":"LineString","coordinates":[[11.86916,43.46547],[11.86893,43.4653]]},"properties":{}},{"type":"Feature","geometry":{"type":"LineString","coordinates":[[11.86916,43.46547],[11.86952,43.46527],[11.86998,43.46513],[11.87019,43.46495]]},"properties":{}},{"type":"Feature","geometry":{"type":"LineString","coordinates":[[11.8703,43.46508],[11.87019,43.46495]]},"properties":{}},{"type":"Feature","geometry":{"type":"LineString","coordinates":[[11.87019,43.46495],[11.87019,43.46489],[11.87024,43.4648],[11.87038,43.46472],[11.87061,43.46473],[11.87073,43.46483],[11.87075,43.46498],[11.87064,43.46508],[11.87047,43.46512],[11.8703,43.46508]]},"properties":{}},{"type":"Feature","geometry":{"type":"LineString","coordinates":[[11.87728,43.11209],[11.8774,43.11211]]},"properties":{}},{"type":"Feature","geometry":{"type":"LineString","coordinates":[[11.87728,43.11209],[11.88041,43.10893],[11.88102,43.10825],[11.88155,43.1075],[11.88161,43.10728],[11.8821,43.10632],[11.88279,43.10477],[11.88471,43.10024],[11.88764,43.09305],[11.89947,43.06489],[11.90722,43.04633],[11.9074,43.04584],[11.90753,43.04535],[11.9076,43.0449],[11.90761,43.0444],[11.90754,43.04367],[11.90743,43.0432],[11.90726,43.04271],[11.90592,43.03949],[11.90572,43.03899],[11.90558,43.03852],[11.90548,43.03799],[11.90545,43.03753],[11.90548,43.03703],[11.90559,43.03634],[11.90579,43.03568],[11.90608,43.03508],[11.90635,43.03463],[11.90708,43.0337],[11.91153,43.02949],[11.91234,43.02863],[11.91265,43.0282],[11.91293,43.02773],[11.91325,43.02701],[11.91339,43.02649],[11.91348,43.02603],[11.9135,43.0255],[11.91348,43.02497],[11.91325,43.02396],[11.91163,43.01874],[11.91099,43.01705],[11.91046,43.01527]]},"properties":{}},{"type":"Feature","geometry":{"type":"LineString","coordinates":[[11.8774,43.11211],[11.87789,43.11221],[11.87827,43.11235]]},"properties":{}},{"type":"Feature","geometry":{"type":"LineString","coordinates":[[11.91072,43.01527],[11.91196,43.01937],[11.91254,43.02115],[11.91337,43.02396],[11.91351,43.02447],[11.9136,43.02498],[11.91363,43.02551],[11.91361,43.02602],[11.91352,43.02651],[11.91327,43.02733],[11.91277,43.02822],[11.91244,43.02868],[11.91206,43.02912],[11.91165,43.02954],[11.90944,43.0316],[11.9072,43.03375],[11.90647,43.03466],[11.90619,43.03511],[11.90592,43.03569],[11.90572,43.03635],[11.90561,43.03703],[11.90558,43.03753],[11.90561,43.03798],[11.9057,43.03851],[11.90604,43.03947],[11.90744,43.04284],[11.90755,43.04319],[11.90766,43.04366],[11.90773,43.0444],[11.90771,43.04491],[11.90765,43.04536],[11.90752,43.04587],[11.90194,43.05921],[11.89006,43.08787],[11.88788,43.09303],[11.88669,43.09573],[11.88293,43.10479],[11.88234,43.1063],[11.882,43.107],[11.88166,43.10753],[11.88091,43.10853],[11.88051,43.10897],[11.8774,43.11211]]},"properties":{}},{"type":"Feature","geometry":{"type":"LineString","coordinates":[[11.87827,43.11235],[11.87879,43.11249],[11.87908,43.11252],[11.87994,43.11243]]},"properties":{}},{"type":"Feature","geometry":{"type":"LineString","coordinates":[[11.87994,43.11243],[11.87939,43.11254],[11.87904,43.11256],[11.87862,43.11249],[11.87827,43.11235]]},"properties":{}},{"type":"Feature","geometry":{"type":"LineString","coordinates":[[11.87994,43.11243],[11.88051,43.11231],[11.88085,43.11214],[11.88103,43.11198],[11.88217,43.11073],[11.88252,43.1102],[11.88354,43.10819],[11.88396,43.10755],[11.88407,43.1072],[11.88423,43.10687],[11.88604,43.10393],[11.88614,43.10369],[11.88673,43.10202],[11.88689,43.10173],[11.88731,43.10124],[11.88815,43.10053],[11.89078,43.09756],[11.89103,43.09719],[11.89176,43.0945],[11.89636,43.07636],[11.89643,43.07617],[11.89662,43.07585],[11.90216,43.06918],[11.90314,43.06805],[11.90374,43.06755],[11.90452,43.067],[11.90902,43.06443],[11.91179,43.0617],[11.91464,43.05879],[11.91476,43.05864],[11.91559,43.05712],[11.91711,43.05597],[11.91825,43.05525],[11.91863,43.05491],[11.92142,43.05172],[11.92862,43.04333],[11.93017,43.04133],[11.93025,43.04109],[11.93024,43.04081],[11.92966,43.03805],[11.9275,43.03376],[11.92728,43.03296],[11.92726,43.03264],[11.92729,43.03253],[11.92738,43.03233],[11.92844,43.03085],[11.9307,43.02669],[11.93087,43.02643],[11.93127,43.02605],[11.93153,43.02586],[11.93346,43.02491],[11.93406,43.02453],[11.93448,43.02416],[11.9351,43.02322],[11.93565,43.02263],[11.93571,43.02242],[11.93549,43.02206],[11.93543,43.02186],[11.93563,43.02118],[11.93557,43.02036],[11.93563,43.02025],[11.93593,43.01999],[11.93603,43.01945],[11.93663,43.01845],[11.93673,43.01836],[11.93692,43.0183],[11.93773,43.01825],[11.93838,43.01814],[11.93848,43.01809],[11.93852,43.018]]},"properties":{}},{"type":"Feature","geometry":{"type":"LineString","coordinates":[[11.90413,43.01942],[11.90445,43.01933],[11.90453,43.01928],[11.90464,43.01927],[11.90483,43.01913]]},"properties":{}},{"type":"Feature","geometry":{"type":"LineString","coordinates":[[11.90483,43.01913],[11.90477,43.01933],[11.9048,43.01944],[11.90471,43.01952],[11.90456,43.01954],[11.90437,43.01945],[11.90413,43.01942]]},"properties":{}},{"type":"Feature","geometry":{"type":"LineString","coordinates":[[11.90483,43.01913],[11.9065,43.01806],[11.90672,43.01784],[11.90691,43.01754]]},"properties":{}},{"type":"Feature","geometry":{"type":"LineString","coordinates":[[11.90691,43.01754],[11.90703,43.01707],[11.90719,43.01678],[11.90748,43.01652],[11.90835,43.01601],[11.90843,43.01594],[11.90867,43.0156],[11.9087,43.01541],[11.90869,43.0152],[11.90903,43.01498]]},"properties":{}},{"type":"Feature","geometry":{"type":"LineString","coordinates":[[11.90851,43.01603],[11.90772,43.01645],[11.90741,43.01667],[11.90714,43.01701],[11.90699,43.01741],[11.90691,43.01754]]},"properties":{}},{"type":"Feature","geometry":{"type":"LineString","coordinates":[[11.90903,43.01498],[11.90891,43.0151],[11.90886,43.01525],[11.90887,43.01532],[11.90894,43.01539],[11.90898,43.01549],[11.90898,43.01572],[11.90851,43.01603]]},"properties":{}},{"type":"Feature","geometry":{"type":"LineString","coordinates":[[11.91046,43.01527],[11.90991,43.01532],[11.90851,43.01603]]},"properties":{}},{"type":"Feature","geometry":{"type":"LineString","coordinates":[[11.9094,43.01482],[11.90903,43.01498]]},"properties":{}},{"type":"Feature","geometry":{"type":"LineString","coordinates":[[11.9094,43.01482],[11.90985,43.0146],[11.91023,43.0145]]},"properties":{}},{"type":"Feature","geometry":{"type":"LineString","coordinates":[[11.91027,43.01465],[11.9094,43.01482]]},"properties":{}},{"type":"Feature","geometry":{"type":"LineString","coordinates":[[11.91027,43.01465],[11.91023,43.0145]]},"properties":{}},{"type":"Feature","geometry":{"type":"LineString","coordinates":[[11.91023,43.0145],[11.90996,43.01353],[11.90994,43.01297],[11.91002,43.0123],[11.91012,43.01187],[11.91026,43.01146],[11.91045,43.01106],[11.91079,43.01052],[11.91109,43.01013]]},"properties":{}},{"type":"Feature","geometry":{"type":"LineString","coordinates":[[11.91023,43.0145],[11.91047,43.01445]]},"properties":{}},{"type":"Feature","geometry":{"type":"LineString","coordinates":[[11.91046,43.01527],[11.91027,43.01465]]},"properties":{}},{"type":"Feature","geometry":{"type":"LineString","coordinates":[[11.91052,43.01461],[11.91027,43.01465]]},"properties":{}},{"type":"Feature","geometry":{"type":"LineString","coordinates":[[11.9103,43.0119],[11.91021,43.01233],[11.91018,43.01322],[11.91027,43.01379],[11.91047,43.01445]]},"properties":{}},{"type":"Feature","geometry":{"type":"LineString","coordinates":[[11.91117,43.01021],[11.91092,43.01055],[11.91059,43.0111],[11.91042,43.0115],[11.9103,43.0119]]},"properties":{}},{"type":"Feature","geometry":{"type":"LineString","coordinates":[[11.91242,43.01147],[11.91201,43.01121],[11.91176,43.01109],[11.91148,43.01103],[11.91122,43.01103],[11.91095,43.01112],[11.9107,43.01131],[11.91054,43.01149],[11.9103,43.0119]]},"properties":{}},{"type":"Feature","geometry":{"type":"LineString","coordinates":[[11.91072,43.01527],[11.91046,43.01527]]},"properties":{}},{"type":"Feature","geometry":{"type":"LineString","coordinates":[[11.91047,43.01445],[11.91052,43.01461]]},"properties":{}},{"type":"Feature","geometry":{"type":"LineString","coordinates":[[11.91047,43.01445],[11.91109,43.01434],[11.91206,43.01431]]},"properties":{}},{"type":"Feature","geometry":{"type":"LineString","coordinates":[[11.91052,43.01461],[11.91072,43.01527]]},"properties":{}},{"type":"Feature","geometry":{"type":"LineString","coordinates":[[11.91206,43.01431],[11.91052,43.01461]]},"properties":{}},{"type":"Feature","geometry":{"type":"LineString","coordinates":[[11.93852,43.018],[11.93821,43.01791],[11.93703,43.01738],[11.93665,43.01729],[11.93634,43.01725],[11.93591,43.01726],[11.93433,43.01746],[11.93372,43.01746],[11.93295,43.01739],[11.9321,43.01746],[11.93177,43.01743],[11.93106,43.01712],[11.9306,43.01708],[11.93049,43.01699],[11.93039,43.01686],[11.93008,43.01667],[11.92761,43.0156],[11.9274,43.01547],[11.9266,43.01484],[11.92632,43.01475],[11.9254,43.01482],[11.92505,43.01478],[11.92419,43.01461],[11.92385,43.01461],[11.92356,43.01465],[11.9227,43.0149],[11.92236,43.01497],[11.92031,43.01527],[11.92002,43.01534],[11.91942,43.01557],[11.91916,43.01577],[11.91863,43.01627],[11.91828,43.01648],[11.91799,43.01657],[11.917,43.01679],[11.91605,43.01696],[11.91569,43.01692],[11.91518,43.01681],[11.91419,43.01632],[11.91218,43.01552],[11.91159,43.01538],[11.91072,43.01527]]},"properties":{}},{"type":"Feature","geometry":{"type":"LineString","coordinates":[[11.91132,43.00986],[11.91152,43.00945],[11.91156,43.00928],[11.91153,43.00913],[11.91145,43.00901],[11.91132,43.00892],[11.91098,43.00884]]},"properties":{}},{"type":"Feature","geometry":{"type":"LineString","coordinates":[[11.91109,43.01013],[11.91064,43.00966],[11.91054,43.0095],[11.91047,43.00929],[11.9105,43.0091],[11.91064,43.00895],[11.91078,43.00888],[11.91098,43.00884]]},"properties":{}},{"type":"Feature","geometry":{"type":"LineString","coordinates":[[11.91098,43.00884],[11.91177,43.00878],[11.91201,43.0087],[11.91228,43.00855],[11.9126,43.00829],[11.91325,43.00755],[11.91376,43.00703]]},"properties":{}},{"type":"Feature","geometry":{"type":"LineString","coordinates":[[11.91117,43.01021],[11.91109,43.01013]]},"properties":{}},{"type":"Feature","geometry":{"type":"LineString","coordinates":[[11.91109,43.01013],[11.91132,43.00986]]},"properties":{}},{"type":"Feature","geometry":{"type":"LineString","coordinates":[[11.91242,43.01147],[11.91117,43.01021]]},"properties":{}},{"type":"Feature","geometry":{"type":"LineString","coordinates":[[11.91386,43.00708],[11.91117,43.01021]]},"properties":{}},{"type":"Feature","geometry":{"type":"LineString","coordinates":[[11.91132,43.00986],[11.91376,43.00703]]},"properties":{}},{"type":"Feature","geometry":{"type":"LineString","coordinates":[[11.91242,43.01147],[11.91356,43.01265],[11.91371,43.01298],[11.91372,43.01328],[11.91365,43.01352],[11.91354,43.01369],[11.91326,43.01396],[11.91284,43.01415],[11.91206,43.01431]]},"properties":{}},{"type":"Feature","geometry":{"type":"LineString","coordinates":[[11.91386,43.00708],[11.91243,43.0089],[11.91208,43.00944],[11.91196,43.00967],[11.91186,43.01009],[11.91186,43.01033],[11.91192,43.01062],[11.91218,43.01115],[11.91242,43.01147]]},"properties":{}},{"type":"Feature","geometry":{"type":"LineString","coordinates":[[11.91376,43.00703],[11.91787,43.00229],[11.91849,43.0015],[11.91885,43.00093],[11.91936,43.0]]},"properties":{}},{"type":"Feature","geometry":{"type":"LineString","coordinates":[[11.91949,43.0],[11.91899,43.00097],[11.9184,43.00189],[11.91772,43.00271],[11.91617,43.00442],[11.91386,43.00708]]},"properties":{}},{"type":"Feature","geometry":{"type":"LineString","coordinates":[[11.93852,43.018],[11.93875,43.01802],[11.93901,43.01799],[11.93921,43.01794],[11.93934,43.01786],[11.94098,43.01625],[11.94137,43.01603],[11.94219,43.01577],[11.943,43.01563],[11.94391,43.01553],[11.94476,43.01555]]},"properties":{}},{"type":"Feature","geometry":{"type":"LineString","coordinates":[[11.94593,43.01555],[11.94487,43.01557],[11.94476,43.01555]]},"properties":{}},{"type":"Feature","geometry":{"type":"LineString","coordinates":[[11.94485,43.01552],[11.94476,43.01555]]},"properties":{}},{"type":"Feature","geometry":{"type":"LineString","coordinates":[[11.94485,43.01552],[11.94493,43.01555],[11.94593,43.01555]]},"properties":{}},{"type":"Feature","geometry":{"type":"LineString","coordinates":[[11.94637,43.01412],[11.9464,43.01437],[11.94632,43.01465],[11.9462,43.01485],[11.94593,43.01513],[11.9456,43.01529],[11.94485,43.01552]]},"properties":{}},{"type":"Feature","geometry":{"type":"LineString","coordinates":[[11.94637,43.01412],[11.94501,43.01291]]},"properties":{}},{"type":"Feature","geometry":{"type":"LineString","coordinates":[[11.94501,43.01291],[11.94439,43.01237],[11.94427,43.01215],[11.94429,43.01197],[11.94459,43.01117],[11.94461,43.01105],[11.94465,43.01018],[11.94464,43.00995],[11.94458,43.00984],[11.94435,43.00853],[11.94439,43.0084],[11.94456,43.00833],[11.94474,43.00833],[11.94563,43.00849],[11.94555,43.00884],[11.94557,43.00913],[11.946,43.01083],[11.94596,43.01106],[11.94557,43.0122],[11.94551,43.01257],[11.94548,43.01263],[11.94501,43.01291]]},"properties":{}},{"type":"Feature","geometry":{"type":"LineString","coordinates":[[11.94593,43.01555],[11.94622,43.01555],[11.9464,43.01551],[11.94703,43.0149],[11.9472,43.01482],[11.94743,43.01482],[11.94804,43.015]]},"properties":{}},{"type":"Feature","geometry":{"type":"LineString","coordinates":[[11.94983,43.00782],[11.94892,43.00961],[11.94864,43.0111],[11.94805,43.01306],[11.94787,43.01326],[11.94752,43.01349],[11.94724,43.01362],[11.94699,43.01364],[11.94683,43.01358],[11.94674,43.01345],[11.94675,43.01327],[11.94685,43.01297],[11.94684,43.01289],[11.94678,43.01278],[11.9467,43.01272],[11.94653,43.01268],[11.94637,43.0127],[11.94624,43.01276],[11.94616,43.01286],[11.94614,43.013],[11.94637,43.01412]]},"properties":{}},{"type":"Feature","geometry":{"type":"LineString","coordinates":[[11.94804,43.015],[11.94922,43.01494],[11.94946,43.01491],[11.94968,43.01483],[11.95068,43.01426],[11.95113,43.01419],[11.95137,43.01419],[11.95158,43.01423],[11.95175,43.01434],[11.95186,43.01445],[11.95215,43.01503],[11.95322,43.01629],[11.95356,43.01735]]},"properties":{}},{"type":"Feature","geometry":{"type":"LineString","coordinates":[[11.95356,43.01735],[11.95292,43.01669],[11.95269,43.01652],[11.95238,43.01636],[11.95165,43.01611],[11.95062,43.01584],[11.95039,43.01582],[11.94965,43.01583],[11.94962,43.01581],[11.94962,43.01571],[11.94953,43.01548],[11.94945,43.01531],[11.94938,43.01524],[11.94886,43.01505],[11.94833,43.01507],[11.94804,43.015]]},"properties":{}},{"type":"Feature","geometry":{"type":"LineString","coordinates":[[11.94902,43.00441],[11.94886,43.00437]]},"properties":{}},{"type":"Feature","geometry":{"type":"LineString","coordinates":[[11.94886,43.00437],[11.94875,43.0044],[11.94868,43.00436],[11.94867,43.00432],[11.94876,43.00426],[11.94886,43.0043]]},"properties":{}},{"type":"Feature","geometry":{"type":"LineString","coordinates":[[11.94886,43.0043],[11.94886,43.00437]]},"properties":{}},{"type":"Feature","geometry":{"type":"LineString","coordinates":[[11.94886,43.0043],[11.94902,43.00441]]},"properties":{}},{"type":"Feature","geometry":{"type":"LineString","coordinates":[[11.95103,43.00358],[11.95076,43.00376],[11.95035,43.0038],[11.95016,43.00386],[11.94934,43.00441],[11.94917,43.00443],[11.94902,43.00441]]},"properties":{}},{"type":"Feature","geometry":{"type":"LineString","coordinates":[[11.94983,43.00782],[11.95021,43.00706],[11.95049,43.0067],[11.95054,43.00651],[11.95065,43.00648],[11.95083,43.00653],[11.95099,43.00653]]},"properties":{}},{"type":"Feature","geometry":{"type":"LineString","coordinates":[[11.95099,43.00653],[11.95066,43.00664],[11.95044,43.00686],[11.95029,43.00706],[11.94989,43.00777],[11.94983,43.00782]]},"properties":{}},{"type":"Feature","geometry":{"type":"LineString","coordinates":[[11.95099,43.00653],[11.95325,43.00601],[11.95463,43.00562]]},"properties":{}},{"type":"Feature","geometry":{"type":"LineString","coordinates":[[11.95103,43.00358],[11.95109,43.00348],[11.95121,43.00338],[11.95176,43.00297],[11.95321,43.00289],[11.95327,43.00293],[11.95329,43.00301]]},"properties":{}},{"type":"Feature","geometry":{"type":"LineString","coordinates":[[11.95295,43.0035],[11.95294,43.00358],[11.95283,43.0036],[11.95254,43.00333],[11.95202,43.00333],[11.95135,43.00337],[11.95103,43.00358]]},"properties":{}},{"type":"Feature","geometry":{"type":"LineString","coordinates":[[11.95227,43.42544],[11.95498,43.42476],[11.9561,43.42454],[11.95698,43.42421],[11.95724,43.42414],[11.96007,43.42358],[11.9622,43.42344],[11.96251,43.42335],[11.96326,43.42306],[11.96442,43.42252],[11.96593,43.42213],[11.96704,43.42195],[11.96741,43.42194],[11.96954,43.42202],[11.96975,43.42199],[11.96998,43.42191],[11.97102,43.42152],[11.97142,43.42145],[11.97338,43.42156],[11.97407,43.42166],[11.97657,43.42217],[11.97668,43.42222],[11.97683,43.4224],[11.97685,43.42257],[11.97659,43.42454],[11.9766,43.4249],[11.97668,43.4253],[11.97694,43.42616],[11.97723,43.42667],[11.97803,43.4274],[11.97851,43.42792],[11.9788,43.42843],[11.97898,43.42889],[11.97936,43.43082],[11.97994,43.43422],[11.98004,43.43497],[11.9799,43.43538],[11.97955,43.43567],[11.97831,43.43609],[11.9779,43.43632],[11.97768,43.43656],[11.97756,43.4368],[11.97753,43.43693],[11.97755,43.43721],[11.97796,43.43816],[11.97799,43.4384],[11.97796,43.43856],[11.97775,43.43915],[11.97773,43.43973],[11.97778,43.43994],[11.9779,43.4402],[11.97804,43.4404],[11.97823,43.4406],[11.97895,43.44098],[11.97947,43.44107],[11.98003,43.44113],[11.98152,43.44091],[11.98215,43.44092],[11.98266,43.44098],[11.98675,43.44204],[11.98791,43.44231],[11.98904,43.44252],[11.98943,43.44265],[11.99034,43.44317],[11.99074,43.44346],[11.99091,43.44363],[11.99111,43.44389],[11.99126,43.44419],[11.99133,43.44445],[11.99134,43.4447],[11.99143,43.44493],[11.99159,43.4451],[11.99216,43.44544],[11.99288,43.44579],[11.99374,43.44595],[11.99383,43.44603],[11.99386,43.44611],[11.99383,43.4462],[11.99367,43.44636],[11.99324,43.44666],[11.99298,43.44691],[11.99281,43.44714],[11.99279,43.44737],[11.99283,43.44751],[11.99294,43.44766],[11.99313,43.4478],[11.99381,43.44801],[11.99469,43.44854],[11.99507,43.44869],[11.99625,43.44902],[11.99666,43.44906],[11.99859,43.44893],[11.99897,43.44894],[11.99931,43.449],[11.99954,43.44912],[11.99978,43.44935],[11.99993,43.44967],[11.99993,43.44985],[11.99961,43.45048],[11.99958,43.45067],[11.99967,43.45103],[12.0,43.45144]]},"properties":{}},{"type":"Feature","geometry":{"type":"LineString","coordinates":[[11.95281,43.00759],[11.95211,43.00816],[11.95181,43.00804],[11.95175,43.00798],[11.95178,43.00792],[11.95199,43.00774],[11.9525,43.00743],[11.95258,43.00744],[11.95281,43.00759]]},"properties":{}},{"type":"Feature","geometry":{"type":"LineString","coordinates":[[11.95281,43.00759],[11.95402,43.00657]]},"properties":{}},{"type":"Feature","geometry":{"type":"LineString","coordinates":[[11.95295,43.0035],[11.95319,43.0035],[11.95703,43.00259]]},"properties":{}},{"type":"Feature","geometry":{"type":"LineString","coordinates":[[11.95329,43.00301],[11.95302,43.0033],[11.95293,43.00348],[11.95295,43.0035]]},"properties":{}},{"type":"Feature","geometry":{"type":"LineString","coordinates":[[11.95329,43.00301],[11.9546,43.00156],[11.95518,43.00056],[11.95557,43.0]]},"properties":{}},{"type":"Feature","geometry":{"type":"LineString","coordinates":[[11.95356,43.01735],[11.95361,43.01743]]},"properties":{}},{"type":"Feature","geometry":{"type":"LineString","coordinates":[[11.95361,43.01743],[11.95378,43.01774],[11.95408,43.01813],[11.95489,43.01907],[11.95536,43.01955],[11.95617,43.02074]]},"properties":{}},{"type":"Feature","geometry":{"type":"LineString","coordinates":[[11.95568,43.01616],[11.95555,43.01609],[11.9553,43.01604],[11.95505,43.01606],[11.95488,43.01613],[11.95485,43.01623],[11.95487,43.0164],[11.955,43.01672],[11.95497,43.01676],[11.95489,43.01679],[11.95475,43.01675],[11.95457,43.01645],[11.95445,43.01635],[11.95438,43.01634],[11.95423,43.01639],[11.95405,43.01661],[11.95371,43.01715],[11.95362,43.01733],[11.95361,43.01743]]},"properties":{}},{"type":"Feature","geometry":{"type":"LineString","coordinates":[[11.95497,43.00761],[11.95485,43.00788],[11.95466,43.00843],[11.95458,43.00849],[11.95443,43.00853],[11.95427,43.0085],[11.95419,43.00845],[11.95423,43.00762],[11.95402,43.00657]]},"properties":{}},{"type":"Feature","geometry":{"type":"LineString","coordinates":[[11.95402,43.00657],[11.9542,43.00633],[11.95477,43.00578]]},"properties":{}},{"type":"Feature","geometry":{"type":"LineString","coordinates":[[11.95477,43.00578],[11.95463,43.00562]]},"properties":{}},{"type":"Feature","geometry":{"type":"LineString","coordinates":[[11.95463,43.00562],[11.95505,43.00545]]},"properties":{}},{"type":"Feature","geometry":{"type":"LineString","coordinates":[[11.95477,43.00578],[11.95486,43.00579],[11.9561,43.00642],[11.95658,43.00707],[11.95652,43.00715],[11.95637,43.00715],[11.95551,43.00683],[11.95538,43.00691],[11.95521,43.00717]]},"properties":{}},{"type":"Feature","geometry":{"type":"LineString","coordinates":[[11.95497,43.00761],[11.95492,43.00855],[11.95499,43.00916],[11.95503,43.01002],[11.95583,43.00965],[11.95618,43.00936],[11.95629,43.00918],[11.95664,43.00812],[11.95658,43.00791],[11.95644,43.00775],[11.95521,43.00717]]},"properties":{}},{"type":"Feature","geometry":{"type":"LineString","coordinates":[[11.95521,43.00717],[11.95497,43.00761]]},"properties":{}},{"type":"Feature","geometry":{"type":"LineString","coordinates":[[11.95505,43.00545],[11.95565,43.00489]]},"properties":{}},{"type":"Feature","geometry":{"type":"LineString","coordinates":[[11.95565,43.00489],[11.95537,43.00538],[11.95505,43.00545]]},"properties":{}},{"type":"Feature","geometry":{"type":"LineString","coordinates":[[11.95565,43.00489],[11.95609,43.00453]]},"properties":{}},{"type":"Feature","geometry":{"type":"LineString","coordinates":[[11.95631,43.00091],[11.95592,43.0]]},"properties":{}},{"type":"Feature","geometry":{"type":"LineString","coordinates":[[11.95609,43.00453],[11.95614,43.00439],[11.95635,43.004],[11.95712,43.00282]]},"properties":{}},{"type":"Feature","geometry":{"type":"LineString","coordinates":[[11.95609,43.00453],[11.95676,43.00421],[11.95794,43.0039],[11.95749,43.00299],[11.95735,43.00278]]},"properties":{}},{"type":"Feature","geometry":{"type":"LineString","coordinates":[[11.95699,43.00242],[11.95689,43.0023],[11.95631,43.00091]]},"properties":{}},{"type":"Feature","geometry":{"type":"LineString","coordinates":[[11.95631,43.00091],[11.95651,43.00087],[11.95714,43.00221]]},"properties":{}},{"type":"Feature","geometry":{"type":"LineString","coordinates":[[11.95703,43.00259],[11.95698,43.00247],[11.95699,43.00242]]},"properties":{}},{"type":"Feature","geometry":{"type":"LineString","coordinates":[[11.95699,43.00242],[11.95706,43.00239],[11.95717,43.00242],[11.95735,43.00278]]},"properties":{}},{"type":"Feature","geometry":{"type":"LineString","coordinates":[[11.95712,43.00282],[11.95703,43.00259]]},"properties":{}},{"type":"Feature","geometry":{"type":"LineString","coordinates":[[11.95735,43.00278],[11.95733,43.00282],[11.95726,43.00286],[11.95718,43.00286],[11.95712,43.00282]]},"properties":{}}]}