{"type":"FeatureCollection","features":[{"type":"Feature","geometry":{"type":"LineString","coordinates":[[12.0,43.54641],[12.0008,43.54611],[12.0016,43.54602],[12.00247,43.5461],[12.00489,43.54665],[12.00539,43.54679],[12.00851,43.54825],[12.00893,43.54835],[12.00948,43.54833],[12.00986,43.54823],[12.01027,43.54803],[12.01087,43.54784],[12.01386,43.54752],[12.01462,43.54749],[12.0155,43.54756],[12.01647,43.54774],[12.01712,43.54774],[12.01762,43.54762],[12.0185,43.54722],[12.02395,43.54549],[12.02513,43.54496],[12.02546,43.54476],[12.02589,43.5444],[12.02746,43.5422],[12.02779,43.54194],[12.02813,43.54181],[12.03403,43.54001],[12.03442,43.53986],[12.0348,43.53958],[12.03814,43.53631],[12.03994,43.53491],[12.04017,43.53477],[12.04049,43.53467],[12.04094,43.53471],[12.04121,43.53482],[12.04133,43.53492],[12.04144,43.53509],[12.04157,43.53547],[12.04209,43.53747],[12.04216,43.53767],[12.04231,43.53787],[12.04259,43.53797],[12.04287,43.53795],[12.04313,43.53783],[12.04326,43.53765],[12.04322,43.53605],[12.04328,43.53589],[12.0434,43.53576],[12.04357,43.53567],[12.04453,43.53537],[12.04493,43.53529],[12.04517,43.53532],[12.04545,43.53545],[12.04561,43.53577],[12.04586,43.53718],[12.04598,43.53747],[12.04618,43.53774],[12.04737,43.53908],[12.04757,43.53939],[12.04766,43.53982],[12.04771,43.53995],[12.04782,43.54009],[12.048,43.54017],[12.04939,43.54052],[12.04982,43.54051],[12.0513,43.54036],[12.0515,43.54041],[12.0517,43.54054]]},"properties":{}},{"type":"Feature","geometry":{"type":"LineString","coordinates":[[12.0517,43.54054],[12.05284,43.5412],[12.05299,43.54134],[12.05309,43.54151],[12.05317,43.54181],[12.05324,43.54194],[12.05356,43.54224],[12.05402,43.54246],[12.05571,43.54299],[12.05583,43.54307],[12.0559,43.54317],[12.0559,43.54328],[12.05585,43.54339],[12.05551,43.54381],[12.05549,43.54392],[12.05553,43.544],[12.0557,43.544],[12.05579,43.54394],[12.05631,43.54334],[12.05642,43.54318],[12.05646,43.54292],[12.0564,43.54279],[12.0562,43.54258],[12.0554,43.54213],[12.05534,43.54207],[12.05534,43.54197],[12.05552,43.54194],[12.05567,43.54196],[12.05707,43.54254],[12.05723,43.54264],[12.05734,43.54275],[12.05741,43.5429],[12.05742,43.54307],[12.05738,43.54325],[12.0573,43.54344],[12.05704,43.54384],[12.05634,43.54474],[12.05628,43.54485],[12.05631,43.5449],[12.05643,43.54492],[12.0565,43.54488],[12.05778,43.54393],[12.05816,43.54368],[12.05854,43.54347],[12.05892,43.54334],[12.05923,43.54328],[12.05985,43.54328],[12.061,43.54351],[12.06577,43.54528],[12.07844,43.55009],[12.08232,43.5516],[12.09189,43.55521],[12.09618,43.55686],[12.10234,43.55917]]},"properties":{}},{"type":"Feature","geometry":{"type":"LineString","coordinates":[[12.0517,43.54054],[12.05218,43.54005],[12.05265,43.53979],[12.05324,43.53936],[12.0539,43.53894],[12.0554,43.53785],[12.05611,43.53727],[12.05623,43.53707],[12.05625,43.53692],[12.05612,43.53639],[12.05597,43.53603],[12.05587,43.53552],[12.05622,43.53438],[12.05684,43.53282],[12.05707,43.53247],[12.0573,43.53224],[12.05829,43.53152],[12.05907,43.53106],[12.0596,43.53085],[12.06172,43.53018],[12.06203,43.53003],[12.06264,43.5296],[12.06577,43.5267],[12.06618,43.52648],[12.06771,43.52535],[12.06827,43.52472],[12.0694,43.52283],[12.0699,43.52215],[12.07048,43.52178],[12.0812,43.51603]]},"properties":{}},{"type":"Feature","geometry":{"type":"LineString","coordinates":[[12.0812,43.51603],[12.08162,43.5158]]},"properties":{}},{"type":"Feature","geometry":{"type":"LineString","coordinates":[[12.08163,43.51605],[12.08147,43.51601],[12.0812,43.51603]]},"properties":{}},{"type":"Feature","geometry":{"type":"LineString","coordinates":[[12.08163,43.51605],[12.08157,43.51593],[12.08162,43.5158]]},"properties":{}},{"type":"Feature","geometry":{"type":"LineString","coordinates":[[12.08162,43.5158],[12.08167,43.51576]]},"properties":{}},{"type":"Feature","geometry":{"type":"LineString","coordinates":[[12.08211,43.51578],[12.08215,43.51584],[12.08217,43.51596],[12.08209,43.51608],[12.08193,43.51614],[12.08184,43.51614],[12.08163,43.51605]]},"properties":{}},{"type":"Feature","geometry":{"type":"LineString","coordinates":[[12.08167,43.51576],[12.08185,43.51557],[12.08192,43.51539]]},"properties":{}},{"type":"Feature","geometry":{"type":"LineString","coordinates":[[12.08167,43.51576],[12.08184,43.51571],[12.08203,43.51574],[12.08211,43.51578]]},"properties":{}},{"type":"Feature","geometry":{"type":"LineString","coordinates":[[12.08192,43.51539],[12.082,43.51562],[12.08211,43.51578]]},"properties":{}},{"type":"Feature","geometry":{"type":"LineString","coordinates":[[12.08436,43.5],[12.08258,43.50124],[12.08233,43.50147],[12.08206,43.50182],[12.08192,43.50211],[12.08184,43.50243],[12.08183,43.50277],[12.08192,43.50312],[12.08419,43.50919],[12.08428,43.50947],[12.08449,43.51082],[12.08443,43.51125],[12.08421,43.51171],[12.08376,43.51215],[12.08238,43.51321],[12.08217,43.51342],[12.08203,43.51365],[12.08193,43.51392],[12.0819,43.51421],[12.08192,43.51539]]},"properties":{}},{"type":"Feature","geometry":{"type":"LineString","coordinates":[[12.08913,43.5],[12.08866,43.5]]},"properties":{}},{"type":"Feature","geometry":{"type":"LineString","coordinates":[[12.10423,43.55988],[12.10907,43.56172]]},"properties":{}},{"type":"Feature","geometry":{"type":"LineString","coordinates":[[12.11158,43.55882],[12.10978,43.56133]]},"properties":{}},{"type":"Feature","geometry":{"type":"LineString","coordinates":[[12.11289,43.55894],[12.11527,43.56087]]},"properties":{}},{"type":"Feature","geometry":{"type":"LineString","coordinates":[[12.11527,43.56087],[12.11562,43.56101],[12.11564,43.56111],[12.11576,43.5613]]},"properties":{}},{"type":"Feature","geometry":{"type":"LineString","coordinates":[[12.11576,43.5613],[12.11534,43.56116],[12.11531,43.56108],[12.11534,43.56101],[12.11527,43.56087]]},"properties":{}},{"type":"Feature","geometry":{"type":"LineString","coordinates":[[12.11576,43.5613],[12.11698,43.56228],[12.11744,43.56252],[12.11822,43.56308],[12.11979,43.5641],[12.12017,43.56441],[12.12046,43.56475],[12.12151,43.56688],[12.12182,43.56733],[12.12205,43.56757],[12.12257,43.56794],[12.12357,43.56841]]},"properties":{}},{"type":"Feature","geometry":{"type":"LineString","coordinates":[[12.1251,43.56908],[12.1279,43.5703]]},"properties":{}},{"type":"Feature","geometry":{"type":"LineString","coordinates":[[12.12879,43.57068],[12.13456,43.57322]]},"properties":{}},{"type":"Feature","geometry":{"type":"LineString","coordinates":[[12.13871,43.57392],[12.13831,43.57305],[12.13835,43.57285],[12.13805,43.57261],[12.13633,43.57353],[12.13598,43.57365],[12.13582,43.57366],[12.1356,43.57363],[12.13456,43.57322]]},"properties":{}},{"type":"Feature","geometry":{"type":"LineString","coordinates":[[12.13456,43.57322],[12.1348,43.5734],[12.13496,43.57357],[12.13507,43.57376],[12.13515,43.57399]]},"properties":{}},{"type":"Feature","geometry":{"type":"LineString","coordinates":[[12.1354,43.57449],[12.13637,43.57429],[12.13871,43.57392]]},"properties":{}},{"type":"Feature","geometry":{"type":"LineString","coordinates":[[12.13871,43.57392],[12.13953,43.57372],[12.14028,43.57345],[12.14244,43.57242]]},"properties":{}},{"type":"Feature","geometry":{"type":"LineString","coordinates":[[12.14258,43.57236],[12.1426,43.57241],[12.14257,43.57245],[12.14248,43.57245],[12.14244,43.57242]]},"properties":{}},{"type":"Feature","geometry":{"type":"LineString","coordinates":[[12.14244,43.57242],[12.14244,43.57237],[12.14248,43.57234],[12.14258,43.57236]]},"properties":{}},{"type":"Feature","geometry":{"type":"LineString","coordinates":[[12.14258,43.57236],[12.14409,43.57163],[12.14617,43.57084],[12.14697,43.57044],[12.1508,43.56758]]},"properties":{}},{"type":"Feature","geometry":{"type":"LineString","coordinates":[[12.15195,43.5669],[12.15716,43.56509],[12.15837,43.56472],[12.15854,43.56463],[12.15873,43.56446],[12.16164,43.56169]]},"properties":{}},{"type":"Feature","geometry":{"type":"LineString","coordinates":[[12.16164,43.56169],[12.16177,43.56148],[12.16181,43.56132],[12.16207,43.56122],[12.16228,43.56105]]},"properties":{}},{"type":"Feature","geometry":{"type":"LineString","coordinates":[[12.16228,43.56105],[12.16213,43.56126],[12.16208,43.56146],[12.16194,43.56151],[12.16164,43.56169]]},"properties":{}},{"type":"Feature","geometry":{"type":"LineString","coordinates":[[12.1778,43.54888],[12.1773,43.54911],[12.17675,43.54862],[12.1727,43.55153],[12.17019,43.55328],[12.16228,43.56105]]},"properties":{}},{"type":"Feature","geometry":{"type":"LineString","coordinates":[[12.18398,43.54568],[12.18239,43.54647],[12.18185,43.54677],[12.18179,43.54684],[12.18166,43.54686],[12.17855,43.54848]]},"properties":{}},{"type":"Feature","geometry":{"type":"LineString","coordinates":[[12.18398,43.54568],[12.18441,43.54541],[12.18455,43.54521],[12.18466,43.54514],[12.18515,43.54506]]},"properties":{}},{"type":"Feature","geometry":{"type":"LineString","coordinates":[[12.18515,43.54506],[12.18494,43.54523],[12.18469,43.5456],[12.18462,43.54564],[12.18446,43.54565],[12.18436,43.54561],[12.18398,43.54568]]},"properties":{}},{"type":"Feature","geometry":{"type":"LineString","coordinates":[[12.21599,43.52348],[12.21489,43.52467],[12.21477,43.52492],[12.2148,43.52507],[12.21599,43.52714],[12.2148,43.52774],[12.21279,43.52868],[12.21248,43.52882],[12.21149,43.52912],[12.21141,43.52918],[12.21118,43.52944],[12.21051,43.53055],[12.20957,43.53158],[12.20921,43.5318],[12.20747,43.53271],[12.20554,43.53397],[12.20406,43.53487],[12.20359,43.5351],[12.20171,43.53581],[12.20127,43.53592],[12.20057,43.53598],[12.20013,43.53593],[12.19952,43.53593],[12.19915,43.536],[12.19857,43.53625],[12.19677,43.53726],[12.19608,43.5377],[12.19493,43.53858],[12.19426,43.53896],[12.18897,43.5418],[12.18873,43.54197],[12.18853,43.54218],[12.18685,43.54403],[12.1862,43.54452],[12.18515,43.54506]]},"properties":{}},{"type":"Feature","geometry":{"type":"LineString","coordinates":[[12.20682,43.50549],[12.20126,43.51331],[12.21338,43.51843],[12.21594,43.51948]]},"properties":{}},{"type":"Feature","geometry":{"type":"LineString","coordinates":[[12.20705,43.50495],[12.20716,43.50497],[12.20726,43.50506],[12.20725,43.50515],[12.20717,43.50521],[12.20699,43.50521],[12.2069,43.50514],[12.20691,43.50502],[12.20705,43.50495]]},"properties":{}},{"type":"Feature","geometry":{"type":"LineString","coordinates":[[12.20705,43.50495],[12.20724,43.50484],[12.20744,43.50462],[12.2101,43.50095],[12.21074,43.5]]},"properties":{}},{"type":"Feature","geometry":{"type":"LineString","coordinates":[[12.21689,43.52015],[12.21701,43.52024],[12.21715,43.52041],[12.21722,43.52063],[12.21721,43.52092],[12.2174,43.52194],[12.21739,43.522],[12.21713,43.52224],[12.21657,43.52285]]},"properties":{}},{"type":"Feature","geometry":{"type":"LineString","coordinates":[[12.5,43.98892],[12.49754,43.9881],[12.49714,43.98789],[12.4968,43.98767],[12.4914,43.98312]]},"properties":{}},{"type":"Feature","geometry":{"type":"LineString","coordinates":[[12.4915,43.98308],[12.49585,43.98676],[12.49691,43.98762],[12.49723,43.98784],[12.49761,43.98802],[12.5,43.98883]]},"properties":{}},{"type":"Feature","geometry":{"type":"LineString","coordinates":[[12.15167,43.56697],[12.15175,43.56713],[12.15169,43.56724],[12.15163,43.56729],[12.15138,43.56732],[12.15125,43.56727],[12.15118,43.56718],[12.15119,43.56703],[12.1513,43.56694],[12.15149,43.56691],[12.15167,43.56697]]},"properties":{}}]}