{"type":"FeatureCollection","features":[{"type":"Feature","geometry":{"type":"LineString","coordinates":[[12.5499,46.55547],[12.54994,46.55534],[12.5504,46.55465],[12.55041,46.55451],[12.55038,46.55423],[12.55033,46.55411],[12.55016,46.55391],[12.54911,46.55305],[12.54859,46.55269],[12.54711,46.55209],[12.54615,46.55174],[12.54581,46.55169],[12.54282,46.55185],[12.54245,46.55196],[12.54214,46.55213],[12.54105,46.55279],[12.54064,46.55312],[12.54036,46.55327],[12.54008,46.55334],[12.53969,46.55339],[12.53902,46.55339],[12.53863,46.55335],[12.53795,46.55318],[12.53522,46.55238],[12.53492,46.55226],[12.53474,46.55216],[12.53465,46.55204],[12.53426,46.55128],[12.53409,46.55113],[12.53349,46.55115],[12.53327,46.55109],[12.53163,46.55027],[12.53154,46.55009],[12.53156,46.54966],[12.53146,46.54957],[12.53106,46.54941],[12.53089,46.54929],[12.5308,46.54913],[12.53074,46.54846],[12.53078,46.54834],[12.53109,46.5479],[12.53117,46.54771],[12.53141,46.54697],[12.53141,46.54657],[12.53122,46.54591],[12.53093,46.54528],[12.5304,46.5445],[12.53029,46.54425],[12.53017,46.54367],[12.52983,46.54318],[12.52975,46.54296],[12.5296,46.54188],[12.52982,46.54117],[12.52979,46.541],[12.52964,46.54089],[12.5292,46.54075],[12.52863,46.5404],[12.52663,46.53891],[12.52637,46.53882],[12.52597,46.53876],[12.52453,46.53876],[12.52423,46.53871],[12.52287,46.53834],[12.52228,46.53824],[12.51799,46.53782],[12.51061,46.53686],[12.50319,46.53539],[12.5,46.53503]]},"properties":{}},{"type":"Feature","geometry":{"type":"LineString","coordinates":[[12.52434,46.56604],[12.52381,46.56653],[12.52345,46.56675],[12.52252,46.56717],[12.52227,46.56734],[12.52193,46.56782],[12.52183,46.56788],[12.52173,46.56785],[12.5217,46.56779],[12.52181,46.56761],[12.52184,46.56717],[12.52187,46.56709],[12.52264,46.56634],[12.52265,46.5663],[12.52257,46.56623],[12.52247,46.56623],[12.52206,46.56652],[12.52123,46.56696],[12.52095,46.56702],[12.52011,46.56699],[12.5191,46.56709],[12.5188,46.56709],[12.51854,46.56702],[12.51824,46.5667],[12.51801,46.5666],[12.51697,46.56647],[12.51603,46.56662],[12.51421,46.56759],[12.51338,46.56776],[12.51238,46.56806],[12.51116,46.56834],[12.50995,46.56919],[12.50934,46.56941],[12.50851,46.56978],[12.50827,46.56981],[12.50784,46.56974],[12.50693,46.56951],[12.50398,46.56806],[12.5,46.56671]]},"properties":{}},{"type":"Feature","geometry":{"type":"LineString","coordinates":[[12.5,46.59581],[12.50053,46.59544],[12.50089,46.59491],[12.50145,46.59442],[12.50204,46.59396],[12.50276,46.59354],[12.50372,46.5932],[12.50533,46.59254],[12.50582,46.59243],[12.507,46.592],[12.50772,46.59159],[12.50845,46.59127],[12.50908,46.59083]]},"properties":{}},{"type":"Feature","geometry":{"type":"LineString","coordinates":[[12.51665,46.5887],[12.51706,46.58862],[12.51726,46.58866],[12.51737,46.58877],[12.51781,46.58951],[12.51887,46.59053],[12.51893,46.59062],[12.51928,46.59182],[12.51927,46.59244],[12.51931,46.59255],[12.51972,46.59297],[12.51977,46.59307],[12.51988,46.59353],[12.52018,46.59407],[12.52027,46.59433],[12.52032,46.59476],[12.52038,46.59489],[12.52067,46.59529],[12.52097,46.59584],[12.52137,46.59614],[12.52159,46.59698],[12.5216,46.59723],[12.52177,46.59753],[12.52183,46.59791],[12.52189,46.59807],[12.52236,46.59859],[12.52277,46.5992],[12.52279,46.59941],[12.52268,46.60025],[12.52271,46.60049],[12.52278,46.60062],[12.52319,46.60097],[12.52323,46.60109],[12.52326,46.60167],[12.52332,46.6018],[12.52366,46.60221],[12.52376,46.60254],[12.52382,46.60261],[12.52397,46.60267],[12.5242,46.60264],[12.5243,46.60256],[12.52428,46.60241],[12.52375,46.60189],[12.52364,46.60172],[12.52352,46.60101],[12.52339,46.60062],[12.52339,46.60051],[12.52354,46.59998],[12.52369,46.59973],[12.52391,46.59947],[12.52432,46.59908],[12.52438,46.599],[12.5244,46.59883],[12.52428,46.59851],[12.52396,46.59817],[12.52345,46.59781],[12.52332,46.59753],[12.52322,46.59688],[12.52334,46.59605],[12.52333,46.5958],[12.52287,46.5947],[12.52275,46.59434],[12.52273,46.59416],[12.52288,46.59369],[12.52286,46.59357],[12.52283,46.59348],[12.52255,46.59317],[12.52252,46.59283],[12.52232,46.59235],[12.52231,46.59214],[12.52258,46.59152],[12.52258,46.59141],[12.5224,46.59078],[12.52242,46.5901],[12.52255,46.58934],[12.52244,46.58897],[12.52244,46.58888],[12.52256,46.58874],[12.52266,46.58869],[12.52336,46.58862],[12.5235,46.58855],[12.52355,46.58844],[12.52357,46.58801],[12.52384,46.58754],[12.52385,46.58743],[12.52364,46.58656],[12.52313,46.58508],[12.52307,46.58503],[12.52272,46.58439],[12.52262,46.58394],[12.52265,46.58376],[12.52278,46.58347],[12.52305,46.58322],[12.5236,46.5828],[12.52414,46.58244],[12.52525,46.58155],[12.52591,46.58106],[12.52682,46.58049],[12.52957,46.57842],[12.53022,46.57783],[12.53198,46.57671],[12.53252,46.57622]]},"properties":{}},{"type":"Feature","geometry":{"type":"LineString","coordinates":[[12.54691,46.57247],[12.54677,46.57239],[12.54658,46.57238],[12.54641,46.57241],[12.54445,46.57332],[12.54371,46.5734],[12.54327,46.57362],[12.54221,46.57436],[12.54204,46.57452],[12.54151,46.57524],[12.54136,46.57539],[12.54078,46.57584],[12.54063,46.57603],[12.54056,46.57607],[12.54048,46.57605],[12.54044,46.57602],[12.54043,46.57597],[12.5405,46.57573],[12.54053,46.57501],[12.54088,46.57446],[12.54095,46.57424],[12.54111,46.5732],[12.54134,46.57292],[12.54134,46.57284],[12.54126,46.5728],[12.54111,46.57286],[12.54073,46.57321],[12.53943,46.57413],[12.53928,46.57437],[12.53922,46.57441],[12.53913,46.5744],[12.53909,46.57436],[12.53912,46.57384],[12.53945,46.57339],[12.53953,46.5732],[12.53958,46.57275],[12.53964,46.57262],[12.54002,46.57214],[12.54005,46.57205],[12.53998,46.57188],[12.53986,46.57183],[12.53971,46.57187],[12.53928,46.5721],[12.5391,46.57209],[12.53906,46.57205],[12.53908,46.57198],[12.53942,46.57156],[12.53939,46.57147],[12.53924,46.57146],[12.53805,46.57235],[12.53696,46.57335],[12.53666,46.57355],[12.53647,46.57376],[12.5362,46.57421],[12.53611,46.5743],[12.53581,46.57443],[12.53535,46.57492],[12.53449,46.57552],[12.53431,46.57568],[12.53422,46.57579],[12.53408,46.57584],[12.53402,46.5758],[12.53401,46.57575],[12.5343,46.57525],[12.53445,46.57505],[12.53449,46.57498],[12.53447,46.57494],[12.53441,46.57493],[12.5343,46.57497],[12.5342,46.57506],[12.5336,46.57536],[12.53319,46.57565],[12.53295,46.5759],[12.53287,46.57615],[12.53278,46.57623],[12.53271,46.57626],[12.53252,46.57622]]},"properties":{}},{"type":"Feature","geometry":{"type":"LineString","coordinates":[[12.53252,46.57622],[12.53276,46.57597],[12.53281,46.57555],[12.53288,46.57543],[12.53311,46.57517],[12.53379,46.57479],[12.53388,46.5747],[12.53442,46.57383],[12.53474,46.57341],[12.53509,46.57304],[12.53517,46.57291],[12.53523,46.5727],[12.53517,46.57215],[12.5352,46.57198],[12.53556,46.57134],[12.53568,46.5712],[12.5363,46.57084],[12.53709,46.57009],[12.53726,46.56987],[12.5373,46.56956],[12.53737,46.56932],[12.53754,46.56908],[12.53795,46.56872],[12.53897,46.568],[12.53942,46.56776],[12.54013,46.56748],[12.54154,46.56724],[12.54175,46.56715],[12.54262,46.56661],[12.54275,46.5665],[12.54358,46.56545],[12.54411,46.5649],[12.54446,46.56433],[12.54497,46.56382],[12.54509,46.56365],[12.54517,46.56346],[12.54526,46.56302],[12.54535,46.5629],[12.54585,46.56252],[12.54643,46.56193],[12.54712,46.56148],[12.5482,46.56013],[12.54837,46.55989],[12.54873,46.55896],[12.54906,46.55799]]},"properties":{}},{"type":"Feature","geometry":{"type":"LineString","coordinates":[[12.54906,46.55799],[12.54953,46.55804],[12.55071,46.5581],[12.55188,46.55837],[12.55364,46.55866]]},"properties":{}},{"type":"Feature","geometry":{"type":"LineString","coordinates":[[12.5499,46.55547],[12.54906,46.55799]]},"properties":{}},{"type":"Feature","geometry":{"type":"LineString","coordinates":[[12.55101,46.55615],[12.55022,46.55561],[12.55,46.55548],[12.5499,46.55547]]},"properties":{}},{"type":"Feature","geometry":{"type":"LineString","coordinates":[[12.55185,46.55672],[12.55101,46.55615]]},"properties":{}},{"type":"Feature","geometry":{"type":"LineString","coordinates":[[12.55185,46.55672],[12.55178,46.55679],[12.55094,46.55625],[12.55101,46.55615]]},"properties":{}},{"type":"Feature","geometry":{"type":"LineString","coordinates":[[12.55364,46.55866],[12.55375,46.55841],[12.55369,46.55816],[12.55375,46.55781],[12.55373,46.55771],[12.55185,46.55672]]},"properties":{}},{"type":"Feature","geometry":{"type":"LineString","coordinates":[[12.6004,46.57517],[12.59997,46.57487],[12.59958,46.5747],[12.59828,46.57434],[12.59679,46.57361],[12.59613,46.57316],[12.59589,46.57303],[12.59547,46.57283],[12.5942,46.57237],[12.5904,46.57038],[12.59006,46.57013],[12.58778,46.56813],[12.58685,46.56728],[12.58558,46.5665],[12.58454,46.56604],[12.58307,46.56582],[12.58213,46.56555],[12.58177,46.5655],[12.58055,46.5654],[12.57935,46.56524],[12.57802,46.565],[12.57577,46.56527],[12.5755,46.56527],[12.57527,46.56521],[12.57453,46.56489],[12.57329,46.5645],[12.57145,46.56337],[12.57116,46.56323],[12.56826,46.56222],[12.56413,46.56073],[12.55825,46.55938],[12.55364,46.55866]]},"properties":{}},{"type":"Feature","geometry":{"type":"LineString","coordinates":[[12.6004,46.57517],[12.6003,46.57521],[12.59963,46.57528],[12.59945,46.57528],[12.59879,46.57517],[12.59817,46.57488],[12.59747,46.57447],[12.59659,46.57405],[12.59475,46.57341],[12.5944,46.57335],[12.59379,46.57353],[12.59356,46.57354],[12.59249,46.57324],[12.59165,46.5729],[12.59052,46.57262],[12.58854,46.57181],[12.58617,46.57078],[12.58603,46.57069],[12.58605,46.57061],[12.58602,46.57045],[12.58591,46.57042],[12.58576,46.57044],[12.58545,46.57075],[12.58515,46.57112],[12.58504,46.5712],[12.58474,46.57131],[12.58414,46.57137],[12.58382,46.57145],[12.58361,46.57158],[12.58345,46.57183],[12.58336,46.57186],[12.58326,46.57185],[12.58296,46.57212],[12.58285,46.57227],[12.58266,46.57286],[12.58212,46.57357],[12.58146,46.5742],[12.58097,46.57443],[12.58087,46.57451],[12.58068,46.57479],[12.58062,46.57497],[12.5806,46.57526],[12.58063,46.57559],[12.58061,46.57589],[12.58054,46.57612],[12.58015,46.57683],[12.58013,46.57697],[12.58067,46.57799],[12.58077,46.57811],[12.58145,46.5787],[12.58152,46.57879],[12.58165,46.57937],[12.58165,46.57962],[12.5816,46.57995],[12.58138,46.5804],[12.58138,46.58055],[12.58149,46.5807],[12.58234,46.58132],[12.58232,46.58139],[12.58225,46.58142],[12.58214,46.5814],[12.58202,46.58123],[12.58156,46.58109],[12.58116,46.58094],[12.58081,46.58068],[12.58075,46.58062],[12.58071,46.58017],[12.5806,46.58006],[12.58029,46.57992],[12.5802,46.57985],[12.58009,46.57963],[12.57998,46.57929],[12.57991,46.57921],[12.57967,46.57907],[12.57956,46.57904],[12.57845,46.57902],[12.57813,46.57905],[12.57781,46.579],[12.57774,46.57903],[12.57772,46.57908],[12.57774,46.57914],[12.57784,46.57916],[12.5786,46.57922],[12.57909,46.57946],[12.57947,46.57958],[12.57951,46.57963],[12.57948,46.57968],[12.57932,46.57971],[12.57911,46.57959],[12.57846,46.57943],[12.57809,46.57949],[12.57781,46.57946],[12.57774,46.57947],[12.5777,46.57952],[12.57771,46.57957],[12.57777,46.5796],[12.57804,46.57956],[12.57833,46.57956],[12.57847,46.57961],[12.57885,46.57989],[12.57893,46.58],[12.5791,46.58045],[12.57936,46.58062],[12.57936,46.58069],[12.57931,46.58073],[12.57922,46.58075],[12.57912,46.58071],[12.5789,46.58053],[12.57875,46.58027],[12.57821,46.57999],[12.57698,46.57999],[12.57555,46.57966],[12.57465,46.57912],[12.57391,46.57893],[12.57351,46.57861],[12.57303,46.57838],[12.57289,46.57837],[12.57284,46.57845],[12.57315,46.5787],[12.57316,46.57877],[12.5731,46.5788],[12.57298,46.57878],[12.57242,46.57843],[12.57223,46.57844],[12.57219,46.5785],[12.57223,46.57859],[12.57295,46.57908],[12.57365,46.57934],[12.57405,46.57962],[12.57495,46.58003],[12.57518,46.58019],[12.57556,46.58024],[12.57613,46.58048],[12.57636,46.58066],[12.57645,46.5808],[12.57637,46.5809],[12.57629,46.5809],[12.57623,46.58087],[12.57614,46.58072],[12.57599,46.58061],[12.57548,46.58042],[12.57533,46.5804],[12.5747,46.58041],[12.57399,46.58018],[12.57369,46.58002],[12.57351,46.57997],[12.57329,46.57991],[12.57321,46.57994],[12.57322,46.58001],[12.57342,46.58009],[12.57358,46.58024]]},"properties":{}},{"type":"Feature","geometry":{"type":"LineString","coordinates":[[12.77638,46.58577],[12.77628,46.58645],[12.77611,46.58688],[12.77591,46.58715],[12.77559,46.58745],[12.77544,46.58772],[12.77533,46.58906],[12.77527,46.58921],[12.77502,46.58959],[12.77505,46.58982],[12.77545,46.59063],[12.77544,46.59083],[12.77536,46.59092],[12.77523,46.59098],[12.77414,46.59121],[12.77384,46.59117],[12.77364,46.59098],[12.77335,46.59038],[12.77319,46.58986],[12.77317,46.58969],[12.77329,46.58913],[12.77328,46.58901],[12.77319,46.58872],[12.77307,46.58857],[12.77206,46.58802],[12.77149,46.58764],[12.77094,46.58736],[12.77026,46.58707],[12.76967,46.58672],[12.76843,46.58619],[12.76807,46.58596],[12.76788,46.58591],[12.76715,46.58579],[12.76664,46.58564],[12.76536,46.58497],[12.76515,46.58477],[12.76502,46.58455],[12.76437,46.58235],[12.76425,46.58217],[12.76391,46.58195],[12.76304,46.58163],[12.76289,46.58151],[12.76232,46.58081],[12.76218,46.58074],[12.7617,46.58059],[12.76149,46.58046],[12.76103,46.58],[12.76097,46.57991],[12.76097,46.57983],[12.76111,46.57953],[12.7611,46.57942],[12.76101,46.57929],[12.75923,46.57813],[12.75887,46.57795],[12.7578,46.5776],[12.75765,46.57758],[12.75727,46.57758],[12.75597,46.57784],[12.75581,46.57783],[12.75497,46.57749],[12.75399,46.57719],[12.75348,46.57708],[12.75235,46.57692],[12.75203,46.57681],[12.75179,46.57658],[12.75162,46.57634],[12.75085,46.57482],[12.75062,46.57405],[12.75054,46.57392],[12.75043,46.57381],[12.74993,46.57356],[12.74907,46.57329],[12.74762,46.57304],[12.74657,46.57278],[12.74529,46.57264],[12.74476,46.57249],[12.74432,46.57233],[12.744,46.57217],[12.74284,46.57144],[12.74163,46.57076],[12.73943,46.56962],[12.73903,46.5695],[12.73846,46.56922],[12.73744,46.56849],[12.73705,46.56831],[12.73692,46.56818],[12.73657,46.5676],[12.73623,46.56717],[12.73586,46.56703],[12.73566,46.56692],[12.73452,46.56604],[12.73403,46.56572],[12.73387,46.56565],[12.73378,46.56567],[12.73372,46.56573],[12.73372,46.56594],[12.73374,46.56608],[12.73385,46.56637],[12.73409,46.56668],[12.73409,46.56673],[12.73403,46.56677],[12.73392,46.56674],[12.73301,46.56599],[12.73271,46.56586],[12.73249,46.56582],[12.73037,46.56579],[12.72923,46.5657],[12.72881,46.56579],[12.72832,46.56605],[12.72796,46.56619],[12.72789,46.56627],[12.72793,46.56636],[12.72809,46.5664],[12.7285,46.56625],[12.72888,46.56608],[12.72901,46.56606],[12.72913,46.5661],[12.7292,46.56618],[12.72919,46.56627],[12.72907,46.56636],[12.72786,46.56673],[12.72652,46.5671],[12.72616,46.56713],[12.72595,46.56708],[12.72583,46.56702],[12.72513,46.5664],[12.72484,46.5662],[12.72367,46.56552],[12.72328,46.56535],[12.723,46.56527],[12.72218,46.56523],[12.72199,46.56524],[12.72182,46.56531],[12.72134,46.5657],[12.72117,46.56579],[12.71974,46.56632],[12.71963,46.56648],[12.71965,46.56661],[12.72117,46.56865],[12.72124,46.56878],[12.72128,46.56894],[12.72119,46.57041],[12.72123,46.57056],[12.72131,46.57068],[12.72159,46.57097],[12.72167,46.57111],[12.72171,46.57157],[12.7218,46.57178],[12.72204,46.57201],[12.72255,46.57224],[12.72259,46.57228],[12.72257,46.57233],[12.72247,46.57237],[12.72016,46.57155],[12.71984,46.57147],[12.71949,46.57144],[12.71924,46.57146],[12.71846,46.57162],[12.7175,46.57154],[12.71658,46.5714],[12.71208,46.57031],[12.7117,46.57024],[12.7099,46.57022],[12.7091,46.57016],[12.70881,46.57005],[12.70751,46.56941],[12.70721,46.56932],[12.70459,46.56873],[12.7041,46.56869],[12.70052,46.56868],[12.70013,46.56865],[12.69356,46.56745],[12.69225,46.56719],[12.69145,46.56697],[12.69123,46.56688],[12.69003,46.56626],[12.68987,46.56622],[12.68967,46.56623],[12.68948,46.56632],[12.68918,46.56671],[12.68883,46.56723],[12.68868,46.56731],[12.68852,46.56733],[12.68774,46.56718],[12.68758,46.56708],[12.68752,46.567],[12.68751,46.56687],[12.68762,46.56638],[12.68755,46.56625],[12.68737,46.56615],[12.68002,46.56558],[12.67975,46.56553],[12.67806,46.56501],[12.67754,46.56492],[12.67653,46.5648],[12.67325,46.56451],[12.67283,46.56449],[12.67248,46.56451],[12.6718,46.56466],[12.66539,46.5663],[12.66487,46.56646],[12.66364,46.56692],[12.6633,46.56691],[12.66216,46.56658],[12.66189,46.56658],[12.66169,46.56664],[12.6615,46.56676],[12.66097,46.56724],[12.6604,46.5675],[12.6592,46.56843],[12.65905,46.5685],[12.65813,46.5688],[12.65659,46.56967],[12.65587,46.5702],[12.65513,46.57061],[12.65495,46.57078],[12.65463,46.57119],[12.65449,46.57128],[12.65357,46.57151],[12.65295,46.57171],[12.65182,46.57167],[12.65103,46.57195],[12.65034,46.57228],[12.64972,46.57292],[12.64949,46.57334],[12.64887,46.57382],[12.64867,46.57413],[12.64831,46.57454],[12.6479,46.57477],[12.64778,46.57487],[12.64681,46.57579],[12.64659,46.57608],[12.64628,46.57636],[12.64607,46.57649],[12.64525,46.57677],[12.64433,46.57716],[12.64395,46.57722],[12.64297,46.57752],[12.64278,46.57754],[12.64176,46.5775],[12.64066,46.57784],[12.64034,46.57799],[12.63969,46.5786],[12.63949,46.57874],[12.63899,46.57897],[12.6386,46.57907],[12.63796,46.57915],[12.63644,46.57911],[12.63465,46.57938],[12.6338,46.57961],[12.63049,46.5807],[12.6299,46.58078],[12.6225,46.5809],[12.62119,46.58082],[12.62072,46.58073],[12.62004,46.58049],[12.61632,46.57846],[12.61514,46.57797],[12.6147,46.57785],[12.61354,46.57771],[12.61067,46.57767],[12.60797,46.5777],[12.60613,46.57776],[12.60581,46.57773],[12.60429,46.577],[12.60417,46.57696],[12.60369,46.57702],[12.6035,46.57698],[12.60182,46.57611],[12.6004,46.57517]]},"properties":{}},{"type":"Feature","geometry":{"type":"LineString","coordinates":[[12.76561,46.52162],[12.76582,46.52156]]},"properties":{}},{"type":"Feature","geometry":{"type":"LineString","coordinates":[[12.76571,46.52167],[12.76591,46.52171],[12.76605,46.52178],[12.7663,46.52209],[12.7665,46.52225],[12.76681,46.52237],[12.76716,46.52243],[12.76897,46.52245],[12.77062,46.52235],[12.77174,46.52241],[12.77217,46.52235],[12.77279,46.52207],[12.77316,46.52203],[12.77389,46.52208],[12.77458,46.52216],[12.77513,46.52227],[12.77587,46.52248],[12.77608,46.52248],[12.77625,46.52245],[12.77648,46.52233],[12.77687,46.52194],[12.77712,46.52174],[12.77735,46.52163],[12.77778,46.52153],[12.77902,46.52142],[12.78151,46.52109],[12.78397,46.52115],[12.78543,46.52098],[12.78633,46.52082],[12.78814,46.52074],[12.78916,46.52077],[12.79052,46.52067],[12.79191,46.52033],[12.79238,46.52029],[12.79298,46.52016],[12.79367,46.51985],[12.79458,46.51962],[12.79551,46.51947],[12.79591,46.51952],[12.79603,46.51957],[12.79647,46.51986],[12.79661,46.52015],[12.79702,46.52034],[12.79722,46.52037],[12.79756,46.52037],[12.79857,46.52024],[12.79962,46.52037],[12.80235,46.52037],[12.80424,46.52018],[12.80522,46.52013],[12.80601,46.52016],[12.80692,46.52026],[12.80715,46.52018],[12.80751,46.51997],[12.80776,46.51989],[12.80868,46.51988],[12.80925,46.51974],[12.80985,46.5197],[12.81178,46.51995],[12.81209,46.51993],[12.81245,46.51982],[12.81291,46.51959],[12.81343,46.51944],[12.81388,46.51917],[12.81473,46.51879],[12.81572,46.51859],[12.81583,46.51854],[12.81627,46.51819],[12.8165,46.51807],[12.8169,46.51804],[12.81727,46.51811],[12.81809,46.51856],[12.81835,46.51865],[12.81858,46.51866],[12.81909,46.51859],[12.81958,46.51858],[12.82018,46.51844],[12.82107,46.51808],[12.82202,46.51806],[12.82287,46.51793],[12.82334,46.51781],[12.82487,46.51772],[12.82549,46.51758],[12.82596,46.51754],[12.82645,46.51738],[12.82693,46.51728],[12.82874,46.51706],[12.83052,46.51672],[12.83098,46.51654],[12.83196,46.51598],[12.833,46.51507],[12.83341,46.51478],[12.83366,46.51469],[12.83541,46.51421],[12.83643,46.51388],[12.8382,46.5139],[12.83851,46.51394],[12.83918,46.5141],[12.83981,46.51405],[12.84195,46.51423],[12.84235,46.51422],[12.84451,46.51313],[12.84488,46.51297],[12.84682,46.51237],[12.84757,46.51222],[12.84815,46.51206],[12.84882,46.51195],[12.84965,46.51176],[12.8503,46.51119],[12.85087,46.5108],[12.85143,46.51017],[12.85173,46.50992],[12.85375,46.50879],[12.85426,46.50847],[12.85439,46.50831],[12.85469,46.50779],[12.8548,46.50766],[12.85504,46.5075],[12.85752,46.50638],[12.85775,46.5063],[12.85814,46.50623],[12.86,46.50613]]},"properties":{}},{"type":"Feature","geometry":{"type":"LineString","coordinates":[[12.77338,46.52195],[12.77378,46.52199]]},"properties":{}},{"type":"Feature","geometry":{"type":"LineString","coordinates":[[12.77638,46.58577],[12.77621,46.58599],[12.77592,46.58626],[12.77569,46.58623],[12.77518,46.58604]]},"properties":{}},{"type":"Feature","geometry":{"type":"LineString","coordinates":[[12.77518,46.58604],[12.77504,46.58622],[12.7747,46.58609],[12.77484,46.58591],[12.77518,46.58604]]},"properties":{}},{"type":"Feature","geometry":{"type":"LineString","coordinates":[[12.77682,46.58514],[12.77665,46.58519],[12.77656,46.58529],[12.77638,46.58577]]},"properties":{}},{"type":"Feature","geometry":{"type":"LineString","coordinates":[[12.77677,46.52194],[12.77685,46.52186]]},"properties":{}},{"type":"Feature","geometry":{"type":"LineString","coordinates":[[12.77682,46.58514],[12.7769,46.5853],[12.77694,46.5855],[12.77692,46.5856],[12.77683,46.58569],[12.77683,46.5858],[12.77691,46.58606],[12.77674,46.58679],[12.77656,46.58707],[12.77661,46.58714],[12.77667,46.58716],[12.77815,46.5867],[12.7789,46.58674],[12.77967,46.58658],[12.78121,46.58636],[12.78173,46.58626],[12.78237,46.58633],[12.78261,46.58632],[12.78289,46.58608],[12.78318,46.5859],[12.78377,46.58576],[12.78385,46.58571],[12.78389,46.58562],[12.78403,46.5855],[12.78509,46.58525],[12.78537,46.58522],[12.78647,46.58527],[12.7878,46.58554],[12.78798,46.58551],[12.78811,46.58546],[12.78822,46.58536],[12.78829,46.58527],[12.78834,46.58507],[12.78834,46.5849],[12.7883,46.58475],[12.78808,46.58454],[12.78802,46.58443],[12.78804,46.58431],[12.78815,46.58416],[12.78863,46.58395],[12.78924,46.58353],[12.79075,46.58305],[12.79185,46.58251],[12.79216,46.58243],[12.79381,46.58216],[12.7941,46.58213],[12.79466,46.58214],[12.79479,46.58219],[12.79479,46.58242],[12.7949,46.58258],[12.79498,46.58264],[12.79513,46.58265],[12.7958,46.58226],[12.79585,46.5822],[12.79588,46.58201],[12.79626,46.58176],[12.79636,46.58151],[12.79665,46.5811],[12.7972,46.58057],[12.79748,46.58043],[12.79783,46.58032],[12.79828,46.5803],[12.79872,46.58014],[12.79938,46.58018],[12.79994,46.58015],[12.80028,46.58023],[12.80067,46.58026],[12.80078,46.58031],[12.80099,46.58047],[12.80107,46.58049],[12.80116,46.58047],[12.80133,46.58024],[12.80261,46.57935],[12.80423,46.57835],[12.80427,46.57825],[12.80429,46.57775],[12.80459,46.57709],[12.8048,46.5768],[12.80511,46.57659],[12.80534,46.57652],[12.80563,46.57649],[12.80735,46.57648],[12.80958,46.57636],[12.80982,46.57638],[12.81043,46.5766],[12.81105,46.57675],[12.81166,46.57733],[12.81194,46.57753],[12.81223,46.57768],[12.81241,46.57795],[12.81249,46.57801],[12.81311,46.57816],[12.81401,46.57852],[12.8147,46.57871],[12.81491,46.57889],[12.815,46.57917],[12.815,46.57927],[12.81477,46.57966],[12.81477,46.57973],[12.81484,46.57981],[12.81519,46.57998],[12.81571,46.58005],[12.81614,46.58017],[12.81684,46.58093],[12.81732,46.58127],[12.81768,46.58167],[12.81783,46.58175],[12.81836,46.58192],[12.81874,46.58214],[12.81901,46.58216],[12.82006,46.58196],[12.82071,46.582],[12.82134,46.58194],[12.82168,46.58201],[12.82215,46.58226],[12.82233,46.58227],[12.8225,46.58222],[12.82275,46.58207],[12.82305,46.5818],[12.82346,46.58154],[12.82375,46.58124],[12.82397,46.58119],[12.8241,46.58123],[12.82419,46.58131],[12.82457,46.5821],[12.82467,46.5822],[12.82475,46.58222],[12.82499,46.58212],[12.82513,46.58194],[12.82526,46.58184],[12.826,46.58154],[12.82667,46.58099],[12.82682,46.58095],[12.82694,46.58098],[12.82742,46.58147],[12.82758,46.58157],[12.82781,46.58164],[12.82925,46.58168],[12.82963,46.58181],[12.8309,46.58203],[12.83156,46.58196],[12.83343,46.58199],[12.83447,46.58215],[12.83535,46.58254],[12.83638,46.58288],[12.83669,46.58294],[12.83695,46.58296],[12.83719,46.5829],[12.83724,46.58286],[12.83742,46.58252],[12.83752,46.58246],[12.83766,46.58245],[12.83791,46.58257],[12.83913,46.5835],[12.83915,46.58362],[12.83898,46.58394],[12.83897,46.58402],[12.83902,46.5841],[12.83931,46.58431],[12.83957,46.58443],[12.83997,46.58452],[12.84044,46.58472],[12.84055,46.58473],[12.84092,46.58464],[12.84125,46.58474],[12.84168,46.58503],[12.84193,46.58524],[12.84251,46.58577],[12.84302,46.58631],[12.84314,46.58638],[12.84382,46.58658],[12.84426,46.58667]]},"properties":{}},{"type":"Feature","geometry":{"type":"LineString","coordinates":[[12.84808,46.55829],[12.84733,46.55906],[12.84676,46.55938],[12.8462,46.5596],[12.84569,46.55992],[12.84469,46.56075],[12.84456,46.56091],[12.84448,46.56128],[12.8444,46.56146],[12.84398,46.56211],[12.84397,46.56254],[12.84388,46.56266],[12.84371,46.56278],[12.84222,46.5637],[12.841,46.56422],[12.84011,46.56454],[12.83967,46.56478],[12.83831,46.56523],[12.83779,46.56559],[12.83759,46.56567],[12.83654,46.56598],[12.83558,46.56638],[12.83501,46.56656],[12.8328,46.56705],[12.83194,46.56731],[12.83014,46.56795],[12.82912,46.5684],[12.82778,46.56904],[12.82685,46.56939],[12.82642,46.56951],[12.82594,46.56959],[12.82508,46.56969],[12.8242,46.56975],[12.818,46.56999],[12.81227,46.57031],[12.81029,46.5703],[12.81003,46.57032],[12.80986,46.57036],[12.80951,46.5705],[12.80935,46.57062],[12.80906,46.57104],[12.80896,46.57114],[12.80819,46.57148],[12.8062,46.57193],[12.80534,46.57217],[12.80459,46.57242],[12.80421,46.57251],[12.80361,46.57259],[12.8029,46.57251],[12.80258,46.5725],[12.8012,46.57277],[12.80064,46.57301],[12.79919,46.57393],[12.7988,46.57423],[12.7985,46.57439],[12.79611,46.57535],[12.79561,46.57553],[12.7947,46.57579],[12.79448,46.57588],[12.79223,46.57748],[12.79195,46.5776],[12.79123,46.57776],[12.79075,46.57803],[12.79063,46.57813],[12.79052,46.57827],[12.79032,46.5789],[12.79021,46.57905],[12.78977,46.57936],[12.78929,46.57955],[12.78842,46.5797],[12.78759,46.58002],[12.78563,46.58111],[12.78455,46.58136],[12.78412,46.5815],[12.78307,46.58216],[12.78292,46.58236],[12.78273,46.58281],[12.78196,46.58351],[12.78125,46.58407],[12.78051,46.5845],[12.78007,46.5847],[12.77996,46.58472],[12.77908,46.58474],[12.77682,46.58514]]},"properties":{}},{"type":"Feature","geometry":{"type":"LineString","coordinates":[[12.78453,46.52113],[12.78466,46.52112]]},"properties":{}},{"type":"Feature","geometry":{"type":"LineString","coordinates":[[12.79817,46.52022],[12.7983,46.5202]]},"properties":{}},{"type":"Feature","geometry":{"type":"LineString","coordinates":[[12.83853,46.5831],[12.83847,46.58305]]},"properties":{}},{"type":"Feature","geometry":{"type":"LineString","coordinates":[[12.86681,46.51548],[12.86657,46.51571],[12.86628,46.5159],[12.86613,46.51613],[12.86559,46.51618],[12.86514,46.51616],[12.8651,46.51646],[12.86511,46.51668],[12.86539,46.51769],[12.86545,46.5178],[12.86557,46.51789],[12.86653,46.51828],[12.86701,46.51863],[12.86737,46.51899],[12.86778,46.51924],[12.86884,46.51964],[12.86912,46.51971],[12.86976,46.5198],[12.87014,46.51995],[12.87055,46.52033],[12.87074,46.52058],[12.87072,46.52071],[12.87067,46.52079],[12.87031,46.52112],[12.86998,46.52131],[12.86983,46.52145],[12.86967,46.52169],[12.86934,46.522],[12.86928,46.52214],[12.86926,46.52285],[12.8695,46.52325],[12.86957,46.52343],[12.86955,46.52363],[12.8694,46.52392],[12.86939,46.5241],[12.86944,46.52457],[12.86963,46.52498],[12.86965,46.52511],[12.86958,46.52525],[12.86928,46.52547],[12.8692,46.5256],[12.86921,46.52574],[12.86937,46.52606],[12.86947,46.52633],[12.8693,46.52673],[12.86933,46.52683],[12.86939,46.52688],[12.86971,46.52709],[12.86977,46.52716],[12.86979,46.52727],[12.8697,46.52867],[12.86963,46.52877],[12.86925,46.52898],[12.86918,46.52907],[12.86907,46.52928],[12.86899,46.52964],[12.86881,46.53],[12.86881,46.53007],[12.86899,46.53051],[12.86914,46.53111],[12.86913,46.53125],[12.86901,46.53137],[12.86831,46.53168],[12.8681,46.53184],[12.86771,46.53271],[12.86762,46.53282],[12.86722,46.53306],[12.86695,46.53332],[12.86639,46.53349],[12.86624,46.53358],[12.86621,46.53365],[12.86622,46.53372],[12.86646,46.534],[12.86646,46.53418],[12.86633,46.53433],[12.86591,46.5346],[12.86559,46.53493],[12.86433,46.53532],[12.86399,46.53536],[12.86332,46.53538],[12.86311,46.53541],[12.86291,46.53549],[12.86258,46.53569],[12.86255,46.53583],[12.86263,46.53593],[12.86315,46.53605],[12.86339,46.5362],[12.86349,46.53633],[12.86362,46.53667],[12.86355,46.5368],[12.86343,46.53686],[12.863,46.53692],[12.86233,46.53719],[12.86227,46.53729],[12.86234,46.53743],[12.86298,46.53773],[12.86331,46.53782],[12.86356,46.53786],[12.86387,46.53786],[12.86482,46.53773],[12.86496,46.53778],[12.86508,46.53791],[12.86509,46.53804],[12.86465,46.54],[12.86459,46.54014],[12.86451,46.54025],[12.86391,46.54083],[12.86321,46.54137],[12.86285,46.54169],[12.86167,46.5429],[12.8614,46.54332],[12.86133,46.54359],[12.86139,46.54385],[12.86145,46.54401],[12.8614,46.54418],[12.86063,46.54473],[12.86039,46.54497],[12.85984,46.54561],[12.85955,46.54583],[12.85821,46.54641],[12.85689,46.54659],[12.85661,46.54669],[12.85638,46.54681],[12.85582,46.54727],[12.8554,46.54745],[12.8553,46.54753],[12.8548,46.54814],[12.85462,46.54854],[12.85417,46.54904],[12.85396,46.54962],[12.85391,46.55002],[12.85374,46.55036],[12.85359,46.55052],[12.85293,46.55103],[12.85211,46.55175],[12.85119,46.55293],[12.85083,46.55315],[12.85028,46.55337],[12.85009,46.55351],[12.84915,46.5547],[12.84899,46.55495],[12.84895,46.55526],[12.84878,46.55551],[12.8487,46.55569],[12.84888,46.55622],[12.84905,46.55647],[12.84905,46.55666],[12.84863,46.55724],[12.84849,46.55751],[12.84839,46.55792],[12.8481,46.55827]]},"properties":{}},{"type":"Feature","geometry":{"type":"LineString","coordinates":[[12.86,46.50613],[12.86011,46.50626],[12.86005,46.50647],[12.86022,46.50664],[12.86039,46.50671],[12.86108,46.50686],[12.86136,46.50697],[12.86155,46.50725],[12.86182,46.50809],[12.86185,46.50825],[12.86171,46.50862],[12.86194,46.50915],[12.86195,46.50931],[12.86185,46.50962],[12.86185,46.50979],[12.86196,46.50997],[12.86254,46.51046],[12.86255,46.51054],[12.86251,46.51063],[12.86289,46.51064],[12.86301,46.51069],[12.86311,46.51075],[12.86318,46.51086],[12.86322,46.51104],[12.86328,46.5111],[12.8634,46.51114],[12.8654,46.51109],[12.8662,46.5111],[12.86685,46.511],[12.8665,46.51021]]},"properties":{}},{"type":"Feature","geometry":{"type":"LineString","coordinates":[[12.86,46.50613],[12.86146,46.50603],[12.86491,46.50571]]},"properties":{}},{"type":"Feature","geometry":{"type":"LineString","coordinates":[[12.8665,46.51021],[12.86637,46.50994],[12.86595,46.50931],[12.86583,46.50907],[12.86572,46.50845],[12.86578,46.50793],[12.86558,46.50695],[12.86545,46.5066],[12.86507,46.50606],[12.86495,46.50585],[12.86491,46.50571]]},"properties":{}},{"type":"Feature","geometry":{"type":"LineString","coordinates":[[12.86491,46.50571],[12.8649,46.50542],[12.86496,46.50507],[12.8655,46.50404],[12.86562,46.50349],[12.86564,46.50305],[12.8656,46.50231],[12.86558,46.50202],[12.86542,46.50139],[12.8654,46.50048],[12.86534,46.5]]},"properties":{}},{"type":"Feature","geometry":{"type":"LineString","coordinates":[[12.8665,46.51021],[12.86655,46.51021],[12.86663,46.51029],[12.86742,46.51184],[12.86768,46.51223],[12.86777,46.51248],[12.86796,46.51349],[12.86789,46.51377],[12.86739,46.51451],[12.86736,46.51463],[12.8674,46.51487],[12.86738,46.51494],[12.86724,46.51511],[12.86681,46.51548]]},"properties":{}},{"type":"Feature","geometry":{"type":"LineString","coordinates":[[12.86675,46.51646],[12.86696,46.51649],[12.86771,46.5164],[12.86865,46.51647],[12.87161,46.51701],[12.87184,46.51709],[12.87234,46.51736],[12.87342,46.51761],[12.87465,46.51811],[12.87536,46.51817],[12.87576,46.51815],[12.87592,46.5181],[12.87609,46.51792],[12.87623,46.51762],[12.87624,46.51749],[12.8762,46.51738],[12.87557,46.51681],[12.87561,46.51672],[12.87577,46.5167],[12.87679,46.51737],[12.87694,46.51741],[12.8774,46.5174],[12.87756,46.5175],[12.87759,46.5176],[12.87747,46.518],[12.87705,46.51846],[12.87704,46.51856],[12.87711,46.51865],[12.87729,46.51873],[12.87821,46.51882],[12.87897,46.51898],[12.87922,46.51894],[12.87947,46.51873],[12.87955,46.5186],[12.87953,46.51844],[12.87922,46.5181],[12.87918,46.51799],[12.87924,46.51788],[12.87939,46.51784],[12.87957,46.51789],[12.87989,46.51804],[12.88111,46.51879],[12.88158,46.51901],[12.88205,46.51912],[12.88291,46.51911],[12.88357,46.51901],[12.8838,46.519],[12.8845,46.51916],[12.88505,46.5192],[12.88608,46.51906],[12.88838,46.51904],[12.88912,46.51886],[12.88928,46.51886],[12.88943,46.5189],[12.88953,46.51898],[12.88969,46.51944],[12.88991,46.51977],[12.89016,46.51999],[12.89081,46.52035],[12.89127,46.52042],[12.89176,46.52038],[12.89228,46.52022],[12.89243,46.5201],[12.89243,46.51999],[12.89215,46.51978],[12.89202,46.51963],[12.89184,46.51911],[12.89183,46.51903],[12.89188,46.51892],[12.89208,46.51882],[12.89233,46.51884],[12.89278,46.51916],[12.89309,46.5193],[12.89557,46.5198],[12.89578,46.51981],[12.89607,46.51974],[12.89741,46.51905],[12.8975,46.51894],[12.89755,46.51856],[12.8976,46.51849],[12.89772,46.51842],[12.898,46.51842],[12.89813,46.5185],[12.89828,46.51892],[12.89839,46.5191],[12.8986,46.51924],[12.89896,46.51932],[12.89988,46.51933],[12.9006,46.5192],[12.901,46.51906],[12.90292,46.51796],[12.90314,46.5179],[12.90335,46.5179],[12.90361,46.51799],[12.904,46.51836],[12.90427,46.51846],[12.90636,46.51833],[12.90663,46.5184],[12.90716,46.51872],[12.9073,46.51877],[12.90753,46.51877],[12.9084,46.51863],[12.90858,46.51865],[12.90871,46.51878],[12.90875,46.51893],[12.90848,46.51934],[12.90834,46.51967],[12.90834,46.51982],[12.90852,46.51999],[12.90884,46.52019],[12.90929,46.52037],[12.91274,46.52084],[12.91401,46.52093],[12.91661,46.52102],[12.91703,46.52099],[12.91805,46.52081],[12.91904,46.52078],[12.9197,46.52086],[12.92005,46.52094],[12.92037,46.52106],[12.92316,46.52233],[12.92579,46.52315],[12.92682,46.52337],[12.93048,46.52393]]},"properties":{}},{"type":"Feature","geometry":{"type":"LineString","coordinates":[[12.88175,46.53304],[12.8821,46.53187],[12.88254,46.53122],[12.88279,46.53078],[12.88283,46.52987],[12.88278,46.52977],[12.88203,46.52939],[12.88164,46.52915],[12.88156,46.52912],[12.88137,46.52918],[12.88126,46.52927],[12.88091,46.52987],[12.88059,46.53019],[12.87991,46.53068],[12.87967,46.53078],[12.87909,46.53094],[12.87758,46.53223],[12.87718,46.53277],[12.87704,46.53282],[12.87659,46.5328],[12.87648,46.53283],[12.87605,46.53309],[12.87595,46.5331],[12.87583,46.53303],[12.87588,46.53269],[12.87599,46.53253],[12.87624,46.53237],[12.8765,46.53213],[12.87669,46.53179],[12.87706,46.53141],[12.87768,46.53108],[12.87773,46.53102],[12.87789,46.53058],[12.87859,46.52997],[12.87858,46.52988],[12.87841,46.52963],[12.8784,46.52945],[12.87828,46.52904],[12.878,46.52879],[12.878,46.52862],[12.87807,46.52841],[12.87805,46.52824],[12.87775,46.528],[12.87749,46.52771],[12.87726,46.5272],[12.87723,46.52655],[12.87715,46.52651],[12.87706,46.52651],[12.877,46.52654],[12.87697,46.5266],[12.87687,46.52743],[12.87679,46.52777],[12.87683,46.52808],[12.87679,46.52812],[12.87668,46.52811],[12.87648,46.5279],[12.87645,46.52767],[12.87608,46.52685],[12.87585,46.52647],[12.87572,46.52638],[12.87555,46.52631],[12.87452,46.52617],[12.87439,46.52596],[12.87438,46.52571],[12.87418,46.52564],[12.87402,46.52551],[12.87381,46.52489],[12.87373,46.52483],[12.87364,46.52484],[12.87358,46.5249],[12.87364,46.52581],[12.87356,46.52585],[12.87346,46.52583],[12.87293,46.52482],[12.87277,46.5239],[12.87251,46.52289],[12.87243,46.52279],[12.87204,46.52246],[12.87201,46.52231],[12.87204,46.52224],[12.87292,46.52135],[12.8731,46.52113],[12.87329,46.52097],[12.87346,46.52087],[12.87395,46.52078],[12.87421,46.52067],[12.8743,46.52054],[12.8743,46.52048],[12.87408,46.52001],[12.87391,46.51995],[12.87339,46.51986],[12.87214,46.51976],[12.87119,46.51959],[12.87072,46.51945],[12.87057,46.51927],[12.87015,46.51893],[12.86923,46.51858],[12.86897,46.51836],[12.86841,46.51816],[12.86784,46.51777],[12.867,46.51741],[12.86691,46.5173],[12.86678,46.51683],[12.86673,46.51653],[12.86675,46.51646]]},"properties":{}},{"type":"Feature","geometry":{"type":"LineString","coordinates":[[12.86681,46.51548],[12.86674,46.51568],[12.86671,46.51586],[12.86672,46.51639],[12.86675,46.51646]]},"properties":{}},{"type":"Feature","geometry":{"type":"LineString","coordinates":[[12.86732,46.51449],[12.86735,46.51441]]},"properties":{}},{"type":"Feature","geometry":{"type":"LineString","coordinates":[[12.88175,46.53304],[12.88171,46.53315],[12.88158,46.5333],[12.88144,46.53319],[12.88175,46.53304]]},"properties":{}},{"type":"Feature","geometry":{"type":"LineString","coordinates":[[12.9021,46.52601],[12.90228,46.52597],[12.90242,46.5259],[12.90308,46.52545],[12.90333,46.52535],[12.90352,46.52536],[12.90393,46.52556],[12.90404,46.52554],[12.90431,46.52534],[12.90443,46.52531],[12.90487,46.52535],[12.90543,46.52531],[12.90671,46.52541],[12.90754,46.52535],[12.90793,46.52542],[12.90823,46.52559],[12.90829,46.5256],[12.90842,46.52558],[12.90851,46.52553],[12.90881,46.52527],[12.90911,46.52517],[12.90958,46.52517],[12.90996,46.52525],[12.91192,46.52536],[12.91242,46.52515],[12.91332,46.52511],[12.91474,46.52474],[12.91535,46.52474],[12.91591,46.52485],[12.91623,46.52487],[12.91655,46.52481],[12.91689,46.52466],[12.91713,46.52463],[12.91854,46.52476],[12.91915,46.52504],[12.91961,46.52512],[12.91998,46.52537],[12.92007,46.52558],[12.92053,46.52607],[12.92064,46.52631],[12.92071,46.52637],[12.92081,46.5264],[12.92098,46.52636],[12.92103,46.52631],[12.92131,46.52595],[12.92137,46.5258],[12.9215,46.52566],[12.92191,46.52548],[12.92268,46.52523],[12.92313,46.52517],[12.92467,46.5251],[12.92489,46.52506],[12.92561,46.52479],[12.92629,46.52463],[12.92725,46.52456],[12.92817,46.52462],[12.92922,46.52442],[12.92996,46.52414],[12.93043,46.5241]]},"properties":{}},{"type":"Feature","geometry":{"type":"LineString","coordinates":[[12.93118,46.52404],[12.93043,46.5241]]},"properties":{}},{"type":"Feature","geometry":{"type":"LineString","coordinates":[[12.93043,46.5241],[12.93048,46.52393]]},"properties":{}},{"type":"Feature","geometry":{"type":"LineString","coordinates":[[12.93048,46.52393],[12.93118,46.52404]]},"properties":{}},{"type":"Feature","geometry":{"type":"LineString","coordinates":[[12.93118,46.52404],[12.9321,46.52422],[12.93289,46.52453],[12.93334,46.52478],[12.93415,46.52531],[12.93466,46.52554],[12.93537,46.52574],[12.93687,46.52594],[12.93769,46.52614],[12.93835,46.52646],[12.93925,46.52651],[12.93965,46.52671],[12.93986,46.52678],[12.9416,46.52711],[12.94191,46.5272],[12.94257,46.52763],[12.94306,46.52784],[12.94334,46.52788],[12.94442,46.52788],[12.9455,46.52778],[12.9463,46.52789],[12.94657,46.528],[12.94668,46.528]]},"properties":{}},{"type":"Feature","geometry":{"type":"LineString","coordinates":[[12.94668,46.528],[12.94697,46.52842],[12.94727,46.52867],[12.9473,46.52874],[12.94734,46.52919],[12.94741,46.52924],[12.94752,46.52926],[12.94766,46.52925],[12.94822,46.52914],[12.94846,46.52916],[12.94862,46.52921],[12.94912,46.52956],[12.94931,46.52963],[12.95049,46.52968],[12.95088,46.52996],[12.95135,46.5304],[12.95151,46.5305],[12.9517,46.53053]]},"properties":{}},{"type":"Feature","geometry":{"type":"LineString","coordinates":[[12.94668,46.528],[12.94673,46.52798],[12.94674,46.52792],[12.94646,46.52764],[12.9463,46.52755],[12.94554,46.5274],[12.9454,46.52735],[12.94512,46.52715],[12.94482,46.52684],[12.94455,46.52637],[12.9443,46.52619],[12.94367,46.52591],[12.9436,46.52583],[12.94362,46.52573],[12.94428,46.52541],[12.94462,46.52533],[12.94618,46.52546],[12.94665,46.52556],[12.94693,46.52567],[12.94726,46.5259],[12.9477,46.52639],[12.94792,46.52655],[12.94882,46.52706],[12.94963,46.52736],[12.94992,46.52735],[12.95044,46.52726],[12.95071,46.52715],[12.95125,46.52685],[12.95138,46.52681],[12.95245,46.5268],[12.95296,46.5267],[12.95364,46.52675],[12.95516,46.52704],[12.95537,46.5271],[12.95563,46.52724],[12.95637,46.52814],[12.95665,46.52832],[12.95779,46.52868],[12.95859,46.52903],[12.95891,46.52906],[12.95926,46.52898],[12.95953,46.52896],[12.95965,46.52901],[12.95993,46.52929],[12.96012,46.52942],[12.96066,46.52955],[12.96157,46.52947],[12.96184,46.52958],[12.96201,46.52975],[12.96217,46.52977],[12.9623,46.52968],[12.96267,46.529],[12.96276,46.5289],[12.96289,46.52881],[12.96348,46.5285],[12.96369,46.52816],[12.9638,46.52804],[12.96393,46.52795],[12.9643,46.52783],[12.96468,46.52777],[12.96509,46.52781],[12.96587,46.528],[12.96666,46.52825],[12.96713,46.52828],[12.96733,46.52825],[12.96872,46.52778],[12.96919,46.52771],[12.9715,46.52753],[12.97322,46.52699],[12.97407,46.52678],[12.97436,46.52674],[12.97498,46.52676],[12.97759,46.52702],[12.97977,46.52711],[12.98006,46.52721],[12.9804,46.5274],[12.98065,46.5275],[12.981,46.52756],[12.98113,46.52757],[12.98141,46.52749],[12.98154,46.52742],[12.98166,46.52727],[12.98174,46.52722],[12.98205,46.52714],[12.98222,46.52714],[12.98238,46.52717],[12.9828,46.52745],[12.98322,46.52749],[12.98339,46.52765],[12.98359,46.52776],[12.98379,46.5278],[12.98398,46.52779],[12.98449,46.52766],[12.98517,46.52755],[12.98619,46.52743],[12.98671,46.52732],[12.98769,46.52735],[12.98799,46.52728],[12.98834,46.52713],[12.98859,46.52707],[12.9896,46.52697],[12.99017,46.52701],[12.99059,46.52708],[12.99108,46.52725],[12.99163,46.52735],[12.99225,46.52735],[12.99237,46.52734],[12.99261,46.52726],[12.99327,46.52725],[12.99407,46.52742],[12.99417,46.52739],[12.99434,46.52727],[12.99467,46.52699],[12.99529,46.52669],[12.99662,46.52589],[12.99824,46.52525],[12.99843,46.52514]]},"properties":{}},{"type":"Feature","geometry":{"type":"LineString","coordinates":[[12.99197,46.52732],[12.99209,46.52732]]},"properties":{}},{"type":"Feature","geometry":{"type":"LineString","coordinates":[[12.99226,46.5],[12.99222,46.50013],[12.99164,46.50044],[12.99154,46.50058],[12.99157,46.50086],[12.99201,46.50188],[12.99199,46.50224],[12.9919,46.50253],[12.99175,46.5027],[12.99151,46.50285],[12.99111,46.503],[12.99067,46.50308],[12.99048,46.50317],[12.98999,46.50394],[12.9897,46.50423],[12.98928,46.50449],[12.98923,46.50456],[12.98923,46.50471],[12.98963,46.50567],[12.9898,46.50655],[12.98991,46.50667],[12.99003,46.50674],[12.99032,46.50679],[12.99052,46.50688],[12.99061,46.50706],[12.99073,46.50756],[12.99073,46.50781],[12.99037,46.50906],[12.99035,46.50926],[12.99047,46.50972],[12.9905,46.51002],[12.99065,46.51036],[12.99067,46.51047],[12.99061,46.5107],[12.99062,46.51074],[12.991,46.51089],[12.99109,46.51096],[12.99115,46.51108],[12.99099,46.51134],[12.99073,46.51198],[12.99159,46.51211],[12.99211,46.51229],[12.99316,46.51292],[12.99338,46.51307],[12.99359,46.51327]]},"properties":{}},{"type":"Feature","geometry":{"type":"LineString","coordinates":[[12.99359,46.51327],[12.99389,46.5135]]},"properties":{}},{"type":"Feature","geometry":{"type":"LineString","coordinates":[[12.99373,46.51354],[12.99359,46.51327]]},"properties":{}},{"type":"Feature","geometry":{"type":"LineString","coordinates":[[12.99406,46.51377],[12.99385,46.51367],[12.99373,46.51354]]},"properties":{}},{"type":"Feature","geometry":{"type":"LineString","coordinates":[[12.99394,46.51402],[12.99373,46.51354]]},"properties":{}},{"type":"Feature","geometry":{"type":"LineString","coordinates":[[12.99389,46.5135],[12.99402,46.51358],[12.99442,46.51367]]},"properties":{}},{"type":"Feature","geometry":{"type":"LineString","coordinates":[[12.99389,46.5135],[12.99406,46.51377]]},"properties":{}},{"type":"Feature","geometry":{"type":"LineString","coordinates":[[12.99857,46.52493],[12.99857,46.52484],[12.99851,46.52463],[12.99822,46.52404],[12.99784,46.52342],[12.99693,46.52208],[12.99679,46.52182],[12.99676,46.52163],[12.99682,46.52083],[12.99701,46.52035],[12.99706,46.52006],[12.99697,46.51893],[12.9969,46.51871],[12.99683,46.51855],[12.99649,46.51808],[12.99605,46.51737],[12.99593,46.51696],[12.99403,46.5142],[12.99394,46.51402]]},"properties":{}},{"type":"Feature","geometry":{"type":"LineString","coordinates":[[12.99394,46.51402],[12.99395,46.51392],[12.99406,46.51377]]},"properties":{}},{"type":"Feature","geometry":{"type":"LineString","coordinates":[[12.99406,46.51377],[12.99442,46.51367]]},"properties":{}},{"type":"Feature","geometry":{"type":"LineString","coordinates":[[12.99442,46.51367],[12.99671,46.51332],[12.99746,46.51325],[13.0,46.5132]]},"properties":{}},{"type":"Feature","geometry":{"type":"LineString","coordinates":[[12.9988,46.52527],[12.99858,46.52524],[12.99843,46.52514]]},"properties":{}},{"type":"Feature","geometry":{"type":"LineString","coordinates":[[12.99843,46.52514],[12.99854,46.52503],[12.99857,46.52493]]},"properties":{}},{"type":"Feature","geometry":{"type":"LineString","coordinates":[[12.99857,46.52493],[12.99872,46.52518],[12.9988,46.52527]]},"properties":{}},{"type":"Feature","geometry":{"type":"LineString","coordinates":[[12.9988,46.52527],[12.99909,46.52545],[12.99927,46.52549],[13.0,46.52537]]},"properties":{}},{"type":"Feature","geometry":{"type":"LineString","coordinates":[[12.99964,46.52537],[12.99991,46.52532]]},"properties":{}}]}