{"type":"FeatureCollection","features":[{"type":"Feature","geometry":{"type":"LineString","coordinates":[[13.0,41.72764],[13.0018,41.72784],[13.00221,41.72785],[13.00383,41.72735],[13.00391,41.72727],[13.00393,41.72704],[13.00397,41.72694],[13.00405,41.72689],[13.0042,41.72688]]},"properties":{}},{"type":"Feature","geometry":{"type":"LineString","coordinates":[[13.00429,41.73074],[13.00386,41.73104],[13.00373,41.73107],[13.00364,41.73105],[13.0022,41.73028],[13.00123,41.72989],[13.0,41.72913]]},"properties":{}},{"type":"Feature","geometry":{"type":"LineString","coordinates":[[13.00425,41.74241],[13.00404,41.74282],[13.00382,41.74308],[13.00351,41.7433],[13.00321,41.74344],[13.00215,41.74382],[13.00171,41.74394],[13.0,41.74398]]},"properties":{}},{"type":"Feature","geometry":{"type":"LineString","coordinates":[[13.0,41.74891],[13.02993,41.74866],[13.04657,41.74856],[13.05806,41.74846],[13.0593,41.7484],[13.05998,41.74832],[13.06087,41.74817],[13.06158,41.748],[13.06247,41.74774],[13.0635,41.74734],[13.064,41.74711],[13.07144,41.74345],[13.07303,41.74272],[13.08961,41.73462],[13.09714,41.73098],[13.10295,41.7281],[13.11072,41.72437],[13.15196,41.70422],[13.17457,41.69321],[13.18093,41.6901],[13.18396,41.68858],[13.18638,41.68718],[13.22776,41.65965],[13.24085,41.65097],[13.24258,41.64995],[13.24418,41.64916],[13.24958,41.64689],[13.25869,41.64322],[13.26006,41.64261],[13.2612,41.64204],[13.26289,41.64107],[13.26405,41.64025],[13.2708,41.63502],[13.27238,41.63399],[13.27318,41.63354],[13.27428,41.63302],[13.27506,41.63269],[13.27909,41.63121],[13.32221,41.61605],[13.32439,41.61526],[13.32524,41.6149],[13.32606,41.61448],[13.32695,41.61393],[13.32765,41.6134],[13.32835,41.61278],[13.32885,41.61225],[13.32928,41.61172],[13.32962,41.61122],[13.32996,41.6106],[13.33099,41.60829],[13.33575,41.59696],[13.33642,41.59569],[13.33694,41.59492],[13.33767,41.59402],[13.33853,41.59317],[13.33926,41.59255],[13.3398,41.59212],[13.34039,41.59173],[13.35692,41.58162],[13.35988,41.58003],[13.36379,41.57827],[13.36709,41.57689],[13.37257,41.57467],[13.3816,41.57092],[13.3924,41.5663],[13.40734,41.56004],[13.41037,41.55886],[13.41214,41.55828],[13.41418,41.55774],[13.41626,41.55728],[13.42011,41.55658],[13.43744,41.55354],[13.49509,41.54334],[13.49726,41.543],[13.49866,41.54282],[13.5,41.54269]]},"properties":{}},{"type":"Feature","geometry":{"type":"LineString","coordinates":[[13.5,41.54282],[13.49771,41.54306],[13.4964,41.54325],[13.43849,41.55351],[13.4172,41.55724],[13.41592,41.55748],[13.41381,41.55796],[13.41183,41.55853],[13.41093,41.55883],[13.40826,41.55982],[13.38861,41.56808],[13.38016,41.57168],[13.37347,41.57447],[13.37018,41.57579],[13.36383,41.57842],[13.36,41.58014],[13.35882,41.58075],[13.35688,41.58181],[13.34059,41.59179],[13.33999,41.59219],[13.33871,41.59322],[13.3378,41.59413],[13.33739,41.59461],[13.33704,41.59507],[13.33654,41.5958],[13.33622,41.59639],[13.33538,41.59825],[13.33494,41.59937],[13.33423,41.60097],[13.33005,41.6109],[13.3292,41.61209],[13.32846,41.61291],[13.32785,41.61345],[13.3272,41.61394],[13.32612,41.61462],[13.32569,41.61485],[13.32491,41.61521],[13.32268,41.61603],[13.27598,41.63248],[13.27477,41.63295],[13.27348,41.63355],[13.27223,41.63425],[13.27103,41.63505],[13.26346,41.64086],[13.26208,41.64171],[13.26085,41.64239],[13.25949,41.64304],[13.25864,41.6434],[13.24944,41.64711],[13.24505,41.64891],[13.24326,41.64974],[13.24153,41.6507],[13.23357,41.65597],[13.19195,41.68368],[13.18664,41.68718],[13.18387,41.68878],[13.18303,41.68923],[13.17639,41.69249],[13.12476,41.7177],[13.07852,41.74021],[13.06939,41.7447],[13.06409,41.74725],[13.06342,41.74754],[13.06259,41.74785],[13.06165,41.74813],[13.061,41.74829],[13.06001,41.74847],[13.05934,41.74855],[13.05793,41.74864],[13.0,41.74906]]},"properties":{}},{"type":"Feature","geometry":{"type":"LineString","coordinates":[[13.0,41.75515],[13.00106,41.75537]]},"properties":{}},{"type":"Feature","geometry":{"type":"LineString","coordinates":[[13.00778,41.82263],[13.00684,41.82261],[13.00587,41.82252],[13.0048,41.82239],[13.00381,41.82221],[13.00319,41.82196],[13.0,41.82048]]},"properties":{}},{"type":"Feature","geometry":{"type":"LineString","coordinates":[[13.00106,41.75537],[13.00152,41.75552],[13.00164,41.75549],[13.00178,41.75552],[13.00188,41.75561],[13.00189,41.75574],[13.00185,41.75581],[13.00176,41.75586],[13.00153,41.75587],[13.00141,41.75578],[13.00138,41.7557],[13.0014,41.75562],[13.00134,41.75553],[13.00106,41.75537]]},"properties":{}},{"type":"Feature","geometry":{"type":"LineString","coordinates":[[13.00293,41.73932],[13.00283,41.73945],[13.00279,41.7396],[13.00257,41.73978],[13.00249,41.7398],[13.00235,41.73978]]},"properties":{}},{"type":"Feature","geometry":{"type":"LineString","coordinates":[[13.00235,41.73978],[13.00138,41.74055],[13.00108,41.74072],[13.00111,41.74078],[13.00177,41.74133],[13.00232,41.74168],[13.00262,41.74177],[13.00376,41.74195]]},"properties":{}},{"type":"Feature","geometry":{"type":"LineString","coordinates":[[13.00293,41.73932],[13.00235,41.73978]]},"properties":{}},{"type":"Feature","geometry":{"type":"LineString","coordinates":[[13.00867,41.73474],[13.00729,41.73596],[13.0064,41.73689],[13.00515,41.7378],[13.00428,41.73827],[13.00293,41.73932]]},"properties":{}},{"type":"Feature","geometry":{"type":"LineString","coordinates":[[13.00376,41.74195],[13.0043,41.74192],[13.00441,41.74196],[13.00444,41.74206],[13.00425,41.74241]]},"properties":{}},{"type":"Feature","geometry":{"type":"LineString","coordinates":[[13.00425,41.74241],[13.00424,41.74225],[13.00414,41.74207],[13.00376,41.74195]]},"properties":{}},{"type":"Feature","geometry":{"type":"LineString","coordinates":[[13.0042,41.72688],[13.00429,41.72691],[13.00435,41.72697],[13.00433,41.72705]]},"properties":{}},{"type":"Feature","geometry":{"type":"LineString","coordinates":[[13.00617,41.72309],[13.00566,41.72352],[13.00526,41.72407],[13.00486,41.7252],[13.00439,41.72621],[13.0042,41.72688]]},"properties":{}},{"type":"Feature","geometry":{"type":"LineString","coordinates":[[13.00431,41.7306],[13.00434,41.73066],[13.00429,41.73074]]},"properties":{}},{"type":"Feature","geometry":{"type":"LineString","coordinates":[[13.00462,41.73076],[13.00429,41.73074]]},"properties":{}},{"type":"Feature","geometry":{"type":"LineString","coordinates":[[13.00431,41.7306],[13.00441,41.73069],[13.00462,41.73076]]},"properties":{}},{"type":"Feature","geometry":{"type":"LineString","coordinates":[[13.00433,41.72705],[13.00409,41.7273],[13.00384,41.72798],[13.00415,41.72975],[13.00417,41.73009],[13.00424,41.73048],[13.00431,41.7306]]},"properties":{}},{"type":"Feature","geometry":{"type":"LineString","coordinates":[[13.00433,41.72705],[13.0045,41.72704],[13.00547,41.72676],[13.00725,41.72647],[13.00975,41.72632]]},"properties":{}},{"type":"Feature","geometry":{"type":"LineString","coordinates":[[13.00462,41.73076],[13.00533,41.73103],[13.00564,41.73124],[13.00879,41.73414]]},"properties":{}},{"type":"Feature","geometry":{"type":"LineString","coordinates":[[13.00645,41.72287],[13.00617,41.72309]]},"properties":{}},{"type":"Feature","geometry":{"type":"LineString","coordinates":[[13.00652,41.72292],[13.00632,41.72306],[13.00617,41.72309]]},"properties":{}},{"type":"Feature","geometry":{"type":"LineString","coordinates":[[13.00652,41.72292],[13.00689,41.72324],[13.00701,41.72346],[13.00709,41.72355],[13.00764,41.72375],[13.00833,41.72413],[13.00917,41.72453],[13.00958,41.72505]]},"properties":{}},{"type":"Feature","geometry":{"type":"LineString","coordinates":[[13.00687,41.72276],[13.00668,41.72282],[13.00652,41.72292]]},"properties":{}},{"type":"Feature","geometry":{"type":"LineString","coordinates":[[13.00687,41.72276],[13.00675,41.72273],[13.00674,41.72264],[13.00682,41.72259],[13.00693,41.72262]]},"properties":{}},{"type":"Feature","geometry":{"type":"LineString","coordinates":[[13.0069,41.72275],[13.00687,41.72276]]},"properties":{}},{"type":"Feature","geometry":{"type":"LineString","coordinates":[[13.00693,41.72262],[13.00696,41.7227],[13.0069,41.72275]]},"properties":{}},{"type":"Feature","geometry":{"type":"LineString","coordinates":[[13.00975,41.72632],[13.01035,41.72626],[13.01082,41.7261],[13.01262,41.72517],[13.01341,41.72485],[13.01578,41.72419],[13.01531,41.72228],[13.01525,41.72216],[13.01419,41.72115],[13.01286,41.72157],[13.01048,41.72226],[13.00915,41.72247],[13.0069,41.72275]]},"properties":{}},{"type":"Feature","geometry":{"type":"LineString","coordinates":[[13.02064,41.68936],[13.02182,41.69063],[13.02038,41.69077],[13.01938,41.69041],[13.01893,41.68996],[13.01885,41.68992],[13.01874,41.68992],[13.01839,41.69009],[13.01908,41.69136],[13.01913,41.69165],[13.01907,41.6918],[13.01851,41.69253],[13.01838,41.69279],[13.01829,41.69323],[13.01832,41.69391],[13.01821,41.69415],[13.018,41.69432],[13.01776,41.69441],[13.01763,41.69441],[13.01726,41.69431],[13.01706,41.69434],[13.01688,41.69447],[13.01662,41.69476],[13.01643,41.69489],[13.01441,41.69586],[13.01427,41.69588],[13.01413,41.69586],[13.01367,41.69559],[13.01346,41.69564],[13.0134,41.6957],[13.01339,41.69578],[13.01338,41.69643],[13.01327,41.69672],[13.01303,41.69696],[13.01209,41.69776],[13.01184,41.698],[13.01176,41.69813],[13.01176,41.69825],[13.01188,41.69853],[13.01194,41.69882],[13.01182,41.70066],[13.01192,41.70127],[13.01197,41.70194],[13.01212,41.70208],[13.01281,41.70242],[13.01314,41.70269],[13.01394,41.70369],[13.01452,41.70434],[13.01487,41.70491],[13.01503,41.70536],[13.01527,41.70671],[13.01559,41.70742],[13.01574,41.70784],[13.01578,41.70816],[13.01578,41.70926],[13.01551,41.70994],[13.01521,41.71114],[13.01517,41.71187],[13.01509,41.71222],[13.01456,41.71352],[13.01441,41.71375],[13.01402,41.71425],[13.01385,41.71464],[13.01379,41.71496],[13.01376,41.71634],[13.01371,41.7167],[13.01362,41.71709],[13.01343,41.71763],[13.01318,41.71809],[13.0128,41.7185],[13.01184,41.71905],[13.01116,41.71964],[13.01082,41.71989],[13.01031,41.7202],[13.0084,41.72122],[13.00802,41.72145],[13.00769,41.72173],[13.00697,41.72242],[13.00693,41.72262]]},"properties":{}},{"type":"Feature","geometry":{"type":"LineString","coordinates":[[13.0096,41.82264],[13.00778,41.82263]]},"properties":{}},{"type":"Feature","geometry":{"type":"LineString","coordinates":[[13.0099,41.82303],[13.00967,41.82285],[13.00936,41.82273],[13.00915,41.82272],[13.00846,41.82274],[13.00778,41.82263]]},"properties":{}},{"type":"Feature","geometry":{"type":"LineString","coordinates":[[13.00867,41.73474],[13.00888,41.73441],[13.00888,41.73426],[13.00879,41.73414]]},"properties":{}},{"type":"Feature","geometry":{"type":"LineString","coordinates":[[13.00879,41.73414],[13.00912,41.73428],[13.00917,41.73432],[13.00919,41.73439],[13.00911,41.73448],[13.00888,41.73455],[13.00867,41.73474]]},"properties":{}},{"type":"Feature","geometry":{"type":"LineString","coordinates":[[13.00975,41.72632],[13.00962,41.72539],[13.00956,41.72518]]},"properties":{}},{"type":"Feature","geometry":{"type":"LineString","coordinates":[[13.00956,41.72518],[13.00948,41.72518],[13.00942,41.72511],[13.00948,41.72504],[13.00958,41.72505]]},"properties":{}},{"type":"Feature","geometry":{"type":"LineString","coordinates":[[13.00958,41.72505],[13.00962,41.72513],[13.00956,41.72518]]},"properties":{}},{"type":"Feature","geometry":{"type":"LineString","coordinates":[[13.0096,41.82264],[13.00971,41.82273],[13.0099,41.82303]]},"properties":{}},{"type":"Feature","geometry":{"type":"LineString","coordinates":[[13.08837,41.83538],[13.08759,41.83538],[13.08729,41.83532],[13.08717,41.83526],[13.08577,41.83401],[13.08562,41.83381],[13.08558,41.83358],[13.08562,41.83344],[13.0859,41.83296],[13.08594,41.83274],[13.0859,41.83262],[13.08582,41.83252],[13.08557,41.83239],[13.0852,41.83233],[13.08396,41.83235],[13.08359,41.83238],[13.08297,41.83251],[13.08199,41.83253],[13.08171,41.83247],[13.08116,41.83216],[13.08088,41.83205],[13.08055,41.83198],[13.08014,41.83195],[13.07968,41.83197],[13.07934,41.83201],[13.07835,41.83237],[13.07809,41.83238],[13.07781,41.83233],[13.07752,41.83223],[13.07661,41.83181],[13.07604,41.8316],[13.07427,41.83111],[13.07035,41.83007],[13.06985,41.8299],[13.06857,41.8292],[13.06777,41.82865],[13.06753,41.82853],[13.06701,41.82831],[13.06621,41.8281],[13.06584,41.82798],[13.06567,41.82789],[13.06526,41.82756],[13.0648,41.82734],[13.05961,41.82515],[13.05689,41.8234],[13.05657,41.82324],[13.05614,41.82315],[13.05414,41.82299],[13.05162,41.82242],[13.04638,41.82171],[13.04597,41.8216],[13.04438,41.82096],[13.0435,41.82076],[13.04208,41.82055],[13.04128,41.82045],[13.03596,41.82014],[13.03549,41.82019],[13.03289,41.82069],[13.03246,41.82073],[13.03197,41.82073],[13.02831,41.82047],[13.02601,41.82022],[13.0246,41.82002],[13.0232,41.81991],[13.02085,41.81966],[13.02039,41.81965],[13.01999,41.81969],[13.01962,41.81977],[13.01639,41.82078],[13.01589,41.82102],[13.0149,41.82173],[13.01468,41.82184],[13.01449,41.82188],[13.01413,41.82184],[13.01378,41.8217],[13.01359,41.82153],[13.01322,41.82107],[13.01289,41.82084],[13.01251,41.82072],[13.01218,41.82076],[13.01194,41.82085],[13.01176,41.82097],[13.01013,41.82241],[13.00984,41.82258],[13.0096,41.82264]]},"properties":{}},{"type":"Feature","geometry":{"type":"LineString","coordinates":[[13.03573,41.85939],[13.03603,41.85909],[13.03619,41.85899],[13.0364,41.85893],[13.03689,41.85888],[13.03785,41.8585],[13.03847,41.85673],[13.03883,41.85652],[13.03918,41.85616],[13.03949,41.85575],[13.04006,41.85524],[13.04141,41.85383],[13.0416,41.85353],[13.04162,41.8534],[13.04158,41.8533],[13.04115,41.85287],[13.04107,41.85267],[13.04112,41.85254],[13.04176,41.85175],[13.04179,41.85167],[13.04178,41.85158],[13.0417,41.85151],[13.0408,41.85102],[13.04037,41.85015],[13.03997,41.84971],[13.0396,41.84917],[13.03957,41.84903],[13.03978,41.84799],[13.03973,41.84789],[13.03948,41.84761],[13.03936,41.84735],[13.03921,41.84719],[13.03899,41.84706],[13.03813,41.84677],[13.03694,41.84645],[13.03614,41.84643],[13.03584,41.84639],[13.03472,41.84604],[13.0341,41.84565],[13.0336,41.84517],[13.03316,41.84489],[13.03291,41.84485],[13.03224,41.84496],[13.03182,41.84491],[13.03154,41.84478],[13.03103,41.84436],[13.03045,41.84411],[13.03031,41.84409],[13.03017,41.84412],[13.02953,41.84458],[13.02934,41.84462],[13.02845,41.84454],[13.02738,41.84421],[13.02717,41.84412],[13.02704,41.84402],[13.02664,41.84351],[13.02626,41.84317],[13.02556,41.84274],[13.02526,41.8427],[13.02477,41.84277],[13.02451,41.84284],[13.02366,41.84316],[13.02351,41.84315],[13.02333,41.84308],[13.02324,41.84296],[13.02324,41.84282],[13.02362,41.84221],[13.02361,41.84201],[13.02352,41.84185],[13.01806,41.83495],[13.01649,41.83288],[13.0151,41.83123],[13.01461,41.83055],[13.01453,41.83042],[13.01448,41.83026],[13.01447,41.82913],[13.01442,41.82886],[13.01435,41.82871],[13.01406,41.82842],[13.01277,41.82766],[13.01247,41.8274],[13.01241,41.82728],[13.01242,41.82715],[13.01264,41.82664],[13.01267,41.82651],[13.01267,41.82627],[13.01259,41.8261],[13.0099,41.82303]]},"properties":{}},{"type":"Feature","geometry":{"type":"LineString","coordinates":[[13.01756,41.89533],[13.0175,41.89567],[13.01756,41.89613]]},"properties":{}},{"type":"Feature","geometry":{"type":"LineString","coordinates":[[13.01756,41.89533],[13.01747,41.89561],[13.01737,41.89573],[13.01756,41.89613]]},"properties":{}},{"type":"Feature","geometry":{"type":"LineString","coordinates":[[13.01756,41.89533],[13.01764,41.89515],[13.01843,41.89445],[13.01861,41.89413],[13.01891,41.89379],[13.01929,41.89356],[13.01997,41.8934],[13.02016,41.89273],[13.02039,41.89258],[13.0209,41.89205],[13.02137,41.89182],[13.02216,41.89159],[13.02249,41.89135],[13.0227,41.89074],[13.02317,41.89007],[13.02335,41.88994],[13.02353,41.88988],[13.02388,41.88989],[13.02412,41.88983],[13.0243,41.88965],[13.02443,41.88933],[13.0249,41.88858],[13.02527,41.88745],[13.02556,41.88689],[13.02559,41.88671],[13.02548,41.88571],[13.0255,41.88529],[13.0258,41.88468],[13.02583,41.88452],[13.02576,41.88434],[13.02579,41.88426],[13.02593,41.88413],[13.02606,41.88408],[13.02677,41.88393],[13.02785,41.88323],[13.02805,41.88302],[13.02814,41.88288],[13.02823,41.88245],[13.02831,41.88193],[13.02843,41.88067],[13.02879,41.88],[13.02896,41.87982]]},"properties":{}},{"type":"Feature","geometry":{"type":"LineString","coordinates":[[13.01756,41.89613],[13.01743,41.89671],[13.01716,41.89703],[13.01709,41.89727],[13.01712,41.89749],[13.01705,41.8977],[13.0169,41.89776],[13.0168,41.8979],[13.01674,41.89829],[13.01647,41.89923],[13.01634,41.90006],[13.01627,41.90117],[13.01597,41.90202],[13.01543,41.90306],[13.01494,41.90339],[13.01486,41.90375],[13.01529,41.90415],[13.01565,41.90466],[13.01555,41.90522],[13.01563,41.90546],[13.01598,41.90532],[13.01657,41.90488],[13.01685,41.9049],[13.01709,41.9051],[13.01776,41.90532],[13.01792,41.90576],[13.01798,41.90647],[13.01795,41.90723],[13.01786,41.90761],[13.01755,41.90805],[13.01753,41.90827],[13.01766,41.90869],[13.01792,41.90904],[13.01838,41.90906],[13.01903,41.90888],[13.02042,41.90829],[13.02071,41.90827],[13.02119,41.90841],[13.02187,41.90809],[13.0227,41.90803],[13.02289,41.90799],[13.02338,41.90776],[13.0235,41.90777],[13.0239,41.90802],[13.02393,41.90822],[13.02394,41.90864],[13.02411,41.90901],[13.02426,41.90912],[13.02461,41.90918],[13.0247,41.90922],[13.02474,41.90928],[13.02475,41.90937],[13.02461,41.90975],[13.02443,41.91047],[13.02486,41.91076],[13.02507,41.91084],[13.02528,41.91081],[13.02698,41.90991]]},"properties":{}},{"type":"Feature","geometry":{"type":"LineString","coordinates":[[13.02896,41.87982],[13.02914,41.87963]]},"properties":{}},{"type":"Feature","geometry":{"type":"LineString","coordinates":[[13.02923,41.87969],[13.02896,41.87982]]},"properties":{}},{"type":"Feature","geometry":{"type":"LineString","coordinates":[[13.02923,41.87969],[13.02914,41.87963]]},"properties":{}},{"type":"Feature","geometry":{"type":"LineString","coordinates":[[13.02914,41.87963],[13.02917,41.87956],[13.02924,41.87954]]},"properties":{}},{"type":"Feature","geometry":{"type":"LineString","coordinates":[[13.02933,41.87961],[13.0293,41.87968],[13.02923,41.87969]]},"properties":{}},{"type":"Feature","geometry":{"type":"LineString","coordinates":[[13.02924,41.87954],[13.02933,41.87961]]},"properties":{}},{"type":"Feature","geometry":{"type":"LineString","coordinates":[[13.02924,41.87954],[13.02935,41.87943],[13.02966,41.87931]]},"properties":{}},{"type":"Feature","geometry":{"type":"LineString","coordinates":[[13.02966,41.87931],[13.02942,41.87947],[13.02933,41.87961]]},"properties":{}},{"type":"Feature","geometry":{"type":"LineString","coordinates":[[13.02966,41.87931],[13.03025,41.8791],[13.03044,41.87909],[13.03057,41.87916],[13.0309,41.87962],[13.03102,41.87968],[13.03114,41.87968],[13.03158,41.87951],[13.03214,41.87957],[13.03254,41.87955],[13.03295,41.87927],[13.03312,41.87905],[13.03324,41.87899],[13.03406,41.87895],[13.03427,41.87891],[13.03456,41.87876],[13.03468,41.87858]]},"properties":{}},{"type":"Feature","geometry":{"type":"LineString","coordinates":[[13.03503,41.86976],[13.03407,41.86958]]},"properties":{}},{"type":"Feature","geometry":{"type":"LineString","coordinates":[[13.035,41.86984],[13.03478,41.86985],[13.03423,41.86974],[13.03407,41.86958]]},"properties":{}},{"type":"Feature","geometry":{"type":"LineString","coordinates":[[13.03567,41.85991],[13.03573,41.86029],[13.03571,41.86062],[13.03529,41.86276],[13.03531,41.86287],[13.03579,41.86375],[13.03576,41.86387],[13.03548,41.86419],[13.03542,41.86437],[13.03548,41.86513],[13.03564,41.86553],[13.03562,41.8657],[13.03512,41.86595],[13.03494,41.86623],[13.0347,41.86689],[13.03462,41.86696],[13.03449,41.86697],[13.03439,41.86692],[13.03422,41.86678],[13.03363,41.86617],[13.03333,41.86564],[13.03317,41.86547],[13.03243,41.86494],[13.03226,41.86492],[13.03218,41.86496],[13.03214,41.86503],[13.03214,41.86512],[13.03219,41.86521],[13.03255,41.86556],[13.03266,41.86576],[13.03263,41.86649],[13.03281,41.86686],[13.03284,41.86699],[13.03277,41.86781],[13.03283,41.86828],[13.0329,41.8684],[13.03301,41.8685],[13.03349,41.86875],[13.0339,41.86946],[13.03398,41.86954],[13.03407,41.86958]]},"properties":{}},{"type":"Feature","geometry":{"type":"LineString","coordinates":[[13.03468,41.87858],[13.03509,41.87815]]},"properties":{}},{"type":"Feature","geometry":{"type":"LineString","coordinates":[[13.03518,41.87819],[13.03514,41.87826],[13.03468,41.87858]]},"properties":{}},{"type":"Feature","geometry":{"type":"LineString","coordinates":[[13.03503,41.86976],[13.03504,41.86981],[13.035,41.86984]]},"properties":{}},{"type":"Feature","geometry":{"type":"LineString","coordinates":[[13.03524,41.8698],[13.035,41.86984]]},"properties":{}},{"type":"Feature","geometry":{"type":"LineString","coordinates":[[13.03524,41.8698],[13.03503,41.86976]]},"properties":{}},{"type":"Feature","geometry":{"type":"LineString","coordinates":[[13.03518,41.87819],[13.03509,41.87815]]},"properties":{}},{"type":"Feature","geometry":{"type":"LineString","coordinates":[[13.03509,41.87815],[13.03518,41.87789]]},"properties":{}},{"type":"Feature","geometry":{"type":"LineString","coordinates":[[13.03518,41.87789],[13.0352,41.87813]]},"properties":{}},{"type":"Feature","geometry":{"type":"LineString","coordinates":[[13.03518,41.87789],[13.03526,41.87773],[13.03558,41.87737],[13.03569,41.8772],[13.03584,41.87675],[13.03586,41.8766],[13.03582,41.87646],[13.03558,41.87605],[13.03526,41.87576],[13.03509,41.87556],[13.03503,41.87543],[13.03503,41.8753],[13.03518,41.87517],[13.03585,41.87499],[13.03594,41.87493],[13.03596,41.87487],[13.03593,41.87473],[13.03581,41.87455],[13.03523,41.874],[13.03518,41.87391],[13.03519,41.87381],[13.03535,41.87359],[13.03539,41.87325],[13.0355,41.87311],[13.03592,41.87279],[13.03604,41.87249],[13.03616,41.87234],[13.03628,41.87225],[13.03655,41.87217],[13.03711,41.87219],[13.03737,41.87217],[13.0375,41.87212],[13.03755,41.87204],[13.03752,41.87196],[13.03743,41.87187],[13.03714,41.87163],[13.03626,41.87126],[13.03603,41.87112],[13.03593,41.87097],[13.03585,41.87069],[13.03588,41.87042],[13.03598,41.87017],[13.03597,41.87003],[13.0359,41.86995],[13.03578,41.8699],[13.03524,41.8698]]},"properties":{}},{"type":"Feature","geometry":{"type":"LineString","coordinates":[[13.03536,41.87818],[13.03518,41.87819]]},"properties":{}},{"type":"Feature","geometry":{"type":"LineString","coordinates":[[13.0352,41.87813],[13.03518,41.87819]]},"properties":{}},{"type":"Feature","geometry":{"type":"LineString","coordinates":[[13.0352,41.87813],[13.03536,41.87818]]},"properties":{}},{"type":"Feature","geometry":{"type":"LineString","coordinates":[[13.05337,41.8868],[13.05263,41.88631],[13.05207,41.88602],[13.05183,41.8859],[13.0515,41.88583],[13.05113,41.8859],[13.0504,41.88629],[13.0502,41.8863],[13.05001,41.88622],[13.04986,41.88607],[13.04924,41.88514],[13.04896,41.88495],[13.04866,41.88483],[13.04835,41.88478],[13.04748,41.88489],[13.04727,41.88504],[13.04696,41.88507],[13.04663,41.885],[13.04615,41.88497],[13.04602,41.88509],[13.0455,41.88522],[13.045,41.88565],[13.04487,41.88586],[13.04469,41.88596],[13.04441,41.886],[13.04433,41.88597],[13.04427,41.88582],[13.04427,41.88565],[13.04409,41.88543],[13.04398,41.88519],[13.04395,41.88505],[13.04395,41.88486],[13.04401,41.88463],[13.04402,41.88444],[13.04391,41.88423],[13.04371,41.88408],[13.04376,41.88401],[13.04386,41.88401],[13.04419,41.8842],[13.0445,41.8845],[13.04466,41.88489],[13.04475,41.88493],[13.04485,41.88489],[13.04485,41.88479],[13.04475,41.88455],[13.04481,41.88396],[13.04447,41.88293],[13.04471,41.88238],[13.04463,41.88211],[13.04393,41.88187],[13.04381,41.88161],[13.04354,41.88136],[13.04227,41.88125],[13.04209,41.8812],[13.04183,41.88104],[13.04159,41.8808],[13.04026,41.88051],[13.03966,41.88007],[13.03812,41.87954],[13.0377,41.87935],[13.03752,41.87903],[13.03767,41.87881],[13.03758,41.87856],[13.03714,41.87833],[13.03692,41.87808],[13.03701,41.87787],[13.03755,41.87765],[13.03802,41.87749],[13.03885,41.87729],[13.03946,41.87721],[13.03955,41.87713],[13.03952,41.87706],[13.03936,41.87702],[13.03841,41.87703],[13.0381,41.87706],[13.03765,41.87715],[13.0367,41.87751],[13.03612,41.87792],[13.03581,41.8781],[13.03558,41.87817],[13.03536,41.87818]]},"properties":{}},{"type":"Feature","geometry":{"type":"LineString","coordinates":[[13.03567,41.85991],[13.03548,41.85964],[13.03573,41.85939]]},"properties":{}},{"type":"Feature","geometry":{"type":"LineString","coordinates":[[13.03573,41.85939],[13.03566,41.8596],[13.03567,41.85991]]},"properties":{}},{"type":"Feature","geometry":{"type":"LineString","coordinates":[[13.05337,41.8868],[13.05347,41.88682],[13.05352,41.8868],[13.05341,41.88659]]},"properties":{}},{"type":"Feature","geometry":{"type":"LineString","coordinates":[[13.05341,41.88659],[13.05373,41.88684],[13.05374,41.88693],[13.05363,41.88698],[13.05337,41.8868]]},"properties":{}},{"type":"Feature","geometry":{"type":"LineString","coordinates":[[13.08837,41.83538],[13.08771,41.83575],[13.08757,41.83588],[13.08752,41.83607],[13.08765,41.83657],[13.08762,41.83673],[13.08752,41.83683],[13.0868,41.83731],[13.0865,41.83763],[13.0862,41.83805],[13.08614,41.83851],[13.08607,41.83864],[13.08593,41.83874],[13.08561,41.83889],[13.08423,41.8393],[13.08367,41.83959],[13.08353,41.83972],[13.08343,41.83986],[13.08324,41.84051],[13.08301,41.84072],[13.08266,41.84086],[13.08176,41.84102],[13.08117,41.84128],[13.08061,41.84144],[13.07897,41.84172],[13.07842,41.84185],[13.07804,41.84198],[13.07756,41.84227],[13.07588,41.84294],[13.07566,41.84308],[13.07547,41.84327],[13.07534,41.84354],[13.07518,41.84401],[13.07495,41.84433],[13.07463,41.84461],[13.07432,41.84476],[13.07412,41.84479],[13.07398,41.84474],[13.07394,41.84462],[13.07391,41.84428],[13.07386,41.84422],[13.07372,41.84415],[13.07346,41.84409],[13.07316,41.84407],[13.07247,41.84421],[13.0724,41.84429],[13.07241,41.84436],[13.07274,41.84472],[13.0729,41.84519],[13.07294,41.8454],[13.07296,41.84591],[13.07291,41.84603],[13.07234,41.84629],[13.07099,41.84726],[13.07071,41.84737],[13.06908,41.84787],[13.0685,41.84808],[13.06801,41.84835],[13.06765,41.84868],[13.06757,41.84883],[13.06756,41.84906],[13.06765,41.85056],[13.06771,41.85108],[13.06776,41.8512],[13.06795,41.85136],[13.06807,41.85141],[13.06894,41.8516],[13.06931,41.85174],[13.0696,41.85196],[13.0697,41.85214],[13.06968,41.85231],[13.06942,41.85265],[13.06928,41.85278],[13.06893,41.8529],[13.06808,41.85306],[13.06783,41.85322],[13.06767,41.85347],[13.06735,41.85447],[13.06737,41.85466],[13.06751,41.8551],[13.06745,41.85639],[13.06749,41.85654],[13.06761,41.85666],[13.06776,41.85672],[13.06842,41.85681],[13.06865,41.8569],[13.06877,41.85701],[13.06883,41.85714],[13.06887,41.85734],[13.06836,41.85882],[13.06733,41.85991],[13.06652,41.86055],[13.06621,41.86109],[13.06622,41.86135],[13.06634,41.86148],[13.06656,41.86161],[13.06675,41.8618],[13.06686,41.86203],[13.06688,41.86217],[13.06683,41.86244],[13.06642,41.86304],[13.06638,41.86316],[13.06637,41.86328],[13.06644,41.86344],[13.06673,41.86379],[13.067,41.864],[13.06805,41.8643],[13.06825,41.86451],[13.06833,41.86468],[13.06831,41.86483],[13.06826,41.8649],[13.06781,41.86528],[13.06767,41.86543],[13.06687,41.8664],[13.06675,41.86665],[13.06681,41.86686],[13.06727,41.86754],[13.06729,41.86769],[13.06724,41.86784],[13.06714,41.86797],[13.06663,41.86837],[13.06655,41.86859],[13.06657,41.86917],[13.06705,41.87108],[13.06706,41.87136],[13.06697,41.87189],[13.06693,41.8721],[13.0668,41.87244],[13.0666,41.87275],[13.06612,41.87335],[13.06546,41.87426],[13.06571,41.87479],[13.06603,41.87511],[13.06651,41.87548],[13.06678,41.87559],[13.06723,41.87569],[13.06727,41.87575],[13.06727,41.87585],[13.06701,41.87609],[13.06676,41.87658],[13.06602,41.87731],[13.06556,41.87805],[13.0653,41.87832],[13.06501,41.87855],[13.06391,41.87908],[13.06218,41.88006],[13.06104,41.88061],[13.05987,41.88112],[13.05826,41.88173],[13.05765,41.88202],[13.05731,41.88227],[13.05708,41.88265],[13.05671,41.88301],[13.05666,41.8833],[13.05671,41.8835],[13.05661,41.88363],[13.05561,41.88416],[13.05523,41.88442],[13.05517,41.8845],[13.05521,41.88486],[13.05512,41.88503],[13.05446,41.88602],[13.05439,41.88609],[13.05423,41.88612],[13.05411,41.8861],[13.05402,41.88602],[13.05401,41.8859],[13.05425,41.88551],[13.05439,41.88518],[13.05442,41.8849],[13.05438,41.8846],[13.05426,41.88457],[13.05417,41.88461],[13.05407,41.88475],[13.0539,41.88521],[13.05321,41.88586],[13.05309,41.88604],[13.05308,41.88617],[13.05314,41.88631],[13.05341,41.88659]]},"properties":{}},{"type":"Feature","geometry":{"type":"LineString","coordinates":[[13.05529,41.50073],[13.05452,41.5]]},"properties":{}},{"type":"Feature","geometry":{"type":"LineString","coordinates":[[13.05534,41.50075],[13.05693,41.50164],[13.05715,41.50171],[13.05762,41.50176],[13.05815,41.5017],[13.05848,41.50157],[13.05911,41.5012],[13.05917,41.50108],[13.05914,41.50099],[13.05908,41.50095],[13.05891,41.50093],[13.05822,41.501],[13.05749,41.50085],[13.05743,41.50082],[13.05739,41.50072],[13.05744,41.50059],[13.05755,41.50053],[13.05821,41.50044],[13.05955,41.5]]},"properties":{}},{"type":"Feature","geometry":{"type":"LineString","coordinates":[[13.08837,41.83538],[13.08947,41.83539],[13.08992,41.83534],[13.09013,41.83526],[13.09041,41.8351],[13.09129,41.83447],[13.0916,41.83435],[13.09211,41.83427],[13.09236,41.83425],[13.09257,41.83428],[13.09364,41.83466],[13.09454,41.83474],[13.09508,41.83465],[13.09592,41.83436],[13.09624,41.83428],[13.09716,41.83413],[13.09824,41.83411],[13.09886,41.83389],[13.09959,41.83355],[13.0999,41.83344],[13.10141,41.83317],[13.10211,41.833],[13.10235,41.83291],[13.1031,41.8324],[13.10362,41.8318],[13.1038,41.83165],[13.10398,41.83153],[13.10419,41.83146],[13.10474,41.83146],[13.10528,41.83156],[13.10562,41.83158],[13.10595,41.83147],[13.10643,41.83119],[13.107,41.83098],[13.1104,41.83026],[13.11096,41.83026],[13.11264,41.83062],[13.11317,41.83066],[13.11343,41.83062],[13.11368,41.83052],[13.11401,41.8303],[13.11434,41.82989],[13.11466,41.82977],[13.11888,41.82935],[13.11941,41.82927],[13.11959,41.8292]]},"properties":{}},{"type":"Feature","geometry":{"type":"LineString","coordinates":[[13.11959,41.8292],[13.11962,41.82924],[13.11978,41.82922],[13.12034,41.82879],[13.12088,41.82858],[13.12198,41.8284],[13.12223,41.82841],[13.12334,41.82862],[13.12377,41.82878],[13.12405,41.82893],[13.12479,41.82911],[13.12585,41.82913],[13.12642,41.82927],[13.12677,41.82945],[13.12731,41.82962],[13.128,41.82972],[13.12889,41.82993],[13.12927,41.82994],[13.13029,41.82975],[13.1311,41.82975],[13.13256,41.82967],[13.13329,41.82974],[13.1336,41.82966],[13.13408,41.82929],[13.13427,41.82919],[13.13482,41.82914],[13.13536,41.82896],[13.13587,41.82888],[13.13631,41.82888],[13.13752,41.82902],[13.14132,41.8298],[13.14228,41.8301],[13.14295,41.83038],[13.14343,41.83067],[13.14375,41.83097],[13.14397,41.83112],[13.14457,41.83139],[13.1448,41.83143],[13.14506,41.83143],[13.14539,41.83128],[13.14551,41.8311],[13.14564,41.83072],[13.14568,41.83043],[13.14562,41.83018],[13.14564,41.83012],[13.1457,41.83008],[13.14578,41.83015],[13.14588,41.83056],[13.14607,41.83149],[13.14605,41.83159],[13.14585,41.83183],[13.14574,41.83188],[13.1449,41.83198],[13.1443,41.8321],[13.1441,41.83209],[13.14355,41.83186],[13.14341,41.83174],[13.1432,41.83144],[13.14303,41.83128],[13.14239,41.831],[13.14107,41.83087],[13.14063,41.83091],[13.14039,41.83088],[13.13988,41.83072],[13.13919,41.83075],[13.13816,41.83068],[13.13778,41.83073],[13.13766,41.83082],[13.13764,41.83088],[13.13768,41.831],[13.13774,41.83105],[13.13834,41.83137],[13.13888,41.83178],[13.13973,41.83221],[13.14017,41.83236],[13.14041,41.8325],[13.14052,41.83267],[13.14068,41.83336],[13.14072,41.83341],[13.1409,41.83343],[13.14172,41.83319],[13.14285,41.83323],[13.14298,41.83326],[13.1431,41.83331],[13.1433,41.83347],[13.14368,41.83399],[13.14389,41.83415],[13.14448,41.83431],[13.14478,41.83432],[13.14506,41.83424],[13.14545,41.83401],[13.1463,41.83388],[13.1467,41.83372],[13.1472,41.83338],[13.14734,41.83331],[13.14751,41.8333],[13.14764,41.83336],[13.14789,41.83362],[13.14817,41.83375],[13.14947,41.83394],[13.14971,41.83392],[13.14986,41.83375],[13.14962,41.83306],[13.14969,41.83289],[13.15018,41.83248],[13.15018,41.83231],[13.14993,41.83202],[13.14964,41.83156],[13.14957,41.83136],[13.14979,41.831],[13.15009,41.83062],[13.15032,41.83048],[13.15139,41.83029],[13.1517,41.83021],[13.15208,41.83],[13.1523,41.82992],[13.15347,41.82996],[13.15489,41.82984],[13.15549,41.82972],[13.15584,41.82954],[13.15622,41.82943],[13.15725,41.82923],[13.15863,41.82918],[13.16027,41.82917],[13.16109,41.82907],[13.16179,41.82909],[13.16405,41.82879],[13.1652,41.82878],[13.16595,41.82893],[13.16609,41.82892],[13.16708,41.82848],[13.16858,41.8282],[13.17006,41.82828],[13.17081,41.82846],[13.17122,41.8287],[13.17149,41.82917],[13.17185,41.82965],[13.1721,41.82966],[13.1722,41.82952],[13.17225,41.82932],[13.17239,41.82921],[13.17256,41.82919],[13.17287,41.82923],[13.17385,41.82954],[13.17458,41.82969],[13.17486,41.82978],[13.17517,41.82992],[13.17533,41.82991],[13.17543,41.82977],[13.17545,41.82961],[13.17557,41.8295],[13.17581,41.82941],[13.1766,41.82934],[13.17698,41.82928],[13.17739,41.8293],[13.17776,41.82943],[13.17809,41.82958],[13.17837,41.82988],[13.17876,41.83016],[13.17902,41.83029],[13.17938,41.83041],[13.18022,41.83076],[13.18038,41.83089],[13.1805,41.83111],[13.1806,41.83138],[13.18079,41.83162],[13.18094,41.83174],[13.18102,41.83189],[13.18106,41.83209],[13.18106,41.83231],[13.18101,41.83252],[13.18083,41.83287],[13.18079,41.8332],[13.18085,41.83339],[13.18096,41.83357],[13.18099,41.83375],[13.18095,41.83386],[13.18084,41.83398],[13.18045,41.83422],[13.18025,41.83438],[13.18004,41.83449],[13.17955,41.83468],[13.17947,41.83478],[13.17947,41.83495],[13.17963,41.83551],[13.17993,41.83599],[13.18006,41.8363],[13.18013,41.83671],[13.18005,41.83714],[13.17993,41.83736],[13.17975,41.83753],[13.17954,41.83769],[13.17894,41.83802],[13.17805,41.83914],[13.17795,41.83936],[13.17796,41.83979],[13.17786,41.84035],[13.17788,41.84053],[13.178,41.84087],[13.17834,41.84131],[13.17889,41.84172],[13.17927,41.84184],[13.17971,41.84218],[13.18021,41.84238],[13.18159,41.84274],[13.182,41.84279],[13.1828,41.84317],[13.18411,41.84343],[13.18538,41.8443],[13.18556,41.84438],[13.18589,41.84436],[13.18616,41.84426],[13.18634,41.84423],[13.1865,41.84428],[13.18671,41.84443],[13.18678,41.84454],[13.18677,41.8446],[13.18665,41.84472],[13.18629,41.84493],[13.18565,41.8454],[13.18547,41.84561],[13.18541,41.84579],[13.18539,41.84605],[13.18544,41.84625],[13.1858,41.84658],[13.18777,41.84814],[13.18843,41.84841],[13.18891,41.84865],[13.18923,41.84902],[13.18961,41.84933],[13.19029,41.84977],[13.19284,41.8494],[13.19304,41.84933],[13.19336,41.8495],[13.19401,41.84975],[13.19522,41.85014],[13.19529,41.85018],[13.19564,41.85061],[13.19595,41.85087],[13.19618,41.85092],[13.19668,41.85095],[13.19681,41.85103],[13.19691,41.85114],[13.19695,41.85126],[13.19694,41.85155],[13.197,41.85169],[13.19713,41.85178],[13.19796,41.85209],[13.1984,41.85231],[13.19919,41.85259],[13.19952,41.85265],[13.19981,41.85264],[13.20021,41.85271],[13.20037,41.85278],[13.20059,41.85299],[13.20073,41.85305],[13.20203,41.85325],[13.20236,41.85351],[13.20247,41.85355],[13.20289,41.85352],[13.20317,41.85366],[13.20339,41.85373],[13.20378,41.85367],[13.20403,41.85356],[13.20438,41.85325],[13.20469,41.85264],[13.20483,41.85255],[13.20499,41.85251],[13.20572,41.8525],[13.20639,41.85287],[13.2066,41.85296],[13.20681,41.85299],[13.20752,41.85298],[13.20769,41.85291],[13.2082,41.85284],[13.20908,41.85304],[13.20984,41.85308],[13.21049,41.85329],[13.21077,41.85332],[13.21153,41.85339],[13.21297,41.85335],[13.2135,41.85324],[13.2148,41.85271],[13.21505,41.85239],[13.21518,41.85235],[13.2157,41.85242],[13.21636,41.85209],[13.21646,41.85207],[13.21668,41.85223],[13.21701,41.8527],[13.21725,41.85292],[13.21761,41.85307],[13.21802,41.85312],[13.21879,41.85288],[13.21905,41.85286],[13.21919,41.85293],[13.21943,41.85321],[13.21959,41.85363],[13.21971,41.85376],[13.21988,41.85384],[13.22048,41.85398],[13.221,41.85402],[13.22149,41.85395],[13.22189,41.85383],[13.2224,41.85354],[13.22257,41.85335],[13.22271,41.85306],[13.22281,41.85295],[13.22383,41.85287],[13.22527,41.85262],[13.22532,41.85265],[13.22533,41.8527],[13.22526,41.85276],[13.22467,41.85292],[13.2243,41.85307],[13.2237,41.85346],[13.22328,41.85357],[13.22319,41.85364],[13.22319,41.85371],[13.22387,41.85373],[13.22416,41.85366],[13.22438,41.85348],[13.22455,41.85339],[13.2248,41.85339],[13.2255,41.8535],[13.22586,41.85351],[13.22619,41.85348],[13.22649,41.85339],[13.22667,41.85328],[13.22679,41.85326],[13.22688,41.8533],[13.22687,41.85339],[13.2267,41.85358],[13.22643,41.85378],[13.22487,41.85456],[13.2238,41.85553],[13.22367,41.85568],[13.22365,41.85585],[13.22369,41.85614],[13.22378,41.85626],[13.22403,41.85631],[13.22491,41.85629],[13.2252,41.85631],[13.22544,41.85638],[13.22569,41.85652],[13.22586,41.85666],[13.22587,41.85675],[13.22583,41.85687],[13.22567,41.85719],[13.22566,41.85729],[13.22574,41.85744],[13.22634,41.85772],[13.22669,41.85784],[13.22751,41.85793],[13.22806,41.85807],[13.22831,41.85823],[13.22839,41.85848],[13.22837,41.85867],[13.22831,41.85878],[13.22816,41.85891],[13.22795,41.85926],[13.22795,41.85962],[13.22788,41.85974],[13.22776,41.85981],[13.22691,41.85987],[13.22685,41.85995],[13.22687,41.86002],[13.22695,41.86008],[13.22847,41.86027],[13.22881,41.8604],[13.22908,41.86063],[13.22921,41.86062],[13.22936,41.86044],[13.22961,41.86028],[13.22972,41.86027],[13.23016,41.86037],[13.23033,41.86046],[13.23105,41.86099],[13.23202,41.86136],[13.23212,41.86132],[13.23214,41.86127],[13.23212,41.86121],[13.23189,41.86098],[13.2317,41.86067],[13.23171,41.86053],[13.23176,41.86047],[13.23194,41.86042],[13.23279,41.86038],[13.23394,41.86043],[13.23613,41.86037],[13.23696,41.86042],[13.23784,41.86052],[13.23816,41.86058],[13.23864,41.86071],[13.23902,41.86092],[13.23915,41.86106],[13.23929,41.86131],[13.23958,41.86203],[13.23967,41.86209],[13.23983,41.86202],[13.24025,41.86167],[13.24049,41.8615],[13.24076,41.86135],[13.24099,41.86126],[13.24128,41.86123],[13.24162,41.86126],[13.24204,41.86135],[13.24297,41.86176],[13.2432,41.86188],[13.24342,41.86205],[13.24361,41.86233],[13.24363,41.86243],[13.24362,41.86258],[13.24357,41.86268],[13.24358,41.86278],[13.24362,41.86285],[13.24381,41.86298],[13.24413,41.863],[13.24578,41.86293],[13.24621,41.86297],[13.24642,41.86312],[13.24686,41.8638],[13.24709,41.86403],[13.24735,41.86412],[13.24942,41.86453],[13.24981,41.86468],[13.25011,41.86485],[13.2502,41.86495],[13.25025,41.86528],[13.25031,41.86535],[13.25054,41.86549],[13.25228,41.86632],[13.25247,41.86639],[13.25311,41.8665],[13.254,41.86648],[13.2551,41.86658],[13.25554,41.86672],[13.25741,41.86716],[13.25782,41.86729],[13.25894,41.86771],[13.2598,41.86819],[13.26028,41.86859],[13.26057,41.86859],[13.26069,41.86852],[13.26132,41.86789],[13.26156,41.86777],[13.26174,41.86776],[13.2645,41.86794],[13.26592,41.86819],[13.26831,41.86871],[13.2686,41.86871],[13.26928,41.86848],[13.26948,41.86846],[13.27055,41.86908],[13.27181,41.86955],[13.27301,41.87034],[13.27346,41.87053],[13.27381,41.87061],[13.27439,41.87067],[13.27594,41.87068],[13.27666,41.87082],[13.27705,41.87094],[13.27761,41.87121],[13.278,41.87147],[13.27829,41.87178],[13.27841,41.87186],[13.27852,41.87189],[13.27876,41.8719],[13.27888,41.87187],[13.27913,41.87167],[13.2796,41.87146],[13.27991,41.87141],[13.28032,41.87143],[13.28122,41.87168],[13.2821,41.87213],[13.28241,41.87224],[13.28576,41.87315],[13.28608,41.87314],[13.28644,41.87296],[13.28674,41.87288],[13.2873,41.87293],[13.28813,41.87288],[13.28836,41.8729],[13.28867,41.87303],[13.28906,41.8733],[13.2895,41.87353],[13.29041,41.87382],[13.29176,41.87407],[13.29223,41.87436],[13.29264,41.87456],[13.29284,41.87463],[13.29412,41.87467],[13.29429,41.87475],[13.29571,41.87587],[13.29602,41.87589],[13.29658,41.87575],[13.29669,41.87575],[13.297,41.87593],[13.29836,41.87705],[13.2988,41.8772],[13.29924,41.87726],[13.29973,41.87722],[13.29995,41.87724],[13.3027,41.87779],[13.30297,41.8778],[13.30347,41.87775],[13.30386,41.87778],[13.30448,41.87806],[13.30469,41.87821],[13.30501,41.87853],[13.30529,41.8787],[13.30591,41.87898],[13.30677,41.87929],[13.30694,41.8794],[13.30714,41.87956],[13.30725,41.87972],[13.30744,41.88015],[13.30751,41.88053],[13.30757,41.88063],[13.30768,41.88076],[13.30848,41.88144],[13.3086,41.88167],[13.30865,41.88199],[13.30865,41.88214],[13.30852,41.88241],[13.30849,41.88257],[13.30851,41.88277],[13.30891,41.88327],[13.30891,41.88365],[13.30895,41.88374],[13.30942,41.88421],[13.30957,41.88445],[13.30987,41.88457],[13.30991,41.88463],[13.30906,41.88619],[13.30908,41.88626],[13.30914,41.88628],[13.30923,41.88627],[13.30943,41.88599],[13.3101,41.88559],[13.31031,41.88551],[13.31089,41.88554],[13.31102,41.88558],[13.31159,41.88606],[13.31194,41.88649],[13.31243,41.88688],[13.3127,41.88721],[13.31336,41.88757],[13.3136,41.88766],[13.31385,41.88773],[13.31451,41.8878],[13.31453,41.88788],[13.31445,41.88791],[13.31356,41.88786],[13.31315,41.88771],[13.31307,41.88772],[13.31303,41.88777],[13.31308,41.88784],[13.31433,41.88824],[13.31449,41.88834],[13.31454,41.88842],[13.31473,41.88893],[13.31522,41.88959],[13.31544,41.88983],[13.31548,41.88999],[13.31544,41.89022],[13.31549,41.89044],[13.31596,41.89082],[13.31616,41.89084],[13.31631,41.89078],[13.31633,41.8907],[13.31628,41.89041],[13.31629,41.89032],[13.31665,41.88989],[13.3167,41.88975],[13.31674,41.88952],[13.31671,41.88933],[13.31663,41.88917],[13.31637,41.88893],[13.31635,41.88886],[13.31634,41.88874],[13.31648,41.88854],[13.31666,41.88848],[13.31716,41.88861],[13.31737,41.8886],[13.318,41.88822],[13.31829,41.88819],[13.31869,41.88823],[13.31913,41.88842],[13.31962,41.88844],[13.32003,41.88853],[13.32009,41.88858],[13.32011,41.88875],[13.32015,41.88885],[13.32077,41.88946],[13.32112,41.88963],[13.32109,41.88972],[13.321,41.88974],[13.32094,41.88971],[13.32031,41.88927],[13.31981,41.88881],[13.31971,41.88878],[13.31919,41.88875],[13.31888,41.88866],[13.31877,41.88866],[13.31868,41.88871],[13.31869,41.88877],[13.31875,41.8888],[13.31947,41.88888],[13.31968,41.88897],[13.32017,41.88953],[13.32025,41.88965],[13.32027,41.88984],[13.32041,41.88998],[13.32047,41.89017],[13.32053,41.89022],[13.32067,41.89026],[13.32081,41.89023],[13.32097,41.89026],[13.32121,41.89045],[13.32148,41.89071],[13.32189,41.89092],[13.32193,41.89101],[13.32183,41.89145],[13.32202,41.89153],[13.32229,41.89154],[13.3225,41.89147],[13.32314,41.89096],[13.32384,41.89082],[13.32434,41.89068],[13.32437,41.89062],[13.32435,41.89055],[13.32416,41.89008],[13.32396,41.88988],[13.32396,41.88984],[13.32407,41.88971],[13.32427,41.88959],[13.32526,41.88945],[13.32555,41.88946],[13.32619,41.88988],[13.32666,41.89007],[13.32685,41.89025],[13.32704,41.89056],[13.3276,41.89102],[13.32775,41.89108],[13.32786,41.89108],[13.32801,41.89099],[13.32827,41.89047],[13.32829,41.89039],[13.32821,41.89016],[13.32825,41.88999],[13.32836,41.88993],[13.32864,41.88987],[13.32882,41.88989],[13.329,41.88995],[13.32923,41.8902],[13.32925,41.89053],[13.32932,41.89072],[13.32887,41.89095],[13.32879,41.8912],[13.32885,41.89139],[13.32879,41.89182],[13.32873,41.89196],[13.32823,41.89249]]},"properties":{}},{"type":"Feature","geometry":{"type":"LineString","coordinates":[[13.11959,41.8292],[13.1207,41.82835],[13.12108,41.82815],[13.12141,41.82805],[13.1218,41.82798],[13.1246,41.82788],[13.12492,41.82783],[13.12587,41.82754],[13.12613,41.8275],[13.1267,41.82752],[13.1275,41.82776],[13.12774,41.82775],[13.12813,41.82765],[13.12862,41.82746],[13.12968,41.82737],[13.13214,41.82685],[13.13248,41.82681],[13.13292,41.82685],[13.13338,41.82683],[13.13798,41.82617],[13.13815,41.82612],[13.13828,41.826],[13.139,41.82471],[13.13903,41.82456],[13.139,41.82433],[13.13888,41.82411],[13.13868,41.82391],[13.13819,41.82357],[13.13696,41.82296],[13.13661,41.82267],[13.13633,41.82229],[13.13623,41.82194],[13.13624,41.82118],[13.13629,41.82091],[13.13654,41.82032],[13.13712,41.81926],[13.13729,41.81865],[13.13734,41.81682],[13.13732,41.81662],[13.13717,41.81629],[13.13702,41.81619],[13.13637,41.81597],[13.136,41.81587],[13.13568,41.81573],[13.13536,41.81548],[13.13526,41.81531],[13.13521,41.81514],[13.13525,41.81478],[13.13532,41.81459],[13.13549,41.81441],[13.13616,41.81397],[13.13643,41.81383],[13.13802,41.81325],[13.13862,41.81299],[13.13893,41.81281],[13.14018,41.81194],[13.1414,41.81102],[13.14163,41.81068],[13.1417,41.81053],[13.14171,41.81036],[13.14158,41.80992],[13.1416,41.80977],[13.14194,41.80883],[13.14222,41.80846],[13.14244,41.80825],[13.14266,41.80813],[13.14314,41.80801],[13.14367,41.808],[13.14401,41.80793],[13.14424,41.80784],[13.14449,41.8077],[13.14467,41.80755],[13.1448,41.80731],[13.145,41.80705],[13.14554,41.80641],[13.14627,41.80578],[13.14649,41.80563],[13.14671,41.80553],[13.14694,41.80537],[13.14722,41.80502],[13.14744,41.80466],[13.14751,41.80442],[13.14754,41.80401],[13.14762,41.80386],[13.14775,41.80373],[13.14841,41.80331],[13.14891,41.80291],[13.14938,41.80239],[13.14979,41.80198],[13.15003,41.80179],[13.15019,41.80173],[13.15102,41.80159],[13.15117,41.8015],[13.15124,41.8014],[13.15134,41.8009],[13.15145,41.80075],[13.15164,41.80059],[13.15272,41.80002],[13.15332,41.79966],[13.15398,41.79948],[13.15417,41.7994],[13.15424,41.79929],[13.15431,41.79886],[13.15429,41.79817],[13.15435,41.798],[13.15458,41.7976],[13.15471,41.79653],[13.15466,41.79615],[13.15445,41.79554],[13.15427,41.79513],[13.15388,41.79447],[13.15334,41.7934],[13.15334,41.79328],[13.15343,41.79321],[13.15422,41.79306],[13.15493,41.793],[13.15729,41.79254],[13.15874,41.79239],[13.15953,41.79237],[13.16016,41.79246],[13.16064,41.79262],[13.16085,41.79273],[13.16178,41.7934],[13.16202,41.79353],[13.16216,41.79355],[13.1623,41.79351],[13.16238,41.79342],[13.1624,41.79329],[13.16252,41.79254],[13.16264,41.79206],[13.16268,41.79176],[13.16268,41.79152],[13.1625,41.791],[13.1625,41.79092],[13.16254,41.79087],[13.16263,41.79084],[13.16284,41.79087],[13.1646,41.79118],[13.16517,41.7912],[13.16767,41.79114],[13.16776,41.79108],[13.16778,41.791],[13.16698,41.78992],[13.16688,41.78963],[13.16686,41.78942],[13.16695,41.78923],[13.1671,41.78903],[13.1673,41.7889],[13.16756,41.78881],[13.16793,41.78879],[13.16897,41.78881],[13.17072,41.78892],[13.17243,41.78916],[13.17303,41.78929],[13.17358,41.78956],[13.17386,41.78981],[13.17403,41.79002],[13.17413,41.79025],[13.17423,41.79037],[13.17488,41.79085],[13.17497,41.79085],[13.17516,41.79078],[13.17549,41.79044],[13.17576,41.7903],[13.17626,41.79023],[13.17684,41.79026],[13.17697,41.79033],[13.1772,41.79062],[13.17759,41.79095],[13.17762,41.79121],[13.17751,41.7917],[13.17755,41.79187],[13.17769,41.79203],[13.17792,41.79217],[13.17842,41.79229],[13.17932,41.79217],[13.17992,41.79226],[13.1803,41.79226],[13.18103,41.79214],[13.18172,41.79225],[13.18204,41.79226],[13.18246,41.79222],[13.18464,41.79196],[13.18589,41.79172],[13.18777,41.79123],[13.18813,41.79112],[13.18888,41.79077],[13.18915,41.79068],[13.19115,41.79022],[13.1914,41.79014],[13.19156,41.79],[13.19159,41.78984],[13.19139,41.78805],[13.19138,41.78755],[13.19146,41.78679],[13.19152,41.78653],[13.19164,41.78642],[13.19183,41.78633],[13.19219,41.78625],[13.19242,41.78614],[13.19374,41.78538],[13.19461,41.78483],[13.1948,41.78466],[13.19496,41.78443],[13.195,41.78403],[13.19493,41.78378],[13.19498,41.78353],[13.19507,41.78337],[13.19658,41.78177],[13.19665,41.78163],[13.19662,41.78142],[13.19651,41.7812],[13.1964,41.78108],[13.19596,41.78078],[13.19588,41.78063],[13.19586,41.78044],[13.19592,41.78029],[13.19601,41.78017],[13.19617,41.78006],[13.19648,41.77997],[13.19709,41.77987],[13.19767,41.77982],[13.19846,41.78017],[13.19889,41.78019],[13.19917,41.78012],[13.19997,41.77983],[13.20039,41.77971],[13.20104,41.77969],[13.20136,41.77974],[13.20189,41.77992],[13.20359,41.78112],[13.20383,41.78132],[13.20401,41.78166],[13.20402,41.78184],[13.20399,41.78206],[13.20379,41.78239],[13.20345,41.78285],[13.2034,41.783],[13.2034,41.78318],[13.20344,41.78332],[13.20355,41.78343],[13.20476,41.78398],[13.20496,41.78412],[13.20548,41.78462],[13.20568,41.78491],[13.20575,41.78509],[13.20578,41.78535],[13.20571,41.78572],[13.20558,41.78592],[13.20452,41.78721],[13.20429,41.7876],[13.20419,41.78787],[13.20413,41.78821],[13.20412,41.78846],[13.20416,41.78879],[13.20436,41.7893],[13.20612,41.79175],[13.20704,41.79293],[13.20737,41.79344],[13.20745,41.7937],[13.20745,41.79392],[13.20739,41.7941],[13.2069,41.79462],[13.2067,41.79492],[13.20664,41.79512],[13.20665,41.79531],[13.20672,41.79546],[13.20681,41.79561],[13.20697,41.79573],[13.20722,41.79583],[13.20768,41.79594],[13.20837,41.79593],[13.20915,41.79581],[13.20951,41.79583],[13.20985,41.79591],[13.21024,41.79606],[13.21063,41.79632],[13.21103,41.79663],[13.21233,41.79747]]},"properties":{}},{"type":"Feature","geometry":{"type":"LineString","coordinates":[[13.13414,41.51882],[13.13456,41.51896],[13.13517,41.51926]]},"properties":{}},{"type":"Feature","geometry":{"type":"LineString","coordinates":[[13.13414,41.51882],[13.13249,41.51834],[13.12786,41.51679],[13.12821,41.516],[13.12822,41.51587],[13.12813,41.51568],[13.12769,41.51507],[13.12755,41.51472],[13.1275,41.51445],[13.12757,41.51403],[13.12755,41.51366],[13.12706,41.51247],[13.12695,41.51229],[13.1267,41.51201],[13.12632,41.51174],[13.1256,41.51153],[13.12533,41.51139],[13.12498,41.51111],[13.12372,41.50936],[13.12312,41.50863],[13.12248,41.50805],[13.12172,41.50749],[13.12149,41.50725],[13.12139,41.50706],[13.12207,41.50671],[13.12233,41.50648],[13.12242,41.50631],[13.12247,41.50609],[13.12289,41.5056],[13.12324,41.50526],[13.1237,41.50497],[13.12454,41.5046],[13.12506,41.50421],[13.12597,41.50318],[13.12632,41.50259],[13.12657,41.50225],[13.12687,41.50189],[13.1272,41.50157],[13.12761,41.50129],[13.12882,41.50088],[13.12905,41.50085],[13.1292,41.5009],[13.1296,41.50112],[13.1307,41.50199],[13.13084,41.50218],[13.13103,41.50268],[13.13107,41.50322],[13.13113,41.50353],[13.1313,41.50402],[13.13132,41.50439],[13.13124,41.50485],[13.1312,41.50536],[13.13077,41.50639],[13.13076,41.50665],[13.13084,41.50744],[13.13081,41.50812],[13.13093,41.50985],[13.13107,41.51035],[13.13131,41.51076],[13.13138,41.51094],[13.13133,41.51136],[13.13134,41.51174],[13.13151,41.51277],[13.13189,41.51378],[13.13238,41.51451],[13.13254,41.51489],[13.13279,41.51528],[13.13319,41.51604],[13.1334,41.51636],[13.13366,41.51706],[13.13363,41.5173],[13.13345,41.51768],[13.13342,41.5178],[13.13343,41.51794],[13.13387,41.51853],[13.13406,41.51869],[13.13414,41.51882]]},"properties":{}},{"type":"Feature","geometry":{"type":"LineString","coordinates":[[13.13517,41.51926],[13.13605,41.51971],[13.13613,41.51979],[13.13617,41.5199],[13.13602,41.52032],[13.13603,41.52039],[13.13613,41.52053],[13.13866,41.52164],[13.13892,41.52178],[13.13903,41.52189],[13.13909,41.52203],[13.13906,41.52236],[13.13908,41.52253],[13.13913,41.52262],[13.13921,41.5227],[13.13937,41.52279],[13.1395,41.52283],[13.13967,41.52284],[13.1409,41.52274],[13.14248,41.52271],[13.14262,41.52273],[13.14281,41.5228],[13.14293,41.5229],[13.14305,41.52303],[13.1433,41.52345],[13.14379,41.5239],[13.14427,41.52428],[13.14451,41.52437],[13.14509,41.52456],[13.1453,41.52458],[13.14598,41.5245],[13.14618,41.52451],[13.14639,41.52457],[13.14714,41.52505],[13.1475,41.5252],[13.14785,41.52528],[13.14888,41.52539],[13.15,41.52539],[13.15013,41.52542],[13.15017,41.52548],[13.15013,41.52556],[13.14999,41.52558],[13.1493,41.52556],[13.14888,41.52559],[13.14877,41.52563],[13.14873,41.52569],[13.14877,41.52572],[13.14981,41.52572],[13.15097,41.52561],[13.15202,41.52541],[13.15347,41.52486],[13.15367,41.5248],[13.15404,41.52476],[13.15502,41.52482],[13.15548,41.52495],[13.15595,41.52515]]},"properties":{}},{"type":"Feature","geometry":{"type":"LineString","coordinates":[[13.16226,41.52016],[13.16162,41.52004],[13.16078,41.52006],[13.15999,41.52014],[13.15949,41.52025],[13.159,41.5203],[13.15823,41.52047],[13.15769,41.52054],[13.1574,41.52055],[13.15599,41.52051],[13.15532,41.52055],[13.15509,41.52053],[13.15291,41.51964],[13.15246,41.51954],[13.15198,41.51948],[13.15024,41.51909],[13.14975,41.51903],[13.14834,41.51897],[13.1478,41.51881],[13.14759,41.51871],[13.14732,41.51852],[13.14707,41.51845],[13.14585,41.51842],[13.14571,41.51838],[13.14559,41.51844],[13.1454,41.51847],[13.14421,41.51851],[13.14372,41.51868],[13.14279,41.51888],[13.14252,41.51891],[13.14158,41.51893],[13.14094,41.51903],[13.14067,41.51903],[13.13987,41.51891],[13.13907,41.51891],[13.13775,41.51907],[13.13734,41.5191],[13.13654,41.51908],[13.13539,41.5192],[13.13517,41.51926]]},"properties":{}},{"type":"Feature","geometry":{"type":"LineString","coordinates":[[13.16283,41.52521],[13.16328,41.52528],[13.16347,41.52525],[13.16672,41.52364],[13.16697,41.52357]]},"properties":{}},{"type":"Feature","geometry":{"type":"LineString","coordinates":[[13.21233,41.79747],[13.21258,41.79754],[13.21281,41.79755],[13.21303,41.79751],[13.21323,41.79742],[13.2147,41.79624],[13.21537,41.7958],[13.21596,41.79545],[13.21624,41.79522],[13.21647,41.79496],[13.21679,41.79448],[13.21692,41.79422],[13.21713,41.7939],[13.21729,41.79373],[13.2175,41.7936],[13.21803,41.79338],[13.22003,41.79278]]},"properties":{}},{"type":"Feature","geometry":{"type":"LineString","coordinates":[[13.21564,41.79734],[13.21533,41.79727],[13.21509,41.79726],[13.21356,41.79768],[13.21295,41.79774],[13.21271,41.7977],[13.21233,41.79747]]},"properties":{}},{"type":"Feature","geometry":{"type":"LineString","coordinates":[[13.21579,41.7973],[13.21574,41.79737],[13.21564,41.79734]]},"properties":{}},{"type":"Feature","geometry":{"type":"LineString","coordinates":[[13.21564,41.79734],[13.21563,41.7973],[13.21568,41.79726],[13.21575,41.79726],[13.21579,41.7973]]},"properties":{}},{"type":"Feature","geometry":{"type":"LineString","coordinates":[[13.22003,41.79278],[13.21964,41.79318],[13.21865,41.79409],[13.21685,41.79532],[13.21606,41.79595],[13.21596,41.79614],[13.21594,41.79634],[13.21598,41.7969],[13.21597,41.7971],[13.21594,41.79719],[13.21579,41.7973]]},"properties":{}},{"type":"Feature","geometry":{"type":"LineString","coordinates":[[13.22094,41.79182],[13.22003,41.79278]]},"properties":{}},{"type":"Feature","geometry":{"type":"LineString","coordinates":[[13.22103,41.79174],[13.22094,41.79182]]},"properties":{}},{"type":"Feature","geometry":{"type":"LineString","coordinates":[[13.2213,41.79196],[13.22129,41.79186],[13.22122,41.79179],[13.22109,41.79178],[13.22094,41.79182]]},"properties":{}},{"type":"Feature","geometry":{"type":"LineString","coordinates":[[13.22203,41.79105],[13.22177,41.79107],[13.22103,41.79174]]},"properties":{}},{"type":"Feature","geometry":{"type":"LineString","coordinates":[[13.22103,41.79174],[13.22116,41.79172],[13.22129,41.79176],[13.2213,41.79196]]},"properties":{}},{"type":"Feature","geometry":{"type":"LineString","coordinates":[[13.2213,41.79196],[13.22123,41.79322],[13.22119,41.79471],[13.22114,41.79524],[13.22118,41.79545],[13.22168,41.79655],[13.22179,41.7969],[13.22179,41.7971],[13.22177,41.7973],[13.22169,41.79744],[13.22152,41.7976],[13.22129,41.79777],[13.22065,41.79813],[13.22031,41.79842],[13.22027,41.79868],[13.22034,41.79883],[13.22048,41.79897],[13.22066,41.79907],[13.22097,41.79911],[13.22132,41.79906],[13.22237,41.79813],[13.22316,41.79797],[13.22339,41.79781],[13.22518,41.79588],[13.2256,41.79537],[13.22616,41.79483],[13.22638,41.79472],[13.22668,41.79468],[13.22692,41.79476],[13.22735,41.7951],[13.22779,41.7953],[13.22806,41.79532],[13.22899,41.79528],[13.22922,41.79536],[13.22928,41.7954],[13.22932,41.7955],[13.22928,41.79568],[13.22914,41.79581],[13.22897,41.79587],[13.22759,41.79573],[13.22705,41.79577],[13.22659,41.79592],[13.22634,41.79607],[13.22611,41.79629],[13.22589,41.79659],[13.22577,41.79685],[13.22573,41.79705],[13.22575,41.79731],[13.22586,41.79793],[13.22604,41.79829],[13.22621,41.79876],[13.22611,41.79899],[13.22561,41.79954],[13.22547,41.79982],[13.22543,41.8001],[13.22541,41.80061],[13.22559,41.80139],[13.22555,41.80166],[13.22538,41.80191],[13.22518,41.80203],[13.22445,41.8022],[13.22431,41.80231],[13.2242,41.80247],[13.22393,41.80315],[13.22349,41.80445],[13.22329,41.80496],[13.22324,41.80503],[13.22309,41.80511],[13.22294,41.80514],[13.22246,41.805],[13.22219,41.80488]]},"properties":{}},{"type":"Feature","geometry":{"type":"LineString","coordinates":[[13.22203,41.79105],[13.2224,41.79079],[13.22252,41.7908],[13.22258,41.79089]]},"properties":{}},{"type":"Feature","geometry":{"type":"LineString","coordinates":[[13.22242,41.79097],[13.22203,41.79105]]},"properties":{}},{"type":"Feature","geometry":{"type":"LineString","coordinates":[[13.22219,41.80488],[13.222,41.80481],[13.22159,41.80477],[13.22158,41.80473],[13.22177,41.80464],[13.22212,41.8048],[13.22219,41.80488]]},"properties":{}},{"type":"Feature","geometry":{"type":"LineString","coordinates":[[13.32823,41.89249],[13.32818,41.89271],[13.32808,41.89273],[13.32793,41.89268],[13.32795,41.89256],[13.32823,41.89249]]},"properties":{}}]}