{"type":"FeatureCollection","features":[{"type":"Feature","geometry":{"type":"LineString","coordinates":[[13.0,43.07608],[13.00044,43.07609],[13.00071,43.07606],[13.00099,43.076],[13.00257,43.07499],[13.00447,43.07425],[13.00468,43.07413],[13.00496,43.07382],[13.00517,43.07368],[13.00552,43.07353],[13.00619,43.07337],[13.00697,43.07294],[13.00807,43.07246],[13.00894,43.072],[13.00963,43.07175],[13.0098,43.07165],[13.01041,43.07113],[13.011,43.07073],[13.01252,43.06947],[13.01269,43.06937],[13.0131,43.06927],[13.01395,43.06927],[13.01442,43.0693],[13.01477,43.06938],[13.0162,43.06989],[13.01745,43.07011],[13.01768,43.0702],[13.01865,43.07084],[13.02042,43.07163],[13.0209,43.072],[13.02112,43.07207],[13.02212,43.07223],[13.02303,43.07276],[13.02368,43.07293],[13.02424,43.07328],[13.02526,43.07435],[13.02596,43.07529],[13.02625,43.07558],[13.02652,43.07577],[13.02792,43.07646],[13.02922,43.0769],[13.02978,43.07716],[13.0301,43.07726],[13.03034,43.07724],[13.03104,43.07711],[13.03231,43.07705],[13.03329,43.07693],[13.03357,43.07693],[13.03383,43.07699],[13.03409,43.07714],[13.03428,43.07734],[13.03451,43.07772]]},"properties":{}},{"type":"Feature","geometry":{"type":"LineString","coordinates":[[13.03451,43.07772],[13.03217,43.0783],[13.02858,43.07912],[13.02743,43.07935],[13.02512,43.07971],[13.0237,43.07988],[13.02203,43.07998],[13.02037,43.08002],[13.01701,43.07991],[13.01522,43.07976],[13.0134,43.0795],[13.00777,43.07832],[13.0,43.07657]]},"properties":{}},{"type":"Feature","geometry":{"type":"LineString","coordinates":[[13.03451,43.07772],[13.03468,43.078],[13.03526,43.07855],[13.03571,43.0791],[13.0363,43.07939],[13.03781,43.07998],[13.03899,43.08048],[13.03956,43.08057],[13.04684,43.08086],[13.04772,43.0808],[13.04989,43.08055],[13.05035,43.08042],[13.05088,43.08016],[13.05534,43.07737],[13.05569,43.07718],[13.05662,43.07683]]},"properties":{}},{"type":"Feature","geometry":{"type":"LineString","coordinates":[[13.05142,43.07683],[13.05156,43.07672],[13.05167,43.07659],[13.05172,43.0764],[13.0517,43.0763],[13.05155,43.07611],[13.05128,43.076],[13.04973,43.07581],[13.04754,43.07574],[13.04596,43.07575],[13.04431,43.07586],[13.04148,43.07617],[13.03983,43.07646],[13.03817,43.07681],[13.03652,43.0772],[13.03451,43.07772]]},"properties":{}},{"type":"Feature","geometry":{"type":"LineString","coordinates":[[13.0517,43.15555],[13.05156,43.15514],[13.05104,43.15426],[13.0507,43.15375],[13.04978,43.15273],[13.05011,43.15253]]},"properties":{}},{"type":"Feature","geometry":{"type":"LineString","coordinates":[[13.0503,43.12727],[13.05099,43.12721],[13.05105,43.12727],[13.05108,43.12742],[13.051,43.12749],[13.05064,43.12754],[13.0505,43.12761],[13.05034,43.12777],[13.04989,43.12781],[13.04985,43.12759],[13.04987,43.12752],[13.05022,43.12742],[13.0503,43.12727]]},"properties":{}},{"type":"Feature","geometry":{"type":"LineString","coordinates":[[13.05259,43.12855],[13.05248,43.12799],[13.05238,43.12776],[13.05221,43.12751],[13.05179,43.12717],[13.05159,43.12708],[13.05139,43.12703],[13.0505,43.12702],[13.05024,43.12696],[13.0502,43.1272],[13.0503,43.12727]]},"properties":{}},{"type":"Feature","geometry":{"type":"LineString","coordinates":[[13.05437,43.20368],[13.05436,43.20331],[13.05446,43.2024],[13.05442,43.20214],[13.05431,43.20182],[13.05406,43.20141],[13.05311,43.20006],[13.05031,43.19747]]},"properties":{}},{"type":"Feature","geometry":{"type":"LineString","coordinates":[[13.05031,43.19747],[13.05007,43.19718],[13.04997,43.1971],[13.04994,43.197],[13.04998,43.19691],[13.05014,43.19684],[13.05034,43.19662]]},"properties":{}},{"type":"Feature","geometry":{"type":"LineString","coordinates":[[13.05034,43.19662],[13.05035,43.19688],[13.05044,43.197],[13.05043,43.19706],[13.05035,43.19716],[13.05032,43.19726],[13.05031,43.19747]]},"properties":{}},{"type":"Feature","geometry":{"type":"LineString","coordinates":[[13.06019,43.16161],[13.05976,43.16207],[13.0594,43.16257],[13.05914,43.16312],[13.05867,43.16488],[13.05882,43.16559],[13.05877,43.16576],[13.0586,43.16608],[13.05826,43.1666],[13.05814,43.16689],[13.05808,43.16716],[13.05803,43.16772],[13.05791,43.16809],[13.05742,43.16906],[13.05514,43.17303],[13.05494,43.17342],[13.0548,43.17382],[13.05411,43.1787],[13.05405,43.17922],[13.05408,43.17997],[13.0542,43.18106],[13.05435,43.18173],[13.05456,43.18223],[13.05543,43.18385],[13.0555,43.18405],[13.05551,43.18447],[13.05533,43.18542],[13.05491,43.18719],[13.05457,43.1893],[13.05416,43.19111],[13.05396,43.19157],[13.05283,43.19319],[13.05203,43.19444],[13.05168,43.1949],[13.05094,43.19564],[13.05074,43.1959],[13.05034,43.19662]]},"properties":{}},{"type":"Feature","geometry":{"type":"LineString","coordinates":[[13.0533,43.07624],[13.05157,43.07713],[13.0511,43.07743],[13.05066,43.07781],[13.05047,43.07783],[13.05018,43.07776],[13.04996,43.07758],[13.04993,43.07747],[13.04995,43.07735],[13.0501,43.07718],[13.05142,43.07683]]},"properties":{}},{"type":"Feature","geometry":{"type":"LineString","coordinates":[[13.0533,43.07624],[13.05294,43.07623],[13.05259,43.07628],[13.05221,43.07644],[13.05162,43.07676],[13.05142,43.07683]]},"properties":{}},{"type":"Feature","geometry":{"type":"LineString","coordinates":[[13.06019,43.16161],[13.059,43.16145],[13.05802,43.16119],[13.05687,43.16078],[13.05614,43.16067],[13.05576,43.16045],[13.05499,43.15982],[13.05412,43.1593],[13.05388,43.15925],[13.05345,43.15939],[13.05325,43.15936],[13.05312,43.15912],[13.05289,43.15816],[13.05242,43.15734],[13.05222,43.1568],[13.05181,43.15601],[13.05175,43.15584],[13.0517,43.15555]]},"properties":{}},{"type":"Feature","geometry":{"type":"LineString","coordinates":[[13.0517,43.15555],[13.05188,43.15553]]},"properties":{}},{"type":"Feature","geometry":{"type":"LineString","coordinates":[[13.05292,43.1289],[13.05273,43.12901],[13.05262,43.129],[13.05254,43.12895],[13.05252,43.12863],[13.05254,43.12857],[13.05259,43.12855]]},"properties":{}},{"type":"Feature","geometry":{"type":"LineString","coordinates":[[13.05259,43.12855],[13.05276,43.1286],[13.0528,43.12877],[13.05292,43.1289]]},"properties":{}},{"type":"Feature","geometry":{"type":"LineString","coordinates":[[13.05951,43.12881],[13.05937,43.12879],[13.05919,43.12889],[13.05877,43.12961],[13.05829,43.1301],[13.05808,43.13024],[13.05771,43.1304],[13.05722,43.13048],[13.05687,43.13043],[13.05635,43.13021],[13.05591,43.12993],[13.05548,43.12951],[13.0553,43.12939],[13.0551,43.12934],[13.05408,43.1293],[13.05362,43.12925],[13.05325,43.12911],[13.05292,43.1289]]},"properties":{}},{"type":"Feature","geometry":{"type":"LineString","coordinates":[[13.05662,43.07683],[13.05504,43.07653],[13.0533,43.07624]]},"properties":{}},{"type":"Feature","geometry":{"type":"LineString","coordinates":[[13.05514,43.07528],[13.0533,43.07624]]},"properties":{}},{"type":"Feature","geometry":{"type":"LineString","coordinates":[[13.05437,43.20368],[13.05482,43.20418],[13.05499,43.20441]]},"properties":{}},{"type":"Feature","geometry":{"type":"LineString","coordinates":[[13.05499,43.20441],[13.05486,43.20434],[13.0545,43.20426],[13.05438,43.20421],[13.05437,43.20368]]},"properties":{}},{"type":"Feature","geometry":{"type":"LineString","coordinates":[[13.0555,43.20492],[13.05522,43.20468],[13.05499,43.20441]]},"properties":{}},{"type":"Feature","geometry":{"type":"LineString","coordinates":[[13.05514,43.07528],[13.05531,43.07513],[13.05533,43.07496],[13.05537,43.0749],[13.05544,43.07486],[13.05562,43.07482],[13.05579,43.07487],[13.05585,43.07492],[13.05588,43.07504],[13.05583,43.07519],[13.05589,43.0753]]},"properties":{}},{"type":"Feature","geometry":{"type":"LineString","coordinates":[[13.05589,43.0753],[13.05569,43.07522],[13.05532,43.07523],[13.05514,43.07528]]},"properties":{}},{"type":"Feature","geometry":{"type":"LineString","coordinates":[[13.05667,43.20763],[13.05734,43.20747],[13.05738,43.20742],[13.05738,43.20731],[13.05675,43.20587],[13.05663,43.20569],[13.0555,43.20492]]},"properties":{}},{"type":"Feature","geometry":{"type":"LineString","coordinates":[[13.0555,43.20492],[13.05553,43.20506],[13.05667,43.20763]]},"properties":{}},{"type":"Feature","geometry":{"type":"LineString","coordinates":[[13.05589,43.0753],[13.05599,43.07534],[13.05648,43.07539],[13.0571,43.07572],[13.05731,43.07589],[13.05773,43.07649]]},"properties":{}},{"type":"Feature","geometry":{"type":"LineString","coordinates":[[13.05657,43.14779],[13.05674,43.14788],[13.05695,43.14825],[13.05756,43.14892],[13.05751,43.14911],[13.05733,43.14937],[13.05722,43.14939],[13.057,43.14928],[13.05625,43.14875],[13.05586,43.14842],[13.05622,43.14818],[13.05621,43.14792],[13.05632,43.14784]]},"properties":{}},{"type":"Feature","geometry":{"type":"LineString","coordinates":[[13.066,43.14425],[13.06531,43.14387],[13.065,43.14374],[13.06476,43.14367],[13.06427,43.14364],[13.06383,43.14376],[13.06357,43.14395],[13.06313,43.14444],[13.06278,43.14462],[13.06218,43.1448],[13.06127,43.14493],[13.06112,43.14494],[13.06043,43.14484],[13.06019,43.14485],[13.06008,43.1449],[13.05999,43.14498],[13.06002,43.1452],[13.05992,43.14526],[13.05976,43.14519],[13.05951,43.145],[13.05927,43.14488],[13.05866,43.14473],[13.05824,43.14458],[13.05691,43.14397],[13.05629,43.1444],[13.05833,43.14597],[13.05672,43.14695],[13.05455,43.14733],[13.05462,43.14749],[13.05474,43.14756],[13.05572,43.14752],[13.05589,43.14754],[13.05608,43.14762],[13.05632,43.14784]]},"properties":{}},{"type":"Feature","geometry":{"type":"LineString","coordinates":[[13.05632,43.14784],[13.05657,43.14779]]},"properties":{}},{"type":"Feature","geometry":{"type":"LineString","coordinates":[[13.05657,43.14779],[13.05677,43.14771],[13.05707,43.14727],[13.05719,43.14723],[13.05751,43.14721],[13.0576,43.14713],[13.0577,43.14714],[13.05774,43.14721],[13.05753,43.14751],[13.05749,43.14766],[13.05781,43.14821],[13.05799,43.14913],[13.05811,43.14929],[13.05827,43.14943],[13.05904,43.14969],[13.05918,43.14981],[13.05941,43.15012],[13.05953,43.1502],[13.06016,43.15039],[13.06061,43.15047],[13.06105,43.1505],[13.06158,43.15042],[13.06184,43.15027],[13.06199,43.15021]]},"properties":{}},{"type":"Feature","geometry":{"type":"LineString","coordinates":[[13.13245,43.12046],[13.1305,43.1169],[13.13025,43.11634],[13.13,43.11551],[13.12993,43.11513],[13.12989,43.11456],[13.12998,43.11206],[13.12954,43.10513],[13.12946,43.10437],[13.12936,43.10378],[13.12909,43.10304],[13.12892,43.1027],[13.12864,43.10225],[13.12845,43.10199],[13.12784,43.10133],[13.12737,43.10093],[13.12688,43.10056],[13.12541,43.09965],[13.12467,43.09908],[13.12438,43.09883],[13.12409,43.09851],[13.12283,43.09688],[13.1225,43.09651],[13.12166,43.09573],[13.12107,43.09533],[13.12034,43.09489],[13.11942,43.09442],[13.11234,43.09109],[13.10779,43.08937],[13.10552,43.08855],[13.10356,43.08779],[13.1026,43.08737],[13.10028,43.08612],[13.09627,43.08384],[13.09477,43.08307],[13.09369,43.08259],[13.0931,43.08237],[13.09233,43.08209],[13.09148,43.08183],[13.08972,43.0814],[13.08836,43.08117],[13.08783,43.08111],[13.08676,43.08104],[13.0848,43.08102],[13.08186,43.08092],[13.08032,43.08078],[13.07637,43.08019],[13.07561,43.08012],[13.07313,43.07997],[13.07053,43.07984],[13.0681,43.07957],[13.06674,43.07933],[13.06225,43.07831],[13.06062,43.0779],[13.05708,43.07691],[13.05662,43.07683]]},"properties":{}},{"type":"Feature","geometry":{"type":"LineString","coordinates":[[13.05662,43.07683],[13.05773,43.07649]]},"properties":{}},{"type":"Feature","geometry":{"type":"LineString","coordinates":[[13.05667,43.20763],[13.05692,43.2082],[13.05579,43.20882],[13.05735,43.21018],[13.05723,43.21026]]},"properties":{}},{"type":"Feature","geometry":{"type":"LineString","coordinates":[[13.05773,43.07649],[13.06089,43.07571],[13.06121,43.07565],[13.06217,43.0756]]},"properties":{}},{"type":"Feature","geometry":{"type":"LineString","coordinates":[[13.05947,43.13134],[13.05955,43.13145],[13.05962,43.13166],[13.05968,43.13174],[13.06,43.13187]]},"properties":{}},{"type":"Feature","geometry":{"type":"LineString","coordinates":[[13.06,43.13187],[13.05965,43.13191],[13.05947,43.13186],[13.05947,43.13134]]},"properties":{}},{"type":"Feature","geometry":{"type":"LineString","coordinates":[[13.05947,43.13134],[13.05921,43.13031],[13.05924,43.13012],[13.05946,43.12968],[13.05954,43.12942],[13.05958,43.12895],[13.05956,43.12887],[13.05951,43.12881]]},"properties":{}},{"type":"Feature","geometry":{"type":"LineString","coordinates":[[13.05951,43.12881],[13.05964,43.12868],[13.06013,43.12844],[13.06036,43.12823],[13.06044,43.12807],[13.06044,43.1275],[13.0603,43.12697],[13.06001,43.12622],[13.06002,43.12602],[13.0601,43.1259],[13.06024,43.12583],[13.06049,43.12579],[13.06123,43.12599],[13.06177,43.12607],[13.06282,43.12617],[13.06313,43.12613]]},"properties":{}},{"type":"Feature","geometry":{"type":"LineString","coordinates":[[13.06,43.13187],[13.0602,43.13182],[13.06034,43.13165]]},"properties":{}},{"type":"Feature","geometry":{"type":"LineString","coordinates":[[13.06019,43.16161],[13.06105,43.16086],[13.06124,43.16063],[13.06157,43.16013],[13.06166,43.15986],[13.06174,43.15907],[13.06192,43.15838],[13.06198,43.15803],[13.06197,43.15791],[13.06187,43.15766],[13.06105,43.15632],[13.06093,43.15597],[13.0609,43.15573],[13.06093,43.15555],[13.06106,43.15536],[13.06135,43.15509],[13.06144,43.15495],[13.06146,43.15482],[13.06138,43.15467],[13.0612,43.15457],[13.06107,43.15455],[13.06089,43.15456],[13.06057,43.15472],[13.06026,43.15504],[13.05999,43.15513],[13.05976,43.15512],[13.05962,43.15507],[13.05949,43.15498],[13.0594,43.15484],[13.05938,43.15474],[13.05941,43.15461],[13.05978,43.15415],[13.06007,43.15392],[13.0606,43.15369]]},"properties":{}},{"type":"Feature","geometry":{"type":"LineString","coordinates":[[13.06034,43.13165],[13.06029,43.13154],[13.06041,43.13108],[13.06037,43.13062],[13.06039,43.13049],[13.06047,43.13027],[13.06073,43.12997],[13.06114,43.12972],[13.06233,43.12933],[13.06276,43.12928],[13.06305,43.12929],[13.06338,43.12926]]},"properties":{}},{"type":"Feature","geometry":{"type":"LineString","coordinates":[[13.06034,43.13165],[13.06064,43.13093],[13.06067,43.13047],[13.06072,43.13034],[13.06089,43.13017],[13.06131,43.12998],[13.06147,43.12999],[13.06153,43.13007],[13.06146,43.13083],[13.06148,43.13126],[13.06153,43.13136],[13.06166,43.13141]]},"properties":{}},{"type":"Feature","geometry":{"type":"LineString","coordinates":[[13.0605,43.15349],[13.06066,43.15353],[13.06077,43.15363]]},"properties":{}},{"type":"Feature","geometry":{"type":"LineString","coordinates":[[13.0606,43.15369],[13.0605,43.15349]]},"properties":{}},{"type":"Feature","geometry":{"type":"LineString","coordinates":[[13.0605,43.15349],[13.06023,43.15342],[13.06013,43.15334],[13.05937,43.15262],[13.05931,43.15253],[13.05934,43.15241],[13.0596,43.15214],[13.06063,43.15236],[13.06129,43.15236],[13.06155,43.15225]]},"properties":{}},{"type":"Feature","geometry":{"type":"LineString","coordinates":[[13.0606,43.15369],[13.06077,43.15363]]},"properties":{}},{"type":"Feature","geometry":{"type":"LineString","coordinates":[[13.06077,43.15363],[13.06145,43.15344],[13.06171,43.15331],[13.06184,43.15321],[13.06203,43.15299],[13.06256,43.15213],[13.06267,43.1519],[13.06267,43.15181],[13.06262,43.15169],[13.06254,43.1516],[13.06229,43.15151],[13.0609,43.15171],[13.0606,43.15169],[13.06044,43.15162],[13.06032,43.15151],[13.06027,43.1514],[13.06027,43.15126],[13.06034,43.15114],[13.06048,43.15102],[13.06141,43.15064],[13.06199,43.15021]]},"properties":{}},{"type":"Feature","geometry":{"type":"LineString","coordinates":[[13.06155,43.15225],[13.06153,43.15218],[13.06157,43.15214],[13.06166,43.15213],[13.06172,43.15218],[13.06167,43.15227],[13.06155,43.15225]]},"properties":{}},{"type":"Feature","geometry":{"type":"LineString","coordinates":[[13.06166,43.13141],[13.06167,43.13148]]},"properties":{}},{"type":"Feature","geometry":{"type":"LineString","coordinates":[[13.06166,43.13141],[13.06182,43.13133],[13.06235,43.13042],[13.0626,43.13021],[13.06278,43.13015],[13.06306,43.13014],[13.06375,43.13029]]},"properties":{}},{"type":"Feature","geometry":{"type":"LineString","coordinates":[[13.06167,43.13148],[13.06175,43.13157],[13.06178,43.13165]]},"properties":{}},{"type":"Feature","geometry":{"type":"LineString","coordinates":[[13.06178,43.13165],[13.06167,43.13156],[13.06167,43.13148]]},"properties":{}},{"type":"Feature","geometry":{"type":"LineString","coordinates":[[13.06583,43.13592],[13.06543,43.13589],[13.06473,43.13592],[13.06405,43.13591],[13.06385,43.13586],[13.06376,43.1358],[13.06359,43.13549],[13.06356,43.13529],[13.06366,43.13496],[13.06387,43.13448],[13.06393,43.13423],[13.06393,43.13392],[13.06379,43.13348],[13.06364,43.13324],[13.06335,43.13291],[13.0623,43.13216],[13.06205,43.13195],[13.06178,43.13165]]},"properties":{}},{"type":"Feature","geometry":{"type":"LineString","coordinates":[[13.06199,43.15021],[13.06297,43.14943],[13.06327,43.14917],[13.06501,43.14723]]},"properties":{}},{"type":"Feature","geometry":{"type":"LineString","coordinates":[[13.06217,43.0756],[13.06223,43.07531],[13.06263,43.07533],[13.06272,43.07541],[13.06271,43.07562],[13.06217,43.0756]]},"properties":{}},{"type":"Feature","geometry":{"type":"LineString","coordinates":[[13.06301,43.14678],[13.06164,43.14749],[13.06099,43.14777],[13.06071,43.14806],[13.06035,43.14865],[13.06014,43.14885],[13.06,43.14872],[13.05957,43.1482],[13.05923,43.14773],[13.05923,43.14755],[13.05926,43.14739],[13.05974,43.1465],[13.06041,43.14589],[13.06053,43.1459],[13.06301,43.14678]]},"properties":{}},{"type":"Feature","geometry":{"type":"LineString","coordinates":[[13.06502,43.14571],[13.06423,43.1461],[13.06301,43.14678]]},"properties":{}},{"type":"Feature","geometry":{"type":"LineString","coordinates":[[13.06313,43.12613],[13.06339,43.12601]]},"properties":{}},{"type":"Feature","geometry":{"type":"LineString","coordinates":[[13.06375,43.12612],[13.06313,43.12613]]},"properties":{}},{"type":"Feature","geometry":{"type":"LineString","coordinates":[[13.06338,43.12926],[13.06369,43.12932],[13.06383,43.12938],[13.06586,43.13049],[13.06598,43.13058],[13.06604,43.13069],[13.06604,43.13081],[13.06575,43.13128],[13.06574,43.13144],[13.06579,43.13157],[13.06634,43.13236],[13.06654,43.13253],[13.0671,43.13282],[13.06721,43.13295],[13.06724,43.13312]]},"properties":{}},{"type":"Feature","geometry":{"type":"LineString","coordinates":[[13.06338,43.12926],[13.06348,43.12893],[13.06363,43.12869],[13.06377,43.12856],[13.06389,43.12853],[13.06486,43.12847],[13.06518,43.12836],[13.0654,43.12833],[13.06567,43.1284],[13.06637,43.12876]]},"properties":{}},{"type":"Feature","geometry":{"type":"LineString","coordinates":[[13.06338,43.13144],[13.0636,43.1315],[13.06428,43.1307],[13.0644,43.13067],[13.06463,43.1307],[13.06469,43.13066],[13.06465,43.1306],[13.06391,43.13037],[13.06375,43.13029]]},"properties":{}},{"type":"Feature","geometry":{"type":"LineString","coordinates":[[13.06339,43.12601],[13.06375,43.12612]]},"properties":{}},{"type":"Feature","geometry":{"type":"LineString","coordinates":[[13.06339,43.12601],[13.06393,43.12563],[13.06402,43.12543],[13.06411,43.12481],[13.06417,43.12471],[13.06436,43.12463],[13.06478,43.12458],[13.06495,43.12446],[13.06515,43.124],[13.06586,43.12319],[13.06615,43.12308],[13.06661,43.12301],[13.06695,43.12307],[13.06805,43.12351],[13.06993,43.12369],[13.07185,43.12394],[13.07312,43.1242],[13.0754,43.12509],[13.07871,43.12649],[13.07913,43.12653],[13.07942,43.1265],[13.07969,43.12643],[13.07993,43.12631],[13.08038,43.12599],[13.0812,43.12528],[13.08184,43.1249],[13.08209,43.12467],[13.08228,43.12439],[13.0824,43.12405],[13.0827,43.12252],[13.0827,43.1208],[13.08281,43.11938],[13.08288,43.11905],[13.08304,43.11873],[13.08317,43.1186],[13.08337,43.11846],[13.0879,43.11578],[13.08874,43.11543],[13.08901,43.11523],[13.08946,43.11459],[13.08961,43.11448],[13.08981,43.1144],[13.09022,43.11439],[13.09092,43.11449],[13.09149,43.11452],[13.09178,43.11449],[13.09208,43.11441],[13.09262,43.11419],[13.09296,43.1141],[13.09331,43.11405],[13.09865,43.11364],[13.09911,43.11353],[13.09948,43.11341],[13.10058,43.11289],[13.10124,43.11267],[13.10563,43.11171],[13.10655,43.11135],[13.10682,43.11128],[13.10797,43.11117],[13.11232,43.11126],[13.11262,43.11122],[13.1142,43.11081],[13.118,43.11044],[13.11979,43.11064],[13.12013,43.11064],[13.12051,43.11063],[13.12112,43.11056],[13.12208,43.11031],[13.12296,43.11014],[13.12329,43.11017],[13.12371,43.11043],[13.12392,43.1105],[13.12408,43.1105],[13.12462,43.11027],[13.12657,43.11027],[13.12681,43.11023],[13.1269,43.11035],[13.12697,43.11167],[13.12705,43.112],[13.12784,43.11419],[13.12805,43.11532],[13.12801,43.11552],[13.12789,43.11572],[13.12732,43.11621],[13.12702,43.11658],[13.127,43.11677],[13.12705,43.11693],[13.12725,43.1171],[13.12789,43.11739],[13.12832,43.11752],[13.12895,43.11764],[13.12928,43.11783],[13.13092,43.11897],[13.13207,43.12028],[13.13226,43.12042],[13.13245,43.12046]]},"properties":{}},{"type":"Feature","geometry":{"type":"LineString","coordinates":[[13.06697,43.12727],[13.06523,43.12636],[13.06493,43.12624],[13.06448,43.12615],[13.06375,43.12612]]},"properties":{}},{"type":"Feature","geometry":{"type":"LineString","coordinates":[[13.06375,43.13029],[13.06406,43.13034],[13.06487,43.13057],[13.06496,43.13062],[13.06501,43.13077],[13.06491,43.13121],[13.06494,43.13131],[13.06506,43.13147],[13.06532,43.13174],[13.06612,43.13241],[13.06715,43.13316]]},"properties":{}},{"type":"Feature","geometry":{"type":"LineString","coordinates":[[13.06501,43.14723],[13.06494,43.14716],[13.06494,43.1471],[13.06537,43.14592],[13.06531,43.14575]]},"properties":{}},{"type":"Feature","geometry":{"type":"LineString","coordinates":[[13.06501,43.14723],[13.06536,43.14689],[13.06592,43.14664]]},"properties":{}},{"type":"Feature","geometry":{"type":"LineString","coordinates":[[13.06524,43.14572],[13.06502,43.14571]]},"properties":{}},{"type":"Feature","geometry":{"type":"LineString","coordinates":[[13.06502,43.14571],[13.06522,43.14559]]},"properties":{}},{"type":"Feature","geometry":{"type":"LineString","coordinates":[[13.06524,43.14572],[13.0652,43.14566],[13.06522,43.14559]]},"properties":{}},{"type":"Feature","geometry":{"type":"LineString","coordinates":[[13.06522,43.14559],[13.06557,43.14541]]},"properties":{}},{"type":"Feature","geometry":{"type":"LineString","coordinates":[[13.06531,43.14575],[13.06524,43.14572]]},"properties":{}},{"type":"Feature","geometry":{"type":"LineString","coordinates":[[13.06557,43.14541],[13.0655,43.14569],[13.06544,43.14575],[13.06531,43.14575]]},"properties":{}},{"type":"Feature","geometry":{"type":"LineString","coordinates":[[13.06606,43.14442],[13.06576,43.14509],[13.06557,43.14541]]},"properties":{}},{"type":"Feature","geometry":{"type":"LineString","coordinates":[[13.06583,43.13592],[13.06631,43.136],[13.06688,43.13616],[13.0677,43.13649],[13.06785,43.13652],[13.06802,43.13661],[13.06809,43.13671]]},"properties":{}},{"type":"Feature","geometry":{"type":"LineString","coordinates":[[13.06843,43.1374],[13.06791,43.13732],[13.06752,43.13704],[13.06701,43.13674],[13.06615,43.13639],[13.06606,43.13631],[13.06583,43.13592]]},"properties":{}},{"type":"Feature","geometry":{"type":"LineString","coordinates":[[13.06694,43.14568],[13.06714,43.14575],[13.06699,43.14613],[13.06675,43.14643],[13.06638,43.14667],[13.06604,43.14678],[13.06592,43.14664]]},"properties":{}},{"type":"Feature","geometry":{"type":"LineString","coordinates":[[13.06592,43.14664],[13.06633,43.14648],[13.06664,43.14627],[13.0668,43.14606],[13.06694,43.14568]]},"properties":{}},{"type":"Feature","geometry":{"type":"LineString","coordinates":[[13.06606,43.14442],[13.066,43.14425]]},"properties":{}},{"type":"Feature","geometry":{"type":"LineString","coordinates":[[13.066,43.14425],[13.066,43.14418],[13.06622,43.14408]]},"properties":{}},{"type":"Feature","geometry":{"type":"LineString","coordinates":[[13.06622,43.14408],[13.06606,43.14442]]},"properties":{}},{"type":"Feature","geometry":{"type":"LineString","coordinates":[[13.06744,43.14277],[13.06715,43.14309],[13.06663,43.14349],[13.06638,43.14379],[13.06622,43.14408]]},"properties":{}},{"type":"Feature","geometry":{"type":"LineString","coordinates":[[13.06637,43.12876],[13.06687,43.12898],[13.06768,43.12915]]},"properties":{}},{"type":"Feature","geometry":{"type":"LineString","coordinates":[[13.06637,43.12876],[13.06647,43.12953],[13.06718,43.13017],[13.06735,43.12998],[13.06753,43.12967],[13.0676,43.12951],[13.06768,43.12915]]},"properties":{}},{"type":"Feature","geometry":{"type":"LineString","coordinates":[[13.06694,43.14568],[13.06703,43.14541],[13.06715,43.1452],[13.06727,43.14511],[13.06744,43.14502],[13.06778,43.14496],[13.06816,43.14499],[13.06844,43.14497],[13.06899,43.14477],[13.06941,43.14467],[13.07005,43.14468],[13.07027,43.14465],[13.07037,43.14461],[13.07048,43.14451],[13.07052,43.14441],[13.07049,43.14425]]},"properties":{}},{"type":"Feature","geometry":{"type":"LineString","coordinates":[[13.06863,43.12841],[13.06697,43.12727]]},"properties":{}},{"type":"Feature","geometry":{"type":"LineString","coordinates":[[13.06697,43.12727],[13.06747,43.12677],[13.06785,43.12645],[13.06794,43.12647],[13.06854,43.12687],[13.06881,43.12709],[13.0694,43.12645],[13.07012,43.12681],[13.07029,43.12695],[13.07033,43.1271],[13.0703,43.1273],[13.0699,43.128],[13.06934,43.12812],[13.06893,43.12826],[13.06863,43.12841]]},"properties":{}},{"type":"Feature","geometry":{"type":"LineString","coordinates":[[13.06726,43.13325],[13.06718,43.13324],[13.06715,43.13316]]},"properties":{}},{"type":"Feature","geometry":{"type":"LineString","coordinates":[[13.06715,43.13316],[13.06724,43.13312]]},"properties":{}},{"type":"Feature","geometry":{"type":"LineString","coordinates":[[13.06724,43.13312],[13.06732,43.13318],[13.06726,43.13325]]},"properties":{}},{"type":"Feature","geometry":{"type":"LineString","coordinates":[[13.06726,43.13325],[13.06796,43.13372],[13.06867,43.13411],[13.06904,43.1344],[13.06945,43.13494],[13.07022,43.13582],[13.07081,43.13643],[13.07125,43.13683],[13.07145,43.13695],[13.07173,43.13705],[13.07298,43.13745],[13.0731,43.13756],[13.07315,43.13771]]},"properties":{}},{"type":"Feature","geometry":{"type":"LineString","coordinates":[[13.06744,43.14277],[13.06755,43.14255],[13.06765,43.14249]]},"properties":{}},{"type":"Feature","geometry":{"type":"LineString","coordinates":[[13.06779,43.14262],[13.06774,43.14267],[13.06764,43.14268],[13.06744,43.14277]]},"properties":{}},{"type":"Feature","geometry":{"type":"LineString","coordinates":[[13.06765,43.14249],[13.06781,43.14238]]},"properties":{}},{"type":"Feature","geometry":{"type":"LineString","coordinates":[[13.06765,43.14249],[13.06778,43.14254]]},"properties":{}},{"type":"Feature","geometry":{"type":"LineString","coordinates":[[13.06863,43.12841],[13.06797,43.12877],[13.06777,43.12897],[13.06768,43.12915]]},"properties":{}},{"type":"Feature","geometry":{"type":"LineString","coordinates":[[13.06778,43.14254],[13.06779,43.14262]]},"properties":{}},{"type":"Feature","geometry":{"type":"LineString","coordinates":[[13.06781,43.14238],[13.06778,43.14254]]},"properties":{}},{"type":"Feature","geometry":{"type":"LineString","coordinates":[[13.06779,43.14262],[13.06783,43.14278],[13.06797,43.14295],[13.06802,43.143],[13.06823,43.14306]]},"properties":{}},{"type":"Feature","geometry":{"type":"LineString","coordinates":[[13.06804,43.14211],[13.06781,43.14238]]},"properties":{}},{"type":"Feature","geometry":{"type":"LineString","coordinates":[[13.06804,43.14211],[13.06725,43.14166],[13.06711,43.14148],[13.06689,43.14128],[13.06695,43.14124],[13.06796,43.14167],[13.0683,43.14174]]},"properties":{}},{"type":"Feature","geometry":{"type":"LineString","coordinates":[[13.0683,43.14174],[13.06804,43.14211]]},"properties":{}},{"type":"Feature","geometry":{"type":"LineString","coordinates":[[13.06809,43.13671],[13.06807,43.13674],[13.06809,43.1368],[13.06851,43.13722],[13.06852,43.13731],[13.06843,43.1374]]},"properties":{}},{"type":"Feature","geometry":{"type":"LineString","coordinates":[[13.06969,43.13738],[13.06963,43.13744],[13.06949,43.13746],[13.06926,43.13745],[13.06914,43.13741],[13.06846,43.13685],[13.06824,43.13671],[13.06809,43.13671]]},"properties":{}},{"type":"Feature","geometry":{"type":"LineString","coordinates":[[13.06848,43.14369],[13.0683,43.14341],[13.06818,43.14334],[13.06813,43.14326],[13.06814,43.14316],[13.06823,43.14306]]},"properties":{}},{"type":"Feature","geometry":{"type":"LineString","coordinates":[[13.06823,43.14306],[13.06836,43.14302],[13.0685,43.14303],[13.06861,43.14308],[13.06867,43.14315]]},"properties":{}},{"type":"Feature","geometry":{"type":"LineString","coordinates":[[13.0683,43.14174],[13.06843,43.14152],[13.06972,43.14004]]},"properties":{}},{"type":"Feature","geometry":{"type":"LineString","coordinates":[[13.06838,43.1357],[13.06892,43.13613],[13.06912,43.13632]]},"properties":{}},{"type":"Feature","geometry":{"type":"LineString","coordinates":[[13.06838,43.1357],[13.06814,43.13587],[13.068,43.13583],[13.06824,43.13564],[13.06834,43.13561],[13.06838,43.1357]]},"properties":{}},{"type":"Feature","geometry":{"type":"LineString","coordinates":[[13.06843,43.1374],[13.06843,43.13749],[13.06885,43.13792],[13.06901,43.138],[13.06941,43.13811],[13.06953,43.13819],[13.06959,43.13827],[13.06999,43.13945],[13.07011,43.13957],[13.06972,43.14004]]},"properties":{}},{"type":"Feature","geometry":{"type":"LineString","coordinates":[[13.07049,43.14425],[13.07035,43.14413],[13.07,43.14401],[13.06958,43.14398],[13.06906,43.14403],[13.06884,43.14401],[13.06864,43.14391],[13.06855,43.14382],[13.06848,43.14369]]},"properties":{}},{"type":"Feature","geometry":{"type":"LineString","coordinates":[[13.06866,43.14332],[13.06853,43.14344],[13.06848,43.14369]]},"properties":{}},{"type":"Feature","geometry":{"type":"LineString","coordinates":[[13.06867,43.14315],[13.06869,43.14322],[13.06866,43.14332]]},"properties":{}},{"type":"Feature","geometry":{"type":"LineString","coordinates":[[13.06897,43.14323],[13.06866,43.14332]]},"properties":{}},{"type":"Feature","geometry":{"type":"LineString","coordinates":[[13.06867,43.14315],[13.06897,43.14323]]},"properties":{}},{"type":"Feature","geometry":{"type":"LineString","coordinates":[[13.06897,43.14323],[13.0706,43.14313],[13.0717,43.14331],[13.07333,43.14341]]},"properties":{}},{"type":"Feature","geometry":{"type":"LineString","coordinates":[[13.06912,43.13632],[13.06973,43.13674],[13.0701,43.13704],[13.0701,43.13709],[13.07004,43.13714],[13.06968,43.13728],[13.06969,43.13738]]},"properties":{}},{"type":"Feature","geometry":{"type":"LineString","coordinates":[[13.06969,43.13738],[13.06936,43.13738],[13.06915,43.1373],[13.06899,43.13715],[13.0688,43.13683],[13.06877,43.13674],[13.0688,43.13666],[13.06912,43.13632]]},"properties":{}},{"type":"Feature","geometry":{"type":"LineString","coordinates":[[13.07317,43.13778],[13.07239,43.13777],[13.07129,43.13764],[13.07115,43.13758],[13.0708,43.13733],[13.07063,43.13727],[13.06969,43.13738]]},"properties":{}},{"type":"Feature","geometry":{"type":"LineString","coordinates":[[13.06972,43.14004],[13.0703,43.14042],[13.07066,43.14057],[13.07094,43.1406],[13.07148,43.14051],[13.07195,43.1402],[13.07223,43.13995],[13.07234,43.13989],[13.07248,43.13988],[13.07272,43.13991]]},"properties":{}},{"type":"Feature","geometry":{"type":"LineString","coordinates":[[13.07333,43.14341],[13.07349,43.14517],[13.07253,43.14537],[13.07141,43.14548],[13.07116,43.14421],[13.07049,43.14425]]},"properties":{}},{"type":"Feature","geometry":{"type":"LineString","coordinates":[[13.07272,43.13991],[13.07285,43.13995],[13.07292,43.14002],[13.0736,43.14099],[13.07369,43.14105],[13.07381,43.14104],[13.07285,43.13962],[13.07277,43.13976],[13.07272,43.13991]]},"properties":{}},{"type":"Feature","geometry":{"type":"LineString","coordinates":[[13.07317,43.13778],[13.07315,43.13771]]},"properties":{}},{"type":"Feature","geometry":{"type":"LineString","coordinates":[[13.07315,43.13771],[13.07379,43.13749],[13.07401,43.13737],[13.07429,43.13738],[13.07442,43.13744],[13.07447,43.1375],[13.07452,43.13764],[13.07449,43.13772],[13.07385,43.13825],[13.07378,43.13834],[13.07377,43.13852],[13.07399,43.13902],[13.07453,43.13944],[13.07468,43.13961],[13.07486,43.1403],[13.07507,43.14071]]},"properties":{}},{"type":"Feature","geometry":{"type":"LineString","coordinates":[[13.07507,43.14071],[13.07493,43.14057],[13.0743,43.13966],[13.07323,43.13877],[13.07317,43.13861],[13.07321,43.13795],[13.07317,43.13778]]},"properties":{}},{"type":"Feature","geometry":{"type":"LineString","coordinates":[[13.07333,43.14341],[13.07388,43.14348],[13.07407,43.14348],[13.07548,43.14313],[13.07752,43.14298],[13.07772,43.14289],[13.07781,43.14276]]},"properties":{}},{"type":"Feature","geometry":{"type":"LineString","coordinates":[[13.07507,43.14071],[13.07585,43.14167],[13.076,43.14181],[13.07621,43.14193],[13.07749,43.14236]]},"properties":{}},{"type":"Feature","geometry":{"type":"LineString","coordinates":[[13.07749,43.14236],[13.07787,43.14245]]},"properties":{}},{"type":"Feature","geometry":{"type":"LineString","coordinates":[[13.0778,43.14253],[13.07749,43.14236]]},"properties":{}},{"type":"Feature","geometry":{"type":"LineString","coordinates":[[13.0778,43.14254],[13.0778,43.14253]]},"properties":{}},{"type":"Feature","geometry":{"type":"LineString","coordinates":[[13.0778,43.14253],[13.07782,43.14247],[13.07787,43.14245]]},"properties":{}},{"type":"Feature","geometry":{"type":"LineString","coordinates":[[13.07792,43.14257],[13.07785,43.14257],[13.0778,43.14254]]},"properties":{}},{"type":"Feature","geometry":{"type":"LineString","coordinates":[[13.07781,43.14276],[13.0778,43.14254]]},"properties":{}},{"type":"Feature","geometry":{"type":"LineString","coordinates":[[13.07792,43.14257],[13.07781,43.14276]]},"properties":{}},{"type":"Feature","geometry":{"type":"LineString","coordinates":[[13.07787,43.14245],[13.07797,43.14249]]},"properties":{}},{"type":"Feature","geometry":{"type":"LineString","coordinates":[[13.07796,43.14256],[13.07792,43.14257]]},"properties":{}},{"type":"Feature","geometry":{"type":"LineString","coordinates":[[13.07813,43.14256],[13.07796,43.14256]]},"properties":{}},{"type":"Feature","geometry":{"type":"LineString","coordinates":[[13.07798,43.14249],[13.07796,43.14256]]},"properties":{}},{"type":"Feature","geometry":{"type":"LineString","coordinates":[[13.07797,43.14249],[13.07798,43.14249]]},"properties":{}},{"type":"Feature","geometry":{"type":"LineString","coordinates":[[13.07804,43.14237],[13.07797,43.14249]]},"properties":{}},{"type":"Feature","geometry":{"type":"LineString","coordinates":[[13.07798,43.14249],[13.07813,43.14256]]},"properties":{}},{"type":"Feature","geometry":{"type":"LineString","coordinates":[[13.07813,43.14256],[13.07946,43.1429]]},"properties":{}},{"type":"Feature","geometry":{"type":"LineString","coordinates":[[13.07946,43.1429],[13.08139,43.14331],[13.08177,43.14341],[13.0822,43.14369],[13.08303,43.1444],[13.08327,43.14453],[13.0834,43.14456],[13.08365,43.14457],[13.08395,43.14451],[13.08469,43.14422],[13.08592,43.14386],[13.08618,43.14388],[13.08683,43.14412]]},"properties":{}},{"type":"Feature","geometry":{"type":"LineString","coordinates":[[13.07946,43.1429],[13.07952,43.14278]]},"properties":{}},{"type":"Feature","geometry":{"type":"LineString","coordinates":[[13.08683,43.14412],[13.08717,43.14426],[13.08723,43.14434],[13.0872,43.1444],[13.08709,43.14445],[13.08696,43.1444],[13.08683,43.14412]]},"properties":{}},{"type":"Feature","geometry":{"type":"LineString","coordinates":[[13.13245,43.12046],[13.13314,43.12045],[13.13387,43.12031],[13.1342,43.12031],[13.13443,43.12041],[13.13465,43.12072],[13.13481,43.12109],[13.13482,43.12141],[13.13452,43.12238],[13.13439,43.12357]]},"properties":{}},{"type":"Feature","geometry":{"type":"LineString","coordinates":[[13.13439,43.12357],[13.13426,43.12341],[13.13347,43.12219],[13.13245,43.12046]]},"properties":{}},{"type":"Feature","geometry":{"type":"LineString","coordinates":[[13.16032,43.13773],[13.15793,43.13689],[13.15478,43.1357],[13.15395,43.13542],[13.15326,43.13525],[13.15249,43.13513],[13.14867,43.13486],[13.14773,43.13474],[13.14704,43.13458],[13.1463,43.13432],[13.14559,43.13401],[13.14443,43.13343],[13.14331,43.13277],[13.14295,43.1325],[13.14218,43.13183],[13.13988,43.12951],[13.1382,43.1277],[13.13741,43.1268],[13.13494,43.12418],[13.13439,43.12357]]},"properties":{}},{"type":"Feature","geometry":{"type":"LineString","coordinates":[[13.13439,43.12357],[13.13438,43.12394],[13.13455,43.12451],[13.1345,43.12462],[13.13437,43.12468],[13.13379,43.12465],[13.13348,43.1247],[13.13316,43.12481],[13.13294,43.12497],[13.13289,43.12504],[13.13288,43.12522],[13.13292,43.12534],[13.13355,43.12626],[13.13488,43.12739],[13.13518,43.12761],[13.13571,43.12777],[13.1362,43.12784],[13.1364,43.1279],[13.13657,43.12798],[13.13706,43.12847],[13.13718,43.12855],[13.13828,43.12893],[13.13912,43.12928],[13.13947,43.12946],[13.13962,43.12959],[13.13985,43.12991],[13.14026,43.13084],[13.14117,43.1317],[13.14182,43.13202],[13.14262,43.13276],[13.1433,43.13328],[13.14376,43.134],[13.14388,43.13415],[13.14416,43.13436],[13.14522,43.13491],[13.14619,43.13523],[13.14792,43.13593],[13.14854,43.13614],[13.14888,43.13623],[13.14924,43.13627],[13.14969,43.13628],[13.15026,43.13623],[13.15121,43.13603],[13.15222,43.13567],[13.15267,43.13558],[13.15354,43.13565],[13.15401,43.13565],[13.15438,43.1357],[13.15455,43.13578],[13.1546,43.13585],[13.15462,43.13592],[13.15457,43.13644],[13.15459,43.1366],[13.15474,43.13697],[13.15497,43.13725],[13.15522,43.13732],[13.15676,43.13751],[13.15721,43.13759],[13.15748,43.13774],[13.15778,43.13809],[13.15815,43.13842],[13.15839,43.13857],[13.15864,43.13866],[13.15913,43.13872],[13.15936,43.13869],[13.15976,43.13852],[13.15996,43.13837],[13.16017,43.13808],[13.16032,43.13773]]},"properties":{}},{"type":"Feature","geometry":{"type":"LineString","coordinates":[[13.16742,43.13791],[13.16661,43.13804],[13.1659,43.13812],[13.16241,43.13806],[13.1615,43.13797],[13.16074,43.13784],[13.16032,43.13773]]},"properties":{}},{"type":"Feature","geometry":{"type":"LineString","coordinates":[[13.16032,43.13773],[13.16053,43.13705],[13.16062,43.13697],[13.16082,43.13693],[13.16118,43.137],[13.16176,43.13742],[13.16204,43.13755],[13.1625,43.13764],[13.16364,43.1376],[13.16536,43.13782],[13.16564,43.13784],[13.16656,43.13779],[13.16742,43.13791]]},"properties":{}},{"type":"Feature","geometry":{"type":"LineString","coordinates":[[13.16742,43.13791],[13.16918,43.13815],[13.17132,43.13857],[13.17179,43.13861],[13.17323,43.13859],[13.17481,43.13866],[13.17522,43.13876],[13.17591,43.13914],[13.17725,43.13958],[13.17855,43.14035],[13.17905,43.14051],[13.18184,43.141],[13.18308,43.14129],[13.18435,43.14167],[13.18567,43.14222],[13.18645,43.1426],[13.18828,43.14368],[13.18862,43.14385],[13.18932,43.14413],[13.19044,43.14438],[13.19441,43.14493],[13.19677,43.1453],[13.19729,43.14545],[13.19748,43.14554],[13.19788,43.1458],[13.1981,43.146],[13.19829,43.14609],[13.1985,43.14608],[13.19864,43.14597]]},"properties":{}},{"type":"Feature","geometry":{"type":"LineString","coordinates":[[13.19864,43.14597],[13.19755,43.14545],[13.19685,43.14521],[13.19041,43.14427],[13.18947,43.14405],[13.18873,43.14377],[13.1882,43.14351],[13.18628,43.14238],[13.18536,43.14194],[13.18446,43.14159],[13.18381,43.14138],[13.18079,43.14059],[13.1801,43.14037],[13.17945,43.1401],[13.17709,43.13891],[13.17642,43.13864],[13.17583,43.13845],[13.17462,43.13819],[13.17036,43.13766],[13.16927,43.13765],[13.1686,43.13772],[13.16742,43.13791]]},"properties":{}},{"type":"Feature","geometry":{"type":"LineString","coordinates":[[13.21961,43.15139],[13.21892,43.15138],[13.21765,43.15123],[13.21528,43.15081],[13.21402,43.15054],[13.21365,43.15043],[13.21302,43.15015],[13.21244,43.1498],[13.2113,43.14901],[13.21081,43.14877],[13.21022,43.14855],[13.2033,43.14707],[13.20258,43.14698],[13.20131,43.14695],[13.20077,43.14686],[13.2005,43.14679],[13.19989,43.14655],[13.19864,43.14597]]},"properties":{}},{"type":"Feature","geometry":{"type":"LineString","coordinates":[[13.19864,43.14597],[13.19886,43.14578],[13.19908,43.14574],[13.19944,43.14594],[13.19996,43.14635],[13.20016,43.14645],[13.20076,43.14668],[13.20155,43.14679],[13.20334,43.14684],[13.20419,43.14689],[13.20473,43.14688],[13.20497,43.14685],[13.20534,43.14673],[13.20616,43.14633],[13.2066,43.14625],[13.20704,43.14627],[13.20723,43.1463],[13.20813,43.14662]]},"properties":{}},{"type":"Feature","geometry":{"type":"LineString","coordinates":[[13.20813,43.14662],[13.21037,43.14746],[13.21072,43.14764],[13.21099,43.14779],[13.21152,43.14818],[13.21221,43.14881],[13.21332,43.14945],[13.2135,43.14952],[13.21862,43.15046],[13.21889,43.15057],[13.21917,43.15075],[13.2193,43.15089],[13.21961,43.15139]]},"properties":{}},{"type":"Feature","geometry":{"type":"LineString","coordinates":[[13.20813,43.14662],[13.20822,43.14644],[13.20823,43.14632],[13.2082,43.14621],[13.20775,43.14573],[13.20682,43.14461],[13.2068,43.14442],[13.20786,43.14289],[13.20795,43.14255],[13.20814,43.1414],[13.20821,43.14122],[13.20841,43.14109],[13.20952,43.14106],[13.21152,43.14091],[13.21186,43.14092],[13.21204,43.14098],[13.21229,43.14114],[13.21438,43.1429],[13.21456,43.14301],[13.21477,43.14306],[13.22276,43.1419],[13.22297,43.14185],[13.22322,43.14174]]},"properties":{}},{"type":"Feature","geometry":{"type":"LineString","coordinates":[[13.21961,43.15139],[13.21983,43.15178],[13.22,43.15234],[13.22005,43.15247],[13.22014,43.15259],[13.22106,43.15332],[13.22191,43.15403],[13.22228,43.15427],[13.22273,43.15444],[13.22295,43.15448],[13.22328,43.1545],[13.22437,43.15446],[13.22488,43.15455],[13.22527,43.15472],[13.22618,43.15528],[13.22734,43.15604],[13.22869,43.15655],[13.22981,43.15705],[13.23143,43.15747],[13.23297,43.15836],[13.2358,43.15965],[13.23858,43.16011],[13.23906,43.16025],[13.23936,43.16041],[13.23955,43.16058],[13.23972,43.1608],[13.24031,43.16185],[13.24064,43.16231],[13.24092,43.16252],[13.2419,43.16305],[13.24206,43.16319],[13.24213,43.16337],[13.24205,43.16387],[13.24205,43.16402],[13.24235,43.16518],[13.24244,43.16546],[13.24261,43.16583],[13.24304,43.16645],[13.24338,43.16679],[13.24378,43.16709],[13.24455,43.16752],[13.24493,43.16778],[13.24508,43.16797],[13.24541,43.16871],[13.24559,43.16897],[13.24575,43.16911],[13.24616,43.16934],[13.24732,43.16981]]},"properties":{}},{"type":"Feature","geometry":{"type":"LineString","coordinates":[[13.22457,43.15063],[13.22291,43.15103],[13.2216,43.15127],[13.22028,43.15139],[13.21961,43.15139]]},"properties":{}},{"type":"Feature","geometry":{"type":"LineString","coordinates":[[13.22344,43.14151],[13.22481,43.13988],[13.22445,43.13972],[13.22383,43.13955],[13.22293,43.13956],[13.22322,43.14174]]},"properties":{}},{"type":"Feature","geometry":{"type":"LineString","coordinates":[[13.22322,43.14174],[13.22344,43.14151]]},"properties":{}},{"type":"Feature","geometry":{"type":"LineString","coordinates":[[13.22344,43.14151],[13.22342,43.14172],[13.22338,43.14181],[13.2233,43.14194],[13.22321,43.14197],[13.2235,43.1437],[13.22381,43.14595],[13.22383,43.14599],[13.224,43.14601],[13.22406,43.1461],[13.22402,43.14617],[13.22386,43.14622],[13.22386,43.14627],[13.22402,43.14751],[13.22412,43.14782],[13.2244,43.14818],[13.22472,43.14841],[13.22493,43.14852],[13.2265,43.14888],[13.22668,43.14895],[13.22682,43.14905],[13.22692,43.14915],[13.22699,43.14944],[13.22682,43.15051]]},"properties":{}},{"type":"Feature","geometry":{"type":"LineString","coordinates":[[13.22682,43.15051],[13.22614,43.15048],[13.2256,43.15049],[13.22512,43.15054],[13.22457,43.15063]]},"properties":{}},{"type":"Feature","geometry":{"type":"LineString","coordinates":[[13.22457,43.15063],[13.22552,43.15056],[13.22579,43.15062],[13.2262,43.15083],[13.2264,43.15088],[13.22653,43.15087],[13.2267,43.1508],[13.22679,43.15067],[13.22682,43.15051]]},"properties":{}},{"type":"Feature","geometry":{"type":"LineString","coordinates":[[13.24732,43.16981],[13.24706,43.16891],[13.24695,43.16834],[13.24648,43.16448],[13.24621,43.16301],[13.24594,43.16226],[13.24572,43.16188],[13.24528,43.16134],[13.24473,43.16086],[13.24377,43.16019],[13.23046,43.15177],[13.2294,43.15119],[13.22876,43.15091],[13.22775,43.15063],[13.22682,43.15051]]},"properties":{}},{"type":"Feature","geometry":{"type":"LineString","coordinates":[[13.24732,43.16981],[13.24782,43.17002],[13.24818,43.17027],[13.24833,43.17045],[13.24861,43.1711],[13.2488,43.17132],[13.24913,43.17153],[13.24987,43.17189],[13.25015,43.17209],[13.25052,43.17286],[13.25086,43.17383],[13.25128,43.1746],[13.25168,43.17512],[13.25181,43.1754],[13.25182,43.1756],[13.25172,43.17638],[13.25177,43.17663],[13.25208,43.17729],[13.25223,43.17783],[13.25239,43.17805],[13.25275,43.17844],[13.25284,43.17864],[13.25285,43.17882],[13.25278,43.17939],[13.25279,43.17974],[13.25288,43.18005],[13.25326,43.18096],[13.2537,43.18187],[13.25415,43.18261],[13.25445,43.18301]]},"properties":{}},{"type":"Feature","geometry":{"type":"LineString","coordinates":[[13.26746,43.19225],[13.2673,43.19213],[13.26705,43.19205],[13.26645,43.1921],[13.26606,43.19221],[13.26391,43.19345],[13.26368,43.19348],[13.26354,43.19346],[13.26333,43.19335],[13.26323,43.1932],[13.26322,43.19309],[13.26325,43.193],[13.2635,43.19276],[13.26356,43.19261],[13.26353,43.19248],[13.26346,43.19237],[13.26263,43.19161],[13.26207,43.19103],[13.25252,43.18248],[13.25155,43.18149],[13.25117,43.18102],[13.25072,43.18037],[13.2502,43.17942],[13.24997,43.17887],[13.24732,43.16981]]},"properties":{}},{"type":"Feature","geometry":{"type":"LineString","coordinates":[[13.25445,43.18301],[13.25464,43.18308],[13.25499,43.18312],[13.25506,43.18318],[13.25508,43.18327],[13.25527,43.18338]]},"properties":{}},{"type":"Feature","geometry":{"type":"LineString","coordinates":[[13.25527,43.18338],[13.2551,43.18337],[13.25489,43.18342],[13.25475,43.18341],[13.25465,43.18335],[13.25462,43.18322],[13.25445,43.18301]]},"properties":{}},{"type":"Feature","geometry":{"type":"LineString","coordinates":[[13.25527,43.18338],[13.25721,43.18389],[13.25786,43.18399],[13.25887,43.18408],[13.25949,43.1843],[13.26246,43.18632],[13.26353,43.1869],[13.26389,43.18705],[13.26449,43.18715],[13.26482,43.18726],[13.26499,43.18745],[13.26642,43.18963],[13.26704,43.19042],[13.26715,43.19061],[13.26733,43.19143],[13.26746,43.19225]]},"properties":{}},{"type":"Feature","geometry":{"type":"LineString","coordinates":[[13.26746,43.19225],[13.26749,43.19255],[13.26735,43.19279],[13.26705,43.19311],[13.26689,43.19337],[13.26685,43.19351],[13.26685,43.19382],[13.26703,43.19427],[13.26722,43.19452],[13.26744,43.1947],[13.26811,43.19494],[13.26853,43.19518],[13.26881,43.19543],[13.26901,43.19577],[13.26907,43.19603],[13.26919,43.19721],[13.26956,43.19949],[13.26964,43.19978],[13.26985,43.20014],[13.27031,43.20052],[13.27078,43.20098],[13.27128,43.20169],[13.27176,43.20221],[13.27238,43.20265],[13.27296,43.20291],[13.27334,43.20313],[13.27563,43.20501],[13.27598,43.20534],[13.27687,43.20629],[13.27756,43.20709],[13.27899,43.20889],[13.27922,43.20908],[13.27953,43.20922]]},"properties":{}},{"type":"Feature","geometry":{"type":"LineString","coordinates":[[13.27953,43.20922],[13.27979,43.20922],[13.27998,43.2093]]},"properties":{}},{"type":"Feature","geometry":{"type":"LineString","coordinates":[[13.27998,43.2093],[13.27973,43.20935],[13.27953,43.20922]]},"properties":{}},{"type":"Feature","geometry":{"type":"LineString","coordinates":[[13.28161,43.209],[13.28112,43.20931],[13.28092,43.20937],[13.27998,43.2093]]},"properties":{}},{"type":"Feature","geometry":{"type":"LineString","coordinates":[[13.28161,43.209],[13.28167,43.20891],[13.28245,43.20843],[13.28365,43.20737],[13.28394,43.20719],[13.28441,43.20696],[13.28465,43.20686],[13.28544,43.20673],[13.28575,43.20674],[13.28585,43.20677],[13.28601,43.20686]]},"properties":{}},{"type":"Feature","geometry":{"type":"LineString","coordinates":[[13.2885,43.20964],[13.28802,43.20938],[13.28653,43.20916],[13.28567,43.20897],[13.28508,43.20881],[13.2842,43.20847],[13.28345,43.2083],[13.28322,43.20832],[13.28304,43.20838],[13.28161,43.209]]},"properties":{}},{"type":"Feature","geometry":{"type":"LineString","coordinates":[[13.28601,43.20686],[13.28644,43.20709],[13.28733,43.20779],[13.28744,43.20799],[13.28746,43.20843],[13.2878,43.2089],[13.28784,43.20902]]},"properties":{}},{"type":"Feature","geometry":{"type":"LineString","coordinates":[[13.2892,43.20958],[13.28926,43.20936],[13.28925,43.20919],[13.28676,43.20687],[13.2865,43.2067],[13.28621,43.20664],[13.28601,43.2067],[13.28599,43.20675],[13.28601,43.20686]]},"properties":{}},{"type":"Feature","geometry":{"type":"LineString","coordinates":[[13.28784,43.20902],[13.2892,43.20958]]},"properties":{}},{"type":"Feature","geometry":{"type":"LineString","coordinates":[[13.28784,43.20902],[13.28789,43.20912],[13.28856,43.20952],[13.28857,43.20957],[13.2885,43.20964]]},"properties":{}},{"type":"Feature","geometry":{"type":"LineString","coordinates":[[13.29332,43.21039],[13.29324,43.21036],[13.29305,43.21036],[13.29098,43.21063],[13.29037,43.21061],[13.29005,43.21054],[13.28984,43.21045],[13.2885,43.20964]]},"properties":{}},{"type":"Feature","geometry":{"type":"LineString","coordinates":[[13.2892,43.20958],[13.29037,43.20995],[13.29211,43.21028],[13.29241,43.21029],[13.29308,43.21023],[13.29319,43.21026]]},"properties":{}},{"type":"Feature","geometry":{"type":"LineString","coordinates":[[13.29319,43.21026],[13.29339,43.21031],[13.29378,43.21028]]},"properties":{}},{"type":"Feature","geometry":{"type":"LineString","coordinates":[[13.29332,43.21039],[13.29333,43.21037],[13.29319,43.21026]]},"properties":{}},{"type":"Feature","geometry":{"type":"LineString","coordinates":[[13.29378,43.21028],[13.29358,43.21036],[13.29347,43.21046],[13.29337,43.21045],[13.29332,43.21039]]},"properties":{}},{"type":"Feature","geometry":{"type":"LineString","coordinates":[[13.30553,43.21378],[13.30532,43.21362],[13.30502,43.2135],[13.30458,43.21338],[13.30278,43.21303],[13.3022,43.21298],[13.30081,43.21299],[13.30038,43.21291],[13.29994,43.21276],[13.29669,43.21106],[13.29538,43.21047],[13.2948,43.21032],[13.29417,43.21027],[13.29378,43.21028]]},"properties":{}},{"type":"Feature","geometry":{"type":"LineString","coordinates":[[13.30553,43.21378],[13.30578,43.21388],[13.30597,43.2139],[13.30605,43.21397]]},"properties":{}},{"type":"Feature","geometry":{"type":"LineString","coordinates":[[13.30596,43.21417],[13.3058,43.21419],[13.30569,43.21415],[13.30563,43.21408],[13.30565,43.21395],[13.30553,43.21378]]},"properties":{}},{"type":"Feature","geometry":{"type":"LineString","coordinates":[[13.30629,43.21428],[13.30596,43.21417]]},"properties":{}},{"type":"Feature","geometry":{"type":"LineString","coordinates":[[13.30606,43.21404],[13.30602,43.21414],[13.30596,43.21417]]},"properties":{}},{"type":"Feature","geometry":{"type":"LineString","coordinates":[[13.30605,43.21397],[13.30606,43.21404]]},"properties":{}},{"type":"Feature","geometry":{"type":"LineString","coordinates":[[13.48855,43.26599],[13.47589,43.26265],[13.47423,43.26217],[13.47243,43.26146],[13.46987,43.26027],[13.46867,43.25975],[13.4676,43.25936],[13.4666,43.25905],[13.46542,43.25874],[13.45206,43.25582],[13.4501,43.25531],[13.4482,43.25473],[13.44669,43.25418],[13.4453,43.25364],[13.43941,43.25107],[13.43307,43.24835],[13.4317,43.24785],[13.42984,43.24724],[13.42163,43.24486],[13.41904,43.24399],[13.41715,43.24323],[13.40815,43.23921],[13.40654,43.23862],[13.40516,43.23823],[13.40357,43.23788],[13.40233,43.23769],[13.37198,43.23427],[13.35667,43.2328],[13.35492,43.23256],[13.35407,43.23236],[13.3535,43.23219],[13.34824,43.23021],[13.34719,43.22976],[13.3464,43.22941],[13.34532,43.22885],[13.34438,43.22824],[13.34363,43.2276],[13.34303,43.22697],[13.33517,43.21752],[13.33462,43.21702],[13.33414,43.21668],[13.33375,43.21646],[13.33308,43.21616],[13.33244,43.21593],[13.33171,43.21574],[13.33053,43.2156],[13.32609,43.21558],[13.32557,43.21556],[13.3247,43.21544],[13.31439,43.21343],[13.31307,43.21306],[13.31236,43.21281],[13.31103,43.21227],[13.31004,43.21177],[13.30983,43.2117],[13.30961,43.21172],[13.30929,43.21191],[13.30904,43.21199],[13.30883,43.21197],[13.30845,43.21187],[13.30826,43.21189],[13.30801,43.21197],[13.30605,43.21397]]},"properties":{}},{"type":"Feature","geometry":{"type":"LineString","coordinates":[[13.30606,43.21404],[13.30629,43.21428]]},"properties":{}},{"type":"Feature","geometry":{"type":"LineString","coordinates":[[13.30862,43.2155],[13.30708,43.21476],[13.30629,43.21428]]},"properties":{}},{"type":"Feature","geometry":{"type":"LineString","coordinates":[[13.30862,43.2155],[13.30903,43.21559],[13.30923,43.21577],[13.30952,43.21594]]},"properties":{}},{"type":"Feature","geometry":{"type":"LineString","coordinates":[[13.30952,43.21594],[13.30925,43.21585],[13.30886,43.21579],[13.30881,43.21574],[13.3088,43.21568],[13.30862,43.2155]]},"properties":{}},{"type":"Feature","geometry":{"type":"LineString","coordinates":[[13.31079,43.21688],[13.31015,43.21631],[13.30988,43.21612],[13.30952,43.21594]]},"properties":{}},{"type":"Feature","geometry":{"type":"LineString","coordinates":[[13.31079,43.21688],[13.31102,43.21704],[13.31136,43.21719],[13.31139,43.21726],[13.31139,43.21745],[13.31171,43.21785]]},"properties":{}},{"type":"Feature","geometry":{"type":"LineString","coordinates":[[13.31171,43.21785],[13.31135,43.21751],[13.311,43.21737],[13.31096,43.21728],[13.31099,43.2172],[13.31079,43.21688]]},"properties":{}},{"type":"Feature","geometry":{"type":"LineString","coordinates":[[13.39948,43.25046],[13.39839,43.25037],[13.39771,43.25027],[13.3957,43.24967],[13.39481,43.24944],[13.38539,43.24608],[13.36934,43.24029],[13.3498,43.23093],[13.34925,43.23069],[13.34749,43.23003],[13.34593,43.22933],[13.34467,43.22862],[13.34189,43.22677],[13.3378,43.2247],[13.33729,43.22452],[13.33633,43.22441],[13.3359,43.22429],[13.33443,43.22356],[13.33281,43.22286],[13.33193,43.22239],[13.33096,43.22199],[13.33011,43.22167],[13.3297,43.22156],[13.32893,43.22141],[13.32459,43.2209],[13.3234,43.22082],[13.32186,43.22078],[13.3213,43.22073],[13.31406,43.21949],[13.31345,43.21931],[13.31311,43.21916],[13.31295,43.21905],[13.31263,43.21879],[13.31171,43.21785]]},"properties":{}},{"type":"Feature","geometry":{"type":"LineString","coordinates":[[13.40082,43.25049],[13.40051,43.25055],[13.40019,43.25067],[13.40005,43.25068],[13.39992,43.25062],[13.39986,43.25054],[13.39948,43.25046]]},"properties":{}},{"type":"Feature","geometry":{"type":"LineString","coordinates":[[13.39948,43.25046],[13.39988,43.25041],[13.40002,43.25033],[13.40012,43.25032],[13.40082,43.25049]]},"properties":{}},{"type":"Feature","geometry":{"type":"LineString","coordinates":[[13.40082,43.25049],[13.40202,43.25055],[13.40228,43.25058],[13.40267,43.25068],[13.41409,43.25549]]},"properties":{}},{"type":"Feature","geometry":{"type":"LineString","coordinates":[[13.41409,43.25549],[13.41425,43.25549],[13.41439,43.25544],[13.41565,43.25397],[13.41577,43.25392],[13.41591,43.25395],[13.41745,43.25466],[13.41751,43.25474],[13.41751,43.25481],[13.41632,43.25636],[13.41635,43.25644]]},"properties":{}},{"type":"Feature","geometry":{"type":"LineString","coordinates":[[13.41635,43.25644],[13.41409,43.25549]]},"properties":{}},{"type":"Feature","geometry":{"type":"LineString","coordinates":[[13.42268,43.2598],[13.42248,43.25943],[13.42233,43.25928],[13.42132,43.25853],[13.41635,43.25644]]},"properties":{}},{"type":"Feature","geometry":{"type":"LineString","coordinates":[[13.41687,43.29198],[13.41668,43.29194]]},"properties":{}},{"type":"Feature","geometry":{"type":"LineString","coordinates":[[13.41668,43.2918],[13.41958,43.29289],[13.42192,43.29424],[13.42206,43.29428],[13.42456,43.29569],[13.42616,43.29639],[13.42743,43.29719],[13.4281,43.2975],[13.42928,43.29777],[13.43348,43.29855],[13.43608,43.29928]]},"properties":{}},{"type":"Feature","geometry":{"type":"LineString","coordinates":[[13.42268,43.2598],[13.42285,43.25993],[13.42313,43.25999],[13.42322,43.26011],[13.42318,43.2602],[13.42301,43.26027],[13.42278,43.26045]]},"properties":{}},{"type":"Feature","geometry":{"type":"LineString","coordinates":[[13.42278,43.26045],[13.42285,43.2603],[13.42285,43.26021],[13.42268,43.2598]]},"properties":{}},{"type":"Feature","geometry":{"type":"LineString","coordinates":[[13.42278,43.26045],[13.42269,43.26055],[13.42191,43.26121],[13.42177,43.26138],[13.42168,43.26157],[13.42154,43.26205],[13.42082,43.26353],[13.42078,43.26373],[13.4208,43.2639],[13.42087,43.26406],[13.42122,43.26455],[13.42367,43.26794],[13.4271,43.27258],[13.42742,43.27285],[13.42809,43.27329],[13.43001,43.27444],[13.43115,43.27509],[13.43144,43.27535],[13.43152,43.27559],[13.43147,43.27601],[13.43129,43.27658],[13.43093,43.27746],[13.43085,43.27788],[13.43093,43.2781],[13.43116,43.27836],[13.43139,43.27853],[13.43211,43.27895],[13.43221,43.27908],[13.4323,43.27928],[13.43232,43.27948],[13.4323,43.27991],[13.43211,43.28061],[13.43206,43.28101],[13.43213,43.28125],[13.43221,43.28137],[13.43269,43.28184],[13.43286,43.28245],[13.43287,43.28282],[13.4327,43.28357]]},"properties":{}},{"type":"Feature","geometry":{"type":"LineString","coordinates":[[13.42974,43.29787],[13.42979,43.29788]]},"properties":{}},{"type":"Feature","geometry":{"type":"LineString","coordinates":[[13.42976,43.29783],[13.42981,43.29784]]},"properties":{}},{"type":"Feature","geometry":{"type":"LineString","coordinates":[[13.43471,43.28772],[13.43451,43.28733],[13.43435,43.28712],[13.43391,43.2867],[13.43376,43.28661],[13.43299,43.2863],[13.43268,43.28606],[13.43254,43.28584],[13.43241,43.28553],[13.43237,43.2852],[13.43241,43.28497],[13.43257,43.28446]]},"properties":{}},{"type":"Feature","geometry":{"type":"LineString","coordinates":[[13.43257,43.28446],[13.43252,43.28416],[13.43241,43.28387],[13.43246,43.2838],[13.43259,43.28376],[13.4327,43.28357]]},"properties":{}},{"type":"Feature","geometry":{"type":"LineString","coordinates":[[13.4327,43.28357],[13.43271,43.28375],[13.43277,43.28387],[13.43272,43.28401],[13.43277,43.28402],[13.43276,43.28409],[13.43273,43.28423],[13.43266,43.28424],[13.43257,43.28446]]},"properties":{}},{"type":"Feature","geometry":{"type":"LineString","coordinates":[[13.43471,43.28772],[13.43493,43.28804],[13.43518,43.28821],[13.4352,43.28828],[13.43517,43.28837],[13.43531,43.28873],[13.43528,43.28877]]},"properties":{}},{"type":"Feature","geometry":{"type":"LineString","coordinates":[[13.43528,43.28877],[13.43524,43.28875],[13.43501,43.28845],[13.43483,43.28843],[13.43473,43.28834],[13.43473,43.28823],[13.43482,43.28814],[13.43471,43.28772]]},"properties":{}},{"type":"Feature","geometry":{"type":"LineString","coordinates":[[13.43528,43.28877],[13.43638,43.29087]]},"properties":{}},{"type":"Feature","geometry":{"type":"LineString","coordinates":[[13.43582,43.29918],[13.43589,43.2992]]},"properties":{}},{"type":"Feature","geometry":{"type":"LineString","coordinates":[[13.43929,43.30068],[13.43685,43.29948],[13.43608,43.29928]]},"properties":{}},{"type":"Feature","geometry":{"type":"LineString","coordinates":[[13.43608,43.29928],[13.43636,43.29927],[13.43648,43.29919],[13.43664,43.29898],[13.43681,43.29854],[13.43678,43.29842],[13.43662,43.29815],[13.43661,43.29795],[13.43667,43.29761],[13.43655,43.29738],[13.43636,43.29652],[13.43636,43.29638],[13.43646,43.29634],[13.43655,43.29639],[13.43796,43.29907],[13.43813,43.29934],[13.4393,43.30061],[13.43929,43.30068]]},"properties":{}},{"type":"Feature","geometry":{"type":"LineString","coordinates":[[13.43638,43.29087],[13.43647,43.29096],[13.43647,43.291]]},"properties":{}},{"type":"Feature","geometry":{"type":"LineString","coordinates":[[13.43638,43.29087],[13.43638,43.29093],[13.43647,43.291]]},"properties":{}},{"type":"Feature","geometry":{"type":"LineString","coordinates":[[13.43643,43.29937],[13.4366,43.29942]]},"properties":{}},{"type":"Feature","geometry":{"type":"LineString","coordinates":[[13.43647,43.291],[13.43708,43.29182],[13.43723,43.29217],[13.43727,43.29241],[13.43726,43.29263],[13.43709,43.29347],[13.43711,43.29378],[13.43844,43.29763]]},"properties":{}},{"type":"Feature","geometry":{"type":"LineString","coordinates":[[13.43844,43.29763],[13.43915,43.29959],[13.43938,43.29987],[13.44128,43.30158]]},"properties":{}},{"type":"Feature","geometry":{"type":"LineString","coordinates":[[13.43844,43.29763],[13.43853,43.29761],[13.43923,43.29826],[13.43959,43.29885],[13.43986,43.29895],[13.44013,43.29966],[13.44041,43.30003],[13.4407,43.30028],[13.44104,43.30045],[13.44132,43.30052],[13.44168,43.30055],[13.44313,43.30039],[13.44337,43.3003],[13.44357,43.30011],[13.44404,43.29997],[13.44401,43.29983],[13.44405,43.29975]]},"properties":{}},{"type":"Feature","geometry":{"type":"LineString","coordinates":[[13.43907,43.30031],[13.43915,43.30039]]},"properties":{}},{"type":"Feature","geometry":{"type":"LineString","coordinates":[[13.44093,43.30148],[13.43929,43.30068]]},"properties":{}},{"type":"Feature","geometry":{"type":"LineString","coordinates":[[13.44093,43.30148],[13.44128,43.30158]]},"properties":{}},{"type":"Feature","geometry":{"type":"LineString","coordinates":[[13.44138,43.30181],[13.44126,43.3017],[13.44093,43.30148]]},"properties":{}},{"type":"Feature","geometry":{"type":"LineString","coordinates":[[13.44128,43.30158],[13.44179,43.30177],[13.44189,43.30179],[13.44208,43.30176]]},"properties":{}},{"type":"Feature","geometry":{"type":"LineString","coordinates":[[13.44138,43.30181],[13.44128,43.30158]]},"properties":{}},{"type":"Feature","geometry":{"type":"LineString","coordinates":[[13.44989,43.3014],[13.44696,43.30154],[13.44516,43.3017],[13.44461,43.30167],[13.44234,43.30198],[13.44202,43.30205],[13.44163,43.30222],[13.44142,43.30228],[13.44133,43.30228],[13.44126,43.30223],[13.44122,43.30215],[13.44125,43.30209],[13.44138,43.30197],[13.44138,43.30181]]},"properties":{}},{"type":"Feature","geometry":{"type":"LineString","coordinates":[[13.44497,43.30029],[13.44453,43.30039],[13.44181,43.30114],[13.44171,43.30122],[13.44169,43.30131],[13.44177,43.30166],[13.44187,43.30173],[13.44208,43.30176]]},"properties":{}},{"type":"Feature","geometry":{"type":"LineString","coordinates":[[13.44208,43.30176],[13.44609,43.30123],[13.44641,43.30097]]},"properties":{}},{"type":"Feature","geometry":{"type":"LineString","coordinates":[[13.44402,43.29963],[13.44373,43.29966]]},"properties":{}},{"type":"Feature","geometry":{"type":"LineString","coordinates":[[13.44402,43.29963],[13.44386,43.29904]]},"properties":{}},{"type":"Feature","geometry":{"type":"LineString","coordinates":[[13.44405,43.29975],[13.44402,43.29963]]},"properties":{}},{"type":"Feature","geometry":{"type":"LineString","coordinates":[[13.44405,43.29975],[13.44414,43.29977],[13.44424,43.29992],[13.44489,43.29975],[13.44497,43.29996],[13.44497,43.30029]]},"properties":{}},{"type":"Feature","geometry":{"type":"LineString","coordinates":[[13.44497,43.30029],[13.44583,43.30024],[13.44632,43.30042],[13.44667,43.30044],[13.447,43.30036],[13.4473,43.30024],[13.4475,43.30013],[13.44773,43.29992]]},"properties":{}},{"type":"Feature","geometry":{"type":"LineString","coordinates":[[13.44641,43.30097],[13.44637,43.30081],[13.44639,43.30076],[13.44685,43.3006],[13.4474,43.30034],[13.4476,43.30017],[13.44773,43.29992]]},"properties":{}},{"type":"Feature","geometry":{"type":"LineString","coordinates":[[13.44641,43.30097],[13.447,43.30074],[13.44739,43.30054],[13.44818,43.30002],[13.44857,43.29971],[13.44873,43.29953],[13.44885,43.29933],[13.44893,43.29894],[13.44897,43.29836],[13.44891,43.29797],[13.44893,43.29786],[13.44899,43.29778],[13.44923,43.29769],[13.44942,43.29769],[13.44989,43.29782]]},"properties":{}},{"type":"Feature","geometry":{"type":"LineString","coordinates":[[13.44773,43.29992],[13.44778,43.29981],[13.44795,43.29964],[13.44857,43.2993],[13.44868,43.29906],[13.44873,43.29891],[13.44878,43.29846],[13.4487,43.2977]]},"properties":{}},{"type":"Feature","geometry":{"type":"LineString","coordinates":[[13.4487,43.2977],[13.44796,43.29717],[13.4472,43.29648],[13.44632,43.29618],[13.4461,43.29618],[13.44605,43.29614],[13.44605,43.2961],[13.44591,43.29601],[13.44476,43.29569],[13.4458,43.29384],[13.44613,43.29332],[13.44782,43.29385],[13.44789,43.29393],[13.44792,43.2945],[13.44845,43.29468],[13.44871,43.29475],[13.44919,43.29478],[13.44941,43.29474],[13.44995,43.29458],[13.45005,43.29471],[13.45039,43.29502],[13.45086,43.29538],[13.45098,43.29556],[13.45098,43.29568],[13.45089,43.29583],[13.45078,43.29592],[13.45022,43.2962],[13.45016,43.29626],[13.45012,43.29636],[13.45018,43.29645],[13.45032,43.29649],[13.45208,43.29659]]},"properties":{}},{"type":"Feature","geometry":{"type":"LineString","coordinates":[[13.4487,43.2977],[13.44873,43.29758],[13.44888,43.29749],[13.4496,43.29761],[13.44984,43.29773],[13.44989,43.29782]]},"properties":{}},{"type":"Feature","geometry":{"type":"LineString","coordinates":[[13.45481,43.30143],[13.45477,43.30136],[13.45483,43.3013],[13.45547,43.30127],[13.45552,43.30116],[13.45558,43.30068],[13.45444,43.3005],[13.4538,43.30044],[13.45295,43.3004],[13.45279,43.30046],[13.45175,43.30056],[13.45067,43.30049],[13.45046,43.30035],[13.45023,43.30051],[13.45015,43.30061],[13.45014,43.30067],[13.44996,43.30097],[13.45002,43.3013],[13.45,43.30134],[13.44989,43.3014]]},"properties":{}},{"type":"Feature","geometry":{"type":"LineString","coordinates":[[13.45481,43.30143],[13.45069,43.30137],[13.44989,43.3014]]},"properties":{}},{"type":"Feature","geometry":{"type":"LineString","coordinates":[[13.44989,43.29782],[13.45039,43.29795],[13.45367,43.29843]]},"properties":{}},{"type":"Feature","geometry":{"type":"LineString","coordinates":[[13.45216,43.29659],[13.45212,43.29662],[13.45208,43.29659]]},"properties":{}},{"type":"Feature","geometry":{"type":"LineString","coordinates":[[13.45208,43.29659],[13.45212,43.29656],[13.45216,43.29659]]},"properties":{}},{"type":"Feature","geometry":{"type":"LineString","coordinates":[[13.45384,43.29672],[13.45216,43.29659]]},"properties":{}},{"type":"Feature","geometry":{"type":"LineString","coordinates":[[13.45367,43.29843],[13.45426,43.29856],[13.45522,43.29865],[13.45551,43.29858],[13.45555,43.29851],[13.45562,43.29847],[13.45577,43.29848]]},"properties":{}},{"type":"Feature","geometry":{"type":"LineString","coordinates":[[13.45367,43.29843],[13.45373,43.29752],[13.45384,43.29672]]},"properties":{}},{"type":"Feature","geometry":{"type":"LineString","coordinates":[[13.45384,43.29672],[13.45407,43.29473],[13.45421,43.29442],[13.45443,43.29417],[13.45514,43.29363],[13.45547,43.29329],[13.45593,43.29307],[13.45632,43.29301],[13.45681,43.29302],[13.45698,43.29312],[13.45728,43.29356],[13.45732,43.29371],[13.4573,43.29402],[13.45692,43.29555],[13.45696,43.29564],[13.4571,43.29571]]},"properties":{}},{"type":"Feature","geometry":{"type":"LineString","coordinates":[[13.45432,43.29847],[13.45441,43.29848]]},"properties":{}},{"type":"Feature","geometry":{"type":"LineString","coordinates":[[13.45451,43.30146],[13.45446,43.30146]]},"properties":{}},{"type":"Feature","geometry":{"type":"LineString","coordinates":[[13.45577,43.29848],[13.45585,43.29855],[13.45584,43.29864],[13.4563,43.29887],[13.4566,43.29911],[13.4567,43.29922],[13.45743,43.30024],[13.45759,43.30064],[13.45763,43.30091],[13.45754,43.30104],[13.45699,43.30135],[13.45682,43.30141],[13.45481,43.30143]]},"properties":{}},{"type":"Feature","geometry":{"type":"LineString","coordinates":[[13.4571,43.29571],[13.45645,43.29577],[13.45635,43.29585],[13.45574,43.298],[13.45569,43.29826],[13.45577,43.29848]]},"properties":{}},{"type":"Feature","geometry":{"type":"LineString","coordinates":[[13.4621,43.29534],[13.46143,43.29561],[13.46116,43.29565],[13.45955,43.29559],[13.45889,43.2956],[13.4571,43.29571]]},"properties":{}},{"type":"Feature","geometry":{"type":"LineString","coordinates":[[13.4621,43.29534],[13.46237,43.29517],[13.46241,43.29508],[13.46251,43.29503],[13.46263,43.29502],[13.46278,43.29508],[13.46317,43.295]]},"properties":{}},{"type":"Feature","geometry":{"type":"LineString","coordinates":[[13.46317,43.295],[13.46281,43.29522],[13.46269,43.29532],[13.46258,43.29534],[13.46244,43.29529],[13.46229,43.29529],[13.4621,43.29534]]},"properties":{}},{"type":"Feature","geometry":{"type":"LineString","coordinates":[[13.4676,43.29392],[13.46715,43.29405],[13.46317,43.295]]},"properties":{}},{"type":"Feature","geometry":{"type":"LineString","coordinates":[[13.47058,43.29333],[13.46777,43.29393],[13.4676,43.29392]]},"properties":{}},{"type":"Feature","geometry":{"type":"LineString","coordinates":[[13.46941,43.29265],[13.46938,43.29279],[13.46931,43.29291],[13.46905,43.29311],[13.46823,43.29361],[13.4676,43.29392]]},"properties":{}},{"type":"Feature","geometry":{"type":"LineString","coordinates":[[13.47196,43.28906],[13.47058,43.29056],[13.47019,43.29093],[13.46996,43.29101],[13.46922,43.29106],[13.46894,43.29115],[13.46879,43.2913],[13.46875,43.29146],[13.46876,43.29155],[13.46931,43.29241],[13.46941,43.29265]]},"properties":{}},{"type":"Feature","geometry":{"type":"LineString","coordinates":[[13.47058,43.29333],[13.47054,43.29317],[13.47029,43.29289],[13.46979,43.29248],[13.46964,43.29241],[13.46941,43.29265]]},"properties":{}},{"type":"Feature","geometry":{"type":"LineString","coordinates":[[13.5,43.30049],[13.49907,43.30105],[13.49882,43.30115],[13.49853,43.30123],[13.49825,43.30126],[13.49804,43.30124],[13.49771,43.3011],[13.49604,43.30014],[13.49525,43.29956],[13.49506,43.29948],[13.49486,43.29943],[13.49464,43.2994],[13.49385,43.29942],[13.49203,43.29973],[13.49178,43.29971],[13.4894,43.29916],[13.48926,43.2991],[13.48906,43.29892],[13.48899,43.2988],[13.48863,43.29766],[13.4884,43.29723],[13.48822,43.29702],[13.48687,43.29601],[13.48645,43.29557],[13.48633,43.29547],[13.48618,43.29541],[13.48588,43.2954],[13.48572,43.29545],[13.48499,43.29582],[13.48469,43.29591],[13.48328,43.29621],[13.48274,43.29629],[13.48237,43.29628],[13.48118,43.29612],[13.48072,43.29615],[13.4802,43.29625],[13.47986,43.29618],[13.47777,43.29542],[13.47718,43.29526],[13.47683,43.29514],[13.47623,43.29476],[13.47564,43.29431],[13.47495,43.29399],[13.47431,43.29386],[13.47348,43.29386],[13.47306,43.29382],[13.47135,43.29341],[13.47104,43.29335],[13.47058,43.29333]]},"properties":{}},{"type":"Feature","geometry":{"type":"LineString","coordinates":[[13.47196,43.28906],[13.47215,43.28867]]},"properties":{}},{"type":"Feature","geometry":{"type":"LineString","coordinates":[[13.4723,43.28874],[13.47196,43.28906]]},"properties":{}},{"type":"Feature","geometry":{"type":"LineString","coordinates":[[13.4723,43.28874],[13.47215,43.28867]]},"properties":{}},{"type":"Feature","geometry":{"type":"LineString","coordinates":[[13.47215,43.28867],[13.47213,43.28858],[13.47217,43.2885],[13.47227,43.28845],[13.4724,43.28845]]},"properties":{}},{"type":"Feature","geometry":{"type":"LineString","coordinates":[[13.47252,43.28854],[13.47253,43.28862],[13.47249,43.28869],[13.4723,43.28874]]},"properties":{}},{"type":"Feature","geometry":{"type":"LineString","coordinates":[[13.4724,43.28845],[13.47252,43.28854]]},"properties":{}},{"type":"Feature","geometry":{"type":"LineString","coordinates":[[13.4724,43.28845],[13.47271,43.28827]]},"properties":{}},{"type":"Feature","geometry":{"type":"LineString","coordinates":[[13.47271,43.28827],[13.47252,43.28854]]},"properties":{}},{"type":"Feature","geometry":{"type":"LineString","coordinates":[[13.48491,43.28161],[13.48449,43.28391],[13.48436,43.28423],[13.48414,43.28451],[13.48387,43.28472],[13.48364,43.28485],[13.48319,43.28501],[13.48286,43.28507],[13.48259,43.28507],[13.48065,43.28497],[13.47982,43.28496],[13.47933,43.28508],[13.47876,43.28532],[13.4783,43.28543],[13.47726,43.28539],[13.47711,43.28541],[13.47648,43.28563],[13.47523,43.28565],[13.47505,43.28562],[13.4749,43.28557],[13.47281,43.28437],[13.47266,43.28435],[13.47242,43.2844],[13.47237,43.28446],[13.47236,43.28455],[13.4724,43.2847],[13.47268,43.2851],[13.47302,43.28539],[13.47464,43.28663],[13.47482,43.28683],[13.47485,43.2869],[13.47483,43.28715],[13.47473,43.28729],[13.47462,43.28738],[13.47339,43.28783],[13.47307,43.28799],[13.47271,43.28827]]},"properties":{}},{"type":"Feature","geometry":{"type":"LineString","coordinates":[[13.48512,43.2812],[13.48497,43.28122],[13.48483,43.28118]]},"properties":{}},{"type":"Feature","geometry":{"type":"LineString","coordinates":[[13.48491,43.28161],[13.48489,43.28135],[13.48483,43.28118]]},"properties":{}},{"type":"Feature","geometry":{"type":"LineString","coordinates":[[13.48483,43.28118],[13.48475,43.28109],[13.48474,43.28103],[13.48476,43.28098],[13.48486,43.2809]]},"properties":{}},{"type":"Feature","geometry":{"type":"LineString","coordinates":[[13.48486,43.2809],[13.48499,43.28073],[13.48511,43.28046]]},"properties":{}},{"type":"Feature","geometry":{"type":"LineString","coordinates":[[13.48486,43.2809],[13.485,43.28087],[13.48513,43.28091]]},"properties":{}},{"type":"Feature","geometry":{"type":"LineString","coordinates":[[13.48512,43.2812],[13.48491,43.28161]]},"properties":{}},{"type":"Feature","geometry":{"type":"LineString","coordinates":[[13.48511,43.28046],[13.48513,43.28091]]},"properties":{}},{"type":"Feature","geometry":{"type":"LineString","coordinates":[[13.48602,43.27538],[13.48511,43.28046]]},"properties":{}},{"type":"Feature","geometry":{"type":"LineString","coordinates":[[13.48513,43.28091],[13.48521,43.28098],[13.48523,43.28107],[13.48512,43.2812]]},"properties":{}},{"type":"Feature","geometry":{"type":"LineString","coordinates":[[13.48528,43.26968],[13.48518,43.26985],[13.48514,43.27009],[13.48503,43.27037],[13.48502,43.27053],[13.48488,43.27104],[13.48487,43.2713],[13.48597,43.2746],[13.48614,43.27485],[13.48626,43.27494],[13.48624,43.27506]]},"properties":{}},{"type":"Feature","geometry":{"type":"LineString","coordinates":[[13.48602,43.27538],[13.48594,43.2751],[13.48587,43.27502],[13.48586,43.27497],[13.48592,43.27488],[13.48587,43.27462],[13.48476,43.27133],[13.48478,43.27101],[13.48493,43.27048],[13.48488,43.27033],[13.48468,43.27012],[13.48467,43.27003],[13.48476,43.26993],[13.48502,43.26985],[13.48528,43.26968]]},"properties":{}},{"type":"Feature","geometry":{"type":"LineString","coordinates":[[13.48548,43.26922],[13.48528,43.26968]]},"properties":{}},{"type":"Feature","geometry":{"type":"LineString","coordinates":[[13.48548,43.26922],[13.48559,43.26889],[13.48575,43.26864],[13.48588,43.26852]]},"properties":{}},{"type":"Feature","geometry":{"type":"LineString","coordinates":[[13.48588,43.26852],[13.48548,43.26922]]},"properties":{}},{"type":"Feature","geometry":{"type":"LineString","coordinates":[[13.48588,43.26852],[13.4869,43.26753]]},"properties":{}},{"type":"Feature","geometry":{"type":"LineString","coordinates":[[13.48624,43.27506],[13.48617,43.27511],[13.48602,43.27538]]},"properties":{}},{"type":"Feature","geometry":{"type":"LineString","coordinates":[[13.48624,43.27506],[13.48677,43.27496],[13.48718,43.27493],[13.49142,43.27475],[13.49482,43.27513],[13.49879,43.27543],[13.49922,43.27551],[13.49956,43.27566],[13.49969,43.27565],[13.49979,43.27559],[13.5,43.27555]]},"properties":{}},{"type":"Feature","geometry":{"type":"LineString","coordinates":[[13.4869,43.26753],[13.48697,43.26741],[13.48741,43.267],[13.48797,43.26666],[13.48812,43.2664],[13.48855,43.26599]]},"properties":{}},{"type":"Feature","geometry":{"type":"LineString","coordinates":[[13.4928,43.26711],[13.49183,43.26691],[13.49162,43.26692],[13.4914,43.26697],[13.49128,43.26705],[13.49103,43.26733],[13.49092,43.26739],[13.49073,43.26745],[13.49053,43.26745],[13.49033,43.26739],[13.49008,43.26722],[13.48991,43.26717],[13.48969,43.26716],[13.4893,43.26726],[13.48894,43.26726],[13.48878,43.26722],[13.48819,43.26693],[13.48787,43.26688],[13.48773,43.26689],[13.48753,43.26698],[13.4869,43.26753]]},"properties":{}},{"type":"Feature","geometry":{"type":"LineString","coordinates":[[13.4928,43.26711],[13.48855,43.26599]]},"properties":{}},{"type":"Feature","geometry":{"type":"LineString","coordinates":[[13.48855,43.26599],[13.48911,43.26551],[13.48942,43.26544],[13.48971,43.26546],[13.49018,43.26568],[13.49044,43.26575],[13.49093,43.2657],[13.49118,43.26572],[13.49136,43.2658],[13.49151,43.26595],[13.49155,43.26607],[13.49151,43.26644],[13.49156,43.26656],[13.4918,43.26672],[13.49354,43.26719],[13.4936,43.26725],[13.49761,43.26831],[13.49917,43.26871],[13.5,43.26888]]},"properties":{}},{"type":"Feature","geometry":{"type":"LineString","coordinates":[[13.5,43.26896],[13.4989,43.26873],[13.4928,43.26711]]},"properties":{}}]}