{"type":"FeatureCollection","features":[{"type":"Feature","geometry":{"type":"LineString","coordinates":[[13.56191,37.29851],[13.56174,37.29895],[13.56178,37.29919],[13.56164,37.29931],[13.56147,37.29935],[13.56065,37.29938],[13.56019,37.29936],[13.55985,37.29948],[13.55949,37.29977],[13.55925,37.29987],[13.55817,37.29988],[13.55803,37.29989],[13.55782,37.29998],[13.55823,37.30075],[13.5576,37.30098],[13.55752,37.30106],[13.55717,37.3016],[13.55648,37.30128],[13.55441,37.30044],[13.55372,37.30036],[13.55334,37.30054],[13.55325,37.30082],[13.55322,37.30118],[13.55322,37.30151],[13.55327,37.3016],[13.55363,37.30187],[13.55379,37.30203],[13.55382,37.30212],[13.55388,37.30315],[13.55396,37.30331],[13.55406,37.30339],[13.55424,37.30345],[13.55556,37.3035],[13.55499,37.30407],[13.55488,37.30414],[13.55232,37.30457],[13.55199,37.30459],[13.55173,37.30448],[13.55157,37.30429],[13.55135,37.30307],[13.55122,37.30292],[13.55069,37.30276],[13.55041,37.30256],[13.55029,37.30253],[13.54822,37.3024],[13.54804,37.30233],[13.54794,37.30219],[13.54795,37.30174],[13.54806,37.30149],[13.54816,37.30144],[13.549,37.30118],[13.54914,37.30104],[13.54918,37.30065],[13.54925,37.30052],[13.5494,37.30041],[13.55053,37.2999],[13.55067,37.29976],[13.55072,37.2991],[13.5507,37.29873],[13.55062,37.29865],[13.55046,37.29857],[13.54974,37.29854],[13.54964,37.29851],[13.54952,37.2984],[13.5495,37.29834],[13.54953,37.29803],[13.54966,37.29786],[13.55046,37.2975],[13.55065,37.29736],[13.551,37.29693]]},"properties":{}},{"type":"Feature","geometry":{"type":"LineString","coordinates":[[13.551,37.29693],[13.55103,37.29678],[13.551,37.29661],[13.55105,37.29652],[13.55112,37.29647],[13.55125,37.29645],[13.55142,37.29652],[13.55147,37.29665],[13.55142,37.29675],[13.55132,37.29681],[13.55112,37.29686],[13.551,37.29693]]},"properties":{}},{"type":"Feature","geometry":{"type":"LineString","coordinates":[[13.56191,37.29851],[13.56189,37.2983],[13.56162,37.29791],[13.56456,37.29666],[13.56408,37.296],[13.5644,37.29581],[13.56592,37.29509],[13.5673,37.29452],[13.56745,37.29443],[13.56749,37.29437],[13.56763,37.29429],[13.5677,37.29422],[13.56822,37.29401]]},"properties":{}},{"type":"Feature","geometry":{"type":"LineString","coordinates":[[13.56822,37.29401],[13.56797,37.29416],[13.56792,37.29426],[13.5679,37.29439],[13.56801,37.29444],[13.56812,37.29443],[13.56853,37.29419],[13.56866,37.29415],[13.56879,37.29417],[13.56888,37.29423],[13.56893,37.29432],[13.56892,37.29443],[13.56884,37.29452],[13.56853,37.2947],[13.56843,37.29482],[13.56835,37.29502],[13.5683,37.29549],[13.56823,37.29558],[13.56795,37.29572],[13.5679,37.29578],[13.56782,37.29617],[13.56764,37.29636],[13.56752,37.29656],[13.56731,37.29728],[13.56717,37.29746],[13.56705,37.29752],[13.56688,37.29755],[13.5661,37.29738],[13.56587,37.29736],[13.5655,37.29738],[13.56507,37.29748],[13.56432,37.29782],[13.56412,37.29795],[13.56402,37.29804],[13.56384,37.29835],[13.56336,37.29881],[13.56331,37.29882],[13.56313,37.29877],[13.56298,37.29848],[13.56285,37.29848],[13.56253,37.29855],[13.56209,37.29849],[13.56191,37.29851]]},"properties":{}},{"type":"Feature","geometry":{"type":"LineString","coordinates":[[13.58447,37.28884],[13.58375,37.289],[13.58314,37.28905],[13.58163,37.28888],[13.58123,37.28891],[13.58095,37.28902],[13.58079,37.28915],[13.57988,37.29017],[13.57972,37.29026],[13.57945,37.29032],[13.57917,37.2903],[13.57901,37.29024],[13.57735,37.28919],[13.5772,37.28913],[13.57704,37.28911],[13.57662,37.28913],[13.57592,37.28933],[13.57572,37.28946],[13.57566,37.28955],[13.57564,37.28974],[13.57567,37.28984],[13.57596,37.29032],[13.57603,37.29061],[13.57601,37.29073],[13.57598,37.29087],[13.57579,37.29121],[13.57543,37.2915],[13.57507,37.29166],[13.57447,37.29173],[13.57417,37.2918],[13.57404,37.29186],[13.57367,37.29225],[13.57339,37.29239],[13.5721,37.29258],[13.57154,37.29273],[13.56922,37.2936],[13.56822,37.29401]]},"properties":{}},{"type":"Feature","geometry":{"type":"LineString","coordinates":[[13.5852,37.27323],[13.58633,37.27221],[13.58595,37.27196],[13.58528,37.27162],[13.58437,37.27223],[13.58318,37.26983],[13.58261,37.26842],[13.5825,37.2681],[13.58206,37.26619]]},"properties":{}},{"type":"Feature","geometry":{"type":"LineString","coordinates":[[13.58206,37.26619],[13.58195,37.26615],[13.58196,37.26605],[13.58051,37.26463],[13.58011,37.26432],[13.57926,37.26378],[13.5791,37.26365],[13.57897,37.26351],[13.57889,37.26335],[13.57891,37.26305],[13.57906,37.26292],[13.58183,37.26119],[13.58258,37.2608],[13.58314,37.2606],[13.58349,37.26054],[13.58532,37.26047],[13.58737,37.26072],[13.58793,37.26083],[13.58822,37.26082],[13.58879,37.26073]]},"properties":{}},{"type":"Feature","geometry":{"type":"LineString","coordinates":[[13.58884,37.26137],[13.58869,37.26137],[13.5886,37.26141],[13.58498,37.26406],[13.5823,37.26597],[13.58215,37.26608],[13.58213,37.26616],[13.58206,37.26619]]},"properties":{}},{"type":"Feature","geometry":{"type":"LineString","coordinates":[[13.58439,37.31839],[13.58667,37.31995]]},"properties":{}},{"type":"Feature","geometry":{"type":"LineString","coordinates":[[13.58439,37.31839],[13.58384,37.31808],[13.58347,37.31792],[13.58311,37.31788],[13.58241,37.31789],[13.58218,37.31786],[13.58203,37.31777],[13.58191,37.31763],[13.58188,37.31754],[13.58188,37.31735],[13.58201,37.31715],[13.5822,37.31703],[13.58393,37.31637],[13.58467,37.31604],[13.58506,37.31582],[13.58544,37.31554],[13.58624,37.31476],[13.58641,37.31449],[13.58687,37.31403],[13.587,37.31386],[13.58714,37.31362],[13.58729,37.31328],[13.58739,37.31288],[13.58742,37.31239],[13.58736,37.31217],[13.58719,37.31184]]},"properties":{}},{"type":"Feature","geometry":{"type":"LineString","coordinates":[[13.5877,37.31163],[13.58769,37.31217],[13.58774,37.31256],[13.58771,37.31286],[13.58753,37.31351],[13.58732,37.31392],[13.5872,37.31409],[13.58706,37.31427],[13.58667,37.31462],[13.58634,37.31481],[13.58531,37.31576],[13.58494,37.31601],[13.58399,37.31656],[13.58375,37.3169],[13.58367,37.31716],[13.58367,37.31734],[13.58369,37.31755],[13.58375,37.31771],[13.58395,37.31801],[13.58439,37.31839]]},"properties":{}},{"type":"Feature","geometry":{"type":"LineString","coordinates":[[13.58447,37.28884],[13.58496,37.28864]]},"properties":{}},{"type":"Feature","geometry":{"type":"LineString","coordinates":[[13.58508,37.28893],[13.58485,37.28881],[13.58447,37.28884]]},"properties":{}},{"type":"Feature","geometry":{"type":"LineString","coordinates":[[13.58496,37.28812],[13.58513,37.2886]]},"properties":{}},{"type":"Feature","geometry":{"type":"LineString","coordinates":[[13.58497,37.28863],[13.58496,37.28812]]},"properties":{}},{"type":"Feature","geometry":{"type":"LineString","coordinates":[[13.58496,37.28812],[13.58478,37.28649],[13.58477,37.28556],[13.58438,37.28451],[13.58434,37.28429],[13.58432,37.28377],[13.58438,37.28316],[13.58458,37.28236],[13.58565,37.27955],[13.58577,37.279],[13.58585,37.27842],[13.5858,37.27741],[13.58565,37.27559],[13.58565,37.27448],[13.58552,37.27417],[13.5853,37.27379]]},"properties":{}},{"type":"Feature","geometry":{"type":"LineString","coordinates":[[13.58508,37.28893],[13.58502,37.2888],[13.58494,37.28873],[13.58496,37.28864]]},"properties":{}},{"type":"Feature","geometry":{"type":"LineString","coordinates":[[13.58496,37.28864],[13.58497,37.28863]]},"properties":{}},{"type":"Feature","geometry":{"type":"LineString","coordinates":[[13.58497,37.28863],[13.58504,37.28859],[13.58513,37.2886]]},"properties":{}},{"type":"Feature","geometry":{"type":"LineString","coordinates":[[13.58527,37.28922],[13.58508,37.28893]]},"properties":{}},{"type":"Feature","geometry":{"type":"LineString","coordinates":[[13.58513,37.2886],[13.58521,37.28867],[13.5852,37.28889]]},"properties":{}},{"type":"Feature","geometry":{"type":"LineString","coordinates":[[13.5852,37.28889],[13.58521,37.28903],[13.58527,37.28922]]},"properties":{}},{"type":"Feature","geometry":{"type":"LineString","coordinates":[[13.60002,37.28539],[13.59961,37.28537],[13.59931,37.28541],[13.59661,37.28629],[13.59424,37.28686],[13.59049,37.28783],[13.58827,37.28836],[13.58772,37.28846],[13.58623,37.28851],[13.58574,37.28858],[13.58536,37.2887],[13.5852,37.28889]]},"properties":{}},{"type":"Feature","geometry":{"type":"LineString","coordinates":[[13.5852,37.27323],[13.58517,37.27338],[13.58531,37.27363],[13.5853,37.27379]]},"properties":{}},{"type":"Feature","geometry":{"type":"LineString","coordinates":[[13.5853,37.27379],[13.58499,37.27329],[13.5852,37.27323]]},"properties":{}},{"type":"Feature","geometry":{"type":"LineString","coordinates":[[13.58527,37.28922],[13.58555,37.2898],[13.5856,37.29017],[13.58559,37.29043],[13.58562,37.29052],[13.58569,37.29058],[13.58595,37.29067],[13.58843,37.29107],[13.58873,37.29115],[13.58891,37.2913],[13.58993,37.29249],[13.58997,37.2926],[13.58996,37.29272],[13.58916,37.29594],[13.58916,37.29602],[13.58926,37.29619],[13.58937,37.29627],[13.59019,37.29652],[13.59041,37.29669],[13.59047,37.29682],[13.59064,37.29795],[13.59073,37.29808],[13.59087,37.29815],[13.59585,37.29906],[13.59606,37.29916],[13.59621,37.29931],[13.5963,37.29949],[13.59631,37.29968]]},"properties":{}},{"type":"Feature","geometry":{"type":"LineString","coordinates":[[13.58719,37.31184],[13.58652,37.31191],[13.58638,37.31188],[13.58628,37.31177]]},"properties":{}},{"type":"Feature","geometry":{"type":"LineString","coordinates":[[13.58628,37.31177],[13.58623,37.31161],[13.58629,37.31141],[13.58628,37.31118]]},"properties":{}},{"type":"Feature","geometry":{"type":"LineString","coordinates":[[13.58628,37.31177],[13.58705,37.31165],[13.5874,37.31144]]},"properties":{}},{"type":"Feature","geometry":{"type":"LineString","coordinates":[[13.58628,37.31118],[13.58635,37.31125],[13.58649,37.31129],[13.58701,37.31123],[13.58719,37.31139],[13.5874,37.31144]]},"properties":{}},{"type":"Feature","geometry":{"type":"LineString","coordinates":[[13.59631,37.29968],[13.59627,37.30008],[13.59608,37.30062],[13.59583,37.30112],[13.59561,37.30142],[13.59365,37.30346],[13.59305,37.30373],[13.59296,37.30386],[13.59293,37.30424],[13.59258,37.30455],[13.59243,37.30485],[13.59228,37.305],[13.59194,37.30516],[13.59098,37.3053],[13.59078,37.30541],[13.59035,37.30584],[13.58979,37.3062],[13.58968,37.30632],[13.58959,37.30652],[13.58953,37.30699],[13.58946,37.3071],[13.58938,37.30717],[13.58708,37.30811],[13.58578,37.30869],[13.5862,37.31035],[13.58628,37.31118]]},"properties":{}},{"type":"Feature","geometry":{"type":"LineString","coordinates":[[13.58667,37.31995],[13.58718,37.32019],[13.58739,37.3202],[13.58791,37.32012],[13.58858,37.32028],[13.58875,37.32025],[13.58946,37.31985]]},"properties":{}},{"type":"Feature","geometry":{"type":"LineString","coordinates":[[13.58807,37.32081],[13.5879,37.32073],[13.5877,37.32056],[13.58667,37.31995]]},"properties":{}},{"type":"Feature","geometry":{"type":"LineString","coordinates":[[13.5877,37.31163],[13.58765,37.31172],[13.5876,37.31176],[13.58719,37.31184]]},"properties":{}},{"type":"Feature","geometry":{"type":"LineString","coordinates":[[13.5874,37.31144],[13.58762,37.31149],[13.5877,37.31163]]},"properties":{}},{"type":"Feature","geometry":{"type":"LineString","coordinates":[[13.58807,37.32081],[13.58783,37.32105],[13.58782,37.32123],[13.58787,37.32131],[13.58797,37.32138],[13.58812,37.32141],[13.58826,37.32139],[13.5884,37.32129],[13.58844,37.32122],[13.58845,37.32111],[13.58834,37.32096],[13.58807,37.32081]]},"properties":{}},{"type":"Feature","geometry":{"type":"LineString","coordinates":[[13.58946,37.31985],[13.58807,37.32081]]},"properties":{}},{"type":"Feature","geometry":{"type":"LineString","coordinates":[[13.58879,37.26073],[13.58894,37.26127],[13.58892,37.26131],[13.58884,37.26137]]},"properties":{}},{"type":"Feature","geometry":{"type":"LineString","coordinates":[[13.58879,37.26073],[13.59029,37.26041],[13.5939,37.25888],[13.59476,37.25871],[13.59517,37.25851],[13.59712,37.25733],[13.59746,37.25721],[13.59823,37.25701],[13.59852,37.25687],[13.59879,37.25665],[13.59904,37.25636],[13.60021,37.25521],[13.60402,37.2513],[13.60444,37.25097],[13.60642,37.24977],[13.60678,37.2495],[13.60757,37.2488],[13.60815,37.24824],[13.61112,37.24554],[13.61189,37.2449],[13.61228,37.24463],[13.61261,37.24461],[13.61283,37.2447],[13.61302,37.24487],[13.61345,37.24551],[13.61371,37.24607],[13.61476,37.24919],[13.61497,37.24958],[13.61523,37.24989],[13.61558,37.25017],[13.61602,37.2504],[13.61626,37.25049]]},"properties":{}},{"type":"Feature","geometry":{"type":"LineString","coordinates":[[13.61626,37.25049],[13.61625,37.25065],[13.61619,37.25074],[13.61601,37.25084],[13.61549,37.25096],[13.61449,37.25113],[13.61357,37.25144],[13.61142,37.25301],[13.61088,37.2542],[13.61006,37.25627],[13.60901,37.25848],[13.60873,37.25939],[13.60855,37.25983],[13.60647,37.26375],[13.60586,37.26543],[13.60598,37.26551],[13.60028,37.26987],[13.59919,37.2711],[13.59898,37.27139],[13.59836,37.27306],[13.59782,37.27409],[13.59737,37.27467],[13.59691,37.27518],[13.59507,37.27372],[13.59491,37.27356],[13.59414,37.27087],[13.59361,37.26937],[13.59343,37.26907],[13.59034,37.26497],[13.58994,37.26437],[13.58926,37.26235],[13.58899,37.26145],[13.58884,37.26137]]},"properties":{}},{"type":"Feature","geometry":{"type":"LineString","coordinates":[[13.6095,37.31913],[13.6094,37.31904],[13.60875,37.31818],[13.60843,37.31786],[13.60587,37.3161],[13.6054,37.31585],[13.60481,37.31569],[13.6042,37.3156],[13.60361,37.31559],[13.60303,37.31565],[13.6024,37.31584],[13.60212,37.31596],[13.60159,37.31629],[13.60076,37.31697],[13.60046,37.31715],[13.59985,37.31744],[13.59919,37.31765],[13.59804,37.31778],[13.59319,37.31805],[13.59257,37.31813],[13.5922,37.31823],[13.59187,37.31834],[13.59129,37.31861],[13.58946,37.31985]]},"properties":{}},{"type":"Feature","geometry":{"type":"LineString","coordinates":[[13.59631,37.29968],[13.59663,37.29974],[13.5977,37.29902],[13.59777,37.29891],[13.59809,37.29781],[13.59828,37.29737],[13.5984,37.29717],[13.6001,37.29518],[13.60029,37.29487],[13.60036,37.29453],[13.60014,37.29036],[13.60017,37.29017],[13.60026,37.29005],[13.60051,37.2899],[13.60072,37.28986],[13.60114,37.28987],[13.6014,37.28998],[13.60168,37.29031],[13.60209,37.29096],[13.60242,37.29165],[13.60267,37.29243],[13.60277,37.2925],[13.60288,37.29252],[13.603,37.2925],[13.60311,37.29239],[13.60308,37.29221],[13.60281,37.2919],[13.60267,37.29165],[13.60257,37.29131],[13.60258,37.29043],[13.60238,37.28987],[13.60234,37.28963],[13.60252,37.28855],[13.6025,37.28839],[13.60241,37.28823],[13.60051,37.28581],[13.6001,37.28542]]},"properties":{}},{"type":"Feature","geometry":{"type":"LineString","coordinates":[[13.6001,37.28542],[13.60002,37.28539]]},"properties":{}},{"type":"Feature","geometry":{"type":"LineString","coordinates":[[13.60002,37.28539],[13.59995,37.28534],[13.59989,37.28521],[13.59995,37.28505],[13.60007,37.28497],[13.60077,37.2847]]},"properties":{}},{"type":"Feature","geometry":{"type":"LineString","coordinates":[[13.60077,37.2847],[13.60055,37.28492],[13.60049,37.28512],[13.6005,37.28525],[13.60045,37.28532],[13.60033,37.28541],[13.6001,37.28542]]},"properties":{}},{"type":"Feature","geometry":{"type":"LineString","coordinates":[[13.61882,37.27166],[13.61662,37.27233],[13.6162,37.27251],[13.61571,37.27285],[13.61316,37.27495],[13.61053,37.27751],[13.60845,37.27919],[13.6079,37.27968],[13.60776,37.27991],[13.60742,37.28096],[13.60734,37.28114],[13.60722,37.28133],[13.60621,37.28243],[13.60602,37.28253],[13.60533,37.28272],[13.60381,37.28288],[13.60354,37.28297],[13.60318,37.28316],[13.60212,37.28382],[13.60077,37.2847]]},"properties":{}},{"type":"Feature","geometry":{"type":"LineString","coordinates":[[13.6095,37.31913],[13.60981,37.31921],[13.61002,37.31916],[13.61016,37.31907],[13.61052,37.31907],[13.61162,37.31846],[13.61178,37.31816],[13.61194,37.31807],[13.6121,37.31809],[13.61218,37.31815],[13.61223,37.31843],[13.61242,37.31865],[13.61251,37.31881],[13.61256,37.31911],[13.61252,37.31931],[13.61229,37.31996],[13.61231,37.32018],[13.61258,37.32058],[13.61284,37.32085],[13.61317,37.32132],[13.61345,37.32182],[13.61346,37.32198],[13.61404,37.32334],[13.61415,37.32378],[13.61424,37.32461],[13.61424,37.3251],[13.61413,37.32809],[13.61416,37.32871],[13.61424,37.32934],[13.6144,37.32993],[13.61466,37.33049],[13.61491,37.33094],[13.6153,37.33148],[13.61604,37.33233],[13.6169,37.33311],[13.61768,37.33365],[13.61877,37.33425],[13.6195,37.3347],[13.62018,37.33517],[13.62075,37.33562],[13.62286,37.33739],[13.62327,37.33767],[13.62454,37.33836],[13.62592,37.33898],[13.62741,37.33941],[13.63121,37.34019],[13.6324,37.34055],[13.63351,37.34103],[13.63579,37.34211],[13.63748,37.34274],[13.63809,37.34292],[13.63933,37.34319],[13.64645,37.34452],[13.64762,37.34478],[13.64892,37.34515],[13.65156,37.34612],[13.65648,37.3483],[13.65866,37.34922],[13.65989,37.34966],[13.66053,37.34982],[13.66172,37.35001],[13.66238,37.35007],[13.66388,37.35008],[13.66455,37.35004],[13.66529,37.34994],[13.66606,37.34979],[13.66668,37.34964],[13.66883,37.34902],[13.66944,37.34889],[13.67074,37.34875],[13.67199,37.34874],[13.67317,37.34887],[13.67454,37.34917],[13.6753,37.34941],[13.67637,37.34989],[13.67735,37.35047],[13.67772,37.35074],[13.67854,37.35144],[13.67896,37.3519],[13.6795,37.3526],[13.68126,37.35517],[13.68168,37.35567],[13.68263,37.35666],[13.68313,37.35709],[13.68418,37.35784],[13.68474,37.35818],[13.68607,37.35879],[13.68748,37.35925],[13.68847,37.35948],[13.69437,37.36046],[13.69771,37.36106],[13.69871,37.36134],[13.69928,37.36156],[13.70029,37.36204],[13.70165,37.36287],[13.70213,37.36322],[13.70286,37.36383],[13.70353,37.36452],[13.70381,37.36487],[13.70521,37.3669],[13.70549,37.36728],[13.70614,37.36803],[13.70648,37.36839],[13.70742,37.36921],[13.70828,37.36982],[13.70882,37.37016],[13.71006,37.37082],[13.71044,37.37099],[13.71184,37.37155],[13.71417,37.37243],[13.71501,37.37278],[13.71591,37.3732],[13.7226,37.37682],[13.73122,37.38153],[13.73396,37.38295],[13.73541,37.3838],[13.74176,37.3872],[13.74659,37.38984],[13.7479,37.39033],[13.74846,37.39049],[13.74968,37.39072],[13.75084,37.39084],[13.75147,37.39087],[13.7527,37.39084],[13.75331,37.39076],[13.75474,37.39045],[13.75517,37.39033],[13.75625,37.38993],[13.75683,37.38967],[13.75749,37.38932],[13.75861,37.38857],[13.76032,37.38713],[13.76072,37.38683],[13.76141,37.38637],[13.76266,37.38571],[13.76314,37.38551],[13.76422,37.38513],[13.76525,37.38487],[13.76669,37.38461]]},"properties":{}},{"type":"Feature","geometry":{"type":"LineString","coordinates":[[13.76612,37.38484],[13.76528,37.38498],[13.76429,37.38524],[13.76323,37.38559],[13.76266,37.38584],[13.7615,37.38646],[13.76082,37.38692],[13.75868,37.38867],[13.75813,37.38907],[13.75755,37.38943],[13.75689,37.38978],[13.75587,37.39021],[13.75476,37.39057],[13.75334,37.39087],[13.75269,37.39096],[13.75146,37.39099],[13.75083,37.39095],[13.74967,37.39083],[13.74839,37.39059],[13.74697,37.39012],[13.74592,37.38963],[13.74079,37.38682],[13.72811,37.37999],[13.71601,37.3734],[13.715,37.37291],[13.71327,37.37219],[13.71174,37.37164],[13.71037,37.37109],[13.70874,37.37025],[13.70819,37.36991],[13.70733,37.36929],[13.70677,37.36882],[13.70601,37.36808],[13.70538,37.36734],[13.70508,37.36694],[13.70421,37.36564],[13.70369,37.36492],[13.70309,37.36425],[13.70275,37.36391],[13.70202,37.36331],[13.70154,37.36296],[13.70021,37.36213],[13.69921,37.36166],[13.69866,37.36144],[13.69767,37.36116],[13.69434,37.36057],[13.68843,37.35959],[13.68744,37.35936],[13.686,37.35889],[13.68465,37.35828],[13.68351,37.35757],[13.68278,37.357],[13.68202,37.3563],[13.68153,37.35576],[13.68105,37.35511],[13.67939,37.35266],[13.67868,37.35178],[13.67831,37.35141],[13.67763,37.35083],[13.67678,37.35025],[13.67584,37.34977],[13.67524,37.34951],[13.67449,37.34927],[13.67378,37.34909],[13.67314,37.34898],[13.67261,37.3489],[13.67135,37.34884],[13.67033,37.3489],[13.66947,37.34902],[13.66823,37.3493],[13.66669,37.34976],[13.66608,37.34991],[13.66456,37.35016],[13.66329,37.35021],[13.66238,37.35019],[13.661,37.35003],[13.66048,37.34993],[13.65984,37.34976],[13.6586,37.34932],[13.65711,37.3487],[13.65641,37.34843],[13.65305,37.34694],[13.65192,37.34638],[13.64965,37.34551],[13.64866,37.34519],[13.64757,37.34489],[13.64644,37.34463],[13.63929,37.3433],[13.63804,37.34302],[13.63743,37.34285],[13.63571,37.34221],[13.63344,37.34112],[13.63236,37.34065],[13.63118,37.34029],[13.63042,37.34011],[13.62845,37.33975],[13.62737,37.33951],[13.62617,37.33918],[13.62587,37.33908],[13.62448,37.33844],[13.62321,37.33776],[13.62277,37.33746],[13.62067,37.33569],[13.62009,37.33525],[13.61898,37.33451],[13.61786,37.33389],[13.61705,37.33337],[13.61651,37.33293],[13.61598,37.33243],[13.61546,37.33187],[13.61495,37.33125],[13.61458,37.33064],[13.6143,37.33008],[13.61421,37.32983],[13.61409,37.32934],[13.61402,37.32873],[13.614,37.32811],[13.61408,37.3251],[13.61405,37.32422],[13.61388,37.32339],[13.61332,37.32197],[13.61296,37.3214],[13.61263,37.32097],[13.61207,37.32036],[13.61078,37.31955],[13.61041,37.31941],[13.61017,37.3194],[13.60975,37.3193],[13.6096,37.31923],[13.6095,37.31913]]},"properties":{}},{"type":"Feature","geometry":{"type":"LineString","coordinates":[[13.61626,37.25049],[13.61702,37.25076],[13.61755,37.25108],[13.6209,37.2539]]},"properties":{}},{"type":"Feature","geometry":{"type":"LineString","coordinates":[[13.61882,37.27166],[13.61903,37.27143],[13.61908,37.27129],[13.61908,37.27111]]},"properties":{}},{"type":"Feature","geometry":{"type":"LineString","coordinates":[[13.6193,37.27151],[13.61882,37.27166]]},"properties":{}},{"type":"Feature","geometry":{"type":"LineString","coordinates":[[13.61906,37.27073],[13.6191,37.27092],[13.61921,37.27121],[13.61946,37.27138],[13.61969,37.27139]]},"properties":{}},{"type":"Feature","geometry":{"type":"LineString","coordinates":[[13.61908,37.27111],[13.61904,37.27093],[13.61906,37.27073]]},"properties":{}},{"type":"Feature","geometry":{"type":"LineString","coordinates":[[13.61906,37.27073],[13.61912,37.27048],[13.61976,37.26883],[13.62012,37.26812],[13.62324,37.26341],[13.62349,37.26289],[13.62392,37.26111],[13.62391,37.26073],[13.62372,37.25973],[13.62376,37.25952],[13.62387,37.25936],[13.62513,37.25824],[13.62531,37.25805],[13.62572,37.25742],[13.62588,37.25708],[13.62586,37.25688],[13.62576,37.25675],[13.62564,37.25666],[13.62204,37.25461]]},"properties":{}},{"type":"Feature","geometry":{"type":"LineString","coordinates":[[13.6193,37.27151],[13.61922,37.27147],[13.61908,37.27111]]},"properties":{}},{"type":"Feature","geometry":{"type":"LineString","coordinates":[[13.61969,37.27139],[13.6193,37.27151]]},"properties":{}},{"type":"Feature","geometry":{"type":"LineString","coordinates":[[13.61969,37.27139],[13.62188,37.27072],[13.62238,37.27061],[13.62282,37.27055],[13.62387,37.27055],[13.62484,37.27073],[13.62748,37.27159],[13.62683,37.27279]]},"properties":{}},{"type":"Feature","geometry":{"type":"LineString","coordinates":[[13.6209,37.2539],[13.62127,37.25406],[13.62158,37.25407],[13.62175,37.254],[13.62186,37.25402],[13.62195,37.2541],[13.62192,37.25439],[13.62204,37.25461]]},"properties":{}},{"type":"Feature","geometry":{"type":"LineString","coordinates":[[13.62204,37.25461],[13.62126,37.25415],[13.6209,37.2539]]},"properties":{}},{"type":"Feature","geometry":{"type":"LineString","coordinates":[[13.76989,37.38404],[13.7684,37.38441],[13.76612,37.38484]]},"properties":{}},{"type":"Feature","geometry":{"type":"LineString","coordinates":[[13.76989,37.38404],[13.76944,37.38481],[13.76921,37.38528],[13.76918,37.38556],[13.76909,37.38566],[13.76897,37.38571],[13.76876,37.38569],[13.76862,37.38555],[13.76862,37.38543],[13.76866,37.38536],[13.76879,37.38527],[13.76908,37.38519],[13.76914,37.38513],[13.76917,37.38499],[13.76911,37.38478],[13.76901,37.38465],[13.76877,37.38451],[13.76858,37.38447],[13.76838,37.38448],[13.76657,37.38481],[13.76612,37.38484]]},"properties":{}},{"type":"Feature","geometry":{"type":"LineString","coordinates":[[13.76669,37.38461],[13.76716,37.38447],[13.76909,37.38407],[13.76955,37.38388],[13.76971,37.38376],[13.76986,37.38362],[13.77089,37.38217],[13.77117,37.38146],[13.77119,37.38137],[13.77116,37.38125],[13.77118,37.38119],[13.77137,37.38102],[13.77147,37.38081]]},"properties":{}},{"type":"Feature","geometry":{"type":"LineString","coordinates":[[13.76669,37.38461],[13.76911,37.38413],[13.76997,37.3839]]},"properties":{}},{"type":"Feature","geometry":{"type":"LineString","coordinates":[[13.76989,37.38404],[13.76997,37.3839]]},"properties":{}},{"type":"Feature","geometry":{"type":"LineString","coordinates":[[13.8599,37.39884],[13.85739,37.39842],[13.856,37.39805],[13.85532,37.39783],[13.85362,37.39715],[13.84756,37.39487],[13.844,37.39344],[13.84032,37.39172],[13.83802,37.39061],[13.83463,37.38884],[13.82759,37.38501],[13.82637,37.38448],[13.82528,37.3841],[13.82386,37.38373],[13.82324,37.38363],[13.82192,37.38349],[13.8206,37.38345],[13.81641,37.38357],[13.81576,37.38354],[13.81497,37.38345],[13.81337,37.38319],[13.81253,37.383],[13.81097,37.38253],[13.80985,37.38216],[13.80866,37.3817],[13.80685,37.38108],[13.80611,37.38086],[13.8041,37.38034],[13.80275,37.38003],[13.79547,37.3784],[13.79471,37.37826],[13.79319,37.37807],[13.79279,37.37804],[13.79176,37.37806],[13.78927,37.37828],[13.7882,37.37846],[13.78747,37.37861],[13.78606,37.37902],[13.77561,37.3823],[13.76989,37.38404]]},"properties":{}},{"type":"Feature","geometry":{"type":"LineString","coordinates":[[13.77147,37.38081],[13.77146,37.38098],[13.7715,37.38109],[13.77158,37.38119],[13.7716,37.38131],[13.77152,37.38141],[13.77127,37.38159],[13.77107,37.38189],[13.77076,37.38264],[13.76997,37.3839]]},"properties":{}},{"type":"Feature","geometry":{"type":"LineString","coordinates":[[13.76997,37.3839],[13.77554,37.38219],[13.786,37.3789],[13.78773,37.37842],[13.78923,37.37817],[13.78998,37.37809],[13.79238,37.37792],[13.79313,37.37793],[13.79473,37.37814],[13.79553,37.37828],[13.80279,37.37992],[13.80528,37.38052],[13.8069,37.38098],[13.80872,37.38159],[13.80992,37.38205],[13.81103,37.38241],[13.81255,37.38289],[13.81342,37.38307],[13.8153,37.38336],[13.81645,37.38346],[13.8206,37.38334],[13.82194,37.38338],[13.82329,37.38351],[13.82389,37.38361],[13.82532,37.38398],[13.82676,37.3845],[13.82767,37.38491],[13.83471,37.38874],[13.83811,37.39051],[13.84406,37.39332],[13.84504,37.39374],[13.8554,37.39773],[13.85672,37.39814],[13.85743,37.3983],[13.8598,37.39871]]},"properties":{}},{"type":"Feature","geometry":{"type":"LineString","coordinates":[[13.77147,37.38081],[13.77168,37.38031],[13.77174,37.38009],[13.7718,37.37957],[13.77182,37.37915],[13.77174,37.37851],[13.77149,37.37763],[13.77114,37.37697],[13.7705,37.37619],[13.76925,37.37493],[13.76812,37.37363],[13.76735,37.37262],[13.76706,37.37192],[13.76691,37.3715],[13.76686,37.37082],[13.76696,37.37011],[13.76728,37.36931],[13.76763,37.3688],[13.76795,37.36842],[13.76835,37.36806],[13.76906,37.36757],[13.7702,37.36711],[13.77217,37.3664],[13.77283,37.36627],[13.77386,37.36614]]},"properties":{}},{"type":"Feature","geometry":{"type":"LineString","coordinates":[[13.77428,37.36542],[13.77527,37.36558],[13.77556,37.36568],[13.77564,37.36575],[13.77566,37.36583],[13.77573,37.36643],[13.77563,37.36669],[13.77541,37.36683],[13.775,37.36687],[13.7747,37.36674],[13.77462,37.36665],[13.77447,37.36636],[13.77436,37.36626],[13.77411,37.36615],[13.77386,37.36614]]},"properties":{}},{"type":"Feature","geometry":{"type":"LineString","coordinates":[[13.77386,37.36614],[13.77413,37.36608],[13.77427,37.366],[13.77434,37.3659],[13.7744,37.3657],[13.77428,37.36542]]},"properties":{}},{"type":"Feature","geometry":{"type":"LineString","coordinates":[[13.77924,37.36316],[13.77725,37.36386],[13.7747,37.36441],[13.77433,37.36452],[13.77417,37.36465],[13.77406,37.36488],[13.77428,37.36542]]},"properties":{}},{"type":"Feature","geometry":{"type":"LineString","coordinates":[[13.77924,37.36316],[13.77927,37.36307],[13.77947,37.36289],[13.77982,37.36289],[13.78002,37.36285]]},"properties":{}},{"type":"Feature","geometry":{"type":"LineString","coordinates":[[13.78002,37.36285],[13.77924,37.36316]]},"properties":{}},{"type":"Feature","geometry":{"type":"LineString","coordinates":[[13.78002,37.36285],[13.78211,37.36209],[13.78232,37.36203],[13.78278,37.36197],[13.79171,37.3621],[13.7966,37.36195],[13.7987,37.3618],[13.79948,37.36168],[13.80114,37.36131],[13.80182,37.36112],[13.80264,37.36085],[13.80477,37.36007],[13.80653,37.35938],[13.81192,37.35685],[13.81292,37.35652],[13.81394,37.35624],[13.81458,37.35611],[13.81575,37.356],[13.81867,37.35594],[13.82311,37.35544],[13.82397,37.35525],[13.82429,37.35515],[13.83203,37.3525],[13.83358,37.35211],[13.83579,37.35174],[13.83628,37.3517]]},"properties":{}},{"type":"Feature","geometry":{"type":"LineString","coordinates":[[13.8365,37.35149],[13.83659,37.35166],[13.83658,37.35174],[13.83649,37.35176],[13.83628,37.3517]]},"properties":{}},{"type":"Feature","geometry":{"type":"LineString","coordinates":[[13.83628,37.3517],[13.83642,37.35166],[13.8365,37.35149]]},"properties":{}},{"type":"Feature","geometry":{"type":"LineString","coordinates":[[13.8372,37.34965],[13.8367,37.35049],[13.83661,37.35081],[13.8365,37.35149]]},"properties":{}},{"type":"Feature","geometry":{"type":"LineString","coordinates":[[13.8372,37.34965],[13.83724,37.34951],[13.83718,37.34947],[13.83717,37.34941],[13.83721,37.34936],[13.8377,37.34926]]},"properties":{}},{"type":"Feature","geometry":{"type":"LineString","coordinates":[[13.8377,37.34926],[13.83728,37.34952],[13.8372,37.34965]]},"properties":{}},{"type":"Feature","geometry":{"type":"LineString","coordinates":[[13.84527,37.3507],[13.84392,37.35014],[13.8435,37.35016],[13.84336,37.35014],[13.84286,37.34993],[13.84257,37.34985],[13.83989,37.34918],[13.83965,37.34913],[13.83917,37.34912],[13.8377,37.34926]]},"properties":{}},{"type":"Feature","geometry":{"type":"LineString","coordinates":[[13.84527,37.3507],[13.8454,37.35074],[13.84558,37.35087],[13.84629,37.35206],[13.84684,37.35271],[13.84708,37.3529],[13.84742,37.3531],[13.84797,37.35333]]},"properties":{}},{"type":"Feature","geometry":{"type":"LineString","coordinates":[[13.84776,37.35345],[13.8477,37.35331],[13.84724,37.3531],[13.84702,37.35296],[13.84676,37.35276],[13.84655,37.35253],[13.84603,37.35186],[13.84548,37.35089],[13.84527,37.3507]]},"properties":{}},{"type":"Feature","geometry":{"type":"LineString","coordinates":[[13.84752,37.35362],[13.84736,37.35369],[13.84765,37.35395]]},"properties":{}},{"type":"Feature","geometry":{"type":"LineString","coordinates":[[13.84752,37.35362],[13.84776,37.35345]]},"properties":{}},{"type":"Feature","geometry":{"type":"LineString","coordinates":[[13.84774,37.35355],[13.84752,37.35362]]},"properties":{}},{"type":"Feature","geometry":{"type":"LineString","coordinates":[[13.84765,37.35395],[13.84795,37.35416],[13.84836,37.35437]]},"properties":{}},{"type":"Feature","geometry":{"type":"LineString","coordinates":[[13.84836,37.35437],[13.84803,37.35435],[13.84765,37.35395]]},"properties":{}},{"type":"Feature","geometry":{"type":"LineString","coordinates":[[13.84803,37.35336],[13.84805,37.3534],[13.84803,37.35346],[13.84774,37.35355]]},"properties":{}},{"type":"Feature","geometry":{"type":"LineString","coordinates":[[13.85293,37.35414],[13.8529,37.35421],[13.85193,37.35374],[13.85185,37.35374],[13.85175,37.35381],[13.85167,37.3538],[13.8516,37.35373],[13.85161,37.35366],[13.85147,37.35354],[13.85118,37.35341],[13.85103,37.35338],[13.85084,37.35337],[13.85036,37.35344],[13.84969,37.35376],[13.84937,37.35381],[13.84898,37.35379],[13.84809,37.35349],[13.84774,37.35355]]},"properties":{}},{"type":"Feature","geometry":{"type":"LineString","coordinates":[[13.84776,37.35345],[13.84786,37.3534],[13.8479,37.35334],[13.84797,37.35333]]},"properties":{}},{"type":"Feature","geometry":{"type":"LineString","coordinates":[[13.84797,37.35333],[13.84803,37.35336]]},"properties":{}},{"type":"Feature","geometry":{"type":"LineString","coordinates":[[13.84803,37.35336],[13.84886,37.35368],[13.84922,37.35375],[13.84938,37.35374],[13.84975,37.35366],[13.85017,37.35343],[13.85033,37.35337],[13.85054,37.35332],[13.85106,37.35331],[13.85128,37.35336],[13.85165,37.35358],[13.85178,37.35361],[13.85293,37.35414]]},"properties":{}},{"type":"Feature","geometry":{"type":"LineString","coordinates":[[13.84963,37.35567],[13.84889,37.35472],[13.84871,37.35457],[13.84836,37.35437]]},"properties":{}},{"type":"Feature","geometry":{"type":"LineString","coordinates":[[13.84963,37.35567],[13.84971,37.35563],[13.84993,37.35591],[13.84986,37.35594],[13.84963,37.35567]]},"properties":{}},{"type":"Feature","geometry":{"type":"LineString","coordinates":[[13.84983,37.35581],[13.84977,37.35573]]},"properties":{}},{"type":"Feature","geometry":{"type":"LineString","coordinates":[[13.85293,37.35414],[13.85296,37.35336],[13.85289,37.35271],[13.8529,37.35242],[13.85304,37.35191],[13.85328,37.35136],[13.85346,37.3511],[13.85394,37.35079],[13.85487,37.35025],[13.85497,37.35015],[13.85501,37.34999],[13.85502,37.34973],[13.85449,37.34763],[13.85453,37.34724],[13.85448,37.34675],[13.8545,37.34634],[13.85459,37.3456],[13.85464,37.34537],[13.85476,37.34513],[13.85503,37.34478],[13.85537,37.34455],[13.85579,37.3442]]},"properties":{}},{"type":"Feature","geometry":{"type":"LineString","coordinates":[[13.85584,37.34272],[13.85539,37.34239],[13.85522,37.34218],[13.85518,37.34205],[13.85516,37.3419],[13.85519,37.34165],[13.8554,37.34121]]},"properties":{}},{"type":"Feature","geometry":{"type":"LineString","coordinates":[[13.8554,37.34121],[13.85557,37.34093],[13.85571,37.3409],[13.8559,37.34096],[13.85594,37.34121],[13.85587,37.34184]]},"properties":{}},{"type":"Feature","geometry":{"type":"LineString","coordinates":[[13.85587,37.34184],[13.85586,37.34122],[13.85584,37.34118],[13.85571,37.34113],[13.85557,37.34113],[13.8554,37.34121]]},"properties":{}},{"type":"Feature","geometry":{"type":"LineString","coordinates":[[13.85579,37.3442],[13.85579,37.34554],[13.85573,37.34688],[13.85575,37.34733],[13.8558,37.34764],[13.85601,37.34841],[13.8563,37.3491],[13.85673,37.34978],[13.85728,37.35044],[13.86493,37.35836],[13.86546,37.35903],[13.86584,37.35968],[13.86608,37.36019],[13.86629,37.36093],[13.86636,37.36132],[13.8664,37.36216],[13.86634,37.36298],[13.86623,37.36348],[13.86577,37.36456],[13.86526,37.36537],[13.86451,37.36619],[13.86391,37.3667],[13.86337,37.36706],[13.86267,37.36745],[13.85242,37.37203],[13.85169,37.37239],[13.85026,37.37326],[13.84798,37.37475],[13.84755,37.37513],[13.84733,37.37539],[13.84708,37.37575],[13.84685,37.37626],[13.84662,37.37704],[13.84646,37.37782],[13.8464,37.37827],[13.84641,37.37901],[13.8468,37.38533],[13.84692,37.38584],[13.84701,37.38608],[13.84719,37.38639],[13.84743,37.38671],[13.85688,37.39643],[13.8574,37.39689],[13.85874,37.39791]]},"properties":{}},{"type":"Feature","geometry":{"type":"LineString","coordinates":[[13.85579,37.3442],[13.85584,37.34272]]},"properties":{}},{"type":"Feature","geometry":{"type":"LineString","coordinates":[[13.85579,37.3442],[13.85597,37.34398],[13.85606,37.34376],[13.85612,37.34345],[13.85612,37.34325],[13.85605,37.34299],[13.85593,37.34279],[13.85584,37.34272]]},"properties":{}},{"type":"Feature","geometry":{"type":"LineString","coordinates":[[13.85584,37.34272],[13.85587,37.34184]]},"properties":{}},{"type":"Feature","geometry":{"type":"LineString","coordinates":[[13.85874,37.39791],[13.85901,37.398],[13.85947,37.39798],[13.85963,37.39794],[13.8603,37.3976],[13.86062,37.39758],[13.86088,37.39765],[13.86117,37.39788],[13.86123,37.39801],[13.86135,37.39854],[13.86145,37.39872],[13.86159,37.39888],[13.86194,37.39909],[13.86247,37.39926],[13.86312,37.39953],[13.86401,37.39995],[13.86435,37.40019]]},"properties":{}},{"type":"Feature","geometry":{"type":"LineString","coordinates":[[13.8598,37.39871],[13.85954,37.39843],[13.85939,37.39834],[13.8592,37.39829],[13.85905,37.39811],[13.85874,37.39791]]},"properties":{}},{"type":"Feature","geometry":{"type":"LineString","coordinates":[[13.8598,37.39871],[13.86122,37.39897],[13.86245,37.3993],[13.8631,37.39956],[13.86435,37.40019]]},"properties":{}},{"type":"Feature","geometry":{"type":"LineString","coordinates":[[13.8598,37.39871],[13.8599,37.39884]]},"properties":{}},{"type":"Feature","geometry":{"type":"LineString","coordinates":[[13.86114,37.39907],[13.8599,37.39884]]},"properties":{}},{"type":"Feature","geometry":{"type":"LineString","coordinates":[[13.8599,37.39884],[13.85995,37.3989]]},"properties":{}},{"type":"Feature","geometry":{"type":"LineString","coordinates":[[13.86114,37.39907],[13.85995,37.3989]]},"properties":{}},{"type":"Feature","geometry":{"type":"LineString","coordinates":[[13.85995,37.3989],[13.85912,37.3988],[13.85889,37.39881],[13.85869,37.39887],[13.85849,37.39896],[13.8583,37.39917],[13.85822,37.39943],[13.85822,37.39968],[13.85846,37.39997],[13.85865,37.40007],[13.85909,37.40016],[13.85933,37.40013],[13.85955,37.40007],[13.85992,37.39986],[13.86011,37.3997],[13.86023,37.39949],[13.8602,37.39926],[13.85995,37.3989]]},"properties":{}},{"type":"Feature","geometry":{"type":"LineString","coordinates":[[14.0,37.46244],[13.99684,37.46069],[13.99552,37.45979],[13.99399,37.45856],[13.99178,37.45701],[13.99124,37.45669],[13.99056,37.45636],[13.98934,37.45585],[13.98756,37.45533],[13.98269,37.45404],[13.97083,37.45068],[13.96684,37.44951],[13.96251,37.44833],[13.9564,37.44654],[13.95578,37.44634],[13.95493,37.446],[13.95424,37.44568],[13.95333,37.44521],[13.9523,37.44455],[13.95153,37.44397],[13.9509,37.44343],[13.94692,37.43962],[13.94598,37.43889],[13.94547,37.43856],[13.9444,37.43795],[13.94359,37.43753],[13.94094,37.43633],[13.94022,37.43594],[13.93935,37.43539],[13.9388,37.435],[13.93772,37.43415],[13.93632,37.43278],[13.93513,37.43167],[13.93319,37.42999],[13.93234,37.42931],[13.93117,37.42846],[13.93031,37.42791],[13.92921,37.42725],[13.928,37.42661],[13.92675,37.42604],[13.92456,37.4253],[13.91385,37.42204],[13.9108,37.42106],[13.90936,37.4205],[13.90704,37.41941],[13.89986,37.41593],[13.89886,37.41536],[13.89831,37.415],[13.89564,37.41294],[13.89338,37.41111],[13.89,37.4085],[13.88898,37.40782],[13.88735,37.40698],[13.88675,37.40672],[13.88633,37.40657],[13.88438,37.40601],[13.88325,37.40579],[13.87255,37.40437],[13.8718,37.40426],[13.87046,37.40394],[13.86918,37.40348],[13.8684,37.40311],[13.86781,37.40279],[13.86688,37.40218],[13.86534,37.40097],[13.86458,37.40048],[13.86407,37.40019],[13.86302,37.39969],[13.86242,37.39944],[13.86114,37.39907]]},"properties":{}},{"type":"Feature","geometry":{"type":"LineString","coordinates":[[13.86435,37.40019],[13.86537,37.40083],[13.86699,37.40209],[13.86792,37.4027],[13.86845,37.403],[13.86924,37.40337],[13.86988,37.40362],[13.87051,37.40382],[13.87118,37.404],[13.87186,37.40415],[13.88261,37.40557],[13.88324,37.40567],[13.88444,37.40592],[13.88638,37.40647],[13.8868,37.40662],[13.8874,37.40688],[13.88904,37.40773],[13.89012,37.40843],[13.89347,37.41104],[13.89573,37.41285],[13.89838,37.41489],[13.89895,37.41527],[13.89994,37.41584],[13.90796,37.41973],[13.91007,37.42067],[13.91086,37.42097],[13.91393,37.42194],[13.92463,37.42519],[13.92681,37.42594],[13.92751,37.42623],[13.92809,37.42652],[13.92929,37.42715],[13.93039,37.42782],[13.93125,37.42836],[13.93243,37.42922],[13.9333,37.4299],[13.93526,37.43161],[13.93644,37.43271],[13.93782,37.43406],[13.93889,37.43491],[13.93944,37.43529],[13.94029,37.43583],[13.94102,37.43623],[13.94365,37.43742],[13.94449,37.43785],[13.94556,37.43846],[13.94607,37.43881],[13.94699,37.43952],[13.95102,37.44337],[13.95206,37.44423],[13.95339,37.44511],[13.95434,37.4456],[13.95501,37.4459],[13.95644,37.44643],[13.96256,37.44823],[13.96687,37.4494],[13.97087,37.45058],[13.98273,37.45392],[13.98858,37.45547],[13.98943,37.45572],[13.99,37.45592],[13.99069,37.4562],[13.99137,37.45652],[13.99234,37.45705],[13.99349,37.45779],[13.9943,37.45836],[13.99577,37.45957],[13.99712,37.46046],[14.0,37.4621]]},"properties":{}},{"type":"Feature","geometry":{"type":"LineString","coordinates":[[13.93986,37.10394],[13.94018,37.10362],[13.94044,37.10367],[13.94065,37.10353],[13.94078,37.10338],[13.94331,37.10477],[13.94339,37.10475],[13.94342,37.10481],[13.94353,37.10486],[13.94471,37.10464],[13.94492,37.10465],[13.94516,37.10472],[13.94568,37.10495],[13.94687,37.10554],[13.94747,37.10589],[13.94784,37.10615],[13.94894,37.10701],[13.9495,37.10751],[13.94999,37.10796],[13.9505,37.10859],[13.95062,37.10877],[13.95064,37.10887],[13.95125,37.10956],[13.95194,37.11027],[13.9524,37.11082],[13.95313,37.11156],[13.95539,37.11339],[13.95606,37.11387],[13.95637,37.11405],[13.9568,37.11418],[13.95709,37.11421],[13.95802,37.11441],[13.96174,37.11543],[13.96333,37.11583],[13.96363,37.11581],[13.96402,37.1157],[13.96638,37.11458],[13.97139,37.11242],[13.97218,37.11205],[13.97253,37.11195],[13.97335,37.11196],[13.97974,37.11224],[13.98063,37.11225],[13.98465,37.11206],[13.99221,37.11163],[13.99331,37.11163],[13.99448,37.11159],[14.0,37.111]]},"properties":{}}]}