{"type":"FeatureCollection","features":[{"type":"Feature","geometry":{"type":"LineString","coordinates":[[14.0,37.74065],[14.00605,37.73898],[14.00752,37.73863],[14.00866,37.73841],[14.00964,37.73825],[14.01065,37.73813],[14.01618,37.7377],[14.01741,37.73755],[14.01826,37.73738],[14.01965,37.73704],[14.02064,37.73671],[14.02445,37.73518],[14.02579,37.73459],[14.02625,37.73434],[14.02665,37.73406],[14.02701,37.73376],[14.02734,37.73344],[14.02763,37.73309],[14.02788,37.73272],[14.02808,37.73233],[14.02823,37.73194],[14.02883,37.7292],[14.02898,37.72877],[14.0294,37.72805],[14.02991,37.72744],[14.03033,37.72705],[14.0344,37.72373],[14.03534,37.7229],[14.03567,37.72255],[14.03645,37.72157],[14.03687,37.72094],[14.03722,37.7203],[14.0375,37.71968],[14.0377,37.71904],[14.03787,37.71839],[14.0388,37.71381],[14.03896,37.71315],[14.03941,37.71191],[14.03962,37.71147],[14.0401,37.71067],[14.04052,37.71012],[14.04113,37.70939],[14.04662,37.70387],[14.04758,37.70283],[14.04817,37.7021],[14.04868,37.70126],[14.04906,37.70042],[14.04929,37.69973],[14.04944,37.69916],[14.05024,37.69468],[14.05111,37.68961],[14.05135,37.68855],[14.05159,37.68762],[14.05323,37.68255]]},"properties":{}},{"type":"Feature","geometry":{"type":"LineString","coordinates":[[14.05323,37.68255],[14.0532,37.68661],[14.05313,37.68741],[14.05296,37.68858],[14.05088,37.69763],[14.05041,37.69893],[14.04999,37.69987],[14.04964,37.70053],[14.04903,37.70147],[14.04845,37.70225],[14.04786,37.70294],[14.04696,37.70395],[14.04136,37.70959],[14.0408,37.71025],[14.04019,37.71111],[14.03992,37.71156],[14.03949,37.71253],[14.03929,37.71321],[14.03912,37.71388],[14.03818,37.71842],[14.03799,37.71911],[14.03771,37.71991],[14.03747,37.72042],[14.03711,37.72107],[14.03668,37.72169],[14.03619,37.72229],[14.0357,37.72283],[14.03454,37.72384],[14.03055,37.7271],[14.03005,37.72754],[14.02957,37.7281],[14.02914,37.72881],[14.02895,37.72926],[14.0288,37.7298],[14.02835,37.73197],[14.0282,37.73238],[14.02801,37.73278],[14.02776,37.73316],[14.02747,37.73352],[14.02714,37.73385],[14.02677,37.73416],[14.02636,37.73444],[14.02588,37.73471],[14.02524,37.73501],[14.02108,37.73669],[14.02032,37.73696],[14.01926,37.73727],[14.0181,37.73755],[14.01686,37.73775],[14.01037,37.73829],[14.00949,37.7384],[14.00805,37.73864],[14.00688,37.7389],[14.0,37.74078]]},"properties":{}},{"type":"Feature","geometry":{"type":"LineString","coordinates":[[14.05567,37.67125],[14.05509,37.67181],[14.05458,37.67241],[14.05417,37.67303],[14.05389,37.67357],[14.05367,37.67411],[14.05342,37.67498],[14.05331,37.6761],[14.05323,37.68255]]},"properties":{}},{"type":"Feature","geometry":{"type":"LineString","coordinates":[[14.05323,37.68255],[14.05472,37.67784],[14.05519,37.67571],[14.05567,37.67125]]},"properties":{}},{"type":"Feature","geometry":{"type":"LineString","coordinates":[[14.05567,37.67125],[14.05576,37.67071],[14.05592,37.67021],[14.0561,37.66978],[14.05634,37.66932],[14.0568,37.66871],[14.05733,37.66816],[14.05834,37.66739],[14.06359,37.66383],[14.06452,37.66333],[14.06541,37.66292],[14.06623,37.66261],[14.06721,37.66233],[14.07222,37.66112],[14.07367,37.66085],[14.07466,37.66075],[14.07581,37.66071],[14.07658,37.66074],[14.08528,37.66134],[14.08692,37.66139],[14.08806,37.66134],[14.09061,37.66117],[14.09915,37.66052],[14.1006,37.6604],[14.10175,37.66022],[14.10267,37.65999],[14.10379,37.65957],[14.1046,37.65917],[14.10513,37.65885],[14.10583,37.65834],[14.10624,37.65797],[14.10691,37.65729],[14.1094,37.654],[14.10977,37.65347],[14.11005,37.65299],[14.11051,37.65204],[14.1107,37.65145],[14.11232,37.6444],[14.11275,37.64295],[14.11413,37.63867],[14.11455,37.63765],[14.11681,37.63256],[14.11989,37.62678],[14.12246,37.62184],[14.12274,37.62111],[14.12496,37.61439],[14.12553,37.61283],[14.12578,37.61232],[14.12604,37.61188],[14.12633,37.61142],[14.12669,37.61093],[14.12756,37.60992],[14.13083,37.60654],[14.13128,37.60591],[14.13155,37.60533],[14.1317,37.60483],[14.13177,37.60445],[14.1318,37.60408],[14.13179,37.6036],[14.13097,37.5996],[14.13047,37.59737],[14.13041,37.59693],[14.13038,37.59639],[14.13041,37.59536],[14.1306,37.59432],[14.1309,37.59341],[14.13115,37.59285],[14.13151,37.59218],[14.13629,37.5845],[14.13659,37.58397],[14.13709,37.58284],[14.13743,37.58164],[14.13753,37.58109],[14.13759,37.58045],[14.13761,37.57957],[14.13751,37.57851],[14.13742,37.57807],[14.13713,37.57701],[14.1359,37.57364],[14.13567,37.57288],[14.13554,37.57221],[14.13547,37.57126],[14.13548,37.57063],[14.13562,37.56961],[14.13572,37.5692],[14.14272,37.5488],[14.14294,37.54822],[14.14324,37.54754],[14.14357,37.54695],[14.14398,37.54631],[14.14474,37.54538],[14.14534,37.54482],[14.14607,37.54423],[14.14669,37.54379],[14.14788,37.54315],[14.14903,37.54261],[14.1515,37.54176],[14.15385,37.54106],[14.1568,37.54009],[14.15817,37.53972],[14.1595,37.53948],[14.16087,37.53932],[14.16227,37.53929],[14.16369,37.53932],[14.16483,37.53948],[14.16563,37.53962],[14.16671,37.5399],[14.16757,37.54015],[14.16843,37.54048],[14.16911,37.54078],[14.17027,37.54138],[14.17565,37.54474],[14.17913,37.54699],[14.1804,37.5479],[14.18175,37.54893],[14.18371,37.5506],[14.18486,37.55168],[14.18576,37.55261],[14.19022,37.55764],[14.1909,37.55834],[14.19167,37.55904],[14.19208,37.55935],[14.1928,37.55984],[14.19361,37.56031],[14.19473,37.56084],[14.19574,37.56122],[14.19707,37.56158],[14.19775,37.56173],[14.1985,37.56184],[14.19932,37.56191],[14.20063,37.56196],[14.20791,37.56196],[14.20882,37.56199],[14.21068,37.56214],[14.21267,37.56246],[14.21481,37.56296],[14.21627,37.5634],[14.22515,37.56658],[14.22681,37.56721],[14.22792,37.56768],[14.22876,37.56811],[14.2295,37.56858],[14.23048,37.56933],[14.23149,37.57032],[14.23773,37.57704],[14.23864,37.57796],[14.23922,37.57841],[14.23967,37.57869],[14.24047,37.57905],[14.24115,37.57926],[14.242,37.57941],[14.24253,37.57945],[14.26126,37.57989],[14.27148,37.57975],[14.2722,37.57968],[14.27577,37.57908],[14.27669,37.57899],[14.27739,37.57897],[14.27861,37.57906],[14.28484,37.57977],[14.28569,37.57979],[14.28698,37.57967],[14.29388,37.57856],[14.29475,37.57846],[14.29577,37.57847],[14.29783,37.57858]]},"properties":{}},{"type":"Feature","geometry":{"type":"LineString","coordinates":[[14.29881,37.5788],[14.29749,37.57877],[14.29571,37.57866],[14.29478,37.57865],[14.29401,37.57873],[14.28698,37.57985],[14.28567,37.57997],[14.28484,37.57997],[14.28384,37.57988],[14.27823,37.57921],[14.27779,37.5792],[14.27673,37.57921],[14.27608,37.57927],[14.27229,37.57988],[14.27156,37.57996],[14.25945,37.58012],[14.24267,37.57974],[14.24189,37.57966],[14.24117,37.57951],[14.2405,37.57929],[14.23976,37.57896],[14.23913,37.57855],[14.23863,37.57814],[14.23764,37.5771],[14.2314,37.57039],[14.23039,37.56942],[14.22939,37.56869],[14.22884,37.56835],[14.22798,37.5679],[14.2271,37.56753],[14.22509,37.56674],[14.21619,37.56358],[14.21528,37.56328],[14.21418,37.56298],[14.21266,37.56264],[14.21064,37.56232],[14.20878,37.56216],[14.2079,37.56213],[14.20063,37.56214],[14.19889,37.56206],[14.1977,37.5619],[14.19631,37.56158],[14.19507,37.56118],[14.19424,37.56083],[14.19353,37.56048],[14.19271,37.56],[14.19193,37.55948],[14.19115,37.55886],[14.1907,37.55844],[14.19004,37.55774],[14.18567,37.55284],[14.18467,37.55184],[14.18353,37.55077],[14.18158,37.54912],[14.18024,37.54809],[14.17547,37.54498],[14.1703,37.54176],[14.16904,37.54107],[14.16811,37.54066],[14.16745,37.54042],[14.16628,37.54007],[14.16518,37.53982],[14.16417,37.53965],[14.16303,37.53957],[14.16192,37.53954],[14.16078,37.5396],[14.15953,37.53975],[14.1585,37.53995],[14.15759,37.54018],[14.15215,37.54186],[14.15006,37.54254],[14.14908,37.54289],[14.14812,37.54333],[14.14708,37.54388],[14.14668,37.54414],[14.14588,37.54473],[14.14538,37.54517],[14.14456,37.54599],[14.14385,37.54693],[14.14348,37.54756],[14.14312,37.54833],[14.14276,37.54934],[14.13594,37.56923],[14.13577,37.57011],[14.13571,37.57069],[14.1357,37.57142],[14.13578,37.57223],[14.13599,37.57321],[14.13662,37.575],[14.13742,37.57711],[14.13756,37.57763],[14.13776,37.57862],[14.13783,37.57941],[14.13782,37.58044],[14.13776,37.58108],[14.13753,37.58215],[14.1371,37.58335],[14.13684,37.5839],[14.13655,37.58445],[14.13171,37.59224],[14.13124,37.59324],[14.13103,37.59383],[14.13088,37.59436],[14.13074,37.59511],[14.1307,37.59556],[14.13069,37.5964],[14.13076,37.59714],[14.13179,37.60184],[14.13207,37.60335],[14.13211,37.60383],[14.1321,37.60435],[14.13202,37.60486],[14.13184,37.60535],[14.13161,37.60584],[14.13114,37.60649],[14.12733,37.61049],[14.12682,37.61109],[14.12645,37.61159],[14.12621,37.61198],[14.12586,37.61262],[14.12563,37.61312],[14.12515,37.61448],[14.12352,37.61943],[14.12265,37.62194],[14.12182,37.62354],[14.11682,37.633],[14.11513,37.63683],[14.11435,37.6387],[14.11273,37.64364],[14.1125,37.64443],[14.11119,37.65032],[14.1109,37.65147],[14.1107,37.65206],[14.11024,37.65305],[14.10958,37.65406],[14.10705,37.65738],[14.10638,37.65808],[14.10593,37.65847],[14.10525,37.65897],[14.1047,37.6593],[14.10388,37.6597],[14.1032,37.65999],[14.10248,37.66022],[14.10181,37.66038],[14.10061,37.66057],[14.09917,37.66068],[14.09318,37.66113],[14.09076,37.66134],[14.08809,37.66153],[14.08707,37.66157],[14.08616,37.66157],[14.08487,37.66151],[14.07622,37.66092],[14.07578,37.6609],[14.07462,37.66095],[14.07349,37.66107],[14.07233,37.6613],[14.06704,37.6626],[14.0663,37.66283],[14.06574,37.66304],[14.06485,37.66348],[14.06402,37.66403],[14.0632,37.66469],[14.05738,37.66973],[14.05567,37.67125]]},"properties":{}},{"type":"Feature","geometry":{"type":"LineString","coordinates":[[14.06398,37.5],[14.06388,37.50005],[14.0638,37.5]]},"properties":{}},{"type":"Feature","geometry":{"type":"LineString","coordinates":[[14.06405,37.5],[14.06475,37.50055],[14.06491,37.50074],[14.065,37.50091],[14.06522,37.50176],[14.06567,37.50268],[14.06608,37.50434],[14.06622,37.50468],[14.06642,37.50499],[14.06829,37.50677],[14.06855,37.50705],[14.06949,37.5084],[14.06967,37.50855],[14.06986,37.50865],[14.07016,37.50875],[14.07096,37.50893],[14.0712,37.50902],[14.07139,37.50914],[14.07212,37.51019],[14.07295,37.51067],[14.07323,37.51079],[14.07338,37.51081],[14.07349,37.51059],[14.07354,37.50994],[14.07354,37.5095],[14.07357,37.50929],[14.07368,37.50902],[14.07395,37.50877],[14.07486,37.50828],[14.07522,37.50805],[14.07552,37.50777],[14.07632,37.5068],[14.07655,37.50672],[14.07667,37.50673],[14.0778,37.50752],[14.07817,37.50768],[14.07863,37.50772],[14.07901,37.50765],[14.07937,37.50746],[14.07971,37.5072],[14.08139,37.50526],[14.08143,37.50505],[14.0814,37.50484]]},"properties":{}},{"type":"Feature","geometry":{"type":"LineString","coordinates":[[14.0776,37.5],[14.07743,37.5002],[14.07738,37.50033],[14.0774,37.50039],[14.07747,37.50057],[14.07844,37.50232],[14.07851,37.50247],[14.07863,37.50299],[14.07871,37.50305],[14.07889,37.5031],[14.07899,37.50308],[14.07931,37.50292],[14.07953,37.5029],[14.0798,37.50297],[14.08018,37.50316],[14.0804,37.5033],[14.08059,37.50351],[14.08116,37.50439]]},"properties":{}},{"type":"Feature","geometry":{"type":"LineString","coordinates":[[14.08116,37.50439],[14.08139,37.50456],[14.08158,37.50462]]},"properties":{}},{"type":"Feature","geometry":{"type":"LineString","coordinates":[[14.08138,37.50478],[14.08116,37.50439]]},"properties":{}},{"type":"Feature","geometry":{"type":"LineString","coordinates":[[14.0814,37.50484],[14.08138,37.50478]]},"properties":{}},{"type":"Feature","geometry":{"type":"LineString","coordinates":[[14.08138,37.50478],[14.08143,37.50467],[14.08158,37.50462]]},"properties":{}},{"type":"Feature","geometry":{"type":"LineString","coordinates":[[14.08216,37.50414],[14.08206,37.50444],[14.08173,37.50486],[14.08157,37.50492],[14.08144,37.50488],[14.0814,37.50484]]},"properties":{}},{"type":"Feature","geometry":{"type":"LineString","coordinates":[[14.08158,37.50462],[14.0818,37.5046],[14.08191,37.50454],[14.08205,37.50434],[14.08216,37.50414]]},"properties":{}},{"type":"Feature","geometry":{"type":"LineString","coordinates":[[14.08216,37.50414],[14.08239,37.50301],[14.08247,37.5028],[14.08258,37.50266],[14.08282,37.50248],[14.08314,37.50236],[14.08353,37.50227],[14.08447,37.50219],[14.08468,37.50215],[14.08496,37.50204],[14.08506,37.50196],[14.0851,37.50187],[14.08515,37.50088],[14.08529,37.50068],[14.08593,37.5]]},"properties":{}},{"type":"Feature","geometry":{"type":"LineString","coordinates":[[14.09046,37.50004],[14.09045,37.5]]},"properties":{}},{"type":"Feature","geometry":{"type":"LineString","coordinates":[[14.09046,37.50004],[14.09086,37.50137],[14.08984,37.50155],[14.08946,37.50022],[14.09046,37.50004]]},"properties":{}},{"type":"Feature","geometry":{"type":"LineString","coordinates":[[14.15583,37.5],[14.1594,37.50285],[14.15996,37.50315],[14.1606,37.50338],[14.16333,37.504],[14.16373,37.50412],[14.16411,37.50429],[14.16445,37.50451],[14.16472,37.50479],[14.16537,37.506],[14.16552,37.50619],[14.16589,37.50654],[14.16611,37.5067],[14.1666,37.50695],[14.16709,37.50711],[14.16736,37.50716],[14.16807,37.50719],[14.17415,37.50698],[14.17457,37.50699],[14.17533,37.5071],[14.17601,37.50729],[14.17778,37.50801],[14.1786,37.5082],[14.17938,37.50823],[14.1824,37.50798],[14.18322,37.50798],[14.18417,37.50807],[14.19733,37.50981],[14.19771,37.5099],[14.19836,37.51015],[14.19976,37.51085],[14.2003,37.51097],[14.20062,37.511],[14.20105,37.51098],[14.20157,37.51085],[14.20563,37.50948],[14.20695,37.50899],[14.2119,37.50726],[14.2127,37.50713],[14.21316,37.50715],[14.21359,37.50722],[14.21415,37.5074],[14.21455,37.50761],[14.215,37.50792],[14.21705,37.50957],[14.21747,37.51004],[14.21769,37.51044],[14.21781,37.51082],[14.21828,37.51306],[14.21831,37.51347],[14.21826,37.51387],[14.21807,37.51442],[14.21781,37.51485],[14.21688,37.51603],[14.21663,37.5164],[14.21606,37.5177],[14.21586,37.51837],[14.21583,37.51871],[14.21587,37.51909],[14.21607,37.52018],[14.21615,37.52056],[14.21628,37.52092],[14.21657,37.5214],[14.21729,37.52235],[14.2175,37.52269],[14.21769,37.52328],[14.21773,37.52359],[14.2177,37.52398],[14.21733,37.52586],[14.21728,37.5265],[14.21746,37.52901],[14.21756,37.52943],[14.21773,37.52983],[14.21797,37.53024],[14.21824,37.53058],[14.21856,37.53089],[14.21897,37.53122],[14.21941,37.53149],[14.21978,37.53165],[14.22093,37.53205],[14.22678,37.53382],[14.22735,37.53394],[14.22768,37.53397],[14.22819,37.534],[14.22881,37.53395],[14.22934,37.53387],[14.23116,37.53347],[14.23219,37.53337],[14.23254,37.53337],[14.23821,37.53373],[14.23985,37.53373],[14.24083,37.53364],[14.24238,37.53339],[14.24419,37.53298],[14.24508,37.53271],[14.24784,37.53158],[14.24875,37.53128],[14.24951,37.53114],[14.25149,37.53092],[14.25242,37.53076],[14.25701,37.52966],[14.25767,37.52953],[14.25807,37.52951],[14.25851,37.52954],[14.259,37.52961],[14.25944,37.52974],[14.2612,37.5305],[14.26182,37.53085],[14.26219,37.53111]]},"properties":{}},{"type":"Feature","geometry":{"type":"LineString","coordinates":[[14.26219,37.53111],[14.26251,37.53135],[14.26284,37.53164],[14.26446,37.53371]]},"properties":{}},{"type":"Feature","geometry":{"type":"LineString","coordinates":[[14.26446,37.53371],[14.26412,37.53337],[14.26281,37.53172],[14.26219,37.53111]]},"properties":{}},{"type":"Feature","geometry":{"type":"LineString","coordinates":[[14.28247,37.54385],[14.28168,37.54341],[14.27348,37.53994],[14.27273,37.53958],[14.27214,37.53925],[14.26693,37.53565],[14.26509,37.53431],[14.26446,37.53371]]},"properties":{}},{"type":"Feature","geometry":{"type":"LineString","coordinates":[[14.26886,37.56835],[14.26883,37.56865],[14.26897,37.56885]]},"properties":{}},{"type":"Feature","geometry":{"type":"LineString","coordinates":[[14.26897,37.56885],[14.26879,37.5688],[14.26875,37.56874],[14.26865,37.56873],[14.26859,37.56867],[14.26863,37.56857],[14.26879,37.5685],[14.26886,37.56835]]},"properties":{}},{"type":"Feature","geometry":{"type":"LineString","coordinates":[[14.26886,37.56835],[14.2689,37.56805]]},"properties":{}},{"type":"Feature","geometry":{"type":"LineString","coordinates":[[14.26893,37.56783],[14.26948,37.56789],[14.26957,37.56797],[14.26954,37.56803],[14.26941,37.5681],[14.2689,37.56805]]},"properties":{}},{"type":"Feature","geometry":{"type":"LineString","coordinates":[[14.2689,37.56805],[14.26893,37.56783]]},"properties":{}},{"type":"Feature","geometry":{"type":"LineString","coordinates":[[14.26893,37.56783],[14.26918,37.56656],[14.26931,37.56635],[14.27048,37.56483]]},"properties":{}},{"type":"Feature","geometry":{"type":"LineString","coordinates":[[14.26897,37.56885],[14.27231,37.5698]]},"properties":{}},{"type":"Feature","geometry":{"type":"LineString","coordinates":[[14.27048,37.56483],[14.2736,37.56633],[14.27348,37.56654],[14.2726,37.56609],[14.27141,37.56764],[14.27121,37.56765],[14.27102,37.56756],[14.27016,37.56794],[14.26997,37.56808],[14.26988,37.56836],[14.27013,37.56841],[14.27038,37.56854],[14.27118,37.56885],[14.27167,37.56891],[14.27219,37.56904],[14.27308,37.569],[14.27354,37.56889],[14.27368,37.56881],[14.27384,37.56878],[14.27487,37.5688]]},"properties":{}},{"type":"Feature","geometry":{"type":"LineString","coordinates":[[14.27048,37.56483],[14.27361,37.56071]]},"properties":{}},{"type":"Feature","geometry":{"type":"LineString","coordinates":[[14.27231,37.5698],[14.27297,37.56985],[14.27323,37.56992]]},"properties":{}},{"type":"Feature","geometry":{"type":"LineString","coordinates":[[14.27323,37.56992],[14.27303,37.56992],[14.27301,37.56996],[14.27293,37.56997],[14.27231,37.5698]]},"properties":{}},{"type":"Feature","geometry":{"type":"LineString","coordinates":[[14.27323,37.56992],[14.27378,37.56997],[14.2741,37.56996],[14.27439,37.56988],[14.2745,37.56975],[14.27463,37.56943],[14.27476,37.56922]]},"properties":{}},{"type":"Feature","geometry":{"type":"LineString","coordinates":[[14.27361,37.56071],[14.27357,37.5605],[14.2736,37.56045],[14.2739,37.56038],[14.27411,37.56028]]},"properties":{}},{"type":"Feature","geometry":{"type":"LineString","coordinates":[[14.27411,37.56028],[14.27377,37.56054],[14.27361,37.56071]]},"properties":{}},{"type":"Feature","geometry":{"type":"LineString","coordinates":[[14.27411,37.56028],[14.27449,37.56006],[14.27461,37.55996]]},"properties":{}},{"type":"Feature","geometry":{"type":"LineString","coordinates":[[14.27461,37.55996],[14.27498,37.55921],[14.27562,37.55932],[14.27569,37.55939],[14.27576,37.55982],[14.27585,37.55985],[14.27598,37.55982],[14.27602,37.55977],[14.27607,37.55947],[14.27628,37.55903],[14.27634,37.55896],[14.2768,37.55878],[14.27736,37.55748],[14.27741,37.55741],[14.27755,37.55734],[14.27768,37.55735],[14.27806,37.55756],[14.2781,37.55774],[14.27808,37.55936],[14.27801,37.5594],[14.27741,37.55948],[14.27686,37.55963],[14.27614,37.56011],[14.27601,37.56014],[14.27572,37.56014],[14.27505,37.5598],[14.27484,37.5598],[14.27461,37.55996]]},"properties":{}},{"type":"Feature","geometry":{"type":"LineString","coordinates":[[14.27476,37.56922],[14.27485,37.56906]]},"properties":{}},{"type":"Feature","geometry":{"type":"LineString","coordinates":[[14.27505,37.56907],[14.27476,37.56922]]},"properties":{}},{"type":"Feature","geometry":{"type":"LineString","coordinates":[[14.27505,37.56907],[14.27485,37.56906]]},"properties":{}},{"type":"Feature","geometry":{"type":"LineString","coordinates":[[14.27485,37.56906],[14.27487,37.5688]]},"properties":{}},{"type":"Feature","geometry":{"type":"LineString","coordinates":[[14.27487,37.5688],[14.27491,37.56871]]},"properties":{}},{"type":"Feature","geometry":{"type":"LineString","coordinates":[[14.27487,37.5688],[14.27505,37.56876]]},"properties":{}},{"type":"Feature","geometry":{"type":"LineString","coordinates":[[14.27491,37.56871],[14.27505,37.56876]]},"properties":{}},{"type":"Feature","geometry":{"type":"LineString","coordinates":[[14.27491,37.56871],[14.27554,37.56753],[14.27672,37.56504],[14.27694,37.56422]]},"properties":{}},{"type":"Feature","geometry":{"type":"LineString","coordinates":[[14.2758,37.56876],[14.27577,37.56889],[14.27566,37.56896],[14.27505,37.56907]]},"properties":{}},{"type":"Feature","geometry":{"type":"LineString","coordinates":[[14.27505,37.56876],[14.27572,37.56856]]},"properties":{}},{"type":"Feature","geometry":{"type":"LineString","coordinates":[[14.2758,37.56876],[14.27572,37.56856]]},"properties":{}},{"type":"Feature","geometry":{"type":"LineString","coordinates":[[14.27572,37.56856],[14.27624,37.5684],[14.27741,37.56785],[14.27825,37.5675],[14.27973,37.56702]]},"properties":{}},{"type":"Feature","geometry":{"type":"LineString","coordinates":[[14.27982,37.56745],[14.27956,37.5675],[14.27946,37.56748],[14.27939,37.56743],[14.279,37.56756],[14.27872,37.5676],[14.27823,37.56778],[14.27828,37.56788],[14.27798,37.568],[14.27745,37.5683],[14.27704,37.56848],[14.27684,37.56851],[14.27669,37.5685],[14.2758,37.56876]]},"properties":{}},{"type":"Feature","geometry":{"type":"LineString","coordinates":[[14.27694,37.56422],[14.2771,37.56456],[14.27714,37.56505],[14.27784,37.56534],[14.27786,37.56528],[14.27782,37.56521],[14.2776,37.56504],[14.27751,37.56492],[14.27751,37.56481],[14.27788,37.56415],[14.27802,37.56402],[14.2782,37.56395],[14.27929,37.56386],[14.27952,37.56393],[14.28105,37.56465],[14.28214,37.56486],[14.28243,37.56485]]},"properties":{}},{"type":"Feature","geometry":{"type":"LineString","coordinates":[[14.27694,37.56422],[14.2769,37.56413],[14.27695,37.56408],[14.27707,37.56364]]},"properties":{}},{"type":"Feature","geometry":{"type":"LineString","coordinates":[[14.27694,37.56422],[14.27707,37.56364]]},"properties":{}},{"type":"Feature","geometry":{"type":"LineString","coordinates":[[14.27707,37.56364],[14.27717,37.56342],[14.27733,37.56327],[14.27839,37.56256]]},"properties":{}},{"type":"Feature","geometry":{"type":"LineString","coordinates":[[14.27707,37.56364],[14.27716,37.56352],[14.27734,37.56345],[14.27771,37.56314],[14.27845,37.56261]]},"properties":{}},{"type":"Feature","geometry":{"type":"LineString","coordinates":[[14.27845,37.56261],[14.27839,37.56256]]},"properties":{}},{"type":"Feature","geometry":{"type":"LineString","coordinates":[[14.27839,37.56256],[14.27845,37.56249]]},"properties":{}},{"type":"Feature","geometry":{"type":"LineString","coordinates":[[14.27845,37.56249],[14.27923,37.56198]]},"properties":{}},{"type":"Feature","geometry":{"type":"LineString","coordinates":[[14.27845,37.56249],[14.27854,37.56252],[14.27853,37.56258]]},"properties":{}},{"type":"Feature","geometry":{"type":"LineString","coordinates":[[14.27849,37.56261],[14.27845,37.56261]]},"properties":{}},{"type":"Feature","geometry":{"type":"LineString","coordinates":[[14.27849,37.56261],[14.27916,37.56326],[14.27921,37.56329],[14.27942,37.56327]]},"properties":{}},{"type":"Feature","geometry":{"type":"LineString","coordinates":[[14.27853,37.56258],[14.27849,37.56261]]},"properties":{}},{"type":"Feature","geometry":{"type":"LineString","coordinates":[[14.27923,37.56198],[14.27853,37.56258]]},"properties":{}},{"type":"Feature","geometry":{"type":"LineString","coordinates":[[14.27923,37.56198],[14.27947,37.56181],[14.27975,37.56152],[14.28112,37.55967],[14.28127,37.55943],[14.28151,37.55893],[14.28205,37.55742],[14.28222,37.55716],[14.28257,37.55679],[14.28266,37.55665],[14.28271,37.55655],[14.28279,37.55617],[14.2829,37.55604],[14.28307,37.55598],[14.28327,37.55601],[14.28334,37.55606],[14.28342,37.55618],[14.28337,37.55646],[14.28318,37.55707]]},"properties":{}},{"type":"Feature","geometry":{"type":"LineString","coordinates":[[14.27982,37.56745],[14.27973,37.56702]]},"properties":{}},{"type":"Feature","geometry":{"type":"LineString","coordinates":[[14.27973,37.56702],[14.28032,37.56688],[14.28081,37.56683],[14.28098,37.56684],[14.28183,37.56707],[14.28194,37.56707],[14.28223,37.567],[14.28252,37.56687],[14.28302,37.56682],[14.28343,37.56682],[14.28413,37.56657],[14.28455,37.56653],[14.28496,37.56656],[14.28598,37.56677],[14.28624,37.56675],[14.28703,37.56684]]},"properties":{}},{"type":"Feature","geometry":{"type":"LineString","coordinates":[[14.28703,37.56684],[14.28717,37.56719],[14.28626,37.56712],[14.28566,37.56712],[14.28453,37.56724],[14.28358,37.56715],[14.2833,37.56719],[14.28294,37.56732],[14.28251,37.56743],[14.28162,37.56746],[14.28084,37.56761],[14.27987,37.56767],[14.27982,37.56745]]},"properties":{}},{"type":"Feature","geometry":{"type":"LineString","coordinates":[[14.28319,37.56503],[14.28261,37.56492],[14.28243,37.56485]]},"properties":{}},{"type":"Feature","geometry":{"type":"LineString","coordinates":[[14.28243,37.56485],[14.28249,37.56482],[14.28253,37.56474],[14.28264,37.56442],[14.28275,37.56438],[14.28296,37.56443],[14.28312,37.56453],[14.28319,37.56463],[14.28326,37.56479],[14.28319,37.56503]]},"properties":{}},{"type":"Feature","geometry":{"type":"LineString","coordinates":[[14.28247,37.54385],[14.28292,37.54404],[14.28313,37.54406],[14.28329,37.54403],[14.2834,37.54408],[14.28345,37.54416],[14.28346,37.54441],[14.28373,37.54476]]},"properties":{}},{"type":"Feature","geometry":{"type":"LineString","coordinates":[[14.28373,37.54476],[14.28337,37.54442],[14.28326,37.54435],[14.28315,37.54433],[14.28293,37.54411],[14.28247,37.54385]]},"properties":{}},{"type":"Feature","geometry":{"type":"LineString","coordinates":[[14.2836,37.55721],[14.28334,37.55733],[14.28316,37.55731]]},"properties":{}},{"type":"Feature","geometry":{"type":"LineString","coordinates":[[14.28316,37.55731],[14.28336,37.55798],[14.28334,37.5582],[14.2827,37.55972],[14.28268,37.5598],[14.28273,37.55997],[14.28278,37.56004],[14.28303,37.56018],[14.28577,37.56061],[14.2867,37.56084],[14.28734,37.56113],[14.28761,37.56119],[14.28795,37.56118],[14.2887,37.56104],[14.28967,37.56074],[14.28996,37.5607],[14.2902,37.56073],[14.29034,37.56079],[14.29086,37.56106],[14.29137,37.56138],[14.29168,37.56148],[14.29277,37.56148],[14.29453,37.56184],[14.29481,37.5618],[14.29525,37.56162]]},"properties":{}},{"type":"Feature","geometry":{"type":"LineString","coordinates":[[14.28318,37.55707],[14.28316,37.55731]]},"properties":{}},{"type":"Feature","geometry":{"type":"LineString","coordinates":[[14.28318,37.55707],[14.28327,37.55723],[14.28343,37.55725],[14.2836,37.55721]]},"properties":{}},{"type":"Feature","geometry":{"type":"LineString","coordinates":[[14.28703,37.56684],[14.28704,37.56679],[14.28711,37.56673],[14.28744,37.56655],[14.28601,37.56584],[14.28598,37.56566],[14.28568,37.56539],[14.28531,37.56479],[14.28505,37.56452],[14.28428,37.56407],[14.28368,37.56377],[14.28242,37.56346],[14.28198,37.56348],[14.28179,37.5636],[14.28171,37.56372],[14.28174,37.56379],[14.28179,37.56383],[14.28328,37.56438],[14.28346,37.56448],[14.28359,37.56471],[14.28363,37.56497],[14.28359,37.56503],[14.2835,37.56508],[14.28319,37.56503]]},"properties":{}},{"type":"Feature","geometry":{"type":"LineString","coordinates":[[14.2836,37.55721],[14.2845,37.55672],[14.28456,37.55668],[14.28462,37.55658],[14.28459,37.55642],[14.28429,37.55603],[14.28415,37.55558],[14.28402,37.5553],[14.28403,37.55511],[14.28422,37.55469],[14.28424,37.55449],[14.28418,37.55425],[14.28405,37.55395],[14.28407,37.55384],[14.28414,37.55374],[14.28427,37.55366],[14.28567,37.55307],[14.28582,37.55291],[14.28592,37.55266],[14.28593,37.55238],[14.28589,37.55229],[14.28584,37.55226],[14.28545,37.55229],[14.28461,37.55247],[14.2845,37.55239],[14.28452,37.55228],[14.28456,37.55225],[14.28514,37.55209],[14.28562,37.55188],[14.28591,37.55183],[14.28621,37.55185],[14.28644,37.55198],[14.28652,37.55214],[14.28653,37.55232],[14.28648,37.55265],[14.28659,37.55272],[14.28673,37.55269],[14.2868,37.55261],[14.28679,37.55223],[14.28684,37.55213],[14.28737,37.55153],[14.28775,37.55091],[14.28807,37.55056]]},"properties":{}},{"type":"Feature","geometry":{"type":"LineString","coordinates":[[14.28804,37.549],[14.2877,37.54855],[14.28373,37.54476]]},"properties":{}},{"type":"Feature","geometry":{"type":"LineString","coordinates":[[14.28804,37.549],[14.28823,37.54923],[14.28845,37.54974],[14.28856,37.55018]]},"properties":{}},{"type":"Feature","geometry":{"type":"LineString","coordinates":[[14.28841,37.55015],[14.28843,37.54999],[14.28838,37.54975],[14.28822,37.54932],[14.28804,37.549]]},"properties":{}},{"type":"Feature","geometry":{"type":"LineString","coordinates":[[14.28807,37.55056],[14.2883,37.55025]]},"properties":{}},{"type":"Feature","geometry":{"type":"LineString","coordinates":[[14.28841,37.55039],[14.28807,37.55056]]},"properties":{}},{"type":"Feature","geometry":{"type":"LineString","coordinates":[[14.28841,37.55039],[14.28833,37.55034],[14.2883,37.55025]]},"properties":{}},{"type":"Feature","geometry":{"type":"LineString","coordinates":[[14.2883,37.55025],[14.28834,37.55019],[14.28841,37.55015]]},"properties":{}},{"type":"Feature","geometry":{"type":"LineString","coordinates":[[14.28841,37.55015],[14.28856,37.55018]]},"properties":{}},{"type":"Feature","geometry":{"type":"LineString","coordinates":[[14.28884,37.55129],[14.28863,37.55056],[14.28846,37.55039],[14.28841,37.55039]]},"properties":{}},{"type":"Feature","geometry":{"type":"LineString","coordinates":[[14.28856,37.55018],[14.28864,37.55034],[14.28879,37.55088],[14.28884,37.55129]]},"properties":{}},{"type":"Feature","geometry":{"type":"LineString","coordinates":[[14.289,37.55234],[14.28893,37.55174],[14.28884,37.55129]]},"properties":{}},{"type":"Feature","geometry":{"type":"LineString","coordinates":[[14.289,37.55234],[14.28966,37.55221],[14.2905,37.55187],[14.29045,37.55174],[14.2917,37.55137],[14.29153,37.55084],[14.2913,37.5505],[14.29123,37.5503],[14.29108,37.55003],[14.29005,37.55056],[14.28918,37.55121],[14.28884,37.55129]]},"properties":{}},{"type":"Feature","geometry":{"type":"LineString","coordinates":[[14.28898,37.57777],[14.28909,37.57809],[14.28922,37.57815]]},"properties":{}},{"type":"Feature","geometry":{"type":"LineString","coordinates":[[14.28922,37.57815],[14.28897,37.57814],[14.2889,37.57811],[14.28882,37.57803],[14.28898,37.57777]]},"properties":{}},{"type":"Feature","geometry":{"type":"LineString","coordinates":[[14.28898,37.57777],[14.28909,37.57759],[14.28924,37.57742],[14.28979,37.57685],[14.28996,37.57672],[14.29103,37.57634],[14.29283,37.57533],[14.29306,37.57524],[14.29337,37.5752],[14.29369,37.57511],[14.29445,37.57474],[14.29461,37.57473],[14.29538,37.57483],[14.29559,37.57481],[14.2958,37.57473],[14.29606,37.57454],[14.29707,37.57356],[14.29774,37.57316],[14.29785,37.57297],[14.2979,37.57263],[14.29795,37.57252],[14.29875,37.57159],[14.29891,37.57152],[14.30004,37.57122],[14.30091,37.57075],[14.30124,37.57069],[14.30166,37.5707],[14.3019,37.57066],[14.30217,37.57051],[14.30231,37.57034],[14.30237,37.5702],[14.30239,37.56995],[14.30203,37.56907],[14.30181,37.56874],[14.30107,37.56787],[14.30074,37.56762],[14.30055,37.56751],[14.29957,37.56709],[14.29943,37.56697],[14.29908,37.56652],[14.29857,37.56622],[14.29852,37.56616],[14.29843,37.56592],[14.29845,37.56575],[14.29853,37.56552],[14.29854,37.56535],[14.29844,37.56495],[14.29832,37.56463],[14.29771,37.56372]]},"properties":{}},{"type":"Feature","geometry":{"type":"LineString","coordinates":[[14.29013,37.55842],[14.28964,37.55821],[14.28911,37.55792],[14.28885,37.55769],[14.28866,37.55739],[14.28896,37.5538],[14.28901,37.55263],[14.289,37.55234]]},"properties":{}},{"type":"Feature","geometry":{"type":"LineString","coordinates":[[14.28922,37.57815],[14.29007,37.57818],[14.29049,37.57815],[14.29254,37.57782],[14.29375,37.57772],[14.29455,37.57769],[14.29647,37.57777],[14.29707,37.57776],[14.29766,37.57769],[14.29853,37.57747]]},"properties":{}},{"type":"Feature","geometry":{"type":"LineString","coordinates":[[14.29028,37.55849],[14.29013,37.55842]]},"properties":{}},{"type":"Feature","geometry":{"type":"LineString","coordinates":[[14.29021,37.55835],[14.29013,37.55842]]},"properties":{}},{"type":"Feature","geometry":{"type":"LineString","coordinates":[[14.29021,37.55835],[14.29028,37.55849]]},"properties":{}},{"type":"Feature","geometry":{"type":"LineString","coordinates":[[14.29824,37.54943],[14.29803,37.54932],[14.29781,37.54936],[14.29645,37.5504],[14.29582,37.55099],[14.29497,37.55138],[14.29473,37.55153],[14.29462,37.55165],[14.29455,37.5519],[14.29455,37.55203],[14.29463,37.5522],[14.29488,37.55236],[14.29558,37.55266],[14.29637,37.55306],[14.29649,37.55315],[14.29652,37.5533],[14.29641,37.5535],[14.29628,37.55356],[14.29443,37.55371],[14.29418,37.55383],[14.29399,37.55403],[14.29392,37.55421],[14.29383,37.5546],[14.29348,37.5567],[14.29355,37.55676],[14.29354,37.5569],[14.29335,37.55796],[14.29311,37.55832],[14.2929,37.55849],[14.29277,37.55855],[14.29259,37.55861],[14.29225,37.55865],[14.29118,37.55854],[14.29106,37.55846],[14.29073,37.55813],[14.29053,37.55806],[14.2904,37.55807],[14.29027,37.55814],[14.29021,37.5582],[14.29021,37.55835]]},"properties":{}},{"type":"Feature","geometry":{"type":"LineString","coordinates":[[14.29449,37.56049],[14.29178,37.55929],[14.29084,37.55874],[14.29028,37.55849]]},"properties":{}},{"type":"Feature","geometry":{"type":"LineString","coordinates":[[14.29449,37.56049],[14.29465,37.5605],[14.29479,37.56043]]},"properties":{}},{"type":"Feature","geometry":{"type":"LineString","coordinates":[[14.29454,37.56076],[14.29455,37.56058],[14.29449,37.56049]]},"properties":{}},{"type":"Feature","geometry":{"type":"LineString","coordinates":[[14.29532,37.56132],[14.29453,37.56101],[14.29446,37.56091],[14.29454,37.56076]]},"properties":{}},{"type":"Feature","geometry":{"type":"LineString","coordinates":[[14.29454,37.56076],[14.29479,37.56043]]},"properties":{}},{"type":"Feature","geometry":{"type":"LineString","coordinates":[[14.29512,37.55747],[14.29498,37.55752],[14.29484,37.55748],[14.29477,37.55738],[14.29477,37.55733]]},"properties":{}},{"type":"Feature","geometry":{"type":"LineString","coordinates":[[14.29489,37.55888],[14.29466,37.55808],[14.29467,37.55767],[14.29477,37.55733]]},"properties":{}},{"type":"Feature","geometry":{"type":"LineString","coordinates":[[14.29477,37.55733],[14.29487,37.5571],[14.29747,37.55412],[14.29765,37.55366],[14.29767,37.55352],[14.29768,37.55337],[14.2976,37.55319],[14.29757,37.55291]]},"properties":{}},{"type":"Feature","geometry":{"type":"LineString","coordinates":[[14.29623,37.56149],[14.29607,37.56122],[14.29593,37.56112],[14.2948,37.56062],[14.29475,37.56053],[14.29479,37.56043]]},"properties":{}},{"type":"Feature","geometry":{"type":"LineString","coordinates":[[14.29479,37.56043],[14.29488,37.56031]]},"properties":{}},{"type":"Feature","geometry":{"type":"LineString","coordinates":[[14.29488,37.56031],[14.29502,37.5601]]},"properties":{}},{"type":"Feature","geometry":{"type":"LineString","coordinates":[[14.29488,37.56031],[14.29497,37.56029],[14.2951,37.56032]]},"properties":{}},{"type":"Feature","geometry":{"type":"LineString","coordinates":[[14.29502,37.5601],[14.29512,37.55995],[14.29515,37.55982],[14.29489,37.55888]]},"properties":{}},{"type":"Feature","geometry":{"type":"LineString","coordinates":[[14.29512,37.55747],[14.29482,37.55777],[14.29473,37.55798],[14.29489,37.55888]]},"properties":{}},{"type":"Feature","geometry":{"type":"LineString","coordinates":[[14.29502,37.5601],[14.29498,37.56023],[14.2951,37.56032]]},"properties":{}},{"type":"Feature","geometry":{"type":"LineString","coordinates":[[14.2951,37.56032],[14.29617,37.56081],[14.29642,37.56099],[14.29666,37.5613],[14.29669,37.5614],[14.29666,37.5615],[14.29652,37.56166]]},"properties":{}},{"type":"Feature","geometry":{"type":"LineString","coordinates":[[14.29885,37.55366],[14.29875,37.55376],[14.29732,37.55442],[14.29534,37.55663],[14.29525,37.55681],[14.29517,37.55735],[14.29512,37.55747]]},"properties":{}},{"type":"Feature","geometry":{"type":"LineString","coordinates":[[14.29525,37.56162],[14.29544,37.56151],[14.29546,37.56146],[14.29544,37.5614],[14.29532,37.56132]]},"properties":{}},{"type":"Feature","geometry":{"type":"LineString","coordinates":[[14.29585,37.56145],[14.29572,37.56147],[14.29542,37.56161],[14.29525,37.56162]]},"properties":{}},{"type":"Feature","geometry":{"type":"LineString","coordinates":[[14.29585,37.56145],[14.29569,37.56143],[14.29532,37.56132]]},"properties":{}},{"type":"Feature","geometry":{"type":"LineString","coordinates":[[14.29623,37.56149],[14.29585,37.56145]]},"properties":{}},{"type":"Feature","geometry":{"type":"LineString","coordinates":[[14.29634,37.56165],[14.29623,37.56149]]},"properties":{}},{"type":"Feature","geometry":{"type":"LineString","coordinates":[[14.29652,37.56166],[14.29644,37.56168],[14.29634,37.56165]]},"properties":{}},{"type":"Feature","geometry":{"type":"LineString","coordinates":[[14.29648,37.56188],[14.29634,37.56165]]},"properties":{}},{"type":"Feature","geometry":{"type":"LineString","coordinates":[[14.29743,37.5633],[14.29648,37.56188]]},"properties":{}},{"type":"Feature","geometry":{"type":"LineString","coordinates":[[14.29652,37.56166],[14.29648,37.56188]]},"properties":{}},{"type":"Feature","geometry":{"type":"LineString","coordinates":[[14.29771,37.56372],[14.29743,37.5633]]},"properties":{}},{"type":"Feature","geometry":{"type":"LineString","coordinates":[[14.29743,37.5633],[14.29733,37.56349],[14.29747,37.5637],[14.29771,37.56372]]},"properties":{}},{"type":"Feature","geometry":{"type":"LineString","coordinates":[[14.2975,37.55249],[14.29759,37.55259]]},"properties":{}},{"type":"Feature","geometry":{"type":"LineString","coordinates":[[14.2976,37.5528],[14.29758,37.55263],[14.2975,37.55249]]},"properties":{}},{"type":"Feature","geometry":{"type":"LineString","coordinates":[[14.2975,37.55249],[14.29728,37.55209],[14.29712,37.55171],[14.29705,37.5515],[14.29701,37.55124],[14.29704,37.55097],[14.29714,37.55073],[14.29726,37.55056],[14.2975,37.55034],[14.29776,37.55019],[14.298,37.55011],[14.2984,37.55003],[14.30075,37.5501]]},"properties":{}},{"type":"Feature","geometry":{"type":"LineString","coordinates":[[14.29757,37.55291],[14.29757,37.55289]]},"properties":{}},{"type":"Feature","geometry":{"type":"LineString","coordinates":[[14.29757,37.55289],[14.29747,37.55279],[14.29735,37.55241],[14.29727,37.55227],[14.29644,37.55168],[14.29636,37.55156],[14.29634,37.55135],[14.29639,37.5512],[14.29755,37.55008],[14.29817,37.5498],[14.29825,37.54971],[14.29826,37.54946]]},"properties":{}},{"type":"Feature","geometry":{"type":"LineString","coordinates":[[14.29757,37.55289],[14.2976,37.5528]]},"properties":{}},{"type":"Feature","geometry":{"type":"LineString","coordinates":[[14.29785,37.55279],[14.29789,37.5529],[14.29781,37.55299],[14.29765,37.55299],[14.29757,37.55291]]},"properties":{}},{"type":"Feature","geometry":{"type":"LineString","coordinates":[[14.29759,37.55259],[14.29765,37.55266],[14.29782,37.55277]]},"properties":{}},{"type":"Feature","geometry":{"type":"LineString","coordinates":[[14.29887,37.55349],[14.29893,37.55348],[14.29913,37.5533],[14.29941,37.55313],[14.29983,37.55281],[14.29998,37.55259],[14.29993,37.55248],[14.29815,37.55174],[14.29805,37.55172],[14.29792,37.55179],[14.29768,37.55212],[14.2976,37.55235],[14.29759,37.55259]]},"properties":{}},{"type":"Feature","geometry":{"type":"LineString","coordinates":[[14.2976,37.5528],[14.2977,37.55275],[14.29782,37.55277]]},"properties":{}},{"type":"Feature","geometry":{"type":"LineString","coordinates":[[14.29782,37.55277],[14.29785,37.55279]]},"properties":{}},{"type":"Feature","geometry":{"type":"LineString","coordinates":[[14.29783,37.57858],[14.29888,37.5786],[14.29945,37.57857],[14.30023,37.57848],[14.30104,37.57831]]},"properties":{}},{"type":"Feature","geometry":{"type":"LineString","coordinates":[[14.29783,37.57858],[14.29888,37.57852],[14.29922,37.57846],[14.29955,37.57832],[14.2997,37.57821],[14.29978,37.5781],[14.29983,37.57787],[14.29979,37.57775],[14.29959,37.57757],[14.29942,37.57749],[14.29919,37.57744],[14.29875,37.57742]]},"properties":{}},{"type":"Feature","geometry":{"type":"LineString","coordinates":[[14.29785,37.55279],[14.29846,37.55302],[14.29861,37.55311],[14.29875,37.55324],[14.29887,37.55349]]},"properties":{}},{"type":"Feature","geometry":{"type":"LineString","coordinates":[[14.29826,37.54946],[14.29824,37.54943]]},"properties":{}},{"type":"Feature","geometry":{"type":"LineString","coordinates":[[14.29824,37.54943],[14.29829,37.54935],[14.29852,37.54931]]},"properties":{}},{"type":"Feature","geometry":{"type":"LineString","coordinates":[[14.29852,37.54931],[14.29836,37.54947],[14.29826,37.54946]]},"properties":{}},{"type":"Feature","geometry":{"type":"LineString","coordinates":[[14.29852,37.54931],[14.29896,37.54911],[14.29954,37.54911],[14.29984,37.54889],[14.2999,37.54879],[14.29983,37.54866],[14.29923,37.5481],[14.29957,37.54751],[14.3006,37.54648],[14.30203,37.54654],[14.30212,37.54658],[14.30213,37.5467]]},"properties":{}},{"type":"Feature","geometry":{"type":"LineString","coordinates":[[14.29853,37.57747],[14.29906,37.57734],[14.29933,37.57732],[14.29974,37.57736],[14.29994,37.5774],[14.3009,37.5779],[14.30123,37.57798],[14.30157,37.57798],[14.3019,37.57792],[14.30237,37.57773],[14.30328,37.57729],[14.30455,37.57675]]},"properties":{}},{"type":"Feature","geometry":{"type":"LineString","coordinates":[[14.29875,37.57742],[14.29853,37.57747]]},"properties":{}},{"type":"Feature","geometry":{"type":"LineString","coordinates":[[14.30104,37.57831],[14.30032,37.5778],[14.29986,37.57754],[14.29934,37.57741],[14.29906,37.5774],[14.29875,37.57742]]},"properties":{}},{"type":"Feature","geometry":{"type":"LineString","coordinates":[[14.30078,37.57938],[14.30025,37.57903],[14.2999,37.57888],[14.2996,37.57883],[14.29881,37.5788]]},"properties":{}},{"type":"Feature","geometry":{"type":"LineString","coordinates":[[14.30123,37.57844],[14.29997,37.5787],[14.29939,37.57877],[14.29881,37.5788]]},"properties":{}},{"type":"Feature","geometry":{"type":"LineString","coordinates":[[14.29887,37.55356],[14.29942,37.55376],[14.30073,37.55374],[14.30074,37.55406],[14.29986,37.55407],[14.29885,37.55366]]},"properties":{}},{"type":"Feature","geometry":{"type":"LineString","coordinates":[[14.29887,37.55356],[14.29885,37.55366]]},"properties":{}},{"type":"Feature","geometry":{"type":"LineString","coordinates":[[14.29887,37.55349],[14.29887,37.55356]]},"properties":{}},{"type":"Feature","geometry":{"type":"LineString","coordinates":[[14.30411,37.54755],[14.30439,37.54683],[14.30447,37.54631],[14.30445,37.54583],[14.30427,37.54522],[14.30392,37.5446],[14.30278,37.54304],[14.30191,37.54177],[14.30119,37.54087],[14.30093,37.54039],[14.30069,37.53985],[14.30058,37.53944],[14.30049,37.53904],[14.30047,37.5387],[14.30045,37.53582],[14.3004,37.53534],[14.3003,37.53482],[14.30013,37.53438],[14.29989,37.53395],[14.29956,37.53349],[14.29887,37.53263],[14.29869,37.53213],[14.29869,37.53171],[14.29912,37.52979]]},"properties":{}},{"type":"Feature","geometry":{"type":"LineString","coordinates":[[14.29912,37.52979],[14.29893,37.52944],[14.29893,37.52934],[14.29885,37.52915],[14.29855,37.52862],[14.29849,37.52841],[14.29846,37.52788],[14.29854,37.5273],[14.29853,37.52694],[14.2986,37.52691],[14.29865,37.52683],[14.29894,37.5258],[14.29904,37.52565],[14.30003,37.52479],[14.30083,37.52446]]},"properties":{}},{"type":"Feature","geometry":{"type":"LineString","coordinates":[[14.29912,37.52979],[14.30004,37.52577],[14.30016,37.52542],[14.30035,37.52505],[14.30053,37.52479],[14.30083,37.52446]]},"properties":{}},{"type":"Feature","geometry":{"type":"LineString","coordinates":[[14.30075,37.5501],[14.3015,37.55008],[14.30201,37.55],[14.3023,37.54991],[14.30267,37.54973],[14.30305,37.54947],[14.30345,37.54901],[14.30362,37.54868],[14.30366,37.54828],[14.30362,37.548],[14.30359,37.54794],[14.3036,37.54787],[14.30368,37.5478],[14.30392,37.54774],[14.30411,37.54755]]},"properties":{}},{"type":"Feature","geometry":{"type":"LineString","coordinates":[[14.30411,37.54755],[14.30391,37.54797],[14.30376,37.54841],[14.30386,37.5495],[14.30378,37.54964],[14.3037,37.5497],[14.30329,37.54987],[14.30149,37.55023],[14.30126,37.55024],[14.30075,37.5501]]},"properties":{}},{"type":"Feature","geometry":{"type":"LineString","coordinates":[[14.30078,37.57938],[14.30097,37.57948],[14.30126,37.5795],[14.30154,37.57941],[14.30168,37.57927],[14.30174,37.57909],[14.3017,37.57891],[14.30149,37.57865],[14.30129,37.57849]]},"properties":{}},{"type":"Feature","geometry":{"type":"LineString","coordinates":[[14.30129,37.57849],[14.30097,37.57863],[14.3008,37.57875],[14.30071,37.57885],[14.30066,37.57898],[14.30065,37.5791],[14.3007,37.57927],[14.30078,37.57938]]},"properties":{}},{"type":"Feature","geometry":{"type":"LineString","coordinates":[[14.30083,37.52446],[14.30133,37.52403],[14.30179,37.52375],[14.30221,37.52356],[14.30277,37.52338],[14.30425,37.52316],[14.30731,37.52279],[14.30761,37.52279],[14.30993,37.52329],[14.31162,37.52354],[14.31204,37.52355],[14.3131,37.52343],[14.31391,37.52345],[14.3143,37.52305],[14.31471,37.52249]]},"properties":{}},{"type":"Feature","geometry":{"type":"LineString","coordinates":[[14.30123,37.57844],[14.30104,37.57831]]},"properties":{}},{"type":"Feature","geometry":{"type":"LineString","coordinates":[[14.30104,37.57831],[14.30174,37.5781],[14.30256,37.57778],[14.30455,37.57675]]},"properties":{}},{"type":"Feature","geometry":{"type":"LineString","coordinates":[[14.30129,37.57849],[14.30123,37.57844]]},"properties":{}},{"type":"Feature","geometry":{"type":"LineString","coordinates":[[14.30171,37.57831],[14.30123,37.57844]]},"properties":{}},{"type":"Feature","geometry":{"type":"LineString","coordinates":[[14.30171,37.57831],[14.30129,37.57849]]},"properties":{}},{"type":"Feature","geometry":{"type":"LineString","coordinates":[[14.5,37.56273],[14.49795,37.56365],[14.49647,37.56443],[14.49554,37.56496],[14.49218,37.56724],[14.48942,37.5692],[14.48883,37.56958],[14.48793,37.57004],[14.48743,37.57025],[14.48627,37.57064],[14.48573,37.57076],[14.48447,37.57096],[14.48372,37.57101],[14.48311,37.57101],[14.47149,37.57044],[14.46962,37.57045],[14.46823,37.57057],[14.46627,37.57089],[14.46296,37.57175],[14.46165,37.57205],[14.44776,37.57413],[14.44707,37.57426],[14.44555,37.57462],[14.4393,37.5763],[14.43761,37.57669],[14.43703,37.57679],[14.43581,37.57693],[14.4346,37.57699],[14.43385,37.57699],[14.43316,37.57696],[14.43186,37.57684],[14.42872,37.57629],[14.42688,37.57582],[14.42564,37.5754],[14.42495,37.57511],[14.42348,37.57435],[14.41312,37.56856],[14.41226,37.56814],[14.41105,37.5677],[14.40923,37.56723],[14.38092,37.56089],[14.37998,37.56074],[14.37922,37.56066],[14.37831,37.56065],[14.37768,37.5607],[14.37673,37.56084],[14.37589,37.56104],[14.37434,37.56155],[14.36285,37.56566],[14.36172,37.5661],[14.36084,37.5665],[14.36011,37.56691],[14.35929,37.56743],[14.3588,37.56784],[14.35036,37.5755],[14.34997,37.57581],[14.34921,37.57633],[14.34801,37.57695],[14.347,37.57732],[14.34601,37.57758],[14.34548,37.57769],[14.34484,37.57777],[14.34341,37.57783],[14.3287,37.57755],[14.32726,37.5775],[14.32623,37.5774],[14.32453,37.5771],[14.31299,37.57471],[14.31207,37.57456],[14.3111,37.57452],[14.31035,37.57456],[14.30952,37.57468],[14.30867,37.57491],[14.30799,37.57516],[14.30707,37.57561],[14.30277,37.57789],[14.30171,37.57831]]},"properties":{}},{"type":"Feature","geometry":{"type":"LineString","coordinates":[[14.30213,37.5467],[14.30214,37.54689],[14.30241,37.54696],[14.30248,37.54694],[14.30248,37.54689],[14.30237,37.54672],[14.30231,37.54669],[14.30213,37.5467]]},"properties":{}},{"type":"Feature","geometry":{"type":"LineString","coordinates":[[14.30455,37.57675],[14.30697,37.57543],[14.30785,37.57501],[14.30836,37.57481],[14.3092,37.57456],[14.3099,37.57443],[14.31068,37.57435],[14.31147,37.57434],[14.31223,37.5744],[14.31304,37.57453],[14.3246,37.57693],[14.32623,37.57722],[14.32685,37.57729],[14.32871,37.57738],[14.34342,37.57764],[14.34454,37.5776],[14.34596,37.57738],[14.34691,37.57712],[14.34801,37.57671],[14.34902,37.57619],[14.34978,37.57568],[14.35073,37.57488],[14.35864,37.56771],[14.35918,37.56729],[14.35998,37.56676],[14.36073,37.56636],[14.3616,37.56593],[14.36272,37.56551],[14.37427,37.56138],[14.37582,37.56086],[14.37633,37.56073],[14.37765,37.56052],[14.37878,37.56047],[14.37965,37.56051],[14.38034,37.56059],[14.38152,37.56082],[14.38895,37.56253],[14.39904,37.56475],[14.40672,37.56649],[14.41103,37.5675],[14.4124,37.56799],[14.41327,37.56842],[14.41457,37.56912],[14.4236,37.5742],[14.42451,37.57467],[14.42574,37.57523],[14.42697,37.57565],[14.42814,37.57596],[14.42942,37.57624],[14.43191,37.57668],[14.43278,37.57675],[14.43421,37.57682],[14.43579,37.57675],[14.43759,37.57651],[14.43923,37.57613],[14.44551,37.57444],[14.44773,37.57394],[14.45733,37.57251],[14.46172,37.57183],[14.4629,37.57158],[14.46512,37.57099],[14.46628,37.57071],[14.46715,37.57054],[14.46822,37.57039],[14.46963,37.57026],[14.47139,37.57025],[14.48313,37.57083],[14.48369,37.57083],[14.48444,37.57078],[14.4857,37.57059],[14.48654,37.57038],[14.48736,37.57009],[14.48786,37.56987],[14.48864,37.56947],[14.48928,37.56907],[14.49391,37.56578],[14.4967,37.56406],[14.49816,37.56335],[14.5,37.56253]]},"properties":{}},{"type":"Feature","geometry":{"type":"LineString","coordinates":[[14.31471,37.52249],[14.31513,37.52173],[14.31541,37.52189],[14.31483,37.5225],[14.31471,37.52249]]},"properties":{}}]}