{"type":"FeatureCollection","features":[{"type":"Feature","geometry":{"type":"LineString","coordinates":[[14.09411,41.5],[14.09628,41.50077],[14.09918,41.50189],[14.09977,41.50216],[14.10848,41.50664],[14.10989,41.50732],[14.11064,41.50779],[14.11126,41.5081],[14.11194,41.50832],[14.11252,41.50856],[14.11314,41.50895],[14.11364,41.50938],[14.11429,41.51004],[14.11447,41.51013],[14.11556,41.51125],[14.11634,41.51192],[14.11676,41.51223],[14.12099,41.51471],[14.12261,41.51561],[14.12487,41.51683],[14.12582,41.51724],[14.12604,41.51741],[14.12615,41.51757],[14.12626,41.51758],[14.12646,41.51754],[14.12679,41.51754],[14.1281,41.51784],[14.12945,41.51797],[14.13781,41.51817],[14.13895,41.51826],[14.13955,41.51837],[14.14025,41.51854],[14.1414,41.51894],[14.14216,41.51929],[14.14352,41.52013],[14.14481,41.52101],[14.14515,41.52133],[14.14901,41.52572],[14.15056,41.52754],[14.1535,41.53089],[14.15399,41.53153],[14.15608,41.53477],[14.15649,41.53556],[14.15664,41.53598],[14.15855,41.54225],[14.15937,41.54516],[14.1597,41.54621],[14.15984,41.54659],[14.16053,41.54808],[14.1614,41.5501],[14.16163,41.55052],[14.1619,41.55091],[14.16234,41.55141],[14.1629,41.55185],[14.16948,41.55684],[14.1704,41.55745],[14.17318,41.55895],[14.17401,41.55936],[14.175,41.55968],[14.17632,41.55994],[14.17683,41.56007],[14.17996,41.56115],[14.1807,41.56136],[14.19551,41.5646],[14.20107,41.56588],[14.20351,41.56647],[14.20414,41.56669],[14.20483,41.567],[14.20597,41.56769],[14.20666,41.56825],[14.20722,41.56885],[14.20841,41.57046],[14.21208,41.57571],[14.21244,41.57617],[14.21299,41.57662],[14.2136,41.57702],[14.21475,41.57763],[14.21528,41.57784],[14.2162,41.57812],[14.22474,41.58007],[14.22821,41.58082],[14.22878,41.58097],[14.22963,41.58129],[14.2308,41.58183],[14.23181,41.58246],[14.233,41.58339],[14.23579,41.586],[14.23985,41.58973],[14.24041,41.59021],[14.24096,41.59056],[14.24183,41.59102],[14.24242,41.59125],[14.24401,41.59172],[14.24737,41.59261],[14.24915,41.59324],[14.25005,41.59366],[14.25129,41.59444],[14.25174,41.59485],[14.25295,41.59606],[14.25307,41.59639],[14.25298,41.59651],[14.25275,41.5966],[14.25183,41.5968],[14.25138,41.59697],[14.25115,41.59694],[14.25107,41.59697],[14.25087,41.59713],[14.25062,41.59716],[14.25056,41.5972],[14.25054,41.59725],[14.25057,41.59734],[14.2505,41.59743]]},"properties":{}},{"type":"Feature","geometry":{"type":"LineString","coordinates":[[14.23033,41.59481],[14.22985,41.5944],[14.22945,41.59448],[14.2293,41.59448],[14.229,41.5944],[14.22889,41.59429],[14.22881,41.59417],[14.22882,41.59395],[14.22897,41.59314],[14.22897,41.593],[14.22893,41.59292],[14.22829,41.59236],[14.22749,41.59231],[14.22738,41.59226],[14.22731,41.5922],[14.22707,41.5917],[14.22608,41.59065],[14.22569,41.58951],[14.22559,41.58934],[14.22551,41.58921],[14.22457,41.58809],[14.22452,41.5879],[14.22442,41.58699],[14.22423,41.58635],[14.22413,41.58607],[14.22382,41.58567],[14.22366,41.58552]]},"properties":{}},{"type":"Feature","geometry":{"type":"LineString","coordinates":[[14.22366,41.58552],[14.22204,41.58568],[14.22142,41.58537],[14.22119,41.58533],[14.22082,41.58533],[14.22016,41.58541],[14.21987,41.58548],[14.2191,41.58581],[14.21886,41.58587],[14.2186,41.58588],[14.21776,41.5856],[14.21736,41.58558],[14.21668,41.58565],[14.21652,41.5857],[14.21539,41.58627],[14.21526,41.58632],[14.21498,41.58632],[14.2148,41.58624],[14.21474,41.58617],[14.21459,41.58528],[14.2146,41.58507],[14.21464,41.5849],[14.21493,41.58435],[14.21492,41.58425],[14.21482,41.58411],[14.21434,41.58394],[14.21414,41.58376],[14.21394,41.58342],[14.21354,41.58298],[14.21346,41.58273],[14.21346,41.58246],[14.21349,41.58232],[14.21374,41.58182],[14.21383,41.58146],[14.2139,41.58138],[14.21412,41.58127],[14.21435,41.58126],[14.21447,41.5813],[14.21464,41.58144],[14.21469,41.5816],[14.21481,41.58171],[14.21508,41.58178],[14.21621,41.58179],[14.21651,41.58173],[14.21672,41.58163],[14.21697,41.58142],[14.2171,41.58117],[14.21712,41.58046],[14.21717,41.58039],[14.21727,41.58042],[14.21854,41.5813],[14.2187,41.58142],[14.21895,41.58171],[14.21915,41.58188],[14.21969,41.58222],[14.22133,41.58308],[14.22238,41.58348],[14.22272,41.58363],[14.22298,41.58384],[14.22368,41.58472]]},"properties":{}},{"type":"Feature","geometry":{"type":"LineString","coordinates":[[14.22366,41.58552],[14.22358,41.58531],[14.22362,41.58489],[14.22368,41.58472]]},"properties":{}},{"type":"Feature","geometry":{"type":"LineString","coordinates":[[14.22368,41.58472],[14.22423,41.58483],[14.22454,41.58503],[14.22548,41.58596],[14.2257,41.58612],[14.22656,41.58791],[14.22686,41.5887],[14.22692,41.58879],[14.22726,41.58908],[14.22857,41.59037],[14.22939,41.59101],[14.22973,41.59166],[14.22967,41.59189],[14.23056,41.59259],[14.23067,41.59264],[14.23037,41.59331],[14.23164,41.5939]]},"properties":{}},{"type":"Feature","geometry":{"type":"LineString","coordinates":[[14.23297,41.597],[14.23033,41.59481]]},"properties":{}},{"type":"Feature","geometry":{"type":"LineString","coordinates":[[14.23101,41.59434],[14.23033,41.59481]]},"properties":{}},{"type":"Feature","geometry":{"type":"LineString","coordinates":[[14.23101,41.59434],[14.23369,41.59647]]},"properties":{}},{"type":"Feature","geometry":{"type":"LineString","coordinates":[[14.23164,41.5939],[14.23101,41.59434]]},"properties":{}},{"type":"Feature","geometry":{"type":"LineString","coordinates":[[14.23164,41.5939],[14.2335,41.59454],[14.23532,41.59511]]},"properties":{}},{"type":"Feature","geometry":{"type":"LineString","coordinates":[[14.23412,41.59788],[14.23297,41.597]]},"properties":{}},{"type":"Feature","geometry":{"type":"LineString","coordinates":[[14.23297,41.597],[14.23369,41.59647]]},"properties":{}},{"type":"Feature","geometry":{"type":"LineString","coordinates":[[14.23369,41.59647],[14.23457,41.59716]]},"properties":{}},{"type":"Feature","geometry":{"type":"LineString","coordinates":[[14.23388,41.60928],[14.23394,41.6095],[14.23403,41.60959]]},"properties":{}},{"type":"Feature","geometry":{"type":"LineString","coordinates":[[14.23403,41.60959],[14.23393,41.60957],[14.23377,41.60947],[14.23388,41.60928]]},"properties":{}},{"type":"Feature","geometry":{"type":"LineString","coordinates":[[14.23395,41.60918],[14.23388,41.60928]]},"properties":{}},{"type":"Feature","geometry":{"type":"LineString","coordinates":[[14.23395,41.60918],[14.23405,41.60903],[14.23404,41.60897]]},"properties":{}},{"type":"Feature","geometry":{"type":"LineString","coordinates":[[14.23443,41.60888],[14.23395,41.60918]]},"properties":{}},{"type":"Feature","geometry":{"type":"LineString","coordinates":[[14.23403,41.60959],[14.23462,41.6099],[14.2353,41.61033],[14.23585,41.61089],[14.23598,41.61115],[14.23598,41.6114],[14.23602,41.61147],[14.2361,41.61151],[14.2362,41.61153],[14.23632,41.6115],[14.23639,41.61143],[14.2366,41.61117],[14.23684,41.61064],[14.23701,41.61061],[14.23773,41.61071]]},"properties":{}},{"type":"Feature","geometry":{"type":"LineString","coordinates":[[14.23728,41.607],[14.23697,41.6067],[14.23676,41.60655],[14.23543,41.60587],[14.23529,41.6062],[14.23513,41.60637],[14.23438,41.60691],[14.23414,41.60704],[14.23375,41.60716],[14.23338,41.60725],[14.23303,41.60727],[14.23309,41.60762],[14.23315,41.60775],[14.2335,41.60796],[14.23356,41.60804],[14.23379,41.60855],[14.23404,41.60897]]},"properties":{}},{"type":"Feature","geometry":{"type":"LineString","coordinates":[[14.23404,41.60897],[14.23409,41.60893],[14.23443,41.60888]]},"properties":{}},{"type":"Feature","geometry":{"type":"LineString","coordinates":[[14.23965,41.60281],[14.23962,41.60269],[14.23949,41.60245],[14.23842,41.60136],[14.23412,41.59788]]},"properties":{}},{"type":"Feature","geometry":{"type":"LineString","coordinates":[[14.23457,41.59716],[14.23483,41.59738],[14.23412,41.59788]]},"properties":{}},{"type":"Feature","geometry":{"type":"LineString","coordinates":[[14.23728,41.607],[14.23624,41.60787],[14.23534,41.60848],[14.23443,41.60888]]},"properties":{}},{"type":"Feature","geometry":{"type":"LineString","coordinates":[[14.23457,41.59716],[14.23491,41.59695],[14.23539,41.59741],[14.23511,41.59761],[14.23828,41.60023],[14.239,41.60095],[14.23985,41.60211],[14.24008,41.60237],[14.24031,41.60252],[14.24053,41.60258]]},"properties":{}},{"type":"Feature","geometry":{"type":"LineString","coordinates":[[14.24112,41.59701],[14.23532,41.59511]]},"properties":{}},{"type":"Feature","geometry":{"type":"LineString","coordinates":[[14.23532,41.59511],[14.23506,41.59561],[14.23686,41.59625],[14.2393,41.59786],[14.23944,41.59793],[14.23947,41.5979],[14.23957,41.59789],[14.23989,41.59799],[14.23992,41.59808],[14.23987,41.59819],[14.23973,41.59842],[14.23967,41.59846],[14.23971,41.59853],[14.24042,41.59905],[14.23997,41.59945],[14.24111,41.60028],[14.24126,41.60036],[14.24161,41.60044],[14.24193,41.60045],[14.24217,41.60041],[14.24239,41.6003],[14.24258,41.60016],[14.24285,41.59977],[14.24287,41.59957],[14.24282,41.59941],[14.24268,41.59919],[14.24235,41.5989],[14.2431,41.59808],[14.24315,41.598],[14.24313,41.59783]]},"properties":{}},{"type":"Feature","geometry":{"type":"LineString","coordinates":[[14.23532,41.59511],[14.23577,41.59431],[14.23691,41.59466],[14.23878,41.59518],[14.24153,41.59611],[14.24158,41.59615],[14.24159,41.59621],[14.24112,41.59701]]},"properties":{}},{"type":"Feature","geometry":{"type":"LineString","coordinates":[[14.23827,41.60633],[14.23728,41.607]]},"properties":{}},{"type":"Feature","geometry":{"type":"LineString","coordinates":[[14.23773,41.61071],[14.23793,41.61077],[14.23828,41.61075],[14.23841,41.61035]]},"properties":{}},{"type":"Feature","geometry":{"type":"LineString","coordinates":[[14.23773,41.61071],[14.23807,41.61067],[14.23821,41.61058],[14.23841,41.61035]]},"properties":{}},{"type":"Feature","geometry":{"type":"LineString","coordinates":[[14.23827,41.60633],[14.23895,41.60589],[14.23975,41.60546]]},"properties":{}},{"type":"Feature","geometry":{"type":"LineString","coordinates":[[14.23943,41.60677],[14.23924,41.60671],[14.23868,41.60631],[14.23854,41.60627],[14.23827,41.60633]]},"properties":{}},{"type":"Feature","geometry":{"type":"LineString","coordinates":[[14.23841,41.61035],[14.23899,41.60857],[14.23943,41.60677]]},"properties":{}},{"type":"Feature","geometry":{"type":"LineString","coordinates":[[14.23943,41.60677],[14.23975,41.60546]]},"properties":{}},{"type":"Feature","geometry":{"type":"LineString","coordinates":[[14.23977,41.60539],[14.23974,41.60491],[14.23978,41.6047],[14.23974,41.60457],[14.23967,41.60449],[14.23968,41.60427],[14.23957,41.60388],[14.23958,41.60344],[14.23965,41.60281]]},"properties":{}},{"type":"Feature","geometry":{"type":"LineString","coordinates":[[14.23965,41.60281],[14.2398,41.6027],[14.23992,41.60265],[14.24053,41.60258]]},"properties":{}},{"type":"Feature","geometry":{"type":"LineString","coordinates":[[14.23975,41.60546],[14.23977,41.60539]]},"properties":{}},{"type":"Feature","geometry":{"type":"LineString","coordinates":[[14.2415,41.60267],[14.24176,41.60298],[14.24175,41.60309],[14.24166,41.60319],[14.24146,41.60325],[14.24116,41.6032],[14.24089,41.60324],[14.24042,41.60337],[14.24027,41.60347],[14.24019,41.60357],[14.24002,41.60428],[14.24004,41.60449],[14.23988,41.60471],[14.23991,41.60494],[14.23977,41.60539]]},"properties":{}},{"type":"Feature","geometry":{"type":"LineString","coordinates":[[14.24053,41.60258],[14.24101,41.60251]]},"properties":{}},{"type":"Feature","geometry":{"type":"LineString","coordinates":[[14.24101,41.60251],[14.24163,41.60222]]},"properties":{}},{"type":"Feature","geometry":{"type":"LineString","coordinates":[[14.24101,41.60251],[14.24121,41.60251],[14.24133,41.60254],[14.2415,41.60267]]},"properties":{}},{"type":"Feature","geometry":{"type":"LineString","coordinates":[[14.24112,41.59701],[14.24298,41.59762]]},"properties":{}},{"type":"Feature","geometry":{"type":"LineString","coordinates":[[14.24163,41.60222],[14.24149,41.60236],[14.24147,41.60246],[14.2415,41.60267]]},"properties":{}},{"type":"Feature","geometry":{"type":"LineString","coordinates":[[14.24163,41.60222],[14.24224,41.60189]]},"properties":{}},{"type":"Feature","geometry":{"type":"LineString","coordinates":[[14.24224,41.60189],[14.24233,41.60178]]},"properties":{}},{"type":"Feature","geometry":{"type":"LineString","coordinates":[[14.24242,41.60186],[14.24224,41.60189]]},"properties":{}},{"type":"Feature","geometry":{"type":"LineString","coordinates":[[14.24242,41.60186],[14.24233,41.60178]]},"properties":{}},{"type":"Feature","geometry":{"type":"LineString","coordinates":[[14.24233,41.60178],[14.24236,41.60171],[14.24241,41.60168],[14.2427,41.60164]]},"properties":{}},{"type":"Feature","geometry":{"type":"LineString","coordinates":[[14.2427,41.60164],[14.2426,41.60175],[14.24257,41.60184],[14.24242,41.60186]]},"properties":{}},{"type":"Feature","geometry":{"type":"LineString","coordinates":[[14.2427,41.60164],[14.24718,41.5992]]},"properties":{}},{"type":"Feature","geometry":{"type":"LineString","coordinates":[[14.24298,41.59762],[14.24323,41.59766]]},"properties":{}},{"type":"Feature","geometry":{"type":"LineString","coordinates":[[14.24309,41.59776],[14.24298,41.59762]]},"properties":{}},{"type":"Feature","geometry":{"type":"LineString","coordinates":[[14.24313,41.59783],[14.24309,41.59776]]},"properties":{}},{"type":"Feature","geometry":{"type":"LineString","coordinates":[[14.24309,41.59776],[14.24315,41.59768],[14.24323,41.59766]]},"properties":{}},{"type":"Feature","geometry":{"type":"LineString","coordinates":[[14.24357,41.59779],[14.24341,41.5978],[14.24325,41.59786],[14.24313,41.59783]]},"properties":{}},{"type":"Feature","geometry":{"type":"LineString","coordinates":[[14.24323,41.59766],[14.24357,41.59779]]},"properties":{}},{"type":"Feature","geometry":{"type":"LineString","coordinates":[[14.24357,41.59779],[14.24564,41.59821],[14.24632,41.59841],[14.24715,41.59872]]},"properties":{}},{"type":"Feature","geometry":{"type":"LineString","coordinates":[[14.24715,41.59872],[14.24746,41.5988]]},"properties":{}},{"type":"Feature","geometry":{"type":"LineString","coordinates":[[14.24732,41.59892],[14.24725,41.59881],[14.24715,41.59872]]},"properties":{}},{"type":"Feature","geometry":{"type":"LineString","coordinates":[[14.24718,41.5992],[14.24727,41.5991],[14.24732,41.59892]]},"properties":{}},{"type":"Feature","geometry":{"type":"LineString","coordinates":[[14.24768,41.59895],[14.24761,41.59904],[14.24735,41.59911],[14.24718,41.5992]]},"properties":{}},{"type":"Feature","geometry":{"type":"LineString","coordinates":[[14.24732,41.59892],[14.24737,41.59884],[14.24746,41.5988]]},"properties":{}},{"type":"Feature","geometry":{"type":"LineString","coordinates":[[14.24746,41.5988],[14.24752,41.5988]]},"properties":{}},{"type":"Feature","geometry":{"type":"LineString","coordinates":[[14.24752,41.5988],[14.24784,41.5988]]},"properties":{}},{"type":"Feature","geometry":{"type":"LineString","coordinates":[[14.24752,41.5988],[14.24764,41.59885],[14.24768,41.59895]]},"properties":{}},{"type":"Feature","geometry":{"type":"LineString","coordinates":[[14.24784,41.5988],[14.24768,41.59895]]},"properties":{}},{"type":"Feature","geometry":{"type":"LineString","coordinates":[[14.24784,41.5988],[14.24821,41.59867],[14.2505,41.59743]]},"properties":{}},{"type":"Feature","geometry":{"type":"LineString","coordinates":[[14.2505,41.59743],[14.25097,41.5972],[14.25127,41.59718],[14.2514,41.59702],[14.25161,41.59693],[14.25205,41.59682],[14.25243,41.59679],[14.25285,41.59681],[14.25333,41.5969],[14.25357,41.59699],[14.25405,41.59728],[14.25468,41.59788],[14.25495,41.59805],[14.25533,41.59842],[14.25621,41.59931],[14.25709,41.60037],[14.2576,41.6009],[14.25924,41.60228],[14.26086,41.60348],[14.26141,41.60384],[14.26249,41.6044],[14.26323,41.60473],[14.2646,41.60523],[14.2663,41.60564],[14.26729,41.60583],[14.26817,41.60594],[14.26911,41.60599],[14.26997,41.606],[14.27116,41.60594],[14.27519,41.60565],[14.27649,41.60564],[14.27767,41.60571],[14.27892,41.60586],[14.28021,41.60608],[14.28087,41.60623],[14.28306,41.60694],[14.28389,41.60715],[14.28481,41.60732],[14.28619,41.60744],[14.28726,41.60742],[14.28876,41.60725],[14.29007,41.60694],[14.29071,41.60671],[14.29579,41.60469],[14.29645,41.60451],[14.2971,41.60439],[14.29777,41.60432],[14.29847,41.60431],[14.29923,41.60436],[14.30006,41.60454],[14.30115,41.60492],[14.30221,41.60552],[14.30355,41.60646],[14.30535,41.60818],[14.30722,41.61051],[14.31302,41.61855],[14.31332,41.61899],[14.31355,41.61946],[14.31381,41.62037],[14.31384,41.62138],[14.31359,41.62792],[14.31359,41.62846],[14.31365,41.62915],[14.31376,41.62977],[14.31399,41.63053],[14.3143,41.63127],[14.31465,41.632],[14.31524,41.63286],[14.31572,41.63341],[14.31668,41.63435],[14.32552,41.64162],[14.32611,41.64221],[14.32864,41.64529],[14.3307,41.64712],[14.33106,41.64759],[14.33382,41.65214],[14.3342,41.65287],[14.33475,41.65465],[14.33525,41.65551],[14.33582,41.65615],[14.33625,41.65648],[14.33807,41.65757],[14.33922,41.65845],[14.34014,41.65942],[14.34162,41.66111],[14.34414,41.6642],[14.34842,41.66891],[14.34975,41.67032],[14.35023,41.67075],[14.35079,41.67119],[14.35149,41.67163],[14.35215,41.67196],[14.35253,41.67211],[14.35315,41.67232],[14.35399,41.6725],[14.35487,41.67263],[14.35574,41.67269],[14.35751,41.67266],[14.35846,41.67254],[14.36127,41.67205],[14.36242,41.67195],[14.36316,41.67192],[14.36432,41.672],[14.36726,41.67242],[14.36934,41.67254],[14.37082,41.67249],[14.37446,41.67214],[14.37567,41.67209],[14.37886,41.6723],[14.38168,41.67232],[14.38247,41.67239],[14.38356,41.67258],[14.3843,41.67284],[14.38483,41.67311],[14.3874,41.67462],[14.3887,41.67559],[14.39129,41.67734],[14.3946,41.67974],[14.40003,41.6837],[14.40388,41.68663],[14.41033,41.69118],[14.41202,41.69261],[14.41305,41.69367],[14.41359,41.69435],[14.41403,41.69509],[14.41472,41.69634],[14.41494,41.69687],[14.41595,41.7004],[14.41641,41.70247],[14.41688,41.7041],[14.41708,41.70465],[14.41766,41.7059],[14.41799,41.70639],[14.41864,41.70709],[14.42224,41.71025],[14.42307,41.71108],[14.4235,41.71162],[14.42388,41.71227],[14.42415,41.71298],[14.42429,41.7136],[14.42438,41.7151],[14.42448,41.71571],[14.42462,41.71628],[14.42489,41.71689],[14.42538,41.71758],[14.42572,41.71796],[14.42753,41.71945],[14.42822,41.72007],[14.42862,41.7205],[14.42913,41.7213],[14.42946,41.72216],[14.42956,41.72262],[14.42963,41.72367],[14.42953,41.72439],[14.42946,41.72466],[14.42926,41.72612],[14.42924,41.72656],[14.42935,41.727],[14.42952,41.72742],[14.42978,41.72789],[14.43028,41.72855],[14.4306,41.72887],[14.43101,41.72921],[14.43164,41.72962],[14.43242,41.73],[14.43299,41.7302],[14.43415,41.73046],[14.43483,41.73053],[14.43538,41.73054],[14.43603,41.73049],[14.43689,41.73036],[14.43755,41.73018],[14.43847,41.72982],[14.43912,41.72946],[14.44089,41.72826],[14.4417,41.72776],[14.44237,41.72741],[14.44336,41.72702],[14.44396,41.72682],[14.4452,41.72654],[14.44636,41.72639],[14.44761,41.72633],[14.44894,41.72638],[14.45104,41.72661],[14.45325,41.72694],[14.45417,41.72711],[14.4578,41.72783],[14.45963,41.72837],[14.46006,41.72855],[14.46072,41.72889],[14.46132,41.72936],[14.46215,41.73023],[14.46273,41.73106],[14.46442,41.73371],[14.46496,41.73442],[14.46688,41.73646],[14.46795,41.73776],[14.46985,41.74028],[14.47033,41.74085],[14.47086,41.74135],[14.47172,41.7419],[14.47226,41.74216],[14.47301,41.74245],[14.47698,41.74371],[14.47825,41.74414],[14.47887,41.74443],[14.47942,41.74476],[14.48001,41.74524],[14.48034,41.7456],[14.48068,41.74608],[14.48122,41.74702],[14.48145,41.74735],[14.48255,41.74844],[14.4828,41.74879],[14.483,41.74918],[14.48312,41.74966],[14.48312,41.75006],[14.48285,41.75133],[14.48281,41.75173],[14.48283,41.75196],[14.48292,41.75234],[14.48314,41.7528],[14.4834,41.75315],[14.48376,41.75351],[14.48407,41.75376],[14.48482,41.75427],[14.48589,41.75511],[14.48637,41.75557],[14.48659,41.75585],[14.48699,41.75645],[14.48722,41.75691],[14.4874,41.75734],[14.48874,41.76134],[14.4889,41.76172],[14.48927,41.76228],[14.48968,41.76278],[14.48995,41.76321],[14.49019,41.76362],[14.4905,41.76443],[14.49136,41.76924],[14.49159,41.77004],[14.49174,41.77038],[14.49202,41.7709],[14.49253,41.77157],[14.49312,41.77216],[14.49358,41.77253],[14.49411,41.77289],[14.49525,41.77344],[14.49786,41.77455],[14.49832,41.77471],[14.49877,41.77482],[14.49921,41.77487],[14.5,41.77487]]},"properties":{}}]}