{"type":"FeatureCollection","features":[{"type":"Feature","geometry":{"type":"LineString","coordinates":[[14.5,41.08868],[14.50064,41.08849],[14.50098,41.08934]]},"properties":{}},{"type":"Feature","geometry":{"type":"LineString","coordinates":[[14.5,41.08961],[14.50095,41.08941]]},"properties":{}},{"type":"Feature","geometry":{"type":"LineString","coordinates":[[14.5,41.09162],[14.50012,41.09139],[14.50013,41.09106],[14.50008,41.09044],[14.5,41.0901]]},"properties":{}},{"type":"Feature","geometry":{"type":"LineString","coordinates":[[14.50098,41.08934],[14.50095,41.08941]]},"properties":{}},{"type":"Feature","geometry":{"type":"LineString","coordinates":[[14.50095,41.08941],[14.50108,41.08938],[14.50098,41.08934]]},"properties":{}},{"type":"Feature","geometry":{"type":"LineString","coordinates":[[14.76273,41.14559],[14.76194,41.14574],[14.76141,41.14577],[14.76064,41.14564],[14.76008,41.14549],[14.75951,41.1452],[14.75763,41.14363],[14.75738,41.14353],[14.75711,41.14356],[14.75695,41.14367],[14.75687,41.14385],[14.75715,41.14584],[14.75714,41.14603],[14.75711,41.1461],[14.75696,41.14622],[14.75681,41.14628],[14.75563,41.14658],[14.75545,41.14666],[14.75528,41.14683],[14.75508,41.14705],[14.75489,41.14734],[14.75461,41.14785],[14.75413,41.14861],[14.75336,41.15016],[14.75316,41.15034],[14.75306,41.15038],[14.75281,41.15038],[14.75077,41.14974],[14.7506,41.14969],[14.75033,41.1497],[14.75013,41.14985],[14.74946,41.15096],[14.74905,41.15224],[14.74898,41.15238],[14.74891,41.15246],[14.74763,41.15301],[14.7455,41.15373],[14.74505,41.15391],[14.74412,41.15452],[14.74322,41.15485],[14.74287,41.15504],[14.74244,41.15547],[14.74107,41.15654],[14.74071,41.1568],[14.73977,41.15735],[14.7387,41.15788],[14.73698,41.15866],[14.73595,41.1591],[14.73496,41.15946],[14.73473,41.15952],[14.73424,41.15956],[14.73319,41.15947],[14.73269,41.15936],[14.7315,41.15897],[14.73096,41.1589],[14.72999,41.15907],[14.7294,41.15912],[14.72584,41.15928],[14.72563,41.15937],[14.72506,41.15972],[14.72493,41.15977],[14.72468,41.15979],[14.72444,41.15972],[14.7243,41.15959],[14.72427,41.1595],[14.72435,41.15885],[14.72433,41.15869],[14.72426,41.15861],[14.72404,41.15849],[14.7239,41.15848],[14.72365,41.15854],[14.72341,41.15872],[14.72333,41.15889],[14.72294,41.16035],[14.72289,41.16054],[14.72288,41.16077],[14.72327,41.16229],[14.72334,41.1627],[14.72359,41.16322],[14.7236,41.16328],[14.72355,41.1634],[14.7234,41.16347],[14.72331,41.16348],[14.72234,41.16339],[14.72195,41.1633],[14.72183,41.16319],[14.72134,41.16254],[14.72078,41.16168],[14.72064,41.16137],[14.7204,41.16053],[14.72018,41.1605],[14.72002,41.16057],[14.71995,41.16068],[14.72004,41.16185],[14.72025,41.16277],[14.72039,41.16318],[14.72018,41.16322],[14.72011,41.16328]]},"properties":{}},{"type":"Feature","geometry":{"type":"LineString","coordinates":[[14.73249,41.12818],[14.73267,41.12818],[14.73302,41.12799],[14.73319,41.12793],[14.73335,41.12792],[14.73353,41.12799],[14.73368,41.12809],[14.73405,41.12846],[14.73414,41.12852],[14.73433,41.12856],[14.73449,41.1285],[14.73457,41.1284],[14.73462,41.12807],[14.73459,41.12791],[14.73435,41.1275],[14.73435,41.12737],[14.7345,41.12714],[14.73486,41.12673],[14.73494,41.12659],[14.73507,41.12604],[14.73543,41.12564],[14.73664,41.12499],[14.73686,41.1248],[14.73687,41.1247],[14.73685,41.12461],[14.73658,41.12435],[14.73653,41.12427],[14.73653,41.12418],[14.73659,41.12411],[14.73749,41.12348],[14.7376,41.12332],[14.73765,41.12316],[14.73764,41.12299],[14.73758,41.12283],[14.73741,41.12255],[14.73694,41.12204],[14.73654,41.12168],[14.73642,41.12141],[14.73642,41.12133],[14.73654,41.12115],[14.73665,41.1211],[14.73675,41.1211],[14.73706,41.12129],[14.73807,41.12158],[14.7386,41.1217],[14.73875,41.12167],[14.73899,41.12151],[14.73947,41.12092],[14.73955,41.12075],[14.73965,41.12033],[14.73997,41.11955],[14.73992,41.11927],[14.73983,41.11914],[14.7397,41.11901],[14.73877,41.11842],[14.73797,41.11819],[14.73719,41.11791],[14.73657,41.11756],[14.73654,41.11751],[14.73661,41.11734],[14.73669,41.11727],[14.73681,41.11724],[14.7371,41.11726],[14.73797,41.11717],[14.7382,41.11711],[14.7384,41.117],[14.73857,41.11698],[14.73899,41.117],[14.73916,41.11708],[14.73968,41.11741],[14.74071,41.11785],[14.74194,41.11858],[14.7421,41.11864],[14.74224,41.11863],[14.7424,41.11855],[14.74249,41.11844],[14.74253,41.11831],[14.74234,41.11712],[14.74244,41.11631],[14.74308,41.11386],[14.743,41.11364],[14.74285,41.11339],[14.74284,41.11328],[14.74292,41.1131],[14.74305,41.11298],[14.74317,41.11282],[14.74336,41.11219],[14.74348,41.112],[14.74427,41.11127],[14.74452,41.11099],[14.74541,41.10991],[14.74578,41.10969],[14.74784,41.1087],[14.74823,41.10848]]},"properties":{}},{"type":"Feature","geometry":{"type":"LineString","coordinates":[[14.74016,41.09845],[14.74032,41.09889],[14.74108,41.09999],[14.74431,41.10426],[14.74533,41.10534],[14.74815,41.10785],[14.74844,41.10814],[14.74857,41.10831]]},"properties":{}},{"type":"Feature","geometry":{"type":"LineString","coordinates":[[14.74823,41.10848],[14.74833,41.10841],[14.7484,41.10829],[14.74851,41.10827],[14.74857,41.10831]]},"properties":{}},{"type":"Feature","geometry":{"type":"LineString","coordinates":[[14.74879,41.10861],[14.74847,41.10845],[14.74823,41.10848]]},"properties":{}},{"type":"Feature","geometry":{"type":"LineString","coordinates":[[14.74857,41.10831],[14.74879,41.10861]]},"properties":{}},{"type":"Feature","geometry":{"type":"LineString","coordinates":[[14.74879,41.10861],[14.75013,41.11065],[14.75199,41.11245],[14.75249,41.11298],[14.75292,41.11349],[14.75379,41.1146],[14.75467,41.11567],[14.75485,41.11585],[14.7555,41.1163],[14.75589,41.11646],[14.75837,41.11716]]},"properties":{}},{"type":"Feature","geometry":{"type":"LineString","coordinates":[[14.75837,41.11716],[14.76029,41.11768]]},"properties":{}},{"type":"Feature","geometry":{"type":"LineString","coordinates":[[14.76029,41.11768],[14.75967,41.1176],[14.75947,41.11765],[14.75928,41.11775],[14.75916,41.11776],[14.75904,41.11771],[14.75892,41.1175],[14.75877,41.11736],[14.75837,41.11716]]},"properties":{}},{"type":"Feature","geometry":{"type":"LineString","coordinates":[[14.76029,41.11768],[14.76435,41.11884]]},"properties":{}},{"type":"Feature","geometry":{"type":"LineString","coordinates":[[14.76309,41.14564],[14.76273,41.14559]]},"properties":{}},{"type":"Feature","geometry":{"type":"LineString","coordinates":[[14.76273,41.14559],[14.76305,41.14552]]},"properties":{}},{"type":"Feature","geometry":{"type":"LineString","coordinates":[[14.76309,41.14564],[14.76303,41.14557],[14.76305,41.14552]]},"properties":{}},{"type":"Feature","geometry":{"type":"LineString","coordinates":[[14.76305,41.14552],[14.76318,41.14549],[14.76324,41.14557]]},"properties":{}},{"type":"Feature","geometry":{"type":"LineString","coordinates":[[14.76315,41.14564],[14.76309,41.14564]]},"properties":{}},{"type":"Feature","geometry":{"type":"LineString","coordinates":[[14.76342,41.14569],[14.76315,41.14564]]},"properties":{}},{"type":"Feature","geometry":{"type":"LineString","coordinates":[[14.76324,41.14557],[14.76322,41.14562],[14.76315,41.14564]]},"properties":{}},{"type":"Feature","geometry":{"type":"LineString","coordinates":[[14.76324,41.14557],[14.76342,41.14569]]},"properties":{}},{"type":"Feature","geometry":{"type":"LineString","coordinates":[[14.76439,41.14588],[14.76342,41.14569]]},"properties":{}},{"type":"Feature","geometry":{"type":"LineString","coordinates":[[14.76654,41.11969],[14.76591,41.11936],[14.76541,41.11916],[14.76435,41.11884]]},"properties":{}},{"type":"Feature","geometry":{"type":"LineString","coordinates":[[14.76435,41.11884],[14.76467,41.11879],[14.76532,41.11854],[14.76547,41.11851],[14.7659,41.11853],[14.76609,41.11859],[14.76633,41.11875],[14.76645,41.11894],[14.76646,41.11912],[14.76641,41.11941],[14.76646,41.11957],[14.76654,41.11969]]},"properties":{}},{"type":"Feature","geometry":{"type":"LineString","coordinates":[[14.76439,41.14588],[14.7647,41.14591],[14.76494,41.14587],[14.76554,41.14553],[14.76581,41.14544],[14.76631,41.14546],[14.76656,41.1455],[14.76716,41.1457],[14.7674,41.14584],[14.76762,41.14605],[14.76779,41.14642],[14.76807,41.14658]]},"properties":{}},{"type":"Feature","geometry":{"type":"LineString","coordinates":[[14.76807,41.14658],[14.76772,41.14655],[14.76718,41.14669],[14.76698,41.14671],[14.7665,41.14666],[14.766,41.14653],[14.76498,41.14604],[14.76439,41.14588]]},"properties":{}},{"type":"Feature","geometry":{"type":"LineString","coordinates":[[14.76929,41.12116],[14.76654,41.11969]]},"properties":{}},{"type":"Feature","geometry":{"type":"LineString","coordinates":[[14.76785,41.11005],[14.76785,41.11012],[14.76825,41.11074],[14.76884,41.11223],[14.76914,41.11253],[14.76922,41.11272],[14.76934,41.11322],[14.76919,41.11431],[14.7688,41.11516],[14.76877,41.11534],[14.76886,41.1167],[14.76871,41.1172],[14.7685,41.11736],[14.76847,41.11744],[14.76854,41.11747],[14.76861,41.11745],[14.76921,41.11678],[14.77037,41.11573],[14.77197,41.11464],[14.77295,41.11407],[14.77281,41.11469],[14.77275,41.11477],[14.7726,41.11488],[14.77184,41.11529],[14.77164,41.11547],[14.77146,41.11571],[14.77061,41.11772],[14.77234,41.11865]]},"properties":{}},{"type":"Feature","geometry":{"type":"LineString","coordinates":[[14.76807,41.14658],[14.77677,41.14935],[14.7773,41.14957],[14.77761,41.14984],[14.77802,41.15033],[14.77854,41.15104]]},"properties":{}},{"type":"Feature","geometry":{"type":"LineString","coordinates":[[14.77098,41.12203],[14.76908,41.12412],[14.7682,41.12503],[14.76716,41.12449],[14.76693,41.12432],[14.76685,41.12416],[14.76689,41.12386],[14.76887,41.12171]]},"properties":{}},{"type":"Feature","geometry":{"type":"LineString","coordinates":[[14.76887,41.12171],[14.76929,41.12116]]},"properties":{}},{"type":"Feature","geometry":{"type":"LineString","coordinates":[[14.76979,41.12141],[14.76951,41.1217],[14.76938,41.12171],[14.7691,41.12163],[14.76902,41.12163],[14.76887,41.12171]]},"properties":{}},{"type":"Feature","geometry":{"type":"LineString","coordinates":[[14.76918,41.13414],[14.76857,41.13442],[14.76846,41.13428],[14.76909,41.13403],[14.76918,41.13414]]},"properties":{}},{"type":"Feature","geometry":{"type":"LineString","coordinates":[[14.77023,41.13366],[14.76918,41.13414]]},"properties":{}},{"type":"Feature","geometry":{"type":"LineString","coordinates":[[14.76979,41.12141],[14.76929,41.12116]]},"properties":{}},{"type":"Feature","geometry":{"type":"LineString","coordinates":[[14.77098,41.12203],[14.76979,41.12141]]},"properties":{}},{"type":"Feature","geometry":{"type":"LineString","coordinates":[[14.77137,41.11972],[14.76979,41.12141]]},"properties":{}},{"type":"Feature","geometry":{"type":"LineString","coordinates":[[14.77023,41.13366],[14.77053,41.13385],[14.77086,41.13387],[14.77104,41.13382],[14.77176,41.13345],[14.77209,41.13335],[14.77321,41.13323],[14.7735,41.13324],[14.77371,41.13328]]},"properties":{}},{"type":"Feature","geometry":{"type":"LineString","coordinates":[[14.77569,41.127],[14.77528,41.12696],[14.77503,41.12706],[14.77397,41.12804],[14.77222,41.12937],[14.77119,41.12966],[14.76979,41.13022],[14.769,41.13046],[14.7683,41.13046],[14.76818,41.13051],[14.76816,41.13066],[14.76835,41.13091],[14.76842,41.13125],[14.76875,41.13186],[14.76943,41.13281],[14.77023,41.13366]]},"properties":{}},{"type":"Feature","geometry":{"type":"LineString","coordinates":[[14.77023,41.13366],[14.77307,41.13232],[14.77419,41.13207]]},"properties":{}},{"type":"Feature","geometry":{"type":"LineString","coordinates":[[14.77264,41.13987],[14.77163,41.14075],[14.77127,41.14103],[14.77108,41.1411],[14.77086,41.14112],[14.77067,41.14106],[14.77058,41.14099]]},"properties":{}},{"type":"Feature","geometry":{"type":"LineString","coordinates":[[14.77058,41.14099],[14.77023,41.14115],[14.77007,41.14098],[14.76974,41.14037],[14.76962,41.14021],[14.76789,41.1392],[14.76847,41.13853],[14.76951,41.13911],[14.77118,41.13951]]},"properties":{}},{"type":"Feature","geometry":{"type":"LineString","coordinates":[[14.77118,41.13951],[14.77058,41.14099]]},"properties":{}},{"type":"Feature","geometry":{"type":"LineString","coordinates":[[14.77283,41.12301],[14.77098,41.12203]]},"properties":{}},{"type":"Feature","geometry":{"type":"LineString","coordinates":[[14.77118,41.13951],[14.77264,41.13987]]},"properties":{}},{"type":"Feature","geometry":{"type":"LineString","coordinates":[[14.77299,41.13507],[14.77118,41.13951]]},"properties":{}},{"type":"Feature","geometry":{"type":"LineString","coordinates":[[14.77137,41.11972],[14.77436,41.12128]]},"properties":{}},{"type":"Feature","geometry":{"type":"LineString","coordinates":[[14.77234,41.11865],[14.77137,41.11972]]},"properties":{}},{"type":"Feature","geometry":{"type":"LineString","coordinates":[[14.77712,41.11683],[14.77467,41.1166],[14.77425,41.11671],[14.774,41.11688],[14.77234,41.11865]]},"properties":{}},{"type":"Feature","geometry":{"type":"LineString","coordinates":[[14.77264,41.13987],[14.77288,41.1398],[14.77606,41.13739],[14.77724,41.13921],[14.77875,41.14145],[14.77913,41.14224],[14.77966,41.14289],[14.77966,41.14296],[14.77957,41.14311],[14.77955,41.14327],[14.77956,41.14338],[14.77972,41.14385],[14.7797,41.14404],[14.77966,41.14414],[14.77951,41.14425],[14.77943,41.14441],[14.77972,41.14497],[14.77981,41.14536],[14.77986,41.14667]]},"properties":{}},{"type":"Feature","geometry":{"type":"LineString","coordinates":[[14.77397,41.12359],[14.77283,41.12301]]},"properties":{}},{"type":"Feature","geometry":{"type":"LineString","coordinates":[[14.77436,41.12128],[14.77283,41.12301]]},"properties":{}},{"type":"Feature","geometry":{"type":"LineString","coordinates":[[14.77299,41.13507],[14.77298,41.13496],[14.77315,41.13456],[14.77323,41.1345]]},"properties":{}},{"type":"Feature","geometry":{"type":"LineString","coordinates":[[14.77323,41.1345],[14.77325,41.13458],[14.77318,41.13476],[14.77309,41.13498],[14.77299,41.13507]]},"properties":{}},{"type":"Feature","geometry":{"type":"LineString","coordinates":[[14.77371,41.13328],[14.77323,41.1345]]},"properties":{}},{"type":"Feature","geometry":{"type":"LineString","coordinates":[[14.77605,41.1333],[14.77467,41.13336],[14.77407,41.13334],[14.77371,41.13328]]},"properties":{}},{"type":"Feature","geometry":{"type":"LineString","coordinates":[[14.77371,41.13328],[14.77419,41.13207]]},"properties":{}},{"type":"Feature","geometry":{"type":"LineString","coordinates":[[14.77397,41.12359],[14.77438,41.12372],[14.77463,41.12407]]},"properties":{}},{"type":"Feature","geometry":{"type":"LineString","coordinates":[[14.77463,41.12407],[14.77397,41.12359]]},"properties":{}},{"type":"Feature","geometry":{"type":"LineString","coordinates":[[14.77419,41.13207],[14.77502,41.13189]]},"properties":{}},{"type":"Feature","geometry":{"type":"LineString","coordinates":[[14.77436,41.12128],[14.77558,41.12181],[14.77595,41.122],[14.77688,41.12127],[14.77715,41.12099],[14.77741,41.12065],[14.77776,41.12005],[14.77923,41.12068],[14.77944,41.12047],[14.78013,41.12086],[14.77668,41.12419],[14.77611,41.12458],[14.77538,41.12496]]},"properties":{}},{"type":"Feature","geometry":{"type":"LineString","coordinates":[[14.77538,41.12496],[14.77463,41.12407]]},"properties":{}},{"type":"Feature","geometry":{"type":"LineString","coordinates":[[14.77467,41.13149],[14.77502,41.13189]]},"properties":{}},{"type":"Feature","geometry":{"type":"LineString","coordinates":[[14.77467,41.13149],[14.77465,41.13136],[14.77468,41.13119]]},"properties":{}},{"type":"Feature","geometry":{"type":"LineString","coordinates":[[14.77487,41.13127],[14.77471,41.1314],[14.77467,41.13149]]},"properties":{}},{"type":"Feature","geometry":{"type":"LineString","coordinates":[[14.77487,41.13127],[14.77475,41.13126],[14.77468,41.13119]]},"properties":{}},{"type":"Feature","geometry":{"type":"LineString","coordinates":[[14.77468,41.13119],[14.77471,41.13108]]},"properties":{}},{"type":"Feature","geometry":{"type":"LineString","coordinates":[[14.77471,41.13108],[14.77471,41.13097]]},"properties":{}},{"type":"Feature","geometry":{"type":"LineString","coordinates":[[14.77471,41.13108],[14.77485,41.13104]]},"properties":{}},{"type":"Feature","geometry":{"type":"LineString","coordinates":[[14.77471,41.13097],[14.77485,41.13104]]},"properties":{}},{"type":"Feature","geometry":{"type":"LineString","coordinates":[[14.77662,41.12963],[14.77611,41.12989],[14.77452,41.13058],[14.77454,41.13071],[14.77471,41.13097]]},"properties":{}},{"type":"Feature","geometry":{"type":"LineString","coordinates":[[14.77485,41.13104],[14.77495,41.13109],[14.77498,41.13115],[14.77495,41.13123],[14.77487,41.13127]]},"properties":{}},{"type":"Feature","geometry":{"type":"LineString","coordinates":[[14.77502,41.13189],[14.77534,41.13237],[14.77605,41.1333]]},"properties":{}},{"type":"Feature","geometry":{"type":"LineString","coordinates":[[14.77603,41.12572],[14.77538,41.12496]]},"properties":{}},{"type":"Feature","geometry":{"type":"LineString","coordinates":[[14.77615,41.12729],[14.77569,41.127]]},"properties":{}},{"type":"Feature","geometry":{"type":"LineString","coordinates":[[14.77569,41.127],[14.77542,41.12676],[14.77533,41.12663],[14.77528,41.12636],[14.77534,41.12619],[14.77542,41.12608],[14.77603,41.12572]]},"properties":{}},{"type":"Feature","geometry":{"type":"LineString","coordinates":[[14.77603,41.12572],[14.77613,41.1259],[14.77623,41.12628],[14.77635,41.1273]]},"properties":{}},{"type":"Feature","geometry":{"type":"LineString","coordinates":[[14.78883,41.1204],[14.78855,41.1202],[14.78814,41.12007],[14.78735,41.11968],[14.78483,41.11887],[14.78437,41.11878],[14.7842,41.1188],[14.78409,41.11889],[14.78406,41.11898],[14.78412,41.11918],[14.78431,41.11932],[14.78464,41.11944],[14.78439,41.11991],[14.78372,41.11964],[14.78351,41.11966],[14.7829,41.12033],[14.78262,41.12056],[14.78239,41.12073],[14.78187,41.12103],[14.78123,41.12151],[14.77905,41.12371],[14.77702,41.12523],[14.77685,41.12534],[14.77603,41.12572]]},"properties":{}},{"type":"Feature","geometry":{"type":"LineString","coordinates":[[14.77937,41.13266],[14.77908,41.13296],[14.77898,41.13301],[14.77803,41.13315],[14.77605,41.1333]]},"properties":{}},{"type":"Feature","geometry":{"type":"LineString","coordinates":[[14.77635,41.1273],[14.77615,41.12729]]},"properties":{}},{"type":"Feature","geometry":{"type":"LineString","coordinates":[[14.77662,41.12963],[14.77645,41.1279],[14.77635,41.12749],[14.77615,41.12729]]},"properties":{}},{"type":"Feature","geometry":{"type":"LineString","coordinates":[[14.77635,41.1273],[14.77649,41.12767],[14.77823,41.1287],[14.77722,41.12933],[14.77662,41.12963]]},"properties":{}},{"type":"Feature","geometry":{"type":"LineString","coordinates":[[14.77712,41.11683],[14.77767,41.11683],[14.77795,41.11679],[14.77831,41.11656]]},"properties":{}},{"type":"Feature","geometry":{"type":"LineString","coordinates":[[14.77909,41.11651],[14.77931,41.11664],[14.77945,41.11679],[14.77956,41.11705],[14.77951,41.11729],[14.77937,41.11763],[14.77917,41.11787],[14.77894,41.11795],[14.7787,41.11794],[14.77834,41.11783],[14.77801,41.11755],[14.77787,41.11736],[14.77782,41.11715],[14.77768,41.117],[14.77756,41.11694],[14.77712,41.11683]]},"properties":{}},{"type":"Feature","geometry":{"type":"LineString","coordinates":[[14.77831,41.11656],[14.77865,41.11638],[14.77875,41.11605]]},"properties":{}},{"type":"Feature","geometry":{"type":"LineString","coordinates":[[14.77831,41.11656],[14.7787,41.11648],[14.77909,41.11651]]},"properties":{}},{"type":"Feature","geometry":{"type":"LineString","coordinates":[[14.77854,41.15104],[14.77901,41.15158],[14.77936,41.15212],[14.77961,41.15244],[14.7798,41.15247],[14.77992,41.1524]]},"properties":{}},{"type":"Feature","geometry":{"type":"LineString","coordinates":[[14.77992,41.1524],[14.7799,41.15293],[14.77945,41.15545],[14.7794,41.15585],[14.77942,41.15628],[14.77939,41.15648],[14.77901,41.15646],[14.7789,41.15641],[14.77884,41.15632],[14.77884,41.1562],[14.7791,41.15582],[14.77932,41.15425],[14.77946,41.15379],[14.77946,41.15354],[14.77931,41.15274],[14.77913,41.15216],[14.779,41.15185],[14.77854,41.15104]]},"properties":{}},{"type":"Feature","geometry":{"type":"LineString","coordinates":[[14.77875,41.11605],[14.77886,41.11628],[14.77896,41.11642],[14.77909,41.11651]]},"properties":{}},{"type":"Feature","geometry":{"type":"LineString","coordinates":[[14.78112,41.08355],[14.782,41.08563],[14.78202,41.08616],[14.78199,41.08658],[14.7816,41.08806],[14.78155,41.08838],[14.78154,41.08867],[14.78161,41.08957],[14.78155,41.09025],[14.78152,41.09124],[14.7813,41.09278],[14.78132,41.09433],[14.78157,41.09528],[14.78154,41.09587],[14.78114,41.09944],[14.78114,41.09989],[14.78123,41.1002],[14.78197,41.10152],[14.78205,41.10184],[14.78205,41.10211],[14.7819,41.10268],[14.78172,41.10324],[14.78164,41.10368],[14.78148,41.10589],[14.78151,41.10747],[14.78142,41.10803],[14.7812,41.10853],[14.77983,41.11034],[14.77914,41.11131],[14.77885,41.11195],[14.77881,41.11224],[14.77881,41.11274],[14.77848,41.11438],[14.77849,41.11503],[14.77875,41.11605]]},"properties":{}},{"type":"Feature","geometry":{"type":"LineString","coordinates":[[14.77986,41.14667],[14.77966,41.14668],[14.7795,41.14663],[14.77931,41.14651],[14.77925,41.14644],[14.77919,41.14619],[14.77914,41.14616]]},"properties":{}},{"type":"Feature","geometry":{"type":"LineString","coordinates":[[14.78451,41.13447],[14.78406,41.13452],[14.7834,41.13452],[14.78261,41.13442],[14.78225,41.13433],[14.78182,41.13411],[14.77937,41.13266]]},"properties":{}},{"type":"Feature","geometry":{"type":"LineString","coordinates":[[14.77937,41.13266],[14.77956,41.13264],[14.77989,41.13269],[14.78034,41.13262],[14.78269,41.13193]]},"properties":{}},{"type":"Feature","geometry":{"type":"LineString","coordinates":[[14.77986,41.14667],[14.77992,41.1524]]},"properties":{}},{"type":"Feature","geometry":{"type":"LineString","coordinates":[[14.78692,41.1284],[14.78427,41.13009],[14.78264,41.12971]]},"properties":{}},{"type":"Feature","geometry":{"type":"LineString","coordinates":[[14.78264,41.12971],[14.7825,41.13119],[14.78254,41.13145],[14.78269,41.13193]]},"properties":{}},{"type":"Feature","geometry":{"type":"LineString","coordinates":[[14.78264,41.12971],[14.78274,41.1294],[14.78287,41.12927],[14.78567,41.12734]]},"properties":{}},{"type":"Feature","geometry":{"type":"LineString","coordinates":[[14.78269,41.13193],[14.78329,41.13187],[14.78372,41.13187],[14.78474,41.13203],[14.78525,41.13207],[14.78572,41.13197],[14.78613,41.13177],[14.78728,41.13112],[14.78879,41.13014],[14.78977,41.12974],[14.79218,41.12892],[14.79251,41.12967],[14.79283,41.13026]]},"properties":{}},{"type":"Feature","geometry":{"type":"LineString","coordinates":[[14.78575,41.13465],[14.78518,41.13467],[14.78473,41.13448],[14.78451,41.13447]]},"properties":{}},{"type":"Feature","geometry":{"type":"LineString","coordinates":[[14.78451,41.13447],[14.78497,41.13428],[14.78525,41.13406],[14.7854,41.13404],[14.78548,41.13416],[14.78545,41.13437],[14.78549,41.1345],[14.78575,41.13465]]},"properties":{}},{"type":"Feature","geometry":{"type":"LineString","coordinates":[[14.78567,41.12734],[14.78692,41.1284]]},"properties":{}},{"type":"Feature","geometry":{"type":"LineString","coordinates":[[14.78567,41.12734],[14.78695,41.12643],[14.78821,41.12529],[14.78985,41.12391],[14.79144,41.12263],[14.79173,41.12236],[14.79171,41.12222],[14.79161,41.12217],[14.79193,41.12187],[14.79235,41.12139]]},"properties":{}},{"type":"Feature","geometry":{"type":"LineString","coordinates":[[14.78575,41.13465],[14.78604,41.13474]]},"properties":{}},{"type":"Feature","geometry":{"type":"LineString","coordinates":[[14.78604,41.13474],[14.78737,41.13503],[14.78939,41.13535]]},"properties":{}},{"type":"Feature","geometry":{"type":"LineString","coordinates":[[14.78604,41.13474],[14.78664,41.1351],[14.78781,41.13566],[14.78806,41.13582],[14.78835,41.13608],[14.78979,41.13843],[14.78989,41.1388],[14.78989,41.13939]]},"properties":{}},{"type":"Feature","geometry":{"type":"LineString","coordinates":[[14.78692,41.1284],[14.78784,41.12922],[14.7879,41.12931],[14.78795,41.12931],[14.78814,41.12917],[14.78887,41.12886],[14.79159,41.12796],[14.79165,41.12791],[14.79176,41.12791],[14.79321,41.12752],[14.79505,41.12743],[14.79709,41.12706]]},"properties":{}},{"type":"Feature","geometry":{"type":"LineString","coordinates":[[14.79598,41.12372],[14.79359,41.12477],[14.79166,41.12574],[14.78976,41.12674],[14.78759,41.12797],[14.78692,41.1284]]},"properties":{}},{"type":"Feature","geometry":{"type":"LineString","coordinates":[[14.78894,41.12037],[14.78902,41.12044],[14.78897,41.12051],[14.78885,41.1205],[14.78882,41.12046],[14.78883,41.1204]]},"properties":{}},{"type":"Feature","geometry":{"type":"LineString","coordinates":[[14.78883,41.1204],[14.78894,41.12037]]},"properties":{}},{"type":"Feature","geometry":{"type":"LineString","coordinates":[[14.79402,41.11498],[14.79382,41.11498],[14.79382,41.11508],[14.7931,41.11717],[14.79286,41.11772],[14.79101,41.1206],[14.79087,41.12084],[14.79049,41.12169],[14.79028,41.12198],[14.79002,41.12187],[14.78993,41.1218],[14.78992,41.12123],[14.78985,41.12083],[14.78971,41.12041],[14.78956,41.12014],[14.78934,41.12005],[14.78921,41.12006],[14.78912,41.1201],[14.78904,41.12018],[14.78894,41.12037]]},"properties":{}},{"type":"Feature","geometry":{"type":"LineString","coordinates":[[14.79272,41.13574],[14.78939,41.13535]]},"properties":{}},{"type":"Feature","geometry":{"type":"LineString","coordinates":[[14.78939,41.13535],[14.78946,41.13528],[14.78948,41.13521],[14.78918,41.13471],[14.78921,41.13464],[14.78931,41.13461],[14.78982,41.13464],[14.79001,41.13477],[14.79034,41.13517],[14.79088,41.13536],[14.79193,41.13556],[14.79208,41.13555],[14.7922,41.13549],[14.79235,41.13532]]},"properties":{}},{"type":"Feature","geometry":{"type":"LineString","coordinates":[[14.78989,41.13939],[14.78991,41.14044],[14.78976,41.14044],[14.78977,41.13953],[14.78989,41.13939]]},"properties":{}},{"type":"Feature","geometry":{"type":"LineString","coordinates":[[14.79185,41.13212],[14.79248,41.13423]]},"properties":{}},{"type":"Feature","geometry":{"type":"LineString","coordinates":[[14.79185,41.13212],[14.79164,41.1319],[14.79152,41.13184],[14.79139,41.13177],[14.79098,41.1317],[14.79075,41.13154],[14.79065,41.13133],[14.79064,41.13118],[14.79071,41.13104],[14.79087,41.13084],[14.79215,41.13025],[14.79234,41.1302],[14.79258,41.13021],[14.79283,41.13026]]},"properties":{}},{"type":"Feature","geometry":{"type":"LineString","coordinates":[[14.79273,41.13114],[14.79211,41.13155],[14.79193,41.13177],[14.79185,41.13212]]},"properties":{}},{"type":"Feature","geometry":{"type":"LineString","coordinates":[[14.79272,41.13574],[14.79246,41.13556],[14.79238,41.13544],[14.79235,41.13532]]},"properties":{}},{"type":"Feature","geometry":{"type":"LineString","coordinates":[[14.79235,41.13532],[14.79239,41.1351]]},"properties":{}},{"type":"Feature","geometry":{"type":"LineString","coordinates":[[14.79235,41.12139],[14.79239,41.12155],[14.7926,41.12152],[14.7927,41.12145],[14.79278,41.12146],[14.79605,41.12342],[14.79609,41.12351],[14.79608,41.12359],[14.79598,41.12372]]},"properties":{}},{"type":"Feature","geometry":{"type":"LineString","coordinates":[[14.79235,41.12139],[14.79385,41.11944],[14.79426,41.11908]]},"properties":{}},{"type":"Feature","geometry":{"type":"LineString","coordinates":[[14.79239,41.1351],[14.79248,41.13423]]},"properties":{}},{"type":"Feature","geometry":{"type":"LineString","coordinates":[[14.79239,41.1351],[14.79252,41.13498],[14.79269,41.13493],[14.79293,41.13502]]},"properties":{}},{"type":"Feature","geometry":{"type":"LineString","coordinates":[[14.79248,41.13423],[14.79273,41.13474],[14.79293,41.13502]]},"properties":{}},{"type":"Feature","geometry":{"type":"LineString","coordinates":[[14.79641,41.1361],[14.79642,41.13621],[14.79636,41.13629],[14.79594,41.13649],[14.7958,41.1366],[14.79574,41.13672],[14.79555,41.1368],[14.79532,41.1368],[14.79419,41.13605],[14.79402,41.13597],[14.79372,41.13589],[14.79272,41.13574]]},"properties":{}},{"type":"Feature","geometry":{"type":"LineString","coordinates":[[14.79273,41.13114],[14.79273,41.13128],[14.79279,41.13134],[14.79289,41.13136],[14.79475,41.13046],[14.79499,41.1303],[14.79614,41.12932],[14.7965,41.12921],[14.79681,41.12921],[14.7972,41.12929],[14.79745,41.1294],[14.79831,41.13001],[14.79852,41.13013],[14.79887,41.13023],[14.79954,41.13026],[14.79992,41.13019],[14.80023,41.13001],[14.80055,41.12975],[14.80072,41.12945],[14.80077,41.12928],[14.80078,41.12893],[14.80073,41.12843],[14.80033,41.12721],[14.80001,41.12728],[14.79938,41.12728]]},"properties":{}},{"type":"Feature","geometry":{"type":"LineString","coordinates":[[14.79301,41.13091],[14.79273,41.13114]]},"properties":{}},{"type":"Feature","geometry":{"type":"LineString","coordinates":[[14.79283,41.13026],[14.79293,41.13032]]},"properties":{}},{"type":"Feature","geometry":{"type":"LineString","coordinates":[[14.79293,41.13032],[14.79336,41.13041],[14.7936,41.13038],[14.79386,41.13029]]},"properties":{}},{"type":"Feature","geometry":{"type":"LineString","coordinates":[[14.79293,41.13032],[14.79303,41.13047],[14.79307,41.13063],[14.79306,41.13079],[14.79301,41.13091]]},"properties":{}},{"type":"Feature","geometry":{"type":"LineString","coordinates":[[14.79293,41.13502],[14.79319,41.13526],[14.79347,41.13545],[14.79366,41.13556],[14.79421,41.13579],[14.79471,41.13592],[14.79538,41.13601],[14.79553,41.136],[14.79588,41.13589]]},"properties":{}},{"type":"Feature","geometry":{"type":"LineString","coordinates":[[14.79386,41.13029],[14.7936,41.13053],[14.79301,41.13091]]},"properties":{}},{"type":"Feature","geometry":{"type":"LineString","coordinates":[[14.79562,41.12901],[14.79386,41.13029]]},"properties":{}},{"type":"Feature","geometry":{"type":"LineString","coordinates":[[14.79426,41.11908],[14.79409,41.11898],[14.79398,41.11881],[14.79395,41.11848],[14.7942,41.11766],[14.79432,41.11736],[14.79474,41.11654],[14.79484,41.11605],[14.79484,41.11578],[14.79476,41.11538],[14.79467,41.11527],[14.79436,41.11504],[14.79402,41.11498]]},"properties":{}},{"type":"Feature","geometry":{"type":"LineString","coordinates":[[14.79402,41.11498],[14.79396,41.11475],[14.79398,41.11447],[14.7944,41.11428],[14.79443,41.11424],[14.79422,41.11406],[14.79403,41.11399]]},"properties":{}},{"type":"Feature","geometry":{"type":"LineString","coordinates":[[14.79426,41.11908],[14.79578,41.11773]]},"properties":{}},{"type":"Feature","geometry":{"type":"LineString","coordinates":[[14.79562,41.12901],[14.79628,41.12847]]},"properties":{}},{"type":"Feature","geometry":{"type":"LineString","coordinates":[[14.79902,41.12751],[14.79837,41.12788],[14.79689,41.12839],[14.79623,41.12868],[14.79562,41.12901]]},"properties":{}},{"type":"Feature","geometry":{"type":"LineString","coordinates":[[14.79578,41.11773],[14.79632,41.11815],[14.80013,41.12083],[14.80029,41.12103]]},"properties":{}},{"type":"Feature","geometry":{"type":"LineString","coordinates":[[14.79578,41.11773],[14.7976,41.11609],[14.79797,41.11561],[14.79856,41.11502],[14.79962,41.11448],[14.7999,41.11431],[14.80005,41.11416],[14.80039,41.11364],[14.80085,41.11237],[14.8018,41.11119]]},"properties":{}},{"type":"Feature","geometry":{"type":"LineString","coordinates":[[14.79588,41.13589],[14.79641,41.1361]]},"properties":{}},{"type":"Feature","geometry":{"type":"LineString","coordinates":[[14.79588,41.13589],[14.7961,41.13571],[14.79753,41.13539],[14.79776,41.13537],[14.79822,41.13556],[14.79859,41.13562],[14.79872,41.1357],[14.79899,41.13615],[14.79894,41.13649],[14.7989,41.13659]]},"properties":{}},{"type":"Feature","geometry":{"type":"LineString","coordinates":[[14.79598,41.12372],[14.79613,41.12369],[14.79643,41.1237],[14.79684,41.124],[14.79702,41.12432],[14.79714,41.12442]]},"properties":{}},{"type":"Feature","geometry":{"type":"LineString","coordinates":[[14.79628,41.12847],[14.79687,41.12763],[14.79709,41.12706]]},"properties":{}},{"type":"Feature","geometry":{"type":"LineString","coordinates":[[14.79628,41.12847],[14.79675,41.12812],[14.79696,41.12803],[14.79819,41.12782],[14.79902,41.12751]]},"properties":{}},{"type":"Feature","geometry":{"type":"LineString","coordinates":[[14.79641,41.1361],[14.79677,41.13624],[14.7989,41.13659]]},"properties":{}},{"type":"Feature","geometry":{"type":"LineString","coordinates":[[14.79938,41.12728],[14.7982,41.12723],[14.79709,41.12706]]},"properties":{}},{"type":"Feature","geometry":{"type":"LineString","coordinates":[[14.79709,41.12706],[14.79716,41.12677],[14.7974,41.12501],[14.79718,41.12448]]},"properties":{}},{"type":"Feature","geometry":{"type":"LineString","coordinates":[[14.79718,41.12448],[14.79714,41.12442]]},"properties":{}},{"type":"Feature","geometry":{"type":"LineString","coordinates":[[14.79714,41.12442],[14.79716,41.12434],[14.79727,41.12428],[14.79764,41.12428]]},"properties":{}},{"type":"Feature","geometry":{"type":"LineString","coordinates":[[14.79764,41.12428],[14.7974,41.12452],[14.79726,41.12453],[14.79718,41.12448]]},"properties":{}},{"type":"Feature","geometry":{"type":"LineString","coordinates":[[14.79928,41.12392],[14.79764,41.12428]]},"properties":{}},{"type":"Feature","geometry":{"type":"LineString","coordinates":[[14.7989,41.13659],[14.7999,41.13695],[14.80123,41.13752]]},"properties":{}},{"type":"Feature","geometry":{"type":"LineString","coordinates":[[14.79938,41.12728],[14.79902,41.12751]]},"properties":{}},{"type":"Feature","geometry":{"type":"LineString","coordinates":[[14.79928,41.12392],[14.79992,41.12365]]},"properties":{}},{"type":"Feature","geometry":{"type":"LineString","coordinates":[[14.79994,41.1241],[14.79974,41.12397],[14.79962,41.12393],[14.79928,41.12392]]},"properties":{}},{"type":"Feature","geometry":{"type":"LineString","coordinates":[[14.8004,41.12463],[14.80045,41.12489],[14.80047,41.12544],[14.80043,41.12579],[14.80033,41.12611],[14.80013,41.12648],[14.79992,41.12676],[14.79938,41.12728]]},"properties":{}},{"type":"Feature","geometry":{"type":"LineString","coordinates":[[14.79992,41.12365],[14.79998,41.12328]]},"properties":{}},{"type":"Feature","geometry":{"type":"LineString","coordinates":[[14.79992,41.12365],[14.80008,41.12361],[14.80019,41.12362]]},"properties":{}},{"type":"Feature","geometry":{"type":"LineString","coordinates":[[14.80044,41.12397],[14.80037,41.12404],[14.80017,41.12413],[14.79994,41.1241]]},"properties":{}},{"type":"Feature","geometry":{"type":"LineString","coordinates":[[14.8004,41.12463],[14.80021,41.12434],[14.79994,41.1241]]},"properties":{}},{"type":"Feature","geometry":{"type":"LineString","coordinates":[[14.79998,41.12328],[14.80019,41.12362]]},"properties":{}},{"type":"Feature","geometry":{"type":"LineString","coordinates":[[14.79998,41.12328],[14.79993,41.12289],[14.79994,41.12257],[14.79998,41.1222],[14.80006,41.12192],[14.80021,41.12151]]},"properties":{}},{"type":"Feature","geometry":{"type":"LineString","coordinates":[[14.80019,41.12362],[14.80028,41.12364]]},"properties":{}},{"type":"Feature","geometry":{"type":"LineString","coordinates":[[14.80021,41.12151],[14.80031,41.12126],[14.80031,41.12106]]},"properties":{}},{"type":"Feature","geometry":{"type":"LineString","coordinates":[[14.80054,41.12106],[14.80021,41.12151]]},"properties":{}},{"type":"Feature","geometry":{"type":"LineString","coordinates":[[14.80028,41.12364],[14.80042,41.12376],[14.80045,41.12391]]},"properties":{}},{"type":"Feature","geometry":{"type":"LineString","coordinates":[[14.80028,41.12364],[14.80071,41.12349]]},"properties":{}},{"type":"Feature","geometry":{"type":"LineString","coordinates":[[14.80031,41.12106],[14.80029,41.12103]]},"properties":{}},{"type":"Feature","geometry":{"type":"LineString","coordinates":[[14.80029,41.12103],[14.80031,41.12094],[14.80044,41.1209]]},"properties":{}},{"type":"Feature","geometry":{"type":"LineString","coordinates":[[14.80054,41.12106],[14.80042,41.12111],[14.80031,41.12106]]},"properties":{}},{"type":"Feature","geometry":{"type":"LineString","coordinates":[[14.80044,41.12397],[14.8004,41.12463]]},"properties":{}},{"type":"Feature","geometry":{"type":"LineString","coordinates":[[14.80044,41.1209],[14.80054,41.12096],[14.80056,41.12102]]},"properties":{}},{"type":"Feature","geometry":{"type":"LineString","coordinates":[[14.80044,41.1209],[14.80064,41.12081],[14.80085,41.12065]]},"properties":{}},{"type":"Feature","geometry":{"type":"LineString","coordinates":[[14.80045,41.12391],[14.80044,41.12397]]},"properties":{}},{"type":"Feature","geometry":{"type":"LineString","coordinates":[[14.80071,41.12349],[14.80061,41.12372],[14.80045,41.12391]]},"properties":{}},{"type":"Feature","geometry":{"type":"LineString","coordinates":[[14.80056,41.12102],[14.80054,41.12106]]},"properties":{}},{"type":"Feature","geometry":{"type":"LineString","coordinates":[[14.80085,41.12065],[14.80056,41.12102]]},"properties":{}},{"type":"Feature","geometry":{"type":"LineString","coordinates":[[14.80071,41.12349],[14.80103,41.12268],[14.80114,41.12244],[14.80127,41.12226],[14.80264,41.1209],[14.80374,41.12006],[14.80523,41.11887],[14.80562,41.11863],[14.8059,41.11853],[14.80635,41.11845],[14.80729,41.11841],[14.80786,41.11827],[14.8082,41.11807],[14.81048,41.11643],[14.81123,41.11593],[14.81258,41.11511],[14.81295,41.11476],[14.81304,41.1146],[14.81306,41.11441],[14.81318,41.11412],[14.81333,41.11386],[14.81357,41.11365],[14.8138,41.11352],[14.81451,41.11321],[14.81476,41.11305],[14.81489,41.11292],[14.81595,41.11178],[14.81666,41.11068],[14.81701,41.11027],[14.81719,41.1101],[14.81773,41.10973],[14.82098,41.10707]]},"properties":{}},{"type":"Feature","geometry":{"type":"LineString","coordinates":[[14.80085,41.12065],[14.80161,41.11974],[14.80191,41.11933],[14.80209,41.11901],[14.80324,41.11623],[14.80416,41.11419],[14.80448,41.11366],[14.80562,41.11215]]},"properties":{}},{"type":"Feature","geometry":{"type":"LineString","coordinates":[[14.80667,41.136],[14.8063,41.13608],[14.806,41.13623],[14.80582,41.13639],[14.80565,41.13661],[14.80505,41.13859],[14.80301,41.13816],[14.80155,41.1377],[14.80123,41.13752]]},"properties":{}},{"type":"Feature","geometry":{"type":"LineString","coordinates":[[14.80123,41.13752],[14.80136,41.13751]]},"properties":{}},{"type":"Feature","geometry":{"type":"LineString","coordinates":[[14.80297,41.13673],[14.8033,41.13683],[14.80341,41.1369],[14.80348,41.13706],[14.80348,41.13729],[14.80332,41.13748],[14.80317,41.13756],[14.80303,41.1376],[14.80207,41.13768],[14.80181,41.13768],[14.80136,41.13751]]},"properties":{}},{"type":"Feature","geometry":{"type":"LineString","coordinates":[[14.80136,41.13751],[14.80153,41.13744],[14.80171,41.13732],[14.80209,41.13699],[14.80232,41.13689],[14.80297,41.13673]]},"properties":{}},{"type":"Feature","geometry":{"type":"LineString","coordinates":[[14.8019,41.11108],[14.80284,41.1115],[14.80272,41.1116],[14.8018,41.11119]]},"properties":{}},{"type":"Feature","geometry":{"type":"LineString","coordinates":[[14.8018,41.11119],[14.8019,41.11108]]},"properties":{}},{"type":"Feature","geometry":{"type":"LineString","coordinates":[[14.8019,41.11108],[14.80219,41.11069],[14.80296,41.10938],[14.80362,41.10836],[14.8037,41.10817]]},"properties":{}},{"type":"Feature","geometry":{"type":"LineString","coordinates":[[14.80297,41.13673],[14.80371,41.13658],[14.80468,41.13626],[14.80667,41.136]]},"properties":{}},{"type":"Feature","geometry":{"type":"LineString","coordinates":[[14.8037,41.10817],[14.8043,41.10829],[14.80492,41.1083],[14.80541,41.10846],[14.8059,41.10868],[14.80621,41.10867],[14.80653,41.10875],[14.80664,41.10884],[14.80668,41.10892],[14.80666,41.10902],[14.80601,41.10981],[14.80483,41.1114],[14.80566,41.11178]]},"properties":{}},{"type":"Feature","geometry":{"type":"LineString","coordinates":[[14.8037,41.10817],[14.80412,41.10705],[14.80431,41.10679],[14.80454,41.10661]]},"properties":{}},{"type":"Feature","geometry":{"type":"LineString","coordinates":[[14.80454,41.10661],[14.80513,41.10631],[14.80538,41.10628],[14.80545,41.10632],[14.80553,41.10645],[14.80609,41.10702]]},"properties":{}},{"type":"Feature","geometry":{"type":"LineString","coordinates":[[14.80609,41.10702],[14.80558,41.10666],[14.80532,41.10653],[14.80493,41.10652],[14.80454,41.10661]]},"properties":{}},{"type":"Feature","geometry":{"type":"LineString","coordinates":[[14.80562,41.11215],[14.80569,41.11186]]},"properties":{}},{"type":"Feature","geometry":{"type":"LineString","coordinates":[[14.80591,41.11191],[14.80562,41.11215]]},"properties":{}},{"type":"Feature","geometry":{"type":"LineString","coordinates":[[14.80569,41.11186],[14.80566,41.11178]]},"properties":{}},{"type":"Feature","geometry":{"type":"LineString","coordinates":[[14.80566,41.11178],[14.8057,41.1117],[14.80584,41.11164],[14.80612,41.11129],[14.80691,41.10899],[14.80699,41.10872],[14.80701,41.1085],[14.80693,41.10807],[14.80684,41.10783]]},"properties":{}},{"type":"Feature","geometry":{"type":"LineString","coordinates":[[14.80591,41.11191],[14.80579,41.11191],[14.80569,41.11186]]},"properties":{}},{"type":"Feature","geometry":{"type":"LineString","coordinates":[[14.80684,41.10783],[14.80755,41.10789],[14.80766,41.108],[14.80769,41.10864],[14.80762,41.10891],[14.80768,41.10891],[14.80793,41.10887],[14.80805,41.1088],[14.8081,41.10871],[14.80808,41.108],[14.8081,41.1079],[14.80815,41.10783],[14.80832,41.10778],[14.80855,41.10775],[14.80895,41.10777],[14.80934,41.10786],[14.80948,41.10796],[14.80961,41.10829],[14.80964,41.1091],[14.80955,41.10993],[14.80927,41.11079],[14.80836,41.10963],[14.80823,41.10952],[14.80808,41.10948],[14.80802,41.10957],[14.8076,41.11082],[14.80744,41.11113],[14.80703,41.11141],[14.80674,41.11158],[14.80605,41.11188],[14.80591,41.11191]]},"properties":{}},{"type":"Feature","geometry":{"type":"LineString","coordinates":[[14.80609,41.10702],[14.80664,41.10756],[14.80684,41.10783]]},"properties":{}},{"type":"Feature","geometry":{"type":"LineString","coordinates":[[14.80667,41.136],[14.80895,41.13571],[14.80988,41.1357],[14.81083,41.13574],[14.81134,41.13572],[14.8119,41.13566],[14.81506,41.13511],[14.81883,41.13425],[14.82003,41.13405],[14.82209,41.13391],[14.82381,41.13373],[14.826,41.13365],[14.82732,41.13349],[14.82784,41.13335],[14.82858,41.13306],[14.82996,41.13241],[14.83043,41.13222],[14.8312,41.13198],[14.83224,41.13172],[14.83278,41.13163],[14.83438,41.13149],[14.83649,41.13124],[14.83801,41.13113],[14.83946,41.13123],[14.84024,41.13143],[14.84081,41.13168],[14.84187,41.13231],[14.84203,41.13237],[14.84235,41.13243],[14.84251,41.13242],[14.84266,41.13238],[14.84327,41.13205],[14.84421,41.13169],[14.84523,41.13137],[14.84586,41.13124],[14.84624,41.13112],[14.84658,41.13094],[14.84713,41.13043],[14.84758,41.1301],[14.848,41.12985],[14.8483,41.12977],[14.84859,41.12984],[14.84896,41.13007],[14.84911,41.13011],[14.84983,41.13017],[14.8505,41.13029],[14.85063,41.13035],[14.85093,41.13062],[14.85106,41.13069],[14.85153,41.13081],[14.85219,41.13122],[14.85251,41.13132],[14.85283,41.13136],[14.85312,41.13132],[14.85322,41.13125],[14.85328,41.13115],[14.8533,41.13104],[14.85331,41.13072],[14.85342,41.13055],[14.85351,41.1305],[14.85375,41.13048],[14.85415,41.13055],[14.8543,41.13055],[14.85524,41.13027],[14.85558,41.13023],[14.85644,41.13043],[14.8568,41.13042],[14.85891,41.1298],[14.85903,41.12972],[14.85939,41.12934],[14.85952,41.12928],[14.85983,41.12921],[14.86017,41.12921],[14.86083,41.12929],[14.86119,41.12924],[14.86185,41.12907],[14.862,41.12907],[14.86214,41.12909],[14.86252,41.12928],[14.86285,41.12932],[14.86385,41.12909],[14.86423,41.12912],[14.86484,41.12928],[14.86559,41.12953],[14.86575,41.12961],[14.86602,41.1298],[14.86622,41.13003],[14.86631,41.13019]]},"properties":{}},{"type":"Feature","geometry":{"type":"LineString","coordinates":[[14.82098,41.10707],[14.82268,41.10752],[14.82358,41.10786],[14.82418,41.1082],[14.82417,41.10833],[14.8241,41.10844],[14.8238,41.10867],[14.82357,41.10895],[14.82338,41.10927],[14.82322,41.10963]]},"properties":{}},{"type":"Feature","geometry":{"type":"LineString","coordinates":[[14.82098,41.10707],[14.82204,41.10606],[14.82324,41.10476],[14.82528,41.10263],[14.8262,41.10179],[14.82779,41.10051],[14.82803,41.10027],[14.82887,41.09914],[14.82909,41.09877],[14.82935,41.09817],[14.83037,41.09662],[14.83104,41.09574],[14.83189,41.09478]]},"properties":{}},{"type":"Feature","geometry":{"type":"LineString","coordinates":[[14.9212,41.07185],[14.91945,41.07115],[14.91885,41.07087],[14.91799,41.07038],[14.91744,41.07],[14.91692,41.06959],[14.91101,41.0644],[14.91041,41.06378],[14.90969,41.06285],[14.90711,41.0587],[14.90657,41.05805],[14.90637,41.05785],[14.90591,41.05749],[14.90506,41.05696],[14.90447,41.05666],[14.9037,41.05632],[14.90058,41.05512],[14.89797,41.05399],[14.8971,41.0535],[14.89635,41.0529],[14.89574,41.05221],[14.89544,41.0517],[14.89399,41.04801],[14.89365,41.04721],[14.89343,41.04683],[14.89309,41.04634],[14.89247,41.04568],[14.892,41.04527],[14.89043,41.04409],[14.88974,41.04344],[14.88935,41.04298],[14.88898,41.04243],[14.88859,41.04167],[14.88775,41.03927],[14.88766,41.03885],[14.88762,41.03846],[14.88763,41.03796],[14.88771,41.03747],[14.88785,41.03694],[14.888,41.03651],[14.88834,41.03583],[14.88862,41.03543],[14.88943,41.0346],[14.89081,41.03353],[14.89145,41.03299],[14.89208,41.03234],[14.89264,41.03165],[14.89326,41.03068],[14.89409,41.029],[14.8949,41.02758],[14.89551,41.02638],[14.89584,41.0259],[14.89645,41.02523],[14.89694,41.02482],[14.89788,41.02417],[14.89837,41.02379],[14.89883,41.02336],[14.89922,41.02293],[14.8997,41.02222],[14.90065,41.02034],[14.90088,41.02001],[14.90133,41.01952],[14.90207,41.01891],[14.90498,41.01688],[14.90567,41.01625],[14.90587,41.01601],[14.90621,41.01552],[14.90649,41.015],[14.90668,41.01455],[14.90681,41.01397],[14.90744,41.00748],[14.90744,41.00694],[14.90738,41.00669],[14.90722,41.0062],[14.90696,41.00567],[14.90677,41.0054],[14.90636,41.00494],[14.90585,41.00453],[14.90528,41.00419],[14.90281,41.00305],[14.90226,41.00273],[14.90152,41.00215],[14.90109,41.00171],[14.90061,41.00109],[14.90021,41.00042],[14.90003,41.0]]},"properties":{}},{"type":"Feature","geometry":{"type":"LineString","coordinates":[[14.9212,41.07185],[14.92105,41.07099],[14.92098,41.0708],[14.92085,41.07061]]},"properties":{}},{"type":"Feature","geometry":{"type":"LineString","coordinates":[[14.92085,41.07061],[14.9206,41.07041],[14.9203,41.0701],[14.91971,41.06964],[14.91907,41.06928],[14.9184,41.0688],[14.918,41.0686],[14.91774,41.06857],[14.91751,41.06865],[14.91741,41.06876],[14.91732,41.06898],[14.91722,41.06905],[14.91714,41.06906],[14.91648,41.06871],[14.91574,41.0682],[14.91471,41.0673],[14.91424,41.06669],[14.91426,41.06663],[14.91442,41.06651],[14.91464,41.06652],[14.91608,41.06713],[14.91682,41.06754],[14.91855,41.06877],[14.91961,41.06939],[14.92018,41.06978],[14.92037,41.06995],[14.92085,41.07061]]},"properties":{}},{"type":"Feature","geometry":{"type":"LineString","coordinates":[[14.92175,41.07276],[14.92203,41.07275],[14.92217,41.07268],[14.92226,41.07256],[14.92224,41.07235],[14.92214,41.07223],[14.92196,41.07212],[14.9212,41.07185]]},"properties":{}},{"type":"Feature","geometry":{"type":"LineString","coordinates":[[14.92175,41.07276],[14.92155,41.07266],[14.92137,41.07246],[14.92129,41.07228],[14.9212,41.07185]]},"properties":{}},{"type":"Feature","geometry":{"type":"LineString","coordinates":[[15.0,41.07163],[14.99945,41.07213],[14.99891,41.0725],[14.99818,41.07284],[14.99748,41.07303],[14.99552,41.07327],[14.98943,41.07383],[14.98876,41.07387],[14.98803,41.07384],[14.98732,41.07377],[14.97986,41.07281],[14.97909,41.07266],[14.97844,41.07248],[14.97603,41.07162],[14.97518,41.07137],[14.97403,41.07116],[14.9729,41.0711],[14.97216,41.07113],[14.97134,41.07124],[14.96349,41.07274],[14.96242,41.07287],[14.95517,41.07302],[14.9541,41.073],[14.95338,41.07292],[14.94998,41.07232],[14.94937,41.07226],[14.94857,41.07225],[14.94776,41.0723],[14.94696,41.07244],[14.94335,41.07334],[14.94234,41.07354],[14.94121,41.07364],[14.93387,41.07409],[14.93307,41.07406],[14.93246,41.07397],[14.93066,41.07348],[14.92963,41.07331],[14.92882,41.07328],[14.92741,41.07333],[14.92666,41.07332],[14.92515,41.07316],[14.92406,41.07287],[14.92366,41.0728],[14.92304,41.07275],[14.92205,41.07281],[14.92182,41.07279],[14.92175,41.07276]]},"properties":{}},{"type":"Feature","geometry":{"type":"LineString","coordinates":[[14.50259,41.0866],[14.50254,41.08666],[14.50246,41.08662],[14.50252,41.08657],[14.50259,41.0866]]},"properties":{}}]}