{"type":"FeatureCollection","features":[{"type":"Feature","geometry":{"type":"LineString","coordinates":[[15.5,41.561],[15.5005,41.55769],[15.5012,41.55199]]},"properties":{}},{"type":"Feature","geometry":{"type":"LineString","coordinates":[[15.5,41.59164],[15.51214,41.58419],[15.51272,41.58378],[15.51349,41.58313],[15.51424,41.58237],[15.51474,41.58173],[15.51515,41.58109],[15.51544,41.58056],[15.51579,41.57975],[15.51852,41.57231],[15.52692,41.54918],[15.52758,41.5475],[15.52794,41.54674],[15.52854,41.54562],[15.52922,41.54457],[15.5304,41.54307],[15.53732,41.5349]]},"properties":{}},{"type":"Feature","geometry":{"type":"LineString","coordinates":[[15.53742,41.535],[15.53052,41.54319],[15.52937,41.54469],[15.52868,41.54573],[15.52834,41.54628],[15.52772,41.54755],[15.52703,41.54921],[15.52167,41.56403],[15.52026,41.56781],[15.51899,41.57139],[15.5159,41.57979],[15.51556,41.58059],[15.51527,41.58113],[15.51486,41.58177],[15.51435,41.58241],[15.5136,41.58319],[15.51281,41.58385],[15.51225,41.58425],[15.5,41.59177]]},"properties":{}},{"type":"Feature","geometry":{"type":"LineString","coordinates":[[15.5012,41.55199],[15.50654,41.55258],[15.50709,41.55274],[15.51056,41.55428]]},"properties":{}},{"type":"Feature","geometry":{"type":"LineString","coordinates":[[15.5012,41.55199],[15.5029,41.53867],[15.50453,41.52659],[15.50465,41.52596],[15.5051,41.52497],[15.50818,41.51912],[15.50915,41.51719],[15.51078,41.51413],[15.5114,41.51288],[15.51814,41.5]]},"properties":{}},{"type":"Feature","geometry":{"type":"LineString","coordinates":[[15.53732,41.5349],[15.53362,41.53112],[15.53337,41.53081],[15.53317,41.5305],[15.53264,41.52938],[15.53248,41.529],[15.5324,41.52866],[15.53235,41.52824],[15.53228,41.52564],[15.53222,41.52498],[15.53225,41.52463],[15.53242,41.52442],[15.53258,41.52434],[15.53272,41.52431],[15.53474,41.52422],[15.53553,41.52406],[15.53632,41.52406],[15.53649,41.52402],[15.53699,41.52381],[15.53726,41.52367],[15.53758,41.52342],[15.53832,41.52268],[15.53868,41.52227],[15.5398,41.51932],[15.53999,41.51876],[15.54005,41.51848],[15.54003,41.51829],[15.53913,41.51554],[15.53902,41.51508],[15.53896,41.51444],[15.5388,41.51172],[15.53822,41.50438],[15.53809,41.50369],[15.53747,41.50154],[15.53708,41.5]]},"properties":{}},{"type":"Feature","geometry":{"type":"LineString","coordinates":[[15.53742,41.535],[15.53732,41.5349]]},"properties":{}},{"type":"Feature","geometry":{"type":"LineString","coordinates":[[15.53732,41.5349],[15.54163,41.52985],[15.55348,41.51568],[15.55456,41.51453],[15.55595,41.51313],[15.55688,41.51224],[15.56694,41.5033]]},"properties":{}},{"type":"Feature","geometry":{"type":"LineString","coordinates":[[15.55029,41.57225],[15.55035,41.57212],[15.55028,41.572],[15.54921,41.57144],[15.54903,41.5713],[15.5489,41.5711],[15.54883,41.5709],[15.54816,41.56778],[15.54812,41.56748],[15.54804,41.5656],[15.54804,41.56474],[15.54707,41.5597],[15.54594,41.55406],[15.54597,41.55263],[15.54592,41.54966],[15.54169,41.54226],[15.54135,41.53968],[15.54125,41.53943],[15.54105,41.53921],[15.53919,41.53745],[15.53819,41.53587],[15.53787,41.53548],[15.53742,41.535]]},"properties":{}},{"type":"Feature","geometry":{"type":"LineString","coordinates":[[15.56991,41.50085],[15.56017,41.50948],[15.55608,41.51321],[15.5536,41.51578],[15.53742,41.535]]},"properties":{}},{"type":"Feature","geometry":{"type":"LineString","coordinates":[[15.54648,41.57972],[15.54269,41.58355],[15.53321,41.59286],[15.52787,41.60287],[15.53328,41.60696],[15.5487,41.61823],[15.54937,41.61866],[15.55038,41.61911],[15.57615,41.62959],[15.57666,41.62984],[15.57709,41.63015],[15.57741,41.63047],[15.57765,41.63082],[15.58496,41.64354],[15.58655,41.65662],[15.5866,41.65681],[15.58673,41.65701],[15.58695,41.65717],[15.58864,41.65819],[15.58879,41.65825],[15.59105,41.65724],[15.59154,41.65697],[15.59716,41.65337],[15.5998,41.65164],[15.60029,41.65117],[15.60161,41.64941],[15.60228,41.64864],[15.60465,41.64654],[15.60542,41.64597],[15.60653,41.64541],[15.60737,41.64502],[15.60861,41.64456],[15.61184,41.64354],[15.61242,41.64327],[15.61368,41.64247],[15.6141,41.64226],[15.61738,41.64123],[15.61844,41.64067],[15.61912,41.64013],[15.62021,41.63892],[15.62125,41.63692],[15.62182,41.63634],[15.62294,41.63556],[15.62645,41.63326],[15.62735,41.63255],[15.62828,41.63151],[15.62923,41.63081],[15.6298,41.63048],[15.63084,41.63003],[15.63167,41.6296],[15.63343,41.62814],[15.6351,41.62717],[15.63499,41.62697],[15.63429,41.62636],[15.63422,41.62628],[15.63414,41.62609],[15.63541,41.61977],[15.63536,41.61954],[15.6307,41.61062],[15.63029,41.60971],[15.62861,41.59886],[15.62854,41.59855],[15.62837,41.5983],[15.62027,41.60095],[15.61278,41.60329],[15.61225,41.6035],[15.61186,41.60374],[15.59481,41.616],[15.58407,41.62548],[15.58374,41.6257],[15.57753,41.62842],[15.57647,41.62901],[15.57615,41.62858],[15.57593,41.62816],[15.57415,41.62361],[15.56992,41.6164],[15.56724,41.61216],[15.5661,41.61018],[15.56598,41.61002],[15.56418,41.60827],[15.56409,41.60799],[15.56412,41.60744],[15.56404,41.60725],[15.56312,41.60616],[15.55846,41.59896],[15.55836,41.59862],[15.55856,41.59568],[15.55855,41.59519],[15.55583,41.58948],[15.55459,41.58702],[15.55344,41.58486],[15.55235,41.58342],[15.55206,41.58317],[15.54648,41.57972]]},"properties":{}},{"type":"Feature","geometry":{"type":"LineString","coordinates":[[15.54648,41.57972],[15.54677,41.57946],[15.54706,41.57924],[15.54978,41.57748],[15.55001,41.57726],[15.55006,41.57706],[15.55005,41.57689],[15.54952,41.57367],[15.5495,41.57332],[15.54954,41.57307],[15.54969,41.57275],[15.54993,41.57249],[15.55029,41.57225]]},"properties":{}},{"type":"Feature","geometry":{"type":"LineString","coordinates":[[15.55029,41.57225],[15.5507,41.57208],[15.55114,41.57201],[15.55763,41.57177],[15.55827,41.57168],[15.57689,41.56687],[15.57825,41.56648],[15.57893,41.56633],[15.57937,41.56615],[15.58269,41.56443],[15.58415,41.5638],[15.58559,41.56292],[15.58973,41.56076],[15.59032,41.56047],[15.59059,41.56038],[15.59135,41.56022],[15.59434,41.55982],[15.59981,41.55899],[15.61107,41.55742],[15.61145,41.5573],[15.59758,41.54134],[15.59712,41.54045],[15.59062,41.52933],[15.58957,41.52527],[15.5892,41.52364],[15.58843,41.52083],[15.58819,41.52029],[15.58776,41.51956],[15.58372,41.51288],[15.58339,41.51204],[15.58252,41.50786],[15.58257,41.50772],[15.58266,41.50762],[15.58428,41.50624]]},"properties":{}},{"type":"Feature","geometry":{"type":"LineString","coordinates":[[15.56694,41.5033],[15.56826,41.50194],[15.56874,41.50133],[15.56884,41.50109],[15.56889,41.50079],[15.56883,41.50053],[15.56872,41.50029],[15.56847,41.5]]},"properties":{}},{"type":"Feature","geometry":{"type":"LineString","coordinates":[[15.56694,41.5033],[15.56979,41.50077]]},"properties":{}},{"type":"Feature","geometry":{"type":"LineString","coordinates":[[15.56979,41.50077],[15.56861,41.5]]},"properties":{}},{"type":"Feature","geometry":{"type":"LineString","coordinates":[[15.56892,41.5],[15.56917,41.50007],[15.56953,41.50012],[15.56991,41.50008],[15.57019,41.5]]},"properties":{}},{"type":"Feature","geometry":{"type":"LineString","coordinates":[[15.56991,41.50085],[15.56979,41.50077]]},"properties":{}},{"type":"Feature","geometry":{"type":"LineString","coordinates":[[15.56979,41.50077],[15.57065,41.5]]},"properties":{}},{"type":"Feature","geometry":{"type":"LineString","coordinates":[[15.57144,41.5],[15.57141,41.5003],[15.57144,41.50074],[15.57132,41.50103],[15.57118,41.50118],[15.57097,41.50126],[15.5707,41.50126],[15.57043,41.50117],[15.56991,41.50085]]},"properties":{}},{"type":"Feature","geometry":{"type":"LineString","coordinates":[[15.57086,41.5],[15.56991,41.50085]]},"properties":{}},{"type":"Feature","geometry":{"type":"LineString","coordinates":[[15.58428,41.50624],[15.58383,41.506],[15.57708,41.50148],[15.57659,41.50106],[15.57565,41.5]]},"properties":{}},{"type":"Feature","geometry":{"type":"LineString","coordinates":[[15.58428,41.50624],[15.5848,41.50652],[15.58514,41.50658],[15.58527,41.50656],[15.58539,41.5065],[15.58547,41.5064],[15.58551,41.50626],[15.58549,41.50613],[15.58538,41.50599],[15.58519,41.50589],[15.58502,41.50587],[15.58485,41.50588],[15.58465,41.50595],[15.58428,41.50624]]},"properties":{}},{"type":"Feature","geometry":{"type":"LineString","coordinates":[[15.89477,41.61444],[15.89476,41.61511],[15.89478,41.61573],[15.89482,41.61593],[15.89505,41.61619],[15.89609,41.61709]]},"properties":{}},{"type":"Feature","geometry":{"type":"LineString","coordinates":[[15.89477,41.61413],[15.89477,41.61444]]},"properties":{}},{"type":"Feature","geometry":{"type":"LineString","coordinates":[[15.89477,41.61413],[15.89493,41.6142],[15.89493,41.61436],[15.89477,41.61444]]},"properties":{}},{"type":"Feature","geometry":{"type":"LineString","coordinates":[[15.89478,41.6141],[15.89477,41.61413]]},"properties":{}},{"type":"Feature","geometry":{"type":"LineString","coordinates":[[15.89478,41.6141],[15.8947,41.61381],[15.89477,41.61372],[15.89485,41.61369],[15.89495,41.61366],[15.89531,41.61393]]},"properties":{}},{"type":"Feature","geometry":{"type":"LineString","coordinates":[[15.89531,41.61393],[15.89497,41.61396],[15.89484,41.614],[15.89478,41.6141]]},"properties":{}},{"type":"Feature","geometry":{"type":"LineString","coordinates":[[15.90136,41.61859],[15.89572,41.61427],[15.89531,41.61393]]},"properties":{}},{"type":"Feature","geometry":{"type":"LineString","coordinates":[[15.89609,41.61709],[15.89762,41.61839],[15.89779,41.61859],[15.89788,41.61875],[15.89787,41.6198]]},"properties":{}},{"type":"Feature","geometry":{"type":"LineString","coordinates":[[15.89609,41.61709],[15.89604,41.61714],[15.89603,41.61813],[15.89588,41.61818],[15.89586,41.61941],[15.8963,41.61975],[15.89661,41.61989],[15.8977,41.61994]]},"properties":{}},{"type":"Feature","geometry":{"type":"LineString","coordinates":[[15.89807,41.61996],[15.89801,41.62004],[15.89788,41.62008],[15.89775,41.62004],[15.8977,41.61994]]},"properties":{}},{"type":"Feature","geometry":{"type":"LineString","coordinates":[[15.8977,41.61994],[15.89775,41.61985],[15.89787,41.6198]]},"properties":{}},{"type":"Feature","geometry":{"type":"LineString","coordinates":[[15.89787,41.6198],[15.89802,41.61985],[15.89807,41.61996]]},"properties":{}},{"type":"Feature","geometry":{"type":"LineString","coordinates":[[15.90121,41.61879],[15.90029,41.61948],[15.8999,41.61975],[15.8997,41.61985],[15.89925,41.61996],[15.89807,41.61996]]},"properties":{}},{"type":"Feature","geometry":{"type":"LineString","coordinates":[[15.90121,41.61879],[15.90136,41.61859]]},"properties":{}},{"type":"Feature","geometry":{"type":"LineString","coordinates":[[15.90149,41.61869],[15.90121,41.61879]]},"properties":{}},{"type":"Feature","geometry":{"type":"LineString","coordinates":[[15.90149,41.61869],[15.90136,41.61859]]},"properties":{}},{"type":"Feature","geometry":{"type":"LineString","coordinates":[[15.906,41.62215],[15.90149,41.61869]]},"properties":{}},{"type":"Feature","geometry":{"type":"LineString","coordinates":[[15.90466,41.64107],[15.90553,41.63951],[15.90561,41.63921],[15.9057,41.63855],[15.90582,41.63817],[15.90616,41.63757],[15.9064,41.63734]]},"properties":{}},{"type":"Feature","geometry":{"type":"LineString","coordinates":[[15.90469,41.62313],[15.90367,41.62386],[15.9034,41.62371],[15.90337,41.62325],[15.90343,41.6232],[15.90358,41.62316],[15.90469,41.62313]]},"properties":{}},{"type":"Feature","geometry":{"type":"LineString","coordinates":[[15.90469,41.62313],[15.90528,41.6227]]},"properties":{}},{"type":"Feature","geometry":{"type":"LineString","coordinates":[[15.91314,41.62772],[15.91267,41.62751],[15.91259,41.62738],[15.91237,41.62718],[15.90909,41.62539],[15.90872,41.62522],[15.90528,41.6227]]},"properties":{}},{"type":"Feature","geometry":{"type":"LineString","coordinates":[[15.90528,41.6227],[15.906,41.62215]]},"properties":{}},{"type":"Feature","geometry":{"type":"LineString","coordinates":[[15.91169,41.6259],[15.90947,41.62472],[15.90898,41.62442],[15.90847,41.62406],[15.906,41.62215]]},"properties":{}},{"type":"Feature","geometry":{"type":"LineString","coordinates":[[15.9064,41.63734],[15.90649,41.63716],[15.90652,41.63701],[15.90698,41.63675]]},"properties":{}},{"type":"Feature","geometry":{"type":"LineString","coordinates":[[15.90698,41.63675],[15.90668,41.63711],[15.9064,41.63734]]},"properties":{}},{"type":"Feature","geometry":{"type":"LineString","coordinates":[[15.90698,41.63675],[15.90769,41.63622],[15.9079,41.63615],[15.90984,41.63596],[15.91055,41.63584],[15.91129,41.63547],[15.91328,41.63433]]},"properties":{}},{"type":"Feature","geometry":{"type":"LineString","coordinates":[[15.91385,41.62693],[15.91302,41.62647],[15.91244,41.6263],[15.91169,41.6259]]},"properties":{}},{"type":"Feature","geometry":{"type":"LineString","coordinates":[[15.91169,41.6259],[15.91193,41.62562],[15.91278,41.62605],[15.9132,41.62621],[15.91426,41.6264],[15.91385,41.62693]]},"properties":{}},{"type":"Feature","geometry":{"type":"LineString","coordinates":[[15.91409,41.62811],[15.91403,41.62817],[15.91314,41.62772]]},"properties":{}},{"type":"Feature","geometry":{"type":"LineString","coordinates":[[15.91654,41.63077],[15.91232,41.62861],[15.91314,41.62772]]},"properties":{}},{"type":"Feature","geometry":{"type":"LineString","coordinates":[[15.91314,41.62772],[15.91385,41.62693]]},"properties":{}},{"type":"Feature","geometry":{"type":"LineString","coordinates":[[15.91328,41.63433],[15.91397,41.63468],[15.91553,41.63558],[15.91605,41.63519],[15.91625,41.6351],[15.91651,41.6351],[15.91663,41.63515],[15.91796,41.63597],[15.91864,41.6365],[15.91888,41.63681]]},"properties":{}},{"type":"Feature","geometry":{"type":"LineString","coordinates":[[15.91328,41.63433],[15.91368,41.63391],[15.91491,41.63247]]},"properties":{}},{"type":"Feature","geometry":{"type":"LineString","coordinates":[[15.91385,41.62693],[15.91465,41.62737],[15.91473,41.62745]]},"properties":{}},{"type":"Feature","geometry":{"type":"LineString","coordinates":[[15.91409,41.62811],[15.91732,41.62999]]},"properties":{}},{"type":"Feature","geometry":{"type":"LineString","coordinates":[[15.91473,41.62745],[15.91409,41.62811]]},"properties":{}},{"type":"Feature","geometry":{"type":"LineString","coordinates":[[15.92198,41.63195],[15.92026,41.63077],[15.91976,41.63038],[15.91924,41.63004],[15.91473,41.62745]]},"properties":{}},{"type":"Feature","geometry":{"type":"LineString","coordinates":[[15.91685,41.63279],[15.91669,41.63296],[15.91646,41.63302],[15.91621,41.63291],[15.91607,41.63306],[15.91491,41.63247]]},"properties":{}},{"type":"Feature","geometry":{"type":"LineString","coordinates":[[15.91491,41.63247],[15.91262,41.63126],[15.91253,41.63119],[15.91252,41.6311],[15.91265,41.63101],[15.91275,41.63101],[15.91306,41.63112],[15.91517,41.63221]]},"properties":{}},{"type":"Feature","geometry":{"type":"LineString","coordinates":[[15.91491,41.63247],[15.91517,41.63221]]},"properties":{}},{"type":"Feature","geometry":{"type":"LineString","coordinates":[[15.91517,41.63221],[15.91632,41.63279],[15.91649,41.63261],[15.91685,41.63279]]},"properties":{}},{"type":"Feature","geometry":{"type":"LineString","coordinates":[[15.91517,41.63221],[15.91654,41.63077]]},"properties":{}},{"type":"Feature","geometry":{"type":"LineString","coordinates":[[15.91572,41.6404],[15.91583,41.64001],[15.91763,41.63817],[15.91872,41.63712],[15.91874,41.63702],[15.91888,41.63681]]},"properties":{}},{"type":"Feature","geometry":{"type":"LineString","coordinates":[[15.92256,41.63349],[15.9207,41.63236],[15.92034,41.63276],[15.91654,41.63077]]},"properties":{}},{"type":"Feature","geometry":{"type":"LineString","coordinates":[[15.91732,41.62999],[15.91654,41.63077]]},"properties":{}},{"type":"Feature","geometry":{"type":"LineString","coordinates":[[15.91685,41.63279],[15.91705,41.63289]]},"properties":{}},{"type":"Feature","geometry":{"type":"LineString","coordinates":[[15.91724,41.63359],[15.91728,41.63336],[15.91753,41.63311],[15.91705,41.63289]]},"properties":{}},{"type":"Feature","geometry":{"type":"LineString","coordinates":[[15.91705,41.63289],[15.91715,41.63278],[15.91756,41.63295],[15.9176,41.63301],[15.91767,41.63302],[15.91772,41.63307],[15.9177,41.63313],[15.91765,41.63316],[15.91724,41.63359]]},"properties":{}},{"type":"Feature","geometry":{"type":"LineString","coordinates":[[15.91998,41.63577],[15.91888,41.63452],[15.9187,41.63446],[15.91751,41.6338],[15.91724,41.63359]]},"properties":{}},{"type":"Feature","geometry":{"type":"LineString","coordinates":[[15.91732,41.62999],[15.91956,41.6313],[15.92144,41.63246]]},"properties":{}},{"type":"Feature","geometry":{"type":"LineString","coordinates":[[15.91888,41.63681],[15.91903,41.63664],[15.91913,41.63659],[15.91995,41.63583],[15.91998,41.63577]]},"properties":{}},{"type":"Feature","geometry":{"type":"LineString","coordinates":[[15.91998,41.63577],[15.9214,41.63738],[15.92261,41.63619],[15.9246,41.63526]]},"properties":{}},{"type":"Feature","geometry":{"type":"LineString","coordinates":[[15.92144,41.63246],[15.92279,41.63329]]},"properties":{}},{"type":"Feature","geometry":{"type":"LineString","coordinates":[[15.92144,41.63246],[15.92198,41.63195]]},"properties":{}},{"type":"Feature","geometry":{"type":"LineString","coordinates":[[15.92279,41.63329],[15.92328,41.63284],[15.92198,41.63195]]},"properties":{}},{"type":"Feature","geometry":{"type":"LineString","coordinates":[[15.92604,41.63736],[15.92733,41.63701],[15.92749,41.6369],[15.92964,41.6345],[15.92445,41.63218],[15.92431,41.63209],[15.92414,41.63184],[15.92364,41.63108],[15.9234,41.63065],[15.92332,41.63069],[15.92198,41.63195]]},"properties":{}},{"type":"Feature","geometry":{"type":"LineString","coordinates":[[15.92351,41.63406],[15.92256,41.63349]]},"properties":{}},{"type":"Feature","geometry":{"type":"LineString","coordinates":[[15.92256,41.63349],[15.92279,41.63329]]},"properties":{}},{"type":"Feature","geometry":{"type":"LineString","coordinates":[[15.92279,41.63329],[15.92316,41.63352],[15.92351,41.63406]]},"properties":{}},{"type":"Feature","geometry":{"type":"LineString","coordinates":[[15.92351,41.63406],[15.92402,41.63459],[15.9246,41.63526]]},"properties":{}},{"type":"Feature","geometry":{"type":"LineString","coordinates":[[15.9246,41.63526],[15.92568,41.63665],[15.92604,41.63736]]},"properties":{}},{"type":"Feature","geometry":{"type":"LineString","coordinates":[[15.92604,41.63736],[15.92623,41.63782],[15.92655,41.63917],[15.92592,41.63925]]},"properties":{}}]}