{"type":"FeatureCollection","features":[{"type":"Feature","geometry":{"type":"LineString","coordinates":[[15.5,40.52344],[15.50112,40.52274],[15.50517,40.52002],[15.50635,40.51916],[15.5077,40.51802],[15.51333,40.51307],[15.51612,40.51053],[15.51703,40.50961],[15.51789,40.50866],[15.51865,40.50769],[15.51907,40.50707],[15.51992,40.50564],[15.52057,40.50433],[15.52127,40.50265],[15.52166,40.50157],[15.52209,40.5]]},"properties":{}},{"type":"Feature","geometry":{"type":"LineString","coordinates":[[15.52223,40.5],[15.52197,40.50104],[15.52178,40.50164],[15.52138,40.50271],[15.5207,40.50435],[15.52004,40.50569],[15.51919,40.50712],[15.51876,40.50774],[15.51799,40.50872],[15.51716,40.50967],[15.51623,40.51059],[15.51527,40.5115],[15.51101,40.51528],[15.51038,40.51579],[15.50945,40.51665],[15.50644,40.51924],[15.5047,40.52049],[15.50047,40.52329],[15.5,40.52358]]},"properties":{}},{"type":"Feature","geometry":{"type":"LineString","coordinates":[[15.5,40.62028],[15.50112,40.62042],[15.50318,40.62062],[15.50539,40.62079],[15.51035,40.62128],[15.51103,40.62139],[15.51163,40.62154],[15.51298,40.62195],[15.51491,40.62247],[15.51621,40.62269],[15.5216,40.62312],[15.52447,40.62329],[15.52594,40.62334],[15.52792,40.62331],[15.5294,40.62323],[15.53087,40.62308],[15.54153,40.62149],[15.54329,40.62118],[15.54475,40.62081],[15.54529,40.62063],[15.54906,40.61916],[15.54995,40.6189],[15.5509,40.61872],[15.55145,40.61866],[15.55246,40.6186],[15.55551,40.61862],[15.55672,40.61868],[15.5575,40.61876],[15.5585,40.61892],[15.56182,40.61966],[15.56264,40.6198],[15.56394,40.61989],[15.56448,40.61989],[15.56554,40.61984],[15.56683,40.61961],[15.56771,40.61939],[15.56859,40.61908],[15.5703,40.61832],[15.57179,40.61761],[15.57232,40.61742],[15.5732,40.61719],[15.57414,40.61713],[15.57478,40.61717],[15.57528,40.61723],[15.57602,40.61742],[15.57658,40.61764],[15.57711,40.6179],[15.57895,40.61911],[15.58205,40.6213],[15.58273,40.62173],[15.58307,40.62191],[15.58378,40.62222],[15.58582,40.62292],[15.58676,40.62341],[15.58716,40.6237],[15.58749,40.62398],[15.58797,40.62452],[15.58828,40.62503],[15.58873,40.62592],[15.58893,40.62623],[15.58933,40.62672],[15.58984,40.62717],[15.59012,40.62736],[15.59068,40.62768],[15.59131,40.62795],[15.59179,40.62811],[15.59837,40.63017],[15.59952,40.63041],[15.60045,40.63049],[15.60096,40.6305],[15.60215,40.63041],[15.60487,40.62997],[15.60577,40.62991],[15.60663,40.62995],[15.60905,40.63017],[15.61008,40.63012],[15.61076,40.62999],[15.61151,40.62974],[15.61194,40.62955],[15.61242,40.62927],[15.61289,40.62892],[15.61318,40.6286],[15.61357,40.62799],[15.61379,40.62745],[15.61388,40.62711],[15.61403,40.62623],[15.61458,40.62251],[15.61483,40.62175],[15.61527,40.62099],[15.61576,40.62045],[15.61623,40.62004],[15.61686,40.61961],[15.61757,40.61926],[15.62021,40.61817],[15.62192,40.61731]]},"properties":{}},{"type":"Feature","geometry":{"type":"LineString","coordinates":[[15.61811,40.61916],[15.61705,40.61963],[15.61673,40.6198],[15.6162,40.62019],[15.61593,40.62042],[15.61549,40.62087],[15.61526,40.62118],[15.61495,40.62172],[15.61482,40.62203],[15.61466,40.62262],[15.61424,40.62556],[15.61393,40.62743],[15.61376,40.6279],[15.61338,40.62854],[15.61311,40.62888],[15.61264,40.62927],[15.61202,40.62963],[15.6114,40.62989],[15.61055,40.63015],[15.60993,40.63025],[15.60904,40.63028],[15.6066,40.63007],[15.60572,40.63003],[15.60439,40.63015],[15.60184,40.63055],[15.60077,40.63061],[15.59975,40.63055],[15.59898,40.63043],[15.59834,40.63028],[15.59149,40.62813],[15.59067,40.62781],[15.58995,40.6274],[15.58962,40.62716],[15.58916,40.62673],[15.58893,40.62647],[15.58866,40.62607],[15.58811,40.62501],[15.58773,40.62445],[15.58735,40.62403],[15.58702,40.62375],[15.58666,40.62351],[15.58603,40.62311],[15.58562,40.6229],[15.5843,40.62247],[15.58344,40.62214],[15.58279,40.62182],[15.58201,40.62132],[15.57801,40.61854],[15.57692,40.61784],[15.57675,40.61779],[15.57637,40.61778],[15.57613,40.61775],[15.57522,40.61749],[15.57445,40.61737],[15.57392,40.61735],[15.57348,40.61737],[15.57299,40.61743],[15.57219,40.61762],[15.57175,40.61777],[15.56849,40.61923],[15.56752,40.61956],[15.56636,40.61983],[15.56556,40.61995],[15.56478,40.61999],[15.56366,40.62],[15.56223,40.61986],[15.56179,40.61978],[15.55851,40.61903],[15.55667,40.61876],[15.55538,40.6187],[15.55241,40.61869],[15.55151,40.61874],[15.55091,40.61881],[15.54984,40.61903],[15.54926,40.6192],[15.54502,40.62082],[15.54297,40.62135],[15.54146,40.62162],[15.53042,40.62324],[15.52875,40.62338],[15.52791,40.62342],[15.52587,40.62345],[15.52444,40.62341],[15.52045,40.62312],[15.51975,40.6231],[15.51623,40.62282],[15.51506,40.62262],[15.51431,40.62245],[15.5116,40.62166],[15.51096,40.62153],[15.50853,40.62126],[15.50205,40.62071],[15.50068,40.62055],[15.5,40.62044]]},"properties":{}},{"type":"Feature","geometry":{"type":"LineString","coordinates":[[15.62227,40.61726],[15.62086,40.618],[15.62011,40.61835],[15.61811,40.61916]]},"properties":{}},{"type":"Feature","geometry":{"type":"LineString","coordinates":[[15.62226,40.61812],[15.62232,40.61797],[15.62226,40.61788],[15.62209,40.61781],[15.62187,40.61782],[15.61945,40.61876],[15.61904,40.61886],[15.61843,40.61909],[15.61811,40.61916]]},"properties":{}},{"type":"Feature","geometry":{"type":"LineString","coordinates":[[15.62192,40.61731],[15.62219,40.61711]]},"properties":{}},{"type":"Feature","geometry":{"type":"LineString","coordinates":[[15.62192,40.61731],[15.62222,40.61715]]},"properties":{}},{"type":"Feature","geometry":{"type":"LineString","coordinates":[[15.62219,40.61844],[15.6221,40.6184],[15.62206,40.61831],[15.62211,40.61821],[15.62219,40.61818]]},"properties":{}},{"type":"Feature","geometry":{"type":"LineString","coordinates":[[15.62219,40.61818],[15.62226,40.61812]]},"properties":{}},{"type":"Feature","geometry":{"type":"LineString","coordinates":[[15.62219,40.61818],[15.6223,40.61818],[15.6224,40.61823]]},"properties":{}},{"type":"Feature","geometry":{"type":"LineString","coordinates":[[15.62241,40.61837],[15.62234,40.61843],[15.62219,40.61844]]},"properties":{}},{"type":"Feature","geometry":{"type":"LineString","coordinates":[[15.62241,40.61837],[15.62247,40.61848],[15.62256,40.61845],[15.62261,40.61839],[15.62263,40.61823],[15.62276,40.6183],[15.62279,40.61838],[15.62272,40.61852],[15.6225,40.61856],[15.62219,40.61844]]},"properties":{}},{"type":"Feature","geometry":{"type":"LineString","coordinates":[[15.62219,40.61711],[15.62222,40.61715]]},"properties":{}},{"type":"Feature","geometry":{"type":"LineString","coordinates":[[15.6227,40.61622],[15.62237,40.61618],[15.62221,40.61622],[15.62203,40.61637],[15.62197,40.61648],[15.62196,40.61662],[15.62219,40.61711]]},"properties":{}},{"type":"Feature","geometry":{"type":"LineString","coordinates":[[15.62219,40.61711],[15.62277,40.61678],[15.62288,40.61667],[15.62292,40.61653],[15.62289,40.61642],[15.62285,40.61634],[15.6227,40.61622]]},"properties":{}},{"type":"Feature","geometry":{"type":"LineString","coordinates":[[15.62222,40.61715],[15.62227,40.61726]]},"properties":{}},{"type":"Feature","geometry":{"type":"LineString","coordinates":[[15.62222,40.61715],[15.62444,40.61593]]},"properties":{}},{"type":"Feature","geometry":{"type":"LineString","coordinates":[[15.62226,40.61812],[15.62243,40.618]]},"properties":{}},{"type":"Feature","geometry":{"type":"LineString","coordinates":[[15.62227,40.61726],[15.62245,40.61766],[15.62246,40.61793]]},"properties":{}},{"type":"Feature","geometry":{"type":"LineString","coordinates":[[15.62443,40.61607],[15.62227,40.61726]]},"properties":{}},{"type":"Feature","geometry":{"type":"LineString","coordinates":[[15.6224,40.61823],[15.62243,40.6183],[15.62241,40.61837]]},"properties":{}},{"type":"Feature","geometry":{"type":"LineString","coordinates":[[15.62243,40.618],[15.62238,40.61815],[15.6224,40.61823]]},"properties":{}},{"type":"Feature","geometry":{"type":"LineString","coordinates":[[15.62246,40.61793],[15.62243,40.618]]},"properties":{}},{"type":"Feature","geometry":{"type":"LineString","coordinates":[[15.62443,40.61607],[15.62314,40.61687],[15.62246,40.61793]]},"properties":{}},{"type":"Feature","geometry":{"type":"LineString","coordinates":[[15.6227,40.61622],[15.62283,40.61623],[15.62323,40.61636],[15.62346,40.61637],[15.62357,40.61634],[15.62444,40.61593]]},"properties":{}},{"type":"Feature","geometry":{"type":"LineString","coordinates":[[15.78284,40.62414],[15.77818,40.62458],[15.77739,40.62467],[15.77643,40.6249],[15.77393,40.62571],[15.77304,40.62589],[15.77187,40.62594],[15.77099,40.62588],[15.77024,40.62575],[15.76945,40.62551],[15.76286,40.62304],[15.76176,40.62272],[15.75945,40.62218],[15.75867,40.62193],[15.75793,40.62161],[15.75729,40.62125],[15.75689,40.62097],[15.75578,40.62017],[15.7547,40.61929],[15.75405,40.61886],[15.75368,40.61864],[15.7529,40.61828],[15.7516,40.61779],[15.75055,40.61734],[15.74977,40.6169],[15.74914,40.61647],[15.74835,40.61571],[15.7474,40.61494],[15.74697,40.61471],[15.74537,40.61396],[15.74393,40.61335],[15.74355,40.61321],[15.74305,40.61308],[15.74249,40.61297],[15.74056,40.61266],[15.7383,40.61207],[15.72461,40.60926],[15.71727,40.60809],[15.71588,40.60791],[15.71404,40.60775],[15.71277,40.6077],[15.71129,40.6077],[15.70114,40.60806],[15.69938,40.60825],[15.69667,40.60878],[15.6958,40.60887],[15.69509,40.60889],[15.68529,40.60872],[15.68455,40.60872],[15.68348,40.60881],[15.68275,40.60893],[15.68207,40.6091],[15.68129,40.60935],[15.68085,40.60952],[15.67996,40.60995],[15.67662,40.61166],[15.67581,40.61201],[15.67488,40.61227],[15.67443,40.61236],[15.67401,40.61241],[15.67334,40.61245],[15.67281,40.61244],[15.67201,40.61235],[15.67157,40.61227],[15.67087,40.61208],[15.67007,40.61177],[15.66825,40.61083],[15.66773,40.6106],[15.6673,40.61044],[15.66654,40.61022],[15.66567,40.61006],[15.66517,40.61001],[15.66466,40.60998],[15.66375,40.61001],[15.66287,40.61012],[15.65772,40.61099],[15.65651,40.61136],[15.65252,40.61291],[15.65147,40.61322],[15.6503,40.61345],[15.64926,40.61355],[15.64802,40.61356],[15.64697,40.61347],[15.64397,40.61301],[15.64279,40.6129],[15.64194,40.61288],[15.64048,40.61292],[15.63599,40.61323],[15.62877,40.61432],[15.62774,40.61452],[15.62696,40.61477],[15.62631,40.61504],[15.62443,40.61607]]},"properties":{}},{"type":"Feature","geometry":{"type":"LineString","coordinates":[[15.62444,40.61593],[15.62598,40.61507],[15.62634,40.6149],[15.62691,40.61467],[15.6275,40.61449],[15.62803,40.61436],[15.63454,40.61335],[15.63703,40.613],[15.64044,40.61275],[15.64193,40.61274],[15.64366,40.61285],[15.64684,40.61333],[15.64782,40.61343],[15.64894,40.61345],[15.64992,40.61338],[15.65051,40.6133],[15.65157,40.61307],[15.65245,40.6128],[15.6564,40.61127],[15.65747,40.61093],[15.65886,40.61066],[15.66357,40.6099],[15.66413,40.60987],[15.66515,40.60989],[15.66646,40.61008],[15.66733,40.61032],[15.66786,40.61051],[15.67003,40.6116],[15.67066,40.61187],[15.67105,40.612],[15.67197,40.61223],[15.67237,40.61228],[15.67342,40.61233],[15.67442,40.61224],[15.67485,40.61216],[15.67573,40.61191],[15.67657,40.61156],[15.67947,40.61006],[15.68082,40.60941],[15.68192,40.60901],[15.68272,40.60882],[15.68344,40.6087],[15.68457,40.60861],[15.69509,40.60879],[15.6956,40.60878],[15.69652,40.6087],[15.6994,40.60814],[15.7008,40.60798],[15.70169,40.60792],[15.71137,40.6076],[15.7128,40.6076],[15.71411,40.60764],[15.71601,40.60781],[15.71736,40.608],[15.72472,40.60917],[15.7287,40.60996],[15.742,40.61271],[15.74372,40.61313],[15.74596,40.6141],[15.74699,40.61461],[15.74777,40.61507],[15.7488,40.616],[15.74962,40.61669],[15.7502,40.61707],[15.75098,40.61743],[15.75296,40.61821],[15.75408,40.61877],[15.75476,40.61923],[15.75695,40.6209],[15.75756,40.62132],[15.75792,40.62152],[15.75868,40.62185],[15.75949,40.6221],[15.7616,40.6226],[15.76285,40.62297],[15.76955,40.62544],[15.7702,40.62564],[15.77094,40.6258],[15.7716,40.62586],[15.77259,40.62585],[15.7731,40.6258],[15.77398,40.62561],[15.77455,40.62544],[15.77605,40.62492],[15.77695,40.62466],[15.77762,40.62455],[15.77874,40.62444],[15.78114,40.62422]]},"properties":{}},{"type":"Feature","geometry":{"type":"LineString","coordinates":[[15.76924,40.65489],[15.76852,40.65488],[15.76706,40.65499],[15.76469,40.65564],[15.76437,40.65569],[15.76385,40.65571],[15.76261,40.65632],[15.76251,40.65631],[15.76243,40.65627],[15.76216,40.65586],[15.76205,40.65582],[15.76194,40.65582],[15.76183,40.65586],[15.76068,40.65656],[15.76046,40.65658],[15.76006,40.65647],[15.75987,40.6565],[15.75943,40.65683],[15.75911,40.65729],[15.75842,40.65778],[15.75798,40.65796],[15.75557,40.65873],[15.75543,40.65888],[15.7553,40.65942],[15.75515,40.65956],[15.75461,40.6596],[15.75446,40.65963],[15.75426,40.65971],[15.75408,40.65973],[15.7533,40.65962],[15.75279,40.65969],[15.7526,40.6598],[15.75201,40.66059],[15.75181,40.66078],[15.75142,40.66087],[15.75048,40.66099],[15.74978,40.66127],[15.74965,40.66141],[15.74908,40.66217],[15.74889,40.66236],[15.74826,40.66265],[15.74774,40.66276],[15.74764,40.66282],[15.74766,40.6629],[15.74777,40.66293],[15.74834,40.66277],[15.74921,40.66241],[15.74938,40.66241],[15.74943,40.66247],[15.74943,40.66254],[15.74939,40.6626],[15.74891,40.66272],[15.74841,40.66304],[15.74835,40.66313],[15.74824,40.66362],[15.74815,40.66376],[15.74802,40.66389],[15.74761,40.6641],[15.74726,40.66413],[15.74711,40.6642],[15.7471,40.66431],[15.74721,40.66439],[15.74774,40.66432],[15.74824,40.66414],[15.74876,40.66377],[15.74884,40.66375],[15.74896,40.66381],[15.74899,40.6639],[15.74895,40.66396],[15.74826,40.66435],[15.74789,40.66469],[15.74777,40.66475],[15.74762,40.66479],[15.74728,40.6648],[15.74701,40.66474],[15.74663,40.66459],[15.74638,40.6646],[15.74607,40.6647],[15.7452,40.66532],[15.74501,40.66534],[15.74486,40.66532],[15.74449,40.66516],[15.74431,40.66513],[15.74339,40.66539],[15.74313,40.66552],[15.74292,40.66569],[15.74245,40.66647],[15.74234,40.66658],[15.74221,40.66664],[15.74199,40.66666],[15.7418,40.66664],[15.74166,40.66657],[15.74157,40.66645],[15.74131,40.66548],[15.74131,40.66535],[15.74132,40.66529],[15.74142,40.6652],[15.7417,40.66504],[15.74178,40.66496],[15.74177,40.66463],[15.74172,40.66449],[15.74164,40.66439],[15.74114,40.66407],[15.74096,40.66409],[15.7409,40.66417],[15.7409,40.66423],[15.741,40.6643],[15.74156,40.66444],[15.74163,40.66451],[15.74159,40.6646],[15.74152,40.66464],[15.74144,40.66463],[15.74114,40.66441],[15.74071,40.66435],[15.73981,40.66449],[15.73673,40.66431],[15.73655,40.66434],[15.73648,40.66439],[15.73644,40.66446],[15.73644,40.66454],[15.73648,40.66461],[15.73716,40.66522],[15.7373,40.66531],[15.73759,40.66536],[15.7381,40.66529],[15.73881,40.66547],[15.73956,40.66546],[15.7397,40.66554],[15.73971,40.66564],[15.73966,40.6657],[15.73818,40.66662],[15.73801,40.66669],[15.73755,40.66681],[15.7374,40.6669],[15.73646,40.66922],[15.73569,40.67016],[15.73466,40.6706],[15.73435,40.67079],[15.73396,40.67149],[15.73397,40.67166],[15.73407,40.67179],[15.73535,40.67252],[15.73581,40.67255],[15.73743,40.67248],[15.7376,40.67251],[15.73798,40.67285],[15.73832,40.67304],[15.73868,40.6735],[15.73882,40.67358],[15.73935,40.67371],[15.73943,40.67376],[15.73946,40.67382],[15.73944,40.67388],[15.73933,40.67395],[15.73895,40.67388],[15.73845,40.67388],[15.73734,40.67346],[15.73724,40.67344],[15.73711,40.67347],[15.73703,40.67358],[15.73705,40.67364],[15.73712,40.67369],[15.73766,40.67386],[15.73803,40.67414],[15.73854,40.67419],[15.73903,40.67433],[15.73913,40.67441],[15.73912,40.67447],[15.73908,40.67451],[15.73898,40.67453],[15.73835,40.67439],[15.73776,40.67443],[15.73694,40.67429],[15.73653,40.67426],[15.73639,40.67429],[15.7363,40.67442],[15.73632,40.67448],[15.73637,40.67453],[15.73652,40.6746],[15.73721,40.67474],[15.73736,40.67485],[15.73741,40.67502],[15.73737,40.67513],[15.73726,40.67525],[15.73692,40.67551],[15.73616,40.6759],[15.73606,40.676],[15.73601,40.67616],[15.73603,40.6763],[15.73609,40.67641],[15.73695,40.6776],[15.73797,40.67798],[15.7384,40.67821],[15.73868,40.67841],[15.73918,40.67883]]},"properties":{}},{"type":"Feature","geometry":{"type":"LineString","coordinates":[[15.77008,40.65489],[15.76966,40.65495],[15.76924,40.65489]]},"properties":{}},{"type":"Feature","geometry":{"type":"LineString","coordinates":[[15.76924,40.65489],[15.76948,40.65485],[15.7696,40.65474],[15.76969,40.65472],[15.77008,40.65489]]},"properties":{}},{"type":"Feature","geometry":{"type":"LineString","coordinates":[[15.78524,40.65279],[15.78513,40.65301],[15.78482,40.65407],[15.78476,40.65416],[15.78461,40.65425],[15.78384,40.65447],[15.78308,40.65484],[15.78297,40.65487],[15.78279,40.65487],[15.78262,40.6548],[15.78213,40.65403],[15.78116,40.65286],[15.781,40.65277],[15.78091,40.65276],[15.78075,40.65278],[15.78067,40.65284],[15.78057,40.65302],[15.78049,40.65334],[15.78041,40.65347],[15.77964,40.65427],[15.77796,40.65491],[15.77764,40.65492],[15.7774,40.65486],[15.7772,40.65475],[15.77634,40.65418],[15.77607,40.65409],[15.77569,40.65405],[15.77543,40.65407],[15.77481,40.65423],[15.77358,40.65464],[15.7719,40.65457],[15.77124,40.65458],[15.7709,40.65464],[15.77008,40.65489]]},"properties":{}},{"type":"Feature","geometry":{"type":"LineString","coordinates":[[15.78114,40.62422],[15.78214,40.62407],[15.78231,40.62398],[15.78259,40.62363],[15.78274,40.62355],[15.78283,40.62353],[15.78305,40.62358],[15.78383,40.62393]]},"properties":{}},{"type":"Feature","geometry":{"type":"LineString","coordinates":[[15.78114,40.62422],[15.78325,40.62402],[15.78383,40.62393]]},"properties":{}},{"type":"Feature","geometry":{"type":"LineString","coordinates":[[15.78395,40.62398],[15.78284,40.62414]]},"properties":{}},{"type":"Feature","geometry":{"type":"LineString","coordinates":[[15.78496,40.62436],[15.78351,40.62415],[15.78284,40.62414]]},"properties":{}},{"type":"Feature","geometry":{"type":"LineString","coordinates":[[15.78383,40.62393],[15.78395,40.62398]]},"properties":{}},{"type":"Feature","geometry":{"type":"LineString","coordinates":[[15.78383,40.62393],[15.78482,40.62371],[15.78741,40.62297],[15.78819,40.62281],[15.78898,40.62272],[15.7931,40.62267],[15.79501,40.62269],[15.79587,40.62278],[15.79715,40.62299]]},"properties":{}},{"type":"Feature","geometry":{"type":"LineString","coordinates":[[15.78395,40.62398],[15.78453,40.62424],[15.78496,40.62436]]},"properties":{}},{"type":"Feature","geometry":{"type":"LineString","coordinates":[[15.79712,40.62307],[15.79617,40.62289],[15.795,40.62277],[15.79309,40.62275],[15.78911,40.62278],[15.78824,40.62287],[15.78785,40.62294],[15.78489,40.62376],[15.78395,40.62398]]},"properties":{}},{"type":"Feature","geometry":{"type":"LineString","coordinates":[[15.78496,40.62436],[15.78655,40.62462],[15.7882,40.62476],[15.79015,40.62477],[15.79168,40.62463],[15.79215,40.62466],[15.79266,40.62475]]},"properties":{}},{"type":"Feature","geometry":{"type":"LineString","coordinates":[[15.7855,40.65295],[15.78524,40.65279]]},"properties":{}},{"type":"Feature","geometry":{"type":"LineString","coordinates":[[15.78528,40.65274],[15.78524,40.65279]]},"properties":{}},{"type":"Feature","geometry":{"type":"LineString","coordinates":[[15.78528,40.65274],[15.78553,40.65275]]},"properties":{}},{"type":"Feature","geometry":{"type":"LineString","coordinates":[[15.78725,40.6502],[15.78597,40.65077],[15.78575,40.65088],[15.78568,40.65095],[15.78535,40.6515],[15.78526,40.65175],[15.78526,40.652],[15.78539,40.65238],[15.78537,40.65255],[15.78528,40.65274]]},"properties":{}},{"type":"Feature","geometry":{"type":"LineString","coordinates":[[15.7855,40.65295],[15.78562,40.65324],[15.78559,40.65434],[15.78553,40.65442],[15.78545,40.65444],[15.78536,40.65439],[15.7853,40.65427],[15.78539,40.65405],[15.78542,40.65345],[15.7855,40.65295]]},"properties":{}},{"type":"Feature","geometry":{"type":"LineString","coordinates":[[15.7855,40.65295],[15.78553,40.65275]]},"properties":{}},{"type":"Feature","geometry":{"type":"LineString","coordinates":[[15.78553,40.65275],[15.78561,40.65258],[15.78578,40.65248],[15.78599,40.6525],[15.78616,40.65266],[15.78664,40.65343],[15.78661,40.65433]]},"properties":{}},{"type":"Feature","geometry":{"type":"LineString","coordinates":[[15.7859,40.64916],[15.78316,40.64796],[15.78286,40.64776],[15.7827,40.64755],[15.78265,40.64743],[15.78256,40.64703],[15.78254,40.64681],[15.78258,40.64664],[15.78368,40.64515],[15.78385,40.64498],[15.78404,40.64489],[15.78595,40.64444],[15.78726,40.64767],[15.78725,40.64781],[15.78631,40.64908]]},"properties":{}},{"type":"Feature","geometry":{"type":"LineString","coordinates":[[15.78661,40.64948],[15.78618,40.64931]]},"properties":{}},{"type":"Feature","geometry":{"type":"LineString","coordinates":[[15.78661,40.65433],[15.78663,40.6547],[15.7867,40.65497],[15.78662,40.65512],[15.78589,40.65598],[15.78578,40.65601],[15.78564,40.656],[15.78551,40.65594],[15.78545,40.65588],[15.78543,40.65577],[15.78661,40.65433]]},"properties":{}},{"type":"Feature","geometry":{"type":"LineString","coordinates":[[15.78661,40.64948],[15.78695,40.64961],[15.78706,40.64971],[15.78719,40.64975]]},"properties":{}},{"type":"Feature","geometry":{"type":"LineString","coordinates":[[15.78716,40.64997],[15.78691,40.64989],[15.78688,40.64982],[15.7869,40.64974],[15.78677,40.6496],[15.78661,40.64948]]},"properties":{}},{"type":"Feature","geometry":{"type":"LineString","coordinates":[[15.78726,40.64007],[15.78672,40.64002]]},"properties":{}},{"type":"Feature","geometry":{"type":"LineString","coordinates":[[15.78672,40.64002],[15.78607,40.63995],[15.78475,40.63973],[15.78325,40.63911],[15.7836,40.6387],[15.78446,40.63753],[15.78479,40.63701],[15.7854,40.63574],[15.78571,40.63527],[15.78584,40.63513],[15.78618,40.63482],[15.78751,40.63384],[15.78797,40.63354],[15.78829,40.63324],[15.78843,40.63328],[15.78854,40.63334]]},"properties":{}},{"type":"Feature","geometry":{"type":"LineString","coordinates":[[15.78672,40.64002],[15.78697,40.63998],[15.78707,40.6399]]},"properties":{}},{"type":"Feature","geometry":{"type":"LineString","coordinates":[[15.78726,40.64007],[15.78709,40.64002],[15.78707,40.6399]]},"properties":{}},{"type":"Feature","geometry":{"type":"LineString","coordinates":[[15.78707,40.6399],[15.78734,40.63937],[15.78737,40.63918],[15.78736,40.63908],[15.78716,40.63884],[15.78727,40.63871]]},"properties":{}},{"type":"Feature","geometry":{"type":"LineString","coordinates":[[15.78734,40.64989],[15.78728,40.64995],[15.78716,40.64997]]},"properties":{}},{"type":"Feature","geometry":{"type":"LineString","coordinates":[[15.78725,40.6502],[15.78729,40.65008],[15.78716,40.64997]]},"properties":{}},{"type":"Feature","geometry":{"type":"LineString","coordinates":[[15.78719,40.64975],[15.78766,40.6498]]},"properties":{}},{"type":"Feature","geometry":{"type":"LineString","coordinates":[[15.78719,40.64975],[15.7873,40.6498],[15.78734,40.64986]]},"properties":{}},{"type":"Feature","geometry":{"type":"LineString","coordinates":[[15.78743,40.65014],[15.78725,40.6502]]},"properties":{}},{"type":"Feature","geometry":{"type":"LineString","coordinates":[[15.78912,40.64235],[15.78932,40.64214],[15.78947,40.64188],[15.78954,40.64161],[15.7895,40.64129],[15.78942,40.64106],[15.78932,40.64091],[15.7887,40.64034],[15.78853,40.64025],[15.78791,40.64012],[15.78726,40.64007]]},"properties":{}},{"type":"Feature","geometry":{"type":"LineString","coordinates":[[15.78727,40.63871],[15.78826,40.63978],[15.78856,40.64003],[15.78871,40.64023],[15.78894,40.64039],[15.79027,40.64048],[15.79064,40.64059],[15.79148,40.64097]]},"properties":{}},{"type":"Feature","geometry":{"type":"LineString","coordinates":[[15.78754,40.63596],[15.78746,40.63619],[15.78687,40.637],[15.78677,40.63725],[15.78676,40.63748],[15.78688,40.63799],[15.78711,40.63853],[15.78727,40.63871]]},"properties":{}},{"type":"Feature","geometry":{"type":"LineString","coordinates":[[15.78734,40.64989],[15.7874,40.64996],[15.78743,40.65014]]},"properties":{}},{"type":"Feature","geometry":{"type":"LineString","coordinates":[[15.78734,40.64986],[15.78734,40.64989]]},"properties":{}},{"type":"Feature","geometry":{"type":"LineString","coordinates":[[15.78766,40.6498],[15.78734,40.64986]]},"properties":{}},{"type":"Feature","geometry":{"type":"LineString","coordinates":[[15.79276,40.64896],[15.79162,40.64997],[15.79132,40.65019],[15.79062,40.65038],[15.78966,40.65042],[15.78915,40.65039],[15.78766,40.65012],[15.78743,40.65014]]},"properties":{}},{"type":"Feature","geometry":{"type":"LineString","coordinates":[[15.78798,40.63511],[15.7875,40.6357],[15.78749,40.63577],[15.78754,40.63596]]},"properties":{}},{"type":"Feature","geometry":{"type":"LineString","coordinates":[[15.79121,40.63384],[15.79109,40.63393],[15.79057,40.63415],[15.78963,40.63443],[15.78944,40.63452],[15.78864,40.63518],[15.78754,40.63596]]},"properties":{}},{"type":"Feature","geometry":{"type":"LineString","coordinates":[[15.78766,40.6498],[15.78837,40.64981],[15.78878,40.64965],[15.78936,40.64925],[15.78953,40.64908],[15.78961,40.64886],[15.78952,40.64865],[15.788,40.64727],[15.78783,40.64703],[15.78787,40.64544],[15.78795,40.64532],[15.78806,40.64529],[15.78804,40.64463],[15.78806,40.64357],[15.78802,40.64344]]},"properties":{}},{"type":"Feature","geometry":{"type":"LineString","coordinates":[[15.78802,40.64344],[15.78793,40.64343],[15.78787,40.64336],[15.78788,40.64331],[15.78794,40.64326]]},"properties":{}},{"type":"Feature","geometry":{"type":"LineString","coordinates":[[15.78794,40.64326],[15.78837,40.64301]]},"properties":{}},{"type":"Feature","geometry":{"type":"LineString","coordinates":[[15.78794,40.64326],[15.78806,40.64327],[15.78811,40.64335]]},"properties":{}},{"type":"Feature","geometry":{"type":"LineString","coordinates":[[15.78798,40.63511],[15.78856,40.63432],[15.78889,40.63375],[15.78887,40.63357],[15.78854,40.63334]]},"properties":{}},{"type":"Feature","geometry":{"type":"LineString","coordinates":[[15.78854,40.63334],[15.78922,40.63241],[15.78931,40.63237],[15.78947,40.63244],[15.78949,40.63249],[15.78945,40.6327],[15.78896,40.63387],[15.78872,40.63428],[15.78825,40.63492],[15.78798,40.63511]]},"properties":{}},{"type":"Feature","geometry":{"type":"LineString","coordinates":[[15.78811,40.64335],[15.78808,40.64341],[15.78802,40.64344]]},"properties":{}},{"type":"Feature","geometry":{"type":"LineString","coordinates":[[15.78837,40.64301],[15.78811,40.64335]]},"properties":{}},{"type":"Feature","geometry":{"type":"LineString","coordinates":[[15.78883,40.64257],[15.7886,40.64272],[15.78837,40.64301]]},"properties":{}},{"type":"Feature","geometry":{"type":"LineString","coordinates":[[15.78909,40.64268],[15.78898,40.64259],[15.78883,40.64257]]},"properties":{}},{"type":"Feature","geometry":{"type":"LineString","coordinates":[[15.78883,40.64257],[15.78912,40.64235]]},"properties":{}},{"type":"Feature","geometry":{"type":"LineString","coordinates":[[15.7905,40.64304],[15.78982,40.64304],[15.78947,40.64298],[15.78923,40.64285],[15.78909,40.64268]]},"properties":{}},{"type":"Feature","geometry":{"type":"LineString","coordinates":[[15.78912,40.64235],[15.78907,40.64252],[15.78909,40.64268]]},"properties":{}},{"type":"Feature","geometry":{"type":"LineString","coordinates":[[15.79082,40.64327],[15.79074,40.6431],[15.7905,40.64304]]},"properties":{}},{"type":"Feature","geometry":{"type":"LineString","coordinates":[[15.7905,40.64304],[15.79087,40.64292]]},"properties":{}},{"type":"Feature","geometry":{"type":"LineString","coordinates":[[15.79077,40.64564],[15.79074,40.64651],[15.78984,40.64649],[15.78988,40.64573],[15.79027,40.6457],[15.79038,40.64565],[15.79077,40.64564]]},"properties":{}},{"type":"Feature","geometry":{"type":"LineString","coordinates":[[15.79082,40.64327],[15.79077,40.64564]]},"properties":{}},{"type":"Feature","geometry":{"type":"LineString","coordinates":[[15.79087,40.64292],[15.79082,40.64327]]},"properties":{}},{"type":"Feature","geometry":{"type":"LineString","coordinates":[[15.79152,40.64112],[15.79137,40.64126],[15.79115,40.64165],[15.79101,40.64197],[15.79093,40.64221],[15.79087,40.64292]]},"properties":{}},{"type":"Feature","geometry":{"type":"LineString","coordinates":[[15.79181,40.633],[15.79193,40.63359],[15.79188,40.6337],[15.79138,40.63385],[15.79121,40.63384]]},"properties":{}},{"type":"Feature","geometry":{"type":"LineString","coordinates":[[15.79121,40.63384],[15.79119,40.63374],[15.79122,40.63367],[15.7911,40.6333],[15.79112,40.63317],[15.79124,40.63311],[15.79181,40.633]]},"properties":{}},{"type":"Feature","geometry":{"type":"LineString","coordinates":[[15.79129,40.63791],[15.79107,40.63826],[15.79103,40.6385],[15.79107,40.63937],[15.7916,40.64098]]},"properties":{}},{"type":"Feature","geometry":{"type":"LineString","coordinates":[[15.79129,40.63791],[15.79161,40.63772],[15.79148,40.6376],[15.79135,40.63764],[15.79129,40.63791]]},"properties":{}},{"type":"Feature","geometry":{"type":"LineString","coordinates":[[15.79503,40.63126],[15.79503,40.631],[15.79525,40.63051],[15.79524,40.63033],[15.79519,40.63012],[15.79511,40.62998],[15.79502,40.62991],[15.79486,40.62985],[15.79474,40.62986],[15.79459,40.62992],[15.79409,40.63033],[15.79266,40.63117],[15.79213,40.63175],[15.79193,40.63211],[15.79185,40.63237],[15.79181,40.633]]},"properties":{}},{"type":"Feature","geometry":{"type":"LineString","coordinates":[[15.79185,40.64114],[15.79252,40.64148],[15.79363,40.64177],[15.79384,40.6418],[15.79425,40.64172],[15.79443,40.64173],[15.79505,40.64182],[15.79579,40.64188],[15.79641,40.64199],[15.79651,40.6421],[15.79657,40.64229],[15.79656,40.64261],[15.79649,40.64281],[15.79637,40.64299],[15.79577,40.64345],[15.79565,40.64364],[15.79561,40.6438],[15.79547,40.64544],[15.79532,40.64594]]},"properties":{}},{"type":"Feature","geometry":{"type":"LineString","coordinates":[[15.79266,40.62475],[15.79307,40.62472],[15.79314,40.62476],[15.79336,40.62503]]},"properties":{}},{"type":"Feature","geometry":{"type":"LineString","coordinates":[[15.79336,40.62503],[15.79314,40.62495],[15.79293,40.62493],[15.79266,40.62475]]},"properties":{}},{"type":"Feature","geometry":{"type":"LineString","coordinates":[[15.79276,40.64896],[15.79289,40.64906],[15.79293,40.64916],[15.79219,40.65043],[15.79219,40.6505],[15.79239,40.65071],[15.79269,40.65096],[15.79275,40.65096],[15.79339,40.65066]]},"properties":{}},{"type":"Feature","geometry":{"type":"LineString","coordinates":[[15.79339,40.65066],[15.79281,40.6503],[15.79323,40.64951],[15.79368,40.64879],[15.79367,40.64866],[15.79336,40.64828],[15.79276,40.64896]]},"properties":{}},{"type":"Feature","geometry":{"type":"LineString","coordinates":[[15.79336,40.62503],[15.79375,40.62535]]},"properties":{}},{"type":"Feature","geometry":{"type":"LineString","coordinates":[[15.79339,40.65066],[15.79353,40.6507],[15.79377,40.6507],[15.79476,40.65015]]},"properties":{}},{"type":"Feature","geometry":{"type":"LineString","coordinates":[[15.79375,40.62535],[15.79409,40.62551],[15.7943,40.62556]]},"properties":{}},{"type":"Feature","geometry":{"type":"LineString","coordinates":[[15.79413,40.6258],[15.79375,40.62535]]},"properties":{}},{"type":"Feature","geometry":{"type":"LineString","coordinates":[[15.79775,40.62714],[15.79714,40.6271],[15.79661,40.62702],[15.79578,40.6268],[15.79529,40.62659],[15.79473,40.62627],[15.79413,40.6258]]},"properties":{}},{"type":"Feature","geometry":{"type":"LineString","coordinates":[[15.79413,40.6258],[15.79417,40.62563],[15.7943,40.62556]]},"properties":{}},{"type":"Feature","geometry":{"type":"LineString","coordinates":[[15.7943,40.62556],[15.79447,40.62559],[15.79562,40.62634],[15.79593,40.62646],[15.79621,40.62649],[15.79637,40.62646],[15.79689,40.62629]]},"properties":{}},{"type":"Feature","geometry":{"type":"LineString","coordinates":[[15.79486,40.65007],[15.79489,40.65012],[15.79486,40.65016],[15.79476,40.65015]]},"properties":{}},{"type":"Feature","geometry":{"type":"LineString","coordinates":[[15.79476,40.65015],[15.79477,40.65007],[15.79486,40.65007]]},"properties":{}},{"type":"Feature","geometry":{"type":"LineString","coordinates":[[15.79533,40.6495],[15.79505,40.64987],[15.79486,40.65007]]},"properties":{}},{"type":"Feature","geometry":{"type":"LineString","coordinates":[[15.79564,40.63152],[15.79453,40.63225],[15.79432,40.63224],[15.79415,40.63214],[15.79412,40.63207],[15.79413,40.63199],[15.79418,40.63191],[15.79475,40.63153],[15.79489,40.63148]]},"properties":{}},{"type":"Feature","geometry":{"type":"LineString","coordinates":[[15.79489,40.63148],[15.79503,40.63126]]},"properties":{}},{"type":"Feature","geometry":{"type":"LineString","coordinates":[[15.79489,40.63148],[15.79513,40.6315]]},"properties":{}},{"type":"Feature","geometry":{"type":"LineString","coordinates":[[15.79503,40.63126],[15.79513,40.6315]]},"properties":{}},{"type":"Feature","geometry":{"type":"LineString","coordinates":[[15.79513,40.6315],[15.7952,40.63154],[15.79537,40.63157],[15.79564,40.63152]]},"properties":{}},{"type":"Feature","geometry":{"type":"LineString","coordinates":[[15.79533,40.6495],[15.79522,40.64942],[15.79522,40.64934],[15.79494,40.64926],[15.7947,40.64915],[15.79464,40.64908],[15.79462,40.64898],[15.79462,40.64888],[15.79507,40.64706],[15.79523,40.64657]]},"properties":{}},{"type":"Feature","geometry":{"type":"LineString","coordinates":[[15.79523,40.64657],[15.7953,40.64598],[15.79532,40.64594]]},"properties":{}},{"type":"Feature","geometry":{"type":"LineString","coordinates":[[15.79523,40.64657],[15.79552,40.64603]]},"properties":{}},{"type":"Feature","geometry":{"type":"LineString","coordinates":[[15.79532,40.64594],[15.79533,40.64605],[15.79538,40.64609],[15.79552,40.64603]]},"properties":{}},{"type":"Feature","geometry":{"type":"LineString","coordinates":[[15.79551,40.64946],[15.79544,40.6495],[15.79533,40.6495]]},"properties":{}},{"type":"Feature","geometry":{"type":"LineString","coordinates":[[15.79551,40.64946],[15.7959,40.6496],[15.79698,40.65005]]},"properties":{}},{"type":"Feature","geometry":{"type":"LineString","coordinates":[[15.79705,40.64779],[15.79643,40.64842],[15.79584,40.64889],[15.79548,40.64922],[15.79543,40.64929],[15.79553,40.64938],[15.79551,40.64946]]},"properties":{}},{"type":"Feature","geometry":{"type":"LineString","coordinates":[[15.79552,40.64603],[15.79583,40.64526],[15.79595,40.6451],[15.79607,40.64497],[15.79634,40.64497],[15.79646,40.64506],[15.7965,40.64517],[15.79654,40.6465],[15.79677,40.64669],[15.79733,40.64692]]},"properties":{}},{"type":"Feature","geometry":{"type":"LineString","coordinates":[[15.79613,40.6312],[15.79564,40.63152]]},"properties":{}},{"type":"Feature","geometry":{"type":"LineString","coordinates":[[15.79613,40.6312],[15.79642,40.63092],[15.79658,40.63066],[15.79668,40.63026],[15.79674,40.62931],[15.79678,40.62918],[15.79692,40.62896],[15.79708,40.62884],[15.79764,40.62859],[15.7984,40.6282],[15.79878,40.62808]]},"properties":{}},{"type":"Feature","geometry":{"type":"LineString","coordinates":[[15.79681,40.62992],[15.79679,40.63044],[15.79672,40.63066],[15.79646,40.631],[15.79632,40.63111],[15.79613,40.6312]]},"properties":{}},{"type":"Feature","geometry":{"type":"LineString","coordinates":[[15.79682,40.62964],[15.79681,40.62992]]},"properties":{}},{"type":"Feature","geometry":{"type":"LineString","coordinates":[[15.79698,40.62986],[15.79681,40.62992]]},"properties":{}},{"type":"Feature","geometry":{"type":"LineString","coordinates":[[15.79682,40.62964],[15.79698,40.62986]]},"properties":{}},{"type":"Feature","geometry":{"type":"LineString","coordinates":[[15.79878,40.62808],[15.7974,40.62882],[15.797,40.62919],[15.79687,40.62939],[15.79682,40.62964]]},"properties":{}},{"type":"Feature","geometry":{"type":"LineString","coordinates":[[15.79689,40.62629],[15.79714,40.62688],[15.79721,40.62699],[15.79733,40.62705],[15.79775,40.62714]]},"properties":{}},{"type":"Feature","geometry":{"type":"LineString","coordinates":[[15.79712,40.62307],[15.79689,40.62361],[15.79648,40.62422],[15.79638,40.62443],[15.79634,40.62461],[15.79639,40.62505],[15.79648,40.62535],[15.79689,40.62629]]},"properties":{}},{"type":"Feature","geometry":{"type":"LineString","coordinates":[[15.80248,40.63015],[15.80236,40.63026],[15.80224,40.63031],[15.80209,40.63028],[15.80134,40.62938],[15.80088,40.62909],[15.80064,40.62899],[15.80045,40.62896],[15.80022,40.62895],[15.80001,40.62899],[15.79897,40.62957],[15.79858,40.62966],[15.79811,40.62971],[15.79791,40.62982],[15.79769,40.63003],[15.79751,40.63014],[15.79727,40.63013],[15.79698,40.62986]]},"properties":{}},{"type":"Feature","geometry":{"type":"LineString","coordinates":[[15.79698,40.65005],[15.79757,40.6503]]},"properties":{}},{"type":"Feature","geometry":{"type":"LineString","coordinates":[[15.79732,40.65051],[15.79698,40.65005]]},"properties":{}},{"type":"Feature","geometry":{"type":"LineString","coordinates":[[15.79705,40.64779],[15.79748,40.64717],[15.79736,40.64709],[15.79731,40.64702]]},"properties":{}},{"type":"Feature","geometry":{"type":"LineString","coordinates":[[15.79733,40.64692],[15.79739,40.64698],[15.79762,40.64707],[15.79766,40.64714],[15.79705,40.64779]]},"properties":{}},{"type":"Feature","geometry":{"type":"LineString","coordinates":[[15.82987,40.63693],[15.82606,40.63457],[15.82469,40.63368],[15.8235,40.63282],[15.82177,40.63135],[15.82091,40.63073],[15.82,40.63019],[15.81885,40.62965],[15.806,40.62468],[15.80512,40.62441],[15.80459,40.62429],[15.80366,40.62414],[15.80024,40.62373],[15.79959,40.62362],[15.79712,40.62307]]},"properties":{}},{"type":"Feature","geometry":{"type":"LineString","coordinates":[[15.79715,40.62299],[15.79712,40.62307]]},"properties":{}},{"type":"Feature","geometry":{"type":"LineString","coordinates":[[15.79715,40.62299],[15.799,40.62344],[15.79976,40.6236],[15.80364,40.62408],[15.80466,40.62424],[15.80527,40.62438],[15.80686,40.62492],[15.81286,40.62727],[15.81907,40.62966],[15.82013,40.63015],[15.82134,40.63086],[15.82359,40.63276],[15.82505,40.63382],[15.82994,40.63688]]},"properties":{}},{"type":"Feature","geometry":{"type":"LineString","coordinates":[[15.79979,40.62199],[15.79969,40.62194],[15.79868,40.62167],[15.79838,40.62167],[15.7982,40.6217],[15.79795,40.62185],[15.79749,40.62237],[15.79727,40.62268],[15.79715,40.62299]]},"properties":{}},{"type":"Feature","geometry":{"type":"LineString","coordinates":[[15.79776,40.65106],[15.79751,40.65112],[15.79723,40.65111]]},"properties":{}},{"type":"Feature","geometry":{"type":"LineString","coordinates":[[15.79723,40.65111],[15.79715,40.65114],[15.79706,40.65139],[15.79689,40.65161],[15.79659,40.65371],[15.79656,40.65407],[15.79663,40.65419],[15.79682,40.65428],[15.79731,40.65436],[15.79861,40.65458],[15.79892,40.65459],[15.79902,40.65455],[15.79908,40.65448],[15.79917,40.65406],[15.79918,40.65366],[15.79927,40.65341],[15.79946,40.65329],[15.79969,40.65322]]},"properties":{}},{"type":"Feature","geometry":{"type":"LineString","coordinates":[[15.79723,40.65111],[15.79749,40.65106],[15.79759,40.65092]]},"properties":{}},{"type":"Feature","geometry":{"type":"LineString","coordinates":[[15.79759,40.65092],[15.79732,40.65051]]},"properties":{}},{"type":"Feature","geometry":{"type":"LineString","coordinates":[[15.79732,40.65051],[15.79733,40.65042],[15.79741,40.65034],[15.79757,40.6503]]},"properties":{}},{"type":"Feature","geometry":{"type":"LineString","coordinates":[[15.79733,40.64699],[15.79733,40.64692]]},"properties":{}},{"type":"Feature","geometry":{"type":"LineString","coordinates":[[15.79757,40.6503],[15.79797,40.65048],[15.79871,40.65095],[15.79888,40.65103],[15.79924,40.65108],[15.79955,40.651]]},"properties":{}},{"type":"Feature","geometry":{"type":"LineString","coordinates":[[15.79776,40.65106],[15.79759,40.65092]]},"properties":{}},{"type":"Feature","geometry":{"type":"LineString","coordinates":[[15.79775,40.62714],[15.79885,40.62723],[15.8021,40.62737]]},"properties":{}},{"type":"Feature","geometry":{"type":"LineString","coordinates":[[15.79974,40.65175],[15.79953,40.65153],[15.79945,40.65134],[15.79932,40.65118],[15.7992,40.65115],[15.79795,40.6511],[15.79776,40.65106]]},"properties":{}},{"type":"Feature","geometry":{"type":"LineString","coordinates":[[15.79878,40.62808],[15.79938,40.62801],[15.79981,40.62801],[15.80025,40.62809],[15.80085,40.62825]]},"properties":{}},{"type":"Feature","geometry":{"type":"LineString","coordinates":[[15.8069,40.6398],[15.80587,40.6395],[15.80525,40.63936],[15.80552,40.63866],[15.80556,40.63858],[15.80562,40.63855],[15.8058,40.63853],[15.80615,40.63859],[15.80671,40.63875],[15.80703,40.6389],[15.80724,40.63895],[15.80702,40.63869],[15.80664,40.63838],[15.80647,40.63835],[15.80606,40.63834],[15.80586,40.63842],[15.80555,40.63842],[15.80472,40.63831],[15.80341,40.63795],[15.80255,40.63756],[15.80177,40.63748],[15.80147,40.6374],[15.80112,40.63726],[15.80075,40.63703],[15.80037,40.63669],[15.80026,40.63671],[15.80007,40.6368],[15.79917,40.63659]]},"properties":{}},{"type":"Feature","geometry":{"type":"LineString","coordinates":[[15.80884,40.64017],[15.8084,40.64017],[15.80807,40.64023],[15.80718,40.64056],[15.80705,40.64072],[15.80682,40.64085],[15.80669,40.64089],[15.80653,40.64087],[15.80564,40.64033],[15.80483,40.63961],[15.80479,40.63952],[15.80493,40.63927],[15.80421,40.63906],[15.80367,40.63899],[15.80322,40.63865],[15.80283,40.63843],[15.80255,40.63869],[15.80194,40.63853],[15.80171,40.63849],[15.80163,40.63869],[15.8016,40.63875],[15.80154,40.63876],[15.80123,40.63869],[15.80091,40.63853],[15.80045,40.63823],[15.79954,40.63737],[15.79946,40.63736],[15.79935,40.6374],[15.79913,40.63682],[15.79917,40.63659]]},"properties":{}},{"type":"Feature","geometry":{"type":"LineString","coordinates":[[15.79917,40.63659],[15.79929,40.63637],[15.79945,40.63627],[15.79991,40.63608],[15.8,40.63608],[15.80041,40.63635],[15.80103,40.63683],[15.80137,40.63702],[15.8018,40.63717],[15.80226,40.63726],[15.80241,40.63724]]},"properties":{}},{"type":"Feature","geometry":{"type":"LineString","coordinates":[[15.79955,40.651],[15.79984,40.65077],[15.80016,40.65037]]},"properties":{}},{"type":"Feature","geometry":{"type":"LineString","coordinates":[[15.79955,40.651],[15.79973,40.65095]]},"properties":{}},{"type":"Feature","geometry":{"type":"LineString","coordinates":[[15.8,40.6533],[15.79992,40.65326],[15.79969,40.65322]]},"properties":{}},{"type":"Feature","geometry":{"type":"LineString","coordinates":[[15.79969,40.65322],[15.79996,40.65311],[15.8,40.6533]]},"properties":{}},{"type":"Feature","geometry":{"type":"LineString","coordinates":[[15.79974,40.65175],[15.79961,40.65154],[15.79957,40.65135],[15.79958,40.65118],[15.79973,40.65095]]},"properties":{}},{"type":"Feature","geometry":{"type":"LineString","coordinates":[[15.79973,40.65095],[15.79992,40.65081]]},"properties":{}},{"type":"Feature","geometry":{"type":"LineString","coordinates":[[15.80079,40.65216],[15.80023,40.65205],[15.79974,40.65175]]},"properties":{}},{"type":"Feature","geometry":{"type":"LineString","coordinates":[[15.79992,40.65081],[15.80005,40.65062],[15.80016,40.65037]]},"properties":{}},{"type":"Feature","geometry":{"type":"LineString","coordinates":[[15.79992,40.65081],[15.80019,40.65074],[15.80046,40.65073],[15.80077,40.65081],[15.80086,40.6508]]},"properties":{}},{"type":"Feature","geometry":{"type":"LineString","coordinates":[[15.8011,40.65954],[15.80106,40.6593],[15.80093,40.65895],[15.80077,40.65875],[15.80065,40.6587],[15.79988,40.65876],[15.7997,40.65872],[15.79942,40.65861],[15.79919,40.65847],[15.79905,40.65834],[15.79903,40.65821],[15.79913,40.65744],[15.79976,40.65683],[15.80043,40.65556],[15.80051,40.65521],[15.80054,40.65494],[15.80051,40.65469],[15.8,40.6533]]},"properties":{}},{"type":"Feature","geometry":{"type":"LineString","coordinates":[[15.80016,40.65037],[15.80093,40.64891],[15.8012,40.64849],[15.80144,40.64837],[15.80187,40.64786],[15.80302,40.64663],[15.80379,40.64594],[15.80398,40.64524],[15.80411,40.64507]]},"properties":{}},{"type":"Feature","geometry":{"type":"LineString","coordinates":[[15.80192,40.65272],[15.80148,40.65234],[15.80133,40.65227],[15.80106,40.65219],[15.80079,40.65216]]},"properties":{}},{"type":"Feature","geometry":{"type":"LineString","coordinates":[[15.80172,40.65271],[15.80132,40.6524],[15.80114,40.65229],[15.80079,40.65216]]},"properties":{}},{"type":"Feature","geometry":{"type":"LineString","coordinates":[[15.80085,40.62825],[15.80138,40.62831]]},"properties":{}},{"type":"Feature","geometry":{"type":"LineString","coordinates":[[15.80127,40.62852],[15.80112,40.62838],[15.80085,40.62825]]},"properties":{}},{"type":"Feature","geometry":{"type":"LineString","coordinates":[[15.80086,40.6508],[15.80089,40.65087],[15.80121,40.65105]]},"properties":{}},{"type":"Feature","geometry":{"type":"LineString","coordinates":[[15.80086,40.6508],[15.80101,40.65057]]},"properties":{}},{"type":"Feature","geometry":{"type":"LineString","coordinates":[[15.80101,40.65057],[15.80097,40.65078],[15.80101,40.65086],[15.80121,40.65105]]},"properties":{}},{"type":"Feature","geometry":{"type":"LineString","coordinates":[[15.80411,40.64507],[15.80392,40.64592],[15.80383,40.64661],[15.80373,40.64697],[15.80366,40.64709],[15.80101,40.65057]]},"properties":{}},{"type":"Feature","geometry":{"type":"LineString","coordinates":[[15.8011,40.65954],[15.80119,40.65961],[15.80127,40.65963],[15.8017,40.65962],[15.80126,40.65974],[15.80117,40.65972],[15.8011,40.65954]]},"properties":{}},{"type":"Feature","geometry":{"type":"LineString","coordinates":[[15.80121,40.65105],[15.80137,40.65118],[15.80148,40.65136],[15.80152,40.65152]]},"properties":{}},{"type":"Feature","geometry":{"type":"LineString","coordinates":[[15.8013,40.62855],[15.80127,40.62852]]},"properties":{}},{"type":"Feature","geometry":{"type":"LineString","coordinates":[[15.80127,40.62852],[15.80123,40.62846],[15.80125,40.62839],[15.80138,40.62831]]},"properties":{}},{"type":"Feature","geometry":{"type":"LineString","coordinates":[[15.80155,40.62852],[15.80143,40.62857],[15.8013,40.62855]]},"properties":{}},{"type":"Feature","geometry":{"type":"LineString","coordinates":[[15.80161,40.62874],[15.8013,40.62855]]},"properties":{}},{"type":"Feature","geometry":{"type":"LineString","coordinates":[[15.80138,40.62831],[15.80147,40.62831]]},"properties":{}},{"type":"Feature","geometry":{"type":"LineString","coordinates":[[15.80147,40.62831],[15.80157,40.62839],[15.80157,40.62849]]},"properties":{}},{"type":"Feature","geometry":{"type":"LineString","coordinates":[[15.80147,40.62831],[15.80177,40.62837],[15.80195,40.62847]]},"properties":{}},{"type":"Feature","geometry":{"type":"LineString","coordinates":[[15.80152,40.65152],[15.80162,40.65207],[15.80201,40.65245],[15.80297,40.65254],[15.80324,40.65254],[15.80334,40.65251],[15.80349,40.65239],[15.80353,40.65211]]},"properties":{}},{"type":"Feature","geometry":{"type":"LineString","coordinates":[[15.80152,40.65152],[15.8015,40.65203],[15.80159,40.65227],[15.8019,40.65258]]},"properties":{}},{"type":"Feature","geometry":{"type":"LineString","coordinates":[[15.80155,40.62852],[15.80153,40.62862],[15.80161,40.62874]]},"properties":{}},{"type":"Feature","geometry":{"type":"LineString","coordinates":[[15.80157,40.62849],[15.80155,40.62852]]},"properties":{}},{"type":"Feature","geometry":{"type":"LineString","coordinates":[[15.80195,40.62847],[15.80171,40.62843],[15.80157,40.62849]]},"properties":{}},{"type":"Feature","geometry":{"type":"LineString","coordinates":[[15.80161,40.62874],[15.80187,40.62903],[15.80197,40.62924],[15.80213,40.62991],[15.80228,40.63008],[15.80248,40.63015]]},"properties":{}},{"type":"Feature","geometry":{"type":"LineString","coordinates":[[15.80192,40.65272],[15.80172,40.65271]]},"properties":{}},{"type":"Feature","geometry":{"type":"LineString","coordinates":[[15.80266,40.65363],[15.80256,40.65346],[15.80178,40.6528],[15.80172,40.65271]]},"properties":{}},{"type":"Feature","geometry":{"type":"LineString","coordinates":[[15.8019,40.65258],[15.80202,40.65265]]},"properties":{}},{"type":"Feature","geometry":{"type":"LineString","coordinates":[[15.8019,40.65258],[15.802,40.65267]]},"properties":{}},{"type":"Feature","geometry":{"type":"LineString","coordinates":[[15.80273,40.65322],[15.80224,40.65299],[15.80192,40.65272]]},"properties":{}},{"type":"Feature","geometry":{"type":"LineString","coordinates":[[15.802,40.65267],[15.80192,40.65272]]},"properties":{}},{"type":"Feature","geometry":{"type":"LineString","coordinates":[[15.80195,40.62847],[15.80207,40.62853]]},"properties":{}},{"type":"Feature","geometry":{"type":"LineString","coordinates":[[15.802,40.65267],[15.80232,40.65295],[15.80265,40.65312],[15.80273,40.65322]]},"properties":{}},{"type":"Feature","geometry":{"type":"LineString","coordinates":[[15.80202,40.65265],[15.802,40.65267]]},"properties":{}},{"type":"Feature","geometry":{"type":"LineString","coordinates":[[15.80202,40.65265],[15.8026,40.65304],[15.80297,40.65317],[15.80352,40.6533],[15.80389,40.65334],[15.80478,40.65335],[15.80507,40.65327],[15.80539,40.65307],[15.8055,40.65305],[15.8056,40.65308],[15.80567,40.65316],[15.80565,40.65324],[15.80556,40.6533],[15.80467,40.65346],[15.80358,40.65342],[15.80273,40.65322]]},"properties":{}},{"type":"Feature","geometry":{"type":"LineString","coordinates":[[15.80353,40.65211],[15.80359,40.65212],[15.80356,40.65242],[15.8034,40.65256],[15.80309,40.65261],[15.80225,40.65255],[15.80205,40.6526],[15.80202,40.65265]]},"properties":{}},{"type":"Feature","geometry":{"type":"LineString","coordinates":[[15.80207,40.62853],[15.80247,40.62863],[15.80278,40.62847],[15.80295,40.62842]]},"properties":{}},{"type":"Feature","geometry":{"type":"LineString","coordinates":[[15.80295,40.62842],[15.80278,40.62856],[15.80281,40.6288],[15.80272,40.62888],[15.80264,40.62888],[15.80252,40.62882],[15.80207,40.62853]]},"properties":{}},{"type":"Feature","geometry":{"type":"LineString","coordinates":[[15.8021,40.62737],[15.80349,40.62743],[15.80395,40.62751],[15.80484,40.62782],[15.80545,40.62822],[15.80601,40.62851]]},"properties":{}},{"type":"Feature","geometry":{"type":"LineString","coordinates":[[15.80322,40.62786],[15.80296,40.62781],[15.80284,40.62763],[15.80276,40.62759],[15.80215,40.62749],[15.80211,40.62745],[15.8021,40.62737]]},"properties":{}},{"type":"Feature","geometry":{"type":"LineString","coordinates":[[15.80225,40.63177],[15.80228,40.63184],[15.80215,40.63219],[15.80213,40.63236],[15.80211,40.63301],[15.80203,40.63326],[15.80197,40.63334],[15.80124,40.63394],[15.80114,40.6341],[15.80104,40.63443],[15.80107,40.6347],[15.80116,40.63487],[15.80157,40.63561],[15.80183,40.63589],[15.80234,40.63619],[15.80351,40.63659],[15.80397,40.63668],[15.80443,40.63668],[15.8055,40.63657],[15.80588,40.63659],[15.80664,40.63651],[15.80824,40.6365]]},"properties":{}},{"type":"Feature","geometry":{"type":"LineString","coordinates":[[15.80243,40.6372],[15.80149,40.6368],[15.80134,40.6367],[15.80082,40.63618],[15.80017,40.63523],[15.79976,40.63486],[15.79969,40.63469],[15.79976,40.63441],[15.79998,40.6342],[15.80094,40.63377],[15.80139,40.63349],[15.80169,40.63325],[15.80178,40.63307],[15.80181,40.63247],[15.80188,40.6322],[15.80202,40.63187],[15.80225,40.63177]]},"properties":{}},{"type":"Feature","geometry":{"type":"LineString","coordinates":[[15.80225,40.63177],[15.80315,40.63137],[15.80329,40.63134],[15.80361,40.63137],[15.8041,40.63156],[15.80424,40.63153],[15.80432,40.63142],[15.80431,40.63122],[15.80411,40.63072],[15.80385,40.63033],[15.80376,40.63025],[15.8035,40.63013],[15.80328,40.63008],[15.80302,40.63008],[15.80248,40.63015]]},"properties":{}},{"type":"Feature","geometry":{"type":"LineString","coordinates":[[15.80249,40.6372],[15.80257,40.63715],[15.80274,40.63713],[15.80418,40.63767],[15.80446,40.63774],[15.80471,40.63778],[15.80542,40.63778]]},"properties":{}},{"type":"Feature","geometry":{"type":"LineString","coordinates":[[15.80597,40.66006],[15.80581,40.65962],[15.80549,40.65899],[15.80392,40.6577],[15.80376,40.65756],[15.80366,40.65742],[15.8031,40.65583],[15.80282,40.65525],[15.8027,40.6549],[15.80258,40.65422],[15.80266,40.65363]]},"properties":{}},{"type":"Feature","geometry":{"type":"LineString","coordinates":[[15.80273,40.65322],[15.80274,40.65338],[15.80266,40.65363]]},"properties":{}},{"type":"Feature","geometry":{"type":"LineString","coordinates":[[15.80295,40.62842],[15.80333,40.62821]]},"properties":{}},{"type":"Feature","geometry":{"type":"LineString","coordinates":[[15.80322,40.62786],[15.80361,40.62793],[15.80444,40.62829],[15.80461,40.62842],[15.80463,40.62849],[15.8046,40.62853]]},"properties":{}},{"type":"Feature","geometry":{"type":"LineString","coordinates":[[15.8036,40.62815],[15.80336,40.62794],[15.80322,40.62786]]},"properties":{}},{"type":"Feature","geometry":{"type":"LineString","coordinates":[[15.80333,40.62821],[15.8036,40.62815]]},"properties":{}},{"type":"Feature","geometry":{"type":"LineString","coordinates":[[15.8043,40.62877],[15.80359,40.62822],[15.80348,40.62819],[15.80333,40.62821]]},"properties":{}},{"type":"Feature","geometry":{"type":"LineString","coordinates":[[15.8035,40.63511],[15.80394,40.63529]]},"properties":{}},{"type":"Feature","geometry":{"type":"LineString","coordinates":[[15.80382,40.63543],[15.80358,40.63523],[15.8035,40.63511]]},"properties":{}},{"type":"Feature","geometry":{"type":"LineString","coordinates":[[15.80498,40.63006],[15.80507,40.63107],[15.80506,40.63137],[15.80498,40.63171],[15.8048,40.63213],[15.80463,40.63237],[15.80447,40.63252],[15.80389,40.6327],[15.80362,40.63284],[15.80321,40.63337],[15.80305,40.6337],[15.80301,40.63394],[15.80307,40.63426],[15.80327,40.63477],[15.8035,40.63511]]},"properties":{}},{"type":"Feature","geometry":{"type":"LineString","coordinates":[[15.80353,40.65211],[15.80227,40.65162],[15.80194,40.65144],[15.80189,40.65135],[15.80189,40.65124],[15.80224,40.65041],[15.8024,40.65028],[15.80311,40.64988],[15.80338,40.64981],[15.80367,40.64977],[15.80438,40.64977],[15.80463,40.64973],[15.80489,40.64963],[15.80557,40.6492],[15.80562,40.64909],[15.80563,40.64893],[15.8056,40.64873],[15.80533,40.64851],[15.80527,40.64839],[15.80527,40.64815],[15.80535,40.648],[15.80553,40.64785],[15.80659,40.64723],[15.80668,40.64716],[15.80704,40.64665],[15.80707,40.6465],[15.80703,40.64612],[15.80676,40.64555],[15.80638,40.64501]]},"properties":{}},{"type":"Feature","geometry":{"type":"LineString","coordinates":[[15.8036,40.62815],[15.80432,40.62835]]},"properties":{}},{"type":"Feature","geometry":{"type":"LineString","coordinates":[[15.80433,40.6285],[15.80407,40.62848],[15.80393,40.62842],[15.8036,40.62815]]},"properties":{}},{"type":"Feature","geometry":{"type":"LineString","coordinates":[[15.80391,40.63547],[15.80382,40.63543]]},"properties":{}},{"type":"Feature","geometry":{"type":"LineString","coordinates":[[15.80382,40.63543],[15.80383,40.63532],[15.80394,40.63529]]},"properties":{}},{"type":"Feature","geometry":{"type":"LineString","coordinates":[[15.8044,40.63554],[15.80421,40.63555],[15.80391,40.63547]]},"properties":{}},{"type":"Feature","geometry":{"type":"LineString","coordinates":[[15.80409,40.63539],[15.80391,40.63547]]},"properties":{}},{"type":"Feature","geometry":{"type":"LineString","coordinates":[[15.80394,40.63529],[15.80409,40.63539]]},"properties":{}},{"type":"Feature","geometry":{"type":"LineString","coordinates":[[15.80394,40.63529],[15.80425,40.63527],[15.80506,40.63489],[15.80523,40.63477],[15.80566,40.63435],[15.8059,40.63416],[15.80618,40.63398],[15.80665,40.63377]]},"properties":{}},{"type":"Feature","geometry":{"type":"LineString","coordinates":[[15.80409,40.63539],[15.80421,40.63549],[15.8044,40.63554]]},"properties":{}},{"type":"Feature","geometry":{"type":"LineString","coordinates":[[15.80666,40.63384],[15.80622,40.63403],[15.80588,40.63424],[15.80518,40.63489],[15.80409,40.63539]]},"properties":{}},{"type":"Feature","geometry":{"type":"LineString","coordinates":[[15.80482,40.64337],[15.80411,40.64507]]},"properties":{}},{"type":"Feature","geometry":{"type":"LineString","coordinates":[[15.8043,40.62877],[15.80504,40.62933]]},"properties":{}},{"type":"Feature","geometry":{"type":"LineString","coordinates":[[15.80433,40.6285],[15.80424,40.62864],[15.8043,40.62877]]},"properties":{}},{"type":"Feature","geometry":{"type":"LineString","coordinates":[[15.80432,40.62835],[15.8046,40.62853]]},"properties":{}},{"type":"Feature","geometry":{"type":"LineString","coordinates":[[15.80432,40.62835],[15.80436,40.62841],[15.80433,40.6285]]},"properties":{}},{"type":"Feature","geometry":{"type":"LineString","coordinates":[[15.8046,40.62853],[15.80433,40.6285]]},"properties":{}},{"type":"Feature","geometry":{"type":"LineString","coordinates":[[15.8044,40.63554],[15.80551,40.63521],[15.80568,40.6352],[15.80587,40.63528],[15.80633,40.63577],[15.8079,40.6363],[15.80808,40.63638],[15.80824,40.6365]]},"properties":{}},{"type":"Feature","geometry":{"type":"LineString","coordinates":[[15.8046,40.62853],[15.80638,40.6296],[15.80632,40.62996],[15.8063,40.62999],[15.80623,40.63],[15.80594,40.62995],[15.80504,40.62933]]},"properties":{}},{"type":"Feature","geometry":{"type":"LineString","coordinates":[[15.80482,40.64337],[15.80493,40.64313]]},"properties":{}},{"type":"Feature","geometry":{"type":"LineString","coordinates":[[15.80525,40.64318],[15.80499,40.64326],[15.80482,40.64337]]},"properties":{}},{"type":"Feature","geometry":{"type":"LineString","coordinates":[[15.80493,40.64313],[15.80496,40.64294]]},"properties":{}},{"type":"Feature","geometry":{"type":"LineString","coordinates":[[15.80493,40.64313],[15.80502,40.64311],[15.80509,40.64316],[15.80525,40.64318]]},"properties":{}},{"type":"Feature","geometry":{"type":"LineString","coordinates":[[15.80498,40.63006],[15.806,40.63025],[15.80619,40.63034],[15.8063,40.63044],[15.80637,40.63068],[15.80609,40.6324],[15.80608,40.63273],[15.8062,40.63314],[15.80663,40.63367],[15.80665,40.63377]]},"properties":{}},{"type":"Feature","geometry":{"type":"LineString","coordinates":[[15.80504,40.62933],[15.80507,40.62961],[15.80498,40.63006]]},"properties":{}},{"type":"Feature","geometry":{"type":"LineString","coordinates":[[15.81145,40.64193],[15.81033,40.64163],[15.81002,40.64164],[15.80974,40.64172],[15.80962,40.64178],[15.80864,40.64268],[15.80827,40.64284],[15.80757,40.64294],[15.80639,40.64302],[15.80525,40.64318]]},"properties":{}},{"type":"Feature","geometry":{"type":"LineString","coordinates":[[15.80836,40.63698],[15.80822,40.63731],[15.80821,40.63754],[15.80828,40.63768],[15.80864,40.63799],[15.80865,40.63809],[15.80857,40.63817],[15.8084,40.63816],[15.80812,40.63799],[15.80787,40.63764],[15.80767,40.63713],[15.80757,40.63703],[15.80741,40.63698],[15.80721,40.63701],[15.80542,40.63778]]},"properties":{}},{"type":"Feature","geometry":{"type":"LineString","coordinates":[[15.80542,40.63778],[15.80574,40.63774],[15.80628,40.63759]]},"properties":{}},{"type":"Feature","geometry":{"type":"LineString","coordinates":[[15.80608,40.6605],[15.806,40.66048],[15.80595,40.66043]]},"properties":{}},{"type":"Feature","geometry":{"type":"LineString","coordinates":[[15.80608,40.6605],[15.80586,40.66063],[15.80595,40.66043]]},"properties":{}},{"type":"Feature","geometry":{"type":"LineString","coordinates":[[15.80595,40.66043],[15.80595,40.66037],[15.80599,40.66032]]},"properties":{}},{"type":"Feature","geometry":{"type":"LineString","coordinates":[[15.80597,40.66006],[15.80614,40.66031]]},"properties":{}},{"type":"Feature","geometry":{"type":"LineString","coordinates":[[15.80599,40.66032],[15.80597,40.66006]]},"properties":{}},{"type":"Feature","geometry":{"type":"LineString","coordinates":[[15.80599,40.66032],[15.80614,40.66031]]},"properties":{}},{"type":"Feature","geometry":{"type":"LineString","coordinates":[[15.80601,40.62851],[15.80635,40.62849],[15.80664,40.62841],[15.80677,40.62841],[15.80761,40.62869],[15.80943,40.62963],[15.80959,40.62984],[15.80958,40.63001],[15.80934,40.63028],[15.80924,40.63032],[15.80906,40.63032],[15.8087,40.63015],[15.80666,40.62882],[15.80601,40.62851]]},"properties":{}},{"type":"Feature","geometry":{"type":"LineString","coordinates":[[15.80643,40.66051],[15.80617,40.66047],[15.80608,40.6605]]},"properties":{}},{"type":"Feature","geometry":{"type":"LineString","coordinates":[[15.80614,40.66031],[15.80643,40.66051]]},"properties":{}},{"type":"Feature","geometry":{"type":"LineString","coordinates":[[15.80774,40.63815],[15.80745,40.63799],[15.80654,40.63763],[15.80628,40.63759]]},"properties":{}},{"type":"Feature","geometry":{"type":"LineString","coordinates":[[15.80628,40.63759],[15.80639,40.63755],[15.80655,40.63757],[15.80751,40.63795],[15.80774,40.63815]]},"properties":{}},{"type":"Feature","geometry":{"type":"LineString","coordinates":[[15.80974,40.65998],[15.80956,40.66028],[15.80959,40.66082],[15.8095,40.66095],[15.80926,40.66103],[15.80869,40.66107],[15.80775,40.66103],[15.80725,40.66092],[15.80643,40.66051]]},"properties":{}},{"type":"Feature","geometry":{"type":"LineString","coordinates":[[15.80665,40.63377],[15.80683,40.6338],[15.80695,40.6339],[15.80726,40.63447],[15.80727,40.63456]]},"properties":{}},{"type":"Feature","geometry":{"type":"LineString","coordinates":[[15.80665,40.63377],[15.80666,40.63384]]},"properties":{}},{"type":"Feature","geometry":{"type":"LineString","coordinates":[[15.80727,40.63456],[15.80719,40.63449],[15.80689,40.63393],[15.80678,40.63385],[15.80666,40.63384]]},"properties":{}},{"type":"Feature","geometry":{"type":"LineString","coordinates":[[15.8076,40.64002],[15.8069,40.6398]]},"properties":{}},{"type":"Feature","geometry":{"type":"LineString","coordinates":[[15.8069,40.6398],[15.80713,40.63937],[15.80841,40.6398],[15.8094,40.64009],[15.80928,40.64015],[15.80884,40.64017]]},"properties":{}},{"type":"Feature","geometry":{"type":"LineString","coordinates":[[15.80711,40.62919],[15.80876,40.63025]]},"properties":{}},{"type":"Feature","geometry":{"type":"LineString","coordinates":[[15.80784,40.64647],[15.80714,40.64687]]},"properties":{}},{"type":"Feature","geometry":{"type":"LineString","coordinates":[[15.80729,40.63481],[15.80722,40.63479],[15.80725,40.63474]]},"properties":{}},{"type":"Feature","geometry":{"type":"LineString","coordinates":[[15.80727,40.63456],[15.80725,40.63474]]},"properties":{}},{"type":"Feature","geometry":{"type":"LineString","coordinates":[[15.80725,40.63474],[15.80731,40.63476],[15.80729,40.63481]]},"properties":{}},{"type":"Feature","geometry":{"type":"LineString","coordinates":[[15.80729,40.63481],[15.80799,40.63511]]},"properties":{}},{"type":"Feature","geometry":{"type":"LineString","coordinates":[[15.81242,40.64162],[15.8126,40.64122],[15.81277,40.64059],[15.81275,40.64044],[15.81264,40.6403],[15.81253,40.64023],[15.81156,40.63985],[15.81132,40.63965],[15.811,40.63922],[15.81086,40.63913],[15.80856,40.63862],[15.80795,40.6384],[15.80782,40.6382],[15.80774,40.63815]]},"properties":{}},{"type":"Feature","geometry":{"type":"LineString","coordinates":[[15.80799,40.63511],[15.80823,40.63512],[15.80887,40.63527],[15.80941,40.63547],[15.80967,40.6356],[15.80997,40.63581],[15.81023,40.63605],[15.8107,40.6367],[15.81097,40.63693]]},"properties":{}},{"type":"Feature","geometry":{"type":"LineString","coordinates":[[15.81097,40.63693],[15.8107,40.6368],[15.81017,40.63608],[15.80995,40.63587],[15.80968,40.63568],[15.80907,40.6354],[15.80799,40.63511]]},"properties":{}},{"type":"Feature","geometry":{"type":"LineString","coordinates":[[15.80824,40.6365],[15.80835,40.63668],[15.80838,40.63679],[15.80836,40.63698]]},"properties":{}},{"type":"Feature","geometry":{"type":"LineString","coordinates":[[15.80836,40.63698],[15.80856,40.63713],[15.80905,40.63738]]},"properties":{}},{"type":"Feature","geometry":{"type":"LineString","coordinates":[[15.80884,40.64017],[15.80986,40.6405],[15.81022,40.64057],[15.8104,40.64055],[15.81055,40.64048],[15.81064,40.64039],[15.81076,40.64038],[15.8108,40.64042],[15.8108,40.6405],[15.81053,40.64069],[15.81028,40.64074],[15.80992,40.64075],[15.80985,40.64078],[15.80992,40.64086],[15.81061,40.64093],[15.81096,40.64088],[15.81117,40.64075],[15.81127,40.64065],[15.81134,40.64051],[15.8113,40.64015],[15.81134,40.64002],[15.81138,40.63998],[15.81163,40.64003],[15.81229,40.64026],[15.81243,40.64033],[15.81252,40.64044],[15.81221,40.64113],[15.81222,40.64121],[15.81242,40.64146],[15.81242,40.64162]]},"properties":{}},{"type":"Feature","geometry":{"type":"LineString","coordinates":[[15.80905,40.63738],[15.81047,40.63778],[15.81114,40.63806]]},"properties":{}},{"type":"Feature","geometry":{"type":"LineString","coordinates":[[15.81114,40.63806],[15.811,40.63821],[15.8091,40.63767],[15.80894,40.63762],[15.80896,40.63752],[15.80905,40.63738]]},"properties":{}},{"type":"Feature","geometry":{"type":"LineString","coordinates":[[15.80974,40.65998],[15.80956,40.65995],[15.80847,40.66012],[15.80754,40.66003],[15.80691,40.6597],[15.80686,40.65965],[15.80687,40.65958],[15.80693,40.65949],[15.80731,40.65926],[15.8076,40.65902],[15.80834,40.65914],[15.80893,40.65919],[15.80926,40.65914],[15.8096,40.65904],[15.80991,40.65886],[15.81006,40.65873],[15.81032,40.65824],[15.81064,40.65808],[15.81131,40.65761],[15.81149,40.65769],[15.81155,40.65783],[15.81154,40.65812],[15.81157,40.65817]]},"properties":{}},{"type":"Feature","geometry":{"type":"LineString","coordinates":[[15.81157,40.65817],[15.81092,40.65855],[15.81075,40.65878],[15.81044,40.65933],[15.80974,40.65998]]},"properties":{}},{"type":"Feature","geometry":{"type":"LineString","coordinates":[[15.81097,40.63693],[15.81142,40.63705],[15.81183,40.63709],[15.81231,40.63736],[15.81273,40.63739],[15.81294,40.63749],[15.81322,40.63755]]},"properties":{}},{"type":"Feature","geometry":{"type":"LineString","coordinates":[[15.81114,40.63806],[15.812,40.63845],[15.81221,40.63865],[15.81263,40.63913],[15.81368,40.64057]]},"properties":{}},{"type":"Feature","geometry":{"type":"LineString","coordinates":[[15.81145,40.64193],[15.81176,40.64195],[15.81213,40.6419],[15.81229,40.64181],[15.81242,40.64162]]},"properties":{}},{"type":"Feature","geometry":{"type":"LineString","coordinates":[[15.81338,40.64119],[15.81284,40.64179],[15.81251,40.64197],[15.81222,40.64203],[15.81196,40.64203],[15.81145,40.64193]]},"properties":{}},{"type":"Feature","geometry":{"type":"LineString","coordinates":[[15.82635,40.64654],[15.82607,40.64671],[15.82587,40.64688],[15.82578,40.64701],[15.82551,40.64757],[15.82523,40.64784],[15.82493,40.64796],[15.82425,40.64809],[15.82408,40.64816],[15.82373,40.64845],[15.82365,40.64858],[15.82359,40.6489],[15.82384,40.64973],[15.82389,40.65007],[15.82386,40.65054],[15.82369,40.65107],[15.82358,40.65127],[15.82329,40.65166],[15.82285,40.65207],[15.8223,40.6524],[15.82183,40.6526],[15.81975,40.65317],[15.81943,40.65316],[15.81881,40.65296],[15.81864,40.65294],[15.81845,40.65294],[15.81806,40.65306],[15.81786,40.6532],[15.81768,40.65348],[15.81765,40.6536],[15.81767,40.65384],[15.8178,40.65457],[15.81779,40.65471],[15.8177,40.65502],[15.81746,40.65533],[15.81707,40.65558],[15.81675,40.65571],[15.81642,40.65591],[15.81525,40.65681],[15.81429,40.6572],[15.81392,40.65724],[15.81309,40.65725],[15.81293,40.65729],[15.81281,40.65735],[15.81238,40.65772],[15.81194,40.65799],[15.81157,40.65817]]},"properties":{}},{"type":"Feature","geometry":{"type":"LineString","coordinates":[[15.8153,40.63789],[15.81472,40.63789],[15.81412,40.63802],[15.81409,40.63753],[15.81322,40.63755]]},"properties":{}},{"type":"Feature","geometry":{"type":"LineString","coordinates":[[15.81322,40.63755],[15.81318,40.63707],[15.81312,40.63693],[15.81296,40.63678],[15.81278,40.63671],[15.8126,40.63668],[15.81199,40.63673],[15.81148,40.63665],[15.8114,40.63616],[15.81231,40.63609],[15.81248,40.63612],[15.81275,40.63586],[15.81344,40.63629],[15.81382,40.63663],[15.81413,40.63699],[15.81478,40.63761],[15.8153,40.63789]]},"properties":{}},{"type":"Feature","geometry":{"type":"LineString","coordinates":[[15.81338,40.64119],[15.81373,40.64099]]},"properties":{}},{"type":"Feature","geometry":{"type":"LineString","coordinates":[[15.81427,40.641],[15.81383,40.64105],[15.81338,40.64119]]},"properties":{}},{"type":"Feature","geometry":{"type":"LineString","coordinates":[[15.81368,40.64057],[15.81391,40.64077],[15.81413,40.64086]]},"properties":{}},{"type":"Feature","geometry":{"type":"LineString","coordinates":[[15.81373,40.64099],[15.81373,40.64073],[15.81368,40.64057]]},"properties":{}},{"type":"Feature","geometry":{"type":"LineString","coordinates":[[15.81373,40.64099],[15.81413,40.64086]]},"properties":{}},{"type":"Feature","geometry":{"type":"LineString","coordinates":[[15.81413,40.64086],[15.81427,40.641]]},"properties":{}},{"type":"Feature","geometry":{"type":"LineString","coordinates":[[15.81413,40.64086],[15.81435,40.64081],[15.81448,40.64074],[15.81451,40.64069],[15.81456,40.64038]]},"properties":{}},{"type":"Feature","geometry":{"type":"LineString","coordinates":[[15.81456,40.64038],[15.81461,40.64068],[15.81458,40.64082],[15.81447,40.64094],[15.81427,40.641]]},"properties":{}},{"type":"Feature","geometry":{"type":"LineString","coordinates":[[15.81664,40.63892],[15.81645,40.63903],[15.81631,40.63903],[15.81536,40.63886],[15.81523,40.63886],[15.81511,40.6389],[15.815,40.6391],[15.8148,40.63977],[15.81458,40.6402],[15.81456,40.64038]]},"properties":{}},{"type":"Feature","geometry":{"type":"LineString","coordinates":[[15.8153,40.63789],[15.81568,40.63812],[15.81608,40.63843]]},"properties":{}},{"type":"Feature","geometry":{"type":"LineString","coordinates":[[15.81608,40.63843],[15.81624,40.63849],[15.81636,40.63849],[15.8164,40.63844],[15.81642,40.63833]]},"properties":{}},{"type":"Feature","geometry":{"type":"LineString","coordinates":[[15.81664,40.63892],[15.81656,40.63877],[15.81646,40.63874],[15.81608,40.63843]]},"properties":{}},{"type":"Feature","geometry":{"type":"LineString","coordinates":[[15.81642,40.63833],[15.81671,40.63871],[15.81669,40.63886],[15.81664,40.63892]]},"properties":{}},{"type":"Feature","geometry":{"type":"LineString","coordinates":[[15.81977,40.63869],[15.81948,40.63838],[15.81879,40.63716],[15.8186,40.63703],[15.81822,40.63695],[15.81778,40.63695],[15.81762,40.63701],[15.81752,40.63712],[15.81728,40.63769],[15.81712,40.63782],[15.81657,40.63798],[15.81647,40.63804],[15.81638,40.6382],[15.81642,40.63833]]},"properties":{}},{"type":"Feature","geometry":{"type":"LineString","coordinates":[[15.82028,40.64602],[15.82037,40.64591],[15.82065,40.64573],[15.82151,40.64557],[15.82219,40.64526],[15.82244,40.64517],[15.82284,40.6451],[15.82346,40.64483],[15.82367,40.64469],[15.82385,40.64447],[15.82412,40.64426],[15.8247,40.644],[15.82498,40.64382],[15.82526,40.64355],[15.82535,40.64349],[15.82551,40.64347],[15.82584,40.64353],[15.8261,40.64352],[15.82651,40.6436],[15.82689,40.64372],[15.827,40.64373],[15.82847,40.64343],[15.82878,40.64328],[15.82885,40.64321],[15.82896,40.64291]]},"properties":{}},{"type":"Feature","geometry":{"type":"LineString","coordinates":[[15.82896,40.64291],[15.82835,40.64276],[15.82803,40.64263],[15.82608,40.64173],[15.82533,40.64142],[15.82372,40.64066],[15.82133,40.63973],[15.82087,40.63951],[15.82041,40.63913]]},"properties":{}},{"type":"Feature","geometry":{"type":"LineString","coordinates":[[15.82659,40.64656],[15.82635,40.64654]]},"properties":{}},{"type":"Feature","geometry":{"type":"LineString","coordinates":[[15.82655,40.64645],[15.82635,40.64654]]},"properties":{}},{"type":"Feature","geometry":{"type":"LineString","coordinates":[[15.82655,40.64645],[15.8267,40.64653]]},"properties":{}},{"type":"Feature","geometry":{"type":"LineString","coordinates":[[15.82659,40.64656],[15.82655,40.64645]]},"properties":{}},{"type":"Feature","geometry":{"type":"LineString","coordinates":[[15.82677,40.64639],[15.82655,40.64645]]},"properties":{}},{"type":"Feature","geometry":{"type":"LineString","coordinates":[[15.8268,40.64664],[15.82659,40.64656]]},"properties":{}},{"type":"Feature","geometry":{"type":"LineString","coordinates":[[15.8267,40.64653],[15.8268,40.64664]]},"properties":{}},{"type":"Feature","geometry":{"type":"LineString","coordinates":[[15.82677,40.64639],[15.8267,40.64646],[15.8267,40.64653]]},"properties":{}},{"type":"Feature","geometry":{"type":"LineString","coordinates":[[15.83101,40.6445],[15.83057,40.64509],[15.82981,40.64597],[15.82958,40.64614],[15.82934,40.64621],[15.82731,40.6465],[15.82677,40.64639]]},"properties":{}},{"type":"Feature","geometry":{"type":"LineString","coordinates":[[15.8268,40.64664],[15.82725,40.6469],[15.82744,40.64696],[15.82791,40.64722],[15.82801,40.64731],[15.82826,40.6477],[15.82835,40.64777],[15.82896,40.64804],[15.8291,40.64824],[15.82912,40.64831],[15.82888,40.64905],[15.82892,40.64918]]},"properties":{}},{"type":"Feature","geometry":{"type":"LineString","coordinates":[[15.83135,40.64353],[15.82896,40.64291]]},"properties":{}},{"type":"Feature","geometry":{"type":"LineString","coordinates":[[15.83404,40.6412],[15.83369,40.64078],[15.83269,40.63944],[15.83179,40.63846],[15.83109,40.63782],[15.83049,40.63735],[15.82987,40.63693]]},"properties":{}},{"type":"Feature","geometry":{"type":"LineString","coordinates":[[15.83404,40.6412],[15.83369,40.64089],[15.83351,40.64065],[15.83342,40.64059],[15.83322,40.64059],[15.83294,40.64069],[15.83276,40.64071],[15.83261,40.64056],[15.83254,40.64046],[15.83249,40.64027],[15.83249,40.63993],[15.83244,40.63978],[15.83187,40.6388],[15.83158,40.63848],[15.83096,40.63795],[15.83043,40.63758],[15.82984,40.63741],[15.82948,40.63724],[15.82987,40.63693]]},"properties":{}},{"type":"Feature","geometry":{"type":"LineString","coordinates":[[15.82987,40.63693],[15.82994,40.63688]]},"properties":{}},{"type":"Feature","geometry":{"type":"LineString","coordinates":[[15.82994,40.63688],[15.83034,40.63713],[15.83126,40.63785],[15.83212,40.63867],[15.83274,40.63936],[15.83392,40.64092]]},"properties":{}},{"type":"Feature","geometry":{"type":"LineString","coordinates":[[15.82994,40.63688],[15.83007,40.63676],[15.83018,40.63672]]},"properties":{}},{"type":"Feature","geometry":{"type":"LineString","coordinates":[[15.8303,40.63671],[15.83023,40.63674],[15.83018,40.63672]]},"properties":{}},{"type":"Feature","geometry":{"type":"LineString","coordinates":[[15.83018,40.63672],[15.83018,40.63668],[15.83022,40.63665],[15.83029,40.63667],[15.8303,40.63671]]},"properties":{}},{"type":"Feature","geometry":{"type":"LineString","coordinates":[[15.8303,40.63671],[15.83136,40.63776],[15.83186,40.63804],[15.83252,40.63823]]},"properties":{}},{"type":"Feature","geometry":{"type":"LineString","coordinates":[[15.83101,40.6445],[15.83152,40.64381],[15.83152,40.64371],[15.83148,40.64362],[15.83135,40.64353]]},"properties":{}},{"type":"Feature","geometry":{"type":"LineString","coordinates":[[15.8318,40.64365],[15.83184,40.64386],[15.83178,40.64394],[15.83101,40.6445]]},"properties":{}},{"type":"Feature","geometry":{"type":"LineString","coordinates":[[15.8318,40.64365],[15.83135,40.64353]]},"properties":{}},{"type":"Feature","geometry":{"type":"LineString","coordinates":[[15.83366,40.64413],[15.8318,40.64365]]},"properties":{}},{"type":"Feature","geometry":{"type":"LineString","coordinates":[[15.83366,40.64413],[15.83362,40.64462],[15.8335,40.64495],[15.83288,40.64554],[15.83236,40.64594],[15.83221,40.64609],[15.83207,40.64632],[15.83173,40.64707],[15.83158,40.64763],[15.83155,40.64811],[15.83164,40.64836],[15.83209,40.64931]]},"properties":{}},{"type":"Feature","geometry":{"type":"LineString","coordinates":[[15.83263,40.63822],[15.83266,40.63827],[15.8326,40.63832],[15.83251,40.63829],[15.83252,40.63823]]},"properties":{}},{"type":"Feature","geometry":{"type":"LineString","coordinates":[[15.83252,40.63823],[15.83256,40.6382],[15.83263,40.63822]]},"properties":{}},{"type":"Feature","geometry":{"type":"LineString","coordinates":[[15.83263,40.63822],[15.83314,40.63785],[15.8335,40.63771],[15.83383,40.63768],[15.83423,40.63774],[15.83461,40.6372],[15.83595,40.6377]]},"properties":{}},{"type":"Feature","geometry":{"type":"LineString","coordinates":[[15.83338,40.63987],[15.83335,40.64],[15.83337,40.64005],[15.83391,40.64083],[15.83392,40.64092]]},"properties":{}},{"type":"Feature","geometry":{"type":"LineString","coordinates":[[15.83338,40.63987],[15.8333,40.63984],[15.83328,40.63979],[15.83334,40.63972],[15.83346,40.63974],[15.83346,40.63983]]},"properties":{}},{"type":"Feature","geometry":{"type":"LineString","coordinates":[[15.83346,40.63983],[15.83338,40.63987]]},"properties":{}},{"type":"Feature","geometry":{"type":"LineString","coordinates":[[15.83346,40.63983],[15.8338,40.64025],[15.83405,40.64024],[15.83441,40.64017],[15.83489,40.64001],[15.83534,40.63978],[15.83555,40.63961],[15.83578,40.63932],[15.83593,40.639],[15.83596,40.63876],[15.83595,40.63857],[15.83589,40.63822],[15.83584,40.63811],[15.83584,40.63798],[15.83595,40.6377]]},"properties":{}},{"type":"Feature","geometry":{"type":"LineString","coordinates":[[15.83741,40.64403],[15.837,40.64427],[15.83669,40.64434],[15.83597,40.64441],[15.83555,40.64441],[15.83505,40.64436],[15.8342,40.64425],[15.83366,40.64413]]},"properties":{}},{"type":"Feature","geometry":{"type":"LineString","coordinates":[[15.83392,40.64092],[15.83444,40.64143],[15.83486,40.6418],[15.83532,40.64213],[15.83581,40.64243],[15.83634,40.64271],[15.83705,40.643],[15.83785,40.64323],[15.83839,40.64335]]},"properties":{}},{"type":"Feature","geometry":{"type":"LineString","coordinates":[[15.83831,40.64341],[15.83725,40.64315],[15.83669,40.64295],[15.83624,40.64273],[15.83549,40.64233],[15.83505,40.64205],[15.83463,40.64173],[15.83404,40.6412]]},"properties":{}},{"type":"Feature","geometry":{"type":"LineString","coordinates":[[15.83595,40.6377],[15.83644,40.63784],[15.83667,40.63784],[15.83688,40.6378],[15.83707,40.63771],[15.83723,40.63753],[15.83728,40.63739],[15.83748,40.63596],[15.83781,40.63514],[15.83779,40.63493],[15.83774,40.63485],[15.83658,40.63389]]},"properties":{}},{"type":"Feature","geometry":{"type":"LineString","coordinates":[[15.83658,40.63389],[15.83647,40.63394],[15.83623,40.63396],[15.83609,40.63393],[15.83596,40.63385],[15.83462,40.63474],[15.83413,40.6349],[15.83424,40.63443],[15.83433,40.63444],[15.8345,40.63437],[15.83606,40.63334],[15.83634,40.63328],[15.83649,40.63331],[15.83665,40.6334],[15.83671,40.63349],[15.83675,40.63365],[15.83668,40.63381],[15.83658,40.63389]]},"properties":{}},{"type":"Feature","geometry":{"type":"LineString","coordinates":[[15.83831,40.64341],[15.83741,40.64403]]},"properties":{}},{"type":"Feature","geometry":{"type":"LineString","coordinates":[[15.84285,40.64379],[15.84194,40.64379],[15.8391,40.6437],[15.8385,40.64377],[15.83741,40.64403]]},"properties":{}},{"type":"Feature","geometry":{"type":"LineString","coordinates":[[15.84244,40.64366],[15.84032,40.64363],[15.83939,40.64357],[15.83831,40.64341]]},"properties":{}},{"type":"Feature","geometry":{"type":"LineString","coordinates":[[15.83839,40.64335],[15.83831,40.64341]]},"properties":{}},{"type":"Feature","geometry":{"type":"LineString","coordinates":[[15.83839,40.64335],[15.83926,40.64349],[15.83974,40.64353],[15.84244,40.64359]]},"properties":{}},{"type":"Feature","geometry":{"type":"LineString","coordinates":[[15.83839,40.64335],[15.83889,40.64302],[15.83912,40.64291],[15.83943,40.64283],[15.83966,40.64281],[15.84102,40.64291],[15.84243,40.64313],[15.84345,40.64336]]},"properties":{}},{"type":"Feature","geometry":{"type":"LineString","coordinates":[[15.85222,40.64405],[15.85173,40.64391],[15.85095,40.64383],[15.84244,40.64366]]},"properties":{}},{"type":"Feature","geometry":{"type":"LineString","coordinates":[[15.84285,40.64379],[15.84244,40.64366]]},"properties":{}},{"type":"Feature","geometry":{"type":"LineString","coordinates":[[15.84244,40.64359],[15.85131,40.64378],[15.85175,40.64384],[15.85225,40.64399]]},"properties":{}},{"type":"Feature","geometry":{"type":"LineString","coordinates":[[15.84244,40.64359],[15.84326,40.64336],[15.84345,40.64336]]},"properties":{}},{"type":"Feature","geometry":{"type":"LineString","coordinates":[[15.84285,40.64379],[15.84933,40.6439],[15.85135,40.64408],[15.85204,40.6443],[15.85222,40.64405]]},"properties":{}},{"type":"Feature","geometry":{"type":"LineString","coordinates":[[15.84345,40.64336],[15.84462,40.64354],[15.85044,40.64368],[15.85222,40.64366],[15.85243,40.64372],[15.85225,40.64399]]},"properties":{}},{"type":"Feature","geometry":{"type":"LineString","coordinates":[[16.0,40.58797],[15.99634,40.5898],[15.99358,40.59122],[15.9904,40.593],[15.98968,40.5933],[15.98914,40.59348],[15.98729,40.59397],[15.98698,40.59409],[15.98648,40.59433],[15.98589,40.59469],[15.98546,40.59504],[15.98503,40.5955],[15.98485,40.59575],[15.98464,40.59614],[15.98454,40.59642],[15.98443,40.59691],[15.98442,40.5978],[15.98455,40.59931],[15.98457,40.60006],[15.98447,40.60073],[15.98424,40.60138],[15.98384,40.60206],[15.9832,40.60275],[15.98287,40.60305],[15.98207,40.60357],[15.98098,40.60404],[15.9789,40.60475],[15.97766,40.60521],[15.9769,40.60545],[15.97611,40.60559],[15.97544,40.60562],[15.97507,40.60559],[15.97428,40.60547],[15.9731,40.60538],[15.97214,40.60538],[15.97165,40.60545],[15.96899,40.60617],[15.96781,40.60655],[15.96683,40.60697],[15.96632,40.60722],[15.96392,40.60853],[15.96167,40.60969],[15.96001,40.61027],[15.95847,40.61073],[15.95653,40.61097],[15.95518,40.61125],[15.95478,40.61137],[15.95437,40.61155],[15.95403,40.61174],[15.9538,40.6119],[15.95349,40.6122],[15.95334,40.61242],[15.95322,40.61267],[15.95313,40.61314],[15.953,40.61428],[15.95289,40.61569],[15.95282,40.61632],[15.95237,40.61767],[15.95222,40.61833],[15.95222,40.61916],[15.9524,40.62021],[15.95242,40.62057],[15.95227,40.62162],[15.95212,40.622],[15.95189,40.62239],[15.95079,40.62354],[15.95053,40.62403],[15.95044,40.62432],[15.95039,40.62475],[15.9504,40.62503],[15.95048,40.62541],[15.95071,40.6262],[15.95077,40.62696],[15.95065,40.62756],[15.95016,40.62885],[15.95009,40.62925],[15.95008,40.62953],[15.9502,40.63087],[15.95013,40.63118],[15.94985,40.6318],[15.94953,40.63221],[15.949,40.63269],[15.94744,40.63393],[15.94575,40.63502],[15.9452,40.63545],[15.94413,40.63642],[15.94363,40.63692],[15.94329,40.63738],[15.94215,40.63932],[15.94091,40.64103],[15.93962,40.64317],[15.93771,40.64646],[15.93737,40.64688],[15.93671,40.64751],[15.93635,40.64775],[15.93594,40.64796],[15.93532,40.6482],[15.93453,40.64841],[15.93319,40.6486],[15.93238,40.64878],[15.93174,40.64898],[15.93112,40.64924],[15.93026,40.6497],[15.92763,40.65145],[15.92694,40.65175],[15.92597,40.65204],[15.92527,40.65213],[15.92398,40.65212],[15.92171,40.65204],[15.92098,40.6521],[15.9196,40.65233],[15.91863,40.65235],[15.9178,40.65225],[15.91735,40.65215],[15.9153,40.65152],[15.91426,40.65128],[15.91195,40.65106],[15.90643,40.65062],[15.90529,40.65046],[15.90464,40.65031],[15.90325,40.64988],[15.90224,40.64961],[15.90129,40.6495],[15.90017,40.64954],[15.89952,40.64966],[15.89893,40.64982],[15.89728,40.65046],[15.8945,40.65148],[15.89316,40.65202],[15.89289,40.65215],[15.89215,40.65262],[15.89083,40.65372],[15.89029,40.65404],[15.88978,40.65424],[15.88923,40.65439],[15.8888,40.65445],[15.88694,40.65448],[15.88611,40.65458],[15.8851,40.65494],[15.88123,40.65666],[15.88032,40.65696],[15.87932,40.65715],[15.87877,40.65721],[15.87787,40.65721],[15.87737,40.65717],[15.87667,40.65708],[15.87596,40.65691],[15.87501,40.65654],[15.87421,40.65614],[15.872,40.65453],[15.87103,40.65389],[15.86902,40.65269],[15.86809,40.65216],[15.86511,40.6507],[15.86479,40.65051],[15.86422,40.65007],[15.86382,40.64963],[15.86366,40.64939],[15.86325,40.6489],[15.86267,40.64844],[15.86235,40.64823],[15.86195,40.64802],[15.8598,40.64708],[15.85873,40.64673],[15.85751,40.64642],[15.8558,40.64566],[15.85401,40.64506],[15.85356,40.64484],[15.8524,40.64412],[15.85222,40.64405]]},"properties":{}},{"type":"Feature","geometry":{"type":"LineString","coordinates":[[15.85222,40.64405],[15.85225,40.64399]]},"properties":{}},{"type":"Feature","geometry":{"type":"LineString","coordinates":[[15.85225,40.64399],[15.85252,40.6441],[15.8536,40.64477],[15.85409,40.645],[15.85589,40.64559],[15.85639,40.64579],[15.85737,40.64629],[15.85763,40.64638],[15.85887,40.64669],[15.8598,40.647],[15.86203,40.64797],[15.86274,40.64838],[15.86313,40.64867],[15.86349,40.64903],[15.86385,40.64953],[15.86426,40.64999],[15.86505,40.65058],[15.86812,40.6521],[15.87029,40.65337],[15.87206,40.65447],[15.874,40.6559],[15.87473,40.65634],[15.87599,40.65685],[15.8767,40.65701],[15.87732,40.65711],[15.87783,40.65716],[15.8783,40.65717],[15.87917,40.65712],[15.88018,40.65693],[15.8807,40.65678],[15.88165,40.65641],[15.88502,40.65489],[15.88544,40.65471],[15.88604,40.65452],[15.88679,40.6544],[15.88887,40.65436],[15.88916,40.65432],[15.88975,40.65417],[15.8902,40.654],[15.89065,40.65374],[15.89115,40.65336],[15.89207,40.65258],[15.89259,40.65221],[15.893,40.65199],[15.89354,40.65175],[15.89885,40.64976],[15.89939,40.6496],[15.90025,40.64946],[15.9013,40.64942],[15.90225,40.64954],[15.90277,40.64966],[15.90466,40.65023],[15.90577,40.65047],[15.90629,40.65054],[15.91197,40.65098],[15.91414,40.6512],[15.91479,40.65132],[15.91539,40.65148],[15.91738,40.65208],[15.91773,40.65216],[15.91868,40.65227],[15.91956,40.65226],[15.92104,40.65201],[15.92173,40.65196],[15.92394,40.65204],[15.92524,40.65205],[15.92596,40.65196],[15.92689,40.65169],[15.9276,40.65138],[15.92876,40.65063],[15.93062,40.64934],[15.93085,40.64923],[15.93173,40.64886],[15.93236,40.64866],[15.93338,40.64848],[15.93444,40.64834],[15.93473,40.64829],[15.93538,40.6481],[15.93586,40.64791],[15.93622,40.64772],[15.93689,40.64726],[15.93725,40.64693],[15.93758,40.64651],[15.94081,40.64101],[15.94193,40.63949],[15.94322,40.63733],[15.94352,40.63691],[15.94509,40.63544],[15.94556,40.63506],[15.94766,40.63367],[15.94906,40.63254],[15.94929,40.63233],[15.94966,40.63191],[15.94989,40.63153],[15.95001,40.63123],[15.95009,40.63086],[15.9501,40.63055],[15.94999,40.62958],[15.95003,40.62902],[15.9502,40.62846],[15.95055,40.62758],[15.95065,40.62711],[15.95066,40.62646],[15.95061,40.62619],[15.95037,40.62536],[15.95031,40.62506],[15.95032,40.62452],[15.95038,40.62417],[15.95056,40.62376],[15.95072,40.6235],[15.95094,40.62323],[15.95155,40.62264],[15.95185,40.62226],[15.95211,40.62182],[15.95218,40.62158],[15.95228,40.62098],[15.95231,40.62058],[15.95229,40.62019],[15.95212,40.61918],[15.95212,40.61845],[15.95227,40.61768],[15.95271,40.61635],[15.9528,40.61568],[15.95307,40.61271],[15.95313,40.61252],[15.95328,40.61227],[15.95365,40.61186],[15.954,40.61162],[15.95464,40.61132],[15.95507,40.61117],[15.95632,40.61083],[15.9583,40.6104],[15.95916,40.61018],[15.96049,40.60977],[15.96115,40.60951],[15.96317,40.60861],[15.96507,40.60759],[15.96626,40.60703],[15.96724,40.60661],[15.96823,40.6063],[15.97135,40.60542],[15.97208,40.60526],[15.97258,40.60524],[15.97408,40.60535],[15.97535,40.6055],[15.976,40.60548],[15.97685,40.60534],[15.97717,40.60525],[15.97883,40.60465],[15.98082,40.60398],[15.9814,40.60377],[15.98198,40.60349],[15.98237,40.60327],[15.98309,40.6027],[15.98373,40.60199],[15.98398,40.60163],[15.98417,40.6012],[15.98436,40.60066],[15.98441,40.60037],[15.98444,40.59959],[15.9842,40.59688],[15.98422,40.59663],[15.9843,40.59631],[15.98449,40.59594],[15.98507,40.59515],[15.98549,40.5947],[15.98623,40.59425],[15.98661,40.59407],[15.98696,40.59394],[15.98913,40.59337],[15.9897,40.59318],[15.99027,40.59294],[15.9951,40.59028],[16.0,40.58783]]},"properties":{}}]}