{"type":"FeatureCollection","features":[{"type":"Feature","geometry":{"type":"LineString","coordinates":[[15.5,40.05858],[15.50071,40.05917],[15.50084,40.05937],[15.50115,40.06025],[15.5012,40.06048],[15.50122,40.06099],[15.50114,40.06187],[15.50114,40.06238],[15.50133,40.06308],[15.50138,40.06358],[15.50146,40.06395],[15.50193,40.06466],[15.50285,40.0656],[15.50316,40.06586],[15.50339,40.06615],[15.50345,40.06641],[15.50352,40.06724],[15.50351,40.06754],[15.50346,40.06766],[15.50287,40.06838],[15.5028,40.06867],[15.50287,40.06914],[15.50335,40.07128],[15.50341,40.07137],[15.50354,40.07144],[15.50371,40.07142],[15.50386,40.07136]]},"properties":{}},{"type":"Feature","geometry":{"type":"LineString","coordinates":[[15.5,40.08074],[15.50127,40.08014],[15.50216,40.07947],[15.50225,40.07933],[15.50225,40.07921],[15.50203,40.07863],[15.50207,40.07847],[15.50258,40.07813],[15.50272,40.07777],[15.5029,40.07751],[15.50308,40.07741],[15.50396,40.07727],[15.50413,40.07704],[15.50418,40.0767],[15.50414,40.07634],[15.50407,40.07614],[15.50397,40.07597],[15.50364,40.0757],[15.50356,40.07552],[15.50364,40.07539],[15.50408,40.07505],[15.50413,40.07492],[15.50362,40.07419],[15.50339,40.07398],[15.50286,40.07365],[15.50273,40.0736],[15.50242,40.07355],[15.50235,40.07351],[15.50229,40.07343],[15.50226,40.07333],[15.50219,40.07272],[15.5022,40.0725],[15.50233,40.07235],[15.50295,40.07207],[15.50386,40.07136]]},"properties":{}},{"type":"Feature","geometry":{"type":"LineString","coordinates":[[15.50386,40.07136],[15.50488,40.07066],[15.50504,40.07046],[15.50521,40.07007],[15.50533,40.06995],[15.50549,40.06992],[15.50571,40.06995],[15.50612,40.07018],[15.50641,40.07041],[15.50664,40.07076],[15.50715,40.07103],[15.50746,40.07114],[15.50987,40.07178],[15.51066,40.07202],[15.51341,40.07343],[15.51376,40.07359],[15.51405,40.07367],[15.51524,40.0737],[15.51571,40.07363],[15.51623,40.07351],[15.51646,40.0735],[15.51692,40.07355],[15.51739,40.07365],[15.5191,40.07407],[15.52008,40.07416],[15.52049,40.07414],[15.52244,40.07386],[15.52302,40.07385],[15.52454,40.07404],[15.53016,40.07484],[15.53163,40.07489],[15.53498,40.07491],[15.53543,40.07495],[15.5357,40.07502],[15.53714,40.07559],[15.53769,40.0757],[15.5416,40.07571],[15.55119,40.07641],[15.55289,40.07649],[15.55401,40.0765],[15.55514,40.07647],[15.55545,40.07642],[15.55617,40.07624],[15.55648,40.07621],[15.56454,40.07605],[15.56472,40.07607],[15.56516,40.07622],[15.56553,40.07641],[15.56662,40.07714],[15.56717,40.07717],[15.56768,40.07725],[15.56802,40.07737],[15.5692,40.07795],[15.57023,40.07807],[15.57082,40.07838],[15.57154,40.07866],[15.57221,40.07899],[15.57333,40.07947],[15.57386,40.07962],[15.57491,40.08004],[15.57547,40.08017],[15.57669,40.08036],[15.57769,40.08064],[15.57798,40.08067],[15.57858,40.08065],[15.58003,40.08088],[15.58077,40.08096],[15.58105,40.08096],[15.58187,40.08077],[15.58223,40.08073],[15.58481,40.08066],[15.58482,40.0806],[15.58473,40.08045],[15.58473,40.08034],[15.5848,40.08024],[15.58596,40.07939],[15.58644,40.07886],[15.58791,40.07803],[15.58825,40.07788],[15.58883,40.07751],[15.58941,40.07704]]},"properties":{}},{"type":"Feature","geometry":{"type":"LineString","coordinates":[[15.52209,40.5],[15.52227,40.49924],[15.52236,40.49863],[15.52264,40.49541],[15.52277,40.49445],[15.52294,40.4937],[15.52324,40.49277],[15.52344,40.49233],[15.52371,40.49185],[15.52401,40.4914],[15.52435,40.49098],[15.52503,40.49028],[15.52552,40.48985],[15.5264,40.48917],[15.52902,40.48733],[15.52994,40.48658],[15.53051,40.48604],[15.5311,40.4854],[15.53158,40.48478],[15.53206,40.48409],[15.53331,40.48204],[15.5345,40.47998],[15.53624,40.47664],[15.537,40.47501],[15.53726,40.47441],[15.53767,40.47317],[15.53796,40.47178],[15.53826,40.46977],[15.5385,40.4688],[15.53953,40.46545],[15.53994,40.4642],[15.54019,40.46359],[15.54074,40.46247],[15.54242,40.45933],[15.54284,40.45811],[15.54311,40.45676],[15.54321,40.45418],[15.54326,40.45368],[15.54337,40.4531],[15.54352,40.45255],[15.5438,40.45184],[15.54416,40.45114],[15.54482,40.45018],[15.54719,40.44735],[15.54875,40.44543],[15.54944,40.44435],[15.55095,40.44161],[15.55127,40.44108],[15.55156,40.44068],[15.55187,40.44029],[15.55253,40.4396],[15.55399,40.43825],[15.55457,40.43765],[15.55537,40.43657],[15.55574,40.4359],[15.55608,40.43518],[15.55844,40.43011],[15.55868,40.42945],[15.55887,40.42874],[15.55897,40.42811],[15.55902,40.42741],[15.559,40.42663],[15.55885,40.42414],[15.55886,40.42333],[15.55894,40.42249]]},"properties":{}},{"type":"Feature","geometry":{"type":"LineString","coordinates":[[15.55941,40.42091],[15.55917,40.42189],[15.55907,40.42246],[15.55899,40.42332],[15.55899,40.42413],[15.55914,40.42661],[15.55916,40.42743],[15.5591,40.42812],[15.559,40.42878],[15.55881,40.42948],[15.55856,40.43014],[15.55676,40.43405],[15.55587,40.43594],[15.5555,40.4366],[15.55468,40.4377],[15.55441,40.438],[15.5523,40.44],[15.55169,40.44073],[15.55108,40.44164],[15.54956,40.44441],[15.54886,40.4455],[15.54851,40.44597],[15.54495,40.45023],[15.54428,40.45121],[15.54393,40.45188],[15.54366,40.45258],[15.54351,40.45313],[15.54335,40.45419],[15.54328,40.45632],[15.5432,40.45725],[15.54271,40.45896],[15.54235,40.45975],[15.54059,40.46307],[15.54033,40.46362],[15.53989,40.46476],[15.53865,40.46875],[15.53842,40.46967],[15.5381,40.47177],[15.53783,40.47318],[15.53743,40.47445],[15.53637,40.47666],[15.53464,40.48001],[15.53344,40.48208],[15.53218,40.48413],[15.53172,40.48482],[15.53124,40.48545],[15.53068,40.48609],[15.53006,40.48665],[15.5291,40.48742],[15.5265,40.48923],[15.52562,40.48991],[15.52482,40.49064],[15.52414,40.49142],[15.52385,40.49185],[15.52358,40.49234],[15.5233,40.49297],[15.52307,40.49371],[15.52291,40.49444],[15.52277,40.49541],[15.52264,40.49733],[15.52249,40.49863],[15.52223,40.5]]},"properties":{}},{"type":"Feature","geometry":{"type":"LineString","coordinates":[[15.5315,40.17734],[15.53124,40.17753]]},"properties":{}},{"type":"Feature","geometry":{"type":"LineString","coordinates":[[15.53137,40.17705],[15.53125,40.17698],[15.53063,40.17681],[15.53037,40.17679],[15.53015,40.17684],[15.52999,40.17692],[15.52987,40.1771],[15.5298,40.17731],[15.52994,40.17768],[15.52994,40.17781],[15.52989,40.17797],[15.5295,40.17867],[15.52946,40.17898],[15.52769,40.18123],[15.52735,40.18183],[15.52716,40.18259],[15.5271,40.18306],[15.52716,40.18379],[15.5273,40.18428],[15.52744,40.18463],[15.5276,40.18494],[15.528,40.18549],[15.52842,40.18598],[15.52909,40.18653],[15.53479,40.18982],[15.53533,40.1902],[15.53562,40.19048],[15.5359,40.19087],[15.53605,40.19125],[15.53613,40.19156],[15.53616,40.19188],[15.53616,40.19325],[15.53623,40.19361],[15.53635,40.19399],[15.5365,40.19425],[15.53698,40.19481],[15.53729,40.19507],[15.53767,40.19531],[15.53797,40.19546],[15.53862,40.19565],[15.53921,40.19573],[15.53981,40.19574],[15.54044,40.19569],[15.54298,40.19507],[15.54408,40.19505],[15.54476,40.19515],[15.54542,40.19532],[15.54613,40.19568],[15.54662,40.19612],[15.5469,40.19645],[15.54713,40.19683],[15.54728,40.19726],[15.54746,40.19867],[15.54771,40.19926],[15.54803,40.19966],[15.54852,40.20007],[15.54923,40.20046],[15.55047,40.20088],[15.55107,40.20117],[15.55146,40.20144],[15.5523,40.20223],[15.55409,40.2037],[15.55454,40.2042],[15.55474,40.20454],[15.55485,40.20483],[15.55493,40.20513],[15.55495,40.20547],[15.55483,40.20643],[15.55463,40.20758],[15.55455,40.20862],[15.55459,40.20902],[15.55504,40.21002],[15.55711,40.2132],[15.55783,40.21421],[15.55832,40.21466],[15.5589,40.21503],[15.56067,40.21591],[15.5617,40.21636],[15.56271,40.21689],[15.56526,40.21857],[15.56583,40.21898],[15.5662,40.21938],[15.56647,40.21977],[15.56661,40.22013],[15.5667,40.22051],[15.56673,40.22088],[15.56663,40.22131],[15.56646,40.2218],[15.56597,40.22242],[15.55375,40.2314],[15.55175,40.23295],[15.55076,40.23372],[15.55042,40.23409],[15.55021,40.23438],[15.54993,40.23497],[15.54984,40.23554],[15.54981,40.23618],[15.54993,40.23669],[15.55027,40.23716],[15.55089,40.23758],[15.55156,40.23797],[15.55321,40.23866],[15.55431,40.23902],[15.55542,40.23929],[15.55901,40.23977],[15.5615,40.2402],[15.56233,40.24045],[15.56247,40.24058],[15.56252,40.24072],[15.56251,40.24087],[15.56243,40.24099],[15.56221,40.24113],[15.56198,40.24117],[15.56051,40.24129],[15.55862,40.24098],[15.55844,40.24103],[15.55738,40.24158],[15.55702,40.24145],[15.5564,40.24099],[15.55511,40.24098],[15.55485,40.24094],[15.55456,40.24083],[15.55436,40.2407],[15.55381,40.24008],[15.55318,40.2397],[15.55299,40.23966],[15.55056,40.23965],[15.54951,40.23973],[15.54833,40.23988],[15.54785,40.24003],[15.54762,40.24023],[15.54743,40.24054],[15.5474,40.24074],[15.54751,40.24145],[15.54771,40.24179],[15.54794,40.24212],[15.54901,40.24332],[15.54974,40.24402],[15.55013,40.24464],[15.55029,40.24477],[15.55075,40.24487],[15.55228,40.24473],[15.55259,40.24473],[15.55288,40.24478],[15.55377,40.24515],[15.55476,40.24543],[15.55554,40.24577],[15.55743,40.24628],[15.55843,40.24635],[15.55937,40.24649],[15.5606,40.24647],[15.56096,40.2465],[15.56158,40.24664],[15.56169,40.24669],[15.5618,40.2468],[15.56204,40.24756],[15.56243,40.24823],[15.56257,40.24837],[15.56264,40.2484],[15.56287,40.24839],[15.563,40.24831],[15.56302,40.24807],[15.56294,40.24745],[15.56296,40.24733],[15.563,40.24729],[15.5632,40.2472],[15.56434,40.24694],[15.56465,40.24691],[15.56492,40.24693],[15.56524,40.247],[15.5659,40.24727],[15.56632,40.24738],[15.56753,40.24727],[15.56794,40.24726],[15.56831,40.24732],[15.56919,40.24754],[15.56936,40.24753],[15.56979,40.24742],[15.57005,40.24739],[15.57042,40.24743],[15.57067,40.2475],[15.57081,40.24763],[15.57087,40.24782],[15.571,40.24806],[15.57118,40.24828],[15.57137,40.24839],[15.57155,40.24842],[15.57175,40.24839],[15.57212,40.24824],[15.57238,40.24824],[15.57259,40.2483],[15.57315,40.24859],[15.57329,40.24863],[15.57345,40.24862],[15.57357,40.24854],[15.57398,40.24814],[15.57417,40.24806],[15.57443,40.24801],[15.57461,40.24799],[15.57478,40.24802],[15.57496,40.24809],[15.57528,40.24837],[15.57548,40.24849],[15.57569,40.24856],[15.57596,40.24861],[15.57615,40.24859],[15.57631,40.24853],[15.57678,40.2483],[15.57702,40.24827],[15.57722,40.24835],[15.57733,40.24846],[15.57746,40.24876],[15.57758,40.24919],[15.57772,40.24929],[15.57784,40.24931],[15.57832,40.24917],[15.57902,40.2491],[15.57966,40.24896],[15.58052,40.24862],[15.58075,40.24858],[15.58108,40.2486],[15.58172,40.24892],[15.58184,40.24895],[15.5823,40.2489],[15.58281,40.24893],[15.58312,40.24899],[15.58345,40.24919],[15.58398,40.24995],[15.58431,40.25027],[15.58488,40.25064],[15.58515,40.25076],[15.58533,40.25079],[15.58549,40.25076],[15.58612,40.25041],[15.58646,40.25031],[15.5867,40.25029],[15.58694,40.25031],[15.58723,40.25041],[15.58759,40.25063],[15.5878,40.25082],[15.58869,40.25212],[15.58885,40.25228],[15.58905,40.2524],[15.58925,40.25245],[15.5896,40.25248],[15.59034,40.25245],[15.59056,40.25253],[15.59164,40.25315],[15.59178,40.25319],[15.59208,40.25317],[15.59239,40.25304],[15.59269,40.25295],[15.59299,40.25297],[15.59312,40.25303],[15.59332,40.25321],[15.59428,40.25453],[15.59446,40.25465],[15.59509,40.25483],[15.59666,40.25623],[15.59687,40.25646],[15.59724,40.25701],[15.59741,40.25716],[15.59766,40.25728],[15.59976,40.25812],[15.60036,40.25828],[15.60075,40.25828],[15.60215,40.25811],[15.60236,40.25812],[15.60252,40.25817],[15.60272,40.25838],[15.60354,40.26051],[15.60368,40.26075],[15.60384,40.26089],[15.60427,40.26104],[15.60495,40.26104],[15.60514,40.26112],[15.60537,40.26138],[15.60555,40.26197],[15.60576,40.26246],[15.60597,40.26262],[15.60609,40.26265],[15.60626,40.26264],[15.60739,40.2624],[15.60785,40.26235],[15.60872,40.26237],[15.60912,40.26247],[15.60993,40.26281],[15.61033,40.26291],[15.6138,40.26313],[15.61554,40.26352],[15.61596,40.26354],[15.61627,40.2635],[15.61897,40.2628],[15.61925,40.26277],[15.61957,40.26282]]},"properties":{}},{"type":"Feature","geometry":{"type":"LineString","coordinates":[[15.5315,40.17734],[15.53136,40.17733],[15.53131,40.17729],[15.53133,40.1772],[15.53143,40.17716],[15.53151,40.17717],[15.53156,40.17723],[15.53156,40.17729]]},"properties":{}},{"type":"Feature","geometry":{"type":"LineString","coordinates":[[15.53156,40.17729],[15.5315,40.17734]]},"properties":{}},{"type":"Feature","geometry":{"type":"LineString","coordinates":[[15.58853,40.08025],[15.58858,40.08045],[15.58877,40.08083],[15.58881,40.08102],[15.58881,40.08184],[15.58885,40.08197],[15.58915,40.08236],[15.58923,40.08254],[15.58934,40.08326],[15.58932,40.08343],[15.58921,40.08375],[15.58904,40.08397],[15.58867,40.08431],[15.58831,40.08479],[15.58825,40.08493],[15.58827,40.08522],[15.58841,40.08558],[15.58855,40.08583],[15.58899,40.08625],[15.58935,40.08646],[15.58947,40.0866],[15.58955,40.08675],[15.58955,40.08691],[15.58946,40.08711],[15.58949,40.08734],[15.59017,40.08791],[15.59049,40.08848],[15.5907,40.08917],[15.59079,40.08928],[15.5914,40.08966],[15.59154,40.08977],[15.59158,40.08985],[15.59159,40.08993],[15.59155,40.09002],[15.59126,40.0905],[15.59088,40.09246],[15.59068,40.09256],[15.59015,40.09261],[15.58989,40.09261],[15.58967,40.09254],[15.58954,40.09243],[15.58944,40.09229],[15.58937,40.09208],[15.58929,40.09198],[15.58913,40.09191],[15.58872,40.0918],[15.58845,40.09178],[15.58831,40.09181],[15.5882,40.0919],[15.58818,40.09201],[15.58826,40.09237],[15.58823,40.09252],[15.58811,40.09262],[15.58796,40.09269],[15.58745,40.09275],[15.58728,40.09283],[15.58719,40.09298],[15.58721,40.09352],[15.58719,40.09387],[15.58707,40.09414],[15.58687,40.09446],[15.58672,40.09459],[15.58634,40.09481],[15.58619,40.09494],[15.5861,40.0951],[15.58601,40.09535],[15.586,40.09554],[15.58604,40.09566],[15.58623,40.09591],[15.58627,40.09607],[15.58626,40.09629],[15.58621,40.09644],[15.58572,40.0971],[15.58561,40.09733],[15.58559,40.09751],[15.58573,40.09786],[15.58568,40.09803],[15.58563,40.09809],[15.58487,40.09872],[15.58467,40.09884],[15.58358,40.09908],[15.58308,40.09912],[15.58293,40.09916],[15.58257,40.09932],[15.58246,40.09941],[15.58174,40.10024],[15.58168,40.10034],[15.58161,40.10062],[15.58156,40.10071],[15.58114,40.10115],[15.58087,40.10153],[15.58066,40.10166],[15.58062,40.10174],[15.5805,40.10243],[15.58036,40.10263],[15.58012,40.10284],[15.5788,40.1036],[15.57848,40.10386],[15.57807,40.10427],[15.57752,40.10441],[15.57679,40.10466],[15.57621,40.10492],[15.57594,40.10497],[15.57588,40.10502],[15.57591,40.10509],[15.57602,40.10512],[15.57625,40.10507],[15.57669,40.10505],[15.57744,40.1048],[15.5785,40.10471],[15.5787,40.10463],[15.57919,40.10428],[15.57986,40.10405],[15.58022,40.10382],[15.58029,40.10381],[15.5804,40.10386],[15.58042,40.10394],[15.58037,40.10402],[15.58026,40.10445],[15.58014,40.10478],[15.58012,40.10488],[15.58015,40.10517],[15.58008,40.10543],[15.57965,40.10586],[15.57955,40.10605],[15.5796,40.10632],[15.5796,40.10652],[15.57952,40.10689],[15.57948,40.10737],[15.57951,40.10752],[15.57979,40.10802],[15.57981,40.10813],[15.57975,40.10843],[15.57977,40.10861],[15.57985,40.10875],[15.58015,40.10916],[15.57996,40.10986],[15.57982,40.10989],[15.57973,40.1098],[15.57984,40.10944],[15.57979,40.10925],[15.57944,40.10884],[15.57929,40.10849],[15.57894,40.10833],[15.57876,40.10817],[15.57862,40.10793],[15.57854,40.10765],[15.57847,40.10721],[15.57842,40.10709],[15.57831,40.10703],[15.57817,40.10699],[15.57807,40.107],[15.5778,40.10714],[15.57771,40.10722],[15.57756,40.10746],[15.57744,40.10758],[15.57658,40.10822],[15.57649,40.10833],[15.57648,40.10845],[15.5767,40.10895],[15.57687,40.1092],[15.57706,40.10937],[15.57751,40.10958],[15.57767,40.1097],[15.57777,40.10988],[15.57777,40.11004],[15.57746,40.11058],[15.57727,40.11082],[15.57716,40.11101],[15.5771,40.1112],[15.5771,40.11161],[15.57679,40.11222],[15.57628,40.11344],[15.57627,40.11356],[15.57631,40.11369],[15.57655,40.11391],[15.57663,40.11406],[15.5767,40.11441],[15.57677,40.11461],[15.5769,40.11477],[15.57726,40.11507],[15.57765,40.11533],[15.57796,40.11584],[15.57853,40.1166],[15.57857,40.11676],[15.57859,40.11735],[15.57873,40.11791],[15.57901,40.11854],[15.57903,40.11872],[15.57889,40.11914],[15.57883,40.11951],[15.57877,40.1196],[15.57864,40.11964],[15.57789,40.11971],[15.57771,40.11981],[15.57762,40.11993],[15.57757,40.12015],[15.57751,40.12026],[15.57736,40.12043],[15.57732,40.12051],[15.57733,40.12059],[15.57745,40.12072],[15.57781,40.12093],[15.57859,40.12122],[15.57908,40.1213],[15.57917,40.12135],[15.57921,40.12141],[15.5792,40.1215],[15.57867,40.12192],[15.57855,40.12197],[15.57836,40.122],[15.5778,40.122],[15.57761,40.12203],[15.57751,40.12209],[15.57745,40.12218],[15.57747,40.1223],[15.57775,40.1227],[15.57789,40.12296],[15.57787,40.12307],[15.57778,40.12313],[15.57754,40.12315],[15.57731,40.12308],[15.57687,40.12302],[15.57635,40.12308],[15.57605,40.12302],[15.5758,40.12303],[15.57563,40.12308],[15.57553,40.12317],[15.57544,40.12337],[15.5754,40.12366],[15.57546,40.12429],[15.57524,40.12526],[15.57512,40.1254],[15.57442,40.12578],[15.57433,40.12595],[15.57369,40.12761],[15.57361,40.12769],[15.57344,40.12776],[15.5724,40.12802],[15.57216,40.12817],[15.57188,40.12848],[15.57177,40.12866],[15.57169,40.12895],[15.57075,40.13053],[15.57063,40.13069],[15.57009,40.13109],[15.57001,40.13123],[15.56992,40.13147],[15.56982,40.13162],[15.56976,40.1324],[15.56953,40.13309],[15.56945,40.13323],[15.5693,40.13337],[15.56902,40.13353],[15.56778,40.13416],[15.56766,40.13417],[15.56756,40.1341],[15.56725,40.13379],[15.56676,40.13347],[15.56625,40.13331],[15.56586,40.13327],[15.5655,40.13296],[15.56523,40.13286],[15.56417,40.13289],[15.56379,40.13296],[15.56348,40.13305],[15.56337,40.13317],[15.5632,40.13351],[15.56308,40.13357],[15.56295,40.13358],[15.56215,40.1332],[15.56096,40.13274],[15.56026,40.13241],[15.56002,40.13236],[15.55986,40.13237],[15.55952,40.13247],[15.55895,40.13288],[15.5589,40.13296],[15.55893,40.13304],[15.55903,40.1331],[15.5598,40.1331],[15.56005,40.13313],[15.56023,40.13323],[15.56027,40.13338],[15.56025,40.13355],[15.56012,40.13366],[15.55971,40.13379],[15.55951,40.1338],[15.55919,40.13377],[15.55899,40.13381],[15.55848,40.13405],[15.55817,40.1341],[15.55797,40.13405],[15.55766,40.13387],[15.55746,40.13379],[15.55537,40.13353],[15.55498,40.13352],[15.55419,40.1336],[15.55407,40.13364],[15.55404,40.13371],[15.55408,40.1338],[15.55423,40.13383],[15.55482,40.13373],[15.55513,40.13372],[15.55542,40.13377],[15.55561,40.13384],[15.55571,40.13394],[15.55568,40.13408],[15.55551,40.1343],[15.55543,40.13453],[15.55545,40.13468],[15.55552,40.13483],[15.55639,40.13548],[15.55655,40.13554],[15.55698,40.13559],[15.55723,40.13567],[15.5575,40.13584],[15.55758,40.13604],[15.55759,40.13639],[15.55765,40.1365],[15.55778,40.13655],[15.55791,40.13653],[15.5582,40.13638],[15.55947,40.13616],[15.55981,40.13619],[15.56018,40.13632],[15.56042,40.1365],[15.56102,40.13723],[15.56106,40.13754],[15.56113,40.13763],[15.56174,40.13794],[15.5623,40.13799],[15.56247,40.13809],[15.56261,40.13831],[15.56271,40.13836],[15.56371,40.13854],[15.56396,40.13863],[15.56408,40.13871],[15.56412,40.13879],[15.5641,40.13898],[15.56403,40.13911],[15.56367,40.13926],[15.5629,40.13917],[15.56234,40.13914],[15.56165,40.13893],[15.56157,40.13894],[15.56151,40.139],[15.5615,40.13906],[15.56156,40.13913],[15.56254,40.13933],[15.56305,40.1396],[15.56329,40.13968],[15.5637,40.13975],[15.56434,40.13979],[15.56453,40.13984],[15.56511,40.1401],[15.56533,40.14013],[15.56565,40.14008],[15.56572,40.14],[15.56578,40.13987],[15.56574,40.13949],[15.5658,40.1394],[15.56591,40.13937],[15.56609,40.13939],[15.56673,40.13961],[15.5668,40.13971],[15.56677,40.1398],[15.56672,40.13984],[15.56636,40.13985],[15.5662,40.1399],[15.56603,40.14004],[15.56565,40.14051],[15.56536,40.14064],[15.5652,40.14068],[15.56502,40.14067],[15.56428,40.14053],[15.56406,40.14054],[15.56392,40.14059],[15.56364,40.14078],[15.56341,40.14083],[15.56295,40.14078],[15.56246,40.14065],[15.56233,40.14069],[15.56232,40.14076],[15.56234,40.14082],[15.56251,40.14093],[15.56359,40.14127],[15.5638,40.14127],[15.56396,40.14122],[15.56439,40.14103],[15.56507,40.14095],[15.56558,40.14098],[15.56579,40.14093],[15.56602,40.14074],[15.56616,40.14078],[15.56615,40.14087],[15.56611,40.1409],[15.56594,40.14098],[15.56554,40.14107],[15.56539,40.14108],[15.56499,40.14103],[15.56455,40.14115],[15.56414,40.14148],[15.56353,40.14176],[15.56338,40.14178],[15.56315,40.14173],[15.56222,40.14136],[15.56099,40.14054],[15.56071,40.14045],[15.56041,40.14041],[15.56012,40.14043],[15.55948,40.14052],[15.55821,40.14032],[15.55796,40.14036],[15.55739,40.14061],[15.5571,40.14065],[15.5554,40.14012],[15.55516,40.14011],[15.55494,40.14034],[15.55482,40.1407],[15.55472,40.14085],[15.55441,40.14118],[15.55449,40.14167],[15.55448,40.14179],[15.5543,40.14199],[15.55427,40.1421],[15.55437,40.14233],[15.55446,40.14293],[15.55437,40.1432],[15.55441,40.14332],[15.55497,40.14369],[15.55507,40.14379],[15.55532,40.14407],[15.55535,40.14425],[15.55524,40.14458],[15.55512,40.14484],[15.55505,40.14493],[15.55471,40.14524],[15.55462,40.14529],[15.55416,40.14536],[15.55391,40.14545],[15.55391,40.14552],[15.55395,40.14559],[15.55425,40.14573],[15.55427,40.14576],[15.55427,40.14586],[15.55418,40.14594],[15.55396,40.14602],[15.55361,40.14626],[15.55352,40.14637],[15.5535,40.14643],[15.55352,40.14653],[15.55361,40.1466],[15.5538,40.14663],[15.55414,40.14652],[15.55431,40.14635],[15.55466,40.14636],[15.55479,40.14642],[15.55522,40.14676],[15.55536,40.14695],[15.55544,40.14717],[15.55544,40.14733],[15.55536,40.14768],[15.55538,40.14782],[15.55547,40.14789],[15.55568,40.14793],[15.5564,40.14791],[15.55726,40.14812],[15.55779,40.14812],[15.558,40.14819],[15.55817,40.14834],[15.55844,40.14875],[15.55856,40.14899],[15.55858,40.1492],[15.55864,40.14929],[15.55873,40.14931],[15.55885,40.14928],[15.55925,40.14889],[15.55965,40.14867],[15.56087,40.1483],[15.56101,40.1483],[15.56114,40.14834],[15.56128,40.14847],[15.56143,40.14852],[15.56182,40.14855],[15.56193,40.14861],[15.56198,40.14872],[15.56202,40.1491],[15.56198,40.14938],[15.56205,40.14948],[15.56267,40.14968],[15.56294,40.14986],[15.56359,40.15],[15.56387,40.15012],[15.5643,40.15039],[15.56432,40.15049],[15.56428,40.15059],[15.56404,40.15076],[15.56384,40.15102],[15.56375,40.15129],[15.56375,40.15141],[15.56381,40.15152],[15.56401,40.15176],[15.56402,40.1519],[15.56395,40.15215],[15.56401,40.15226],[15.56414,40.15236],[15.56454,40.15253],[15.56483,40.15291],[15.5649,40.15294],[15.56508,40.15295],[15.56548,40.15288],[15.56585,40.15295],[15.56608,40.15296],[15.56621,40.15301],[15.5663,40.15309],[15.56636,40.15335],[15.56644,40.15344],[15.56652,40.15349],[15.56682,40.15358],[15.56702,40.15359],[15.56745,40.1535],[15.56757,40.15354],[15.56761,40.15367],[15.56763,40.15424],[15.56767,40.15435],[15.56778,40.15445],[15.56812,40.15461],[15.56904,40.15518],[15.5691,40.15529],[15.56907,40.15536],[15.56896,40.15544],[15.56811,40.15564],[15.56785,40.15573],[15.56777,40.15581],[15.56771,40.15601],[15.56775,40.15618],[15.56813,40.15684],[15.56811,40.15693],[15.56806,40.15695],[15.56688,40.15686],[15.5667,40.15689],[15.56566,40.15719],[15.56552,40.15729],[15.56544,40.1575],[15.56534,40.15757],[15.56501,40.15762],[15.56377,40.1576],[15.56349,40.1577],[15.5633,40.15789],[15.56299,40.15828],[15.56281,40.15836],[15.56269,40.15833],[15.56231,40.15809],[15.56209,40.15809],[15.56176,40.1582],[15.56164,40.15828],[15.56155,40.15841],[15.56148,40.15881],[15.56137,40.15893],[15.56126,40.159],[15.56107,40.15903],[15.55896,40.15907],[15.55882,40.15904],[15.55862,40.15893],[15.55834,40.15858],[15.55819,40.15849],[15.5575,40.15843],[15.55732,40.15836],[15.55693,40.15805],[15.5563,40.15783],[15.55606,40.15765],[15.55595,40.1576],[15.55584,40.15762],[15.55578,40.15767],[15.55565,40.15809],[15.55569,40.15874],[15.55564,40.15896],[15.55547,40.15944],[15.55518,40.15981],[15.55516,40.16043],[15.55513,40.1606],[15.55502,40.16079],[15.5547,40.16113],[15.55451,40.16125],[15.55323,40.16188],[15.55306,40.16193],[15.55283,40.16195],[15.55243,40.16191],[15.55231,40.16195],[15.55201,40.16234],[15.55197,40.16247],[15.55204,40.16283],[15.55193,40.16334],[15.55155,40.16401],[15.55142,40.16413],[15.55124,40.16422],[15.55101,40.16425],[15.55025,40.16427],[15.54918,40.16418],[15.54879,40.16422],[15.54816,40.16442],[15.5474,40.16454],[15.54645,40.16503],[15.5462,40.16524],[15.54604,40.16544],[15.54595,40.1657],[15.54594,40.16594],[15.54604,40.16656],[15.54601,40.16676],[15.54578,40.16719],[15.54561,40.16736],[15.54555,40.1675],[15.54555,40.16762],[15.54561,40.16771],[15.54581,40.16784],[15.54584,40.16793],[15.54565,40.16882],[15.54558,40.1689],[15.5455,40.16895],[15.54536,40.16896],[15.54468,40.16871],[15.54453,40.16868],[15.54432,40.16873],[15.54416,40.16885],[15.54409,40.16904],[15.54403,40.16938],[15.5439,40.1695],[15.54341,40.16967],[15.54311,40.16984],[15.54294,40.17003],[15.54289,40.17015],[15.54288,40.17031],[15.54278,40.17038],[15.54335,40.17077],[15.54355,40.17109],[15.5435,40.17125],[15.54312,40.17153],[15.54291,40.17173],[15.54285,40.17183],[15.54283,40.17194],[15.54287,40.17207],[15.5432,40.1724],[15.54324,40.17255],[15.54234,40.17256],[15.54117,40.17365],[15.5409,40.1738],[15.53915,40.17422],[15.53813,40.17431],[15.53792,40.17441],[15.53775,40.17461],[15.53728,40.17545],[15.5368,40.17604],[15.53649,40.17667],[15.5362,40.17764],[15.53614,40.17773],[15.53604,40.17778],[15.53576,40.17775],[15.53563,40.1777],[15.5354,40.17754],[15.53501,40.17715],[15.53464,40.17685],[15.53443,40.17655],[15.53431,40.17645],[15.53416,40.17638],[15.53399,40.17635],[15.53377,40.17637],[15.53349,40.17647],[15.53259,40.17696],[15.53188,40.17715],[15.53156,40.17729]]},"properties":{}},{"type":"Feature","geometry":{"type":"LineString","coordinates":[[15.55508,40.42143],[15.55528,40.42154],[15.55528,40.42163],[15.55521,40.42179],[15.55508,40.42181],[15.5549,40.42178],[15.55508,40.42143]]},"properties":{}},{"type":"Feature","geometry":{"type":"LineString","coordinates":[[15.55508,40.42143],[15.55547,40.42072],[15.55614,40.41989]]},"properties":{}},{"type":"Feature","geometry":{"type":"LineString","coordinates":[[15.55614,40.41989],[15.55629,40.41968],[15.55644,40.41954],[15.55653,40.41933],[15.55668,40.41924],[15.55683,40.41925],[15.55716,40.41948],[15.55744,40.41957]]},"properties":{}},{"type":"Feature","geometry":{"type":"LineString","coordinates":[[15.55741,40.41965],[15.55709,40.4196],[15.55672,40.4196],[15.55638,40.41972],[15.55614,40.41989]]},"properties":{}},{"type":"Feature","geometry":{"type":"LineString","coordinates":[[15.5582,40.41975],[15.55741,40.41965]]},"properties":{}},{"type":"Feature","geometry":{"type":"LineString","coordinates":[[15.55894,40.42249],[15.55893,40.42216],[15.55905,40.42141],[15.55905,40.42098],[15.55898,40.42071],[15.55883,40.42042],[15.55863,40.42021],[15.55842,40.42004],[15.55791,40.41978],[15.55741,40.41965]]},"properties":{}},{"type":"Feature","geometry":{"type":"LineString","coordinates":[[15.55744,40.41957],[15.55829,40.41961],[15.55886,40.41951],[15.55933,40.41929],[15.55955,40.41914],[15.55969,40.41902],[15.55986,40.4188],[15.56018,40.41795],[15.56038,40.41758]]},"properties":{}},{"type":"Feature","geometry":{"type":"LineString","coordinates":[[15.55744,40.41957],[15.5582,40.41975]]},"properties":{}},{"type":"Feature","geometry":{"type":"LineString","coordinates":[[15.55955,40.42002],[15.5582,40.41975]]},"properties":{}},{"type":"Feature","geometry":{"type":"LineString","coordinates":[[15.55894,40.42249],[15.55917,40.42126],[15.55955,40.42002]]},"properties":{}},{"type":"Feature","geometry":{"type":"LineString","coordinates":[[15.55969,40.42005],[15.55941,40.42091]]},"properties":{}},{"type":"Feature","geometry":{"type":"LineString","coordinates":[[15.55975,40.42006],[15.55951,40.42077],[15.55941,40.42091]]},"properties":{}},{"type":"Feature","geometry":{"type":"LineString","coordinates":[[15.55969,40.42005],[15.55955,40.42002]]},"properties":{}},{"type":"Feature","geometry":{"type":"LineString","coordinates":[[15.55955,40.42002],[15.56038,40.41758]]},"properties":{}},{"type":"Feature","geometry":{"type":"LineString","coordinates":[[15.55975,40.42006],[15.55969,40.42005]]},"properties":{}},{"type":"Feature","geometry":{"type":"LineString","coordinates":[[15.5605,40.41763],[15.55969,40.42005]]},"properties":{}},{"type":"Feature","geometry":{"type":"LineString","coordinates":[[15.56083,40.41939],[15.56105,40.41957],[15.56111,40.41972],[15.56107,40.41992],[15.56089,40.4201],[15.56065,40.42018],[15.56046,40.42019],[15.55975,40.42006]]},"properties":{}},{"type":"Feature","geometry":{"type":"LineString","coordinates":[[15.56083,40.41939],[15.56046,40.41934],[15.56028,40.41938],[15.56009,40.41947],[15.55987,40.41972],[15.55975,40.42006]]},"properties":{}},{"type":"Feature","geometry":{"type":"LineString","coordinates":[[15.56038,40.41758],[15.56136,40.41468],[15.56187,40.41363],[15.56261,40.41239],[15.56303,40.41185],[15.56363,40.4111],[15.56419,40.41059],[15.56512,40.40989],[15.56588,40.40943],[15.57045,40.40711],[15.57157,40.40645],[15.57215,40.40607],[15.57616,40.4032],[15.57685,40.40265],[15.57763,40.40198],[15.57807,40.40154],[15.57887,40.40066],[15.57975,40.39952],[15.5846,40.39304],[15.5855,40.39188],[15.593,40.38263],[15.59786,40.37604],[15.59862,40.37495],[15.59914,40.3741],[15.59972,40.37297],[15.60066,40.37084],[15.6011,40.36997],[15.60165,40.36898],[15.6026,40.36757],[15.60374,40.36621],[15.60515,40.36481],[15.60852,40.36163],[15.6093,40.36079],[15.60991,40.36008],[15.62138,40.34495],[15.62181,40.34428],[15.62318,40.34182],[15.62355,40.34121],[15.62557,40.33822],[15.62617,40.33741],[15.62657,40.3369],[15.62732,40.33605],[15.63105,40.33234],[15.63162,40.33171],[15.6323,40.33087],[15.63337,40.3293],[15.63636,40.32462],[15.63708,40.3234],[15.63769,40.32212],[15.64366,40.30849],[15.64467,40.30601],[15.6465,40.30104],[15.64708,40.29937],[15.64729,40.29868],[15.64795,40.29574],[15.64904,40.29041],[15.64924,40.28981],[15.65718,40.26909],[15.65746,40.2683],[15.65763,40.2677],[15.65849,40.2636],[15.65926,40.25962],[15.66011,40.25369],[15.66015,40.25249],[15.65961,40.24134],[15.65963,40.24017],[15.65969,40.23974],[15.65984,40.2392],[15.66014,40.23842],[15.66083,40.23736],[15.66173,40.23637],[15.66475,40.23326],[15.66578,40.23214],[15.66645,40.23152],[15.66886,40.22899],[15.66925,40.22853],[15.6698,40.2278],[15.67012,40.22723],[15.67077,40.2258],[15.67138,40.22416],[15.67178,40.22262],[15.67183,40.22083],[15.6717,40.21908],[15.6717,40.21785],[15.67191,40.21632],[15.67227,40.21518],[15.67252,40.21455],[15.67281,40.21393],[15.67361,40.21255],[15.67425,40.21171],[15.67521,40.2108],[15.6861,40.20111],[15.68802,40.19944],[15.68874,40.19895],[15.69,40.19826],[15.69081,40.19793],[15.69146,40.1977],[15.6946,40.19674],[15.70096,40.19447],[15.70171,40.19409],[15.7026,40.19355],[15.70339,40.193],[15.70411,40.19242],[15.70513,40.19142],[15.70565,40.19067],[15.70783,40.18715],[15.70982,40.1847],[15.71433,40.17932],[15.71543,40.17796],[15.71649,40.17675],[15.71766,40.17529],[15.71848,40.1744],[15.71873,40.17417],[15.71965,40.17341],[15.72058,40.1728],[15.72347,40.17099],[15.72379,40.17075],[15.72412,40.17047],[15.7247,40.16989],[15.72732,40.16689],[15.72798,40.16623],[15.73112,40.16375],[15.73785,40.15857],[15.73902,40.15777],[15.73957,40.15745],[15.74635,40.15389],[15.74756,40.15321],[15.7482,40.15275],[15.7488,40.15219],[15.74921,40.15174],[15.74962,40.1512],[15.75106,40.1488],[15.75193,40.14749],[15.75856,40.1383],[15.75906,40.13758],[15.75948,40.13688]]},"properties":{}},{"type":"Feature","geometry":{"type":"LineString","coordinates":[[15.5605,40.41763],[15.56051,40.41777],[15.56033,40.41838],[15.56028,40.41866],[15.5603,40.41882],[15.56041,40.41906],[15.56056,40.41921],[15.56083,40.41939]]},"properties":{}},{"type":"Feature","geometry":{"type":"LineString","coordinates":[[15.75889,40.13827],[15.7581,40.13952],[15.75045,40.15031],[15.74977,40.15124],[15.74893,40.15225],[15.74832,40.15281],[15.74778,40.1532],[15.74715,40.15359],[15.73967,40.15753],[15.73912,40.15784],[15.73812,40.15854],[15.73495,40.16102],[15.73125,40.16385],[15.72994,40.16496],[15.7288,40.16583],[15.72785,40.16662],[15.72706,40.16738],[15.72477,40.16999],[15.72389,40.17083],[15.72356,40.17107],[15.72068,40.17287],[15.71964,40.17357],[15.71885,40.17425],[15.7181,40.17496],[15.71774,40.17537],[15.71664,40.17676],[15.70993,40.18476],[15.70876,40.18621],[15.70813,40.18715],[15.70677,40.18964],[15.70622,40.19054],[15.70547,40.19155],[15.70482,40.1922],[15.70404,40.19284],[15.70321,40.19343],[15.70152,40.19439],[15.70071,40.19471],[15.69157,40.19792],[15.6902,40.19847],[15.68957,40.19879],[15.68891,40.19919],[15.68821,40.19965],[15.68626,40.20135],[15.67581,40.2106],[15.67457,40.21188],[15.67395,40.21267],[15.67311,40.21404],[15.67254,40.2154],[15.67226,40.21627],[15.6721,40.21721],[15.67203,40.21781],[15.67202,40.21863],[15.67214,40.2208],[15.67214,40.22238],[15.67211,40.22287],[15.67204,40.22329],[15.67173,40.22422],[15.67112,40.22586],[15.67048,40.22726],[15.67006,40.22789],[15.66948,40.22864],[15.66907,40.2291],[15.66791,40.23026],[15.66663,40.23163],[15.66191,40.23648],[15.66099,40.2375],[15.66057,40.23806],[15.6603,40.23857],[15.66004,40.23921],[15.65982,40.23999],[15.65977,40.24037],[15.65973,40.24136],[15.6601,40.24833],[15.66042,40.25178],[15.66049,40.25294],[15.66047,40.25379],[15.6595,40.26024],[15.65903,40.26249],[15.65845,40.26451],[15.65793,40.26701],[15.65761,40.26828],[15.65734,40.26909],[15.64938,40.28984],[15.64905,40.291],[15.64796,40.29636],[15.64743,40.29869],[15.64694,40.3002],[15.64482,40.30603],[15.64379,40.30852],[15.63966,40.31798],[15.63782,40.32216],[15.63721,40.32343],[15.63648,40.32466],[15.63349,40.32933],[15.63263,40.33063],[15.63198,40.33147],[15.63144,40.3321],[15.6305,40.33308],[15.62743,40.33611],[15.62668,40.33696],[15.62632,40.33742],[15.62539,40.3387],[15.62398,40.34076],[15.62324,40.34196],[15.62204,40.34415],[15.62127,40.34534],[15.61005,40.3601],[15.60896,40.36135],[15.60861,40.36171],[15.60454,40.36556],[15.60384,40.36628],[15.60308,40.36715],[15.60271,40.36763],[15.6021,40.36852],[15.60122,40.37001],[15.59957,40.37357],[15.599,40.37459],[15.59836,40.37554],[15.59632,40.37835],[15.59313,40.38265],[15.5856,40.39195],[15.57937,40.40023],[15.57866,40.40109],[15.57817,40.40162],[15.57726,40.40248],[15.57624,40.40328],[15.57225,40.40614],[15.57166,40.40653],[15.57055,40.40719],[15.56595,40.40955],[15.56521,40.41],[15.56426,40.41072],[15.56377,40.41118],[15.5629,40.41222],[15.56199,40.41367],[15.56169,40.41424],[15.5615,40.41471],[15.5605,40.41763]]},"properties":{}},{"type":"Feature","geometry":{"type":"LineString","coordinates":[[15.58845,40.07997],[15.5885,40.08006],[15.58853,40.08025]]},"properties":{}},{"type":"Feature","geometry":{"type":"LineString","coordinates":[[15.58853,40.08025],[15.58838,40.08],[15.58845,40.07997]]},"properties":{}},{"type":"Feature","geometry":{"type":"LineString","coordinates":[[15.58941,40.07704],[15.58928,40.0796],[15.58899,40.07975],[15.58845,40.07997]]},"properties":{}},{"type":"Feature","geometry":{"type":"LineString","coordinates":[[15.58951,40.07665],[15.58941,40.07704]]},"properties":{}},{"type":"Feature","geometry":{"type":"LineString","coordinates":[[15.59238,40.07457],[15.59256,40.07493],[15.59236,40.07546],[15.59097,40.07673],[15.59027,40.07651],[15.58962,40.07667],[15.58951,40.07665]]},"properties":{}},{"type":"Feature","geometry":{"type":"LineString","coordinates":[[15.58951,40.07665],[15.58974,40.0759],[15.5896,40.07565],[15.59074,40.07515],[15.59238,40.07457]]},"properties":{}},{"type":"Feature","geometry":{"type":"LineString","coordinates":[[15.59238,40.07457],[15.59385,40.07406],[15.59388,40.07387],[15.59424,40.07371],[15.59436,40.0737],[15.59464,40.07375],[15.59491,40.07388],[15.59516,40.07394],[15.59552,40.07398],[15.59561,40.07403],[15.59587,40.07435],[15.59603,40.0749],[15.60041,40.07516],[15.60183,40.07513],[15.60252,40.07506],[15.60866,40.07345],[15.60931,40.07311],[15.61354,40.07109],[15.616,40.06956],[15.61659,40.06933],[15.61707,40.06924],[15.61757,40.06919],[15.61782,40.06921],[15.61815,40.06929],[15.61852,40.06951],[15.61862,40.06962],[15.61911,40.07038],[15.61948,40.07068],[15.61984,40.07086],[15.62069,40.07109],[15.62094,40.0712],[15.62109,40.07138],[15.62172,40.07238],[15.62179,40.07262],[15.62175,40.07285]]},"properties":{}},{"type":"Feature","geometry":{"type":"LineString","coordinates":[[15.62158,40.07364],[15.6215,40.07419],[15.62153,40.07439],[15.62164,40.07473],[15.62175,40.07492],[15.62208,40.07532],[15.62256,40.07575],[15.62313,40.07613],[15.62384,40.07639],[15.62449,40.07651],[15.62494,40.07654],[15.62684,40.07656]]},"properties":{}},{"type":"Feature","geometry":{"type":"LineString","coordinates":[[15.62718,40.07655],[15.62772,40.07658],[15.6278,40.07662],[15.62786,40.07672],[15.62786,40.07683],[15.62782,40.07688],[15.62771,40.0769],[15.62719,40.07657]]},"properties":{}},{"type":"Feature","geometry":{"type":"LineString","coordinates":[[15.62888,40.12741],[15.62894,40.12724],[15.62891,40.12715],[15.62834,40.12694],[15.62822,40.12685],[15.62794,40.12652],[15.62741,40.12654],[15.62721,40.12629],[15.62638,40.12596],[15.62621,40.1257],[15.62554,40.12557],[15.62553,40.12545],[15.62577,40.12518],[15.62577,40.12507],[15.62564,40.12499],[15.62526,40.12504],[15.62494,40.12504],[15.62471,40.12499],[15.62456,40.12476],[15.62457,40.12446],[15.62446,40.1242],[15.62411,40.12391],[15.62393,40.12381],[15.62307,40.12344],[15.62279,40.12334],[15.62192,40.12316],[15.62168,40.12304],[15.62158,40.12296],[15.62158,40.12286],[15.62164,40.12276],[15.62209,40.12239],[15.62223,40.12232],[15.62296,40.12223],[15.62352,40.12203],[15.62397,40.12199],[15.6241,40.12193],[15.62418,40.12184],[15.6242,40.12173],[15.62416,40.12148],[15.62421,40.12132],[15.6244,40.12116],[15.62516,40.12098],[15.62542,40.12086],[15.62551,40.12078],[15.62552,40.1207],[15.62547,40.12063],[15.62523,40.12052],[15.62502,40.12038],[15.62495,40.12028],[15.62494,40.12017],[15.62502,40.12003],[15.62516,40.11989],[15.62529,40.11986],[15.62542,40.11987],[15.62586,40.11998],[15.62646,40.12],[15.62667,40.11995],[15.62714,40.11974],[15.62721,40.11966],[15.62723,40.11959],[15.6272,40.11952],[15.62711,40.11944],[15.6266,40.11921],[15.62657,40.11913],[15.6266,40.11908],[15.62667,40.11904],[15.6268,40.11904],[15.62737,40.11913],[15.6276,40.11914],[15.62773,40.1191],[15.6278,40.11902],[15.62782,40.11894],[15.62768,40.11872],[15.6277,40.1186],[15.62781,40.11853],[15.62795,40.11849],[15.6285,40.11852],[15.62859,40.11847],[15.62879,40.11803],[15.62896,40.11783],[15.62914,40.11771],[15.62939,40.11766],[15.62963,40.11767],[15.62973,40.11764],[15.6298,40.11756],[15.62975,40.11746],[15.6295,40.11723],[15.62945,40.1171],[15.62951,40.11696],[15.62992,40.11674],[15.62994,40.11666],[15.62991,40.11656],[15.62978,40.11647],[15.62927,40.11625],[15.62908,40.11626],[15.62865,40.11653],[15.62844,40.1166],[15.62786,40.11657],[15.62715,40.11661],[15.62702,40.1166],[15.62695,40.11655],[15.62691,40.11648],[15.6269,40.11639],[15.62705,40.1159],[15.62728,40.11562],[15.62754,40.11547],[15.62766,40.11534],[15.62764,40.11524],[15.6275,40.11512],[15.62744,40.11499],[15.62745,40.11488],[15.6276,40.11455],[15.62763,40.11415],[15.62745,40.11297],[15.62734,40.11282],[15.62692,40.11251],[15.62673,40.11232],[15.62665,40.11204],[15.62673,40.11149],[15.62655,40.11108],[15.62654,40.11096],[15.6266,40.11084],[15.62673,40.11077],[15.62693,40.11075],[15.62709,40.11078],[15.62718,40.11086],[15.6273,40.11112],[15.62741,40.11151],[15.62762,40.11178],[15.62782,40.11198],[15.62806,40.11209],[15.62897,40.11221],[15.62913,40.1122],[15.62964,40.11204],[15.63008,40.11195],[15.63065,40.11189],[15.63093,40.11189],[15.63119,40.11196],[15.63133,40.11204],[15.63161,40.11225],[15.63185,40.11248],[15.63201,40.11255],[15.63219,40.11255],[15.63231,40.11246],[15.63243,40.1122],[15.63305,40.11179],[15.6332,40.11159],[15.63341,40.11114],[15.63354,40.11101],[15.63373,40.11086],[15.63398,40.11087],[15.6342,40.11096],[15.63473,40.11132],[15.63484,40.11138],[15.63507,40.11141],[15.63528,40.11134],[15.63589,40.11084],[15.6372,40.11048],[15.63726,40.11049],[15.63732,40.11059],[15.63731,40.1107],[15.63721,40.11087],[15.63717,40.11102],[15.63719,40.11113],[15.6374,40.11146],[15.63762,40.1118],[15.63816,40.11206],[15.63836,40.11219],[15.63846,40.11228],[15.63848,40.11243],[15.63845,40.11262],[15.6385,40.11281],[15.63862,40.11286],[15.6387,40.11285],[15.63879,40.11276],[15.63885,40.11259],[15.63907,40.11232],[15.63968,40.1112],[15.63988,40.11094],[15.64005,40.11079],[15.64027,40.11069],[15.64059,40.11062],[15.64179,40.11051],[15.64195,40.11047],[15.64205,40.11039],[15.64231,40.10985],[15.64245,40.10969],[15.64241,40.10953],[15.64219,40.10928],[15.64205,40.10898],[15.64152,40.10874],[15.64139,40.10866],[15.64127,40.10852],[15.64122,40.1083],[15.64123,40.10816],[15.64132,40.10802],[15.64157,40.10781],[15.64165,40.10766],[15.64162,40.1075],[15.64146,40.10743],[15.64113,40.10736],[15.64061,40.10706],[15.64049,40.10693],[15.64048,40.1068],[15.64051,40.10669],[15.64065,40.10661],[15.64104,40.10653],[15.6411,40.10648],[15.64112,40.10641],[15.64109,40.10634],[15.64089,40.10624],[15.64077,40.10613],[15.6406,40.10585],[15.64049,40.10559],[15.64045,40.1054],[15.64045,40.10514],[15.64049,40.10483],[15.64064,40.1043],[15.64061,40.10415],[15.63982,40.10367],[15.63906,40.10352],[15.63856,40.10336],[15.63818,40.10334],[15.63801,40.1033],[15.6379,40.10324],[15.63762,40.10293],[15.63742,40.10288],[15.63695,40.10287],[15.6367,40.10281],[15.63653,40.10272],[15.6364,40.10252],[15.63634,40.10225],[15.63625,40.1021],[15.63612,40.10198],[15.63549,40.10184],[15.63524,40.10169],[15.63512,40.10151],[15.63512,40.10138],[15.63526,40.10123],[15.63587,40.1009],[15.63604,40.10075],[15.6361,40.10062],[15.63607,40.10045],[15.63597,40.10032],[15.63571,40.10012],[15.63547,40.10003],[15.63455,40.09996],[15.63438,40.09992],[15.63405,40.09974],[15.63391,40.09973],[15.63378,40.09975],[15.63337,40.10005],[15.63319,40.10012],[15.63303,40.10013],[15.63287,40.10009],[15.63266,40.09994],[15.63255,40.0999],[15.63219,40.09989],[15.63208,40.09983],[15.63198,40.09971],[15.63196,40.0995],[15.63184,40.0994],[15.63168,40.09932],[15.63114,40.09917],[15.63094,40.09904],[15.63082,40.09884],[15.63074,40.09854],[15.63065,40.09837],[15.63048,40.09822],[15.63002,40.09795],[15.62985,40.09779],[15.62932,40.0971],[15.6292,40.09687],[15.62915,40.09668],[15.62914,40.09628],[15.62909,40.09618],[15.62874,40.09577],[15.62861,40.09569],[15.62842,40.09565],[15.62778,40.0956],[15.62735,40.09536],[15.62712,40.09527],[15.62666,40.09518],[15.62658,40.09513],[15.62657,40.09505],[15.6266,40.09497],[15.62697,40.09472],[15.62774,40.09401],[15.62786,40.09384],[15.62789,40.09367],[15.62766,40.09313],[15.62761,40.09274],[15.62756,40.09267],[15.62737,40.09264],[15.62688,40.09292],[15.62586,40.09325],[15.62539,40.09332],[15.62511,40.09331],[15.625,40.09328],[15.62456,40.09303],[15.62396,40.09281],[15.62312,40.09237],[15.6225,40.0922],[15.62211,40.09183],[15.62164,40.09173],[15.62123,40.09168],[15.62072,40.0917],[15.62051,40.09164],[15.62029,40.09149],[15.61994,40.09111],[15.61937,40.09066],[15.61904,40.09029],[15.61868,40.09007],[15.6183,40.0899],[15.61793,40.08983],[15.61705,40.08988],[15.61647,40.08976],[15.61566,40.0897],[15.61552,40.08965],[15.61514,40.08937],[15.61473,40.08927],[15.61411,40.08924],[15.61284,40.08934],[15.61268,40.08928],[15.61248,40.08884],[15.61234,40.08873],[15.61176,40.0886],[15.61138,40.0884],[15.60999,40.08785],[15.60979,40.0877],[15.60931,40.08718],[15.60903,40.08672],[15.60879,40.08654],[15.60857,40.08646],[15.60836,40.08632],[15.60826,40.08621],[15.60819,40.08594],[15.60833,40.0854],[15.60839,40.08497],[15.60835,40.08475],[15.60821,40.08453],[15.6082,40.08444],[15.60848,40.0838],[15.60867,40.08376],[15.60891,40.0839],[15.609,40.08407],[15.60905,40.08458],[15.60908,40.08469],[15.60927,40.08498],[15.60934,40.0852],[15.60943,40.08568],[15.60948,40.08576],[15.60956,40.08581],[15.61037,40.08608],[15.61053,40.08617],[15.61067,40.0862],[15.61084,40.08619],[15.61151,40.08598],[15.61177,40.08603],[15.6121,40.08621],[15.61254,40.08628],[15.61392,40.08611],[15.61466,40.08611],[15.61487,40.08601],[15.61504,40.08582],[15.61524,40.08569],[15.61577,40.08558],[15.61601,40.0856],[15.61627,40.08555],[15.61673,40.08521],[15.61714,40.08503],[15.61731,40.08504],[15.61748,40.08507],[15.61774,40.08518],[15.61816,40.08541],[15.61833,40.08559],[15.61832,40.08575],[15.61823,40.08608],[15.61781,40.08675],[15.61774,40.08691],[15.61775,40.0871],[15.6179,40.08727],[15.61811,40.08731],[15.61856,40.08722],[15.62021,40.08657],[15.62048,40.0865],[15.62107,40.08648],[15.62123,40.0865],[15.62152,40.08662],[15.6217,40.08679],[15.62184,40.08707],[15.62229,40.08745],[15.62252,40.08752],[15.62318,40.0874],[15.62349,40.08754],[15.62366,40.08755],[15.62375,40.08752],[15.62403,40.08727],[15.62408,40.0871],[15.62406,40.08691],[15.62409,40.08681],[15.62417,40.08674],[15.62452,40.08664],[15.62462,40.08651],[15.62466,40.08634],[15.62475,40.08621],[15.62489,40.08608],[15.62549,40.08582],[15.62555,40.08575],[15.62555,40.08566],[15.6254,40.08534],[15.62542,40.08493],[15.62538,40.0847],[15.62541,40.08464],[15.62549,40.08459],[15.6256,40.08456],[15.62576,40.08458],[15.62591,40.08464],[15.62632,40.08485],[15.62666,40.08497],[15.62715,40.08529],[15.62734,40.08529],[15.6274,40.08527],[15.62744,40.0852],[15.62742,40.08475],[15.62738,40.08468],[15.62666,40.08426],[15.62645,40.08407],[15.62593,40.08378],[15.6257,40.0836],[15.62544,40.08326],[15.62535,40.08295],[15.62537,40.08282],[15.62543,40.08275],[15.62556,40.08268],[15.62617,40.08247],[15.62674,40.08206],[15.62697,40.0818],[15.62715,40.08171],[15.6275,40.08165],[15.62753,40.08159],[15.62758,40.08123],[15.6278,40.08099],[15.62766,40.08082],[15.62741,40.08041],[15.6274,40.08027],[15.62747,40.08015],[15.62767,40.08004],[15.62806,40.07997],[15.62895,40.08002],[15.62925,40.07992],[15.62971,40.07966],[15.63008,40.07958],[15.63025,40.07962],[15.63035,40.07972],[15.63036,40.08031],[15.63039,40.08037],[15.6305,40.08042],[15.63084,40.08039],[15.63099,40.08034],[15.63107,40.08028],[15.63107,40.07957],[15.6311,40.07948],[15.63117,40.07942],[15.63132,40.07938],[15.63159,40.07938],[15.63172,40.07935],[15.63183,40.07926],[15.63206,40.07882],[15.63209,40.07863],[15.63206,40.07844],[15.63189,40.078],[15.63088,40.07633],[15.62835,40.0772],[15.62801,40.07724]]},"properties":{}},{"type":"Feature","geometry":{"type":"LineString","coordinates":[[15.71714,40.16959],[15.71716,40.16941],[15.7171,40.16922],[15.71699,40.16906],[15.71492,40.16731],[15.71461,40.16718],[15.7144,40.16717],[15.71295,40.16731],[15.71258,40.16728],[15.71241,40.16723],[15.7123,40.16715],[15.71195,40.16678],[15.71145,40.16668],[15.71117,40.16653],[15.71104,40.16637],[15.71095,40.16615],[15.71099,40.16585],[15.71115,40.16564],[15.71144,40.16539],[15.71153,40.16499],[15.7114,40.16451],[15.71137,40.16408],[15.71124,40.16391],[15.71083,40.16367],[15.70996,40.16291],[15.70977,40.16288],[15.70938,40.16306],[15.70919,40.16309],[15.70895,40.16304],[15.7087,40.1629],[15.70856,40.16278],[15.70845,40.16254],[15.70831,40.16238],[15.7078,40.16218],[15.70628,40.16198],[15.70542,40.16168],[15.70494,40.16165],[15.70461,40.16156],[15.70436,40.16144],[15.70402,40.16119],[15.70359,40.16059],[15.70324,40.16036],[15.70309,40.16019],[15.70278,40.15964],[15.7026,40.15902],[15.70212,40.15681],[15.70207,40.15637],[15.70172,40.15571],[15.70172,40.15547],[15.70204,40.15512],[15.70217,40.15484],[15.70224,40.15405],[15.70218,40.15378],[15.702,40.1535],[15.70169,40.15318],[15.70163,40.15304],[15.70165,40.15297],[15.70171,40.1529],[15.70224,40.15258],[15.70257,40.15221],[15.70271,40.15211],[15.70331,40.15188],[15.70353,40.15174],[15.70362,40.15162],[15.7039,40.15105],[15.70399,40.15096],[15.70412,40.15087],[15.70541,40.15035],[15.70565,40.1502],[15.70784,40.14763],[15.7083,40.14717],[15.70962,40.14597],[15.71011,40.14559],[15.71213,40.14436],[15.71243,40.14426],[15.71266,40.14424],[15.71287,40.14427],[15.71364,40.14461],[15.71384,40.14459],[15.71436,40.14427],[15.71454,40.14419],[15.71479,40.14415],[15.71585,40.14428],[15.71671,40.1443],[15.71772,40.14423],[15.71843,40.14407],[15.71857,40.14411],[15.71915,40.14457],[15.7195,40.14465],[15.71983,40.14469],[15.72003,40.14467],[15.72066,40.14429],[15.72093,40.14421],[15.72195,40.14418],[15.72218,40.14413],[15.7231,40.14359],[15.72336,40.14348],[15.72354,40.14346],[15.72462,40.1437],[15.72477,40.14381],[15.72505,40.14411],[15.72518,40.14417],[15.72538,40.14417],[15.72548,40.14415],[15.72558,40.14408],[15.7257,40.14342],[15.72586,40.14317],[15.72602,40.1428],[15.726,40.14221],[15.72609,40.14207],[15.72625,40.14198],[15.72663,40.14196],[15.72712,40.14208],[15.72755,40.14207],[15.72933,40.14181],[15.73009,40.142],[15.73099,40.1421],[15.73148,40.14189],[15.73202,40.14197],[15.73214,40.14196],[15.73223,40.1419],[15.73254,40.14146],[15.73263,40.14141],[15.73277,40.14142],[15.73306,40.14161],[15.7332,40.14163],[15.73329,40.14158],[15.73352,40.14138],[15.73363,40.14135],[15.7338,40.14138],[15.73402,40.14151],[15.73421,40.14176],[15.73443,40.14216],[15.73459,40.14217],[15.73485,40.14202]]},"properties":{}},{"type":"Feature","geometry":{"type":"LineString","coordinates":[[15.73487,40.14194],[15.73536,40.14034],[15.73601,40.13804],[15.73632,40.13725],[15.7365,40.13616],[15.73657,40.13597],[15.7371,40.13507],[15.73722,40.13476],[15.73731,40.13432],[15.73732,40.13354],[15.7374,40.13282],[15.73754,40.13246],[15.73783,40.13198],[15.73813,40.13162],[15.73845,40.13136],[15.73967,40.13066],[15.74009,40.13034],[15.74027,40.13011],[15.74073,40.12933],[15.741,40.12897],[15.74138,40.12867],[15.7421,40.12827],[15.74247,40.12795],[15.74261,40.12775],[15.74287,40.12718],[15.74302,40.12693],[15.74331,40.12658],[15.74358,40.12631],[15.74407,40.12601],[15.74489,40.12573],[15.74536,40.12554],[15.74566,40.12536],[15.74591,40.12512],[15.74628,40.12463],[15.74652,40.12437],[15.74751,40.1236],[15.74814,40.12276],[15.74866,40.12238],[15.74984,40.12172],[15.75024,40.12137],[15.75041,40.12143],[15.75046,40.1215],[15.75048,40.12182],[15.75058,40.12231],[15.75089,40.12294],[15.75225,40.12489],[15.75237,40.12499],[15.75248,40.12503],[15.7527,40.12501],[15.7536,40.12467],[15.75403,40.12455],[15.75489,40.12439],[15.75659,40.12416],[15.75867,40.12368],[15.76038,40.1236],[15.76129,40.12353],[15.76284,40.12333],[15.76319,40.12332],[15.76358,40.12333],[15.76437,40.12351]]},"properties":{}},{"type":"Feature","geometry":{"type":"LineString","coordinates":[[15.76055,40.13502],[15.75971,40.13677],[15.75889,40.13827]]},"properties":{}},{"type":"Feature","geometry":{"type":"LineString","coordinates":[[15.76202,40.13463],[15.76197,40.13483],[15.76192,40.13492],[15.7618,40.13503],[15.7611,40.13534],[15.76028,40.13594],[15.76017,40.13606],[15.75916,40.13793],[15.75889,40.13827]]},"properties":{}},{"type":"Feature","geometry":{"type":"LineString","coordinates":[[15.75948,40.13688],[15.75959,40.13658],[15.76036,40.13497]]},"properties":{}},{"type":"Feature","geometry":{"type":"LineString","coordinates":[[15.75948,40.13688],[15.76009,40.13573],[15.76042,40.13498]]},"properties":{}},{"type":"Feature","geometry":{"type":"LineString","coordinates":[[15.76036,40.13497],[15.76052,40.13461],[15.76055,40.13444],[15.76051,40.13412],[15.76042,40.13398],[15.76027,40.13388],[15.75999,40.13379]]},"properties":{}},{"type":"Feature","geometry":{"type":"LineString","coordinates":[[15.75999,40.13379],[15.75976,40.13383],[15.75959,40.13391],[15.75946,40.13406],[15.75942,40.13421],[15.75943,40.13436],[15.75949,40.13451],[15.75975,40.13476],[15.75995,40.13486],[15.76036,40.13497]]},"properties":{}},{"type":"Feature","geometry":{"type":"LineString","coordinates":[[15.75999,40.13379],[15.76034,40.13377],[15.76057,40.13372],[15.76078,40.13363],[15.76097,40.13349],[15.7611,40.13333],[15.76138,40.13278],[15.76159,40.13252]]},"properties":{}},{"type":"Feature","geometry":{"type":"LineString","coordinates":[[15.76036,40.13497],[15.76042,40.13498]]},"properties":{}},{"type":"Feature","geometry":{"type":"LineString","coordinates":[[15.76042,40.13498],[15.76055,40.13502]]},"properties":{}},{"type":"Feature","geometry":{"type":"LineString","coordinates":[[15.76042,40.13498],[15.76159,40.13252]]},"properties":{}},{"type":"Feature","geometry":{"type":"LineString","coordinates":[[15.76055,40.13502],[15.76092,40.1351],[15.76125,40.1351],[15.76141,40.13507],[15.76166,40.13497],[15.76188,40.13481],[15.76202,40.13463]]},"properties":{}},{"type":"Feature","geometry":{"type":"LineString","coordinates":[[15.76171,40.13257],[15.76055,40.13502]]},"properties":{}},{"type":"Feature","geometry":{"type":"LineString","coordinates":[[15.76159,40.13252],[15.76194,40.13205],[15.76228,40.13171],[15.76279,40.13133],[15.76359,40.13088],[15.76424,40.13062],[15.76467,40.13049],[15.76933,40.12947],[15.77274,40.12884],[15.77309,40.12872],[15.7737,40.12847],[15.77418,40.1282],[15.78088,40.12394],[15.78217,40.12304],[15.7825,40.12276],[15.78291,40.12235],[15.7833,40.12187],[15.78376,40.12111],[15.78392,40.12071],[15.78414,40.11996],[15.78461,40.1175],[15.78492,40.11632],[15.78527,40.1155],[15.78544,40.11517],[15.78571,40.11474],[15.78627,40.11403],[15.78723,40.11305],[15.78757,40.11279],[15.78939,40.1117],[15.79106,40.11077],[15.79204,40.11011],[15.79263,40.10963],[15.79308,40.10919],[15.79351,40.1087],[15.79397,40.10805],[15.79434,40.1074],[15.79525,40.1056],[15.79572,40.10481],[15.79637,40.10398],[15.79686,40.10344],[15.79787,40.10257],[15.79858,40.10207],[15.79933,40.10162],[15.80024,40.10117],[15.8031,40.09993],[15.81539,40.09475],[15.82077,40.09312],[15.82147,40.09293],[15.82233,40.09279],[15.82289,40.09275],[15.82342,40.09276],[15.82459,40.09294],[15.82717,40.09357],[15.82827,40.09373],[15.82901,40.09376],[15.82978,40.09373],[15.83063,40.09362],[15.83157,40.09342],[15.83242,40.09311],[15.83278,40.09295],[15.83369,40.09242],[15.83654,40.09031],[15.83826,40.08911],[15.84002,40.0881],[15.84159,40.08738],[15.84931,40.08421],[15.85035,40.08372],[15.85145,40.08312],[15.85339,40.08186],[15.85385,40.08149],[15.85455,40.08085],[15.85489,40.08042],[15.85526,40.07983],[15.85593,40.07834],[15.85654,40.07719],[15.8569,40.07672],[15.85727,40.07632],[15.85784,40.07581],[15.8583,40.0755],[15.8595,40.07486],[15.8643,40.07265],[15.86511,40.07225],[15.86636,40.07153],[15.8671,40.07099],[15.86789,40.07024],[15.86829,40.06978],[15.86866,40.06923],[15.86908,40.06833],[15.86926,40.06784],[15.86943,40.06688],[15.86943,40.06638],[15.86939,40.06565],[15.86921,40.06482],[15.86873,40.06304],[15.86687,40.05683],[15.86595,40.05336],[15.86581,40.05231],[15.86581,40.05143],[15.86588,40.05009],[15.86613,40.04872],[15.86633,40.04795],[15.86665,40.04707],[15.86701,40.04628],[15.86755,40.04527],[15.86799,40.0446],[15.86876,40.04353],[15.87001,40.04206],[15.87071,40.04117],[15.87102,40.04069],[15.87135,40.04024],[15.87182,40.03939],[15.87321,40.03656],[15.87399,40.03474],[15.8741,40.03439],[15.87426,40.03357],[15.87438,40.03255],[15.87447,40.03133],[15.87461,40.03061],[15.87485,40.02976],[15.87525,40.02892],[15.87683,40.02639],[15.87755,40.02517],[15.87815,40.02426],[15.87866,40.02333],[15.87926,40.02242],[15.87984,40.02184],[15.88046,40.0213],[15.88085,40.02105],[15.88152,40.02068],[15.88331,40.01988],[15.88761,40.01815]]},"properties":{}},{"type":"Feature","geometry":{"type":"LineString","coordinates":[[15.76171,40.13257],[15.76164,40.13283],[15.76092,40.13436],[15.7609,40.13449],[15.76102,40.13469],[15.76126,40.13478],[15.76139,40.13479],[15.76189,40.13466],[15.76201,40.13457],[15.76211,40.13442]]},"properties":{}},{"type":"Feature","geometry":{"type":"LineString","coordinates":[[15.8859,40.01894],[15.88402,40.0197],[15.88206,40.02054],[15.88122,40.02098],[15.88083,40.02122],[15.88,40.02192],[15.87952,40.02247],[15.87915,40.02303],[15.87715,40.0263],[15.87601,40.0281],[15.87549,40.02901],[15.87511,40.02982],[15.87488,40.03065],[15.87474,40.03139],[15.87434,40.03416],[15.87418,40.03478],[15.8736,40.03622],[15.87237,40.03901],[15.87184,40.04005],[15.87119,40.04105],[15.87049,40.042],[15.86856,40.04442],[15.86743,40.04626],[15.86706,40.04704],[15.8667,40.048],[15.86636,40.04938],[15.86627,40.05003],[15.86619,40.05121],[15.86627,40.05238],[15.86644,40.05341],[15.86674,40.05465],[15.86793,40.05831],[15.86965,40.06399],[15.86991,40.06523],[15.86997,40.06589],[15.86991,40.06683],[15.86982,40.06727],[15.86954,40.06826],[15.86936,40.06866],[15.86915,40.06907],[15.86865,40.06974],[15.8682,40.07026],[15.8677,40.07076],[15.8667,40.07151],[15.8656,40.07216],[15.85956,40.07496],[15.85839,40.07559],[15.85791,40.07592],[15.85758,40.0762],[15.85705,40.07677],[15.85658,40.07743],[15.85618,40.07821],[15.85542,40.0799],[15.85517,40.08031],[15.8549,40.08068],[15.85422,40.08138],[15.85346,40.08201],[15.85217,40.08286],[15.85048,40.08384],[15.84994,40.08411],[15.84165,40.08751],[15.84042,40.08808],[15.83929,40.08869],[15.83837,40.08923],[15.83664,40.0904],[15.83448,40.09204],[15.83379,40.09252],[15.83309,40.09294],[15.83252,40.09322],[15.83165,40.09355],[15.83064,40.0938],[15.82997,40.09389],[15.82902,40.09396],[15.82827,40.09395],[15.82786,40.09391],[15.82706,40.0938],[15.82409,40.09324],[15.82301,40.0932],[15.82194,40.09319],[15.82149,40.09323],[15.82086,40.09333],[15.81953,40.09363],[15.81626,40.09459],[15.81543,40.09486],[15.81451,40.09522],[15.81219,40.09626],[15.80989,40.09739],[15.8029,40.10041],[15.80042,40.10143],[15.79947,40.10185],[15.7988,40.10221],[15.79802,40.10269],[15.79729,40.10326],[15.79671,40.1038],[15.79619,40.10439],[15.79568,40.10511],[15.79534,40.10572],[15.7944,40.10773],[15.79391,40.10859],[15.79357,40.10906],[15.79294,40.10981],[15.79218,40.11044],[15.79147,40.11094],[15.78769,40.11314],[15.78736,40.1134],[15.78628,40.11448],[15.78583,40.11505],[15.78547,40.11561],[15.78526,40.11602],[15.78498,40.11671],[15.78476,40.11753],[15.78429,40.11999],[15.78407,40.12074],[15.78393,40.12112],[15.78376,40.12148],[15.78346,40.12196],[15.78304,40.12249],[15.78234,40.12316],[15.78102,40.12407],[15.77474,40.12811],[15.77379,40.12863],[15.77316,40.12887],[15.77224,40.12912],[15.77026,40.12939],[15.76938,40.12956],[15.76531,40.13045],[15.76427,40.13072],[15.76365,40.13096],[15.76305,40.13128],[15.76281,40.13144],[15.76234,40.13182],[15.76204,40.13213],[15.76171,40.13257]]},"properties":{}},{"type":"Feature","geometry":{"type":"LineString","coordinates":[[15.76202,40.13463],[15.76211,40.13442]]},"properties":{}},{"type":"Feature","geometry":{"type":"LineString","coordinates":[[15.76211,40.13442],[15.76231,40.13386]]},"properties":{}},{"type":"Feature","geometry":{"type":"LineString","coordinates":[[15.76231,40.13386],[15.76239,40.13355],[15.76267,40.13343],[15.76311,40.13361]]},"properties":{}},{"type":"Feature","geometry":{"type":"LineString","coordinates":[[15.76311,40.13361],[15.7628,40.1336],[15.76264,40.13363],[15.76231,40.13386]]},"properties":{}},{"type":"Feature","geometry":{"type":"LineString","coordinates":[[15.76311,40.13361],[15.7634,40.1337]]},"properties":{}},{"type":"Feature","geometry":{"type":"LineString","coordinates":[[15.7634,40.1337],[15.76404,40.1338],[15.76404,40.1336],[15.76391,40.13339],[15.7634,40.1337]]},"properties":{}},{"type":"Feature","geometry":{"type":"LineString","coordinates":[[15.88765,40.01824],[15.8859,40.01894]]},"properties":{}},{"type":"Feature","geometry":{"type":"LineString","coordinates":[[15.88802,40.01989],[15.88799,40.01938],[15.88789,40.01919],[15.88773,40.019],[15.88752,40.01885],[15.88712,40.01874],[15.88681,40.01871],[15.88659,40.01874],[15.8859,40.01894]]},"properties":{}},{"type":"Feature","geometry":{"type":"LineString","coordinates":[[15.88601,40.02011],[15.88656,40.0202],[15.88669,40.02012],[15.88678,40.02001],[15.88679,40.01989],[15.88675,40.01979],[15.88669,40.01973],[15.88658,40.01966],[15.88653,40.01967],[15.88601,40.02011]]},"properties":{}},{"type":"Feature","geometry":{"type":"LineString","coordinates":[[15.8871,40.02059],[15.88585,40.02021],[15.88601,40.02011]]},"properties":{}},{"type":"Feature","geometry":{"type":"LineString","coordinates":[[15.8871,40.02059],[15.88755,40.02061],[15.88779,40.02047]]},"properties":{}},{"type":"Feature","geometry":{"type":"LineString","coordinates":[[15.88779,40.02047],[15.88777,40.02069],[15.88764,40.02078],[15.8871,40.02059]]},"properties":{}},{"type":"Feature","geometry":{"type":"LineString","coordinates":[[15.88761,40.01815],[15.88765,40.01824]]},"properties":{}},{"type":"Feature","geometry":{"type":"LineString","coordinates":[[15.88904,40.01698],[15.88892,40.01685],[15.88859,40.01674],[15.8883,40.01677],[15.88793,40.01698],[15.88775,40.01715],[15.8876,40.01745],[15.88755,40.01788],[15.88761,40.01815]]},"properties":{}},{"type":"Feature","geometry":{"type":"LineString","coordinates":[[15.88761,40.01815],[15.88787,40.01804]]},"properties":{}},{"type":"Feature","geometry":{"type":"LineString","coordinates":[[15.88765,40.01824],[15.88791,40.01862],[15.88807,40.01897],[15.88814,40.01938],[15.88809,40.01967],[15.88802,40.01989]]},"properties":{}},{"type":"Feature","geometry":{"type":"LineString","coordinates":[[15.89071,40.01732],[15.88978,40.01761],[15.88858,40.01791],[15.88765,40.01824]]},"properties":{}},{"type":"Feature","geometry":{"type":"LineString","coordinates":[[15.88802,40.01989],[15.88779,40.02047]]},"properties":{}},{"type":"Feature","geometry":{"type":"LineString","coordinates":[[15.88787,40.01804],[15.88881,40.01766],[15.889,40.01754],[15.88911,40.01743],[15.88916,40.01727],[15.88914,40.01713],[15.88904,40.01698]]},"properties":{}},{"type":"Feature","geometry":{"type":"LineString","coordinates":[[15.88787,40.01804],[15.88855,40.01782],[15.89044,40.0173]]},"properties":{}},{"type":"Feature","geometry":{"type":"LineString","coordinates":[[15.89071,40.01732],[15.88943,40.01786],[15.88918,40.018],[15.88892,40.01821],[15.88869,40.01853],[15.88817,40.01968],[15.88802,40.01989]]},"properties":{}},{"type":"Feature","geometry":{"type":"LineString","coordinates":[[15.88904,40.01698],[15.88936,40.01726],[15.88958,40.01736],[15.88982,40.01738],[15.89044,40.0173]]},"properties":{}},{"type":"Feature","geometry":{"type":"LineString","coordinates":[[15.89044,40.0173],[15.89111,40.01707],[15.89224,40.01657],[15.89725,40.01388],[15.89825,40.01331],[15.89898,40.01284],[15.90011,40.01198],[15.90068,40.01148],[15.90135,40.01078],[15.90193,40.01026],[15.90311,40.00925],[15.90364,40.00886],[15.9043,40.00841],[15.90499,40.008],[15.90826,40.00625],[15.90951,40.00548],[15.91429,40.00171],[15.91708,40.0]]},"properties":{}},{"type":"Feature","geometry":{"type":"LineString","coordinates":[[15.91747,40.0],[15.91465,40.00172],[15.91353,40.00244],[15.91041,40.00494],[15.90912,40.00589],[15.90465,40.00855],[15.90375,40.00918],[15.90325,40.00956],[15.90025,40.0121],[15.8991,40.01294],[15.89834,40.0134],[15.89732,40.01397],[15.89221,40.01671],[15.89145,40.01705],[15.89071,40.01732]]},"properties":{}}]}