{"type":"FeatureCollection","features":[{"type":"Feature","geometry":{"type":"LineString","coordinates":[[16.0,39.87773],[16.00493,39.87861],[16.0058,39.87879],[16.00664,39.87902],[16.00799,39.87958],[16.00875,39.88002],[16.00961,39.88067],[16.01134,39.88224],[16.01186,39.88267],[16.01239,39.88302],[16.01305,39.88338],[16.0138,39.8837],[16.01466,39.884],[16.01536,39.88416],[16.01872,39.88475],[16.02014,39.88504],[16.02291,39.88581],[16.02492,39.88642],[16.02548,39.88664],[16.0278,39.88769],[16.02839,39.88791],[16.0294,39.88822],[16.03004,39.88838],[16.03072,39.8885],[16.03192,39.88864],[16.04078,39.88929],[16.04147,39.88931],[16.04265,39.88927],[16.04348,39.88922],[16.04439,39.8891],[16.04532,39.8889],[16.04624,39.88865],[16.04792,39.88804],[16.0492,39.88739],[16.05043,39.88659],[16.05097,39.88618],[16.05196,39.88535],[16.05715,39.88085],[16.05821,39.87996],[16.05929,39.87914],[16.06006,39.87868],[16.06101,39.87823],[16.06194,39.87789],[16.06258,39.87769],[16.06454,39.87716],[16.06585,39.87673],[16.06744,39.87602],[16.06799,39.87571],[16.06914,39.87496],[16.07153,39.87327],[16.07268,39.87255],[16.07588,39.87067],[16.07702,39.86985],[16.07781,39.86914],[16.07836,39.86851],[16.07937,39.86726],[16.07998,39.86657],[16.08074,39.8658],[16.0816,39.86519],[16.08241,39.86469],[16.08403,39.86402],[16.08504,39.86378],[16.0861,39.86361],[16.08694,39.86354],[16.08775,39.86354],[16.08877,39.86359],[16.08952,39.86369],[16.09083,39.86402],[16.09214,39.86449],[16.09681,39.86641],[16.09835,39.86697],[16.09935,39.86722],[16.10015,39.86735],[16.10154,39.8675],[16.10661,39.86773],[16.11242,39.86834],[16.11724,39.86918],[16.11894,39.86963],[16.12013,39.8701],[16.12172,39.87097],[16.12224,39.87133],[16.12267,39.87169],[16.12339,39.87238],[16.124,39.87308],[16.12934,39.87976],[16.12985,39.88033],[16.13058,39.88097],[16.13366,39.88342],[16.13607,39.8854],[16.1384,39.88721],[16.13936,39.88781],[16.14109,39.8887],[16.14152,39.88886],[16.14203,39.88901],[16.14363,39.88936],[16.14519,39.88955],[16.14638,39.88957],[16.14757,39.88952],[16.14827,39.88943],[16.14955,39.8892],[16.15043,39.88898],[16.15229,39.88839],[16.15275,39.8882],[16.15323,39.88799],[16.15396,39.88761],[16.1557,39.88664],[16.15766,39.88553],[16.15867,39.88478],[16.16028,39.88315],[16.16638,39.87657]]},"properties":{}},{"type":"Feature","geometry":{"type":"LineString","coordinates":[[16.16808,39.87517],[16.16748,39.87571],[16.15926,39.88453],[16.15881,39.88493],[16.15802,39.88552],[16.15729,39.88597],[16.1541,39.88777],[16.15336,39.88815],[16.15245,39.88853],[16.15047,39.88918],[16.1493,39.88947],[16.14833,39.88964],[16.14697,39.88981],[16.14567,39.88986],[16.14472,39.88983],[16.14343,39.88972],[16.14264,39.88961],[16.14115,39.88929],[16.14053,39.8891],[16.13918,39.88853],[16.13776,39.88788],[16.13674,39.88721],[16.13599,39.88662],[16.13529,39.88597],[16.13391,39.8845],[16.13261,39.88305],[16.13181,39.88224],[16.12976,39.88047],[16.1293,39.88],[16.12691,39.87703],[16.12439,39.87401],[16.12302,39.87243],[16.12255,39.87197],[16.12204,39.87155],[16.12137,39.87107],[16.12083,39.87073],[16.11969,39.87013],[16.11868,39.86976],[16.11792,39.86954],[16.11469,39.86888],[16.11261,39.86851],[16.11122,39.86833],[16.10718,39.86789],[16.10658,39.86784],[16.10076,39.8676],[16.09903,39.86744],[16.09788,39.86725],[16.09727,39.86711],[16.09623,39.86679],[16.09498,39.86629],[16.09291,39.86539],[16.0907,39.86453],[16.08965,39.86427],[16.08894,39.86413],[16.08828,39.86407],[16.08747,39.86402],[16.08612,39.8641],[16.08521,39.86422],[16.0835,39.86471],[16.08293,39.86493],[16.0818,39.86548],[16.08097,39.86602],[16.08022,39.86669],[16.07938,39.86757],[16.0785,39.86858],[16.07736,39.86972],[16.07655,39.87035],[16.07598,39.87076],[16.07221,39.87297],[16.07039,39.8742],[16.06923,39.87505],[16.06752,39.87611],[16.06684,39.87644],[16.06591,39.87684],[16.06528,39.87706],[16.06262,39.87782],[16.06143,39.87822],[16.06044,39.87866],[16.0598,39.879],[16.05933,39.87928],[16.05831,39.88003],[16.05726,39.88092],[16.0517,39.88587],[16.05046,39.88688],[16.04954,39.88746],[16.0484,39.88807],[16.04743,39.88846],[16.04643,39.88882],[16.04541,39.88907],[16.0444,39.88927],[16.0436,39.88937],[16.04215,39.88947],[16.0414,39.88948],[16.04038,39.88945],[16.03187,39.88882],[16.03067,39.88868],[16.02997,39.88856],[16.02937,39.88841],[16.02833,39.88808],[16.02774,39.88785],[16.0254,39.88674],[16.02422,39.8863],[16.0201,39.88515],[16.0195,39.88502],[16.01531,39.88426],[16.01441,39.88405],[16.01372,39.88381],[16.0129,39.88346],[16.01234,39.88313],[16.01169,39.88271],[16.00952,39.88077],[16.00866,39.88013],[16.0079,39.87971],[16.00715,39.87937],[16.00656,39.87916],[16.00613,39.87903],[16.00495,39.87876],[16.0,39.87784]]},"properties":{}},{"type":"Feature","geometry":{"type":"LineString","coordinates":[[16.16523,39.87494],[16.16352,39.87578],[16.16265,39.87617],[16.16206,39.87634],[16.1617,39.8764],[16.16093,39.8764],[16.1602,39.87624],[16.15971,39.87603],[16.1593,39.87577],[16.15883,39.87529],[16.1586,39.8749],[16.15853,39.87469],[16.15842,39.87427],[16.15838,39.87398],[16.15823,39.87194],[16.15799,39.86959],[16.1576,39.86495],[16.15754,39.86432],[16.15744,39.86381],[16.15727,39.86339],[16.15698,39.86287],[16.15254,39.85717],[16.14979,39.85221],[16.14862,39.85],[16.14854,39.84975],[16.14844,39.84928],[16.14839,39.84884],[16.14852,39.84786],[16.1487,39.84733],[16.14947,39.84573],[16.14972,39.84488],[16.14975,39.84448],[16.14975,39.84397],[16.1497,39.84351],[16.1491,39.84112],[16.14908,39.84087],[16.14919,39.84062],[16.14927,39.84051],[16.1494,39.84041],[16.14968,39.84028],[16.15064,39.83995],[16.15091,39.83978],[16.15111,39.83958],[16.15119,39.8394],[16.15121,39.83902],[16.15106,39.83866]]},"properties":{}},{"type":"Feature","geometry":{"type":"LineString","coordinates":[[16.15106,39.83866],[16.15086,39.83844],[16.15072,39.83836],[16.15067,39.83823],[16.15069,39.83815],[16.15118,39.83792]]},"properties":{}},{"type":"Feature","geometry":{"type":"LineString","coordinates":[[16.15118,39.83792],[16.15102,39.83802],[16.15089,39.83825],[16.15092,39.83841],[16.15106,39.83866]]},"properties":{}},{"type":"Feature","geometry":{"type":"LineString","coordinates":[[16.15118,39.83792],[16.15181,39.83761],[16.1533,39.83661],[16.15534,39.83563],[16.15658,39.83529],[16.15795,39.83477],[16.15851,39.83451],[16.15869,39.8344],[16.15875,39.83429],[16.15898,39.8336],[16.15907,39.83345],[16.15917,39.83336],[16.15981,39.83295],[16.1605,39.83232],[16.161,39.83197],[16.16124,39.83169],[16.16134,39.83153],[16.16161,39.83069],[16.16203,39.83033],[16.16221,39.83022],[16.16239,39.83019],[16.16402,39.83047],[16.16568,39.83095],[16.16602,39.83109],[16.16681,39.8315],[16.16704,39.83157],[16.16794,39.83168],[16.16817,39.83175],[16.16892,39.8321],[16.17053,39.83246],[16.17073,39.83247],[16.17142,39.83232],[16.17244,39.83223],[16.17287,39.83225],[16.1735,39.83235],[16.17398,39.83249],[16.17466,39.83282],[16.175,39.83295],[16.17628,39.83331],[16.17813,39.83395],[16.17853,39.834],[16.17875,39.83398],[16.179,39.83393],[16.17993,39.83363],[16.1802,39.8336],[16.18042,39.8336],[16.18051,39.83363],[16.18071,39.83385],[16.18095,39.83396],[16.18124,39.83397],[16.18141,39.83396],[16.18159,39.83389],[16.18274,39.83329],[16.1834,39.83277],[16.18674,39.83068],[16.18717,39.83035],[16.19354,39.82324],[16.19492,39.82151],[16.19885,39.81643]]},"properties":{}},{"type":"Feature","geometry":{"type":"LineString","coordinates":[[16.16835,39.87472],[16.16808,39.8745],[16.16785,39.87438],[16.16745,39.87425],[16.16688,39.87424],[16.16635,39.87437],[16.16523,39.87494]]},"properties":{}},{"type":"Feature","geometry":{"type":"LineString","coordinates":[[16.16638,39.87657],[16.16646,39.87642],[16.1672,39.87564],[16.16738,39.87541],[16.16738,39.87517],[16.16731,39.875],[16.16717,39.87486],[16.167,39.87477],[16.16652,39.87473],[16.16567,39.87483],[16.16523,39.87494]]},"properties":{}},{"type":"Feature","geometry":{"type":"LineString","coordinates":[[16.16638,39.87657],[16.16729,39.87563],[16.16835,39.87472]]},"properties":{}},{"type":"Feature","geometry":{"type":"LineString","coordinates":[[16.16849,39.87483],[16.16808,39.87517]]},"properties":{}},{"type":"Feature","geometry":{"type":"LineString","coordinates":[[16.16852,39.87486],[16.16808,39.87517]]},"properties":{}},{"type":"Feature","geometry":{"type":"LineString","coordinates":[[16.16849,39.87483],[16.16835,39.87472]]},"properties":{}},{"type":"Feature","geometry":{"type":"LineString","coordinates":[[16.16835,39.87472],[16.17033,39.87338],[16.1768,39.8692],[16.18021,39.86693],[16.18325,39.86497],[16.18429,39.86439],[16.18933,39.86202],[16.19083,39.86129],[16.19156,39.86091],[16.19252,39.86032],[16.19559,39.85821],[16.20396,39.85255],[16.20514,39.85192],[16.20965,39.84984],[16.21123,39.84936],[16.21289,39.84906],[16.21903,39.84818],[16.22157,39.84784],[16.22345,39.84772],[16.23117,39.84736],[16.2328,39.84712],[16.23362,39.84696],[16.23465,39.84669],[16.23636,39.84609],[16.24175,39.84384],[16.24506,39.84242],[16.24616,39.84192],[16.24785,39.84103],[16.25248,39.83839],[16.25367,39.83762]]},"properties":{}},{"type":"Feature","geometry":{"type":"LineString","coordinates":[[16.16852,39.87486],[16.16849,39.87483]]},"properties":{}},{"type":"Feature","geometry":{"type":"LineString","coordinates":[[16.25375,39.8377],[16.25323,39.83808],[16.25256,39.83848],[16.2481,39.84103],[16.24634,39.84197],[16.2451,39.84253],[16.23816,39.84545],[16.23643,39.84622],[16.23469,39.84682],[16.23366,39.84708],[16.23278,39.84725],[16.23119,39.84747],[16.2243,39.84779],[16.22159,39.848],[16.21291,39.84924],[16.21129,39.84953],[16.20975,39.85],[16.20531,39.85205],[16.20406,39.85269],[16.20329,39.85317],[16.19975,39.85555],[16.19264,39.86042],[16.19164,39.86101],[16.18839,39.8626],[16.18445,39.86446],[16.1836,39.86492],[16.18003,39.86723],[16.1769,39.86932],[16.17,39.87376],[16.16898,39.87445],[16.16849,39.87483]]},"properties":{}},{"type":"Feature","geometry":{"type":"LineString","coordinates":[[16.16852,39.87486],[16.16896,39.87521],[16.16918,39.8753],[16.16935,39.87531],[16.16953,39.87529],[16.16982,39.87513],[16.16989,39.87502],[16.16991,39.87475],[16.16973,39.87452],[16.1696,39.87445],[16.16945,39.87441],[16.16918,39.87441],[16.16902,39.87448],[16.16852,39.87486]]},"properties":{}},{"type":"Feature","geometry":{"type":"LineString","coordinates":[[16.19778,39.67848],[16.19721,39.67849],[16.1974,39.6782],[16.19754,39.67818],[16.19768,39.67829],[16.19778,39.67848]]},"properties":{}},{"type":"Feature","geometry":{"type":"LineString","coordinates":[[16.21837,39.67826],[16.21149,39.67837],[16.20267,39.6783],[16.19778,39.67848]]},"properties":{}},{"type":"Feature","geometry":{"type":"LineString","coordinates":[[16.19885,39.81643],[16.19938,39.81686],[16.19946,39.81717],[16.19954,39.81729],[16.20003,39.81762],[16.20038,39.81791],[16.2013,39.81837],[16.20141,39.81837],[16.20147,39.81831]]},"properties":{}},{"type":"Feature","geometry":{"type":"LineString","coordinates":[[16.19885,39.81643],[16.19974,39.81527],[16.20013,39.81544],[16.20509,39.81809]]},"properties":{}},{"type":"Feature","geometry":{"type":"LineString","coordinates":[[16.20147,39.81831],[16.20052,39.81775],[16.20048,39.81767],[16.20052,39.81758],[16.20064,39.81757],[16.20075,39.81761],[16.20146,39.81812],[16.20149,39.81821],[16.20147,39.81831]]},"properties":{}},{"type":"Feature","geometry":{"type":"LineString","coordinates":[[16.20509,39.81809],[16.20529,39.81811],[16.20562,39.81807]]},"properties":{}},{"type":"Feature","geometry":{"type":"LineString","coordinates":[[16.20509,39.81809],[16.2053,39.81822],[16.20562,39.81807]]},"properties":{}},{"type":"Feature","geometry":{"type":"LineString","coordinates":[[16.20694,39.81501],[16.2068,39.8161],[16.20648,39.81709],[16.20607,39.8178],[16.20594,39.81793],[16.20562,39.81807]]},"properties":{}},{"type":"Feature","geometry":{"type":"LineString","coordinates":[[16.20926,39.60847],[16.20891,39.60766],[16.20872,39.60742],[16.20705,39.60591],[16.20685,39.60581]]},"properties":{}},{"type":"Feature","geometry":{"type":"LineString","coordinates":[[16.20685,39.60581],[16.20669,39.60577],[16.20664,39.60565],[16.20674,39.60555],[16.20684,39.60554],[16.20693,39.60558]]},"properties":{}},{"type":"Feature","geometry":{"type":"LineString","coordinates":[[16.20693,39.60558],[16.20698,39.60565],[16.20697,39.60573],[16.20685,39.60581]]},"properties":{}},{"type":"Feature","geometry":{"type":"LineString","coordinates":[[16.20693,39.60558],[16.20716,39.6056],[16.20817,39.60537]]},"properties":{}},{"type":"Feature","geometry":{"type":"LineString","coordinates":[[16.20694,39.81501],[16.20702,39.81477],[16.20718,39.81486]]},"properties":{}},{"type":"Feature","geometry":{"type":"LineString","coordinates":[[16.20718,39.81486],[16.20705,39.81492],[16.20694,39.81501]]},"properties":{}},{"type":"Feature","geometry":{"type":"LineString","coordinates":[[16.21105,39.81709],[16.20997,39.81658],[16.20718,39.81486]]},"properties":{}},{"type":"Feature","geometry":{"type":"LineString","coordinates":[[16.20817,39.60537],[16.2085,39.60615],[16.20921,39.60677],[16.20941,39.60747],[16.20947,39.60783],[16.20941,39.60819],[16.20926,39.60847]]},"properties":{}},{"type":"Feature","geometry":{"type":"LineString","coordinates":[[16.20817,39.60537],[16.20793,39.60493],[16.20758,39.60461],[16.20774,39.60466],[16.20808,39.60472],[16.20833,39.60532],[16.20817,39.60537]]},"properties":{}},{"type":"Feature","geometry":{"type":"LineString","coordinates":[[16.20976,39.50722],[16.20883,39.50722],[16.20862,39.50718],[16.20845,39.50711],[16.20824,39.50697],[16.20813,39.50679],[16.2081,39.50662],[16.2081,39.50649],[16.20828,39.5062]]},"properties":{}},{"type":"Feature","geometry":{"type":"LineString","coordinates":[[16.20828,39.5062],[16.20854,39.50604],[16.20917,39.50585],[16.20939,39.50573],[16.20959,39.50549],[16.20966,39.50527],[16.20968,39.50398],[16.20974,39.50369]]},"properties":{}},{"type":"Feature","geometry":{"type":"LineString","coordinates":[[16.20976,39.50722],[16.20972,39.50683],[16.20964,39.50644],[16.2095,39.50622],[16.20933,39.5061],[16.20892,39.50601],[16.20848,39.50609],[16.20828,39.5062]]},"properties":{}},{"type":"Feature","geometry":{"type":"LineString","coordinates":[[16.22092,39.62071],[16.21814,39.61771],[16.2179,39.61749],[16.21759,39.61731],[16.21725,39.61718],[16.21601,39.61699],[16.21516,39.61679],[16.21458,39.61651],[16.21415,39.61606],[16.21078,39.61176],[16.2105,39.61132],[16.20926,39.60847]]},"properties":{}},{"type":"Feature","geometry":{"type":"LineString","coordinates":[[16.20981,39.50722],[16.20973,39.50442],[16.20974,39.50369]]},"properties":{}},{"type":"Feature","geometry":{"type":"LineString","coordinates":[[16.20974,39.50369],[16.20981,39.50273],[16.2099,39.50215],[16.21001,39.50155],[16.21039,39.5]]},"properties":{}},{"type":"Feature","geometry":{"type":"LineString","coordinates":[[16.20983,39.50847],[16.20978,39.50832],[16.20976,39.50722]]},"properties":{}},{"type":"Feature","geometry":{"type":"LineString","coordinates":[[16.20981,39.50722],[16.20976,39.50722]]},"properties":{}},{"type":"Feature","geometry":{"type":"LineString","coordinates":[[16.20983,39.50847],[16.20981,39.50722]]},"properties":{}},{"type":"Feature","geometry":{"type":"LineString","coordinates":[[16.20994,39.50722],[16.20981,39.50722]]},"properties":{}},{"type":"Feature","geometry":{"type":"LineString","coordinates":[[16.24514,39.58232],[16.24506,39.582],[16.24464,39.58098],[16.24394,39.57965],[16.2436,39.5791],[16.24237,39.57756],[16.23973,39.57467],[16.23918,39.57392],[16.23861,39.573],[16.23826,39.5722],[16.23794,39.57135],[16.23591,39.56441],[16.23519,39.56215],[16.23476,39.561],[16.2343,39.55991],[16.23328,39.55773],[16.22269,39.5357],[16.22209,39.5346],[16.22018,39.53134],[16.21912,39.52946],[16.21801,39.52763],[16.21765,39.52712],[16.21726,39.52665],[16.2155,39.52467],[16.21468,39.5237],[16.21404,39.52289],[16.21362,39.52224],[16.21337,39.52173],[16.21135,39.51661],[16.21047,39.5143],[16.21017,39.51337],[16.20997,39.51225],[16.20983,39.50847]]},"properties":{}},{"type":"Feature","geometry":{"type":"LineString","coordinates":[[16.20988,39.50417],[16.20991,39.50442],[16.20999,39.50607],[16.21006,39.50641],[16.21017,39.50664],[16.21038,39.50686],[16.21071,39.50704],[16.21125,39.50721]]},"properties":{}},{"type":"Feature","geometry":{"type":"LineString","coordinates":[[16.20988,39.50417],[16.20994,39.50722]]},"properties":{}},{"type":"Feature","geometry":{"type":"LineString","coordinates":[[16.21053,39.5],[16.21014,39.50158],[16.21003,39.50214],[16.20988,39.50361],[16.20988,39.50417]]},"properties":{}},{"type":"Feature","geometry":{"type":"LineString","coordinates":[[16.20994,39.50722],[16.21,39.50935]]},"properties":{}},{"type":"Feature","geometry":{"type":"LineString","coordinates":[[16.21125,39.50721],[16.20994,39.50722]]},"properties":{}},{"type":"Feature","geometry":{"type":"LineString","coordinates":[[16.21,39.50935],[16.21001,39.51011],[16.2101,39.51224],[16.21019,39.51278],[16.21031,39.51333],[16.21046,39.51385],[16.21067,39.51442],[16.2135,39.5217],[16.21417,39.52285],[16.21451,39.52331],[16.21565,39.52464],[16.21737,39.52655],[16.21812,39.52757],[16.21869,39.52848],[16.22281,39.53565],[16.2329,39.55665],[16.23344,39.5577],[16.23444,39.55988],[16.23491,39.56099],[16.23532,39.56211],[16.23605,39.56437],[16.23808,39.57133],[16.23839,39.57218],[16.23872,39.57291],[16.23907,39.57351],[16.23987,39.57463],[16.24249,39.57751],[16.24371,39.57906],[16.24407,39.57958],[16.24439,39.58017],[16.24476,39.58096],[16.24518,39.58197],[16.24545,39.5829]]},"properties":{}},{"type":"Feature","geometry":{"type":"LineString","coordinates":[[16.21125,39.50721],[16.21077,39.50734],[16.21041,39.50757],[16.21022,39.50779],[16.2101,39.50802],[16.21005,39.50828],[16.21004,39.50919],[16.21,39.50935]]},"properties":{}},{"type":"Feature","geometry":{"type":"LineString","coordinates":[[16.21103,39.5028],[16.21133,39.50532],[16.21149,39.5059],[16.21177,39.5067]]},"properties":{}},{"type":"Feature","geometry":{"type":"LineString","coordinates":[[16.21103,39.5028],[16.21102,39.50274],[16.21135,39.50271],[16.21136,39.50278],[16.21103,39.5028]]},"properties":{}},{"type":"Feature","geometry":{"type":"LineString","coordinates":[[16.21105,39.81709],[16.21139,39.81716]]},"properties":{}},{"type":"Feature","geometry":{"type":"LineString","coordinates":[[16.21129,39.81725],[16.21105,39.81709]]},"properties":{}},{"type":"Feature","geometry":{"type":"LineString","coordinates":[[16.21125,39.50721],[16.21137,39.5072]]},"properties":{}},{"type":"Feature","geometry":{"type":"LineString","coordinates":[[16.21153,39.8173],[16.21145,39.81735],[16.21137,39.81735],[16.21131,39.81731],[16.21129,39.81725]]},"properties":{}},{"type":"Feature","geometry":{"type":"LineString","coordinates":[[16.21129,39.81725],[16.21132,39.8172],[16.21139,39.81716]]},"properties":{}},{"type":"Feature","geometry":{"type":"LineString","coordinates":[[16.21177,39.5067],[16.21191,39.50712],[16.21167,39.50723],[16.21137,39.5072]]},"properties":{}},{"type":"Feature","geometry":{"type":"LineString","coordinates":[[16.21137,39.5072],[16.21162,39.50706],[16.21174,39.50686],[16.21177,39.5067]]},"properties":{}},{"type":"Feature","geometry":{"type":"LineString","coordinates":[[16.21139,39.81716],[16.21147,39.81717],[16.21153,39.81721]]},"properties":{}},{"type":"Feature","geometry":{"type":"LineString","coordinates":[[16.21153,39.81721],[16.21181,39.81728]]},"properties":{}},{"type":"Feature","geometry":{"type":"LineString","coordinates":[[16.21153,39.81721],[16.21153,39.8173]]},"properties":{}},{"type":"Feature","geometry":{"type":"LineString","coordinates":[[16.21181,39.81728],[16.21153,39.8173]]},"properties":{}},{"type":"Feature","geometry":{"type":"LineString","coordinates":[[16.25413,39.83132],[16.25265,39.83042],[16.25243,39.8303],[16.25232,39.83028],[16.25221,39.83029],[16.25206,39.83041],[16.25102,39.83202],[16.25091,39.83209],[16.25073,39.83215],[16.24398,39.83043],[16.24378,39.83044],[16.24362,39.83055],[16.24272,39.83143],[16.24231,39.83179],[16.24212,39.83188],[16.24186,39.83191],[16.24159,39.8318],[16.24084,39.83132],[16.23912,39.83006],[16.23892,39.82998],[16.23882,39.82998],[16.23871,39.83],[16.23858,39.8301],[16.23841,39.83075],[16.23817,39.83113],[16.23736,39.83193],[16.23717,39.83203],[16.23691,39.83204],[16.23672,39.83197],[16.23664,39.83182],[16.23633,39.83102],[16.23577,39.82977],[16.2356,39.82931],[16.23446,39.82425],[16.23375,39.8228],[16.23316,39.82216],[16.23297,39.822],[16.23283,39.82194],[16.23249,39.82185],[16.22688,39.82062],[16.22515,39.82021],[16.21181,39.81728]]},"properties":{}},{"type":"Feature","geometry":{"type":"LineString","coordinates":[[16.22071,39.68231],[16.22044,39.68206],[16.21976,39.68114],[16.21936,39.6808],[16.21918,39.6807],[16.21873,39.68058],[16.21776,39.68057]]},"properties":{}},{"type":"Feature","geometry":{"type":"LineString","coordinates":[[16.21776,39.68057],[16.21748,39.68048],[16.21731,39.68037],[16.2172,39.68022],[16.21717,39.68012],[16.21717,39.67989],[16.21729,39.67967],[16.21737,39.67958],[16.21762,39.67943],[16.21791,39.67935],[16.21813,39.67931],[16.21876,39.67933]]},"properties":{}},{"type":"Feature","geometry":{"type":"LineString","coordinates":[[16.21776,39.68057],[16.21799,39.68056],[16.2183,39.68049],[16.21852,39.68038],[16.21865,39.68027],[16.21881,39.68006],[16.21886,39.67984],[16.21884,39.6796],[16.21876,39.67933]]},"properties":{}},{"type":"Feature","geometry":{"type":"LineString","coordinates":[[16.21788,39.67617],[16.21796,39.67621],[16.21866,39.67825]]},"properties":{}},{"type":"Feature","geometry":{"type":"LineString","coordinates":[[16.21788,39.67617],[16.21857,39.67825]]},"properties":{}},{"type":"Feature","geometry":{"type":"LineString","coordinates":[[16.23198,39.63483],[16.23194,39.63554],[16.23176,39.63648],[16.2315,39.63722],[16.23059,39.63944],[16.22982,39.64109],[16.22956,39.64157],[16.22923,39.64207],[16.22884,39.64252],[16.22841,39.64298],[16.22769,39.64363],[16.2265,39.64447],[16.22603,39.64475],[16.22521,39.64513],[16.22149,39.64664],[16.22077,39.64698],[16.2202,39.6473],[16.21961,39.64769],[16.21908,39.64809],[16.21854,39.64856],[16.21767,39.64952],[16.2173,39.65005],[16.21699,39.65059],[16.21659,39.65149],[16.21645,39.65187],[16.21575,39.65476],[16.21446,39.66044],[16.21412,39.6624],[16.21408,39.66305],[16.21409,39.66362],[16.21418,39.66462],[16.21429,39.66512],[16.21459,39.66623],[16.21788,39.67617]]},"properties":{}},{"type":"Feature","geometry":{"type":"LineString","coordinates":[[16.21842,39.67826],[16.21798,39.67693]]},"properties":{}},{"type":"Feature","geometry":{"type":"LineString","coordinates":[[16.21837,39.67826],[16.21803,39.67724],[16.21798,39.67693]]},"properties":{}},{"type":"Feature","geometry":{"type":"LineString","coordinates":[[16.21798,39.67693],[16.21444,39.66624],[16.21415,39.66515],[16.21398,39.6641],[16.21395,39.66361],[16.21398,39.66241],[16.2143,39.66043],[16.2161,39.6526],[16.2163,39.65185],[16.21655,39.65113],[16.21683,39.65056],[16.21735,39.64972],[16.21797,39.64896],[16.21842,39.64848],[16.21896,39.64801],[16.21951,39.6476],[16.22073,39.64685],[16.22141,39.64653],[16.2228,39.64595],[16.22516,39.64503],[16.22597,39.64464],[16.22699,39.644],[16.22757,39.64356],[16.22809,39.64311],[16.22857,39.64264],[16.22904,39.64208],[16.22971,39.64103],[16.23136,39.6372],[16.23163,39.63646],[16.2318,39.63553],[16.23185,39.63463]]},"properties":{}},{"type":"Feature","geometry":{"type":"LineString","coordinates":[[16.21876,39.67933],[16.21837,39.67826]]},"properties":{}},{"type":"Feature","geometry":{"type":"LineString","coordinates":[[16.21842,39.67826],[16.21837,39.67826]]},"properties":{}},{"type":"Feature","geometry":{"type":"LineString","coordinates":[[16.21886,39.67933],[16.21852,39.67856],[16.21842,39.67826]]},"properties":{}},{"type":"Feature","geometry":{"type":"LineString","coordinates":[[16.21857,39.67825],[16.21842,39.67826]]},"properties":{}},{"type":"Feature","geometry":{"type":"LineString","coordinates":[[16.21857,39.67825],[16.21866,39.67856],[16.21899,39.67934]]},"properties":{}},{"type":"Feature","geometry":{"type":"LineString","coordinates":[[16.21866,39.67825],[16.21857,39.67825]]},"properties":{}},{"type":"Feature","geometry":{"type":"LineString","coordinates":[[16.21866,39.67825],[16.21886,39.67868],[16.21905,39.67893],[16.21927,39.6791],[16.2197,39.67925],[16.22031,39.67935]]},"properties":{}},{"type":"Feature","geometry":{"type":"LineString","coordinates":[[16.21924,39.67824],[16.21866,39.67825]]},"properties":{}},{"type":"Feature","geometry":{"type":"LineString","coordinates":[[16.21876,39.67933],[16.21886,39.67933]]},"properties":{}},{"type":"Feature","geometry":{"type":"LineString","coordinates":[[16.21886,39.67933],[16.21899,39.67934]]},"properties":{}},{"type":"Feature","geometry":{"type":"LineString","coordinates":[[16.22071,39.68231],[16.22008,39.68151],[16.21954,39.68071],[16.21919,39.68005],[16.21886,39.67933]]},"properties":{}},{"type":"Feature","geometry":{"type":"LineString","coordinates":[[16.21899,39.67934],[16.21969,39.6794],[16.22002,39.6794],[16.22031,39.67935]]},"properties":{}},{"type":"Feature","geometry":{"type":"LineString","coordinates":[[16.21899,39.67934],[16.21966,39.68069],[16.22018,39.68146],[16.22081,39.68225]]},"properties":{}},{"type":"Feature","geometry":{"type":"LineString","coordinates":[[16.2211,39.67872],[16.22105,39.67853],[16.22086,39.67836],[16.22074,39.67831],[16.21962,39.67829],[16.21924,39.67824]]},"properties":{}},{"type":"Feature","geometry":{"type":"LineString","coordinates":[[16.21924,39.67824],[16.22115,39.67823],[16.22126,39.67832],[16.22128,39.67846],[16.22126,39.67855],[16.2211,39.67872]]},"properties":{}},{"type":"Feature","geometry":{"type":"LineString","coordinates":[[16.22051,39.6793],[16.22031,39.67935]]},"properties":{}},{"type":"Feature","geometry":{"type":"LineString","coordinates":[[16.22051,39.6793],[16.22011,39.6795],[16.21989,39.67966],[16.21975,39.67982],[16.21966,39.68002],[16.21964,39.68023],[16.21975,39.68067],[16.22023,39.68144],[16.22072,39.68207],[16.22081,39.68225]]},"properties":{}},{"type":"Feature","geometry":{"type":"LineString","coordinates":[[16.2211,39.67872],[16.22083,39.67908],[16.22051,39.6793]]},"properties":{}},{"type":"Feature","geometry":{"type":"LineString","coordinates":[[16.23937,39.72091],[16.24057,39.71864],[16.24184,39.71612],[16.24289,39.71417],[16.24328,39.71335],[16.24348,39.7128],[16.24369,39.71208],[16.24382,39.71148],[16.24395,39.71059],[16.24397,39.70949],[16.24392,39.70874],[16.24383,39.70815],[16.24357,39.70709],[16.24339,39.70654],[16.24286,39.70536],[16.24106,39.70232],[16.23731,39.69611],[16.23682,39.69538],[16.23629,39.69471],[16.23573,39.69408],[16.23513,39.69347],[16.23407,39.69263],[16.22717,39.68773],[16.22611,39.68691],[16.22184,39.68342],[16.22116,39.6828],[16.22071,39.68231]]},"properties":{}},{"type":"Feature","geometry":{"type":"LineString","coordinates":[[16.22081,39.68225],[16.2213,39.68276],[16.22196,39.68334],[16.22623,39.68682],[16.2273,39.68762],[16.23419,39.69254],[16.23478,39.693],[16.23524,39.6934],[16.23585,39.69401],[16.23642,39.69466],[16.23694,39.69532],[16.23744,39.69607],[16.23934,39.69916],[16.23992,39.70019],[16.24234,39.70419],[16.24298,39.70532],[16.24325,39.70586],[16.24351,39.70649],[16.24371,39.70707],[16.24397,39.70812],[16.24411,39.70949],[16.24408,39.71061],[16.24396,39.71149],[16.24362,39.71284],[16.2434,39.71339],[16.24302,39.71422],[16.24067,39.71866],[16.23996,39.72008]]},"properties":{}},{"type":"Feature","geometry":{"type":"LineString","coordinates":[[16.22092,39.62071],[16.2215,39.62129],[16.22257,39.62245],[16.22431,39.6245],[16.22449,39.6246],[16.22543,39.62559],[16.22567,39.6257],[16.22589,39.62569],[16.2263,39.62558],[16.22649,39.62561],[16.22667,39.62568],[16.22681,39.62582],[16.22717,39.6264]]},"properties":{}},{"type":"Feature","geometry":{"type":"LineString","coordinates":[[16.22548,39.62603],[16.22308,39.62318],[16.22142,39.62133],[16.22092,39.62071]]},"properties":{}},{"type":"Feature","geometry":{"type":"LineString","coordinates":[[16.2254,39.62716],[16.22563,39.62722],[16.22584,39.6272],[16.22598,39.62711],[16.22607,39.62695],[16.22603,39.62678],[16.22572,39.62632],[16.22548,39.62603]]},"properties":{}},{"type":"Feature","geometry":{"type":"LineString","coordinates":[[16.23108,39.63352],[16.23071,39.63307],[16.2273,39.6284],[16.2271,39.62822],[16.2267,39.62768],[16.22653,39.62754],[16.22637,39.62746],[16.22558,39.62729],[16.2254,39.62716]]},"properties":{}},{"type":"Feature","geometry":{"type":"LineString","coordinates":[[16.2254,39.62716],[16.22504,39.62674],[16.22498,39.62661],[16.22497,39.62647],[16.22502,39.62635],[16.22516,39.62621],[16.22548,39.62603]]},"properties":{}},{"type":"Feature","geometry":{"type":"LineString","coordinates":[[16.22548,39.62603],[16.22622,39.62566],[16.22643,39.62567],[16.22663,39.62573],[16.22676,39.62584],[16.227,39.6262]]},"properties":{}},{"type":"Feature","geometry":{"type":"LineString","coordinates":[[16.227,39.6262],[16.22717,39.6264]]},"properties":{}},{"type":"Feature","geometry":{"type":"LineString","coordinates":[[16.22709,39.62642],[16.227,39.6262]]},"properties":{}},{"type":"Feature","geometry":{"type":"LineString","coordinates":[[16.22765,39.62733],[16.22709,39.62642]]},"properties":{}},{"type":"Feature","geometry":{"type":"LineString","coordinates":[[16.22709,39.62642],[16.22694,39.62617],[16.22677,39.62596],[16.22659,39.62582],[16.22642,39.62579],[16.22626,39.62579],[16.22604,39.6259],[16.22596,39.626],[16.22593,39.62614],[16.22597,39.62627],[16.22661,39.6271],[16.22688,39.62755],[16.22696,39.62775],[16.23079,39.63304],[16.23108,39.63352]]},"properties":{}},{"type":"Feature","geometry":{"type":"LineString","coordinates":[[16.22717,39.6264],[16.22754,39.62704]]},"properties":{}},{"type":"Feature","geometry":{"type":"LineString","coordinates":[[16.22754,39.62704],[16.22782,39.6272],[16.22824,39.62727],[16.22859,39.6272],[16.22882,39.62702],[16.22891,39.6269],[16.22896,39.62665],[16.22878,39.6256],[16.22875,39.6249],[16.2288,39.62447]]},"properties":{}},{"type":"Feature","geometry":{"type":"LineString","coordinates":[[16.22754,39.62704],[16.22759,39.62716],[16.22777,39.62739]]},"properties":{}},{"type":"Feature","geometry":{"type":"LineString","coordinates":[[16.22777,39.62739],[16.22765,39.62733]]},"properties":{}},{"type":"Feature","geometry":{"type":"LineString","coordinates":[[16.23069,39.63103],[16.23057,39.6309],[16.23024,39.63032],[16.22995,39.62974],[16.22964,39.629],[16.22946,39.62871],[16.22904,39.62824],[16.22883,39.62808],[16.2279,39.62759],[16.22773,39.62745],[16.22765,39.62733]]},"properties":{}},{"type":"Feature","geometry":{"type":"LineString","coordinates":[[16.22928,39.62748],[16.22867,39.62757],[16.22835,39.62758],[16.22812,39.62755],[16.22777,39.62739]]},"properties":{}},{"type":"Feature","geometry":{"type":"LineString","coordinates":[[16.22928,39.62748],[16.22892,39.62605],[16.22885,39.62558],[16.2288,39.62447]]},"properties":{}},{"type":"Feature","geometry":{"type":"LineString","coordinates":[[16.2288,39.62447],[16.22888,39.62374],[16.229,39.62318],[16.22983,39.61982],[16.22993,39.61926],[16.22999,39.61871],[16.22991,39.61644],[16.22993,39.61572],[16.23,39.61515],[16.23012,39.61458],[16.23035,39.61377],[16.23111,39.61134],[16.23131,39.61062],[16.23235,39.60737],[16.23275,39.60628],[16.23301,39.60565],[16.23334,39.60496],[16.23375,39.60431],[16.23422,39.60366],[16.23507,39.60268],[16.23618,39.60161],[16.23672,39.60118],[16.23762,39.60061],[16.23876,39.59991],[16.2406,39.59888],[16.24162,39.59825],[16.2426,39.59747],[16.24315,39.59696],[16.24367,39.59642],[16.2442,39.59577],[16.2446,39.59516],[16.24515,39.59401],[16.24561,39.59261],[16.24574,39.59208],[16.24583,39.59066],[16.24583,39.58988],[16.24572,39.58709]]},"properties":{}},{"type":"Feature","geometry":{"type":"LineString","coordinates":[[16.22913,39.62631],[16.22924,39.62661],[16.22947,39.62745]]},"properties":{}},{"type":"Feature","geometry":{"type":"LineString","coordinates":[[16.22913,39.62631],[16.2294,39.62746]]},"properties":{}},{"type":"Feature","geometry":{"type":"LineString","coordinates":[[16.24591,39.58765],[16.246,39.59077],[16.24596,39.59176],[16.24578,39.59256],[16.24531,39.59404],[16.24497,39.59482],[16.24442,39.59574],[16.24408,39.59621],[16.24328,39.59704],[16.24214,39.59801],[16.24112,39.59874],[16.23786,39.60079],[16.23648,39.60182],[16.23536,39.60282],[16.23495,39.60329],[16.23425,39.60426],[16.23379,39.60509],[16.23292,39.60712],[16.23129,39.61168],[16.23091,39.61268],[16.23058,39.61364],[16.23029,39.61466],[16.23018,39.61524],[16.23015,39.61568],[16.23013,39.61642],[16.23016,39.61872],[16.23009,39.61928],[16.22916,39.62317],[16.22903,39.62374],[16.22895,39.62444],[16.22894,39.62492],[16.22898,39.62554],[16.22913,39.62631]]},"properties":{}},{"type":"Feature","geometry":{"type":"LineString","coordinates":[[16.23069,39.63103],[16.23001,39.62972],[16.22972,39.629],[16.22954,39.62848],[16.22928,39.62748]]},"properties":{}},{"type":"Feature","geometry":{"type":"LineString","coordinates":[[16.2294,39.62746],[16.22928,39.62748]]},"properties":{}},{"type":"Feature","geometry":{"type":"LineString","coordinates":[[16.2294,39.62746],[16.22997,39.62931],[16.23076,39.63084]]},"properties":{}},{"type":"Feature","geometry":{"type":"LineString","coordinates":[[16.22947,39.62745],[16.2294,39.62746]]},"properties":{}},{"type":"Feature","geometry":{"type":"LineString","coordinates":[[16.22947,39.62745],[16.22966,39.62803],[16.22975,39.6282],[16.2299,39.62831],[16.23009,39.62839],[16.23032,39.62841],[16.23056,39.62836]]},"properties":{}},{"type":"Feature","geometry":{"type":"LineString","coordinates":[[16.23056,39.62836],[16.23074,39.62826],[16.23085,39.62812],[16.23089,39.62792],[16.23086,39.62775],[16.23068,39.62755],[16.23048,39.62743],[16.23018,39.62737],[16.22947,39.62745]]},"properties":{}},{"type":"Feature","geometry":{"type":"LineString","coordinates":[[16.23056,39.62836],[16.23022,39.62858],[16.23011,39.62869],[16.23003,39.62886],[16.23002,39.62906],[16.23004,39.62929],[16.23075,39.6307],[16.23076,39.63084]]},"properties":{}},{"type":"Feature","geometry":{"type":"LineString","coordinates":[[16.23185,39.63463],[16.23179,39.63396],[16.2317,39.63343],[16.23153,39.63286],[16.23115,39.6319],[16.23069,39.63103]]},"properties":{}},{"type":"Feature","geometry":{"type":"LineString","coordinates":[[16.23076,39.63084],[16.23107,39.63144],[16.23148,39.63231],[16.23166,39.63282],[16.23183,39.63342],[16.23193,39.63395],[16.23198,39.63483]]},"properties":{}},{"type":"Feature","geometry":{"type":"LineString","coordinates":[[16.23185,39.63463],[16.23108,39.63352]]},"properties":{}},{"type":"Feature","geometry":{"type":"LineString","coordinates":[[16.23198,39.63483],[16.23185,39.63463]]},"properties":{}},{"type":"Feature","geometry":{"type":"LineString","coordinates":[[16.29882,39.6994],[16.299,39.6974],[16.29902,39.69677],[16.299,39.69646],[16.29894,39.69623],[16.29843,39.69488],[16.29796,39.69378],[16.29779,39.69344],[16.29758,39.69311],[16.29717,39.69266],[16.29686,39.69244],[16.29625,39.6921],[16.29446,39.69131],[16.29378,39.69108],[16.29196,39.69058],[16.29141,39.69023],[16.29053,39.6896],[16.29017,39.6893],[16.28959,39.68893],[16.28916,39.68871],[16.28848,39.68843],[16.288,39.68829],[16.28655,39.68795],[16.28562,39.68764],[16.28114,39.68566],[16.28035,39.68522],[16.27673,39.68268],[16.27574,39.68207],[16.27292,39.68046],[16.2718,39.67973],[16.27149,39.67947],[16.27091,39.67878],[16.27068,39.67839],[16.27057,39.67797],[16.27046,39.67743],[16.27047,39.67689],[16.27081,39.67502],[16.27086,39.67434],[16.27087,39.67379],[16.27078,39.67328],[16.27042,39.67215],[16.26765,39.66555],[16.26698,39.6645],[16.26643,39.66382],[16.26544,39.66292],[16.25883,39.65886],[16.25756,39.65803],[16.25476,39.65595],[16.24946,39.65182],[16.23933,39.64404],[16.23837,39.64327],[16.23806,39.64298],[16.23747,39.64232],[16.23295,39.63619],[16.23198,39.63483]]},"properties":{}},{"type":"Feature","geometry":{"type":"LineString","coordinates":[[16.23829,39.72326],[16.23817,39.72323]]},"properties":{}},{"type":"Feature","geometry":{"type":"LineString","coordinates":[[16.25708,39.83313],[16.25744,39.83232],[16.25913,39.8289],[16.25935,39.82832],[16.25954,39.82746],[16.25958,39.82687],[16.2596,39.82628],[16.25951,39.82568],[16.25936,39.82513],[16.25917,39.82458],[16.2589,39.82404],[16.25856,39.8235],[16.25838,39.82325],[16.25647,39.82092],[16.25564,39.81969],[16.25535,39.81917],[16.25499,39.81835],[16.25215,39.81062],[16.252,39.81035],[16.25164,39.80982],[16.25149,39.80964],[16.25076,39.80894],[16.23842,39.79855],[16.23757,39.79802],[16.23661,39.7976],[16.23378,39.79673],[16.2328,39.79633],[16.23169,39.79573],[16.23116,39.7954],[16.23035,39.79478],[16.22928,39.7937],[16.2287,39.79298],[16.22836,39.79246],[16.2281,39.79197],[16.22787,39.79143],[16.22517,39.7841],[16.22416,39.7815],[16.22317,39.77875],[16.22305,39.77837],[16.22294,39.77786],[16.22288,39.77728],[16.22288,39.77691],[16.22289,39.77657],[16.22296,39.77607],[16.22307,39.77557],[16.2239,39.77287],[16.2241,39.77195],[16.22414,39.77078],[16.22409,39.77017],[16.224,39.76962],[16.22384,39.76902],[16.22352,39.76815],[16.22318,39.76737],[16.22278,39.76663],[16.22069,39.76235],[16.22046,39.76176],[16.22041,39.76147],[16.2204,39.76088],[16.22054,39.75901],[16.22064,39.7566],[16.22071,39.75608],[16.22087,39.75566],[16.22118,39.75518],[16.22137,39.75495],[16.22188,39.75451],[16.22277,39.75387],[16.22313,39.75358],[16.22349,39.75318],[16.22373,39.75284],[16.224,39.7522],[16.22553,39.74628],[16.22595,39.74523],[16.22642,39.74439],[16.22698,39.74359],[16.23012,39.74003],[16.23083,39.7391],[16.23109,39.73869],[16.23136,39.73817],[16.23173,39.73725],[16.2324,39.73457],[16.23273,39.73353],[16.23307,39.73281],[16.235,39.72924],[16.23656,39.72624],[16.23817,39.72323]]},"properties":{}},{"type":"Feature","geometry":{"type":"LineString","coordinates":[[16.23817,39.72323],[16.23714,39.7229],[16.2369,39.72274],[16.23663,39.72251],[16.23656,39.72241],[16.23633,39.72099],[16.23642,39.72068],[16.23654,39.72048],[16.23681,39.72023],[16.23714,39.72011],[16.23745,39.72012],[16.23774,39.72024],[16.23787,39.72035],[16.23809,39.72079],[16.23815,39.72087],[16.23833,39.72101],[16.23863,39.72114],[16.23913,39.72123]]},"properties":{}},{"type":"Feature","geometry":{"type":"LineString","coordinates":[[16.23817,39.72323],[16.23915,39.72134]]},"properties":{}},{"type":"Feature","geometry":{"type":"LineString","coordinates":[[16.23938,39.72136],[16.23928,39.72163],[16.23934,39.72195],[16.23948,39.72217],[16.2396,39.72228],[16.23989,39.72246],[16.2401,39.72263],[16.24018,39.72279],[16.24019,39.72288],[16.24019,39.72296],[16.24011,39.72316],[16.23981,39.7234],[16.23941,39.72349],[16.23893,39.72345],[16.23829,39.72326]]},"properties":{}},{"type":"Feature","geometry":{"type":"LineString","coordinates":[[16.23829,39.72326],[16.233,39.73317],[16.23274,39.7338],[16.23258,39.73432],[16.23215,39.7363],[16.23191,39.73726],[16.23149,39.73828],[16.23125,39.73874],[16.23048,39.73986],[16.22952,39.74098],[16.22726,39.74349],[16.22687,39.74401],[16.22654,39.7445],[16.22607,39.74539],[16.22569,39.74635],[16.22418,39.75224],[16.22386,39.75292],[16.22348,39.75339],[16.22324,39.75362],[16.222,39.75453],[16.22146,39.755],[16.22113,39.75545],[16.22088,39.75589],[16.22077,39.75632],[16.22075,39.75661],[16.22066,39.75902],[16.2205,39.7609],[16.22049,39.76122],[16.22058,39.76174],[16.22077,39.7623],[16.22347,39.76778],[16.22379,39.76853],[16.22395,39.769],[16.22411,39.76959],[16.2242,39.77016],[16.22425,39.77077],[16.22424,39.77139],[16.22421,39.77191],[16.22414,39.77234],[16.22402,39.77287],[16.22317,39.7756],[16.22306,39.77613],[16.22297,39.77688],[16.22295,39.77728],[16.22299,39.77758],[16.22316,39.77838],[16.22394,39.78061],[16.22528,39.78408],[16.22796,39.79141],[16.22844,39.79241],[16.22879,39.79294],[16.22937,39.79367],[16.22998,39.79432],[16.23043,39.79473],[16.23123,39.79534],[16.23175,39.79567],[16.23287,39.79627],[16.23381,39.79666],[16.23622,39.79739],[16.23701,39.79766],[16.23762,39.79795],[16.23816,39.79826],[16.23847,39.79847],[16.25085,39.80889],[16.25136,39.80937],[16.25171,39.80976],[16.25195,39.81007],[16.25212,39.81035],[16.25226,39.81063],[16.25509,39.81833],[16.25545,39.81915],[16.25572,39.81965],[16.2562,39.8204],[16.25851,39.82327],[16.25902,39.82402],[16.25928,39.82457],[16.25948,39.82511],[16.25962,39.82571],[16.2597,39.8263],[16.25969,39.82688],[16.25964,39.82747],[16.25945,39.82833],[16.25924,39.82893],[16.25727,39.833],[16.25635,39.83477]]},"properties":{}},{"type":"Feature","geometry":{"type":"LineString","coordinates":[[16.23929,39.72135],[16.23893,39.72212],[16.23829,39.72326]]},"properties":{}},{"type":"Feature","geometry":{"type":"LineString","coordinates":[[16.23915,39.72134],[16.23908,39.72133]]},"properties":{}},{"type":"Feature","geometry":{"type":"LineString","coordinates":[[16.23908,39.72133],[16.23755,39.72129],[16.23731,39.72131],[16.23695,39.72142],[16.23671,39.72161],[16.2366,39.72183],[16.23659,39.72217],[16.23665,39.72239],[16.23693,39.72266],[16.23716,39.72277],[16.23734,39.72281],[16.23776,39.72282],[16.2381,39.72272],[16.23837,39.72255],[16.23849,39.72242],[16.23908,39.72133]]},"properties":{}},{"type":"Feature","geometry":{"type":"LineString","coordinates":[[16.23908,39.72133],[16.23913,39.72123]]},"properties":{}},{"type":"Feature","geometry":{"type":"LineString","coordinates":[[16.23913,39.72123],[16.2392,39.72124]]},"properties":{}},{"type":"Feature","geometry":{"type":"LineString","coordinates":[[16.23913,39.72123],[16.23921,39.72108],[16.23937,39.72091]]},"properties":{}},{"type":"Feature","geometry":{"type":"LineString","coordinates":[[16.23929,39.72135],[16.23915,39.72134]]},"properties":{}},{"type":"Feature","geometry":{"type":"LineString","coordinates":[[16.23915,39.72134],[16.2392,39.72124]]},"properties":{}},{"type":"Feature","geometry":{"type":"LineString","coordinates":[[16.2392,39.72124],[16.23934,39.72125]]},"properties":{}},{"type":"Feature","geometry":{"type":"LineString","coordinates":[[16.2392,39.72124],[16.23937,39.72091]]},"properties":{}},{"type":"Feature","geometry":{"type":"LineString","coordinates":[[16.23938,39.72136],[16.23929,39.72135]]},"properties":{}},{"type":"Feature","geometry":{"type":"LineString","coordinates":[[16.23934,39.72125],[16.23929,39.72135]]},"properties":{}},{"type":"Feature","geometry":{"type":"LineString","coordinates":[[16.23934,39.72125],[16.23942,39.72126]]},"properties":{}},{"type":"Feature","geometry":{"type":"LineString","coordinates":[[16.23996,39.72008],[16.23934,39.72125]]},"properties":{}},{"type":"Feature","geometry":{"type":"LineString","coordinates":[[16.31458,39.7234],[16.31367,39.7234],[16.31287,39.72345],[16.31161,39.72362],[16.30811,39.72437],[16.3072,39.72452],[16.30646,39.72458],[16.3049,39.72467],[16.3012,39.7248],[16.29791,39.72484],[16.28046,39.72538],[16.27838,39.72558],[16.27083,39.72667],[16.27024,39.72673],[16.26908,39.72676],[16.2679,39.72669],[16.26728,39.7266],[16.26642,39.72642],[16.26306,39.7256],[16.26122,39.72521],[16.25838,39.72463],[16.2524,39.7235],[16.24311,39.72185],[16.24108,39.72154],[16.23938,39.72136]]},"properties":{}},{"type":"Feature","geometry":{"type":"LineString","coordinates":[[16.23942,39.72126],[16.23938,39.72136]]},"properties":{}},{"type":"Feature","geometry":{"type":"LineString","coordinates":[[16.23942,39.72126],[16.24103,39.7214],[16.24314,39.72174],[16.25241,39.72339],[16.25845,39.72453],[16.26129,39.72511],[16.26371,39.72564],[16.26681,39.7264],[16.26752,39.72652],[16.26899,39.72663],[16.26951,39.72663],[16.27078,39.72654],[16.27866,39.72544],[16.28005,39.72531],[16.29705,39.72474],[16.30119,39.72469],[16.30647,39.72448],[16.30718,39.7244],[16.30806,39.72426],[16.31101,39.72363],[16.31232,39.7234],[16.31366,39.72328],[16.3144,39.72327]]},"properties":{}},{"type":"Feature","geometry":{"type":"LineString","coordinates":[[16.23996,39.72008],[16.23993,39.72023],[16.23942,39.72126]]},"properties":{}},{"type":"Feature","geometry":{"type":"LineString","coordinates":[[16.24406,39.58455],[16.24394,39.58461],[16.24377,39.58464],[16.24351,39.58461],[16.24373,39.58453],[16.24406,39.58455]]},"properties":{}},{"type":"Feature","geometry":{"type":"LineString","coordinates":[[16.24427,39.58453],[16.24406,39.58455]]},"properties":{}},{"type":"Feature","geometry":{"type":"LineString","coordinates":[[16.24572,39.58709],[16.24568,39.58685],[16.24564,39.58563],[16.24559,39.58536],[16.2455,39.58514],[16.24533,39.58494],[16.24515,39.5848],[16.24492,39.58467],[16.24427,39.58453]]},"properties":{}},{"type":"Feature","geometry":{"type":"LineString","coordinates":[[16.24427,39.58453],[16.24452,39.58446],[16.24495,39.58424],[16.24508,39.58409],[16.24526,39.58379],[16.24533,39.58334],[16.24514,39.58248],[16.24514,39.58232]]},"properties":{}},{"type":"Feature","geometry":{"type":"LineString","coordinates":[[16.24558,39.58447],[16.24427,39.58453]]},"properties":{}},{"type":"Feature","geometry":{"type":"LineString","coordinates":[[16.24558,39.58447],[16.2455,39.58381],[16.24535,39.58305],[16.24514,39.58232]]},"properties":{}},{"type":"Feature","geometry":{"type":"LineString","coordinates":[[16.24545,39.5829],[16.24556,39.58313],[16.24578,39.58446]]},"properties":{}},{"type":"Feature","geometry":{"type":"LineString","coordinates":[[16.24545,39.5829],[16.24562,39.58378],[16.24571,39.58446]]},"properties":{}},{"type":"Feature","geometry":{"type":"LineString","coordinates":[[16.24572,39.58709],[16.24568,39.58546],[16.24558,39.58447]]},"properties":{}},{"type":"Feature","geometry":{"type":"LineString","coordinates":[[16.24571,39.58446],[16.24558,39.58447]]},"properties":{}},{"type":"Feature","geometry":{"type":"LineString","coordinates":[[16.24571,39.58446],[16.24582,39.58575],[16.24591,39.58765]]},"properties":{}},{"type":"Feature","geometry":{"type":"LineString","coordinates":[[16.24578,39.58446],[16.24571,39.58446]]},"properties":{}},{"type":"Feature","geometry":{"type":"LineString","coordinates":[[16.24578,39.58446],[16.24584,39.58485],[16.24593,39.58512],[16.24606,39.58527],[16.24635,39.58546],[16.2468,39.58556],[16.24705,39.58556]]},"properties":{}},{"type":"Feature","geometry":{"type":"LineString","coordinates":[[16.24705,39.58556],[16.2473,39.58546],[16.24749,39.58533],[16.24759,39.58515],[16.2476,39.58495],[16.24753,39.58473],[16.24744,39.58462],[16.24716,39.58446],[16.24698,39.58441],[16.24578,39.58446]]},"properties":{}},{"type":"Feature","geometry":{"type":"LineString","coordinates":[[16.24705,39.58556],[16.24655,39.58566],[16.24634,39.58578],[16.24606,39.58612],[16.24595,39.58646],[16.24592,39.58682],[16.24594,39.58754],[16.24591,39.58765]]},"properties":{}},{"type":"Feature","geometry":{"type":"LineString","coordinates":[[16.25367,39.83762],[16.25471,39.83667],[16.25494,39.83637],[16.25506,39.83609],[16.25513,39.83565],[16.25507,39.83521],[16.25488,39.83483],[16.2546,39.83449]]},"properties":{}},{"type":"Feature","geometry":{"type":"LineString","coordinates":[[16.25367,39.83762],[16.25467,39.83678],[16.25553,39.83583],[16.25598,39.83522]]},"properties":{}},{"type":"Feature","geometry":{"type":"LineString","coordinates":[[16.25608,39.83525],[16.25568,39.83582],[16.25513,39.83648],[16.25426,39.83729],[16.25375,39.8377]]},"properties":{}},{"type":"Feature","geometry":{"type":"LineString","coordinates":[[16.25618,39.8369],[16.25563,39.83675],[16.25535,39.83674],[16.25502,39.8368],[16.25477,39.83692],[16.25421,39.83741],[16.25375,39.8377]]},"properties":{}},{"type":"Feature","geometry":{"type":"LineString","coordinates":[[16.25381,39.83177],[16.2537,39.83212],[16.25366,39.83242],[16.25366,39.83273],[16.25371,39.8331],[16.25388,39.83357],[16.25399,39.83376],[16.25434,39.83426],[16.2546,39.83449]]},"properties":{}},{"type":"Feature","geometry":{"type":"LineString","coordinates":[[16.25381,39.83177],[16.25392,39.8315],[16.25399,39.8314],[16.25413,39.83132]]},"properties":{}},{"type":"Feature","geometry":{"type":"LineString","coordinates":[[16.25455,39.83157],[16.25415,39.83158],[16.25394,39.83164],[16.25381,39.83177]]},"properties":{}},{"type":"Feature","geometry":{"type":"LineString","coordinates":[[16.25455,39.83157],[16.25413,39.83132]]},"properties":{}},{"type":"Feature","geometry":{"type":"LineString","coordinates":[[16.25562,39.83219],[16.25455,39.83157]]},"properties":{}},{"type":"Feature","geometry":{"type":"LineString","coordinates":[[16.2546,39.83449],[16.25511,39.8347],[16.25549,39.83474],[16.25589,39.83467],[16.25621,39.83452],[16.25642,39.83432],[16.25708,39.83313]]},"properties":{}},{"type":"Feature","geometry":{"type":"LineString","coordinates":[[16.2546,39.83449],[16.25484,39.83467],[16.25531,39.83494],[16.25598,39.83522]]},"properties":{}},{"type":"Feature","geometry":{"type":"LineString","coordinates":[[16.25562,39.83219],[16.25597,39.83233],[16.2566,39.83245],[16.25668,39.83259],[16.2567,39.83271],[16.25621,39.83254],[16.25562,39.83219]]},"properties":{}},{"type":"Feature","geometry":{"type":"LineString","coordinates":[[16.25598,39.83522],[16.25608,39.83525]]},"properties":{}},{"type":"Feature","geometry":{"type":"LineString","coordinates":[[16.25598,39.83522],[16.25627,39.83474],[16.25708,39.83313]]},"properties":{}},{"type":"Feature","geometry":{"type":"LineString","coordinates":[[16.25608,39.83525],[16.25613,39.83527]]},"properties":{}},{"type":"Feature","geometry":{"type":"LineString","coordinates":[[16.25635,39.83477],[16.25608,39.83525]]},"properties":{}},{"type":"Feature","geometry":{"type":"LineString","coordinates":[[16.25613,39.83527],[16.25684,39.83554],[16.25713,39.8357],[16.25736,39.83593],[16.25742,39.83608],[16.25744,39.83622],[16.25741,39.83642],[16.25729,39.83662],[16.25719,39.83673],[16.25701,39.83684],[16.25663,39.83694],[16.25638,39.83694],[16.25618,39.8369]]},"properties":{}},{"type":"Feature","geometry":{"type":"LineString","coordinates":[[16.25613,39.83527],[16.25564,39.836],[16.25558,39.83623],[16.25563,39.83646],[16.25576,39.83666],[16.25588,39.83676],[16.25618,39.8369]]},"properties":{}},{"type":"Feature","geometry":{"type":"LineString","coordinates":[[16.25635,39.83477],[16.25613,39.83527]]},"properties":{}},{"type":"Feature","geometry":{"type":"LineString","coordinates":[[16.29882,39.6994],[16.29895,39.69967],[16.29903,39.70003],[16.29911,39.70025]]},"properties":{}},{"type":"Feature","geometry":{"type":"LineString","coordinates":[[16.29911,39.70025],[16.29879,39.69995],[16.29882,39.6994]]},"properties":{}},{"type":"Feature","geometry":{"type":"LineString","coordinates":[[16.30927,39.71962],[16.30892,39.71902],[16.30872,39.71843],[16.30831,39.71716],[16.30682,39.71214],[16.30655,39.71157],[16.30596,39.71058],[16.29911,39.70025]]},"properties":{}},{"type":"Feature","geometry":{"type":"LineString","coordinates":[[16.30927,39.71962],[16.30976,39.72006]]},"properties":{}},{"type":"Feature","geometry":{"type":"LineString","coordinates":[[16.30959,39.72016],[16.30955,39.72004],[16.30927,39.71962]]},"properties":{}},{"type":"Feature","geometry":{"type":"LineString","coordinates":[[16.30982,39.72035],[16.30964,39.72032],[16.30958,39.72023],[16.30959,39.72016]]},"properties":{}},{"type":"Feature","geometry":{"type":"LineString","coordinates":[[16.30959,39.72016],[16.30966,39.72009],[16.30976,39.72006]]},"properties":{}},{"type":"Feature","geometry":{"type":"LineString","coordinates":[[16.30976,39.72006],[16.30992,39.72011],[16.30996,39.72019],[16.30995,39.72027]]},"properties":{}},{"type":"Feature","geometry":{"type":"LineString","coordinates":[[16.31015,39.72057],[16.30982,39.72035]]},"properties":{}},{"type":"Feature","geometry":{"type":"LineString","coordinates":[[16.30995,39.72027],[16.30982,39.72035]]},"properties":{}},{"type":"Feature","geometry":{"type":"LineString","coordinates":[[16.30995,39.72027],[16.31015,39.72057]]},"properties":{}},{"type":"Feature","geometry":{"type":"LineString","coordinates":[[16.31227,39.72175],[16.3112,39.72127],[16.31083,39.72106],[16.31015,39.72057]]},"properties":{}},{"type":"Feature","geometry":{"type":"LineString","coordinates":[[16.31227,39.72175],[16.31244,39.72179],[16.31338,39.72221],[16.31378,39.72235],[16.31472,39.72258],[16.31631,39.72289],[16.31735,39.72321],[16.31966,39.72423]]},"properties":{}},{"type":"Feature","geometry":{"type":"LineString","coordinates":[[16.3144,39.72327],[16.31339,39.72243],[16.313,39.72216],[16.31227,39.72175]]},"properties":{}},{"type":"Feature","geometry":{"type":"LineString","coordinates":[[16.3144,39.72327],[16.31502,39.72329],[16.31657,39.72345],[16.31773,39.72365],[16.31861,39.72386],[16.31966,39.72423]]},"properties":{}},{"type":"Feature","geometry":{"type":"LineString","coordinates":[[16.31458,39.7234],[16.3144,39.72327]]},"properties":{}},{"type":"Feature","geometry":{"type":"LineString","coordinates":[[16.32216,39.72561],[16.32071,39.72487],[16.3198,39.72446],[16.31909,39.72417],[16.31832,39.72394],[16.31753,39.72375],[16.31634,39.72354],[16.31566,39.72347],[16.31458,39.7234]]},"properties":{}},{"type":"Feature","geometry":{"type":"LineString","coordinates":[[16.32216,39.72561],[16.32116,39.72518],[16.32055,39.725],[16.31942,39.72472],[16.31851,39.72459],[16.31769,39.72452],[16.317,39.72441],[16.31612,39.72418],[16.31545,39.72392],[16.31458,39.7234]]},"properties":{}},{"type":"Feature","geometry":{"type":"LineString","coordinates":[[16.31966,39.72423],[16.32298,39.72582],[16.32369,39.72609],[16.32499,39.72651],[16.32579,39.7267],[16.32754,39.72696],[16.32838,39.727],[16.32947,39.72699],[16.33154,39.72688],[16.33485,39.72662],[16.33795,39.72628],[16.35933,39.72355],[16.36081,39.72339],[16.36292,39.72327],[16.36451,39.72325],[16.37388,39.72325],[16.38205,39.72299],[16.38262,39.72301]]},"properties":{}},{"type":"Feature","geometry":{"type":"LineString","coordinates":[[16.38262,39.72301],[16.38198,39.72313],[16.37826,39.72325],[16.37399,39.72335],[16.36312,39.72338],[16.36161,39.72344],[16.36084,39.7235],[16.33795,39.72639],[16.33485,39.72673],[16.33154,39.72699],[16.3292,39.72711],[16.32836,39.7271],[16.32693,39.72701],[16.32562,39.7268],[16.32482,39.72661],[16.32317,39.72608],[16.32216,39.72561]]},"properties":{}},{"type":"Feature","geometry":{"type":"LineString","coordinates":[[16.38262,39.72301],[16.38732,39.72286],[16.38857,39.72286],[16.39033,39.72297],[16.39495,39.7234],[16.39536,39.72339],[16.39616,39.72328],[16.3984,39.72272],[16.39906,39.72262],[16.39974,39.72264],[16.40034,39.72275],[16.40066,39.72286],[16.402,39.72355],[16.40247,39.72368],[16.40377,39.72389],[16.40404,39.72399],[16.40484,39.7244],[16.40508,39.72445],[16.41624,39.72548],[16.4172,39.72556],[16.4184,39.72559],[16.41939,39.72554],[16.422,39.72531],[16.4337,39.72445],[16.43582,39.72426],[16.43718,39.72402],[16.44311,39.72257]]},"properties":{}},{"type":"Feature","geometry":{"type":"LineString","coordinates":[[16.44311,39.72257],[16.44435,39.72233],[16.44547,39.72222],[16.44651,39.72219],[16.44768,39.72227]]},"properties":{}},{"type":"Feature","geometry":{"type":"LineString","coordinates":[[16.44768,39.72227],[16.44738,39.72232],[16.44721,39.72239],[16.44699,39.72255],[16.4462,39.72353],[16.44611,39.72362],[16.44587,39.72373],[16.44566,39.72372],[16.44542,39.7236],[16.44534,39.72347],[16.4453,39.72299],[16.44515,39.7228],[16.44499,39.72269],[16.44433,39.72254],[16.44364,39.72252],[16.44311,39.72257]]},"properties":{}},{"type":"Feature","geometry":{"type":"LineString","coordinates":[[16.44785,39.72227],[16.44768,39.72227]]},"properties":{}},{"type":"Feature","geometry":{"type":"LineString","coordinates":[[16.44821,39.72242],[16.44785,39.72227]]},"properties":{}},{"type":"Feature","geometry":{"type":"LineString","coordinates":[[16.44785,39.72227],[16.44828,39.72225]]},"properties":{}},{"type":"Feature","geometry":{"type":"LineString","coordinates":[[16.44828,39.72249],[16.44821,39.72242]]},"properties":{}},{"type":"Feature","geometry":{"type":"LineString","coordinates":[[16.44821,39.72242],[16.4482,39.72235],[16.44828,39.72225]]},"properties":{}},{"type":"Feature","geometry":{"type":"LineString","coordinates":[[16.44854,39.72245],[16.44839,39.72252],[16.44828,39.72249]]},"properties":{}},{"type":"Feature","geometry":{"type":"LineString","coordinates":[[16.44837,39.72332],[16.44838,39.72273],[16.44828,39.72249]]},"properties":{}},{"type":"Feature","geometry":{"type":"LineString","coordinates":[[16.44828,39.72225],[16.44837,39.72223]]},"properties":{}},{"type":"Feature","geometry":{"type":"LineString","coordinates":[[16.44837,39.72223],[16.44847,39.72225],[16.44857,39.72234]]},"properties":{}},{"type":"Feature","geometry":{"type":"LineString","coordinates":[[16.44837,39.72223],[16.44856,39.72201],[16.44876,39.72152]]},"properties":{}},{"type":"Feature","geometry":{"type":"LineString","coordinates":[[16.44837,39.72332],[16.44828,39.72375],[16.44817,39.72459],[16.44816,39.72486],[16.4482,39.72506],[16.44956,39.72976],[16.45047,39.73272],[16.45293,39.74106],[16.45374,39.74368],[16.45377,39.74418],[16.45365,39.74446],[16.45278,39.74514],[16.4519,39.7456],[16.4518,39.7457],[16.45177,39.7458],[16.45177,39.7459],[16.45182,39.74603],[16.45329,39.74803]]},"properties":{}},{"type":"Feature","geometry":{"type":"LineString","coordinates":[[16.44854,39.72245],[16.44855,39.72255],[16.44837,39.72332]]},"properties":{}},{"type":"Feature","geometry":{"type":"LineString","coordinates":[[16.44857,39.72234],[16.44854,39.72245]]},"properties":{}},{"type":"Feature","geometry":{"type":"LineString","coordinates":[[16.44876,39.72152],[16.44863,39.72227],[16.44857,39.72234]]},"properties":{}},{"type":"Feature","geometry":{"type":"LineString","coordinates":[[16.45017,39.65537],[16.45006,39.65577],[16.45006,39.65611],[16.4505,39.65855],[16.45086,39.65984],[16.45095,39.66032],[16.45104,39.66124],[16.45095,39.66198],[16.45062,39.66295],[16.45069,39.66333],[16.45108,39.66843],[16.45246,39.68791],[16.45264,39.69364],[16.45268,39.69687],[16.45284,39.70225],[16.45279,39.70303],[16.45256,39.70433],[16.44876,39.72152]]},"properties":{}},{"type":"Feature","geometry":{"type":"LineString","coordinates":[[16.45017,39.65537],[16.45016,39.65516],[16.45021,39.65509],[16.45031,39.65509],[16.45085,39.65478],[16.45157,39.65445],[16.45239,39.65412],[16.4528,39.65401]]},"properties":{}},{"type":"Feature","geometry":{"type":"LineString","coordinates":[[16.4528,39.65401],[16.45113,39.65474],[16.45069,39.65496],[16.45037,39.65516],[16.45035,39.65521],[16.45017,39.65537]]},"properties":{}},{"type":"Feature","geometry":{"type":"LineString","coordinates":[[16.48429,39.64367],[16.47044,39.64988],[16.46643,39.65162],[16.46459,39.65203],[16.46023,39.65284],[16.45317,39.65391],[16.4528,39.65401]]},"properties":{}},{"type":"Feature","geometry":{"type":"LineString","coordinates":[[16.45329,39.74803],[16.45454,39.74971],[16.45463,39.74979]]},"properties":{}},{"type":"Feature","geometry":{"type":"LineString","coordinates":[[16.45467,39.74979],[16.45485,39.74977],[16.45611,39.74932],[16.45596,39.74907],[16.45553,39.74922],[16.45545,39.74922],[16.45528,39.74915],[16.45514,39.74897],[16.45482,39.74894],[16.45468,39.74883],[16.45459,39.74868],[16.45457,39.74857],[16.45461,39.7484],[16.45471,39.74821],[16.4546,39.74801],[16.45455,39.74784],[16.45329,39.74803]]},"properties":{}},{"type":"Feature","geometry":{"type":"LineString","coordinates":[[16.4547,39.74985],[16.45462,39.74989]]},"properties":{}},{"type":"Feature","geometry":{"type":"LineString","coordinates":[[16.45475,39.74998],[16.45462,39.74989]]},"properties":{}},{"type":"Feature","geometry":{"type":"LineString","coordinates":[[16.45462,39.74989],[16.45457,39.74984],[16.45463,39.74979]]},"properties":{}},{"type":"Feature","geometry":{"type":"LineString","coordinates":[[16.45463,39.74979],[16.45467,39.74979]]},"properties":{}},{"type":"Feature","geometry":{"type":"LineString","coordinates":[[16.45467,39.74979],[16.4547,39.74985]]},"properties":{}},{"type":"Feature","geometry":{"type":"LineString","coordinates":[[16.4547,39.74985],[16.45475,39.74998]]},"properties":{}},{"type":"Feature","geometry":{"type":"LineString","coordinates":[[16.45475,39.74998],[16.45574,39.75131],[16.45608,39.75165],[16.45835,39.75357],[16.4587,39.75393],[16.46277,39.76118],[16.46411,39.76372]]},"properties":{}},{"type":"Feature","geometry":{"type":"LineString","coordinates":[[16.46395,39.76539],[16.46435,39.7659]]},"properties":{}},{"type":"Feature","geometry":{"type":"LineString","coordinates":[[16.46395,39.76539],[16.46382,39.76532],[16.46351,39.76498],[16.46332,39.76488],[16.46313,39.76484],[16.46289,39.76487],[16.46264,39.76496],[16.46245,39.76515],[16.46238,39.7654],[16.4624,39.76558],[16.46251,39.76577],[16.46284,39.76616],[16.46306,39.76627],[16.46331,39.7663],[16.4637,39.76621],[16.46435,39.7659]]},"properties":{}},{"type":"Feature","geometry":{"type":"LineString","coordinates":[[16.46411,39.76372],[16.464,39.76388],[16.4639,39.76395],[16.46361,39.764],[16.46345,39.76407],[16.46335,39.76419],[16.46331,39.76432],[16.46335,39.7645],[16.46365,39.76494],[16.46367,39.76504],[16.46395,39.76539]]},"properties":{}},{"type":"Feature","geometry":{"type":"LineString","coordinates":[[16.46411,39.76372],[16.46484,39.76505],[16.4649,39.7653],[16.46487,39.76546],[16.46478,39.76562],[16.46464,39.76575],[16.46435,39.7659]]},"properties":{}},{"type":"Feature","geometry":{"type":"LineString","coordinates":[[16.46435,39.7659],[16.46744,39.76971],[16.46775,39.77017],[16.46893,39.7722],[16.47266,39.77893],[16.47299,39.77974],[16.47328,39.7807],[16.47338,39.7811],[16.47346,39.78178],[16.47349,39.78232],[16.47351,39.78304],[16.47274,39.78952],[16.47274,39.79036],[16.47283,39.79126],[16.473,39.79214],[16.47329,39.79297],[16.47363,39.79371],[16.474,39.79436],[16.47539,39.79636],[16.47715,39.79894],[16.47764,39.79971],[16.48042,39.80373],[16.48206,39.80683],[16.48306,39.80876],[16.48344,39.80964],[16.48559,39.81582],[16.48651,39.8184],[16.48712,39.81966],[16.4879,39.82085],[16.48892,39.82204],[16.49062,39.82367],[16.49858,39.83107],[16.5,39.83261]]},"properties":{}},{"type":"Feature","geometry":{"type":"LineString","coordinates":[[16.48429,39.64367],[16.48443,39.64354]]},"properties":{}},{"type":"Feature","geometry":{"type":"LineString","coordinates":[[16.48448,39.64361],[16.48429,39.64367]]},"properties":{}},{"type":"Feature","geometry":{"type":"LineString","coordinates":[[16.48448,39.64361],[16.48443,39.64354]]},"properties":{}},{"type":"Feature","geometry":{"type":"LineString","coordinates":[[16.48443,39.64354],[16.48444,39.64349],[16.48451,39.64345],[16.48462,39.64347]]},"properties":{}},{"type":"Feature","geometry":{"type":"LineString","coordinates":[[16.48466,39.64355],[16.48458,39.64362],[16.48448,39.64361]]},"properties":{}},{"type":"Feature","geometry":{"type":"LineString","coordinates":[[16.48462,39.64347],[16.48466,39.64355]]},"properties":{}},{"type":"Feature","geometry":{"type":"LineString","coordinates":[[16.48462,39.64347],[16.48477,39.64346]]},"properties":{}},{"type":"Feature","geometry":{"type":"LineString","coordinates":[[16.48477,39.64346],[16.48466,39.64355]]},"properties":{}},{"type":"Feature","geometry":{"type":"LineString","coordinates":[[16.5,39.63639],[16.49619,39.63831],[16.48477,39.64346]]},"properties":{}}]}