{"type":"FeatureCollection","features":[{"type":"Feature","geometry":{"type":"LineString","coordinates":[[16.0,40.58783],[16.00095,40.58727],[16.00147,40.5869],[16.00435,40.5846],[16.00469,40.58437],[16.00509,40.58416],[16.00576,40.58392],[16.00635,40.58375],[16.00716,40.58345],[16.00748,40.5833],[16.00825,40.58282],[16.00872,40.58259],[16.0109,40.58206],[16.01314,40.58146],[16.01402,40.58113],[16.01438,40.58093],[16.01502,40.58048],[16.01542,40.58006],[16.01566,40.57976],[16.01584,40.57946],[16.01612,40.57886],[16.01635,40.57764],[16.01644,40.57737],[16.01662,40.57699],[16.01698,40.57658],[16.01748,40.57621],[16.02248,40.57343],[16.02321,40.57306],[16.02485,40.57235],[16.02567,40.57207],[16.02788,40.57122],[16.02826,40.57111],[16.02897,40.57096],[16.03008,40.57083],[16.03132,40.57088],[16.03342,40.57123],[16.03559,40.57148],[16.03638,40.57151],[16.03701,40.57148],[16.0377,40.57139],[16.03843,40.57122],[16.04101,40.57031],[16.04179,40.57008],[16.04251,40.56991],[16.04551,40.56938],[16.04636,40.56921],[16.0479,40.56867],[16.04879,40.5681],[16.04957,40.56753],[16.05188,40.56542],[16.05218,40.56502],[16.05281,40.56367],[16.05303,40.56329],[16.05334,40.56286],[16.06189,40.55222],[16.06241,40.5516],[16.06294,40.55107],[16.06913,40.54667],[16.07049,40.54577],[16.07135,40.5454],[16.07232,40.54512],[16.07301,40.545],[16.07383,40.54496],[16.07665,40.54506],[16.0772,40.54513],[16.0779,40.54526],[16.07861,40.54548],[16.07913,40.54569],[16.07974,40.546],[16.08376,40.54813],[16.08586,40.54938],[16.08631,40.54962],[16.08712,40.54996],[16.08755,40.55009],[16.08876,40.5503],[16.08927,40.55033],[16.09097,40.55031],[16.09175,40.5504],[16.09501,40.55119],[16.09864,40.55211],[16.10011,40.55253],[16.1018,40.55291],[16.10243,40.55309],[16.10317,40.55335],[16.10432,40.55388],[16.10506,40.55431],[16.10549,40.5546],[16.1059,40.55494],[16.10689,40.55552],[16.10854,40.55741],[16.11013,40.56003],[16.1113,40.56315],[16.11195,40.56465],[16.1128,40.56604],[16.11358,40.5672],[16.11387,40.56779],[16.11403,40.56829],[16.11408,40.56864],[16.1141,40.56906],[16.11396,40.57052],[16.11397,40.57084],[16.11405,40.57133],[16.11412,40.57162],[16.11437,40.57216],[16.11455,40.57243],[16.11509,40.57302],[16.11729,40.57483],[16.11775,40.57528],[16.11855,40.57622],[16.11945,40.57747],[16.1198,40.57783],[16.12022,40.57817],[16.12078,40.5785],[16.12109,40.57865],[16.12174,40.57887],[16.12215,40.57896],[16.12275,40.57903],[16.12409,40.57912],[16.1262,40.57911],[16.12779,40.57925],[16.12835,40.57935],[16.12973,40.57972],[16.13042,40.57998],[16.13102,40.58025],[16.13215,40.5809],[16.13267,40.58127],[16.13312,40.58166],[16.13352,40.58206],[16.13533,40.58413],[16.13564,40.58445],[16.13594,40.58473],[16.13626,40.58496],[16.1366,40.58516],[16.13714,40.58539],[16.1398,40.58628],[16.14292,40.58742],[16.14445,40.58811],[16.1499,40.59086],[16.15069,40.59117],[16.15149,40.5914],[16.15433,40.59183],[16.15517,40.59206],[16.15575,40.59228],[16.1565,40.59268],[16.15731,40.59327],[16.15954,40.59558],[16.16005,40.59605],[16.16074,40.59653],[16.16152,40.59692],[16.16221,40.59716],[16.16268,40.59728],[16.16319,40.59737],[16.16841,40.59807],[16.17272,40.59872],[16.17865,40.59998],[16.17957,40.60006],[16.18052,40.60002],[16.18124,40.59992],[16.18193,40.59975],[16.18286,40.5994],[16.18319,40.59923],[16.18622,40.59725],[16.18713,40.59684],[16.18794,40.59658],[16.18837,40.59648],[16.18931,40.59636],[16.19037,40.59638],[16.19406,40.59678],[16.19599,40.59688],[16.20923,40.59702],[16.21665,40.59679],[16.21916,40.59666],[16.22439,40.59647],[16.23523,40.59585],[16.23746,40.59561],[16.24174,40.59481],[16.24432,40.59431],[16.24479,40.59418],[16.24538,40.59396],[16.24585,40.59375],[16.24637,40.59345],[16.24708,40.5929],[16.24861,40.59147],[16.24934,40.59101],[16.25035,40.59053],[16.25309,40.58949],[16.25775,40.58792],[16.25986,40.58716],[16.26071,40.58693],[16.26383,40.58626],[16.26436,40.58618],[16.27313,40.58581],[16.2777,40.58586],[16.28344,40.58585],[16.28429,40.58589],[16.28944,40.58642],[16.29227,40.58688],[16.29848,40.58766],[16.29962,40.58773],[16.30468,40.58786],[16.30552,40.58793],[16.30623,40.58804],[16.30893,40.58862],[16.3098,40.58877],[16.31069,40.58883],[16.31173,40.58882],[16.31268,40.58871],[16.32011,40.58753],[16.32791,40.5864],[16.329,40.58633],[16.33068,40.5863],[16.33194,40.58623],[16.33313,40.58607],[16.3448,40.58371],[16.35109,40.5827],[16.35449,40.58247],[16.35532,40.58238],[16.35667,40.58214],[16.36636,40.57997],[16.36737,40.57973],[16.36821,40.57947],[16.36899,40.57913],[16.36966,40.57875],[16.3758,40.57458],[16.37641,40.57421],[16.37718,40.57381],[16.37827,40.57334],[16.38372,40.57108],[16.3914,40.56702],[16.39283,40.56634],[16.39384,40.56592],[16.39494,40.56552],[16.39887,40.56419],[16.404,40.56223],[16.40881,40.56072],[16.41414,40.55867],[16.42702,40.55417],[16.42764,40.5539],[16.4285,40.55347],[16.4438,40.54533],[16.44684,40.54369],[16.44918,40.54228],[16.44986,40.54177],[16.45038,40.54134],[16.45351,40.53813],[16.45722,40.53386],[16.45778,40.53325],[16.4598,40.53146],[16.46095,40.53034],[16.46403,40.52758],[16.4648,40.52692],[16.46518,40.52664],[16.46653,40.52572],[16.46709,40.52524],[16.4673,40.52501],[16.4676,40.52454],[16.46782,40.52412],[16.46858,40.52253],[16.46911,40.52153],[16.4723,40.51688],[16.47278,40.51623],[16.47355,40.51533],[16.47662,40.51231],[16.47737,40.51152],[16.47839,40.51031],[16.47915,40.50928],[16.48002,40.5079],[16.48034,40.5073],[16.48406,40.5]]},"properties":{}},{"type":"Feature","geometry":{"type":"LineString","coordinates":[[16.48414,40.5],[16.4804,40.50737],[16.48006,40.50797],[16.47936,40.50911],[16.47857,40.51019],[16.47807,40.51082],[16.47732,40.51169],[16.47652,40.51252],[16.47462,40.51438],[16.47395,40.51507],[16.47371,40.51538],[16.47172,40.51831],[16.46985,40.52086],[16.46873,40.52247],[16.46767,40.52456],[16.46745,40.52491],[16.46717,40.52526],[16.46686,40.52555],[16.46644,40.52587],[16.46549,40.52649],[16.46493,40.52691],[16.46194,40.52955],[16.46076,40.53063],[16.46015,40.53125],[16.45826,40.5329],[16.4576,40.53356],[16.45356,40.5382],[16.4505,40.54132],[16.45012,40.54166],[16.44962,40.54205],[16.44896,40.5425],[16.4464,40.54402],[16.4284,40.5536],[16.42748,40.55405],[16.42651,40.55443],[16.41515,40.55838],[16.40943,40.56055],[16.40811,40.56102],[16.40434,40.56219],[16.40368,40.56242],[16.39898,40.56422],[16.39463,40.5657],[16.39372,40.56604],[16.39269,40.56648],[16.39107,40.56727],[16.38447,40.57079],[16.38342,40.5713],[16.37854,40.5733],[16.37725,40.57385],[16.37678,40.57409],[16.37599,40.57454],[16.36962,40.57887],[16.36909,40.57917],[16.36832,40.5795],[16.36742,40.57979],[16.35653,40.58224],[16.35573,40.58239],[16.35463,40.58252],[16.35122,40.58276],[16.34502,40.58374],[16.34254,40.58422],[16.3333,40.58611],[16.33232,40.58625],[16.33128,40.58635],[16.3282,40.58643],[16.32723,40.58655],[16.31817,40.5879],[16.31237,40.58882],[16.31154,40.58889],[16.31068,40.5889],[16.30994,40.58885],[16.30911,40.58872],[16.30628,40.58812],[16.3055,40.58799],[16.30468,40.58792],[16.29892,40.58776],[16.29764,40.58762],[16.29205,40.58693],[16.29105,40.58678],[16.28956,40.58651],[16.2844,40.58597],[16.28353,40.58592],[16.27631,40.58593],[16.27317,40.58588],[16.26458,40.58623],[16.2639,40.58631],[16.2605,40.58705],[16.25936,40.5874],[16.25757,40.58805],[16.25321,40.58952],[16.25119,40.59029],[16.25014,40.59072],[16.24925,40.59117],[16.24857,40.59162],[16.24732,40.59279],[16.24681,40.59324],[16.24628,40.5936],[16.24563,40.59393],[16.2448,40.59425],[16.24409,40.59443],[16.23787,40.59561],[16.23678,40.59577],[16.23486,40.59594],[16.22512,40.59651],[16.21917,40.59673],[16.21648,40.59688],[16.21083,40.59707],[16.20768,40.59709],[16.19588,40.59695],[16.19395,40.59685],[16.19045,40.59646],[16.18936,40.59644],[16.18884,40.59649],[16.18794,40.59666],[16.18748,40.59679],[16.18626,40.59732],[16.18323,40.5993],[16.18287,40.59947],[16.1819,40.59985],[16.18126,40.6],[16.18049,40.60011],[16.17958,40.60014],[16.17895,40.6001],[16.17811,40.59996],[16.17208,40.5987],[16.16839,40.59815],[16.16316,40.59746],[16.16255,40.59734],[16.1617,40.59707],[16.16095,40.59674],[16.16044,40.59644],[16.16,40.59612],[16.15892,40.59507],[16.15725,40.59333],[16.15649,40.59278],[16.15569,40.59236],[16.15477,40.59202],[16.15429,40.59191],[16.15129,40.59145],[16.15048,40.5912],[16.14964,40.59082],[16.14435,40.58816],[16.14285,40.58749],[16.13973,40.58635],[16.13817,40.58585],[16.13684,40.58537],[16.13644,40.58519],[16.1361,40.58499],[16.13578,40.58474],[16.1352,40.58416],[16.13343,40.58213],[16.13298,40.5817],[16.132,40.58094],[16.13153,40.58065],[16.13096,40.58035],[16.13032,40.58006],[16.12965,40.57982],[16.12903,40.57963],[16.12833,40.57946],[16.12723,40.57928],[16.12678,40.57924],[16.12622,40.57922],[16.12341,40.57923],[16.12268,40.57915],[16.12169,40.57898],[16.12104,40.57876],[16.12073,40.5786],[16.12015,40.57827],[16.11958,40.57781],[16.11918,40.57735],[16.11842,40.57628],[16.11801,40.57576],[16.11759,40.57528],[16.11715,40.57487],[16.11497,40.57306],[16.1144,40.57247],[16.11422,40.57222],[16.11405,40.57192],[16.11394,40.57163],[16.11376,40.57098],[16.11374,40.57059],[16.11382,40.56906],[16.11381,40.56828],[16.11367,40.56776],[16.11348,40.56736],[16.1131,40.56678],[16.11246,40.56607],[16.11135,40.5647],[16.11009,40.56243],[16.10974,40.56184],[16.10937,40.56134],[16.10476,40.55506],[16.1043,40.55453],[16.10373,40.55406],[16.10299,40.55365],[16.10221,40.55338],[16.10098,40.55309],[16.0988,40.55269],[16.09793,40.55244],[16.09557,40.55161],[16.09282,40.55091],[16.09203,40.55074],[16.09125,40.55063],[16.0887,40.55058],[16.08814,40.55049],[16.08746,40.55033],[16.08686,40.55015],[16.08644,40.54997],[16.07969,40.54621],[16.07861,40.54573],[16.07795,40.54552],[16.07716,40.54531],[16.07602,40.54516],[16.07552,40.54509],[16.07401,40.54505],[16.07338,40.54506],[16.07274,40.54513],[16.07179,40.54535],[16.07071,40.54577],[16.07039,40.54594],[16.06432,40.5502],[16.06373,40.55066],[16.06146,40.55314],[16.05982,40.55499],[16.05336,40.563],[16.05309,40.56338],[16.05226,40.56515],[16.05187,40.5657],[16.0511,40.56646],[16.04968,40.56771],[16.0489,40.56824],[16.04795,40.5688],[16.04623,40.56937],[16.04333,40.56991],[16.04184,40.57026],[16.04104,40.57049],[16.03898,40.5712],[16.03821,40.57143],[16.03718,40.57163],[16.03607,40.57169],[16.03495,40.57163],[16.03141,40.57114],[16.0307,40.57106],[16.03007,40.57104],[16.02923,40.57114],[16.02851,40.57131],[16.02498,40.57249],[16.02369,40.57296],[16.02282,40.57337],[16.02202,40.5738],[16.01763,40.57625],[16.01713,40.5766],[16.01677,40.57698],[16.01652,40.5775],[16.01645,40.57766],[16.01623,40.57888],[16.01593,40.57953],[16.01569,40.57989],[16.0152,40.58046],[16.0146,40.58107],[16.01436,40.58125],[16.0138,40.58153],[16.01329,40.58168],[16.01151,40.58201],[16.01027,40.58233],[16.00879,40.58289],[16.0072,40.58361],[16.00542,40.58414],[16.0051,40.58427],[16.00469,40.58449],[16.00436,40.58473],[16.00162,40.58694],[16.00088,40.58744],[16.0,40.58797]]},"properties":{}},{"type":"Feature","geometry":{"type":"LineString","coordinates":[[16.46892,40.65362],[16.46917,40.65446],[16.4693,40.65455],[16.4697,40.65461],[16.47021,40.65459],[16.47037,40.65465],[16.47089,40.65494],[16.47125,40.65524],[16.47223,40.65561],[16.47253,40.65581],[16.47309,40.65629],[16.47366,40.65658],[16.4739,40.65675],[16.47431,40.65717],[16.47457,40.65732],[16.47513,40.65744],[16.47646,40.65761],[16.47756,40.6576],[16.47797,40.65764],[16.47837,40.65778],[16.47911,40.65812],[16.48133,40.65858],[16.48152,40.65859],[16.48197,40.65848],[16.48208,40.65849],[16.48228,40.65859],[16.48233,40.65867],[16.48235,40.65879],[16.48233,40.65888],[16.48192,40.65945],[16.48167,40.65968],[16.48091,40.66001],[16.48079,40.66011],[16.48074,40.66021],[16.48074,40.66042],[16.48192,40.66186],[16.48326,40.6634],[16.48346,40.66359],[16.48381,40.66381],[16.48417,40.66411],[16.48503,40.6649],[16.48523,40.66514],[16.48543,40.66562],[16.4856,40.66593],[16.48642,40.66712],[16.48679,40.66741],[16.48748,40.66776]]},"properties":{}},{"type":"Feature","geometry":{"type":"LineString","coordinates":[[16.48656,40.71048],[16.48563,40.71153],[16.48482,40.71221],[16.48274,40.71427],[16.48161,40.71423],[16.4814,40.71419],[16.48121,40.7141],[16.47894,40.71265],[16.47864,40.71231],[16.47752,40.71063],[16.47733,40.71038],[16.47702,40.71009],[16.47596,40.70938],[16.47582,40.70934],[16.4752,40.70934],[16.47456,40.70925],[16.47429,40.70919],[16.47421,40.70911],[16.47419,40.70899],[16.47426,40.7089],[16.47513,40.70846],[16.47538,40.70824],[16.47538,40.70813],[16.47525,40.70806],[16.47502,40.70804],[16.474,40.70807],[16.47379,40.70805],[16.47361,40.70794],[16.47306,40.70737],[16.47301,40.70728],[16.47303,40.70716],[16.47314,40.70707],[16.47345,40.70711],[16.47368,40.70725],[16.47392,40.70745],[16.47403,40.70749],[16.47419,40.70747],[16.4743,40.7074],[16.47435,40.70731],[16.47413,40.70693],[16.4741,40.70675],[16.47417,40.70633],[16.47435,40.70599],[16.47589,40.70506],[16.47597,40.70492],[16.47596,40.70482],[16.47589,40.70472],[16.47574,40.70468],[16.47553,40.70469],[16.47493,40.70485],[16.47418,40.70481],[16.47368,40.70473],[16.47294,40.70451],[16.47236,40.70445],[16.47136,40.70444],[16.47123,40.70439],[16.47115,40.70433],[16.47114,40.7042],[16.47118,40.70411],[16.47139,40.70402],[16.47196,40.70388],[16.47226,40.70376],[16.4725,40.70362],[16.47306,40.7032],[16.47346,40.70288],[16.47353,40.70276],[16.47352,40.70262],[16.47347,40.70254]]},"properties":{}},{"type":"Feature","geometry":{"type":"LineString","coordinates":[[16.47347,40.70254],[16.47326,40.70246],[16.47312,40.70248],[16.47173,40.70307],[16.47132,40.7032],[16.47104,40.70328],[16.46997,40.70347],[16.46898,40.70375],[16.46842,40.70386],[16.46681,40.70394],[16.46579,40.70403],[16.46455,40.70408],[16.464,40.704],[16.46347,40.70386],[16.46006,40.70255],[16.45925,40.70242],[16.45688,40.7021],[16.45653,40.7021],[16.45591,40.70218],[16.45568,40.70211],[16.45562,40.70201],[16.45566,40.70191],[16.45591,40.70164],[16.45695,40.70066],[16.45724,40.70041],[16.45764,40.70028],[16.4582,40.70019],[16.4583,40.70014],[16.45835,40.70006],[16.45836,40.69996],[16.45576,40.69752],[16.45565,40.69733],[16.45568,40.69708],[16.45591,40.69664],[16.45595,40.69649],[16.45595,40.6963],[16.45571,40.69545],[16.45573,40.69529],[16.45587,40.6951],[16.45603,40.69501],[16.45732,40.69463],[16.45774,40.69444],[16.45797,40.69421],[16.45829,40.69377],[16.4598,40.69191],[16.46046,40.69102],[16.46125,40.68952],[16.46142,40.68882],[16.46188,40.68609],[16.46186,40.68578],[16.4617,40.68531],[16.45966,40.68171],[16.45952,40.68138],[16.45899,40.67681],[16.45929,40.67443],[16.46044,40.67417],[16.4648,40.67368],[16.46519,40.67375],[16.46579,40.67394],[16.47014,40.67554],[16.47035,40.67556],[16.4706,40.67553],[16.47081,40.67543],[16.47107,40.67521],[16.4717,40.67455],[16.4735,40.67307],[16.47382,40.67299],[16.47413,40.67298],[16.47568,40.67341],[16.47595,40.67341],[16.47629,40.67329],[16.47933,40.67164],[16.48748,40.66776]]},"properties":{}},{"type":"Feature","geometry":{"type":"LineString","coordinates":[[16.47347,40.70254],[16.47369,40.7024],[16.47422,40.70188],[16.47392,40.70075],[16.47388,40.70045],[16.47453,40.69912],[16.47521,40.69868],[16.47612,40.69789],[16.47638,40.69742],[16.47645,40.69722],[16.4764,40.69712],[16.47626,40.6971],[16.47617,40.69714],[16.476,40.69735],[16.47583,40.69749],[16.47534,40.69761],[16.47501,40.69784],[16.47457,40.69803],[16.47394,40.69818],[16.47362,40.69809]]},"properties":{}},{"type":"Feature","geometry":{"type":"LineString","coordinates":[[16.47362,40.69809],[16.47332,40.698],[16.47338,40.69792],[16.47347,40.69791],[16.47362,40.69809]]},"properties":{}},{"type":"Feature","geometry":{"type":"LineString","coordinates":[[16.48889,40.70849],[16.4885,40.70848],[16.48818,40.70856],[16.48798,40.70865],[16.48743,40.70902],[16.48703,40.70961],[16.48683,40.70974],[16.48662,40.70978],[16.48621,40.71033],[16.48656,40.71048]]},"properties":{}},{"type":"Feature","geometry":{"type":"LineString","coordinates":[[16.48889,40.70849],[16.48717,40.70991],[16.48656,40.71048]]},"properties":{}},{"type":"Feature","geometry":{"type":"LineString","coordinates":[[16.48748,40.66776],[16.49042,40.66641],[16.49092,40.66624],[16.49884,40.66397],[16.5,40.66377]]},"properties":{}},{"type":"Feature","geometry":{"type":"LineString","coordinates":[[16.5,40.70139],[16.49754,40.70309],[16.4913,40.70732],[16.49054,40.70775],[16.48972,40.70802],[16.48913,40.7083],[16.48889,40.70849]]},"properties":{}}]}