{"type":"FeatureCollection","features":[{"type":"Feature","geometry":{"type":"LineString","coordinates":[[16.5,38.91029],[16.50277,38.90904],[16.50448,38.90818],[16.50557,38.90744],[16.50943,38.90462],[16.51044,38.90395],[16.51103,38.90363],[16.5116,38.90334],[16.51395,38.9023],[16.51938,38.89975],[16.52045,38.89927],[16.52132,38.89892],[16.522,38.8987],[16.52346,38.89835],[16.52716,38.89761],[16.52911,38.89728],[16.53121,38.89708],[16.5362,38.89687],[16.53701,38.89679],[16.53812,38.89657],[16.53901,38.89632],[16.54062,38.89569],[16.5446,38.89377],[16.54558,38.89338],[16.54671,38.89308],[16.54763,38.89293],[16.54888,38.89287],[16.54953,38.8929],[16.55032,38.89299],[16.55091,38.8931],[16.55221,38.89347],[16.55551,38.89491],[16.55651,38.89524],[16.5576,38.8955],[16.56151,38.89611],[16.56228,38.89625],[16.56292,38.89641],[16.56425,38.89684],[16.56494,38.89714],[16.56622,38.89783],[16.56698,38.8983],[16.56735,38.89847],[16.56789,38.89863],[16.56844,38.89872],[16.57241,38.89908],[16.57321,38.89907],[16.5752,38.89893],[16.57551,38.89894],[16.57574,38.89899],[16.57612,38.89914],[16.57988,38.90121],[16.58155,38.90185],[16.58478,38.903],[16.58509,38.90302],[16.58531,38.90299],[16.58564,38.90285],[16.58594,38.90263],[16.58611,38.90238],[16.58677,38.90108],[16.587,38.90074],[16.58719,38.90053],[16.58797,38.90006]]},"properties":{}},{"type":"Feature","geometry":{"type":"LineString","coordinates":[[16.5847,38.90348],[16.5752,38.89966],[16.5749,38.89957],[16.57423,38.89942],[16.57287,38.89921],[16.56846,38.8988],[16.56783,38.8987],[16.56744,38.89858],[16.56704,38.89842],[16.56611,38.89787],[16.56489,38.89722],[16.56336,38.89662],[16.56277,38.89645],[16.56223,38.89632],[16.55747,38.89555],[16.55612,38.89523],[16.55447,38.89458],[16.55246,38.89365],[16.55132,38.89327],[16.55039,38.89307],[16.54953,38.89297],[16.54888,38.89294],[16.54813,38.89297],[16.5474,38.89303],[16.54673,38.89315],[16.54555,38.89347],[16.54461,38.89385],[16.54056,38.89581],[16.53959,38.89621],[16.53891,38.89643],[16.53761,38.89677],[16.53697,38.89688],[16.53607,38.89697],[16.53477,38.89705],[16.53248,38.8971],[16.53103,38.89717],[16.52907,38.89737],[16.52721,38.89769],[16.52279,38.89858],[16.52131,38.89901],[16.52003,38.89955],[16.51459,38.90211],[16.51164,38.90342],[16.51108,38.90371],[16.51048,38.90404],[16.50987,38.90442],[16.50562,38.90752],[16.5045,38.90827],[16.50397,38.90856],[16.50279,38.90913],[16.5,38.91038]]},"properties":{}},{"type":"Feature","geometry":{"type":"LineString","coordinates":[[16.58797,38.90006],[16.58731,38.90056],[16.58711,38.90075],[16.587,38.90094],[16.58692,38.90122],[16.58676,38.90245],[16.58667,38.9028],[16.5865,38.90303],[16.58629,38.90323],[16.58588,38.90346],[16.58536,38.90358],[16.58496,38.90354]]},"properties":{}},{"type":"Feature","geometry":{"type":"LineString","coordinates":[[16.596,38.8926],[16.59581,38.89376],[16.5957,38.89404],[16.59553,38.89429],[16.59536,38.89468],[16.5953,38.89471],[16.59493,38.89473],[16.59411,38.89504],[16.59308,38.89552],[16.59275,38.89575],[16.5924,38.89609],[16.59084,38.89804],[16.59017,38.89868],[16.58797,38.90006]]},"properties":{}},{"type":"Feature","geometry":{"type":"LineString","coordinates":[[16.59515,38.89458],[16.59524,38.89452]]},"properties":{}},{"type":"Feature","geometry":{"type":"LineString","coordinates":[[16.59619,38.89227],[16.59585,38.89222]]},"properties":{}},{"type":"Feature","geometry":{"type":"LineString","coordinates":[[16.596,38.8926],[16.59596,38.89236],[16.59585,38.89222]]},"properties":{}},{"type":"Feature","geometry":{"type":"LineString","coordinates":[[16.59585,38.89222],[16.59576,38.89204],[16.5958,38.8917],[16.59588,38.89153],[16.59597,38.89146]]},"properties":{}},{"type":"Feature","geometry":{"type":"LineString","coordinates":[[16.59597,38.89146],[16.5961,38.89124],[16.59612,38.89113],[16.59634,38.89148]]},"properties":{}},{"type":"Feature","geometry":{"type":"LineString","coordinates":[[16.59597,38.89146],[16.59621,38.89143],[16.59634,38.89148]]},"properties":{}},{"type":"Feature","geometry":{"type":"LineString","coordinates":[[16.59619,38.89227],[16.596,38.8926]]},"properties":{}},{"type":"Feature","geometry":{"type":"LineString","coordinates":[[16.59634,38.89148],[16.59647,38.89163],[16.59645,38.89199],[16.59638,38.89217],[16.59619,38.89227]]},"properties":{}},{"type":"Feature","geometry":{"type":"LineString","coordinates":[[16.59948,38.88234],[16.5991,38.88307]]},"properties":{}},{"type":"Feature","geometry":{"type":"LineString","coordinates":[[16.59945,38.88228],[16.59948,38.88234]]},"properties":{}},{"type":"Feature","geometry":{"type":"LineString","coordinates":[[16.60383,38.88021],[16.60144,38.88023],[16.60105,38.88027],[16.60066,38.8804],[16.60025,38.88066],[16.59998,38.88104],[16.59953,38.88207],[16.59948,38.88234]]},"properties":{}},{"type":"Feature","geometry":{"type":"LineString","coordinates":[[16.60456,38.87933],[16.6047,38.87979],[16.60469,38.88017],[16.60445,38.88031],[16.60438,38.88032],[16.6042,38.88031],[16.60383,38.88021]]},"properties":{}},{"type":"Feature","geometry":{"type":"LineString","coordinates":[[16.60383,38.88021],[16.60417,38.88011],[16.60442,38.8799],[16.60459,38.87961],[16.60456,38.87933]]},"properties":{}},{"type":"Feature","geometry":{"type":"LineString","coordinates":[[16.60725,38.86897],[16.60605,38.87117],[16.60557,38.87198],[16.60517,38.87277],[16.60414,38.87605],[16.6041,38.87628],[16.60406,38.87718],[16.60415,38.87817],[16.60428,38.87864],[16.60456,38.87933]]},"properties":{}},{"type":"Feature","geometry":{"type":"LineString","coordinates":[[16.60725,38.86897],[16.60735,38.86863]]},"properties":{}},{"type":"Feature","geometry":{"type":"LineString","coordinates":[[16.60752,38.86869],[16.60738,38.8688],[16.60725,38.86897]]},"properties":{}},{"type":"Feature","geometry":{"type":"LineString","coordinates":[[16.60752,38.86869],[16.60742,38.86869],[16.60735,38.86863]]},"properties":{}},{"type":"Feature","geometry":{"type":"LineString","coordinates":[[16.60735,38.86863],[16.60734,38.86856],[16.60741,38.8685],[16.60756,38.86851]]},"properties":{}},{"type":"Feature","geometry":{"type":"LineString","coordinates":[[16.60755,38.86868],[16.60752,38.86869]]},"properties":{}},{"type":"Feature","geometry":{"type":"LineString","coordinates":[[16.60756,38.86851],[16.60761,38.8686],[16.60755,38.86868]]},"properties":{}},{"type":"Feature","geometry":{"type":"LineString","coordinates":[[16.60797,38.86869],[16.6078,38.86866],[16.60755,38.86868]]},"properties":{}},{"type":"Feature","geometry":{"type":"LineString","coordinates":[[16.60756,38.86851],[16.60797,38.86869]]},"properties":{}},{"type":"Feature","geometry":{"type":"LineString","coordinates":[[16.60797,38.86869],[16.60928,38.86915],[16.6101,38.86918],[16.61181,38.86899],[16.61389,38.86872],[16.6148,38.86855],[16.61531,38.86834],[16.61589,38.868],[16.61781,38.86673],[16.61819,38.86657],[16.61863,38.86646],[16.61901,38.8664],[16.62073,38.86625],[16.62342,38.86591],[16.62841,38.86525],[16.62942,38.86508],[16.62988,38.86493],[16.63025,38.86474],[16.63058,38.86449],[16.63093,38.86412],[16.63116,38.86379],[16.63136,38.86339],[16.63151,38.86283]]},"properties":{}},{"type":"Feature","geometry":{"type":"LineString","coordinates":[[16.63024,38.85735],[16.6301,38.85764],[16.63002,38.85791],[16.63003,38.85826],[16.6301,38.85859],[16.63053,38.8595],[16.6314,38.86205],[16.63156,38.86228]]},"properties":{}},{"type":"Feature","geometry":{"type":"LineString","coordinates":[[16.6314,38.86233],[16.63043,38.85947],[16.63003,38.85858],[16.62996,38.8583],[16.62997,38.85779],[16.63009,38.8575],[16.63024,38.85735]]},"properties":{}},{"type":"Feature","geometry":{"type":"LineString","coordinates":[[16.63024,38.85735],[16.63182,38.85553],[16.6322,38.8552],[16.63248,38.85501],[16.63487,38.85363],[16.63683,38.85266]]},"properties":{}},{"type":"Feature","geometry":{"type":"LineString","coordinates":[[16.63148,38.86254],[16.63137,38.86245],[16.6314,38.86233]]},"properties":{}},{"type":"Feature","geometry":{"type":"LineString","coordinates":[[16.6314,38.86233],[16.63156,38.86228]]},"properties":{}},{"type":"Feature","geometry":{"type":"LineString","coordinates":[[16.63159,38.86253],[16.63148,38.86254]]},"properties":{}},{"type":"Feature","geometry":{"type":"LineString","coordinates":[[16.63151,38.86283],[16.63148,38.86254]]},"properties":{}},{"type":"Feature","geometry":{"type":"LineString","coordinates":[[16.63159,38.86253],[16.63151,38.86283]]},"properties":{}},{"type":"Feature","geometry":{"type":"LineString","coordinates":[[16.63156,38.86228],[16.63164,38.86232],[16.6317,38.86241],[16.63167,38.86248],[16.63159,38.86253]]},"properties":{}},{"type":"Feature","geometry":{"type":"LineString","coordinates":[[16.63683,38.85266],[16.63698,38.85241]]},"properties":{}},{"type":"Feature","geometry":{"type":"LineString","coordinates":[[16.63713,38.85248],[16.63683,38.85266]]},"properties":{}},{"type":"Feature","geometry":{"type":"LineString","coordinates":[[16.63713,38.85248],[16.63702,38.85246],[16.63698,38.85241]]},"properties":{}},{"type":"Feature","geometry":{"type":"LineString","coordinates":[[16.63698,38.85241],[16.63699,38.85234],[16.63704,38.8523],[16.63711,38.85229],[16.6372,38.85232]]},"properties":{}},{"type":"Feature","geometry":{"type":"LineString","coordinates":[[16.63721,38.85243],[16.63713,38.85248]]},"properties":{}},{"type":"Feature","geometry":{"type":"LineString","coordinates":[[16.6372,38.85232],[16.63736,38.85234],[16.63758,38.85228]]},"properties":{}},{"type":"Feature","geometry":{"type":"LineString","coordinates":[[16.6372,38.85232],[16.63723,38.85238],[16.63721,38.85243]]},"properties":{}},{"type":"Feature","geometry":{"type":"LineString","coordinates":[[16.63758,38.85228],[16.63745,38.85237],[16.63721,38.85243]]},"properties":{}},{"type":"Feature","geometry":{"type":"LineString","coordinates":[[16.63758,38.85228],[16.64565,38.84835],[16.64614,38.84806],[16.64708,38.84738],[16.64736,38.84712],[16.64753,38.84688],[16.64879,38.84446],[16.64895,38.84393]]},"properties":{}},{"type":"Feature","geometry":{"type":"LineString","coordinates":[[16.64895,38.84393],[16.64903,38.84325]]},"properties":{}},{"type":"Feature","geometry":{"type":"LineString","coordinates":[[16.64943,38.84346],[16.64921,38.84352],[16.64907,38.84367],[16.64895,38.84393]]},"properties":{}},{"type":"Feature","geometry":{"type":"LineString","coordinates":[[16.64943,38.84346],[16.64919,38.8434],[16.64903,38.84325]]},"properties":{}},{"type":"Feature","geometry":{"type":"LineString","coordinates":[[16.64903,38.84325],[16.649,38.84309],[16.64908,38.84292],[16.64928,38.84281],[16.6494,38.84279],[16.64959,38.84282]]},"properties":{}},{"type":"Feature","geometry":{"type":"LineString","coordinates":[[16.64973,38.84336],[16.64954,38.84344],[16.64943,38.84346]]},"properties":{}},{"type":"Feature","geometry":{"type":"LineString","coordinates":[[16.64959,38.84282],[16.64982,38.84286],[16.65017,38.84298],[16.65065,38.84321],[16.65071,38.84327]]},"properties":{}},{"type":"Feature","geometry":{"type":"LineString","coordinates":[[16.64959,38.84282],[16.64979,38.84296],[16.64984,38.84306],[16.64985,38.84317],[16.64981,38.84327],[16.64973,38.84336]]},"properties":{}},{"type":"Feature","geometry":{"type":"LineString","coordinates":[[16.65071,38.84327],[16.6502,38.84311],[16.64991,38.8432],[16.64973,38.84336]]},"properties":{}},{"type":"Feature","geometry":{"type":"LineString","coordinates":[[16.65071,38.84327],[16.65537,38.84557],[16.65766,38.84666],[16.66185,38.84875],[16.6623,38.84903],[16.66389,38.8502],[16.66413,38.85043],[16.66477,38.85122],[16.66514,38.85154],[16.66582,38.85197],[16.66905,38.85378],[16.67024,38.85447],[16.67072,38.85481],[16.67437,38.85773],[16.67455,38.85794]]},"properties":{}},{"type":"Feature","geometry":{"type":"LineString","coordinates":[[16.67455,38.85794],[16.67471,38.85811],[16.67486,38.85818]]},"properties":{}},{"type":"Feature","geometry":{"type":"LineString","coordinates":[[16.67463,38.85823],[16.67455,38.85794]]},"properties":{}},{"type":"Feature","geometry":{"type":"LineString","coordinates":[[16.67491,38.85852],[16.67478,38.85854],[16.67462,38.85846],[16.67457,38.85833],[16.67463,38.85823]]},"properties":{}},{"type":"Feature","geometry":{"type":"LineString","coordinates":[[16.67463,38.85823],[16.67473,38.85818],[16.67486,38.85818]]},"properties":{}},{"type":"Feature","geometry":{"type":"LineString","coordinates":[[16.67486,38.85818],[16.67501,38.85826]]},"properties":{}},{"type":"Feature","geometry":{"type":"LineString","coordinates":[[16.67501,38.85826],[16.67503,38.8584],[16.67491,38.85852]]},"properties":{}},{"type":"Feature","geometry":{"type":"LineString","coordinates":[[16.67531,38.85856],[16.67508,38.8585],[16.67491,38.85852]]},"properties":{}},{"type":"Feature","geometry":{"type":"LineString","coordinates":[[16.67501,38.85826],[16.67508,38.8584],[16.67531,38.85856]]},"properties":{}},{"type":"Feature","geometry":{"type":"LineString","coordinates":[[16.67531,38.85856],[16.67548,38.85863],[16.67567,38.85876],[16.68624,38.86725],[16.68693,38.86769],[16.69966,38.8739],[16.70321,38.87591],[16.70457,38.87671],[16.70651,38.8779],[16.70681,38.87814],[16.70709,38.87848],[16.70963,38.88277],[16.70989,38.88327],[16.71013,38.8836],[16.71034,38.88382],[16.71066,38.88405],[16.71256,38.88498]]},"properties":{}},{"type":"Feature","geometry":{"type":"LineString","coordinates":[[16.71256,38.88498],[16.71285,38.8851]]},"properties":{}},{"type":"Feature","geometry":{"type":"LineString","coordinates":[[16.71274,38.88518],[16.71256,38.88498]]},"properties":{}},{"type":"Feature","geometry":{"type":"LineString","coordinates":[[16.71292,38.88537],[16.71284,38.88536],[16.71275,38.8853],[16.71274,38.88518]]},"properties":{}},{"type":"Feature","geometry":{"type":"LineString","coordinates":[[16.71274,38.88518],[16.71285,38.8851]]},"properties":{}},{"type":"Feature","geometry":{"type":"LineString","coordinates":[[16.71285,38.8851],[16.71294,38.88509],[16.71303,38.88513],[16.71308,38.88521],[16.71307,38.88529]]},"properties":{}},{"type":"Feature","geometry":{"type":"LineString","coordinates":[[16.71319,38.88555],[16.71292,38.88537]]},"properties":{}},{"type":"Feature","geometry":{"type":"LineString","coordinates":[[16.71307,38.88529],[16.71292,38.88537]]},"properties":{}},{"type":"Feature","geometry":{"type":"LineString","coordinates":[[16.71307,38.88529],[16.71319,38.88555]]},"properties":{}},{"type":"Feature","geometry":{"type":"LineString","coordinates":[[16.71319,38.88555],[16.71423,38.88667],[16.71477,38.88718],[16.72223,38.89245],[16.72316,38.893],[16.7237,38.89325],[16.72482,38.89369],[16.73334,38.89754]]},"properties":{}},{"type":"Feature","geometry":{"type":"LineString","coordinates":[[16.73334,38.89754],[16.73451,38.89795]]},"properties":{}},{"type":"Feature","geometry":{"type":"LineString","coordinates":[[16.73438,38.8981],[16.73431,38.89801],[16.73334,38.89754]]},"properties":{}},{"type":"Feature","geometry":{"type":"LineString","coordinates":[[16.73469,38.89821],[16.73452,38.89824],[16.73442,38.89818],[16.73438,38.8981]]},"properties":{}},{"type":"Feature","geometry":{"type":"LineString","coordinates":[[16.73438,38.8981],[16.73441,38.89801],[16.73451,38.89795]]},"properties":{}},{"type":"Feature","geometry":{"type":"LineString","coordinates":[[16.73451,38.89795],[16.73463,38.89795],[16.73472,38.898]]},"properties":{}},{"type":"Feature","geometry":{"type":"LineString","coordinates":[[16.73472,38.898],[16.73476,38.89813],[16.73469,38.89821]]},"properties":{}},{"type":"Feature","geometry":{"type":"LineString","coordinates":[[16.73598,38.89823],[16.73469,38.89821]]},"properties":{}},{"type":"Feature","geometry":{"type":"LineString","coordinates":[[16.73472,38.898],[16.73598,38.89823]]},"properties":{}},{"type":"Feature","geometry":{"type":"LineString","coordinates":[[16.73598,38.89823],[16.7413,38.89838],[16.74188,38.89846],[16.7478,38.89968]]},"properties":{}},{"type":"Feature","geometry":{"type":"LineString","coordinates":[[16.7478,38.89968],[16.74828,38.89973],[16.74872,38.89964]]},"properties":{}},{"type":"Feature","geometry":{"type":"LineString","coordinates":[[16.74866,38.89992],[16.7478,38.89968]]},"properties":{}},{"type":"Feature","geometry":{"type":"LineString","coordinates":[[16.74921,38.90007],[16.74893,38.90011],[16.74875,38.90003],[16.74866,38.89992]]},"properties":{}},{"type":"Feature","geometry":{"type":"LineString","coordinates":[[16.74866,38.89992],[16.74864,38.89982],[16.74866,38.89973],[16.74872,38.89964]]},"properties":{}},{"type":"Feature","geometry":{"type":"LineString","coordinates":[[16.74872,38.89964],[16.74893,38.89954],[16.74916,38.89956],[16.74934,38.89967],[16.74939,38.8998]]},"properties":{}},{"type":"Feature","geometry":{"type":"LineString","coordinates":[[16.75006,38.90014],[16.74921,38.90007]]},"properties":{}},{"type":"Feature","geometry":{"type":"LineString","coordinates":[[16.74939,38.8998],[16.74935,38.89996],[16.74921,38.90007]]},"properties":{}},{"type":"Feature","geometry":{"type":"LineString","coordinates":[[16.74939,38.8998],[16.74953,38.89993],[16.74978,38.90005],[16.75006,38.90014]]},"properties":{}},{"type":"Feature","geometry":{"type":"LineString","coordinates":[[16.75006,38.90014],[16.75211,38.90058],[16.75282,38.90078],[16.75626,38.90243],[16.7777,38.91241],[16.78217,38.91381],[16.78493,38.91501],[16.78718,38.91604],[16.78866,38.91665],[16.80294,38.92162]]},"properties":{}},{"type":"Feature","geometry":{"type":"LineString","coordinates":[[16.80294,38.92162],[16.80334,38.9217]]},"properties":{}},{"type":"Feature","geometry":{"type":"LineString","coordinates":[[16.80328,38.9218],[16.80294,38.92162]]},"properties":{}},{"type":"Feature","geometry":{"type":"LineString","coordinates":[[16.8036,38.92193],[16.80341,38.92196],[16.80331,38.92189],[16.80328,38.9218]]},"properties":{}},{"type":"Feature","geometry":{"type":"LineString","coordinates":[[16.80328,38.9218],[16.80334,38.9217]]},"properties":{}},{"type":"Feature","geometry":{"type":"LineString","coordinates":[[16.80334,38.9217],[16.80346,38.92166],[16.80357,38.92168],[16.80364,38.92173],[16.80367,38.92179]]},"properties":{}},{"type":"Feature","geometry":{"type":"LineString","coordinates":[[16.80397,38.92198],[16.8036,38.92193]]},"properties":{}},{"type":"Feature","geometry":{"type":"LineString","coordinates":[[16.80367,38.92179],[16.80366,38.92187],[16.8036,38.92193]]},"properties":{}},{"type":"Feature","geometry":{"type":"LineString","coordinates":[[16.80367,38.92179],[16.80397,38.92198]]},"properties":{}},{"type":"Feature","geometry":{"type":"LineString","coordinates":[[16.80397,38.92198],[16.80985,38.92406],[16.81088,38.92437],[16.82335,38.92686],[16.84973,38.93326],[16.8569,38.93517],[16.85805,38.93563],[16.85867,38.93579],[16.86942,38.93796],[16.8892,38.9421],[16.8898,38.94217],[16.90249,38.94322],[16.90297,38.94324],[16.90949,38.94317],[16.9102,38.9432],[16.91138,38.9434],[16.91562,38.94447],[16.91619,38.94458],[16.91689,38.94459],[16.91892,38.94439],[16.92309,38.94441],[16.92477,38.94464],[16.92954,38.94542],[16.92992,38.94545],[16.93032,38.94543]]},"properties":{}},{"type":"Feature","geometry":{"type":"LineString","coordinates":[[16.93078,38.9455],[16.93032,38.94543]]},"properties":{}},{"type":"Feature","geometry":{"type":"LineString","coordinates":[[16.93032,38.94543],[16.93053,38.94536],[16.93068,38.94527]]},"properties":{}},{"type":"Feature","geometry":{"type":"LineString","coordinates":[[16.93078,38.9455],[16.93069,38.94535],[16.93068,38.94527]]},"properties":{}},{"type":"Feature","geometry":{"type":"LineString","coordinates":[[16.93068,38.94527],[16.93075,38.94512],[16.93081,38.94506],[16.93101,38.94498],[16.93113,38.94498],[16.93135,38.94505],[16.93142,38.94511],[16.93149,38.94528]]},"properties":{}},{"type":"Feature","geometry":{"type":"LineString","coordinates":[[16.93125,38.94558],[16.931,38.9456],[16.93078,38.9455]]},"properties":{}},{"type":"Feature","geometry":{"type":"LineString","coordinates":[[16.93149,38.94528],[16.93143,38.94546],[16.93125,38.94558]]},"properties":{}},{"type":"Feature","geometry":{"type":"LineString","coordinates":[[16.93169,38.94563],[16.93147,38.94557],[16.93125,38.94558]]},"properties":{}},{"type":"Feature","geometry":{"type":"LineString","coordinates":[[16.93149,38.94528],[16.93157,38.9455],[16.93169,38.94563]]},"properties":{}},{"type":"Feature","geometry":{"type":"LineString","coordinates":[[16.93169,38.94563],[16.93211,38.94578],[16.93263,38.94588],[16.93642,38.94645],[16.94344,38.9468],[16.94419,38.9469],[16.94447,38.94689]]},"properties":{}},{"type":"Feature","geometry":{"type":"LineString","coordinates":[[16.94479,38.94701],[16.94468,38.94711],[16.94452,38.9471],[16.94443,38.947],[16.94442,38.94696],[16.94447,38.94689]]},"properties":{}},{"type":"Feature","geometry":{"type":"LineString","coordinates":[[16.94447,38.94689],[16.94458,38.94684],[16.94469,38.94685],[16.94477,38.9469],[16.94479,38.94701]]},"properties":{}},{"type":"Feature","geometry":{"type":"LineString","coordinates":[[16.94479,38.94701],[16.94519,38.94691],[16.94563,38.9469],[16.94904,38.94704],[16.94962,38.94704],[16.9505,38.94691],[16.95107,38.94672],[16.95163,38.94644],[16.95203,38.94617],[16.95672,38.94231],[16.95756,38.94177],[16.95801,38.94155],[16.95856,38.94133],[16.96039,38.94073],[16.96305,38.93987],[16.96347,38.93976],[16.96421,38.93961],[16.96479,38.93958],[16.97014,38.9396],[16.97157,38.93961],[16.97223,38.93965],[16.97287,38.93973],[16.97349,38.93989],[16.97699,38.94096],[16.97757,38.94109],[16.97812,38.94116],[16.97883,38.94119],[16.98022,38.94117],[16.98086,38.94112],[16.98174,38.94096],[16.98242,38.9408],[16.98301,38.9406],[16.991,38.93755],[16.99154,38.93738],[16.99166,38.9374],[16.99186,38.93733],[16.99234,38.93729],[16.99286,38.9373],[16.99408,38.9374],[16.99875,38.93792],[16.99933,38.93796],[17.0,38.93793]]},"properties":{}}]}