{"type":"FeatureCollection","features":[{"type":"Feature","geometry":{"type":"LineString","coordinates":[[17.07244,39.03936],[17.07376,39.04132],[17.07398,39.04183],[17.07404,39.04221],[17.07404,39.04262],[17.07392,39.04316],[17.07345,39.04442],[17.07291,39.04565],[17.07251,39.0464],[17.07231,39.04695],[17.07211,39.04765],[17.07187,39.04873],[17.07187,39.04943],[17.07193,39.04974],[17.07213,39.0502],[17.0731,39.05167],[17.07355,39.05213],[17.07382,39.05234],[17.07411,39.0525],[17.07471,39.05278],[17.09607,39.05903],[17.09716,39.05938]]},"properties":{}},{"type":"Feature","geometry":{"type":"LineString","coordinates":[[17.07382,39.00676],[17.07339,39.00704],[17.07276,39.00737],[17.06989,39.00864],[17.06912,39.00904],[17.06883,39.00924],[17.0686,39.00945],[17.06826,39.00994],[17.06812,39.01023],[17.06798,39.01065],[17.06791,39.01114],[17.06817,39.01526],[17.06817,39.01558],[17.06813,39.01591],[17.06794,39.01657],[17.06765,39.01712],[17.06668,39.01843],[17.06632,39.01898],[17.06622,39.01922],[17.06613,39.01959],[17.06611,39.02002],[17.06642,39.02294],[17.06653,39.02367],[17.06655,39.02432],[17.06652,39.03104],[17.06655,39.03138],[17.06665,39.03189],[17.06711,39.03363],[17.06746,39.03436],[17.06809,39.03519],[17.06838,39.03548],[17.06889,39.03591],[17.07072,39.03715],[17.07107,39.03747],[17.07145,39.03792],[17.07244,39.03936]]},"properties":{}},{"type":"Feature","geometry":{"type":"LineString","coordinates":[[17.10585,39.05665],[17.10562,39.05644],[17.10511,39.05611],[17.1038,39.05552],[17.1023,39.05454],[17.10213,39.05437],[17.10195,39.05413],[17.1016,39.05342],[17.10117,39.05234],[17.10104,39.05217],[17.10085,39.05202],[17.10047,39.05184],[17.10004,39.05155],[17.09957,39.05116],[17.0983,39.05039],[17.09742,39.04938],[17.0964,39.04829],[17.09588,39.04784],[17.09568,39.04754],[17.09554,39.04741],[17.09539,39.04733],[17.09354,39.04661],[17.09258,39.04618],[17.09229,39.04617],[17.09142,39.04664],[17.0912,39.0467],[17.09108,39.04667],[17.09098,39.04661],[17.08856,39.04437],[17.08833,39.04421],[17.08393,39.04207],[17.07871,39.0401],[17.07676,39.03932],[17.07642,39.03921],[17.07616,39.03917],[17.07518,39.0391],[17.07431,39.03941],[17.07406,39.03947],[17.07384,39.03947],[17.0736,39.03943],[17.07341,39.0393],[17.07308,39.03886],[17.07289,39.03878],[17.07272,39.0388],[17.07259,39.03898],[17.07244,39.03936]]},"properties":{}},{"type":"Feature","geometry":{"type":"LineString","coordinates":[[17.07382,39.00676],[17.07402,39.0065]]},"properties":{}},{"type":"Feature","geometry":{"type":"LineString","coordinates":[[17.07414,39.00665],[17.07382,39.00676]]},"properties":{}},{"type":"Feature","geometry":{"type":"LineString","coordinates":[[17.07414,39.00665],[17.07409,39.00661],[17.07402,39.0065]]},"properties":{}},{"type":"Feature","geometry":{"type":"LineString","coordinates":[[17.07402,39.0065],[17.07408,39.00635],[17.07427,39.00628]]},"properties":{}},{"type":"Feature","geometry":{"type":"LineString","coordinates":[[17.07447,39.00634],[17.07454,39.00644],[17.07451,39.00659],[17.07434,39.00668],[17.07414,39.00665]]},"properties":{}},{"type":"Feature","geometry":{"type":"LineString","coordinates":[[17.07427,39.00628],[17.07447,39.00634]]},"properties":{}},{"type":"Feature","geometry":{"type":"LineString","coordinates":[[17.07427,39.00628],[17.07436,39.00621],[17.07455,39.00598]]},"properties":{}},{"type":"Feature","geometry":{"type":"LineString","coordinates":[[17.07455,39.00598],[17.07447,39.00634]]},"properties":{}},{"type":"Feature","geometry":{"type":"LineString","coordinates":[[17.07528,39.0],[17.07466,39.00557],[17.07455,39.00598]]},"properties":{}},{"type":"Feature","geometry":{"type":"LineString","coordinates":[[17.07821,39.08445],[17.07901,39.08463],[17.08234,39.08553],[17.08293,39.0858],[17.08347,39.08613],[17.08394,39.08652],[17.08424,39.087],[17.08521,39.08895],[17.08589,39.08952],[17.08594,39.08969],[17.08595,39.08985],[17.08587,39.09026],[17.08583,39.09077],[17.086,39.09105],[17.08619,39.09118],[17.08646,39.09129],[17.08678,39.09135],[17.09221,39.09201],[17.09244,39.09198],[17.09259,39.09187],[17.09578,39.0886],[17.09591,39.08848],[17.09612,39.08834],[17.09652,39.08828],[17.09768,39.08838],[17.09956,39.08803],[17.10012,39.08808],[17.10268,39.08855],[17.10309,39.08854],[17.10344,39.08842],[17.10414,39.08774],[17.10436,39.08759],[17.1059,39.08692],[17.1071,39.08599],[17.10734,39.08582],[17.10758,39.08572],[17.10762,39.08567]]},"properties":{}},{"type":"Feature","geometry":{"type":"LineString","coordinates":[[17.07821,39.08445],[17.0767,39.08408],[17.07548,39.08345],[17.07433,39.08273],[17.07349,39.08176],[17.0732,39.08147],[17.0724,39.08081],[17.07028,39.07866],[17.07007,39.0785],[17.06977,39.07836],[17.0694,39.07823],[17.06729,39.07764],[17.0672,39.07781],[17.06707,39.07793],[17.06653,39.07815],[17.06634,39.07828],[17.06564,39.07915],[17.06552,39.07935],[17.06543,39.07965],[17.06533,39.0798],[17.06499,39.07998],[17.06475,39.08004],[17.06362,39.08025],[17.06277,39.08034],[17.06198,39.08047],[17.06163,39.0805],[17.0607,39.08048],[17.06054,39.08043],[17.06032,39.08017],[17.06007,39.08],[17.05914,39.08026],[17.05906,39.08025],[17.05859,39.07976],[17.05836,39.07961],[17.05799,39.07948],[17.05772,39.07948],[17.05709,39.07955],[17.05648,39.07985],[17.05604,39.07996],[17.05564,39.08012],[17.05561,39.08045],[17.05548,39.0807],[17.0549,39.08148],[17.05471,39.0816],[17.0543,39.0817],[17.05381,39.08196],[17.05373,39.08216],[17.05366,39.08225],[17.05344,39.08237],[17.05341,39.08244],[17.05342,39.08253],[17.05351,39.08267],[17.05349,39.08281],[17.05237,39.08393],[17.05206,39.08416],[17.05198,39.08424],[17.05196,39.08431],[17.052,39.0844],[17.05218,39.08458],[17.05231,39.08477],[17.05243,39.08485],[17.05266,39.0849],[17.05278,39.08498],[17.0529,39.08534],[17.05297,39.08547],[17.05328,39.08652],[17.05348,39.08655],[17.05547,39.08769],[17.05627,39.08787],[17.05759,39.08792],[17.05784,39.08799],[17.06041,39.08908],[17.06063,39.0892],[17.06098,39.08945],[17.06259,39.09025],[17.06289,39.09049],[17.06306,39.09058],[17.0647,39.0914],[17.06548,39.09184],[17.06609,39.09235],[17.06654,39.09288],[17.06665,39.09297],[17.06753,39.09334],[17.06782,39.09345],[17.068,39.09348],[17.06812,39.09347],[17.0683,39.0934],[17.06843,39.09328],[17.06852,39.09312],[17.06849,39.09304],[17.06767,39.0919],[17.06765,39.09165],[17.06809,39.09058],[17.06843,39.09022],[17.0692,39.08984],[17.06934,39.08962],[17.0696,39.08903],[17.06958,39.08867],[17.06938,39.08781],[17.06911,39.08731],[17.06893,39.08684],[17.06908,39.08649],[17.06965,39.08589],[17.06993,39.08491],[17.07012,39.08465],[17.07096,39.08417],[17.07126,39.08413],[17.0719,39.08418],[17.07262,39.08435],[17.07276,39.08427],[17.07271,39.08417],[17.07229,39.08395],[17.0722,39.08384],[17.07222,39.0837],[17.0723,39.08358],[17.07281,39.08342],[17.07298,39.08346],[17.07345,39.0838],[17.07399,39.08409],[17.07468,39.08425],[17.07562,39.08441],[17.07617,39.08444],[17.07742,39.0845],[17.07774,39.0845],[17.07821,39.08445]]},"properties":{}},{"type":"Feature","geometry":{"type":"LineString","coordinates":[[17.09296,39.11428],[17.09288,39.11396],[17.09273,39.11383],[17.0926,39.11377]]},"properties":{}},{"type":"Feature","geometry":{"type":"LineString","coordinates":[[17.0926,39.11377],[17.0923,39.11372],[17.09217,39.11363],[17.09206,39.11346],[17.09204,39.11332],[17.09212,39.11314],[17.09229,39.11302],[17.09253,39.11296],[17.09275,39.11298]]},"properties":{}},{"type":"Feature","geometry":{"type":"LineString","coordinates":[[17.09296,39.11364],[17.09283,39.11372],[17.0926,39.11377]]},"properties":{}},{"type":"Feature","geometry":{"type":"LineString","coordinates":[[17.09275,39.11298],[17.09299,39.11312],[17.09308,39.11328],[17.0931,39.11338]]},"properties":{}},{"type":"Feature","geometry":{"type":"LineString","coordinates":[[17.09275,39.11298],[17.0931,39.1129],[17.09338,39.11267]]},"properties":{}},{"type":"Feature","geometry":{"type":"LineString","coordinates":[[17.09296,39.11364],[17.09292,39.11387],[17.09299,39.11405],[17.09296,39.11428]]},"properties":{}},{"type":"Feature","geometry":{"type":"LineString","coordinates":[[17.0931,39.11338],[17.09306,39.11351],[17.09296,39.11364]]},"properties":{}},{"type":"Feature","geometry":{"type":"LineString","coordinates":[[17.09296,39.11428],[17.09289,39.115],[17.09292,39.11594],[17.09428,39.12726],[17.09472,39.13133],[17.09492,39.13252],[17.09506,39.13366]]},"properties":{}},{"type":"Feature","geometry":{"type":"LineString","coordinates":[[17.09338,39.11267],[17.09329,39.11288],[17.09314,39.11304],[17.0931,39.11338]]},"properties":{}},{"type":"Feature","geometry":{"type":"LineString","coordinates":[[17.09795,39.10585],[17.09402,39.1113],[17.09379,39.11171],[17.09338,39.11267]]},"properties":{}},{"type":"Feature","geometry":{"type":"LineString","coordinates":[[17.09506,39.13366],[17.09519,39.13508],[17.09557,39.13817]]},"properties":{}},{"type":"Feature","geometry":{"type":"LineString","coordinates":[[17.09557,39.13817],[17.10556,39.13697],[17.10502,39.13108],[17.10152,39.13113],[17.10144,39.1312],[17.10155,39.13223],[17.10152,39.13231],[17.10147,39.13236],[17.09506,39.13366]]},"properties":{}},{"type":"Feature","geometry":{"type":"LineString","coordinates":[[17.09557,39.13817],[17.09611,39.1429]]},"properties":{}},{"type":"Feature","geometry":{"type":"LineString","coordinates":[[17.09611,39.1429],[17.09625,39.14397],[17.09631,39.14476],[17.09741,39.15382],[17.09769,39.15586],[17.09792,39.15721],[17.09856,39.16193],[17.09904,39.16357],[17.10008,39.16686],[17.10019,39.16705],[17.10048,39.16726],[17.10097,39.16756],[17.10111,39.16772],[17.10115,39.16784],[17.10115,39.16802],[17.10095,39.16828]]},"properties":{}},{"type":"Feature","geometry":{"type":"LineString","coordinates":[[17.09611,39.1429],[17.10089,39.14298],[17.10121,39.14296],[17.1019,39.14303],[17.10307,39.14322],[17.10404,39.14304],[17.10496,39.14311],[17.10568,39.14292],[17.106,39.14288],[17.10895,39.14302],[17.10978,39.14299],[17.11036,39.14303],[17.11271,39.14297],[17.11315,39.14519],[17.11318,39.14622],[17.11309,39.15157],[17.11369,39.16017],[17.11386,39.16211],[17.11401,39.16238],[17.11866,39.16792],[17.11905,39.1685],[17.11992,39.17045],[17.1203,39.17252],[17.1205,39.1732],[17.1212,39.17478],[17.12168,39.17603],[17.12239,39.1784],[17.12249,39.17915],[17.12241,39.17971],[17.12201,39.18091],[17.12137,39.18347],[17.12148,39.18667],[17.12139,39.18859],[17.12134,39.18865],[17.121,39.18866],[17.12066,39.1886],[17.12038,39.18848],[17.1201,39.18822],[17.118,39.188],[17.11782,39.18936],[17.1175,39.19141],[17.11496,39.19119],[17.11479,39.19115],[17.11471,39.19106],[17.1145,39.19056],[17.11441,39.19047],[17.11424,39.19044],[17.11375,39.19048],[17.11323,39.19047],[17.11294,39.19051],[17.11036,39.19107],[17.10651,39.17908],[17.10621,39.17827],[17.10582,39.17748],[17.10101,39.16883],[17.10094,39.16858],[17.10094,39.16836]]},"properties":{}},{"type":"Feature","geometry":{"type":"LineString","coordinates":[[17.0967,39.07115],[17.0966,39.07118],[17.09655,39.07112],[17.09658,39.07108],[17.09665,39.07107],[17.09669,39.0711],[17.0967,39.07115]]},"properties":{}},{"type":"Feature","geometry":{"type":"LineString","coordinates":[[17.0967,39.07115],[17.09736,39.07112],[17.09765,39.07114],[17.09959,39.07138],[17.10042,39.07141]]},"properties":{}},{"type":"Feature","geometry":{"type":"LineString","coordinates":[[17.09716,39.05938],[17.09749,39.05941]]},"properties":{}},{"type":"Feature","geometry":{"type":"LineString","coordinates":[[17.09743,39.0596],[17.09735,39.0595],[17.09716,39.05938]]},"properties":{}},{"type":"Feature","geometry":{"type":"LineString","coordinates":[[17.0976,39.05966],[17.0975,39.05965],[17.09743,39.0596]]},"properties":{}},{"type":"Feature","geometry":{"type":"LineString","coordinates":[[17.09743,39.0596],[17.09742,39.05947],[17.09749,39.05941]]},"properties":{}},{"type":"Feature","geometry":{"type":"LineString","coordinates":[[17.09749,39.05941],[17.09766,39.0594],[17.09774,39.05946],[17.09776,39.05954]]},"properties":{}},{"type":"Feature","geometry":{"type":"LineString","coordinates":[[17.09799,39.05974],[17.09774,39.05967],[17.0976,39.05966]]},"properties":{}},{"type":"Feature","geometry":{"type":"LineString","coordinates":[[17.09776,39.05954],[17.09771,39.05962],[17.0976,39.05966]]},"properties":{}},{"type":"Feature","geometry":{"type":"LineString","coordinates":[[17.09776,39.05954],[17.09799,39.05974]]},"properties":{}},{"type":"Feature","geometry":{"type":"LineString","coordinates":[[17.09795,39.10585],[17.09801,39.10557]]},"properties":{}},{"type":"Feature","geometry":{"type":"LineString","coordinates":[[17.09822,39.10566],[17.09795,39.10585]]},"properties":{}},{"type":"Feature","geometry":{"type":"LineString","coordinates":[[17.09799,39.05974],[17.09838,39.05998],[17.09921,39.06057],[17.09974,39.06103],[17.10019,39.06154]]},"properties":{}},{"type":"Feature","geometry":{"type":"LineString","coordinates":[[17.09819,39.10532],[17.09847,39.10516]]},"properties":{}},{"type":"Feature","geometry":{"type":"LineString","coordinates":[[17.09847,39.10516],[17.0984,39.10545]]},"properties":{}},{"type":"Feature","geometry":{"type":"LineString","coordinates":[[17.10864,39.08908],[17.10728,39.0925],[17.10664,39.09382],[17.10625,39.09447],[17.10585,39.09509],[17.09847,39.10516]]},"properties":{}},{"type":"Feature","geometry":{"type":"LineString","coordinates":[[17.10019,39.06154],[17.10045,39.06179],[17.10079,39.06236],[17.10122,39.06347],[17.10142,39.0636],[17.10167,39.06365]]},"properties":{}},{"type":"Feature","geometry":{"type":"LineString","coordinates":[[17.10019,39.06154],[17.10042,39.06185],[17.10063,39.06225],[17.10085,39.06285],[17.10108,39.06366]]},"properties":{}},{"type":"Feature","geometry":{"type":"LineString","coordinates":[[17.10042,39.07141],[17.10014,39.07337],[17.10008,39.0742],[17.10017,39.07503],[17.10027,39.07546],[17.10055,39.07637],[17.10074,39.0768],[17.10106,39.07736],[17.10162,39.07816],[17.10225,39.07884],[17.10583,39.08236],[17.10606,39.08263],[17.10621,39.08286],[17.10762,39.08567]]},"properties":{}},{"type":"Feature","geometry":{"type":"LineString","coordinates":[[17.10115,39.06627],[17.10042,39.07141]]},"properties":{}},{"type":"Feature","geometry":{"type":"LineString","coordinates":[[17.10094,39.16836],[17.10079,39.16847],[17.10066,39.16847],[17.10051,39.16839],[17.10047,39.16827],[17.10053,39.16817],[17.10071,39.1681],[17.10087,39.16815],[17.10095,39.16828]]},"properties":{}},{"type":"Feature","geometry":{"type":"LineString","coordinates":[[17.10095,39.16828],[17.10094,39.16836]]},"properties":{}},{"type":"Feature","geometry":{"type":"LineString","coordinates":[[17.1011,39.06372],[17.10108,39.06366]]},"properties":{}},{"type":"Feature","geometry":{"type":"LineString","coordinates":[[17.10108,39.06366],[17.10041,39.06363],[17.10011,39.06351],[17.09998,39.06338],[17.09994,39.06327],[17.09994,39.06312],[17.1,39.06298],[17.10012,39.06285],[17.10032,39.06277],[17.10049,39.06276],[17.10065,39.06281],[17.10079,39.06296],[17.10108,39.06366]]},"properties":{}},{"type":"Feature","geometry":{"type":"LineString","coordinates":[[17.10108,39.06366],[17.10108,39.06366]]},"properties":{}},{"type":"Feature","geometry":{"type":"LineString","coordinates":[[17.10108,39.06366],[17.1011,39.06372]]},"properties":{}},{"type":"Feature","geometry":{"type":"LineString","coordinates":[[17.10167,39.06365],[17.10108,39.06366]]},"properties":{}},{"type":"Feature","geometry":{"type":"LineString","coordinates":[[17.1011,39.06372],[17.10127,39.06459],[17.10129,39.06489],[17.10126,39.06542],[17.10115,39.06627]]},"properties":{}},{"type":"Feature","geometry":{"type":"LineString","coordinates":[[17.10167,39.06365],[17.10146,39.06374],[17.10132,39.06392],[17.1014,39.06461],[17.1014,39.06502],[17.1013,39.06571],[17.10115,39.06627]]},"properties":{}},{"type":"Feature","geometry":{"type":"LineString","coordinates":[[17.10214,39.06365],[17.10167,39.06365]]},"properties":{}},{"type":"Feature","geometry":{"type":"LineString","coordinates":[[17.10198,39.06634],[17.10212,39.06663],[17.10257,39.06776],[17.10324,39.0698],[17.1037,39.07109],[17.10394,39.07209]]},"properties":{}},{"type":"Feature","geometry":{"type":"LineString","coordinates":[[17.1028,39.06881],[17.10209,39.06675],[17.10198,39.06634]]},"properties":{}},{"type":"Feature","geometry":{"type":"LineString","coordinates":[[17.10198,39.06634],[17.10196,39.06595],[17.10206,39.06553],[17.1022,39.06529],[17.10285,39.06459]]},"properties":{}},{"type":"Feature","geometry":{"type":"LineString","coordinates":[[17.10241,39.0643],[17.10231,39.06416],[17.10214,39.06365]]},"properties":{}},{"type":"Feature","geometry":{"type":"LineString","coordinates":[[17.10214,39.06365],[17.10202,39.06325],[17.10203,39.06312],[17.10208,39.06298],[17.10228,39.06281],[17.10254,39.06274],[17.10275,39.06276],[17.10295,39.06283],[17.10309,39.06294],[17.10315,39.06304]]},"properties":{}},{"type":"Feature","geometry":{"type":"LineString","coordinates":[[17.10243,39.06365],[17.10214,39.06365]]},"properties":{}},{"type":"Feature","geometry":{"type":"LineString","coordinates":[[17.10241,39.0643],[17.1028,39.06448],[17.10289,39.06455]]},"properties":{}},{"type":"Feature","geometry":{"type":"LineString","coordinates":[[17.10285,39.06459],[17.10275,39.06457],[17.10241,39.0643]]},"properties":{}},{"type":"Feature","geometry":{"type":"LineString","coordinates":[[17.10315,39.06427],[17.10321,39.06412],[17.10321,39.06402],[17.10318,39.06391],[17.10309,39.0638],[17.10282,39.06368],[17.10243,39.06365]]},"properties":{}},{"type":"Feature","geometry":{"type":"LineString","coordinates":[[17.10243,39.06365],[17.10286,39.06357],[17.10301,39.06349],[17.10313,39.06332],[17.10315,39.06304]]},"properties":{}},{"type":"Feature","geometry":{"type":"LineString","coordinates":[[17.1038,39.07213],[17.10373,39.0717],[17.10357,39.07111],[17.1028,39.06881]]},"properties":{}},{"type":"Feature","geometry":{"type":"LineString","coordinates":[[17.1028,39.06881],[17.1027,39.06887],[17.10253,39.06886],[17.10236,39.06902],[17.10133,39.07067],[17.10096,39.07104],[17.10077,39.0716],[17.10064,39.07245],[17.10055,39.0733],[17.10053,39.07403],[17.1006,39.07456],[17.10072,39.07521],[17.10101,39.07608],[17.10131,39.07678],[17.10152,39.07716],[17.10161,39.07724],[17.10221,39.07746],[17.10233,39.07756],[17.1029,39.07825],[17.10348,39.07888],[17.10351,39.07898],[17.10336,39.07916],[17.10334,39.07929],[17.1035,39.0795],[17.10551,39.08142],[17.10671,39.08205],[17.10717,39.08226],[17.10861,39.08249],[17.10901,39.0826],[17.11104,39.08381],[17.11109,39.08388]]},"properties":{}},{"type":"Feature","geometry":{"type":"LineString","coordinates":[[17.10285,39.06459],[17.10289,39.06455]]},"properties":{}},{"type":"Feature","geometry":{"type":"LineString","coordinates":[[17.10289,39.06455],[17.10315,39.06427]]},"properties":{}},{"type":"Feature","geometry":{"type":"LineString","coordinates":[[17.11283,39.06499],[17.11257,39.06489],[17.1121,39.06477],[17.1079,39.06437],[17.10662,39.0642],[17.10617,39.06419],[17.1047,39.06398],[17.10446,39.06389],[17.10404,39.06385],[17.10383,39.06385],[17.10358,39.06392],[17.1034,39.06404],[17.10315,39.06427]]},"properties":{}},{"type":"Feature","geometry":{"type":"LineString","coordinates":[[17.10315,39.06304],[17.10336,39.06342],[17.1035,39.0636],[17.10361,39.06366],[17.10392,39.06372],[17.1045,39.06381],[17.1047,39.06379],[17.10626,39.06402],[17.10656,39.06411],[17.10786,39.06429],[17.11214,39.06469],[17.11258,39.06469],[17.11289,39.06461]]},"properties":{}},{"type":"Feature","geometry":{"type":"LineString","coordinates":[[17.10381,39.07219],[17.1038,39.07213]]},"properties":{}},{"type":"Feature","geometry":{"type":"LineString","coordinates":[[17.1038,39.07213],[17.10385,39.07208],[17.10394,39.07209]]},"properties":{}},{"type":"Feature","geometry":{"type":"LineString","coordinates":[[17.10397,39.07219],[17.10389,39.07222],[17.10381,39.07219]]},"properties":{}},{"type":"Feature","geometry":{"type":"LineString","coordinates":[[17.10769,39.0778],[17.10667,39.0768],[17.10535,39.07558],[17.10431,39.07454],[17.10421,39.0743],[17.10397,39.07318],[17.10381,39.07219]]},"properties":{}},{"type":"Feature","geometry":{"type":"LineString","coordinates":[[17.10394,39.07209],[17.10398,39.07214],[17.10397,39.07219]]},"properties":{}},{"type":"Feature","geometry":{"type":"LineString","coordinates":[[17.10397,39.07219],[17.10394,39.07238],[17.10396,39.07254],[17.10432,39.07435],[17.10439,39.0745],[17.10567,39.07577],[17.10635,39.07638],[17.10762,39.0776],[17.10779,39.07769]]},"properties":{}},{"type":"Feature","geometry":{"type":"LineString","coordinates":[[17.11194,39.06037],[17.11149,39.06026],[17.11103,39.06022],[17.11003,39.06028],[17.10957,39.06038],[17.10922,39.06039],[17.10899,39.06035],[17.10848,39.06019],[17.10812,39.06002],[17.10792,39.05987],[17.107,39.05815],[17.10673,39.05771],[17.10585,39.05665]]},"properties":{}},{"type":"Feature","geometry":{"type":"LineString","coordinates":[[17.10585,39.05665],[17.10581,39.05652],[17.10585,39.05636],[17.10821,39.05383]]},"properties":{}},{"type":"Feature","geometry":{"type":"LineString","coordinates":[[17.10762,39.08567],[17.10841,39.08716]]},"properties":{}},{"type":"Feature","geometry":{"type":"LineString","coordinates":[[17.10781,39.07795],[17.10771,39.07789],[17.10769,39.0778]]},"properties":{}},{"type":"Feature","geometry":{"type":"LineString","coordinates":[[17.10769,39.0778],[17.10779,39.07769]]},"properties":{}},{"type":"Feature","geometry":{"type":"LineString","coordinates":[[17.10779,39.07769],[17.10796,39.0777]]},"properties":{}},{"type":"Feature","geometry":{"type":"LineString","coordinates":[[17.10802,39.07789],[17.10793,39.07795],[17.10781,39.07795]]},"properties":{}},{"type":"Feature","geometry":{"type":"LineString","coordinates":[[17.11269,39.08022],[17.11084,39.08014],[17.1104,39.08008],[17.11004,39.07996],[17.10981,39.07984],[17.10962,39.0797],[17.10797,39.07806],[17.10781,39.07795]]},"properties":{}},{"type":"Feature","geometry":{"type":"LineString","coordinates":[[17.10796,39.0777],[17.10805,39.07781]]},"properties":{}},{"type":"Feature","geometry":{"type":"LineString","coordinates":[[17.10796,39.0777],[17.10823,39.07761]]},"properties":{}},{"type":"Feature","geometry":{"type":"LineString","coordinates":[[17.10802,39.07789],[17.10806,39.07799],[17.10839,39.07836],[17.10969,39.07964],[17.10997,39.07983],[17.11042,39.08001],[17.11066,39.08005],[17.11262,39.08012]]},"properties":{}},{"type":"Feature","geometry":{"type":"LineString","coordinates":[[17.10805,39.07781],[17.10802,39.07789]]},"properties":{}},{"type":"Feature","geometry":{"type":"LineString","coordinates":[[17.10823,39.07761],[17.10805,39.07781]]},"properties":{}},{"type":"Feature","geometry":{"type":"LineString","coordinates":[[17.1085,39.08825],[17.10806,39.08816]]},"properties":{}},{"type":"Feature","geometry":{"type":"LineString","coordinates":[[17.10847,39.08738],[17.10794,39.08749],[17.10781,39.08756],[17.10773,39.08766],[17.1077,39.0878],[17.10774,39.08795],[17.10787,39.08808],[17.10806,39.08816]]},"properties":{}},{"type":"Feature","geometry":{"type":"LineString","coordinates":[[17.10806,39.08816],[17.10826,39.08814],[17.10842,39.08808]]},"properties":{}},{"type":"Feature","geometry":{"type":"LineString","coordinates":[[17.10821,39.05383],[17.10849,39.05351],[17.10852,39.05341],[17.10855,39.05306],[17.10853,39.05289],[17.10844,39.05262],[17.10827,39.05239],[17.10804,39.0522],[17.10755,39.05198],[17.10705,39.05191],[17.10653,39.05198],[17.10623,39.0521],[17.10602,39.05222],[17.10594,39.05231],[17.10588,39.05247],[17.1059,39.05254],[17.10597,39.05261],[17.10821,39.05383]]},"properties":{}},{"type":"Feature","geometry":{"type":"LineString","coordinates":[[17.10823,39.07761],[17.10961,39.07763],[17.10981,39.07768],[17.10988,39.07791],[17.10995,39.07801],[17.11166,39.07902],[17.11192,39.07921],[17.11262,39.08012]]},"properties":{}},{"type":"Feature","geometry":{"type":"LineString","coordinates":[[17.10823,39.07761],[17.1117,39.07413],[17.11216,39.07368],[17.11234,39.07356]]},"properties":{}},{"type":"Feature","geometry":{"type":"LineString","coordinates":[[17.10841,39.08716],[17.10851,39.08737]]},"properties":{}},{"type":"Feature","geometry":{"type":"LineString","coordinates":[[17.10847,39.08738],[17.10841,39.08716]]},"properties":{}},{"type":"Feature","geometry":{"type":"LineString","coordinates":[[17.10842,39.08808],[17.10854,39.08795],[17.10858,39.08784],[17.10857,39.0877],[17.10847,39.08738]]},"properties":{}},{"type":"Feature","geometry":{"type":"LineString","coordinates":[[17.10842,39.08808],[17.10858,39.08808],[17.10876,39.08812]]},"properties":{}},{"type":"Feature","geometry":{"type":"LineString","coordinates":[[17.10851,39.08737],[17.10847,39.08738]]},"properties":{}},{"type":"Feature","geometry":{"type":"LineString","coordinates":[[17.10864,39.08908],[17.10871,39.08854],[17.1086,39.08831],[17.1085,39.08825]]},"properties":{}},{"type":"Feature","geometry":{"type":"LineString","coordinates":[[17.10876,39.08812],[17.10867,39.08819],[17.1085,39.08825]]},"properties":{}},{"type":"Feature","geometry":{"type":"LineString","coordinates":[[17.10851,39.08737],[17.10861,39.0876],[17.10876,39.08812]]},"properties":{}},{"type":"Feature","geometry":{"type":"LineString","coordinates":[[17.11718,39.08722],[17.11538,39.0878],[17.1147,39.08794],[17.11422,39.08797],[17.11345,39.08791],[17.10996,39.08728],[17.10916,39.08727],[17.10851,39.08737]]},"properties":{}},{"type":"Feature","geometry":{"type":"LineString","coordinates":[[17.10876,39.08812],[17.10878,39.08864],[17.10864,39.08908]]},"properties":{}},{"type":"Feature","geometry":{"type":"LineString","coordinates":[[17.11109,39.08388],[17.11079,39.084],[17.11055,39.08414],[17.11037,39.08435],[17.10935,39.08444],[17.10918,39.08439]]},"properties":{}},{"type":"Feature","geometry":{"type":"LineString","coordinates":[[17.10918,39.08439],[17.1088,39.08446],[17.10849,39.08418],[17.1088,39.08402],[17.10918,39.08439]]},"properties":{}},{"type":"Feature","geometry":{"type":"LineString","coordinates":[[17.11421,39.08316],[17.11322,39.08335],[17.1116,39.08373],[17.11109,39.08388]]},"properties":{}},{"type":"Feature","geometry":{"type":"LineString","coordinates":[[17.11393,39.06101],[17.11194,39.06037]]},"properties":{}},{"type":"Feature","geometry":{"type":"LineString","coordinates":[[17.11366,39.06242],[17.11056,39.06202],[17.11087,39.0606],[17.11189,39.06068],[17.11194,39.06037]]},"properties":{}},{"type":"Feature","geometry":{"type":"LineString","coordinates":[[17.11258,39.0739],[17.11244,39.07385],[17.11235,39.07377],[17.11232,39.07366],[17.11234,39.07356]]},"properties":{}},{"type":"Feature","geometry":{"type":"LineString","coordinates":[[17.11234,39.07356],[17.11241,39.07349]]},"properties":{}},{"type":"Feature","geometry":{"type":"LineString","coordinates":[[17.11241,39.07349],[17.11256,39.07337],[17.1129,39.07319],[17.11298,39.07308],[17.11366,39.07003]]},"properties":{}},{"type":"Feature","geometry":{"type":"LineString","coordinates":[[17.11241,39.07349],[17.11257,39.07342],[17.11274,39.07344],[17.11288,39.07352],[17.11293,39.07365]]},"properties":{}},{"type":"Feature","geometry":{"type":"LineString","coordinates":[[17.11293,39.07365],[17.11291,39.07375],[17.11283,39.07384],[17.11271,39.07389],[17.11258,39.0739]]},"properties":{}},{"type":"Feature","geometry":{"type":"LineString","coordinates":[[17.1158,39.07404],[17.11544,39.07404],[17.11364,39.07415],[17.11339,39.07413],[17.11258,39.0739]]},"properties":{}},{"type":"Feature","geometry":{"type":"LineString","coordinates":[[17.11262,39.08012],[17.11391,39.08015]]},"properties":{}},{"type":"Feature","geometry":{"type":"LineString","coordinates":[[17.11262,39.08012],[17.11269,39.08022]]},"properties":{}},{"type":"Feature","geometry":{"type":"LineString","coordinates":[[17.11374,39.08037],[17.11354,39.08028],[17.11334,39.08023],[17.11269,39.08022]]},"properties":{}},{"type":"Feature","geometry":{"type":"LineString","coordinates":[[17.11333,39.06489],[17.11323,39.065],[17.11307,39.06505],[17.1129,39.06503],[17.11283,39.06499]]},"properties":{}},{"type":"Feature","geometry":{"type":"LineString","coordinates":[[17.11367,39.06993],[17.11385,39.06901],[17.11382,39.06762],[17.11323,39.06568],[17.11305,39.06526],[17.11283,39.06499]]},"properties":{}},{"type":"Feature","geometry":{"type":"LineString","coordinates":[[17.11283,39.06499],[17.11275,39.06488],[17.11274,39.06482],[17.11278,39.0647],[17.11289,39.06461]]},"properties":{}},{"type":"Feature","geometry":{"type":"LineString","coordinates":[[17.11289,39.06461],[17.11308,39.0644],[17.11315,39.06425],[17.11366,39.06242]]},"properties":{}},{"type":"Feature","geometry":{"type":"LineString","coordinates":[[17.11289,39.06461],[17.11308,39.06459],[17.11317,39.06461],[17.11331,39.06471],[17.11334,39.06478]]},"properties":{}},{"type":"Feature","geometry":{"type":"LineString","coordinates":[[17.11293,39.07365],[17.1131,39.07388],[17.11316,39.07393],[17.11341,39.07404],[17.11365,39.07408],[17.11561,39.07395],[17.11577,39.07392]]},"properties":{}},{"type":"Feature","geometry":{"type":"LineString","coordinates":[[17.1138,39.07009],[17.11372,39.07019],[17.11299,39.07352],[17.11293,39.07365]]},"properties":{}},{"type":"Feature","geometry":{"type":"LineString","coordinates":[[17.11333,39.06489],[17.11325,39.06514],[17.11324,39.06532],[17.11329,39.06557],[17.11383,39.06726]]},"properties":{}},{"type":"Feature","geometry":{"type":"LineString","coordinates":[[17.11334,39.06478],[17.11333,39.06489]]},"properties":{}},{"type":"Feature","geometry":{"type":"LineString","coordinates":[[17.11352,39.06335],[17.11325,39.06435],[17.11326,39.06452],[17.11334,39.06478]]},"properties":{}},{"type":"Feature","geometry":{"type":"LineString","coordinates":[[17.11417,39.06118],[17.11406,39.0614],[17.11352,39.06335]]},"properties":{}},{"type":"Feature","geometry":{"type":"LineString","coordinates":[[17.11352,39.06335],[17.11547,39.0632],[17.11561,39.06322],[17.11583,39.06334],[17.11588,39.06342],[17.11659,39.06648],[17.11658,39.06666],[17.11652,39.0668],[17.11641,39.0669],[17.11617,39.06699],[17.116,39.06701],[17.11416,39.06687],[17.11389,39.06697],[17.11382,39.06711],[17.11383,39.06726]]},"properties":{}},{"type":"Feature","geometry":{"type":"LineString","coordinates":[[17.1138,39.07009],[17.11372,39.07007],[17.11366,39.07003]]},"properties":{}},{"type":"Feature","geometry":{"type":"LineString","coordinates":[[17.11366,39.07003],[17.11367,39.06993]]},"properties":{}},{"type":"Feature","geometry":{"type":"LineString","coordinates":[[17.11366,39.06242],[17.11403,39.06116]]},"properties":{}},{"type":"Feature","geometry":{"type":"LineString","coordinates":[[17.11367,39.06993],[17.11374,39.0699],[17.11382,39.0699]]},"properties":{}},{"type":"Feature","geometry":{"type":"LineString","coordinates":[[17.11377,39.08041],[17.11374,39.08037]]},"properties":{}},{"type":"Feature","geometry":{"type":"LineString","coordinates":[[17.11374,39.08037],[17.11373,39.08029],[17.11377,39.08021],[17.11391,39.08015]]},"properties":{}},{"type":"Feature","geometry":{"type":"LineString","coordinates":[[17.11408,39.08042],[17.11392,39.08047],[17.11377,39.08041]]},"properties":{}},{"type":"Feature","geometry":{"type":"LineString","coordinates":[[17.11393,39.08087],[17.11377,39.08041]]},"properties":{}},{"type":"Feature","geometry":{"type":"LineString","coordinates":[[17.11382,39.0699],[17.11388,39.06994],[17.1139,39.07],[17.11387,39.07006],[17.1138,39.07009]]},"properties":{}},{"type":"Feature","geometry":{"type":"LineString","coordinates":[[17.11383,39.06726],[17.11396,39.06774],[17.11396,39.069],[17.11381,39.06978],[17.11382,39.0699]]},"properties":{}},{"type":"Feature","geometry":{"type":"LineString","coordinates":[[17.11391,39.08015],[17.11398,39.08015]]},"properties":{}},{"type":"Feature","geometry":{"type":"LineString","coordinates":[[17.11393,39.06101],[17.11402,39.06102]]},"properties":{}},{"type":"Feature","geometry":{"type":"LineString","coordinates":[[17.11399,39.06108],[17.11393,39.06101]]},"properties":{}},{"type":"Feature","geometry":{"type":"LineString","coordinates":[[17.11393,39.08087],[17.11429,39.08309]]},"properties":{}},{"type":"Feature","geometry":{"type":"LineString","coordinates":[[17.11408,39.08042],[17.11397,39.08059],[17.11393,39.08087]]},"properties":{}},{"type":"Feature","geometry":{"type":"LineString","coordinates":[[17.11398,39.08015],[17.11877,39.08035],[17.11893,39.08029]]},"properties":{}},{"type":"Feature","geometry":{"type":"LineString","coordinates":[[17.11398,39.08015],[17.11411,39.08023],[17.11414,39.08031],[17.11411,39.08039]]},"properties":{}},{"type":"Feature","geometry":{"type":"LineString","coordinates":[[17.11403,39.06116],[17.11399,39.06108]]},"properties":{}},{"type":"Feature","geometry":{"type":"LineString","coordinates":[[17.11399,39.06108],[17.11402,39.06102]]},"properties":{}},{"type":"Feature","geometry":{"type":"LineString","coordinates":[[17.11402,39.06102],[17.11405,39.061]]},"properties":{}},{"type":"Feature","geometry":{"type":"LineString","coordinates":[[17.11417,39.06118],[17.11403,39.06116]]},"properties":{}},{"type":"Feature","geometry":{"type":"LineString","coordinates":[[17.11405,39.061],[17.11409,39.06086],[17.11414,39.0608]]},"properties":{}},{"type":"Feature","geometry":{"type":"LineString","coordinates":[[17.11405,39.061],[17.11417,39.061]]},"properties":{}},{"type":"Feature","geometry":{"type":"LineString","coordinates":[[17.11411,39.08039],[17.11408,39.08042]]},"properties":{}},{"type":"Feature","geometry":{"type":"LineString","coordinates":[[17.11894,39.08053],[17.11872,39.08045],[17.11451,39.08029],[17.11436,39.0803],[17.11411,39.08039]]},"properties":{}},{"type":"Feature","geometry":{"type":"LineString","coordinates":[[17.11414,39.0608],[17.11417,39.06087],[17.11417,39.061]]},"properties":{}},{"type":"Feature","geometry":{"type":"LineString","coordinates":[[17.11414,39.0608],[17.11429,39.06021],[17.11453,39.05954],[17.11487,39.0588],[17.11646,39.05593],[17.11652,39.05572],[17.11677,39.05399],[17.11679,39.05367],[17.11676,39.05293],[17.11662,39.05156],[17.11597,39.0462],[17.11588,39.04578],[17.11572,39.04549],[17.11558,39.04535],[17.11413,39.04441],[17.11397,39.04427],[17.11381,39.04404],[17.11347,39.04301],[17.11221,39.03867],[17.11201,39.03829],[17.10965,39.03543],[17.10955,39.03519],[17.10955,39.03487],[17.11055,39.03019],[17.1111,39.02879],[17.11111,39.02824],[17.11146,39.02762],[17.11157,39.02753],[17.11172,39.02747],[17.11213,39.0275],[17.11225,39.02746],[17.11269,39.02716],[17.11385,39.02673],[17.11394,39.02663],[17.11393,39.02625],[17.11401,39.02609],[17.11415,39.02603],[17.11459,39.026],[17.11467,39.0259],[17.11463,39.0258],[17.11451,39.02575],[17.11316,39.02582],[17.11294,39.02578],[17.11287,39.02566],[17.11288,39.02559],[17.11294,39.02552],[17.11309,39.02546],[17.11356,39.02547],[17.11386,39.02543],[17.11415,39.02531],[17.11415,39.02517],[17.11412,39.02511],[17.11401,39.02506],[17.11343,39.0251],[17.1131,39.02501],[17.1126,39.02461],[17.11167,39.02413],[17.11159,39.02405],[17.11156,39.02396],[17.1116,39.02386],[17.11169,39.02376],[17.11186,39.02374],[17.11247,39.02388],[17.11282,39.02389],[17.11312,39.02374],[17.11323,39.02354],[17.11335,39.02313],[17.11349,39.0229],[17.11347,39.02279],[17.11342,39.02276],[17.1132,39.02276],[17.11293,39.0229],[17.11273,39.02295],[17.11245,39.02294],[17.11224,39.02288],[17.11216,39.0228],[17.11221,39.02267],[17.11229,39.02261],[17.11249,39.02261],[17.11275,39.02267],[17.11282,39.02265],[17.11291,39.02259],[17.11306,39.02237],[17.11313,39.02203],[17.11318,39.02116],[17.11333,39.02078],[17.11351,39.02061],[17.11745,39.01823],[17.12029,39.01674],[17.12804,39.01499],[17.12852,39.01495],[17.13361,39.0156],[17.13423,39.01586],[17.1346,39.01624],[17.13503,39.01684],[17.13552,39.01728],[17.13625,39.01764],[17.13708,39.0178],[17.13891,39.01806],[17.1431,39.01935],[17.14717,39.02056],[17.14752,39.02063],[17.14794,39.02061],[17.15444,39.01969],[17.15481,39.01963],[17.15538,39.01941],[17.16094,39.01508],[17.16163,39.01458],[17.16187,39.01448],[17.16227,39.01441],[17.16285,39.01447],[17.1644,39.01466],[17.16472,39.01475],[17.16523,39.01497],[17.16553,39.01516],[17.16564,39.01528],[17.16584,39.01558],[17.16595,39.01614],[17.16579,39.01665],[17.16545,39.01732],[17.16544,39.01769],[17.16678,39.02307],[17.1672,39.02388],[17.16757,39.02436],[17.16826,39.02509],[17.16851,39.02524],[17.16869,39.02529],[17.16885,39.0253],[17.16904,39.02526],[17.17018,39.0248],[17.17053,39.02469],[17.17097,39.02464],[17.17478,39.02479]]},"properties":{}},{"type":"Feature","geometry":{"type":"LineString","coordinates":[[17.11417,39.061],[17.11424,39.06107],[17.11422,39.06113],[17.11417,39.06118]]},"properties":{}},{"type":"Feature","geometry":{"type":"LineString","coordinates":[[17.11431,39.08321],[17.11426,39.08321],[17.11421,39.08316]]},"properties":{}},{"type":"Feature","geometry":{"type":"LineString","coordinates":[[17.11421,39.08316],[17.11429,39.08309]]},"properties":{}},{"type":"Feature","geometry":{"type":"LineString","coordinates":[[17.11429,39.08309],[17.11438,39.08314],[17.11437,39.08318],[17.11431,39.08321]]},"properties":{}},{"type":"Feature","geometry":{"type":"LineString","coordinates":[[17.11431,39.08321],[17.11442,39.084]]},"properties":{}},{"type":"Feature","geometry":{"type":"LineString","coordinates":[[17.11442,39.084],[17.11463,39.08532]]},"properties":{}},{"type":"Feature","geometry":{"type":"LineString","coordinates":[[17.11442,39.084],[17.11465,39.08398]]},"properties":{}},{"type":"Feature","geometry":{"type":"LineString","coordinates":[[17.11463,39.08532],[17.11496,39.08734],[17.11503,39.08755],[17.11512,39.0876],[17.11526,39.08759],[17.11732,39.08705],[17.11757,39.08692],[17.11778,39.08675],[17.11805,39.08666]]},"properties":{}},{"type":"Feature","geometry":{"type":"LineString","coordinates":[[17.11481,39.08499],[17.11484,39.08528],[17.11463,39.08532]]},"properties":{}},{"type":"Feature","geometry":{"type":"LineString","coordinates":[[17.11465,39.08398],[17.11481,39.08499]]},"properties":{}},{"type":"Feature","geometry":{"type":"LineString","coordinates":[[17.11465,39.08398],[17.11503,39.08394],[17.11523,39.084],[17.11547,39.08418],[17.11555,39.08432],[17.11557,39.08445],[17.11555,39.08459],[17.11549,39.08471],[17.11536,39.08484],[17.11513,39.08495],[17.11481,39.08499]]},"properties":{}},{"type":"Feature","geometry":{"type":"LineString","coordinates":[[17.12033,39.07584],[17.11964,39.07599],[17.11935,39.076],[17.11893,39.07596],[17.11867,39.07589],[17.11834,39.07573],[17.11631,39.07426],[17.11608,39.07412],[17.11593,39.07406]]},"properties":{}},{"type":"Feature","geometry":{"type":"LineString","coordinates":[[17.11601,39.07393],[17.11833,39.07561],[17.1187,39.07581],[17.11896,39.07589],[17.11941,39.07593],[17.1198,39.07588],[17.12014,39.07579],[17.12024,39.07573]]},"properties":{}},{"type":"Feature","geometry":{"type":"LineString","coordinates":[[17.11718,39.08722],[17.11806,39.08691]]},"properties":{}},{"type":"Feature","geometry":{"type":"LineString","coordinates":[[17.11845,39.08691],[17.11718,39.08722]]},"properties":{}},{"type":"Feature","geometry":{"type":"LineString","coordinates":[[17.11805,39.08666],[17.11825,39.08666],[17.11848,39.08674]]},"properties":{}},{"type":"Feature","geometry":{"type":"LineString","coordinates":[[17.11807,39.08671],[17.11805,39.08666]]},"properties":{}},{"type":"Feature","geometry":{"type":"LineString","coordinates":[[17.11806,39.08691],[17.11811,39.08682],[17.11807,39.08671]]},"properties":{}},{"type":"Feature","geometry":{"type":"LineString","coordinates":[[17.11806,39.08691],[17.11833,39.08682]]},"properties":{}},{"type":"Feature","geometry":{"type":"LineString","coordinates":[[17.11833,39.08682],[17.11807,39.08671]]},"properties":{}},{"type":"Feature","geometry":{"type":"LineString","coordinates":[[17.11845,39.08691],[17.11835,39.08688],[17.11833,39.08682]]},"properties":{}},{"type":"Feature","geometry":{"type":"LineString","coordinates":[[17.11833,39.08682],[17.11839,39.08674],[17.11848,39.08674]]},"properties":{}},{"type":"Feature","geometry":{"type":"LineString","coordinates":[[17.11854,39.08687],[17.11845,39.08691]]},"properties":{}},{"type":"Feature","geometry":{"type":"LineString","coordinates":[[17.11848,39.08674],[17.11849,39.08674]]},"properties":{}},{"type":"Feature","geometry":{"type":"LineString","coordinates":[[17.11849,39.08674],[17.11855,39.08681],[17.11854,39.08687]]},"properties":{}},{"type":"Feature","geometry":{"type":"LineString","coordinates":[[17.11849,39.08674],[17.11881,39.08666],[17.11896,39.08665]]},"properties":{}},{"type":"Feature","geometry":{"type":"LineString","coordinates":[[17.11896,39.08665],[17.11886,39.08675],[17.11854,39.08687]]},"properties":{}},{"type":"Feature","geometry":{"type":"LineString","coordinates":[[17.11894,39.08053],[17.11887,39.08042],[17.11888,39.08035],[17.11893,39.08029]]},"properties":{}},{"type":"Feature","geometry":{"type":"LineString","coordinates":[[17.11893,39.08029],[17.11902,39.08025]]},"properties":{}},{"type":"Feature","geometry":{"type":"LineString","coordinates":[[17.11931,39.0805],[17.1191,39.08055],[17.11894,39.08053]]},"properties":{}},{"type":"Feature","geometry":{"type":"LineString","coordinates":[[17.12594,39.08377],[17.1255,39.08389],[17.12501,39.08406],[17.12348,39.08469],[17.12245,39.08519],[17.12104,39.0858],[17.11944,39.08648],[17.11896,39.08665]]},"properties":{}},{"type":"Feature","geometry":{"type":"LineString","coordinates":[[17.11902,39.08025],[17.11918,39.08019],[17.1194,39.08002],[17.12129,39.07766]]},"properties":{}},{"type":"Feature","geometry":{"type":"LineString","coordinates":[[17.11902,39.08025],[17.1192,39.08022],[17.11933,39.08026],[17.11939,39.08039],[17.11931,39.0805]]},"properties":{}},{"type":"Feature","geometry":{"type":"LineString","coordinates":[[17.1223,39.08058],[17.11963,39.08047],[17.11931,39.0805]]},"properties":{}},{"type":"Feature","geometry":{"type":"LineString","coordinates":[[17.12033,39.07584],[17.12026,39.0758],[17.12024,39.07573]]},"properties":{}},{"type":"Feature","geometry":{"type":"LineString","coordinates":[[17.12024,39.07573],[17.12027,39.07565],[17.12037,39.0756],[17.12049,39.07562],[17.12055,39.07567]]},"properties":{}},{"type":"Feature","geometry":{"type":"LineString","coordinates":[[17.12049,39.07584],[17.12033,39.07584]]},"properties":{}},{"type":"Feature","geometry":{"type":"LineString","coordinates":[[17.12049,39.07584],[17.12047,39.07594],[17.12023,39.07616],[17.1197,39.07687],[17.12129,39.07766]]},"properties":{}},{"type":"Feature","geometry":{"type":"LineString","coordinates":[[17.12052,39.07582],[17.12049,39.07584]]},"properties":{}},{"type":"Feature","geometry":{"type":"LineString","coordinates":[[17.12055,39.07567],[17.12057,39.07575],[17.12052,39.07582]]},"properties":{}},{"type":"Feature","geometry":{"type":"LineString","coordinates":[[17.12129,39.07766],[17.12241,39.07627],[17.12245,39.07618],[17.12244,39.07606],[17.12234,39.07593],[17.12216,39.07587],[17.1208,39.07579],[17.12052,39.07582]]},"properties":{}},{"type":"Feature","geometry":{"type":"LineString","coordinates":[[17.12055,39.07567],[17.12457,39.07599]]},"properties":{}},{"type":"Feature","geometry":{"type":"LineString","coordinates":[[17.12129,39.07766],[17.12403,39.07902]]},"properties":{}},{"type":"Feature","geometry":{"type":"LineString","coordinates":[[17.12255,39.08049],[17.12253,39.08057],[17.12245,39.08061],[17.1223,39.08058]]},"properties":{}},{"type":"Feature","geometry":{"type":"LineString","coordinates":[[17.1223,39.08058],[17.12227,39.08049],[17.12234,39.08041],[17.12246,39.0804],[17.12255,39.08049]]},"properties":{}},{"type":"Feature","geometry":{"type":"LineString","coordinates":[[17.12264,39.08045],[17.12255,39.08049]]},"properties":{}},{"type":"Feature","geometry":{"type":"LineString","coordinates":[[17.12264,39.08045],[17.12264,39.08054],[17.12282,39.0806],[17.12691,39.08074]]},"properties":{}},{"type":"Feature","geometry":{"type":"LineString","coordinates":[[17.12403,39.07902],[17.12264,39.08045]]},"properties":{}},{"type":"Feature","geometry":{"type":"LineString","coordinates":[[17.12624,39.07622],[17.12529,39.07739],[17.12488,39.0781],[17.12403,39.07902]]},"properties":{}},{"type":"Feature","geometry":{"type":"LineString","coordinates":[[17.12474,39.07603],[17.12469,39.0761],[17.12461,39.0761],[17.12455,39.07605],[17.12457,39.07599]]},"properties":{}},{"type":"Feature","geometry":{"type":"LineString","coordinates":[[17.12457,39.07599],[17.12467,39.07596],[17.12474,39.07603]]},"properties":{}},{"type":"Feature","geometry":{"type":"LineString","coordinates":[[17.12474,39.07603],[17.12527,39.07608],[17.12607,39.07605]]},"properties":{}},{"type":"Feature","geometry":{"type":"LineString","coordinates":[[17.12594,39.08377],[17.12613,39.08369],[17.12631,39.08356]]},"properties":{}},{"type":"Feature","geometry":{"type":"LineString","coordinates":[[17.12646,39.08371],[17.12594,39.08377]]},"properties":{}},{"type":"Feature","geometry":{"type":"LineString","coordinates":[[17.12624,39.07622],[17.12614,39.07625],[17.12604,39.07621],[17.12601,39.07612],[17.12607,39.07605]]},"properties":{}},{"type":"Feature","geometry":{"type":"LineString","coordinates":[[17.12607,39.07605],[17.12622,39.07606],[17.12627,39.07611],[17.12626,39.07619]]},"properties":{}},{"type":"Feature","geometry":{"type":"LineString","coordinates":[[17.12608,39.08204],[17.12609,39.0821]]},"properties":{}},{"type":"Feature","geometry":{"type":"LineString","coordinates":[[17.12609,39.0821],[17.12603,39.08212],[17.12599,39.08207],[17.12602,39.08203],[17.12608,39.08204]]},"properties":{}},{"type":"Feature","geometry":{"type":"LineString","coordinates":[[17.12686,39.08098],[17.12675,39.08115],[17.12615,39.0818],[17.12608,39.08192],[17.12608,39.08204]]},"properties":{}},{"type":"Feature","geometry":{"type":"LineString","coordinates":[[17.12609,39.0821],[17.12613,39.08227],[17.12617,39.08234],[17.12691,39.08315]]},"properties":{}},{"type":"Feature","geometry":{"type":"LineString","coordinates":[[17.12626,39.07619],[17.12624,39.07622]]},"properties":{}},{"type":"Feature","geometry":{"type":"LineString","coordinates":[[17.12796,39.07445],[17.12626,39.07619]]},"properties":{}},{"type":"Feature","geometry":{"type":"LineString","coordinates":[[17.12646,39.08371],[17.12634,39.08363],[17.12631,39.08356]]},"properties":{}},{"type":"Feature","geometry":{"type":"LineString","coordinates":[[17.12631,39.08356],[17.12634,39.08346],[17.1264,39.08342],[17.12655,39.08339],[17.12664,39.08342]]},"properties":{}},{"type":"Feature","geometry":{"type":"LineString","coordinates":[[17.12669,39.08363],[17.12662,39.08369],[17.12646,39.08371]]},"properties":{}},{"type":"Feature","geometry":{"type":"LineString","coordinates":[[17.12664,39.08342],[17.12682,39.0834],[17.12689,39.08333],[17.12692,39.08328],[17.12691,39.08315]]},"properties":{}},{"type":"Feature","geometry":{"type":"LineString","coordinates":[[17.12664,39.08342],[17.12672,39.08353],[17.12669,39.08363]]},"properties":{}},{"type":"Feature","geometry":{"type":"LineString","coordinates":[[17.12712,39.08337],[17.12694,39.08344],[17.12687,39.08354],[17.12669,39.08363]]},"properties":{}},{"type":"Feature","geometry":{"type":"LineString","coordinates":[[17.12691,39.08074],[17.12707,39.08055],[17.12718,39.0805],[17.1273,39.08049],[17.12736,39.08056],[17.12731,39.08066],[17.12705,39.08092],[17.12696,39.08097],[17.12686,39.08098]]},"properties":{}},{"type":"Feature","geometry":{"type":"LineString","coordinates":[[17.12686,39.08098],[17.12682,39.08095],[17.12682,39.08091],[17.12691,39.08074]]},"properties":{}},{"type":"Feature","geometry":{"type":"LineString","coordinates":[[17.12691,39.08315],[17.12712,39.08337]]},"properties":{}},{"type":"Feature","geometry":{"type":"LineString","coordinates":[[17.12712,39.08337],[17.12747,39.08353],[17.1289,39.08381],[17.12907,39.08382],[17.13032,39.08328],[17.13089,39.08308],[17.13273,39.0826]]},"properties":{}},{"type":"Feature","geometry":{"type":"LineString","coordinates":[[17.12796,39.07445],[17.1279,39.07447],[17.1278,39.07445],[17.12776,39.07438],[17.12777,39.07434]]},"properties":{}},{"type":"Feature","geometry":{"type":"LineString","coordinates":[[17.12777,39.07434],[17.12781,39.07418],[17.12781,39.07287],[17.12867,39.06868],[17.1289,39.06775],[17.12903,39.06753],[17.12936,39.06729],[17.1295,39.06723],[17.1304,39.06702],[17.13066,39.06687],[17.13081,39.06672],[17.13092,39.0665]]},"properties":{}},{"type":"Feature","geometry":{"type":"LineString","coordinates":[[17.12777,39.07434],[17.12787,39.07428],[17.12798,39.07432]]},"properties":{}},{"type":"Feature","geometry":{"type":"LineString","coordinates":[[17.12798,39.07432],[17.12801,39.07439],[17.12796,39.07445]]},"properties":{}},{"type":"Feature","geometry":{"type":"LineString","coordinates":[[17.13104,39.07789],[17.13042,39.07737],[17.13129,39.07649],[17.13115,39.0764],[17.13093,39.07633],[17.13034,39.07641],[17.13028,39.07566],[17.12984,39.07485],[17.1295,39.07452],[17.12943,39.07439],[17.12933,39.07433],[17.12925,39.07434],[17.12906,39.07444],[17.1289,39.07459],[17.1286,39.07444],[17.12842,39.0744],[17.12796,39.07445]]},"properties":{}},{"type":"Feature","geometry":{"type":"LineString","coordinates":[[17.13085,39.067],[17.12959,39.06729],[17.12942,39.06736],[17.1293,39.06742],[17.12912,39.06756],[17.12899,39.06778],[17.12794,39.07286],[17.12798,39.07432]]},"properties":{}},{"type":"Feature","geometry":{"type":"LineString","coordinates":[[17.13085,39.067],[17.13092,39.0665]]},"properties":{}},{"type":"Feature","geometry":{"type":"LineString","coordinates":[[17.13167,39.06414],[17.13164,39.0643],[17.13165,39.06466],[17.13162,39.06477],[17.13101,39.06651],[17.13094,39.06696],[17.13085,39.067]]},"properties":{}},{"type":"Feature","geometry":{"type":"LineString","coordinates":[[17.13092,39.0665],[17.13157,39.06458],[17.13159,39.06445],[17.13153,39.06413]]},"properties":{}},{"type":"Feature","geometry":{"type":"LineString","coordinates":[[17.13118,39.07804],[17.1311,39.07805],[17.13102,39.07801],[17.131,39.07795],[17.13104,39.07789]]},"properties":{}},{"type":"Feature","geometry":{"type":"LineString","coordinates":[[17.13104,39.07789],[17.1311,39.07788],[17.1312,39.07791],[17.13122,39.07798],[17.13118,39.07804]]},"properties":{}},{"type":"Feature","geometry":{"type":"LineString","coordinates":[[17.13273,39.0826],[17.1328,39.08227],[17.13293,39.08212],[17.13359,39.08176],[17.13392,39.08142],[17.13438,39.08082],[17.13447,39.08077],[17.13118,39.07804]]},"properties":{}},{"type":"Feature","geometry":{"type":"LineString","coordinates":[[17.13167,39.06414],[17.13161,39.06416],[17.13153,39.06413]]},"properties":{}},{"type":"Feature","geometry":{"type":"LineString","coordinates":[[17.13153,39.06413],[17.13152,39.06406],[17.13159,39.06401]]},"properties":{}},{"type":"Feature","geometry":{"type":"LineString","coordinates":[[17.13159,39.06401],[17.13178,39.06384]]},"properties":{}},{"type":"Feature","geometry":{"type":"LineString","coordinates":[[17.13159,39.06401],[17.13165,39.06402],[17.13171,39.06407]]},"properties":{}},{"type":"Feature","geometry":{"type":"LineString","coordinates":[[17.13171,39.06407],[17.13167,39.06414]]},"properties":{}},{"type":"Feature","geometry":{"type":"LineString","coordinates":[[17.13178,39.06384],[17.13171,39.06407]]},"properties":{}},{"type":"Feature","geometry":{"type":"LineString","coordinates":[[17.13178,39.06384],[17.13205,39.06305],[17.13237,39.06227],[17.13325,39.05962],[17.13344,39.05931],[17.13466,39.05776],[17.13561,39.0566],[17.13578,39.05644],[17.13671,39.05582],[17.13712,39.0555],[17.13746,39.0551],[17.13897,39.05308],[17.14031,39.05138],[17.14151,39.0506],[17.14339,39.04956],[17.14366,39.04933],[17.14452,39.04845],[17.14515,39.04777],[17.14564,39.0467],[17.14611,39.04608],[17.14742,39.04517],[17.14785,39.04475],[17.14825,39.04443],[17.15266,39.04207],[17.1529,39.04196],[17.15323,39.04191],[17.15382,39.04201],[17.15403,39.042],[17.15431,39.0419],[17.15455,39.04175],[17.15477,39.04155],[17.15606,39.03993],[17.15634,39.03933],[17.15643,39.03901],[17.15635,39.03835],[17.15637,39.03829],[17.15658,39.03796],[17.15672,39.03786],[17.15703,39.03785],[17.15805,39.03814],[17.1582,39.03814],[17.15833,39.03807],[17.15841,39.03796],[17.15857,39.03789],[17.15875,39.03788],[17.15899,39.03798],[17.15914,39.038],[17.15929,39.03797],[17.16005,39.0374],[17.16031,39.03734],[17.16043,39.03737],[17.16096,39.03769],[17.16114,39.03775],[17.16147,39.0378],[17.16167,39.03776],[17.16209,39.03756],[17.16216,39.03746],[17.16217,39.03691],[17.16221,39.03682],[17.1625,39.03669],[17.16325,39.03649],[17.16339,39.03634],[17.16358,39.03601],[17.16366,39.03595],[17.16415,39.03587],[17.16443,39.03556],[17.1646,39.0355],[17.1649,39.03547],[17.1651,39.03539],[17.16518,39.03529],[17.16557,39.03343],[17.16567,39.03327],[17.16594,39.03304],[17.16614,39.03242],[17.16619,39.03235],[17.16922,39.03058],[17.17074,39.02953],[17.17424,39.02506],[17.17452,39.02488],[17.17478,39.02479]]},"properties":{}},{"type":"Feature","geometry":{"type":"LineString","coordinates":[[17.13275,39.08267],[17.13273,39.0826]]},"properties":{}},{"type":"Feature","geometry":{"type":"LineString","coordinates":[[17.17478,39.02479],[17.18554,39.02518],[17.19527,39.02558],[17.19561,39.02557],[17.19602,39.02549],[17.19715,39.02498],[17.19758,39.02483],[17.19778,39.02481],[17.19806,39.02483],[17.19929,39.02514]]},"properties":{}},{"type":"Feature","geometry":{"type":"LineString","coordinates":[[17.19929,39.02514],[17.19973,39.02513],[17.19996,39.02509],[17.20051,39.02475],[17.20066,39.02469],[17.20082,39.02466],[17.20118,39.02469],[17.20153,39.02491],[17.20166,39.02495],[17.20181,39.02539],[17.20195,39.02569],[17.20188,39.02574],[17.20181,39.02574],[17.19929,39.02514]]},"properties":{}}]}