{"type":"FeatureCollection","features":[{"type":"Feature","geometry":{"type":"LineString","coordinates":[[17.64344,40.36208],[17.64139,40.3566],[17.64114,40.35612],[17.63995,40.35447],[17.63966,40.35401],[17.6394,40.35344],[17.6392,40.35268],[17.63916,40.35177],[17.63918,40.35104],[17.63928,40.35038],[17.64045,40.34696],[17.64058,40.3461],[17.64052,40.34535],[17.64033,40.34465],[17.6394,40.34286],[17.63907,40.34206],[17.639,40.34107],[17.63886,40.34034],[17.63811,40.33793],[17.63789,40.33756],[17.63728,40.33707],[17.63316,40.3343],[17.63255,40.33382],[17.63235,40.33351],[17.6323,40.33324],[17.63228,40.33235],[17.6322,40.33198],[17.6319,40.33155],[17.63086,40.33076],[17.63076,40.33067],[17.63066,40.33045],[17.63066,40.3303],[17.63071,40.33013],[17.63087,40.32974],[17.63087,40.32948],[17.63033,40.32693],[17.63027,40.32636],[17.63036,40.32561],[17.63102,40.32176]]},"properties":{}},{"type":"Feature","geometry":{"type":"LineString","coordinates":[[17.63106,40.3902],[17.63263,40.39017],[17.63277,40.39024],[17.63432,40.39015]]},"properties":{}},{"type":"Feature","geometry":{"type":"LineString","coordinates":[[17.74427,40.30368],[17.74397,40.30378],[17.73544,40.30447],[17.7315,40.30477],[17.73052,40.30477],[17.72955,40.30462],[17.72906,40.30449],[17.72863,40.30434],[17.72791,40.30401],[17.7246,40.30191],[17.72438,40.30167],[17.72426,40.30123],[17.72421,40.30119],[17.72344,40.30122],[17.72198,40.30134],[17.71896,40.30124],[17.7182,40.30125],[17.71745,40.30133],[17.71284,40.30206],[17.70941,40.3025],[17.708,40.3027],[17.70367,40.30343],[17.70175,40.30379],[17.70109,40.30387],[17.69524,40.30413],[17.69008,40.30423],[17.68698,40.30451],[17.68344,40.30465],[17.68279,40.30473],[17.68007,40.30532],[17.67923,40.30548],[17.67685,40.30572],[17.67652,40.30579],[17.67602,40.30595],[17.67513,40.30654],[17.67465,40.30679],[17.67423,40.30689],[17.67391,40.30693],[17.66956,40.30702],[17.66591,40.30682],[17.66265,40.30691],[17.66026,40.30685],[17.65771,40.30674],[17.6531,40.30665],[17.65281,40.30658],[17.65221,40.30634],[17.64753,40.304],[17.64667,40.30361],[17.64604,40.30355],[17.64366,40.30374],[17.64303,40.30373],[17.63949,40.3034],[17.63915,40.30338],[17.63865,40.30343],[17.63822,40.30352],[17.63591,40.30433],[17.63547,40.30442],[17.63473,40.3044],[17.63463,40.30452],[17.63459,40.30461],[17.6346,40.30475],[17.63213,40.31042],[17.63185,40.31179],[17.63153,40.31834],[17.63113,40.32103]]},"properties":{}},{"type":"Feature","geometry":{"type":"LineString","coordinates":[[17.63419,40.39382],[17.63386,40.39327],[17.63288,40.39242],[17.63228,40.39195],[17.63194,40.3916],[17.63116,40.39037]]},"properties":{}},{"type":"Feature","geometry":{"type":"LineString","coordinates":[[17.63434,40.38938],[17.63727,40.38923],[17.63748,40.38719],[17.63812,40.38443],[17.6395,40.38116],[17.63963,40.38075],[17.64006,40.37835],[17.64037,40.37625],[17.64083,40.37402],[17.64241,40.3689],[17.64248,40.36848],[17.64272,40.36592],[17.64342,40.36306],[17.64355,40.36268],[17.64371,40.36233]]},"properties":{}},{"type":"Feature","geometry":{"type":"LineString","coordinates":[[17.63846,40.5],[17.63901,40.49961],[17.63988,40.49871],[17.63974,40.49783],[17.6398,40.49735],[17.63991,40.49715],[17.64042,40.49678],[17.64078,40.49658],[17.64168,40.49622],[17.64222,40.49605],[17.64251,40.49602],[17.64285,40.49607],[17.64326,40.49634],[17.64344,40.4965],[17.64362,40.49658]]},"properties":{}},{"type":"Feature","geometry":{"type":"LineString","coordinates":[[17.64394,40.49662],[17.64407,40.49651],[17.64487,40.4963],[17.64659,40.49567],[17.64672,40.49566],[17.65522,40.49254]]},"properties":{}},{"type":"Feature","geometry":{"type":"LineString","coordinates":[[17.7356,40.46361],[17.71546,40.47078],[17.7146,40.47111],[17.69628,40.47765],[17.65634,40.49213]]},"properties":{}},{"type":"Feature","geometry":{"type":"LineString","coordinates":[[17.68603,40.30485],[17.68704,40.3089],[17.68774,40.31204],[17.68806,40.3131],[17.6895,40.31924]]},"properties":{}},{"type":"Feature","geometry":{"type":"LineString","coordinates":[[17.68966,40.31991],[17.69113,40.3259],[17.69144,40.32672],[17.6917,40.32725],[17.69207,40.32786],[17.69238,40.32832],[17.69314,40.3292],[17.69973,40.33579],[17.70015,40.33629],[17.70037,40.33664],[17.70057,40.33705],[17.70071,40.33743],[17.70084,40.33818],[17.701,40.34406],[17.70099,40.34459]]},"properties":{}},{"type":"Feature","geometry":{"type":"LineString","coordinates":[[17.70091,40.36312],[17.70007,40.35845],[17.69979,40.35675],[17.69975,40.35604],[17.69992,40.35346],[17.70009,40.35151],[17.70061,40.34944],[17.70156,40.34594],[17.70173,40.3452]]},"properties":{}},{"type":"Feature","geometry":{"type":"LineString","coordinates":[[17.72645,40.35087],[17.726,40.35091],[17.72472,40.35082],[17.72435,40.35084],[17.72398,40.35087],[17.72336,40.35097],[17.72281,40.35112],[17.72234,40.3513],[17.72192,40.35152],[17.71879,40.35321],[17.71814,40.35358],[17.71758,40.35406],[17.71518,40.35669],[17.71452,40.35737]]},"properties":{}},{"type":"Feature","geometry":{"type":"LineString","coordinates":[[17.72549,40.40701],[17.72572,40.40111],[17.72582,40.39763],[17.72596,40.39468],[17.72629,40.38535],[17.72685,40.37194],[17.72722,40.36176],[17.72767,40.3509]]},"properties":{}},{"type":"Feature","geometry":{"type":"LineString","coordinates":[[17.72767,40.3509],[17.72645,40.35087]]},"properties":{}},{"type":"Feature","geometry":{"type":"LineString","coordinates":[[17.72645,40.35087],[17.72663,40.34886]]},"properties":{}},{"type":"Feature","geometry":{"type":"LineString","coordinates":[[17.72973,40.34735],[17.72979,40.34746],[17.73037,40.35098],[17.73036,40.35116],[17.72966,40.35095],[17.72767,40.3509]]},"properties":{}},{"type":"Feature","geometry":{"type":"LineString","coordinates":[[17.73521,40.43917],[17.73527,40.43972],[17.73546,40.44463],[17.73556,40.44627],[17.73566,40.44869],[17.73569,40.45052],[17.73601,40.45798],[17.73616,40.46243],[17.73617,40.46302],[17.73602,40.4633],[17.73578,40.46351]]},"properties":{}},{"type":"Feature","geometry":{"type":"LineString","coordinates":[[17.7365,40.43016],[17.73584,40.43226],[17.73576,40.43267]]},"properties":{}},{"type":"Feature","geometry":{"type":"LineString","coordinates":[[17.74279,40.41082],[17.73661,40.42985]]},"properties":{}},{"type":"Feature","geometry":{"type":"LineString","coordinates":[[17.74432,40.30362],[17.74439,40.30347],[17.7444,40.30325],[17.74358,40.29593]]},"properties":{}},{"type":"Feature","geometry":{"type":"LineString","coordinates":[[17.74432,40.30362],[17.7444,40.30358],[17.74459,40.30359],[17.74469,40.30368],[17.74468,40.3038],[17.7446,40.30388],[17.74441,40.3039],[17.74427,40.30381],[17.74427,40.30368]]},"properties":{}},{"type":"Feature","geometry":{"type":"LineString","coordinates":[[17.74427,40.30368],[17.74432,40.30362]]},"properties":{}},{"type":"Feature","geometry":{"type":"LineString","coordinates":[[17.99624,40.05595],[17.99612,40.05603],[17.99591,40.05602],[17.99578,40.05593],[17.99581,40.0558]]},"properties":{}},{"type":"Feature","geometry":{"type":"LineString","coordinates":[[17.99581,40.0558],[17.99592,40.05549],[17.9961,40.0553]]},"properties":{}},{"type":"Feature","geometry":{"type":"LineString","coordinates":[[17.99581,40.0558],[17.99588,40.05574],[17.996,40.05572],[17.99622,40.05578]]},"properties":{}},{"type":"Feature","geometry":{"type":"LineString","coordinates":[[17.9961,40.0553],[17.99606,40.05545],[17.99607,40.05559],[17.99622,40.05578]]},"properties":{}},{"type":"Feature","geometry":{"type":"LineString","coordinates":[[17.99632,40.05502],[17.9961,40.0553]]},"properties":{}},{"type":"Feature","geometry":{"type":"LineString","coordinates":[[17.99622,40.05578],[17.99625,40.05582]]},"properties":{}},{"type":"Feature","geometry":{"type":"LineString","coordinates":[[17.99625,40.05582],[17.99624,40.05595]]},"properties":{}},{"type":"Feature","geometry":{"type":"LineString","coordinates":[[17.99643,40.05592],[17.99624,40.05595]]},"properties":{}},{"type":"Feature","geometry":{"type":"LineString","coordinates":[[17.99625,40.05582],[17.99643,40.05592]]},"properties":{}},{"type":"Feature","geometry":{"type":"LineString","coordinates":[[17.99658,40.05469],[17.99675,40.05476],[17.99684,40.05475],[17.99727,40.05484],[17.99709,40.05523],[17.99665,40.05515],[17.99632,40.05502]]},"properties":{}},{"type":"Feature","geometry":{"type":"LineString","coordinates":[[17.99658,40.05469],[17.99632,40.05502]]},"properties":{}},{"type":"Feature","geometry":{"type":"LineString","coordinates":[[18.0,40.05703],[17.9975,40.05688],[17.99725,40.05673],[17.99704,40.05633],[17.99693,40.05618],[17.99665,40.05599],[17.99643,40.05592]]},"properties":{}},{"type":"Feature","geometry":{"type":"LineString","coordinates":[[18.0,40.05212],[17.99883,40.05246],[17.99839,40.05266],[17.99814,40.05283],[17.99774,40.0532],[17.99658,40.05469]]},"properties":{}}]}