{"type":"FeatureCollection","features":[{"type":"Feature","geometry":{"type":"LineString","coordinates":[[18.06442,40.0],[18.06413,40.00032],[18.06404,40.00052],[18.06398,40.00138],[18.064,40.00159],[18.06405,40.00175],[18.06414,40.00194],[18.06435,40.00217],[18.0644,40.00235],[18.06374,40.00262],[18.06347,40.00268],[18.06239,40.00259],[18.0619,40.00266],[18.06153,40.00283],[18.06097,40.00331],[18.06083,40.00337],[18.06023,40.00396],[18.05508,40.00873],[18.05325,40.01039],[18.04647,40.01667],[18.03129,40.03063],[18.02304,40.03816],[18.02267,40.03858],[18.02204,40.03917],[18.02182,40.03942],[18.02157,40.03975],[18.02129,40.04022],[18.02111,40.04066],[18.02096,40.0412],[18.0208,40.043],[18.02053,40.04354],[18.02031,40.04381],[18.02014,40.04396],[18.01962,40.04427],[18.01926,40.04439],[18.01888,40.04447],[18.01849,40.04449],[18.01691,40.04435],[18.01671,40.04438],[18.01647,40.04437],[18.01619,40.04448],[18.01604,40.04456],[18.01128,40.04893],[18.01073,40.0493],[18.00988,40.04957],[18.0,40.05212]]},"properties":{}},{"type":"Feature","geometry":{"type":"LineString","coordinates":[[18.01478,40.05788],[18.0,40.05703]]},"properties":{}},{"type":"Feature","geometry":{"type":"LineString","coordinates":[[18.01844,40.0581],[18.01478,40.05788]]},"properties":{}},{"type":"Feature","geometry":{"type":"LineString","coordinates":[[18.15245,40.33064],[18.1521,40.33011],[18.15137,40.32877],[18.14563,40.31792],[18.14523,40.31735],[18.14478,40.31688],[18.14432,40.31654],[18.14364,40.31612],[18.13928,40.31409],[18.13882,40.31383],[18.1382,40.31339],[18.13782,40.31303],[18.13762,40.31279],[18.13721,40.31214],[18.13679,40.31101],[18.1345,40.30437],[18.1332,40.30147],[18.1326,40.3],[18.13222,40.2989],[18.13207,40.29786],[18.1321,40.29676],[18.13228,40.29553],[18.13301,40.2915],[18.13307,40.29087],[18.133,40.2902],[18.1329,40.28981],[18.13269,40.28924],[18.10939,40.23686],[18.0963,40.20782],[18.08402,40.18009],[18.08359,40.17922],[18.08318,40.1785],[18.08285,40.17799],[18.08158,40.1766],[18.08086,40.17598],[18.08,40.17536],[18.05985,40.16271],[18.05689,40.16081],[18.05425,40.15919],[18.05401,40.15901],[18.05331,40.15837],[18.05279,40.15784],[18.05234,40.15732],[18.05193,40.15677],[18.05157,40.15623],[18.05129,40.15571],[18.05102,40.15501],[18.05085,40.15438],[18.04933,40.14789],[18.04914,40.14687],[18.04904,40.14549],[18.04904,40.14509],[18.04911,40.1442],[18.04923,40.14337],[18.04951,40.14209],[18.05101,40.13716],[18.05153,40.13557],[18.053,40.13071],[18.05311,40.13009],[18.05318,40.12944],[18.05313,40.12823],[18.05304,40.12763],[18.05272,40.12659],[18.05226,40.1256],[18.05206,40.12525],[18.05168,40.12469],[18.05082,40.12364],[18.045,40.1171],[18.04056,40.11199],[18.03605,40.10699],[18.03085,40.10113],[18.03021,40.10032],[18.02995,40.09989],[18.0297,40.09925],[18.02955,40.09868],[18.02949,40.09824],[18.02948,40.09781],[18.02954,40.09715],[18.02977,40.0963],[18.03016,40.09554],[18.03127,40.09351],[18.03139,40.09323],[18.03153,40.09268],[18.03159,40.09233],[18.03161,40.09164],[18.03158,40.09137],[18.0314,40.0907],[18.03113,40.09007],[18.03086,40.08966],[18.03065,40.0894],[18.0301,40.08885],[18.02938,40.08825],[18.01434,40.07646],[18.01393,40.07608],[18.01346,40.07558],[18.01305,40.07503],[18.01281,40.07463],[18.0125,40.07399],[18.01227,40.07321],[18.01219,40.07281],[18.01214,40.07213],[18.01216,40.07183],[18.01222,40.07121],[18.0123,40.07086],[18.01249,40.07029],[18.01309,40.06879],[18.01492,40.06454],[18.01652,40.06144],[18.01665,40.06108],[18.01693,40.06054],[18.01697,40.06041],[18.01696,40.06012],[18.01685,40.0599],[18.01659,40.05967],[18.01644,40.05959],[18.016,40.05945],[18.01568,40.05926],[18.01553,40.05908],[18.01546,40.05892],[18.0154,40.05832],[18.01518,40.05808],[18.01478,40.05788]]},"properties":{}},{"type":"Feature","geometry":{"type":"LineString","coordinates":[[18.01844,40.0581],[18.01906,40.05692],[18.01941,40.05663],[18.01962,40.05655],[18.01982,40.05651],[18.02004,40.05652],[18.02024,40.05656],[18.02062,40.05669],[18.02077,40.05675],[18.02093,40.05687],[18.02106,40.05699],[18.02115,40.05714],[18.02118,40.05727],[18.02119,40.05757],[18.02109,40.05786],[18.0208,40.05808],[18.02058,40.05816],[18.0203,40.0582],[18.01844,40.0581]]},"properties":{}},{"type":"Feature","geometry":{"type":"LineString","coordinates":[[18.01844,40.0581],[18.01515,40.06425],[18.01311,40.06899],[18.01263,40.07018],[18.01253,40.07064],[18.01245,40.07129],[18.01244,40.07161],[18.01252,40.07224],[18.01263,40.07271],[18.01272,40.07292],[18.01374,40.07519],[18.01393,40.07552],[18.01459,40.07639],[18.01505,40.07689],[18.01559,40.07735],[18.02947,40.0882],[18.03054,40.08914],[18.03103,40.08971],[18.03126,40.0901],[18.03151,40.09071],[18.03162,40.09108],[18.0317,40.09166],[18.03171,40.09231],[18.03164,40.09267],[18.03148,40.09324],[18.03136,40.09352],[18.03024,40.09557],[18.02987,40.09632],[18.02964,40.09716],[18.02959,40.09781],[18.02958,40.09825],[18.02975,40.09908],[18.03007,40.09988],[18.03063,40.10073],[18.03156,40.10182],[18.04209,40.11356],[18.0451,40.11706],[18.04717,40.1194]]},"properties":{}},{"type":"Feature","geometry":{"type":"LineString","coordinates":[[18.02575,40.0585],[18.0438,40.05957],[18.04386,40.05967],[18.04397,40.06002],[18.04407,40.06016],[18.04878,40.06385],[18.04927,40.06415],[18.05014,40.06442],[18.05067,40.0645],[18.05317,40.06455],[18.05398,40.06464],[18.05453,40.06476],[18.05546,40.06504],[18.05597,40.06522],[18.05664,40.06539],[18.05796,40.06558],[18.05855,40.06575],[18.05901,40.06596],[18.0612,40.0673],[18.0614,40.06737],[18.06158,40.06734],[18.06166,40.06736],[18.06171,40.06741],[18.06173,40.06761],[18.062,40.06797],[18.06245,40.06891],[18.06296,40.07093],[18.06304,40.07111],[18.06576,40.07633],[18.06584,40.07652],[18.06592,40.07719],[18.06593,40.07783],[18.06599,40.07813],[18.06682,40.08068],[18.06718,40.08156],[18.06723,40.08186],[18.06721,40.08213],[18.0668,40.08373],[18.06667,40.0852]]},"properties":{}},{"type":"Feature","geometry":{"type":"LineString","coordinates":[[18.03192,40.5],[18.03276,40.49915],[18.03465,40.49679],[18.03535,40.49578],[18.03583,40.49499],[18.03816,40.49053],[18.03895,40.48918],[18.05153,40.46969],[18.05268,40.46817],[18.05351,40.46721],[18.05681,40.4637],[18.0586,40.46199],[18.05945,40.46099],[18.06396,40.45486],[18.06458,40.45403],[18.06529,40.45325],[18.06632,40.45219],[18.07194,40.44692],[18.07348,40.44543],[18.07431,40.44458],[18.07656,40.44178],[18.07963,40.43772],[18.0802,40.43705],[18.08286,40.43402],[18.08357,40.43326],[18.0853,40.43129],[18.09137,40.42455],[18.09273,40.42317],[18.09641,40.41979],[18.09879,40.41754],[18.10064,40.41559],[18.1055,40.41026],[18.10646,40.40906],[18.10742,40.40768],[18.1105,40.40299],[18.11276,40.39968],[18.11392,40.39836],[18.11836,40.39394],[18.1189,40.39332],[18.12167,40.38898],[18.12217,40.3884],[18.12338,40.38733],[18.12394,40.38691],[18.12942,40.38392],[18.13112,40.3829],[18.13235,40.38195],[18.13413,40.3805],[18.13809,40.37734],[18.14301,40.37398],[18.14346,40.37371],[18.14396,40.37345],[18.14448,40.37323],[18.15702,40.36851],[18.15869,40.36784],[18.16335,40.36559],[18.16397,40.36524],[18.16459,40.36484],[18.16711,40.36303],[18.16726,40.36285],[18.16728,40.36275]]},"properties":{}},{"type":"Feature","geometry":{"type":"LineString","coordinates":[[18.16754,40.36297],[18.16728,40.36302],[18.16717,40.36308],[18.16467,40.36491],[18.16404,40.36531],[18.1634,40.36565],[18.15875,40.36792],[18.15811,40.36819],[18.14444,40.37334],[18.14351,40.3738],[18.1429,40.37417],[18.13816,40.37741],[18.13433,40.38047],[18.13246,40.38201],[18.13128,40.3829],[18.13079,40.38323],[18.12956,40.38396],[18.12438,40.38678],[18.12346,40.38739],[18.12283,40.3879],[18.12229,40.38842],[18.12178,40.38901],[18.12104,40.3901],[18.11963,40.39238],[18.11899,40.39334],[18.1184,40.39405],[18.114,40.39842],[18.11287,40.3997],[18.1121,40.40078],[18.10757,40.40768],[18.1066,40.40908],[18.10566,40.4103],[18.10077,40.41559],[18.09845,40.41806],[18.09595,40.42035],[18.0929,40.42323],[18.09146,40.42463],[18.09046,40.42572],[18.08953,40.42678],[18.08032,40.43707],[18.07889,40.43888],[18.07595,40.44276],[18.07479,40.44421],[18.07425,40.44482],[18.07371,40.4454],[18.06643,40.45223],[18.06539,40.45327],[18.0647,40.45404],[18.06038,40.45989],[18.05954,40.46099],[18.05871,40.462],[18.05357,40.46733],[18.0526,40.46843],[18.05156,40.46986],[18.04257,40.48388],[18.04116,40.48603],[18.03844,40.49042],[18.03624,40.4945],[18.03527,40.49611],[18.03437,40.49737],[18.03314,40.49887],[18.03262,40.49947],[18.03209,40.5]]},"properties":{}},{"type":"Feature","geometry":{"type":"LineString","coordinates":[[18.04717,40.1194],[18.05165,40.12445]]},"properties":{}},{"type":"Feature","geometry":{"type":"LineString","coordinates":[[18.05806,40.09735],[18.05787,40.09758],[18.05691,40.09926],[18.05682,40.09961],[18.05685,40.09997],[18.05693,40.10036],[18.05711,40.10071],[18.05735,40.10102],[18.05772,40.10141],[18.05842,40.10205],[18.05877,40.10226],[18.05884,40.10235],[18.0501,40.11371],[18.04826,40.11616],[18.04814,40.11656],[18.04813,40.11678],[18.04809,40.11685],[18.04782,40.11705],[18.04758,40.11733],[18.04707,40.11842],[18.04694,40.11892],[18.04717,40.1194]]},"properties":{}},{"type":"Feature","geometry":{"type":"LineString","coordinates":[[18.0833,40.1785],[18.08329,40.17837],[18.08314,40.1781],[18.08289,40.17741],[18.08206,40.17553],[18.08192,40.17532],[18.08046,40.17196],[18.07335,40.15603],[18.07068,40.14996],[18.07044,40.14951],[18.06959,40.1482],[18.0693,40.14764],[18.06825,40.14413],[18.06803,40.14347],[18.06784,40.14302],[18.06588,40.14072],[18.0564,40.12985],[18.05612,40.12948],[18.05165,40.12445]]},"properties":{}},{"type":"Feature","geometry":{"type":"LineString","coordinates":[[18.05165,40.12445],[18.05236,40.12561],[18.05282,40.12658],[18.05296,40.12702],[18.05312,40.12763],[18.05323,40.12823],[18.05327,40.12947],[18.05321,40.13009],[18.05292,40.13135],[18.04955,40.14233],[18.04925,40.14395],[18.04919,40.14453],[18.04916,40.14543],[18.0492,40.14634],[18.04931,40.14727],[18.04942,40.14789],[18.05031,40.15175],[18.05109,40.15492],[18.05139,40.15569],[18.05167,40.15621],[18.05204,40.15677],[18.05244,40.15732],[18.05287,40.15781],[18.05341,40.15835],[18.05433,40.15911],[18.05618,40.16026],[18.0599,40.16264],[18.08014,40.17534],[18.08095,40.17593],[18.08169,40.17657],[18.08257,40.1775],[18.08295,40.17799],[18.0833,40.1785]]},"properties":{}},{"type":"Feature","geometry":{"type":"LineString","coordinates":[[18.05806,40.09735],[18.05795,40.09734],[18.05793,40.09727],[18.05801,40.09723],[18.0581,40.09728]]},"properties":{}},{"type":"Feature","geometry":{"type":"LineString","coordinates":[[18.0581,40.09728],[18.05806,40.09735]]},"properties":{}},{"type":"Feature","geometry":{"type":"LineString","coordinates":[[18.06004,40.09214],[18.0599,40.09231],[18.05992,40.0926],[18.06032,40.09309],[18.06059,40.0935],[18.06079,40.09388],[18.06089,40.09416],[18.06091,40.09449],[18.06076,40.09508],[18.06037,40.09578],[18.06011,40.096],[18.05961,40.09638],[18.05823,40.09713],[18.0581,40.09728]]},"properties":{}},{"type":"Feature","geometry":{"type":"LineString","coordinates":[[18.06004,40.09214],[18.05991,40.09212],[18.05985,40.09201],[18.0599,40.09195],[18.05996,40.09192],[18.06011,40.09195]]},"properties":{}},{"type":"Feature","geometry":{"type":"LineString","coordinates":[[18.06011,40.09195],[18.06015,40.09206],[18.06004,40.09214]]},"properties":{}},{"type":"Feature","geometry":{"type":"LineString","coordinates":[[18.06478,40.08523],[18.06449,40.08537],[18.06297,40.0868],[18.06259,40.08725],[18.0624,40.08754],[18.06014,40.09171],[18.06011,40.09195]]},"properties":{}},{"type":"Feature","geometry":{"type":"LineString","coordinates":[[18.06678,40.08542],[18.06689,40.08549],[18.06692,40.0856],[18.06686,40.08571],[18.06667,40.08576],[18.06654,40.08572],[18.06626,40.0855],[18.06533,40.08521],[18.06511,40.08519],[18.06484,40.08521]]},"properties":{}},{"type":"Feature","geometry":{"type":"LineString","coordinates":[[18.0833,40.1785],[18.08372,40.17922],[18.08414,40.1801],[18.09368,40.20163],[18.0962,40.20737],[18.10315,40.2227],[18.10949,40.23685],[18.11872,40.25766],[18.1224,40.26585],[18.12983,40.28264],[18.1328,40.28923],[18.13309,40.29011],[18.13316,40.29051],[18.13317,40.29094],[18.13315,40.2913],[18.13218,40.29678],[18.13218,40.29787],[18.13234,40.2989],[18.13268,40.29999],[18.1346,40.30434],[18.13597,40.30832],[18.13735,40.31213],[18.13774,40.31278],[18.13799,40.31307],[18.13829,40.31334],[18.13888,40.31377],[18.14002,40.31434],[18.14373,40.31606],[18.14411,40.31628],[18.14464,40.31665],[18.14487,40.31684],[18.14534,40.31731],[18.14573,40.31789],[18.14653,40.31946],[18.14816,40.32249],[18.14992,40.32585],[18.15222,40.33006],[18.15245,40.33064]]},"properties":{}},{"type":"Feature","geometry":{"type":"LineString","coordinates":[[18.14786,40.3851],[18.14832,40.38553],[18.14809,40.38596],[18.1449,40.38491],[18.1459,40.38324],[18.14624,40.38261],[18.14638,40.38209],[18.14681,40.3811],[18.14712,40.38022],[18.14718,40.37983],[18.14741,40.37766],[18.14748,40.37731],[18.14807,40.37622],[18.14844,40.37508],[18.14861,40.37475],[18.149,40.37422],[18.14944,40.3739],[18.15004,40.37359],[18.15095,40.37505],[18.15138,40.37601],[18.15139,40.37633],[18.15149,40.37678],[18.15146,40.377],[18.15157,40.37835],[18.15171,40.3791],[18.15197,40.37973],[18.15231,40.38029],[18.15255,40.38057],[18.15279,40.38084],[18.15339,40.38133],[18.15582,40.38297],[18.15595,40.38301],[18.15666,40.38341],[18.15707,40.38348],[18.15736,40.38346],[18.15777,40.38335],[18.15823,40.38305],[18.15837,40.38299],[18.15869,40.38272],[18.15881,40.38241],[18.15924,40.38221],[18.15939,40.38205],[18.15989,40.38044],[18.16089,40.37698],[18.1609,40.37688],[18.1608,40.37661],[18.16058,40.37648],[18.16042,40.37644],[18.15669,40.37654],[18.1565,40.37658],[18.15646,40.37662],[18.15644,40.37676]]},"properties":{}},{"type":"Feature","geometry":{"type":"LineString","coordinates":[[18.15173,40.01719],[18.15144,40.01735],[18.15103,40.01694],[18.15109,40.01688],[18.15173,40.01719]]},"properties":{}},{"type":"Feature","geometry":{"type":"LineString","coordinates":[[18.15364,40.01616],[18.15173,40.01719]]},"properties":{}},{"type":"Feature","geometry":{"type":"LineString","coordinates":[[18.15917,40.34316],[18.15466,40.33481],[18.15245,40.33064]]},"properties":{}},{"type":"Feature","geometry":{"type":"LineString","coordinates":[[18.15412,40.01591],[18.15364,40.01616]]},"properties":{}},{"type":"Feature","geometry":{"type":"LineString","coordinates":[[18.15428,40.01606],[18.15364,40.01616]]},"properties":{}},{"type":"Feature","geometry":{"type":"LineString","coordinates":[[18.15412,40.01904],[18.15415,40.01908],[18.15414,40.01919],[18.15404,40.01927],[18.15391,40.01928],[18.15377,40.01919],[18.15376,40.0191],[18.15386,40.01899],[18.15397,40.01897],[18.15412,40.01904]]},"properties":{}},{"type":"Feature","geometry":{"type":"LineString","coordinates":[[18.15412,40.01904],[18.15416,40.01878],[18.15573,40.01766],[18.1565,40.01704]]},"properties":{}},{"type":"Feature","geometry":{"type":"LineString","coordinates":[[18.15428,40.01606],[18.15412,40.01591]]},"properties":{}},{"type":"Feature","geometry":{"type":"LineString","coordinates":[[18.15489,40.01542],[18.15482,40.01553],[18.15412,40.01591]]},"properties":{}},{"type":"Feature","geometry":{"type":"LineString","coordinates":[[18.1563,40.01693],[18.15535,40.01641],[18.15487,40.01619],[18.15428,40.01606]]},"properties":{}},{"type":"Feature","geometry":{"type":"LineString","coordinates":[[18.15496,40.01533],[18.15478,40.01525],[18.15213,40.01237],[18.15193,40.0119],[18.15186,40.01132],[18.15189,40.00996],[18.152,40.00902],[18.15188,40.00894],[18.15357,40.00674],[18.15431,40.00544]]},"properties":{}},{"type":"Feature","geometry":{"type":"LineString","coordinates":[[18.15431,40.00544],[18.15434,40.00518]]},"properties":{}},{"type":"Feature","geometry":{"type":"LineString","coordinates":[[18.15442,40.00531],[18.15431,40.00544]]},"properties":{}},{"type":"Feature","geometry":{"type":"LineString","coordinates":[[18.15434,40.00518],[18.15432,40.00514]]},"properties":{}},{"type":"Feature","geometry":{"type":"LineString","coordinates":[[18.15442,40.00531],[18.15434,40.00518]]},"properties":{}},{"type":"Feature","geometry":{"type":"LineString","coordinates":[[18.15915,40.00966],[18.15885,40.00949],[18.1586,40.00928],[18.15681,40.00755],[18.15442,40.00531]]},"properties":{}},{"type":"Feature","geometry":{"type":"LineString","coordinates":[[18.15502,40.01545],[18.15502,40.01552],[18.1563,40.01693]]},"properties":{}},{"type":"Feature","geometry":{"type":"LineString","coordinates":[[18.15915,40.00966],[18.15856,40.01073],[18.15847,40.01321],[18.15841,40.01361],[18.15506,40.0154]]},"properties":{}},{"type":"Feature","geometry":{"type":"LineString","coordinates":[[18.1565,40.01704],[18.1563,40.01693]]},"properties":{}},{"type":"Feature","geometry":{"type":"LineString","coordinates":[[18.16212,40.01711],[18.16216,40.0167],[18.15705,40.01717],[18.15674,40.01714],[18.1565,40.01704]]},"properties":{}},{"type":"Feature","geometry":{"type":"LineString","coordinates":[[18.15821,40.48035],[18.15926,40.48007],[18.17078,40.47686],[18.17116,40.47671],[18.17151,40.4765],[18.17181,40.4762],[18.17826,40.4678],[18.18155,40.46346],[18.18178,40.46303],[18.18192,40.46254],[18.18212,40.46045],[18.18226,40.45996],[18.1824,40.45968],[18.18264,40.45934],[18.18302,40.45897],[18.18337,40.45871],[18.18373,40.4585],[18.18412,40.45834],[18.1846,40.45818],[18.18745,40.45765],[18.18841,40.45743],[18.18953,40.45703],[18.19041,40.45666],[18.19076,40.45657],[18.19158,40.45647],[18.19318,40.45645],[18.19342,40.45656],[18.19363,40.45674],[18.19378,40.45681],[18.19396,40.45684],[18.19434,40.45683],[18.19454,40.45688],[18.1948,40.45726],[18.19487,40.45745],[18.19493,40.45773],[18.19506,40.46185]]},"properties":{}},{"type":"Feature","geometry":{"type":"LineString","coordinates":[[18.15903,40.00348],[18.16085,40.00744]]},"properties":{}},{"type":"Feature","geometry":{"type":"LineString","coordinates":[[18.15903,40.00348],[18.15885,40.00354],[18.15878,40.00335],[18.15912,40.00326],[18.15921,40.00342],[18.15903,40.00348]]},"properties":{}},{"type":"Feature","geometry":{"type":"LineString","coordinates":[[18.15979,40.00998],[18.15915,40.00966]]},"properties":{}},{"type":"Feature","geometry":{"type":"LineString","coordinates":[[18.16085,40.00744],[18.15961,40.00883],[18.15915,40.00966]]},"properties":{}},{"type":"Feature","geometry":{"type":"LineString","coordinates":[[18.15917,40.34316],[18.1605,40.34565],[18.16132,40.34711],[18.16058,40.34752],[18.16065,40.3476],[18.16063,40.34779],[18.16071,40.34793],[18.16122,40.34847],[18.1614,40.34862],[18.16154,40.34868],[18.16187,40.34873],[18.16231,40.34867],[18.16287,40.34964],[18.16379,40.35103],[18.16465,40.3524],[18.16724,40.35664],[18.16729,40.3567],[18.16752,40.35683],[18.16753,40.35691],[18.16749,40.35697],[18.16753,40.35711],[18.16931,40.36002],[18.16953,40.36031],[18.16975,40.36053],[18.16991,40.36061],[18.17015,40.36067],[18.17026,40.36076],[18.17028,40.36085],[18.17025,40.36094],[18.17009,40.36104]]},"properties":{}},{"type":"Feature","geometry":{"type":"LineString","coordinates":[[18.16778,40.36239],[18.16809,40.36232],[18.16919,40.36154],[18.16955,40.36112],[18.1696,40.36094],[18.16959,40.36064],[18.16936,40.36021],[18.16745,40.35713],[18.16736,40.35702],[18.1672,40.35695],[18.16718,40.35686],[18.164,40.35173],[18.16391,40.35158],[18.16386,40.35132],[18.16372,40.35111],[18.16364,40.35101],[18.16328,40.35075],[18.16192,40.34986],[18.16183,40.34905],[18.16176,40.34893],[18.16131,40.34869],[18.1606,40.34799],[18.16042,40.34786],[18.16019,40.34779],[18.16007,40.34765],[18.16084,40.34724],[18.15786,40.34397],[18.15917,40.34316]]},"properties":{}},{"type":"Feature","geometry":{"type":"LineString","coordinates":[[18.15917,40.34316],[18.16496,40.3397],[18.16503,40.33963],[18.16761,40.33813],[18.16796,40.33789],[18.16808,40.33789],[18.16816,40.33793],[18.17057,40.34597],[18.17072,40.34621],[18.17081,40.34621],[18.17092,40.34627],[18.17095,40.34632],[18.17091,40.34643],[18.17094,40.34653],[18.17107,40.34671],[18.17414,40.34904],[18.17887,40.34744],[18.17887,40.34736],[18.17892,40.3473],[18.179,40.34727],[18.17915,40.34732],[18.18275,40.34614],[18.18283,40.34611],[18.18291,40.34601],[18.18293,40.34588],[18.18309,40.34579],[18.18323,40.3458],[18.18334,40.34589],[18.18341,40.3462],[18.18399,40.34682],[18.18475,40.34769],[18.18551,40.3493],[18.18562,40.3496],[18.18578,40.35022],[18.1859,40.35099],[18.18596,40.35211],[18.18586,40.35315],[18.18571,40.35369],[18.1839,40.35745],[18.18309,40.35844],[18.18306,40.3587],[18.18315,40.35877],[18.18318,40.35888],[18.18312,40.35899],[18.18253,40.35926],[18.18217,40.35948],[18.18153,40.36015],[18.18103,40.36054],[18.18067,40.36077],[18.179,40.36171],[18.17842,40.36193],[18.17755,40.3622],[18.17527,40.36277],[18.17458,40.36291],[18.17402,40.36296],[18.1735,40.36296],[18.17324,40.36292],[18.17292,40.36283],[18.17271,40.36273],[18.17204,40.36232],[18.17036,40.36114],[18.17009,40.36104]]},"properties":{}},{"type":"Feature","geometry":{"type":"LineString","coordinates":[[18.15967,40.01017],[18.15979,40.00998]]},"properties":{}},{"type":"Feature","geometry":{"type":"LineString","coordinates":[[18.15979,40.00998],[18.16057,40.01028]]},"properties":{}},{"type":"Feature","geometry":{"type":"LineString","coordinates":[[18.16,40.02473],[18.15961,40.02591],[18.16141,40.02632],[18.16119,40.02693],[18.16271,40.02724],[18.16325,40.02568],[18.16323,40.02551],[18.16305,40.02539],[18.16,40.02473]]},"properties":{}},{"type":"Feature","geometry":{"type":"LineString","coordinates":[[18.16133,40.02025],[18.16053,40.02278],[18.16028,40.02327],[18.16001,40.02373],[18.15991,40.02405],[18.16,40.02473]]},"properties":{}},{"type":"Feature","geometry":{"type":"LineString","coordinates":[[18.16047,40.0105],[18.16044,40.01048],[18.16057,40.01028]]},"properties":{}},{"type":"Feature","geometry":{"type":"LineString","coordinates":[[18.16057,40.01028],[18.16059,40.01029]]},"properties":{}},{"type":"Feature","geometry":{"type":"LineString","coordinates":[[18.1758,40.01204],[18.17515,40.01177],[18.17402,40.01183],[18.17381,40.01182],[18.1702,40.01103],[18.1699,40.01102],[18.16953,40.0111],[18.16948,40.01108],[18.16911,40.01073],[18.16913,40.01034],[18.16908,40.01015],[18.16825,40.00877],[18.16804,40.00831],[18.16784,40.00801],[18.16757,40.00778],[18.16641,40.00698],[18.16612,40.00682],[18.16584,40.00672],[18.16633,40.006],[18.16687,40.00538],[18.16729,40.00497],[18.16768,40.00436],[18.16769,40.00428],[18.16766,40.00422],[18.1668,40.0039],[18.16755,40.00319],[18.16706,40.00289],[18.16356,40.00624],[18.16335,40.00646],[18.16301,40.00691],[18.16211,40.00663],[18.16178,40.00658],[18.1616,40.00665],[18.16146,40.00676],[18.16085,40.00744]]},"properties":{}},{"type":"Feature","geometry":{"type":"LineString","coordinates":[[18.16133,40.02025],[18.1614,40.02011]]},"properties":{}},{"type":"Feature","geometry":{"type":"LineString","coordinates":[[18.16148,40.02014],[18.16133,40.02025]]},"properties":{}},{"type":"Feature","geometry":{"type":"LineString","coordinates":[[18.16148,40.02014],[18.1614,40.02011]]},"properties":{}},{"type":"Feature","geometry":{"type":"LineString","coordinates":[[18.1614,40.02011],[18.1614,40.02004],[18.16146,40.02]]},"properties":{}},{"type":"Feature","geometry":{"type":"LineString","coordinates":[[18.16146,40.02],[18.1615,40.01996],[18.16152,40.01976],[18.16157,40.0197]]},"properties":{}},{"type":"Feature","geometry":{"type":"LineString","coordinates":[[18.16146,40.02],[18.16151,40.02],[18.16157,40.02005]]},"properties":{}},{"type":"Feature","geometry":{"type":"LineString","coordinates":[[18.16157,40.02005],[18.16157,40.02011],[18.16148,40.02014]]},"properties":{}},{"type":"Feature","geometry":{"type":"LineString","coordinates":[[18.16157,40.0197],[18.16157,40.02005]]},"properties":{}},{"type":"Feature","geometry":{"type":"LineString","coordinates":[[18.16212,40.01711],[18.16186,40.0186],[18.16157,40.0197]]},"properties":{}},{"type":"Feature","geometry":{"type":"LineString","coordinates":[[18.1656,40.01958],[18.1651,40.01876],[18.16481,40.01817],[18.16461,40.01738],[18.16212,40.01711]]},"properties":{}},{"type":"Feature","geometry":{"type":"LineString","coordinates":[[18.1656,40.01958],[18.16693,40.01973],[18.16817,40.01997],[18.16914,40.01844],[18.16929,40.01828],[18.16941,40.01798],[18.16949,40.01793],[18.17038,40.01812],[18.17022,40.01762],[18.17201,40.0175],[18.1721,40.01752],[18.17535,40.01259],[18.1758,40.01204]]},"properties":{}},{"type":"Feature","geometry":{"type":"LineString","coordinates":[[18.16566,40.01967],[18.1656,40.01958]]},"properties":{}},{"type":"Feature","geometry":{"type":"LineString","coordinates":[[18.16754,40.36297],[18.16734,40.36285],[18.16728,40.36275]]},"properties":{}},{"type":"Feature","geometry":{"type":"LineString","coordinates":[[18.16728,40.36275],[18.16728,40.36264],[18.16736,40.3625],[18.16757,40.36239],[18.16778,40.36239]]},"properties":{}},{"type":"Feature","geometry":{"type":"LineString","coordinates":[[18.16806,40.36315],[18.16791,40.36305],[18.16773,40.36298],[18.16754,40.36297]]},"properties":{}},{"type":"Feature","geometry":{"type":"LineString","coordinates":[[18.16778,40.36239],[18.16797,40.36248],[18.16806,40.36261]]},"properties":{}},{"type":"Feature","geometry":{"type":"LineString","coordinates":[[18.16806,40.36261],[18.16807,40.36271],[18.16802,40.36283],[18.16801,40.36301],[18.16806,40.36315]]},"properties":{}},{"type":"Feature","geometry":{"type":"LineString","coordinates":[[18.17009,40.36104],[18.1699,40.3611],[18.1698,40.36116],[18.16956,40.3614],[18.1682,40.36237],[18.16806,40.36261]]},"properties":{}},{"type":"Feature","geometry":{"type":"LineString","coordinates":[[18.16806,40.36315],[18.16813,40.36328],[18.16853,40.36326],[18.16852,40.36314]]},"properties":{}},{"type":"Feature","geometry":{"type":"LineString","coordinates":[[18.16852,40.36314],[18.16846,40.36315],[18.16841,40.36268],[18.16861,40.36258],[18.16866,40.36306],[18.16852,40.36314]]},"properties":{}},{"type":"Feature","geometry":{"type":"LineString","coordinates":[[18.17639,40.01167],[18.1758,40.01204]]},"properties":{}}]}