{"type":"FeatureCollection","features":[{"type":"Feature","geometry":{"type":"LineString","coordinates":[[7.52431,45.25],[7.52423,45.25012],[7.524,45.25025],[7.52385,45.25039],[7.52386,45.2505],[7.52398,45.25063],[7.52417,45.25076],[7.52428,45.25093],[7.52427,45.25108],[7.52415,45.25118],[7.52397,45.25124]]},"properties":{}},{"type":"Feature","geometry":{"type":"LineString","coordinates":[[7.52869,45.25759],[7.52818,45.25764],[7.52771,45.25749],[7.52772,45.25741],[7.52919,45.25662],[7.53018,45.25624],[7.53055,45.25594],[7.53071,45.25591],[7.53096,45.25578],[7.5314,45.25538],[7.53164,45.25511],[7.53181,45.25483],[7.53246,45.25427],[7.53264,45.25402],[7.53291,45.25351],[7.53321,45.25323],[7.53364,45.25297],[7.53392,45.25275],[7.53411,45.25256],[7.53426,45.25235],[7.53429,45.25226],[7.53389,45.25196],[7.53356,45.25151],[7.53339,45.25105],[7.5336,45.25055],[7.53376,45.2503],[7.53373,45.25]]},"properties":{}},{"type":"Feature","geometry":{"type":"LineString","coordinates":[[7.54916,45.25208],[7.54938,45.25204],[7.55005,45.25174]]},"properties":{}},{"type":"Feature","geometry":{"type":"LineString","coordinates":[[7.55005,45.25174],[7.54961,45.25204],[7.54945,45.25223]]},"properties":{}},{"type":"Feature","geometry":{"type":"LineString","coordinates":[[7.54904,45.25252],[7.5489,45.25245],[7.54882,45.25234],[7.54886,45.25221],[7.54891,45.25215],[7.54916,45.25208],[7.54926,45.2521],[7.5494,45.25218],[7.54946,45.25232],[7.5494,45.25244],[7.54922,45.25253],[7.54904,45.25252]]},"properties":{}},{"type":"Feature","geometry":{"type":"LineString","coordinates":[[7.54899,45.25277],[7.54902,45.2526],[7.54899,45.2525]]},"properties":{}},{"type":"Feature","geometry":{"type":"LineString","coordinates":[[7.54922,45.25253],[7.54899,45.25277]]},"properties":{}},{"type":"Feature","geometry":{"type":"LineString","coordinates":[[7.54756,45.25369],[7.54758,45.25362],[7.54764,45.2536],[7.54774,45.25363],[7.54776,45.25367],[7.54768,45.25374],[7.54762,45.25374],[7.54756,45.25369]]},"properties":{}},{"type":"Feature","geometry":{"type":"LineString","coordinates":[[7.52926,45.25749],[7.52881,45.25759]]},"properties":{}},{"type":"Feature","geometry":{"type":"LineString","coordinates":[[7.52881,45.25759],[7.52869,45.25759]]},"properties":{}},{"type":"Feature","geometry":{"type":"LineString","coordinates":[[7.54013,45.25951],[7.54043,45.25928],[7.54106,45.25897],[7.54254,45.25844],[7.54256,45.25838]]},"properties":{}},{"type":"Feature","geometry":{"type":"LineString","coordinates":[[7.53396,45.2616],[7.5341,45.26151],[7.53961,45.25964],[7.54013,45.25951]]},"properties":{}},{"type":"Feature","geometry":{"type":"LineString","coordinates":[[7.52275,45.26195],[7.52284,45.26199],[7.52284,45.26206],[7.52276,45.2621],[7.52269,45.26209],[7.52265,45.26205],[7.52265,45.262],[7.52275,45.26195]]},"properties":{}},{"type":"Feature","geometry":{"type":"LineString","coordinates":[[7.50958,45.26441],[7.50905,45.26424]]},"properties":{}},{"type":"Feature","geometry":{"type":"LineString","coordinates":[[7.51029,45.26438],[7.51012,45.26437]]},"properties":{}},{"type":"Feature","geometry":{"type":"LineString","coordinates":[[7.51012,45.26437],[7.50984,45.26442],[7.50958,45.26441]]},"properties":{}},{"type":"Feature","geometry":{"type":"LineString","coordinates":[[7.51035,45.26442],[7.51029,45.26438]]},"properties":{}},{"type":"Feature","geometry":{"type":"LineString","coordinates":[[7.51061,45.2646],[7.51035,45.26442]]},"properties":{}},{"type":"Feature","geometry":{"type":"LineString","coordinates":[[7.51135,45.26515],[7.51214,45.26476],[7.51223,45.26467],[7.51237,45.26442],[7.51241,45.26426],[7.5125,45.26413]]},"properties":{}},{"type":"Feature","geometry":{"type":"LineString","coordinates":[[7.51135,45.26515],[7.51097,45.26501],[7.51086,45.26491],[7.51076,45.26471],[7.51061,45.2646]]},"properties":{}},{"type":"Feature","geometry":{"type":"LineString","coordinates":[[7.50905,45.26424],[7.50874,45.26415],[7.50833,45.26409],[7.50769,45.26391],[7.50733,45.2639],[7.50696,45.26379],[7.50655,45.26393],[7.5053,45.2641],[7.50439,45.26447],[7.50365,45.26498],[7.50353,45.26511],[7.5035,45.26535],[7.50335,45.2655],[7.50318,45.2656],[7.50295,45.26565],[7.50237,45.26593],[7.50221,45.26611],[7.50216,45.26637],[7.50229,45.26668]]},"properties":{}},{"type":"Feature","geometry":{"type":"LineString","coordinates":[[7.50119,45.26739],[7.50079,45.2675]]},"properties":{}},{"type":"Feature","geometry":{"type":"LineString","coordinates":[[7.74623,45.3051],[7.74634,45.30515],[7.74703,45.30528],[7.7473,45.30538]]},"properties":{}},{"type":"Feature","geometry":{"type":"LineString","coordinates":[[7.7473,45.30538],[7.74628,45.3053]]},"properties":{}},{"type":"Feature","geometry":{"type":"LineString","coordinates":[[7.74153,45.31077],[7.74155,45.31084],[7.73045,45.31967],[7.73015,45.31992],[7.72999,45.32013],[7.72996,45.32029],[7.73004,45.32032]]},"properties":{}},{"type":"Feature","geometry":{"type":"LineString","coordinates":[[7.74179,45.34517],[7.74222,45.34664],[7.74219,45.34667]]},"properties":{}},{"type":"Feature","geometry":{"type":"LineString","coordinates":[[7.57274,45.25906],[7.57296,45.25891],[7.573,45.25882],[7.5731,45.25874],[7.57339,45.25868],[7.57346,45.25868],[7.57362,45.25876],[7.57388,45.25875],[7.57434,45.25877]]},"properties":{}},{"type":"Feature","geometry":{"type":"LineString","coordinates":[[7.57436,45.25905],[7.57395,45.25921],[7.57375,45.25925],[7.57369,45.25924],[7.57336,45.25904],[7.57274,45.25906]]},"properties":{}},{"type":"Feature","geometry":{"type":"LineString","coordinates":[[7.56425,45.26091],[7.56457,45.26081],[7.56515,45.26071],[7.56578,45.26075],[7.56617,45.26071],[7.56673,45.26055],[7.56928,45.25995],[7.5699,45.25995],[7.57035,45.25988],[7.57043,45.25987],[7.57062,45.25967],[7.57074,45.25962],[7.57209,45.25933],[7.57274,45.25906]]},"properties":{}},{"type":"Feature","geometry":{"type":"LineString","coordinates":[[7.55788,45.2606],[7.55794,45.26091],[7.558,45.26095],[7.55863,45.26071],[7.55903,45.26061],[7.55959,45.26052],[7.56031,45.26048],[7.56046,45.26042],[7.56088,45.26012],[7.56137,45.26006],[7.56124,45.25988]]},"properties":{}},{"type":"Feature","geometry":{"type":"LineString","coordinates":[[7.55782,45.26049],[7.55788,45.2606]]},"properties":{}},{"type":"Feature","geometry":{"type":"LineString","coordinates":[[7.55585,45.26375],[7.5557,45.26381],[7.5553,45.26392],[7.55514,45.26401],[7.55498,45.26404],[7.55477,45.26418]]},"properties":{}},{"type":"Feature","geometry":{"type":"LineString","coordinates":[[7.5622,45.26866],[7.56215,45.26853],[7.56222,45.26844],[7.56229,45.26841],[7.56243,45.2684],[7.56258,45.2685],[7.56259,45.26859],[7.56251,45.26868],[7.56238,45.26871],[7.5622,45.26866]]},"properties":{}},{"type":"Feature","geometry":{"type":"LineString","coordinates":[[7.50079,45.2675],[7.5,45.26777]]},"properties":{}},{"type":"Feature","geometry":{"type":"LineString","coordinates":[[7.71886,45.25022],[7.71905,45.2503],[7.71955,45.25062],[7.71978,45.25085],[7.71995,45.2512],[7.71949,45.25141],[7.71933,45.25164],[7.7188,45.25172]]},"properties":{}},{"type":"Feature","geometry":{"type":"LineString","coordinates":[[7.6579,45.32925],[7.66059,45.32997],[7.6607,45.33006],[7.66074,45.33019],[7.66045,45.33089],[7.66003,45.33137],[7.65936,45.33181],[7.65841,45.33222],[7.65572,45.33327],[7.65496,45.33365],[7.65449,45.33369],[7.65441,45.33367],[7.65439,45.33361],[7.65384,45.33034],[7.65384,45.33026],[7.65391,45.33004]]},"properties":{}},{"type":"Feature","geometry":{"type":"LineString","coordinates":[[7.67031,45.37379],[7.67026,45.37391],[7.67006,45.37402],[7.66977,45.3743],[7.66942,45.37481],[7.66928,45.37491]]},"properties":{}},{"type":"Feature","geometry":{"type":"LineString","coordinates":[[7.72935,45.31887],[7.7293,45.31892],[7.72873,45.31889],[7.72699,45.3189]]},"properties":{}},{"type":"Feature","geometry":{"type":"LineString","coordinates":[[7.7279,45.32415],[7.72797,45.32395],[7.72795,45.32381],[7.7281,45.32345],[7.72817,45.32339],[7.72907,45.32083],[7.72914,45.32066],[7.72919,45.32069]]},"properties":{}},{"type":"Feature","geometry":{"type":"LineString","coordinates":[[7.72684,45.32726],[7.72673,45.32723],[7.72691,45.32695],[7.72774,45.32457]]},"properties":{}},{"type":"Feature","geometry":{"type":"LineString","coordinates":[[7.72583,45.32865],[7.72632,45.32793],[7.72684,45.32726]]},"properties":{}},{"type":"Feature","geometry":{"type":"LineString","coordinates":[[7.72689,45.32715],[7.72645,45.32767],[7.72519,45.32931],[7.72461,45.33013]]},"properties":{}},{"type":"Feature","geometry":{"type":"LineString","coordinates":[[7.72487,45.32975],[7.72451,45.32957],[7.724,45.32909],[7.72371,45.32871]]},"properties":{}},{"type":"Feature","geometry":{"type":"LineString","coordinates":[[7.69894,45.35337],[7.69891,45.35379],[7.69894,45.35394],[7.69901,45.35413],[7.69919,45.35434],[7.69951,45.35453],[7.70048,45.35487],[7.70103,45.35513]]},"properties":{}},{"type":"Feature","geometry":{"type":"LineString","coordinates":[[7.70103,45.35513],[7.70082,45.35511],[7.69998,45.35488],[7.69951,45.35482],[7.69906,45.35484],[7.69859,45.35496],[7.69818,45.35514],[7.6973,45.35578]]},"properties":{}},{"type":"Feature","geometry":{"type":"LineString","coordinates":[[7.71304,45.38287],[7.71313,45.38265]]},"properties":{}},{"type":"Feature","geometry":{"type":"LineString","coordinates":[[7.71316,45.38296],[7.71308,45.38296],[7.71303,45.38289],[7.71309,45.38285],[7.71316,45.38286],[7.7132,45.38291],[7.71316,45.38296]]},"properties":{}},{"type":"Feature","geometry":{"type":"LineString","coordinates":[[7.70995,45.38303],[7.71278,45.38297],[7.71303,45.38291]]},"properties":{}}]}