{"type":"FeatureCollection","features":[{"type":"Feature","geometry":{"type":"LineString","coordinates":[[7.84779,45.0],[7.84776,45.00007]]},"properties":{}},{"type":"Feature","geometry":{"type":"LineString","coordinates":[[7.83303,45.0002],[7.83359,45.0]]},"properties":{}},{"type":"Feature","geometry":{"type":"LineString","coordinates":[[7.84773,45.0],[7.84776,45.00007],[7.84772,45.0002],[7.84758,45.0003],[7.84748,45.00033],[7.84737,45.00032],[7.84719,45.00025],[7.84711,45.00013],[7.84714,45.0]]},"properties":{}},{"type":"Feature","geometry":{"type":"LineString","coordinates":[[7.80944,45.00076],[7.80925,45.00074],[7.80895,45.0]]},"properties":{}},{"type":"Feature","geometry":{"type":"LineString","coordinates":[[7.83294,45.00024],[7.83303,45.0002]]},"properties":{}},{"type":"Feature","geometry":{"type":"LineString","coordinates":[[7.80954,45.0],[7.80944,45.00076],[7.80953,45.00088],[7.80963,45.00094],[7.81061,45.00121]]},"properties":{}},{"type":"Feature","geometry":{"type":"LineString","coordinates":[[7.83294,45.00024],[7.83289,45.00033],[7.8331,45.00062],[7.83257,45.00112],[7.83222,45.00125]]},"properties":{}},{"type":"Feature","geometry":{"type":"LineString","coordinates":[[7.83692,45.00182],[7.83693,45.00174],[7.83701,45.00165],[7.83703,45.00152],[7.83711,45.00149],[7.84137,45.0]]},"properties":{}},{"type":"Feature","geometry":{"type":"LineString","coordinates":[[7.83547,45.0],[7.83574,45.00147],[7.83601,45.00186],[7.83586,45.00195]]},"properties":{}},{"type":"Feature","geometry":{"type":"LineString","coordinates":[[7.84727,45.0003],[7.84706,45.0003],[7.84655,45.00052],[7.8438,45.00181],[7.84359,45.00199]]},"properties":{}},{"type":"Feature","geometry":{"type":"LineString","coordinates":[[7.81054,45.00126],[7.81085,45.00141],[7.81094,45.0015]]},"properties":{}},{"type":"Feature","geometry":{"type":"LineString","coordinates":[[7.82964,45.0024],[7.82956,45.00117]]},"properties":{}},{"type":"Feature","geometry":{"type":"LineString","coordinates":[[7.83681,45.00184],[7.83692,45.00182]]},"properties":{}},{"type":"Feature","geometry":{"type":"LineString","coordinates":[[7.83596,45.00203],[7.83654,45.00173],[7.83673,45.00178],[7.83681,45.00184]]},"properties":{}},{"type":"Feature","geometry":{"type":"LineString","coordinates":[[7.83586,45.00195],[7.83596,45.00203]]},"properties":{}},{"type":"Feature","geometry":{"type":"LineString","coordinates":[[7.83361,45.00213],[7.83357,45.00224]]},"properties":{}},{"type":"Feature","geometry":{"type":"LineString","coordinates":[[7.83509,45.00249],[7.83499,45.00253],[7.83361,45.00213]]},"properties":{}},{"type":"Feature","geometry":{"type":"LineString","coordinates":[[7.83596,45.00203],[7.8355,45.00231],[7.83528,45.00252],[7.83511,45.00277]]},"properties":{}},{"type":"Feature","geometry":{"type":"LineString","coordinates":[[7.83357,45.00224],[7.83354,45.00228],[7.83343,45.00228],[7.8332,45.00239],[7.83315,45.00254],[7.83325,45.00261]]},"properties":{}},{"type":"Feature","geometry":{"type":"LineString","coordinates":[[7.8296,45.00246],[7.82964,45.0024]]},"properties":{}},{"type":"Feature","geometry":{"type":"LineString","coordinates":[[7.83509,45.00249],[7.83523,45.00259]]},"properties":{}},{"type":"Feature","geometry":{"type":"LineString","coordinates":[[7.81115,45.00133],[7.81172,45.00197],[7.81293,45.00292],[7.81373,45.00373],[7.81452,45.00461]]},"properties":{}},{"type":"Feature","geometry":{"type":"LineString","coordinates":[[7.90386,45.00314],[7.90416,45.00322]]},"properties":{}},{"type":"Feature","geometry":{"type":"LineString","coordinates":[[7.8305,45.00385],[7.83025,45.00379],[7.83005,45.00368],[7.82974,45.00328],[7.82971,45.00321],[7.82969,45.00259]]},"properties":{}},{"type":"Feature","geometry":{"type":"LineString","coordinates":[[7.90404,45.00333],[7.90386,45.00314]]},"properties":{}},{"type":"Feature","geometry":{"type":"LineString","coordinates":[[7.90404,45.00339],[7.90404,45.00333],[7.90411,45.00324],[7.90429,45.00319],[7.90443,45.00321],[7.9045,45.00326],[7.90455,45.00336],[7.90453,45.00343],[7.90447,45.0035],[7.9043,45.00355],[7.9041,45.00349],[7.90404,45.00339]]},"properties":{}},{"type":"Feature","geometry":{"type":"LineString","coordinates":[[7.90453,45.00343],[7.9047,45.0036]]},"properties":{}},{"type":"Feature","geometry":{"type":"LineString","coordinates":[[7.9047,45.0036],[7.90438,45.00354]]},"properties":{}},{"type":"Feature","geometry":{"type":"LineString","coordinates":[[7.84249,45.00367],[7.84253,45.00368]]},"properties":{}},{"type":"Feature","geometry":{"type":"LineString","coordinates":[[7.83077,45.00376],[7.8308,45.0037],[7.83093,45.00366],[7.83123,45.00369],[7.83148,45.00366],[7.83231,45.00373],[7.83254,45.00367],[7.83258,45.00361]]},"properties":{}},{"type":"Feature","geometry":{"type":"LineString","coordinates":[[7.83077,45.00378],[7.83077,45.00376]]},"properties":{}},{"type":"Feature","geometry":{"type":"LineString","coordinates":[[7.8305,45.00385],[7.83077,45.00384]]},"properties":{}},{"type":"Feature","geometry":{"type":"LineString","coordinates":[[7.84225,45.00401],[7.84272,45.00384],[7.84274,45.00372]]},"properties":{}},{"type":"Feature","geometry":{"type":"LineString","coordinates":[[7.84274,45.00376],[7.84255,45.00372],[7.84253,45.00365],[7.84257,45.00358],[7.84266,45.00353],[7.8436,45.00349],[7.84368,45.00358],[7.84375,45.00426]]},"properties":{}},{"type":"Feature","geometry":{"type":"LineString","coordinates":[[7.83511,45.00277],[7.835,45.00313],[7.83496,45.00362],[7.83498,45.00385],[7.83531,45.00492],[7.83546,45.0053],[7.83556,45.00539]]},"properties":{}},{"type":"Feature","geometry":{"type":"LineString","coordinates":[[7.81452,45.00461],[7.81458,45.00472]]},"properties":{}},{"type":"Feature","geometry":{"type":"LineString","coordinates":[[7.81458,45.00472],[7.8146,45.00488]]},"properties":{}},{"type":"Feature","geometry":{"type":"LineString","coordinates":[[7.82743,45.00697],[7.82748,45.00626],[7.82753,45.00609],[7.82753,45.00565],[7.82726,45.0047],[7.82717,45.00389],[7.82711,45.00378],[7.82711,45.00355],[7.82716,45.00351],[7.82716,45.00311],[7.82706,45.00296]]},"properties":{}},{"type":"Feature","geometry":{"type":"LineString","coordinates":[[7.83556,45.00539],[7.83573,45.00542],[7.83588,45.00541],[7.83591,45.00545]]},"properties":{}},{"type":"Feature","geometry":{"type":"LineString","coordinates":[[7.83578,45.00553],[7.83585,45.00563]]},"properties":{}},{"type":"Feature","geometry":{"type":"LineString","coordinates":[[7.83585,45.00563],[7.83577,45.00574],[7.83567,45.00577],[7.83557,45.00575]]},"properties":{}},{"type":"Feature","geometry":{"type":"LineString","coordinates":[[7.83602,45.00555],[7.83593,45.00562],[7.83589,45.00569],[7.83565,45.00592]]},"properties":{}},{"type":"Feature","geometry":{"type":"LineString","coordinates":[[7.83557,45.00575],[7.83554,45.00574]]},"properties":{}},{"type":"Feature","geometry":{"type":"LineString","coordinates":[[7.81985,45.00735],[7.81913,45.00544],[7.81914,45.0054],[7.81918,45.00538]]},"properties":{}},{"type":"Feature","geometry":{"type":"LineString","coordinates":[[7.8146,45.00488],[7.81536,45.00623],[7.81555,45.00634],[7.81555,45.00644],[7.81551,45.00651],[7.8163,45.00793],[7.81634,45.00795],[7.81677,45.00783],[7.81707,45.00761],[7.81713,45.00766]]},"properties":{}},{"type":"Feature","geometry":{"type":"LineString","coordinates":[[7.82293,45.00646],[7.82288,45.00655]]},"properties":{}},{"type":"Feature","geometry":{"type":"LineString","coordinates":[[7.82371,45.00669],[7.82389,45.00642]]},"properties":{}},{"type":"Feature","geometry":{"type":"LineString","coordinates":[[7.82352,45.00639],[7.82356,45.00637],[7.8238,45.00642],[7.82397,45.00641],[7.82529,45.00672],[7.8254,45.00671],[7.82581,45.00679],[7.82717,45.00711],[7.82721,45.00704]]},"properties":{}},{"type":"Feature","geometry":{"type":"LineString","coordinates":[[7.82374,45.0067],[7.82643,45.00758]]},"properties":{}},{"type":"Feature","geometry":{"type":"LineString","coordinates":[[7.82726,45.00729],[7.82757,45.00717],[7.82937,45.00699],[7.82963,45.00701],[7.82989,45.00707],[7.83035,45.0073],[7.83044,45.00727]]},"properties":{}},{"type":"Feature","geometry":{"type":"LineString","coordinates":[[7.83565,45.00592],[7.83421,45.00854]]},"properties":{}},{"type":"Feature","geometry":{"type":"LineString","coordinates":[[7.83092,45.00756],[7.83114,45.00741]]},"properties":{}},{"type":"Feature","geometry":{"type":"LineString","coordinates":[[7.83114,45.00741],[7.83102,45.00758]]},"properties":{}},{"type":"Feature","geometry":{"type":"LineString","coordinates":[[7.82288,45.00655],[7.82042,45.00863],[7.8203,45.00861],[7.81985,45.00735]]},"properties":{}},{"type":"Feature","geometry":{"type":"LineString","coordinates":[[7.83107,45.00762],[7.83135,45.0076]]},"properties":{}},{"type":"Feature","geometry":{"type":"LineString","coordinates":[[7.83108,45.00764],[7.83131,45.00766]]},"properties":{}},{"type":"Feature","geometry":{"type":"LineString","coordinates":[[7.83131,45.00766],[7.83108,45.00769]]},"properties":{}},{"type":"Feature","geometry":{"type":"LineString","coordinates":[[7.81639,45.00794],[7.81644,45.00803]]},"properties":{}},{"type":"Feature","geometry":{"type":"LineString","coordinates":[[7.83131,45.00766],[7.83146,45.0078],[7.83169,45.00816],[7.8319,45.00835],[7.83217,45.00842],[7.83304,45.00855]]},"properties":{}},{"type":"Feature","geometry":{"type":"LineString","coordinates":[[7.82752,45.00881],[7.82633,45.00771],[7.82617,45.00765],[7.8259,45.00765]]},"properties":{}},{"type":"Feature","geometry":{"type":"LineString","coordinates":[[7.81644,45.00803],[7.81641,45.0081],[7.81677,45.00856],[7.81672,45.00859]]},"properties":{}},{"type":"Feature","geometry":{"type":"LineString","coordinates":[[7.81164,45.00847],[7.81157,45.00839]]},"properties":{}},{"type":"Feature","geometry":{"type":"LineString","coordinates":[[7.83421,45.00854],[7.83429,45.00857],[7.83525,45.00854]]},"properties":{}},{"type":"Feature","geometry":{"type":"LineString","coordinates":[[7.83526,45.00862],[7.83525,45.00854]]},"properties":{}},{"type":"Feature","geometry":{"type":"LineString","coordinates":[[7.81677,45.00856],[7.81753,45.00871]]},"properties":{}},{"type":"Feature","geometry":{"type":"LineString","coordinates":[[7.83551,45.00876],[7.83535,45.00871],[7.83526,45.00862]]},"properties":{}},{"type":"Feature","geometry":{"type":"LineString","coordinates":[[7.81753,45.00871],[7.81763,45.0088],[7.81804,45.00901]]},"properties":{}},{"type":"Feature","geometry":{"type":"LineString","coordinates":[[7.83554,45.00929],[7.83559,45.00927],[7.83554,45.00877],[7.83551,45.00876]]},"properties":{}},{"type":"Feature","geometry":{"type":"LineString","coordinates":[[7.81672,45.00859],[7.81663,45.00868],[7.81664,45.009],[7.81659,45.00904],[7.81645,45.00906],[7.81642,45.00949]]},"properties":{}},{"type":"Feature","geometry":{"type":"LineString","coordinates":[[7.83581,45.00935],[7.83561,45.00935],[7.83554,45.00929]]},"properties":{}},{"type":"Feature","geometry":{"type":"LineString","coordinates":[[7.81795,45.00907],[7.81793,45.00913],[7.81752,45.00959]]},"properties":{}},{"type":"Feature","geometry":{"type":"LineString","coordinates":[[7.83582,45.00941],[7.83581,45.00935]]},"properties":{}},{"type":"Feature","geometry":{"type":"LineString","coordinates":[[7.81764,45.00965],[7.81752,45.00959]]},"properties":{}},{"type":"Feature","geometry":{"type":"LineString","coordinates":[[7.83237,45.01071],[7.83272,45.00994],[7.83316,45.00868],[7.83312,45.00859],[7.83304,45.00855]]},"properties":{}},{"type":"Feature","geometry":{"type":"LineString","coordinates":[[7.81798,45.00928],[7.81665,45.01071]]},"properties":{}},{"type":"Feature","geometry":{"type":"LineString","coordinates":[[7.83585,45.01065],[7.83588,45.01058],[7.83607,45.01049],[7.83605,45.00957],[7.83596,45.00944],[7.83582,45.00941]]},"properties":{}},{"type":"Feature","geometry":{"type":"LineString","coordinates":[[7.84168,45.01046],[7.84183,45.01049]]},"properties":{}},{"type":"Feature","geometry":{"type":"LineString","coordinates":[[7.84183,45.01049],[7.84169,45.01051]]},"properties":{}},{"type":"Feature","geometry":{"type":"LineString","coordinates":[[7.84667,45.01119],[7.84663,45.01116],[7.84665,45.01112],[7.84738,45.01068],[7.84776,45.01039],[7.84808,45.01005],[7.84833,45.00996]]},"properties":{}},{"type":"Feature","geometry":{"type":"LineString","coordinates":[[7.79734,45.01053],[7.79725,45.01078]]},"properties":{}},{"type":"Feature","geometry":{"type":"LineString","coordinates":[[7.83585,45.01065],[7.83585,45.01072]]},"properties":{}},{"type":"Feature","geometry":{"type":"LineString","coordinates":[[7.84183,45.01049],[7.84227,45.01049],[7.8428,45.01054],[7.84389,45.0108],[7.84506,45.01102]]},"properties":{}},{"type":"Feature","geometry":{"type":"LineString","coordinates":[[7.96736,45.02933],[7.96723,45.02924],[7.96725,45.02912],[7.96739,45.02906],[7.96757,45.02911],[7.96761,45.02921],[7.96756,45.02929],[7.96747,45.02933],[7.96736,45.02933]]},"properties":{}},{"type":"Feature","geometry":{"type":"LineString","coordinates":[[7.9674,45.02955],[7.96731,45.02931]]},"properties":{}},{"type":"Feature","geometry":{"type":"LineString","coordinates":[[7.96752,45.02931],[7.9674,45.02955]]},"properties":{}},{"type":"Feature","geometry":{"type":"LineString","coordinates":[[7.9683,45.0321],[7.96854,45.03234]]},"properties":{}},{"type":"Feature","geometry":{"type":"LineString","coordinates":[[7.96826,45.03238],[7.9683,45.0321]]},"properties":{}},{"type":"Feature","geometry":{"type":"LineString","coordinates":[[7.96854,45.03272],[7.96834,45.03271],[7.96822,45.03264],[7.96817,45.03253],[7.96823,45.03241],[7.9684,45.03234],[7.96864,45.03238],[7.96873,45.0325],[7.96869,45.03264]]},"properties":{}},{"type":"Feature","geometry":{"type":"LineString","coordinates":[[7.83243,45.01413],[7.83242,45.01418],[7.83213,45.01427],[7.83216,45.01431]]},"properties":{}},{"type":"Feature","geometry":{"type":"LineString","coordinates":[[7.81694,45.01484],[7.81654,45.01454],[7.8162,45.0146],[7.81602,45.01472]]},"properties":{}},{"type":"Feature","geometry":{"type":"LineString","coordinates":[[7.81602,45.01472],[7.81595,45.01476]]},"properties":{}},{"type":"Feature","geometry":{"type":"LineString","coordinates":[[7.83672,45.01485],[7.83683,45.0148],[7.83689,45.01476],[7.8369,45.01471]]},"properties":{}},{"type":"Feature","geometry":{"type":"LineString","coordinates":[[7.81595,45.01476],[7.81573,45.01478],[7.8156,45.01488]]},"properties":{}},{"type":"Feature","geometry":{"type":"LineString","coordinates":[[7.83681,45.01497],[7.83672,45.01485]]},"properties":{}},{"type":"Feature","geometry":{"type":"LineString","coordinates":[[7.82833,45.01564],[7.82925,45.01531],[7.8297,45.01511],[7.82972,45.01507],[7.8298,45.01508],[7.83071,45.0147],[7.83106,45.01446],[7.83124,45.01425]]},"properties":{}},{"type":"Feature","geometry":{"type":"LineString","coordinates":[[7.83715,45.01488],[7.83723,45.01495],[7.83733,45.01513]]},"properties":{}},{"type":"Feature","geometry":{"type":"LineString","coordinates":[[7.83531,45.01563],[7.83519,45.01557],[7.83492,45.01551],[7.83466,45.01552],[7.83415,45.0157]]},"properties":{}},{"type":"Feature","geometry":{"type":"LineString","coordinates":[[7.83659,45.01499],[7.83681,45.01497],[7.83708,45.01502],[7.83724,45.01508],[7.83754,45.01585],[7.8378,45.01607],[7.83807,45.0162],[7.8386,45.01631],[7.83928,45.01623],[7.84096,45.01665]]},"properties":{}},{"type":"Feature","geometry":{"type":"LineString","coordinates":[[7.83649,45.02068],[7.83695,45.02023],[7.83743,45.02001],[7.83792,45.01996],[7.83817,45.01983],[7.83826,45.01972],[7.83829,45.01963],[7.83832,45.01933],[7.83836,45.01921],[7.83877,45.01834],[7.84087,45.01702],[7.84112,45.01682],[7.84137,45.01632],[7.84186,45.01476],[7.84263,45.01346],[7.84282,45.01324],[7.84344,45.01281],[7.84454,45.01218],[7.84583,45.01149],[7.84629,45.01132],[7.84638,45.01132]]},"properties":{}},{"type":"Feature","geometry":{"type":"LineString","coordinates":[[7.82451,45.01595],[7.82454,45.01605]]},"properties":{}},{"type":"Feature","geometry":{"type":"LineString","coordinates":[[7.82454,45.01605],[7.82428,45.01611],[7.82398,45.01627],[7.82359,45.01614],[7.82324,45.01611]]},"properties":{}},{"type":"Feature","geometry":{"type":"LineString","coordinates":[[7.81563,45.01719],[7.81867,45.01518]]},"properties":{}},{"type":"Feature","geometry":{"type":"LineString","coordinates":[[7.82398,45.01627],[7.82398,45.01644]]},"properties":{}},{"type":"Feature","geometry":{"type":"LineString","coordinates":[[7.81864,45.01533],[7.8157,45.01728],[7.81564,45.01732],[7.81565,45.01744]]},"properties":{}},{"type":"Feature","geometry":{"type":"LineString","coordinates":[[7.82395,45.01653],[7.82398,45.01644],[7.82519,45.01639]]},"properties":{}},{"type":"Feature","geometry":{"type":"LineString","coordinates":[[7.81473,45.0178],[7.81519,45.01752]]},"properties":{}},{"type":"Feature","geometry":{"type":"LineString","coordinates":[[7.81525,45.01764],[7.81473,45.0178]]},"properties":{}},{"type":"Feature","geometry":{"type":"LineString","coordinates":[[7.81302,45.01882],[7.81508,45.01748]]},"properties":{}},{"type":"Feature","geometry":{"type":"LineString","coordinates":[[7.81247,45.01931],[7.81473,45.0178]]},"properties":{}},{"type":"Feature","geometry":{"type":"LineString","coordinates":[[7.81371,45.01846],[7.81361,45.01865],[7.813,45.01903]]},"properties":{}},{"type":"Feature","geometry":{"type":"LineString","coordinates":[[7.81228,45.01943],[7.81247,45.01931]]},"properties":{}},{"type":"Feature","geometry":{"type":"LineString","coordinates":[[7.81215,45.01947],[7.81228,45.01943]]},"properties":{}},{"type":"Feature","geometry":{"type":"LineString","coordinates":[[7.81191,45.0196],[7.81215,45.01947]]},"properties":{}},{"type":"Feature","geometry":{"type":"LineString","coordinates":[[7.81228,45.01943],[7.81224,45.01948],[7.81196,45.01965]]},"properties":{}},{"type":"Feature","geometry":{"type":"LineString","coordinates":[[7.83237,45.01071],[7.83155,45.0108]]},"properties":{}},{"type":"Feature","geometry":{"type":"LineString","coordinates":[[7.8362,45.01086],[7.83613,45.01082],[7.8359,45.01082],[7.83587,45.01081],[7.83585,45.01072]]},"properties":{}},{"type":"Feature","geometry":{"type":"LineString","coordinates":[[7.84215,45.01049],[7.8422,45.01052],[7.84303,45.01063],[7.84425,45.01091],[7.84576,45.01117]]},"properties":{}},{"type":"Feature","geometry":{"type":"LineString","coordinates":[[7.79722,45.01091],[7.79707,45.01091],[7.79702,45.01086],[7.79702,45.0108],[7.79711,45.01074],[7.79723,45.01076],[7.79728,45.01083],[7.79722,45.01091]]},"properties":{}},{"type":"Feature","geometry":{"type":"LineString","coordinates":[[7.83155,45.0108],[7.83029,45.01083],[7.82915,45.01089]]},"properties":{}},{"type":"Feature","geometry":{"type":"LineString","coordinates":[[7.83638,45.01086],[7.8362,45.01086]]},"properties":{}},{"type":"Feature","geometry":{"type":"LineString","coordinates":[[7.79681,45.01103],[7.79701,45.01083]]},"properties":{}},{"type":"Feature","geometry":{"type":"LineString","coordinates":[[7.7971,45.01092],[7.79681,45.01103]]},"properties":{}},{"type":"Feature","geometry":{"type":"LineString","coordinates":[[7.84506,45.01102],[7.84576,45.01113]]},"properties":{}},{"type":"Feature","geometry":{"type":"LineString","coordinates":[[7.84576,45.01113],[7.84695,45.01131]]},"properties":{}},{"type":"Feature","geometry":{"type":"LineString","coordinates":[[7.84576,45.01117],[7.84694,45.01133]]},"properties":{}},{"type":"Feature","geometry":{"type":"LineString","coordinates":[[7.84638,45.01132],[7.84713,45.01141],[7.84726,45.0114],[7.8473,45.01135],[7.8473,45.01131],[7.84667,45.01119]]},"properties":{}},{"type":"Feature","geometry":{"type":"LineString","coordinates":[[7.83638,45.01086],[7.8364,45.01188],[7.83633,45.01189]]},"properties":{}},{"type":"Feature","geometry":{"type":"LineString","coordinates":[[7.83633,45.01189],[7.83624,45.0119]]},"properties":{}},{"type":"Feature","geometry":{"type":"LineString","coordinates":[[7.83622,45.01201],[7.83624,45.0119]]},"properties":{}},{"type":"Feature","geometry":{"type":"LineString","coordinates":[[7.84695,45.01131],[7.84873,45.01148],[7.8511,45.01194],[7.85136,45.01201],[7.8516,45.01213],[7.85226,45.01254],[7.85268,45.01272],[7.85293,45.01291]]},"properties":{}},{"type":"Feature","geometry":{"type":"LineString","coordinates":[[7.84694,45.01133],[7.84891,45.01154],[7.85126,45.01203],[7.85153,45.01215],[7.85214,45.01253],[7.85256,45.01272],[7.85286,45.01291]]},"properties":{}},{"type":"Feature","geometry":{"type":"LineString","coordinates":[[7.81706,45.0116],[7.81691,45.01172],[7.81737,45.01255],[7.81754,45.01271],[7.81758,45.01285],[7.81761,45.0131],[7.81746,45.01325]]},"properties":{}},{"type":"Feature","geometry":{"type":"LineString","coordinates":[[7.85293,45.01285],[7.85307,45.01282],[7.85324,45.01287]]},"properties":{}},{"type":"Feature","geometry":{"type":"LineString","coordinates":[[7.85321,45.01292],[7.8533,45.01283],[7.85345,45.01278],[7.85362,45.0128],[7.85375,45.01291]]},"properties":{}},{"type":"Feature","geometry":{"type":"LineString","coordinates":[[7.85293,45.01285],[7.85286,45.01291]]},"properties":{}},{"type":"Feature","geometry":{"type":"LineString","coordinates":[[7.83624,45.0119],[7.83598,45.01195],[7.83577,45.01219],[7.83558,45.01252],[7.83549,45.01278],[7.83549,45.01302],[7.83542,45.0131],[7.83528,45.01316],[7.83424,45.01342],[7.83242,45.01398],[7.83238,45.01403],[7.83243,45.01413]]},"properties":{}},{"type":"Feature","geometry":{"type":"LineString","coordinates":[[7.85375,45.01291],[7.85377,45.01298],[7.8537,45.0131],[7.85348,45.01317],[7.85328,45.01311],[7.8532,45.01299],[7.85321,45.01292]]},"properties":{}},{"type":"Feature","geometry":{"type":"LineString","coordinates":[[7.8369,45.01471],[7.83604,45.01354],[7.83592,45.01325],[7.8359,45.01301],[7.83595,45.01276],[7.83622,45.01201]]},"properties":{}},{"type":"Feature","geometry":{"type":"LineString","coordinates":[[7.83156,45.01377],[7.83159,45.01373]]},"properties":{}},{"type":"Feature","geometry":{"type":"LineString","coordinates":[[7.93246,45.01386],[7.93243,45.0138],[7.93243,45.0137],[7.93251,45.01361],[7.93259,45.01358],[7.93277,45.01357],[7.93286,45.0136],[7.93297,45.0137],[7.93297,45.01381],[7.93283,45.01393],[7.93259,45.01394],[7.93246,45.01386]]},"properties":{}},{"type":"Feature","geometry":{"type":"LineString","coordinates":[[7.93297,45.0137],[7.93324,45.0139]]},"properties":{}},{"type":"Feature","geometry":{"type":"LineString","coordinates":[[7.93324,45.0139],[7.93288,45.01391]]},"properties":{}},{"type":"Feature","geometry":{"type":"LineString","coordinates":[[7.83124,45.01425],[7.83156,45.01377],[7.8316,45.01378]]},"properties":{}},{"type":"Feature","geometry":{"type":"LineString","coordinates":[[7.83175,45.01382],[7.83171,45.01395],[7.83181,45.01411],[7.83189,45.0142],[7.83205,45.01429]]},"properties":{}},{"type":"Feature","geometry":{"type":"LineString","coordinates":[[7.83622,45.0166],[7.83683,45.01715],[7.83691,45.01718],[7.83702,45.01719],[7.83711,45.01714],[7.83765,45.01671],[7.83766,45.01664],[7.83758,45.01657],[7.83687,45.01615]]},"properties":{}},{"type":"Feature","geometry":{"type":"LineString","coordinates":[[7.84096,45.01665],[7.84118,45.0167]]},"properties":{}},{"type":"Feature","geometry":{"type":"LineString","coordinates":[[7.83382,45.01633],[7.83382,45.01706],[7.83367,45.01795],[7.83363,45.01804],[7.83368,45.01808],[7.83437,45.01782],[7.83529,45.01704],[7.83547,45.01693],[7.83551,45.01594],[7.83548,45.01581],[7.83531,45.01563],[7.83558,45.01546]]},"properties":{}},{"type":"Feature","geometry":{"type":"LineString","coordinates":[[7.81145,45.01754],[7.81168,45.0173],[7.81183,45.01704],[7.81193,45.01693],[7.81219,45.01678],[7.8128,45.01657],[7.81349,45.01651],[7.81408,45.01638]]},"properties":{}},{"type":"Feature","geometry":{"type":"LineString","coordinates":[[7.83383,45.01686],[7.83394,45.01705],[7.83422,45.01717],[7.83486,45.01718],[7.83529,45.01704]]},"properties":{}},{"type":"Feature","geometry":{"type":"LineString","coordinates":[[7.81548,45.01723],[7.81558,45.0173]]},"properties":{}},{"type":"Feature","geometry":{"type":"LineString","coordinates":[[7.81537,45.0173],[7.81548,45.01723]]},"properties":{}},{"type":"Feature","geometry":{"type":"LineString","coordinates":[[7.8217,45.01807],[7.82215,45.01786],[7.82337,45.01758],[7.82367,45.01723],[7.82395,45.01653]]},"properties":{}},{"type":"Feature","geometry":{"type":"LineString","coordinates":[[7.81558,45.0173],[7.81564,45.01732]]},"properties":{}},{"type":"Feature","geometry":{"type":"LineString","coordinates":[[7.8153,45.01744],[7.8154,45.01733],[7.81563,45.01719]]},"properties":{}},{"type":"Feature","geometry":{"type":"LineString","coordinates":[[7.81563,45.01719],[7.8155,45.01732],[7.81543,45.01745]]},"properties":{}},{"type":"Feature","geometry":{"type":"LineString","coordinates":[[7.81508,45.01748],[7.81537,45.0173]]},"properties":{}},{"type":"Feature","geometry":{"type":"LineString","coordinates":[[7.8153,45.01744],[7.81543,45.01745]]},"properties":{}},{"type":"Feature","geometry":{"type":"LineString","coordinates":[[7.81543,45.01745],[7.81545,45.01747]]},"properties":{}},{"type":"Feature","geometry":{"type":"LineString","coordinates":[[7.81565,45.01744],[7.81566,45.0175]]},"properties":{}},{"type":"Feature","geometry":{"type":"LineString","coordinates":[[7.81545,45.01747],[7.81572,45.01748]]},"properties":{}},{"type":"Feature","geometry":{"type":"LineString","coordinates":[[7.81519,45.01752],[7.8153,45.01744]]},"properties":{}},{"type":"Feature","geometry":{"type":"LineString","coordinates":[[7.81572,45.01748],[7.8155,45.01757]]},"properties":{}},{"type":"Feature","geometry":{"type":"LineString","coordinates":[[7.81545,45.01747],[7.8155,45.01753],[7.81547,45.01762],[7.81538,45.01766],[7.81525,45.01764]]},"properties":{}},{"type":"Feature","geometry":{"type":"LineString","coordinates":[[7.81525,45.01764],[7.81519,45.01757],[7.81519,45.01752]]},"properties":{}},{"type":"Feature","geometry":{"type":"LineString","coordinates":[[7.81191,45.0196],[7.81196,45.01965]]},"properties":{}},{"type":"Feature","geometry":{"type":"LineString","coordinates":[[7.81152,45.01985],[7.81191,45.0196]]},"properties":{}},{"type":"Feature","geometry":{"type":"LineString","coordinates":[[7.81196,45.01965],[7.81158,45.0199]]},"properties":{}},{"type":"Feature","geometry":{"type":"LineString","coordinates":[[7.81152,45.01985],[7.81152,45.01985]]},"properties":{}},{"type":"Feature","geometry":{"type":"LineString","coordinates":[[7.81158,45.0199],[7.81152,45.01985]]},"properties":{}},{"type":"Feature","geometry":{"type":"LineString","coordinates":[[7.81147,45.01996],[7.81152,45.01985]]},"properties":{}},{"type":"Feature","geometry":{"type":"LineString","coordinates":[[7.81158,45.0199],[7.81147,45.01996]]},"properties":{}},{"type":"Feature","geometry":{"type":"LineString","coordinates":[[7.813,45.01903],[7.81289,45.01911],[7.81284,45.0192],[7.81231,45.01956],[7.81223,45.01957],[7.81198,45.01972],[7.81187,45.01976],[7.8067,45.02318],[7.80663,45.02313]]},"properties":{}},{"type":"Feature","geometry":{"type":"LineString","coordinates":[[7.80663,45.02313],[7.81147,45.01996]]},"properties":{}},{"type":"Feature","geometry":{"type":"LineString","coordinates":[[7.84254,45.02246],[7.84247,45.02243],[7.84243,45.02237],[7.84246,45.02229],[7.84259,45.02225],[7.8427,45.02229],[7.84274,45.02234],[7.84272,45.02241],[7.84266,45.02245],[7.84254,45.02246]]},"properties":{}},{"type":"Feature","geometry":{"type":"LineString","coordinates":[[7.84218,45.02238],[7.84243,45.02234]]},"properties":{}},{"type":"Feature","geometry":{"type":"LineString","coordinates":[[7.84247,45.02243],[7.84218,45.02238]]},"properties":{}},{"type":"Feature","geometry":{"type":"LineString","coordinates":[[7.84273,45.02238],[7.8429,45.02258]]},"properties":{}},{"type":"Feature","geometry":{"type":"LineString","coordinates":[[7.93625,45.02343],[7.93639,45.02331],[7.93656,45.0233],[7.9367,45.02337],[7.93674,45.0235],[7.93663,45.02362],[7.93643,45.02364],[7.93627,45.02355],[7.93625,45.02343]]},"properties":{}},{"type":"Feature","geometry":{"type":"LineString","coordinates":[[7.95896,45.02414],[7.95945,45.0243]]},"properties":{}},{"type":"Feature","geometry":{"type":"LineString","coordinates":[[7.95917,45.02462],[7.9591,45.02452],[7.95911,45.02445],[7.95914,45.02439],[7.95927,45.02431],[7.95952,45.02432],[7.95966,45.02443],[7.95966,45.02455],[7.95956,45.02465],[7.95937,45.02469],[7.95917,45.02462]]},"properties":{}},{"type":"Feature","geometry":{"type":"LineString","coordinates":[[7.95995,45.02479],[7.95948,45.02468]]},"properties":{}},{"type":"Feature","geometry":{"type":"LineString","coordinates":[[7.85022,45.02642],[7.85055,45.02626]]},"properties":{}},{"type":"Feature","geometry":{"type":"LineString","coordinates":[[7.84961,45.02627],[7.85007,45.02645]]},"properties":{}},{"type":"Feature","geometry":{"type":"LineString","coordinates":[[7.85055,45.02626],[7.85049,45.0264],[7.85046,45.02654]]},"properties":{}},{"type":"Feature","geometry":{"type":"LineString","coordinates":[[7.84992,45.02662],[7.84987,45.02653],[7.84961,45.02627]]},"properties":{}},{"type":"Feature","geometry":{"type":"LineString","coordinates":[[7.85007,45.02645],[7.85022,45.02642],[7.85042,45.0265],[7.85049,45.02661],[7.85044,45.02673],[7.85032,45.02681],[7.85017,45.02682],[7.84997,45.02674],[7.84992,45.02662],[7.84994,45.02655],[7.85007,45.02645]]},"properties":{}},{"type":"Feature","geometry":{"type":"LineString","coordinates":[[7.80074,45.02704],[7.80063,45.027]]},"properties":{}},{"type":"Feature","geometry":{"type":"LineString","coordinates":[[7.80074,45.02704],[7.80039,45.02723]]},"properties":{}},{"type":"Feature","geometry":{"type":"LineString","coordinates":[[7.94364,45.02844],[7.94377,45.0284],[7.94389,45.02829]]},"properties":{}},{"type":"Feature","geometry":{"type":"LineString","coordinates":[[7.79864,45.02834],[7.79871,45.02836],[7.7988,45.02846]]},"properties":{}},{"type":"Feature","geometry":{"type":"LineString","coordinates":[[7.94389,45.02829],[7.94387,45.02842],[7.94392,45.02858]]},"properties":{}},{"type":"Feature","geometry":{"type":"LineString","coordinates":[[7.7988,45.02846],[7.79879,45.02857],[7.7987,45.02865],[7.79855,45.02869],[7.79841,45.02865]]},"properties":{}},{"type":"Feature","geometry":{"type":"LineString","coordinates":[[7.79841,45.02865],[7.79835,45.02861],[7.7983,45.02849]]},"properties":{}},{"type":"Feature","geometry":{"type":"LineString","coordinates":[[7.94394,45.02863],[7.94394,45.02876],[7.94389,45.02883],[7.9438,45.02888],[7.9436,45.02892],[7.9434,45.02887],[7.94333,45.02882],[7.94327,45.02868],[7.94333,45.02855],[7.94339,45.0285],[7.94358,45.02844],[7.94381,45.02849],[7.94394,45.02863]]},"properties":{}},{"type":"Feature","geometry":{"type":"LineString","coordinates":[[7.85212,45.02758],[7.85713,45.03028]]},"properties":{}},{"type":"Feature","geometry":{"type":"LineString","coordinates":[[7.94331,45.0291],[7.94336,45.02895],[7.94333,45.02882]]},"properties":{}},{"type":"Feature","geometry":{"type":"LineString","coordinates":[[7.9436,45.02892],[7.94342,45.029],[7.94331,45.0291]]},"properties":{}},{"type":"Feature","geometry":{"type":"LineString","coordinates":[[7.79841,45.02865],[7.79802,45.02874],[7.79651,45.02948]]},"properties":{}},{"type":"Feature","geometry":{"type":"LineString","coordinates":[[7.85713,45.03028],[7.86448,45.03424]]},"properties":{}},{"type":"Feature","geometry":{"type":"LineString","coordinates":[[7.87374,45.03704],[7.87403,45.03699],[7.8738,45.03714]]},"properties":{}},{"type":"Feature","geometry":{"type":"LineString","coordinates":[[7.96869,45.03264],[7.96854,45.03272]]},"properties":{}},{"type":"Feature","geometry":{"type":"LineString","coordinates":[[7.96827,45.03292],[7.96825,45.03267]]},"properties":{}},{"type":"Feature","geometry":{"type":"LineString","coordinates":[[7.96854,45.03272],[7.96827,45.03292]]},"properties":{}},{"type":"Feature","geometry":{"type":"LineString","coordinates":[[7.96614,45.03936],[7.96621,45.03941],[7.96659,45.03948],[7.96665,45.03955]]},"properties":{}},{"type":"Feature","geometry":{"type":"LineString","coordinates":[[7.76176,45.09934],[7.76165,45.09913],[7.76158,45.09907],[7.76065,45.09853],[7.76044,45.09853],[7.7603,45.09857],[7.75992,45.09838],[7.7586,45.09784],[7.7567,45.09729],[7.75541,45.09695],[7.75492,45.09672],[7.75467,45.09664],[7.75407,45.09638],[7.75084,45.09483],[7.75075,45.09471],[7.75059,45.09414],[7.75045,45.09388],[7.75021,45.09376],[7.75,45.09371]]},"properties":{}},{"type":"Feature","geometry":{"type":"LineString","coordinates":[[7.75,45.09863],[7.75125,45.09883],[7.75275,45.09915]]},"properties":{}},{"type":"Feature","geometry":{"type":"LineString","coordinates":[[7.76275,45.10017],[7.76219,45.09985],[7.76223,45.09983]]},"properties":{}},{"type":"Feature","geometry":{"type":"LineString","coordinates":[[7.76223,45.09983],[7.76294,45.1002]]},"properties":{}},{"type":"Feature","geometry":{"type":"LineString","coordinates":[[7.75337,45.09985],[7.75278,45.10032]]},"properties":{}},{"type":"Feature","geometry":{"type":"LineString","coordinates":[[7.76294,45.1002],[7.76274,45.09999]]},"properties":{}},{"type":"Feature","geometry":{"type":"LineString","coordinates":[[7.75685,45.1001],[7.75704,45.10025]]},"properties":{}},{"type":"Feature","geometry":{"type":"LineString","coordinates":[[7.7629,45.10024],[7.76294,45.1002]]},"properties":{}},{"type":"Feature","geometry":{"type":"LineString","coordinates":[[7.75869,45.10082],[7.75848,45.10098],[7.7583,45.10116]]},"properties":{}},{"type":"Feature","geometry":{"type":"LineString","coordinates":[[7.75275,45.09915],[7.75382,45.09965],[7.75517,45.09984],[7.7572,45.10028],[7.75804,45.10062],[7.75865,45.10081],[7.75922,45.10089],[7.75992,45.10112],[7.7602,45.10125],[7.76069,45.10161],[7.76153,45.10262],[7.76174,45.10293],[7.76183,45.10313]]},"properties":{}},{"type":"Feature","geometry":{"type":"LineString","coordinates":[[7.76294,45.1002],[7.76325,45.10037],[7.76348,45.10055],[7.76367,45.10075],[7.7638,45.1007],[7.76476,45.10188],[7.76487,45.1021]]},"properties":{}},{"type":"Feature","geometry":{"type":"LineString","coordinates":[[7.76453,45.10217],[7.76435,45.10175],[7.76352,45.10066],[7.76318,45.10039],[7.7629,45.10024]]},"properties":{}},{"type":"Feature","geometry":{"type":"LineString","coordinates":[[7.75833,45.10122],[7.75828,45.10128],[7.75822,45.10129],[7.75815,45.10127],[7.75812,45.10121],[7.75817,45.10116],[7.75823,45.10114],[7.7583,45.10116],[7.75833,45.10122]]},"properties":{}},{"type":"Feature","geometry":{"type":"LineString","coordinates":[[7.75,45.10249],[7.75188,45.10271]]},"properties":{}},{"type":"Feature","geometry":{"type":"LineString","coordinates":[[7.75445,45.10206],[7.75452,45.10204],[7.75458,45.10209],[7.75453,45.10213],[7.75448,45.10212],[7.75445,45.10206]]},"properties":{}},{"type":"Feature","geometry":{"type":"LineString","coordinates":[[7.75186,45.10279],[7.75,45.10258]]},"properties":{}},{"type":"Feature","geometry":{"type":"LineString","coordinates":[[7.7649,45.10283],[7.76476,45.10277],[7.76472,45.10259],[7.76466,45.10248],[7.76467,45.10228],[7.76453,45.10217]]},"properties":{}},{"type":"Feature","geometry":{"type":"LineString","coordinates":[[7.75017,45.10259],[7.75012,45.1025]]},"properties":{}},{"type":"Feature","geometry":{"type":"LineString","coordinates":[[7.75017,45.10259],[7.75023,45.1027]]},"properties":{}},{"type":"Feature","geometry":{"type":"LineString","coordinates":[[7.76153,45.10262],[7.7614,45.10275]]},"properties":{}},{"type":"Feature","geometry":{"type":"LineString","coordinates":[[7.76128,45.10329],[7.76232,45.10302],[7.76534,45.10209]]},"properties":{}},{"type":"Feature","geometry":{"type":"LineString","coordinates":[[7.7614,45.10275],[7.76135,45.10285]]},"properties":{}},{"type":"Feature","geometry":{"type":"LineString","coordinates":[[7.75023,45.1027],[7.75055,45.10349]]},"properties":{}},{"type":"Feature","geometry":{"type":"LineString","coordinates":[[7.75188,45.10271],[7.75975,45.10359],[7.75994,45.10359],[7.76029,45.10353]]},"properties":{}},{"type":"Feature","geometry":{"type":"LineString","coordinates":[[7.76035,45.10361],[7.76,45.10367],[7.75974,45.10367],[7.75186,45.10279]]},"properties":{}},{"type":"Feature","geometry":{"type":"LineString","coordinates":[[7.76183,45.10313],[7.7618,45.10318],[7.76185,45.1033],[7.76184,45.10341],[7.76196,45.1034]]},"properties":{}},{"type":"Feature","geometry":{"type":"LineString","coordinates":[[7.76091,45.10337],[7.76098,45.10327],[7.7611,45.10324],[7.76123,45.10326],[7.76131,45.10333]]},"properties":{}},{"type":"Feature","geometry":{"type":"LineString","coordinates":[[7.76131,45.10333],[7.76132,45.10342]]},"properties":{}},{"type":"Feature","geometry":{"type":"LineString","coordinates":[[7.76077,45.10341],[7.76091,45.10337]]},"properties":{}},{"type":"Feature","geometry":{"type":"LineString","coordinates":[[7.76097,45.10348],[7.76091,45.10337]]},"properties":{}},{"type":"Feature","geometry":{"type":"LineString","coordinates":[[7.76132,45.10342],[7.76127,45.10348]]},"properties":{}},{"type":"Feature","geometry":{"type":"LineString","coordinates":[[7.76029,45.10353],[7.76077,45.10341]]},"properties":{}},{"type":"Feature","geometry":{"type":"LineString","coordinates":[[7.76127,45.10348],[7.76109,45.10353]]},"properties":{}},{"type":"Feature","geometry":{"type":"LineString","coordinates":[[7.76109,45.10353],[7.76097,45.10348]]},"properties":{}},{"type":"Feature","geometry":{"type":"LineString","coordinates":[[7.76097,45.10348],[7.76042,45.10359]]},"properties":{}},{"type":"Feature","geometry":{"type":"LineString","coordinates":[[7.76669,45.10424],[7.76655,45.10431],[7.76633,45.10417],[7.76593,45.10381],[7.76587,45.10366],[7.7652,45.10317],[7.7649,45.10283]]},"properties":{}},{"type":"Feature","geometry":{"type":"LineString","coordinates":[[7.76042,45.10359],[7.76035,45.10361]]},"properties":{}},{"type":"Feature","geometry":{"type":"LineString","coordinates":[[7.76127,45.10348],[7.76116,45.10372]]},"properties":{}},{"type":"Feature","geometry":{"type":"LineString","coordinates":[[7.76116,45.10372],[7.76113,45.10359],[7.76109,45.10353]]},"properties":{}},{"type":"Feature","geometry":{"type":"LineString","coordinates":[[7.75125,45.10445],[7.75213,45.10367]]},"properties":{}},{"type":"Feature","geometry":{"type":"LineString","coordinates":[[7.76705,45.10448],[7.76669,45.10424]]},"properties":{}},{"type":"Feature","geometry":{"type":"LineString","coordinates":[[7.76768,45.10444],[7.76779,45.10442],[7.76785,45.10444]]},"properties":{}},{"type":"Feature","geometry":{"type":"LineString","coordinates":[[7.76785,45.10444],[7.76787,45.10452]]},"properties":{}},{"type":"Feature","geometry":{"type":"LineString","coordinates":[[7.76785,45.10444],[7.76851,45.10459]]},"properties":{}},{"type":"Feature","geometry":{"type":"LineString","coordinates":[[7.76787,45.10452],[7.76779,45.10458]]},"properties":{}},{"type":"Feature","geometry":{"type":"LineString","coordinates":[[7.76851,45.10459],[7.76783,45.10457]]},"properties":{}},{"type":"Feature","geometry":{"type":"LineString","coordinates":[[7.75309,45.10586],[7.75249,45.10567],[7.75212,45.10548],[7.75083,45.10397],[7.75055,45.10349]]},"properties":{}},{"type":"Feature","geometry":{"type":"LineString","coordinates":[[7.76784,45.10493],[7.76705,45.10448]]},"properties":{}},{"type":"Feature","geometry":{"type":"LineString","coordinates":[[7.76726,45.10501],[7.76703,45.10474]]},"properties":{}},{"type":"Feature","geometry":{"type":"LineString","coordinates":[[7.76739,45.10504],[7.76749,45.1048],[7.76779,45.10495],[7.76784,45.10493]]},"properties":{}},{"type":"Feature","geometry":{"type":"LineString","coordinates":[[7.75144,45.10465],[7.75,45.10527]]},"properties":{}},{"type":"Feature","geometry":{"type":"LineString","coordinates":[[7.76734,45.10516],[7.76744,45.10511],[7.76739,45.10504]]},"properties":{}},{"type":"Feature","geometry":{"type":"LineString","coordinates":[[7.76116,45.10372],[7.76128,45.10573],[7.76126,45.10585],[7.76107,45.10612],[7.76065,45.1065]]},"properties":{}},{"type":"Feature","geometry":{"type":"LineString","coordinates":[[7.76771,45.10598],[7.7674,45.10566],[7.76724,45.10545],[7.76715,45.10527],[7.76734,45.10516]]},"properties":{}},{"type":"Feature","geometry":{"type":"LineString","coordinates":[[7.75322,45.1059],[7.75309,45.10586]]},"properties":{}},{"type":"Feature","geometry":{"type":"LineString","coordinates":[[7.75322,45.1059],[7.75333,45.10593]]},"properties":{}},{"type":"Feature","geometry":{"type":"LineString","coordinates":[[7.7683,45.10648],[7.76771,45.10598]]},"properties":{}},{"type":"Feature","geometry":{"type":"LineString","coordinates":[[7.75,45.10748],[7.75269,45.10635],[7.75285,45.10631],[7.75308,45.10621],[7.75325,45.10607]]},"properties":{}},{"type":"Feature","geometry":{"type":"LineString","coordinates":[[7.75337,45.10613],[7.75,45.10754]]},"properties":{}},{"type":"Feature","geometry":{"type":"LineString","coordinates":[[7.77219,45.10789],[7.77225,45.10787],[7.77235,45.10791]]},"properties":{}},{"type":"Feature","geometry":{"type":"LineString","coordinates":[[7.7723,45.10804],[7.77215,45.10801],[7.77213,45.10794],[7.77219,45.10789]]},"properties":{}},{"type":"Feature","geometry":{"type":"LineString","coordinates":[[7.77235,45.10791],[7.77237,45.10798],[7.7723,45.10804]]},"properties":{}},{"type":"Feature","geometry":{"type":"LineString","coordinates":[[7.76196,45.1034],[7.76256,45.1041],[7.76259,45.1044],[7.76253,45.10447],[7.76256,45.10457],[7.76265,45.10469],[7.76275,45.10503],[7.76339,45.10679],[7.76402,45.10811],[7.76485,45.10937],[7.76488,45.10949],[7.76487,45.10984],[7.7649,45.10997],[7.7654,45.11075],[7.76576,45.1112],[7.76615,45.11163],[7.76659,45.112],[7.76741,45.1131],[7.76749,45.11328],[7.76753,45.11396]]},"properties":{}},{"type":"Feature","geometry":{"type":"LineString","coordinates":[[7.77341,45.1118],[7.77328,45.11152],[7.77291,45.11092],[7.77239,45.11026],[7.77216,45.11001],[7.7683,45.10648]]},"properties":{}},{"type":"Feature","geometry":{"type":"LineString","coordinates":[[7.77144,45.10917],[7.77136,45.10922]]},"properties":{}},{"type":"Feature","geometry":{"type":"LineString","coordinates":[[7.77136,45.10922],[7.77143,45.10935]]},"properties":{}},{"type":"Feature","geometry":{"type":"LineString","coordinates":[[7.77583,45.11132],[7.77596,45.11125],[7.77602,45.11108]]},"properties":{}},{"type":"Feature","geometry":{"type":"LineString","coordinates":[[7.7756,45.11133],[7.77583,45.11132],[7.77617,45.11136]]},"properties":{}},{"type":"Feature","geometry":{"type":"LineString","coordinates":[[7.7764,45.1116],[7.77628,45.11154],[7.77618,45.11145],[7.77601,45.11138],[7.7756,45.11133]]},"properties":{}},{"type":"Feature","geometry":{"type":"LineString","coordinates":[[7.76753,45.11396],[7.76695,45.11391],[7.76666,45.11394],[7.76625,45.11414],[7.76609,45.11428],[7.7659,45.11452]]},"properties":{}},{"type":"Feature","geometry":{"type":"LineString","coordinates":[[7.76753,45.11396],[7.76778,45.11405],[7.76811,45.1143],[7.76819,45.11443],[7.76829,45.11471]]},"properties":{}},{"type":"Feature","geometry":{"type":"LineString","coordinates":[[7.76872,45.1153],[7.76566,45.11446]]},"properties":{}},{"type":"Feature","geometry":{"type":"LineString","coordinates":[[7.76624,45.11642],[7.76642,45.11636],[7.76649,45.11628],[7.76665,45.11603],[7.76674,45.11568],[7.76685,45.11548],[7.76729,45.11502],[7.76762,45.1146],[7.76773,45.1143],[7.76767,45.11401]]},"properties":{}},{"type":"Feature","geometry":{"type":"LineString","coordinates":[[7.76829,45.11471],[7.76831,45.11489],[7.76823,45.11516],[7.76825,45.11536],[7.76833,45.11557],[7.76862,45.11604],[7.7687,45.11625],[7.76869,45.11653],[7.76864,45.11668]]},"properties":{}},{"type":"Feature","geometry":{"type":"LineString","coordinates":[[7.76934,45.11795],[7.76952,45.1177],[7.76957,45.11756],[7.76958,45.11738],[7.76952,45.11716],[7.76936,45.11682],[7.7693,45.11646],[7.76912,45.11584],[7.76907,45.11571],[7.76877,45.11545],[7.76861,45.11502],[7.76829,45.11471]]},"properties":{}},{"type":"Feature","geometry":{"type":"LineString","coordinates":[[7.76612,45.11459],[7.76607,45.11483],[7.76607,45.11497],[7.7661,45.11508],[7.76624,45.11525],[7.76641,45.1154],[7.76679,45.11557],[7.76695,45.11573],[7.76702,45.11591],[7.76702,45.11608],[7.76677,45.11671],[7.76677,45.11677],[7.76723,45.11703],[7.76721,45.11726],[7.76715,45.11741],[7.76728,45.11758],[7.76724,45.11803],[7.76725,45.11813],[7.76733,45.11823],[7.76768,45.1185],[7.76768,45.11853]]},"properties":{}},{"type":"Feature","geometry":{"type":"LineString","coordinates":[[7.7666,45.11715],[7.76812,45.11693],[7.76835,45.11685],[7.76864,45.11668]]},"properties":{}},{"type":"Feature","geometry":{"type":"LineString","coordinates":[[7.76871,45.11706],[7.76847,45.11697],[7.76812,45.11693]]},"properties":{}},{"type":"Feature","geometry":{"type":"LineString","coordinates":[[7.76864,45.11668],[7.76862,45.11679],[7.76871,45.11706],[7.76887,45.1172],[7.76898,45.11736],[7.76927,45.1178],[7.76936,45.11802],[7.76933,45.1181],[7.76927,45.11815],[7.76871,45.11832],[7.76863,45.11839]]},"properties":{}},{"type":"Feature","geometry":{"type":"LineString","coordinates":[[7.75015,45.11909],[7.75,45.11909]]},"properties":{}},{"type":"Feature","geometry":{"type":"LineString","coordinates":[[7.7666,45.11715],[7.76727,45.11854]]},"properties":{}},{"type":"Feature","geometry":{"type":"LineString","coordinates":[[7.76727,45.11854],[7.76707,45.11862],[7.76651,45.11866],[7.76593,45.11856],[7.76569,45.11847],[7.76551,45.11835],[7.76582,45.11803],[7.76606,45.11763],[7.7663,45.11734],[7.7666,45.11715]]},"properties":{}},{"type":"Feature","geometry":{"type":"LineString","coordinates":[[7.76863,45.11839],[7.76852,45.11855]]},"properties":{}},{"type":"Feature","geometry":{"type":"LineString","coordinates":[[7.87352,45.03715],[7.87356,45.03705],[7.87365,45.03702],[7.87374,45.03704],[7.8738,45.03709]]},"properties":{}},{"type":"Feature","geometry":{"type":"LineString","coordinates":[[7.8738,45.03709],[7.87379,45.03718],[7.87369,45.03723],[7.87357,45.0372],[7.87352,45.03715]]},"properties":{}},{"type":"Feature","geometry":{"type":"LineString","coordinates":[[7.78691,45.03739],[7.78699,45.03739],[7.78709,45.03745]]},"properties":{}},{"type":"Feature","geometry":{"type":"LineString","coordinates":[[7.78686,45.03763],[7.78677,45.03757],[7.78677,45.03746]]},"properties":{}},{"type":"Feature","geometry":{"type":"LineString","coordinates":[[7.78699,45.03764],[7.78686,45.03763]]},"properties":{}},{"type":"Feature","geometry":{"type":"LineString","coordinates":[[7.902,45.03777],[7.9023,45.03787]]},"properties":{}},{"type":"Feature","geometry":{"type":"LineString","coordinates":[[7.9023,45.03787],[7.90199,45.03789]]},"properties":{}},{"type":"Feature","geometry":{"type":"LineString","coordinates":[[7.78675,45.0381],[7.78683,45.03796]]},"properties":{}},{"type":"Feature","geometry":{"type":"LineString","coordinates":[[7.96591,45.03972],[7.96603,45.03954]]},"properties":{}},{"type":"Feature","geometry":{"type":"LineString","coordinates":[[7.96603,45.03954],[7.96603,45.03964],[7.96608,45.0397],[7.96623,45.03975]]},"properties":{}},{"type":"Feature","geometry":{"type":"LineString","coordinates":[[7.96607,45.03986],[7.96596,45.0398],[7.96591,45.03972]]},"properties":{}},{"type":"Feature","geometry":{"type":"LineString","coordinates":[[7.96569,45.04002],[7.96579,45.03994],[7.96591,45.03972]]},"properties":{}},{"type":"Feature","geometry":{"type":"LineString","coordinates":[[7.97841,45.0414],[7.97832,45.04132],[7.97829,45.04122],[7.9784,45.04108],[7.97861,45.04104],[7.9787,45.04106],[7.97883,45.04116],[7.97884,45.04129],[7.97874,45.04139],[7.97857,45.04143],[7.97841,45.0414]]},"properties":{}},{"type":"Feature","geometry":{"type":"LineString","coordinates":[[7.94278,45.17035],[7.94281,45.17046],[7.94256,45.17059],[7.94249,45.17075],[7.94251,45.1709],[7.94277,45.17134],[7.94276,45.17153]]},"properties":{}},{"type":"Feature","geometry":{"type":"LineString","coordinates":[[7.82683,45.17087],[7.82912,45.17226]]},"properties":{}},{"type":"Feature","geometry":{"type":"LineString","coordinates":[[7.94276,45.17153],[7.94328,45.17403]]},"properties":{}},{"type":"Feature","geometry":{"type":"LineString","coordinates":[[7.82912,45.17226],[7.83496,45.17581]]},"properties":{}},{"type":"Feature","geometry":{"type":"LineString","coordinates":[[7.83496,45.17581],[7.8364,45.17668],[7.83635,45.17671]]},"properties":{}},{"type":"Feature","geometry":{"type":"LineString","coordinates":[[7.94328,45.17403],[7.94339,45.17422],[7.94349,45.17453],[7.94358,45.17468],[7.94389,45.17503],[7.94754,45.17802],[7.94808,45.17835],[7.94849,45.17852]]},"properties":{}},{"type":"Feature","geometry":{"type":"LineString","coordinates":[[7.8908,45.17763],[7.89096,45.17753],[7.89167,45.17751],[7.89175,45.1775],[7.8918,45.17746]]},"properties":{}},{"type":"Feature","geometry":{"type":"LineString","coordinates":[[7.89053,45.17974],[7.89077,45.17773],[7.8908,45.17763]]},"properties":{}},{"type":"Feature","geometry":{"type":"LineString","coordinates":[[7.94849,45.17852],[7.94876,45.17865],[7.94963,45.17894]]},"properties":{}},{"type":"Feature","geometry":{"type":"LineString","coordinates":[[7.85038,45.18062],[7.85057,45.18049],[7.85066,45.18029],[7.85069,45.18004],[7.85065,45.17969],[7.85054,45.17933],[7.85019,45.17869],[7.85001,45.17842],[7.84988,45.17827],[7.84975,45.17823],[7.84972,45.17812],[7.84947,45.17802],[7.84937,45.17795],[7.84875,45.17726],[7.84874,45.17715],[7.84867,45.17705]]},"properties":{}},{"type":"Feature","geometry":{"type":"LineString","coordinates":[[7.94963,45.17894],[7.94992,45.17902]]},"properties":{}},{"type":"Feature","geometry":{"type":"LineString","coordinates":[[7.89025,45.18225],[7.89053,45.17974]]},"properties":{}},{"type":"Feature","geometry":{"type":"LineString","coordinates":[[7.94992,45.17902],[7.95343,45.17987],[7.95489,45.18038],[7.95772,45.18104],[7.95809,45.18114],[7.95856,45.18133],[7.95901,45.18162],[7.95932,45.18191],[7.9596,45.18227],[7.95974,45.18255],[7.95995,45.18313],[7.96014,45.18329],[7.96025,45.18349],[7.96034,45.18356],[7.96069,45.18375],[7.96078,45.18383]]},"properties":{}},{"type":"Feature","geometry":{"type":"LineString","coordinates":[[7.89024,45.18247],[7.89025,45.18225]]},"properties":{}},{"type":"Feature","geometry":{"type":"LineString","coordinates":[[7.89024,45.18267],[7.89024,45.18247]]},"properties":{}},{"type":"Feature","geometry":{"type":"LineString","coordinates":[[7.83244,45.18113],[7.83219,45.18097],[7.83208,45.18115],[7.83157,45.18144],[7.83149,45.18153],[7.83142,45.18169],[7.83135,45.18179],[7.83095,45.18198],[7.83091,45.18205],[7.83095,45.18215],[7.83479,45.18406],[7.83493,45.18415],[7.83555,45.18423]]},"properties":{}},{"type":"Feature","geometry":{"type":"LineString","coordinates":[[7.83555,45.18423],[7.83669,45.18433],[7.83685,45.18439],[7.83667,45.18453],[7.83639,45.18459],[7.8362,45.18456],[7.83555,45.18423]]},"properties":{}},{"type":"Feature","geometry":{"type":"LineString","coordinates":[[7.89024,45.18267],[7.88999,45.18464]]},"properties":{}},{"type":"Feature","geometry":{"type":"LineString","coordinates":[[7.88477,45.18414],[7.88465,45.18433],[7.88396,45.18471],[7.88302,45.18567],[7.88297,45.18579],[7.88296,45.18606]]},"properties":{}},{"type":"Feature","geometry":{"type":"LineString","coordinates":[[7.88296,45.18606],[7.883,45.18627]]},"properties":{}},{"type":"Feature","geometry":{"type":"LineString","coordinates":[[7.883,45.18627],[7.88311,45.18637],[7.88337,45.18645],[7.88435,45.18667],[7.88431,45.18677]]},"properties":{}},{"type":"Feature","geometry":{"type":"LineString","coordinates":[[7.76791,45.11858],[7.76768,45.11853],[7.76727,45.11854]]},"properties":{}},{"type":"Feature","geometry":{"type":"LineString","coordinates":[[7.76852,45.11855],[7.76841,45.11864],[7.76816,45.11864]]},"properties":{}},{"type":"Feature","geometry":{"type":"LineString","coordinates":[[7.76816,45.11864],[7.76791,45.11858]]},"properties":{}},{"type":"Feature","geometry":{"type":"LineString","coordinates":[[7.76849,45.1187],[7.76848,45.11858]]},"properties":{}},{"type":"Feature","geometry":{"type":"LineString","coordinates":[[7.76841,45.11864],[7.76849,45.1187],[7.76856,45.11885]]},"properties":{}},{"type":"Feature","geometry":{"type":"LineString","coordinates":[[7.75,45.11896],[7.75011,45.11898]]},"properties":{}},{"type":"Feature","geometry":{"type":"LineString","coordinates":[[7.76727,45.11854],[7.76762,45.11925],[7.76752,45.11981],[7.76734,45.11994]]},"properties":{}},{"type":"Feature","geometry":{"type":"LineString","coordinates":[[7.7672,45.12004],[7.76716,45.12016],[7.76719,45.12023],[7.7674,45.12043],[7.76749,45.12057],[7.76754,45.12071],[7.76758,45.1211],[7.76754,45.12126],[7.76742,45.12139],[7.76744,45.12152]]},"properties":{}},{"type":"Feature","geometry":{"type":"LineString","coordinates":[[7.76748,45.12163],[7.76754,45.1218],[7.76729,45.12259],[7.76708,45.12294],[7.76708,45.12305],[7.76713,45.12312],[7.76732,45.12321],[7.7674,45.12332],[7.76741,45.12346],[7.76728,45.12355],[7.76726,45.1236]]},"properties":{}},{"type":"Feature","geometry":{"type":"LineString","coordinates":[[7.76726,45.1236],[7.76717,45.12362],[7.76713,45.12371]]},"properties":{}},{"type":"Feature","geometry":{"type":"LineString","coordinates":[[7.76713,45.12371],[7.76706,45.12396]]},"properties":{}},{"type":"Feature","geometry":{"type":"LineString","coordinates":[[7.81864,45.12429],[7.81858,45.1242],[7.81869,45.12413],[7.81882,45.12419],[7.8188,45.12427]]},"properties":{}},{"type":"Feature","geometry":{"type":"LineString","coordinates":[[7.76684,45.12515],[7.76652,45.12444],[7.76657,45.12432],[7.76678,45.12409],[7.76691,45.124],[7.76706,45.12396]]},"properties":{}},{"type":"Feature","geometry":{"type":"LineString","coordinates":[[7.76682,45.1251],[7.76712,45.1248],[7.76756,45.12486],[7.76774,45.12473],[7.76786,45.1247],[7.76799,45.12474],[7.76848,45.12508],[7.76902,45.12539],[7.77029,45.12636],[7.77043,45.12643],[7.77349,45.12863],[7.77376,45.12886]]},"properties":{}},{"type":"Feature","geometry":{"type":"LineString","coordinates":[[7.76766,45.12691],[7.76758,45.12694]]},"properties":{}},{"type":"Feature","geometry":{"type":"LineString","coordinates":[[7.76758,45.12694],[7.76744,45.12699]]},"properties":{}},{"type":"Feature","geometry":{"type":"LineString","coordinates":[[7.76335,45.12678],[7.7634,45.12676],[7.76345,45.12682],[7.76361,45.12684],[7.7644,45.12645],[7.76473,45.12645],[7.76491,45.12655],[7.76619,45.12791]]},"properties":{}},{"type":"Feature","geometry":{"type":"LineString","coordinates":[[7.76744,45.12699],[7.76722,45.12708],[7.76638,45.12776]]},"properties":{}},{"type":"Feature","geometry":{"type":"LineString","coordinates":[[7.75,45.12654],[7.75023,45.12647],[7.7502,45.12643]]},"properties":{}},{"type":"Feature","geometry":{"type":"LineString","coordinates":[[7.76638,45.12776],[7.76627,45.12785]]},"properties":{}},{"type":"Feature","geometry":{"type":"LineString","coordinates":[[7.76627,45.12785],[7.76619,45.12791]]},"properties":{}},{"type":"Feature","geometry":{"type":"LineString","coordinates":[[7.76619,45.12791],[7.76613,45.12796]]},"properties":{}},{"type":"Feature","geometry":{"type":"LineString","coordinates":[[7.75,45.13052],[7.75267,45.13131]]},"properties":{}},{"type":"Feature","geometry":{"type":"LineString","coordinates":[[7.77359,45.12894],[7.77376,45.12886]]},"properties":{}},{"type":"Feature","geometry":{"type":"LineString","coordinates":[[7.77347,45.12901],[7.77359,45.12894]]},"properties":{}},{"type":"Feature","geometry":{"type":"LineString","coordinates":[[7.75549,45.13205],[7.75584,45.13151],[7.75605,45.13131],[7.75673,45.13048],[7.75742,45.12975],[7.75766,45.12961],[7.75894,45.12899],[7.75906,45.12887],[7.75926,45.12885],[7.7596,45.12871],[7.76312,45.12709],[7.76322,45.12698],[7.76325,45.12691],[7.76322,45.12683],[7.76335,45.12678]]},"properties":{}},{"type":"Feature","geometry":{"type":"LineString","coordinates":[[7.77491,45.13137],[7.77447,45.13087],[7.77429,45.13076],[7.77426,45.13069],[7.7744,45.13029],[7.77347,45.12901]]},"properties":{}},{"type":"Feature","geometry":{"type":"LineString","coordinates":[[7.82569,45.13079],[7.82557,45.13072],[7.82558,45.13063],[7.82569,45.13058],[7.82583,45.13062],[7.82586,45.13068],[7.82583,45.13075],[7.82569,45.13079]]},"properties":{}},{"type":"Feature","geometry":{"type":"LineString","coordinates":[[7.75263,45.13138],[7.75267,45.13131]]},"properties":{}},{"type":"Feature","geometry":{"type":"LineString","coordinates":[[7.77478,45.13163],[7.775,45.1315],[7.77503,45.13145]]},"properties":{}},{"type":"Feature","geometry":{"type":"LineString","coordinates":[[7.75267,45.13131],[7.75476,45.13196]]},"properties":{}},{"type":"Feature","geometry":{"type":"LineString","coordinates":[[7.75191,45.13201],[7.75206,45.1318],[7.75243,45.13154],[7.75256,45.1315],[7.75263,45.13138]]},"properties":{}},{"type":"Feature","geometry":{"type":"LineString","coordinates":[[7.77724,45.13262],[7.77663,45.13236],[7.77641,45.13213],[7.77594,45.1318],[7.77543,45.13163],[7.77492,45.13138]]},"properties":{}},{"type":"Feature","geometry":{"type":"LineString","coordinates":[[7.75476,45.13196],[7.75468,45.13207]]},"properties":{}},{"type":"Feature","geometry":{"type":"LineString","coordinates":[[7.75476,45.13196],[7.7553,45.1321],[7.75549,45.13205]]},"properties":{}},{"type":"Feature","geometry":{"type":"LineString","coordinates":[[7.75549,45.13205],[7.75562,45.13211]]},"properties":{}},{"type":"Feature","geometry":{"type":"LineString","coordinates":[[7.75562,45.13211],[7.75554,45.13221],[7.75558,45.13225],[7.75571,45.13227]]},"properties":{}},{"type":"Feature","geometry":{"type":"LineString","coordinates":[[7.75571,45.13227],[7.75569,45.13238]]},"properties":{}},{"type":"Feature","geometry":{"type":"LineString","coordinates":[[7.75468,45.13207],[7.75491,45.13221],[7.75497,45.13242],[7.75511,45.13253],[7.75516,45.13266]]},"properties":{}},{"type":"Feature","geometry":{"type":"LineString","coordinates":[[7.75569,45.13238],[7.75554,45.1324],[7.75543,45.13249],[7.75538,45.13256],[7.75536,45.13266]]},"properties":{}},{"type":"Feature","geometry":{"type":"LineString","coordinates":[[7.77727,45.13266],[7.77729,45.13248],[7.77741,45.1324]]},"properties":{}},{"type":"Feature","geometry":{"type":"LineString","coordinates":[[7.75516,45.13266],[7.75536,45.13266]]},"properties":{}},{"type":"Feature","geometry":{"type":"LineString","coordinates":[[7.75191,45.13201],[7.75146,45.13276],[7.75134,45.13289],[7.75117,45.13323],[7.75101,45.13341]]},"properties":{}},{"type":"Feature","geometry":{"type":"LineString","coordinates":[[7.75536,45.13266],[7.7554,45.13282],[7.7555,45.13286]]},"properties":{}},{"type":"Feature","geometry":{"type":"LineString","coordinates":[[7.75496,45.13301],[7.75506,45.13299],[7.75508,45.13289],[7.75515,45.13284],[7.75516,45.13266]]},"properties":{}},{"type":"Feature","geometry":{"type":"LineString","coordinates":[[7.7555,45.13286],[7.75554,45.13293]]},"properties":{}},{"type":"Feature","geometry":{"type":"LineString","coordinates":[[7.77735,45.13324],[7.77737,45.13276],[7.77736,45.1327],[7.77729,45.13265]]},"properties":{}},{"type":"Feature","geometry":{"type":"LineString","coordinates":[[7.75497,45.1331],[7.75496,45.13301]]},"properties":{}},{"type":"Feature","geometry":{"type":"LineString","coordinates":[[7.75554,45.13293],[7.75558,45.13305],[7.75552,45.13322],[7.75559,45.13361]]},"properties":{}},{"type":"Feature","geometry":{"type":"LineString","coordinates":[[7.75041,45.13352],[7.75038,45.13344],[7.75,45.13329]]},"properties":{}},{"type":"Feature","geometry":{"type":"LineString","coordinates":[[7.75,45.13338],[7.75047,45.13356],[7.75101,45.13341]]},"properties":{}},{"type":"Feature","geometry":{"type":"LineString","coordinates":[[7.75537,45.13363],[7.7553,45.13353],[7.75524,45.13329],[7.75505,45.13329],[7.7551,45.13318],[7.75504,45.13311],[7.75497,45.1331]]},"properties":{}},{"type":"Feature","geometry":{"type":"LineString","coordinates":[[7.75024,45.13379],[7.75041,45.13352]]},"properties":{}},{"type":"Feature","geometry":{"type":"LineString","coordinates":[[7.77735,45.13324],[7.77729,45.13329],[7.77726,45.13338],[7.77743,45.13387],[7.77746,45.13413],[7.77756,45.1343],[7.77754,45.13431]]},"properties":{}},{"type":"Feature","geometry":{"type":"LineString","coordinates":[[7.75,45.13395],[7.75012,45.13392],[7.75024,45.13379]]},"properties":{}},{"type":"Feature","geometry":{"type":"LineString","coordinates":[[7.77754,45.13431],[7.77751,45.13432]]},"properties":{}},{"type":"Feature","geometry":{"type":"LineString","coordinates":[[7.77751,45.13432],[7.77768,45.13461],[7.77775,45.13466],[7.77827,45.13497],[7.77839,45.13495],[7.77875,45.13496],[7.77895,45.13507],[7.77908,45.13529]]},"properties":{}},{"type":"Feature","geometry":{"type":"LineString","coordinates":[[7.76129,45.13397],[7.76708,45.1357]]},"properties":{}},{"type":"Feature","geometry":{"type":"LineString","coordinates":[[7.75559,45.13361],[7.75579,45.13437],[7.75629,45.13665]]},"properties":{}},{"type":"Feature","geometry":{"type":"LineString","coordinates":[[7.75613,45.13667],[7.75571,45.13541],[7.7556,45.135],[7.75537,45.13363]]},"properties":{}},{"type":"Feature","geometry":{"type":"LineString","coordinates":[[7.75629,45.13665],[7.75667,45.13807]]},"properties":{}},{"type":"Feature","geometry":{"type":"LineString","coordinates":[[7.75659,45.13838],[7.75613,45.13667]]},"properties":{}},{"type":"Feature","geometry":{"type":"LineString","coordinates":[[7.76825,45.13893],[7.76855,45.13878]]},"properties":{}},{"type":"Feature","geometry":{"type":"LineString","coordinates":[[7.7681,45.13906],[7.76825,45.13893]]},"properties":{}},{"type":"Feature","geometry":{"type":"LineString","coordinates":[[7.76797,45.13919],[7.7681,45.13906]]},"properties":{}},{"type":"Feature","geometry":{"type":"LineString","coordinates":[[7.76791,45.13927],[7.76797,45.13919]]},"properties":{}},{"type":"Feature","geometry":{"type":"LineString","coordinates":[[7.76681,45.139],[7.76732,45.13916],[7.76757,45.13935],[7.76784,45.13943],[7.7678,45.13951],[7.76764,45.13955]]},"properties":{}},{"type":"Feature","geometry":{"type":"LineString","coordinates":[[7.76788,45.13931],[7.76791,45.13927]]},"properties":{}},{"type":"Feature","geometry":{"type":"LineString","coordinates":[[7.76783,45.13938],[7.76788,45.13931]]},"properties":{}},{"type":"Feature","geometry":{"type":"LineString","coordinates":[[7.76778,45.13945],[7.76783,45.13938]]},"properties":{}},{"type":"Feature","geometry":{"type":"LineString","coordinates":[[7.76764,45.13955],[7.76742,45.13951],[7.76736,45.13946],[7.7676,45.13952],[7.7677,45.1395],[7.76778,45.13945]]},"properties":{}},{"type":"Feature","geometry":{"type":"LineString","coordinates":[[7.76765,45.13963],[7.76784,45.13967],[7.76928,45.14029]]},"properties":{}},{"type":"Feature","geometry":{"type":"LineString","coordinates":[[7.78184,45.13872],[7.78135,45.13952],[7.77932,45.14151]]},"properties":{}},{"type":"Feature","geometry":{"type":"LineString","coordinates":[[7.76928,45.14029],[7.76935,45.1402]]},"properties":{}},{"type":"Feature","geometry":{"type":"LineString","coordinates":[[7.76807,45.14424],[7.76796,45.14376],[7.76788,45.14273],[7.76777,45.14203],[7.76777,45.14124],[7.76786,45.14081],[7.76782,45.1407]]},"properties":{}},{"type":"Feature","geometry":{"type":"LineString","coordinates":[[7.77499,45.14435],[7.77545,45.14452]]},"properties":{}},{"type":"Feature","geometry":{"type":"LineString","coordinates":[[7.77499,45.14435],[7.77483,45.14451],[7.77457,45.14465]]},"properties":{}},{"type":"Feature","geometry":{"type":"LineString","coordinates":[[7.77576,45.14484],[7.7755,45.14481],[7.77544,45.14476],[7.77539,45.14464],[7.7754,45.14458],[7.77551,45.14448],[7.77565,45.14444],[7.77577,45.14445]]},"properties":{}},{"type":"Feature","geometry":{"type":"LineString","coordinates":[[7.77576,45.14484],[7.77596,45.14524]]},"properties":{}},{"type":"Feature","geometry":{"type":"LineString","coordinates":[[7.77596,45.14524],[7.77599,45.14531]]},"properties":{}},{"type":"Feature","geometry":{"type":"LineString","coordinates":[[7.77374,45.14567],[7.77386,45.14527],[7.7739,45.14491]]},"properties":{}},{"type":"Feature","geometry":{"type":"LineString","coordinates":[[7.75732,45.1456],[7.75739,45.14554],[7.75713,45.1454],[7.75724,45.14528]]},"properties":{}},{"type":"Feature","geometry":{"type":"LineString","coordinates":[[7.77601,45.14606],[7.77594,45.14595],[7.77594,45.14584],[7.77586,45.14575],[7.77583,45.14566],[7.77593,45.1455],[7.77593,45.14538],[7.77599,45.14531]]},"properties":{}},{"type":"Feature","geometry":{"type":"LineString","coordinates":[[7.75637,45.14648],[7.75732,45.1456]]},"properties":{}},{"type":"Feature","geometry":{"type":"LineString","coordinates":[[7.77601,45.14606],[7.77601,45.14616]]},"properties":{}},{"type":"Feature","geometry":{"type":"LineString","coordinates":[[7.75637,45.14648],[7.75589,45.14627],[7.75509,45.14586],[7.75502,45.14592]]},"properties":{}},{"type":"Feature","geometry":{"type":"LineString","coordinates":[[7.77601,45.14616],[7.77604,45.14667]]},"properties":{}},{"type":"Feature","geometry":{"type":"LineString","coordinates":[[7.77324,45.14736],[7.77314,45.14698],[7.77318,45.14666],[7.77374,45.14567]]},"properties":{}},{"type":"Feature","geometry":{"type":"LineString","coordinates":[[7.77605,45.14775],[7.77598,45.14765],[7.77598,45.14751],[7.77589,45.14734],[7.77599,45.14715],[7.77597,45.14688],[7.77604,45.14667]]},"properties":{}},{"type":"Feature","geometry":{"type":"LineString","coordinates":[[7.77324,45.14736],[7.77344,45.1477],[7.77371,45.14794],[7.77406,45.1481],[7.77454,45.14817],[7.775,45.14813],[7.77535,45.148],[7.77568,45.14777],[7.77592,45.14744]]},"properties":{}},{"type":"Feature","geometry":{"type":"LineString","coordinates":[[7.88435,45.18667],[7.88499,45.18685],[7.8855,45.18693],[7.88554,45.18696],[7.88557,45.18723],[7.88563,45.18725]]},"properties":{}},{"type":"Feature","geometry":{"type":"LineString","coordinates":[[7.88591,45.18728],[7.88672,45.18748]]},"properties":{}},{"type":"Feature","geometry":{"type":"LineString","coordinates":[[7.88672,45.18748],[7.88688,45.18753]]},"properties":{}},{"type":"Feature","geometry":{"type":"LineString","coordinates":[[7.89497,45.18783],[7.89474,45.18773],[7.89492,45.1875],[7.89497,45.18749]]},"properties":{}},{"type":"Feature","geometry":{"type":"LineString","coordinates":[[7.89235,45.18855],[7.88966,45.18819],[7.88688,45.18753]]},"properties":{}},{"type":"Feature","geometry":{"type":"LineString","coordinates":[[7.88856,45.18801],[7.88847,45.18847]]},"properties":{}},{"type":"Feature","geometry":{"type":"LineString","coordinates":[[7.88591,45.18915],[7.88585,45.18912],[7.88564,45.18737],[7.88567,45.18733]]},"properties":{}},{"type":"Feature","geometry":{"type":"LineString","coordinates":[[7.88579,45.18733],[7.886,45.18916]]},"properties":{}},{"type":"Feature","geometry":{"type":"LineString","coordinates":[[7.88595,45.18914],[7.88572,45.18735]]},"properties":{}},{"type":"Feature","geometry":{"type":"LineString","coordinates":[[7.88674,45.18818],[7.88753,45.18828],[7.88951,45.18868]]},"properties":{}},{"type":"Feature","geometry":{"type":"LineString","coordinates":[[7.89753,45.18915],[7.89737,45.18908],[7.89724,45.18916],[7.89715,45.18929],[7.89596,45.188],[7.89567,45.18778],[7.89553,45.18775],[7.89531,45.18773],[7.89497,45.18783],[7.8948,45.18803],[7.89462,45.18832],[7.8947,45.1885],[7.89424,45.18849],[7.89408,45.18868]]},"properties":{}},{"type":"Feature","geometry":{"type":"LineString","coordinates":[[7.89266,45.18858],[7.89272,45.18862]]},"properties":{}},{"type":"Feature","geometry":{"type":"LineString","coordinates":[[7.89448,45.18883],[7.8947,45.1885]]},"properties":{}},{"type":"Feature","geometry":{"type":"LineString","coordinates":[[7.89272,45.18862],[7.89397,45.18875],[7.89408,45.18868]]},"properties":{}},{"type":"Feature","geometry":{"type":"LineString","coordinates":[[7.88595,45.18916],[7.88595,45.18914]]},"properties":{}},{"type":"Feature","geometry":{"type":"LineString","coordinates":[[7.88596,45.18921],[7.88595,45.18916]]},"properties":{}},{"type":"Feature","geometry":{"type":"LineString","coordinates":[[7.88596,45.18921],[7.88597,45.18928]]},"properties":{}},{"type":"Feature","geometry":{"type":"LineString","coordinates":[[7.88597,45.18928],[7.88601,45.18974]]},"properties":{}},{"type":"Feature","geometry":{"type":"LineString","coordinates":[[7.88435,45.18982],[7.88447,45.18973],[7.88462,45.18966]]},"properties":{}},{"type":"Feature","geometry":{"type":"LineString","coordinates":[[7.88462,45.18966],[7.88446,45.18984]]},"properties":{}},{"type":"Feature","geometry":{"type":"LineString","coordinates":[[7.88435,45.18996],[7.88429,45.18992],[7.88428,45.18986],[7.88439,45.18982],[7.88448,45.18987],[7.88443,45.18996]]},"properties":{}},{"type":"Feature","geometry":{"type":"LineString","coordinates":[[7.88407,45.18995],[7.88428,45.18986]]},"properties":{}},{"type":"Feature","geometry":{"type":"LineString","coordinates":[[7.88435,45.18996],[7.88407,45.18995]]},"properties":{}},{"type":"Feature","geometry":{"type":"LineString","coordinates":[[7.88443,45.18996],[7.88435,45.18996]]},"properties":{}},{"type":"Feature","geometry":{"type":"LineString","coordinates":[[7.88665,45.19004],[7.88443,45.18996]]},"properties":{}},{"type":"Feature","geometry":{"type":"LineString","coordinates":[[7.89724,45.18939],[7.89726,45.18941],[7.89746,45.18937],[7.89769,45.18942],[7.8977,45.1894],[7.89874,45.18971],[7.90071,45.19011],[7.90094,45.19025],[7.90124,45.1903],[7.90136,45.19027],[7.90388,45.19075],[7.90447,45.19083]]},"properties":{}},{"type":"Feature","geometry":{"type":"LineString","coordinates":[[7.89365,45.19038],[7.89349,45.1905]]},"properties":{}},{"type":"Feature","geometry":{"type":"LineString","coordinates":[[7.891,45.19031],[7.89094,45.19129]]},"properties":{}},{"type":"Feature","geometry":{"type":"LineString","coordinates":[[7.89094,45.19129],[7.89091,45.19157]]},"properties":{}},{"type":"Feature","geometry":{"type":"LineString","coordinates":[[7.88413,45.19185],[7.8856,45.19192]]},"properties":{}},{"type":"Feature","geometry":{"type":"LineString","coordinates":[[7.89087,45.192],[7.89184,45.19261],[7.89206,45.19268],[7.89265,45.19233],[7.89277,45.19229]]},"properties":{}},{"type":"Feature","geometry":{"type":"LineString","coordinates":[[7.89091,45.19157],[7.89067,45.19325]]},"properties":{}},{"type":"Feature","geometry":{"type":"LineString","coordinates":[[7.88284,45.19295],[7.88319,45.19298],[7.88286,45.19293],[7.88339,45.19295],[7.8835,45.19287]]},"properties":{}},{"type":"Feature","geometry":{"type":"LineString","coordinates":[[7.88284,45.19295],[7.88281,45.19325]]},"properties":{}},{"type":"Feature","geometry":{"type":"LineString","coordinates":[[7.88281,45.19325],[7.88244,45.19324],[7.88285,45.19327],[7.88293,45.19322]]},"properties":{}},{"type":"Feature","geometry":{"type":"LineString","coordinates":[[7.90609,45.19327],[7.90617,45.19327],[7.90622,45.19341],[7.90653,45.19359],[7.9067,45.19363]]},"properties":{}},{"type":"Feature","geometry":{"type":"LineString","coordinates":[[7.94952,45.19332],[7.95153,45.19331],[7.95192,45.19336],[7.95335,45.19372],[7.95375,45.19378],[7.95616,45.19388],[7.95718,45.19389],[7.95762,45.19381],[7.95845,45.19379]]},"properties":{}},{"type":"Feature","geometry":{"type":"LineString","coordinates":[[7.90774,45.19398],[7.90664,45.19378],[7.9067,45.19363]]},"properties":{}},{"type":"Feature","geometry":{"type":"LineString","coordinates":[[7.90835,45.1941],[7.90774,45.19398]]},"properties":{}},{"type":"Feature","geometry":{"type":"LineString","coordinates":[[7.9067,45.19363],[7.90699,45.19371],[7.91555,45.19533]]},"properties":{}},{"type":"Feature","geometry":{"type":"LineString","coordinates":[[7.91551,45.19542],[7.90835,45.1941]]},"properties":{}},{"type":"Feature","geometry":{"type":"LineString","coordinates":[[7.89045,45.19478],[7.8903,45.19477],[7.89024,45.19473],[7.88963,45.19469],[7.88962,45.19457],[7.88957,45.19454],[7.88666,45.19436],[7.88631,45.19435],[7.88596,45.19439],[7.88585,45.19447],[7.88572,45.19496],[7.88586,45.19616]]},"properties":{}},{"type":"Feature","geometry":{"type":"LineString","coordinates":[[7.91787,45.19575],[7.91783,45.19572],[7.91758,45.19566],[7.91759,45.19553]]},"properties":{}},{"type":"Feature","geometry":{"type":"LineString","coordinates":[[7.91787,45.19575],[7.91983,45.19612]]},"properties":{}},{"type":"Feature","geometry":{"type":"LineString","coordinates":[[7.91979,45.19621],[7.91783,45.19584]]},"properties":{}},{"type":"Feature","geometry":{"type":"LineString","coordinates":[[7.92208,45.19672],[7.92231,45.1968]]},"properties":{}},{"type":"Feature","geometry":{"type":"LineString","coordinates":[[7.92224,45.19687],[7.92208,45.19672]]},"properties":{}},{"type":"Feature","geometry":{"type":"LineString","coordinates":[[7.92265,45.19706],[7.92244,45.19711],[7.9223,45.19707],[7.92225,45.19702],[7.92222,45.19692],[7.92231,45.1968]]},"properties":{}},{"type":"Feature","geometry":{"type":"LineString","coordinates":[[7.92272,45.19696],[7.92265,45.19706]]},"properties":{}},{"type":"Feature","geometry":{"type":"LineString","coordinates":[[7.92272,45.19696],[7.92295,45.19716]]},"properties":{}},{"type":"Feature","geometry":{"type":"LineString","coordinates":[[7.92295,45.19716],[7.92259,45.19709]]},"properties":{}},{"type":"Feature","geometry":{"type":"LineString","coordinates":[[7.89898,45.1976],[7.89922,45.19751]]},"properties":{}},{"type":"Feature","geometry":{"type":"LineString","coordinates":[[7.89914,45.19787],[7.89908,45.19786],[7.89907,45.19774],[7.89893,45.19762],[7.89898,45.1976]]},"properties":{}},{"type":"Feature","geometry":{"type":"LineString","coordinates":[[7.77415,45.19938],[7.774,45.19942],[7.77321,45.19948],[7.77218,45.19951]]},"properties":{}},{"type":"Feature","geometry":{"type":"LineString","coordinates":[[7.89029,45.19698],[7.88989,45.19987],[7.88986,45.20045],[7.88989,45.20049],[7.89021,45.20066],[7.89048,45.20072],[7.89122,45.20078],[7.89137,45.20072],[7.89158,45.20036],[7.89184,45.20042],[7.89172,45.20075],[7.89183,45.20085],[7.89217,45.2009],[7.89238,45.20088],[7.89253,45.20092],[7.89267,45.20101],[7.89637,45.2016],[7.89652,45.2016],[7.89665,45.2015],[7.89685,45.20144],[7.89707,45.20145],[7.89728,45.20155],[7.89742,45.20174],[7.89787,45.20194],[7.89819,45.20202],[7.89872,45.20203],[7.90026,45.20197],[7.90059,45.20193],[7.90109,45.20176]]},"properties":{}},{"type":"Feature","geometry":{"type":"LineString","coordinates":[[7.7795,45.2006],[7.77923,45.20027],[7.77911,45.20017],[7.7787,45.20004],[7.77579,45.19943],[7.77544,45.19939],[7.77458,45.19942],[7.77415,45.19938]]},"properties":{}},{"type":"Feature","geometry":{"type":"LineString","coordinates":[[7.88989,45.20049],[7.89147,45.20056]]},"properties":{}},{"type":"Feature","geometry":{"type":"LineString","coordinates":[[7.87311,45.20219],[7.87322,45.20208],[7.87325,45.20196],[7.87336,45.20189],[7.87358,45.20199],[7.87372,45.20192]]},"properties":{}},{"type":"Feature","geometry":{"type":"LineString","coordinates":[[7.89043,45.20092],[7.8901,45.20108],[7.89006,45.20118],[7.89004,45.20141],[7.89007,45.20154],[7.8901,45.20195],[7.8902,45.20202],[7.89021,45.20213],[7.89009,45.20221],[7.8901,45.20256],[7.89001,45.20306],[7.89004,45.20326],[7.89008,45.20333],[7.89022,45.2034]]},"properties":{}},{"type":"Feature","geometry":{"type":"LineString","coordinates":[[7.89634,45.20182],[7.89631,45.20187],[7.89635,45.20278]]},"properties":{}},{"type":"Feature","geometry":{"type":"LineString","coordinates":[[7.87282,45.20244],[7.87311,45.20219]]},"properties":{}},{"type":"Feature","geometry":{"type":"LineString","coordinates":[[7.87251,45.20282],[7.87259,45.20267],[7.87282,45.20244]]},"properties":{}},{"type":"Feature","geometry":{"type":"LineString","coordinates":[[7.89624,45.20278],[7.89462,45.20281],[7.89452,45.20274],[7.89451,45.20261]]},"properties":{}},{"type":"Feature","geometry":{"type":"LineString","coordinates":[[7.90699,45.20849],[7.90689,45.20853],[7.9068,45.20842],[7.90249,45.20257],[7.90195,45.2022],[7.90127,45.20189],[7.90109,45.20176],[7.90069,45.20085],[7.90062,45.20078],[7.90027,45.20067],[7.89925,45.19931],[7.89916,45.19924]]},"properties":{}},{"type":"Feature","geometry":{"type":"LineString","coordinates":[[7.89016,45.20353],[7.89003,45.20377],[7.89008,45.20462]]},"properties":{}},{"type":"Feature","geometry":{"type":"LineString","coordinates":[[7.82264,45.20802],[7.8231,45.20782],[7.82518,45.20725],[7.82551,45.2072],[7.82736,45.20709],[7.82809,45.20698],[7.8289,45.20674],[7.82951,45.20645],[7.8301,45.20605],[7.83027,45.20591],[7.83439,45.20167],[7.83433,45.20163]]},"properties":{}},{"type":"Feature","geometry":{"type":"LineString","coordinates":[[7.89014,45.20476],[7.89015,45.20505],[7.89007,45.20515],[7.89006,45.2053],[7.89,45.2053]]},"properties":{}},{"type":"Feature","geometry":{"type":"LineString","coordinates":[[7.93,45.20538],[7.93027,45.20551],[7.93057,45.2056]]},"properties":{}},{"type":"Feature","geometry":{"type":"LineString","coordinates":[[7.93057,45.2056],[7.93105,45.20567]]},"properties":{}},{"type":"Feature","geometry":{"type":"LineString","coordinates":[[7.93034,45.20576],[7.93057,45.2056]]},"properties":{}},{"type":"Feature","geometry":{"type":"LineString","coordinates":[[7.93105,45.20567],[7.93079,45.2057]]},"properties":{}},{"type":"Feature","geometry":{"type":"LineString","coordinates":[[7.93079,45.2057],[7.93034,45.20576]]},"properties":{}},{"type":"Feature","geometry":{"type":"LineString","coordinates":[[7.93079,45.2057],[7.93068,45.20585],[7.93069,45.20615]]},"properties":{}},{"type":"Feature","geometry":{"type":"LineString","coordinates":[[7.94841,45.207],[7.94851,45.20696]]},"properties":{}},{"type":"Feature","geometry":{"type":"LineString","coordinates":[[7.9481,45.20699],[7.94841,45.207]]},"properties":{}},{"type":"Feature","geometry":{"type":"LineString","coordinates":[[7.94838,45.20711],[7.9481,45.20699]]},"properties":{}},{"type":"Feature","geometry":{"type":"LineString","coordinates":[[7.94838,45.20711],[7.94841,45.207]]},"properties":{}},{"type":"Feature","geometry":{"type":"LineString","coordinates":[[7.94851,45.20696],[7.94868,45.20698],[7.94873,45.20708],[7.94867,45.20717],[7.94854,45.2072]]},"properties":{}},{"type":"Feature","geometry":{"type":"LineString","coordinates":[[7.94844,45.20717],[7.94838,45.20711]]},"properties":{}},{"type":"Feature","geometry":{"type":"LineString","coordinates":[[7.94854,45.2072],[7.94844,45.20717]]},"properties":{}},{"type":"Feature","geometry":{"type":"LineString","coordinates":[[7.96776,45.19481],[7.9681,45.19482],[7.97218,45.19411],[7.97508,45.19365],[7.97622,45.19361],[7.97758,45.19369],[7.98815,45.19466]]},"properties":{}},{"type":"Feature","geometry":{"type":"LineString","coordinates":[[7.95899,45.19374],[7.95858,45.19382],[7.95854,45.19391],[7.95865,45.19397],[7.96319,45.19477],[7.96342,45.19474],[7.96358,45.19481],[7.96428,45.19493],[7.96466,45.19463]]},"properties":{}},{"type":"Feature","geometry":{"type":"LineString","coordinates":[[7.98815,45.19466],[7.99368,45.19515],[7.99479,45.19538]]},"properties":{}},{"type":"Feature","geometry":{"type":"LineString","coordinates":[[7.99479,45.19538],[8.0,45.1964]]},"properties":{}},{"type":"Feature","geometry":{"type":"LineString","coordinates":[[7.9764,45.22519],[7.97629,45.22554],[7.97539,45.22979],[7.9754,45.22987],[7.97546,45.22997],[7.97544,45.23008],[7.9754,45.23019],[7.97518,45.23032],[7.97513,45.23042],[7.97462,45.23275],[7.97388,45.23569],[7.97389,45.23584],[7.97406,45.23602],[7.97406,45.23608]]},"properties":{}},{"type":"Feature","geometry":{"type":"LineString","coordinates":[[7.78301,45.21946],[7.78313,45.22009]]},"properties":{}},{"type":"Feature","geometry":{"type":"LineString","coordinates":[[7.77628,45.22791],[7.77634,45.22792],[7.77614,45.22821],[7.77618,45.22823],[7.77439,45.23045],[7.77432,45.23068],[7.77428,45.23107],[7.7748,45.23221]]},"properties":{}},{"type":"Feature","geometry":{"type":"LineString","coordinates":[[7.95579,45.23477],[7.9561,45.23509],[7.9563,45.23517]]},"properties":{}},{"type":"Feature","geometry":{"type":"LineString","coordinates":[[7.95599,45.23525],[7.95597,45.23512],[7.95579,45.23477]]},"properties":{}},{"type":"Feature","geometry":{"type":"LineString","coordinates":[[7.95657,45.23527],[7.95706,45.23525],[7.95737,45.23532]]},"properties":{}},{"type":"Feature","geometry":{"type":"LineString","coordinates":[[7.95737,45.23532],[7.95698,45.23532],[7.95681,45.23536],[7.95666,45.23545]]},"properties":{}},{"type":"Feature","geometry":{"type":"LineString","coordinates":[[7.95648,45.23567],[7.95627,45.23571],[7.95603,45.23566],[7.95589,45.23551],[7.95588,45.23543],[7.95591,45.23534],[7.95599,45.23525],[7.95616,45.23518],[7.95636,45.23518],[7.95653,45.23524],[7.95663,45.23535],[7.95666,45.23545],[7.95661,45.23557],[7.95648,45.23567]]},"properties":{}},{"type":"Feature","geometry":{"type":"LineString","coordinates":[[7.95654,45.23564],[7.95653,45.23582],[7.95672,45.23635]]},"properties":{}},{"type":"Feature","geometry":{"type":"LineString","coordinates":[[7.95672,45.23635],[7.95643,45.23587],[7.95627,45.23571]]},"properties":{}},{"type":"Feature","geometry":{"type":"LineString","coordinates":[[7.97243,45.23887],[7.97235,45.23866]]},"properties":{}},{"type":"Feature","geometry":{"type":"LineString","coordinates":[[7.97235,45.23866],[7.97259,45.23873],[7.97266,45.23891]]},"properties":{}},{"type":"Feature","geometry":{"type":"LineString","coordinates":[[7.97252,45.23921],[7.97253,45.23901],[7.97243,45.23887],[7.97224,45.2388],[7.97198,45.23881]]},"properties":{}}]}