{"type":"FeatureCollection","features":[{"type":"Feature","geometry":{"type":"LineString","coordinates":[[7.95552,44.01054],[7.95542,44.01062],[7.95519,44.01069],[7.95493,44.01076],[7.95472,44.01076],[7.95308,44.01026],[7.95273,44.01022],[7.95205,44.01022]]},"properties":{}},{"type":"Feature","geometry":{"type":"LineString","coordinates":[[7.95205,44.01022],[7.95154,44.0103],[7.95123,44.01022],[7.95104,44.01013],[7.9509,44.00991],[7.95087,44.00972],[7.95066,44.00943],[7.95026,44.00929],[7.95008,44.00925],[7.94984,44.00927],[7.9489,44.00953],[7.94874,44.00955],[7.94862,44.00952],[7.94859,44.00944],[7.9486,44.00905],[7.94853,44.00843],[7.94847,44.00834],[7.94824,44.00824],[7.94751,44.00814],[7.94725,44.00808],[7.94714,44.00801],[7.9471,44.00792],[7.9472,44.00741],[7.9471,44.0073],[7.947,44.00727],[7.94681,44.00728],[7.94623,44.00743],[7.94567,44.0075],[7.94491,44.00742],[7.94451,44.00729],[7.94405,44.00725],[7.9438,44.00709],[7.94337,44.00661],[7.94324,44.00653],[7.94313,44.0065],[7.94292,44.0065],[7.9428,44.00658],[7.94277,44.00666],[7.94277,44.00702],[7.94273,44.00731],[7.94262,44.00764],[7.94259,44.00798],[7.94249,44.00834],[7.94241,44.0091],[7.94229,44.00918],[7.942,44.00923],[7.94074,44.00914],[7.9403,44.00922],[7.94004,44.00936],[7.93999,44.00949],[7.94002,44.00957],[7.94053,44.01003],[7.9408,44.01039],[7.94127,44.0108],[7.94137,44.01094],[7.94142,44.0111],[7.94139,44.01132],[7.94092,44.0118],[7.94085,44.01198],[7.94069,44.01219],[7.94066,44.0123],[7.94065,44.0127],[7.94055,44.01281],[7.94044,44.01286],[7.93999,44.01277],[7.93986,44.01279],[7.93937,44.0132],[7.93933,44.01328],[7.93934,44.01341],[7.93939,44.01351],[7.94001,44.01405],[7.94027,44.01452],[7.94025,44.01468],[7.93993,44.01521],[7.93989,44.01548],[7.93973,44.01583],[7.93951,44.01615],[7.93926,44.01643],[7.93897,44.01661],[7.93794,44.017],[7.93787,44.01706],[7.93784,44.01721],[7.93776,44.01733],[7.93753,44.01747],[7.93729,44.01754],[7.9372,44.01761],[7.93721,44.01772],[7.93759,44.01799],[7.93765,44.01804],[7.93766,44.01815],[7.93759,44.01831],[7.93739,44.0186],[7.93722,44.01917],[7.93706,44.01933],[7.93672,44.01956],[7.93642,44.01993],[7.93645,44.02005],[7.93655,44.02013],[7.93768,44.02045],[7.93796,44.02056],[7.93826,44.02093],[7.93836,44.0211],[7.93844,44.02141],[7.93843,44.0217],[7.93877,44.02227],[7.93935,44.02257],[7.93949,44.02281],[7.93952,44.02293],[7.93947,44.02328],[7.93933,44.02361],[7.93918,44.02382],[7.93898,44.024],[7.93857,44.02417],[7.93818,44.02463],[7.93774,44.02496],[7.93746,44.02514],[7.93721,44.02541],[7.93717,44.02558],[7.93725,44.02569],[7.93783,44.02585],[7.9381,44.02601],[7.93908,44.02637],[7.93922,44.02646],[7.93925,44.02652],[7.93927,44.02659],[7.93921,44.02681],[7.93922,44.02697],[7.93932,44.02716],[7.93935,44.02739],[7.9396,44.02778],[7.93969,44.02816],[7.93951,44.02838],[7.93902,44.02861],[7.93815,44.02915],[7.93811,44.02923],[7.93872,44.03006],[7.93887,44.03016],[7.93922,44.03029],[7.93961,44.03036]]},"properties":{}},{"type":"Feature","geometry":{"type":"LineString","coordinates":[[7.93961,44.03154],[7.93961,44.03036]]},"properties":{}},{"type":"Feature","geometry":{"type":"LineString","coordinates":[[7.9396,44.03284],[7.93961,44.03154]]},"properties":{}},{"type":"Feature","geometry":{"type":"LineString","coordinates":[[7.9396,44.03336],[7.9396,44.03284]]},"properties":{}},{"type":"Feature","geometry":{"type":"LineString","coordinates":[[7.9395,44.03475],[7.9396,44.03336]]},"properties":{}},{"type":"Feature","geometry":{"type":"LineString","coordinates":[[7.97602,44.00797],[7.97622,44.00794],[7.97647,44.008],[7.97693,44.00836],[7.97709,44.00844],[7.97733,44.00847],[7.97746,44.00843],[7.97761,44.00823],[7.97775,44.00812],[7.97808,44.00797],[7.97825,44.00783],[7.97827,44.00739],[7.9783,44.0073],[7.97843,44.00722],[7.97865,44.00714],[7.97925,44.00703],[7.97976,44.00683],[7.98001,44.00664],[7.9806,44.00604],[7.98076,44.00597],[7.98092,44.00596],[7.98113,44.00603],[7.98145,44.00623],[7.98168,44.00629],[7.98379,44.00625],[7.98397,44.00621],[7.98414,44.00608],[7.98465,44.00549],[7.98462,44.00534],[7.98437,44.00518],[7.98421,44.005],[7.98412,44.00475],[7.98378,44.00447],[7.98345,44.00429],[7.98319,44.00403],[7.98323,44.00386],[7.98384,44.00317],[7.98391,44.00298],[7.98342,44.00247],[7.98339,44.00235],[7.98347,44.00225],[7.9837,44.00218],[7.98386,44.00216],[7.98403,44.00207],[7.98492,44.00139],[7.98498,44.00128],[7.98497,44.00113],[7.98484,44.00101],[7.98397,44.00082],[7.98371,44.00073],[7.98365,44.0006],[7.98359,44.0003],[7.98342,44.0]]},"properties":{}},{"type":"Feature","geometry":{"type":"LineString","coordinates":[[7.97359,44.00933],[7.97355,44.00926],[7.97352,44.00911],[7.9737,44.0086],[7.97364,44.00809],[7.97368,44.00783],[7.97375,44.00776],[7.97393,44.00773],[7.97445,44.00783],[7.97466,44.0079],[7.97505,44.00809],[7.97518,44.00812],[7.97547,44.00812],[7.97602,44.00797]]},"properties":{}},{"type":"Feature","geometry":{"type":"LineString","coordinates":[[7.95552,44.01054],[7.9558,44.01016],[7.95622,44.01004],[7.95639,44.01003],[7.95658,44.0101],[7.95686,44.01031],[7.95731,44.01045],[7.95759,44.01046],[7.95895,44.0103],[7.95918,44.01036],[7.95929,44.01042],[7.95934,44.01048],[7.95932,44.01065],[7.9592,44.01083],[7.95913,44.01106],[7.95927,44.01214],[7.9594,44.01228],[7.95988,44.01262],[7.9603,44.01298],[7.96063,44.01308],[7.96212,44.01315],[7.96286,44.0137],[7.96317,44.01384],[7.96336,44.01389],[7.96401,44.01397],[7.96473,44.01393],[7.9654,44.01405],[7.96582,44.01407],[7.96603,44.01415],[7.96625,44.01434],[7.96632,44.01448],[7.96634,44.01462],[7.96632,44.01473],[7.96573,44.01529],[7.96566,44.01545],[7.96572,44.01557],[7.96581,44.01566],[7.96601,44.01577],[7.96618,44.01582],[7.96654,44.01616],[7.96662,44.01643],[7.96655,44.01663],[7.96667,44.01674],[7.96704,44.01671],[7.9673,44.01662],[7.9676,44.01643],[7.96774,44.01639],[7.96804,44.01641],[7.96819,44.01644],[7.96842,44.01655],[7.96873,44.01684],[7.96881,44.01705],[7.96889,44.01712],[7.9692,44.01716],[7.96936,44.01711],[7.96953,44.017],[7.96971,44.01681],[7.97015,44.01657],[7.97021,44.01644],[7.97021,44.01625],[7.9703,44.01608],[7.97037,44.01604],[7.97062,44.01604],[7.97095,44.01618],[7.97142,44.01633],[7.97203,44.01671],[7.97223,44.0168],[7.9727,44.01691],[7.97288,44.01698],[7.97329,44.01721],[7.97351,44.01738],[7.97368,44.01733],[7.97394,44.01715],[7.97426,44.01707],[7.97428,44.01695],[7.97407,44.0167],[7.97396,44.01645],[7.97393,44.01502],[7.97398,44.01493],[7.97434,44.01474],[7.97535,44.0144],[7.97543,44.01434],[7.97545,44.01423],[7.97533,44.01408],[7.97477,44.01359],[7.9746,44.01333],[7.97447,44.01326],[7.97393,44.01308],[7.97365,44.01293],[7.97361,44.01287],[7.97361,44.01277],[7.97381,44.01258],[7.97432,44.012],[7.97444,44.0118],[7.9744,44.01157],[7.97431,44.01147],[7.97427,44.01136],[7.9743,44.01097],[7.97436,44.01085],[7.9747,44.01041],[7.9747,44.01034],[7.9746,44.01022],[7.97423,44.01001],[7.97404,44.00986],[7.97359,44.00933]]},"properties":{}},{"type":"Feature","geometry":{"type":"LineString","coordinates":[[7.93437,44.03722],[7.93548,44.03669],[7.93821,44.03588],[7.9385,44.03574],[7.93872,44.03563],[7.93898,44.03544],[7.93938,44.03498],[7.9395,44.03475]]},"properties":{}},{"type":"Feature","geometry":{"type":"LineString","coordinates":[[7.92922,44.03637],[7.92959,44.03643]]},"properties":{}},{"type":"Feature","geometry":{"type":"LineString","coordinates":[[7.92756,44.03693],[7.92866,44.03646],[7.92922,44.03637]]},"properties":{}},{"type":"Feature","geometry":{"type":"LineString","coordinates":[[7.92959,44.03643],[7.93012,44.03662],[7.93135,44.0373],[7.93168,44.03744]]},"properties":{}},{"type":"Feature","geometry":{"type":"LineString","coordinates":[[7.92723,44.03709],[7.92756,44.03693]]},"properties":{}},{"type":"Feature","geometry":{"type":"LineString","coordinates":[[7.93269,44.0377],[7.93306,44.03764],[7.93409,44.03733],[7.93437,44.03722]]},"properties":{}},{"type":"Feature","geometry":{"type":"LineString","coordinates":[[7.93168,44.03744],[7.93269,44.0377]]},"properties":{}},{"type":"Feature","geometry":{"type":"LineString","coordinates":[[7.92477,44.03815],[7.92596,44.03761],[7.92723,44.03709]]},"properties":{}},{"type":"Feature","geometry":{"type":"LineString","coordinates":[[7.92477,44.03815],[7.92449,44.03838]]},"properties":{}},{"type":"Feature","geometry":{"type":"LineString","coordinates":[[7.92446,44.03836],[7.92454,44.03841],[7.92458,44.03851],[7.92456,44.03859],[7.92449,44.03866],[7.92429,44.03869],[7.9242,44.03867],[7.92411,44.03859],[7.92408,44.03848],[7.92415,44.03839],[7.92432,44.03833],[7.92446,44.03836]]},"properties":{}},{"type":"Feature","geometry":{"type":"LineString","coordinates":[[7.92425,44.03869],[7.92388,44.03877]]},"properties":{}},{"type":"Feature","geometry":{"type":"LineString","coordinates":[[7.92055,44.04122],[7.9206,44.0411],[7.92209,44.0401],[7.92278,44.03943],[7.92299,44.03928],[7.92388,44.03877]]},"properties":{}},{"type":"Feature","geometry":{"type":"LineString","coordinates":[[7.92055,44.04156],[7.92055,44.04122]]},"properties":{}},{"type":"Feature","geometry":{"type":"LineString","coordinates":[[7.91743,44.04489],[7.9179,44.04446],[7.91871,44.04395],[7.91914,44.04377],[7.9196,44.04346],[7.9198,44.04321],[7.92049,44.04221],[7.92054,44.04205],[7.92055,44.04156]]},"properties":{}},{"type":"Feature","geometry":{"type":"LineString","coordinates":[[7.91743,44.04489],[7.91749,44.04499],[7.91746,44.04525]]},"properties":{}},{"type":"Feature","geometry":{"type":"LineString","coordinates":[[7.91761,44.04538],[7.91746,44.04525]]},"properties":{}},{"type":"Feature","geometry":{"type":"LineString","coordinates":[[7.91752,44.04588],[7.91755,44.04573],[7.91768,44.04551],[7.91761,44.04538]]},"properties":{}},{"type":"Feature","geometry":{"type":"LineString","coordinates":[[7.9177,44.04638],[7.91751,44.04608],[7.91752,44.04588]]},"properties":{}},{"type":"Feature","geometry":{"type":"LineString","coordinates":[[7.9177,44.04647],[7.9177,44.04638]]},"properties":{}},{"type":"Feature","geometry":{"type":"LineString","coordinates":[[7.91693,44.04723],[7.91756,44.04666],[7.9177,44.04647]]},"properties":{}},{"type":"Feature","geometry":{"type":"LineString","coordinates":[[7.91621,44.04745],[7.91642,44.04727],[7.91662,44.04725],[7.91686,44.04727],[7.91693,44.04723]]},"properties":{}},{"type":"Feature","geometry":{"type":"LineString","coordinates":[[7.9157,44.04811],[7.91568,44.048],[7.91572,44.04792],[7.91621,44.04745]]},"properties":{}},{"type":"Feature","geometry":{"type":"LineString","coordinates":[[7.91421,44.05728],[7.9143,44.05712],[7.91419,44.05695],[7.914,44.05675],[7.91396,44.05665],[7.91399,44.0565],[7.91437,44.05613],[7.91514,44.0555],[7.9153,44.05525],[7.91535,44.05498],[7.91525,44.05451],[7.91498,44.05409],[7.9145,44.05361],[7.91449,44.05348],[7.91451,44.05333],[7.91494,44.05236],[7.91558,44.05063],[7.91567,44.05],[7.91566,44.04966],[7.91559,44.04941],[7.9156,44.04932],[7.91615,44.04837],[7.91615,44.04831],[7.9161,44.04824],[7.91577,44.04816],[7.9157,44.04811]]},"properties":{}},{"type":"Feature","geometry":{"type":"LineString","coordinates":[[7.91408,44.05743],[7.91421,44.05728]]},"properties":{}},{"type":"Feature","geometry":{"type":"LineString","coordinates":[[7.91194,44.06181],[7.91218,44.06101],[7.91252,44.06006],[7.91265,44.05958],[7.91283,44.05919],[7.91324,44.05854],[7.91408,44.05743]]},"properties":{}},{"type":"Feature","geometry":{"type":"LineString","coordinates":[[7.91482,44.07467],[7.91513,44.07437],[7.91518,44.07422],[7.91498,44.07371],[7.9149,44.07359],[7.91479,44.07353],[7.91463,44.07351],[7.91419,44.07332],[7.91408,44.07318],[7.91398,44.07282],[7.91397,44.07263],[7.914,44.07251],[7.91399,44.07236],[7.91408,44.07196],[7.91403,44.07166],[7.91394,44.07149],[7.91393,44.07134],[7.91368,44.07062],[7.91354,44.07029],[7.91344,44.07016],[7.91282,44.06973],[7.91265,44.06939],[7.9128,44.06839],[7.91278,44.06792],[7.91289,44.06761],[7.9129,44.06748],[7.91283,44.06738],[7.91255,44.0672],[7.91244,44.06703],[7.91238,44.06676],[7.91246,44.06635],[7.91245,44.0662],[7.9124,44.06603],[7.91225,44.06575],[7.91224,44.06562],[7.91244,44.0648],[7.91248,44.06439],[7.91258,44.06417],[7.91261,44.06404],[7.91251,44.06374],[7.91147,44.06295],[7.91145,44.06289],[7.91148,44.06272],[7.9116,44.06259],[7.91172,44.06223],[7.91194,44.06181]]},"properties":{}},{"type":"Feature","geometry":{"type":"LineString","coordinates":[[7.90657,44.06936],[7.90616,44.06929],[7.90539,44.06929],[7.90521,44.06923]]},"properties":{}},{"type":"Feature","geometry":{"type":"LineString","coordinates":[[7.90521,44.06923],[7.90519,44.06915],[7.90523,44.06911],[7.90565,44.06893],[7.9062,44.0688],[7.90658,44.06887],[7.90667,44.06883],[7.90666,44.06876],[7.90639,44.06868],[7.90612,44.06868],[7.90446,44.06897],[7.90427,44.06897],[7.90395,44.0687],[7.90359,44.06832],[7.90355,44.06824],[7.90357,44.06806],[7.90362,44.06792],[7.9038,44.06784],[7.904,44.06793],[7.90413,44.06829],[7.90435,44.06851],[7.90449,44.06852],[7.9047,44.06848],[7.90506,44.06834],[7.90529,44.06831],[7.90646,44.06816],[7.90686,44.06817],[7.90732,44.06829],[7.90764,44.06847],[7.9078,44.06843],[7.90781,44.06835],[7.90774,44.06827],[7.90759,44.06818],[7.90706,44.06808],[7.90665,44.06795],[7.90604,44.06788],[7.90582,44.06782],[7.90515,44.06743],[7.90453,44.06691],[7.90438,44.06687],[7.90406,44.06688],[7.904,44.06684],[7.90404,44.06678],[7.90415,44.06675],[7.90456,44.06679],[7.90522,44.06692],[7.90563,44.06702],[7.90624,44.06731],[7.90679,44.06745],[7.90708,44.06746],[7.90777,44.06737],[7.90821,44.06736],[7.90861,44.06753],[7.90896,44.06786],[7.90904,44.06781],[7.90894,44.06762],[7.9084,44.06716],[7.90763,44.06677],[7.9075,44.06674],[7.9069,44.06675],[7.90672,44.0667],[7.90625,44.06628],[7.90573,44.06616],[7.90567,44.06613],[7.90565,44.06606],[7.90574,44.06599],[7.90614,44.06599],[7.90669,44.06604],[7.90734,44.06604],[7.90777,44.06612],[7.90799,44.0662],[7.90819,44.06635],[7.90839,44.06642],[7.9091,44.06652],[7.90957,44.06676],[7.90968,44.06677],[7.90969,44.0667],[7.90964,44.06663],[7.90906,44.06622],[7.90912,44.06617],[7.90937,44.06615],[7.90946,44.06616],[7.90973,44.06628],[7.91024,44.06661],[7.91046,44.06695],[7.91046,44.06708],[7.91035,44.06743],[7.91033,44.0677],[7.91046,44.06849],[7.91067,44.0687],[7.91097,44.0692],[7.91119,44.06984],[7.91142,44.07025],[7.91154,44.07034],[7.91195,44.07053],[7.91222,44.07074],[7.91239,44.07093],[7.91272,44.07111],[7.91295,44.07129],[7.9132,44.07175],[7.91332,44.07206],[7.91333,44.07224],[7.91347,44.07258],[7.91348,44.0727],[7.91342,44.07296],[7.91346,44.07332],[7.91355,44.07343],[7.91393,44.0737],[7.91428,44.07379],[7.9146,44.07383],[7.91474,44.07401],[7.91482,44.07467]]},"properties":{}},{"type":"Feature","geometry":{"type":"LineString","coordinates":[[7.8738,44.0852],[7.8734,44.08496],[7.87303,44.08481]]},"properties":{}},{"type":"Feature","geometry":{"type":"LineString","coordinates":[[7.87408,44.08553],[7.87393,44.08529],[7.8738,44.0852]]},"properties":{}},{"type":"Feature","geometry":{"type":"LineString","coordinates":[[7.87454,44.08666],[7.87425,44.08647],[7.87411,44.08625],[7.87408,44.0861],[7.87412,44.08566],[7.87408,44.08553]]},"properties":{}},{"type":"Feature","geometry":{"type":"LineString","coordinates":[[7.87464,44.08675],[7.87454,44.08666]]},"properties":{}},{"type":"Feature","geometry":{"type":"LineString","coordinates":[[7.87776,44.09075],[7.87732,44.09066],[7.87709,44.09057],[7.87656,44.09019],[7.8763,44.08991],[7.87574,44.08902],[7.87555,44.08876],[7.87524,44.08813],[7.87486,44.08767],[7.87476,44.08739],[7.87471,44.08682],[7.87464,44.08675]]},"properties":{}},{"type":"Feature","geometry":{"type":"LineString","coordinates":[[7.87819,44.09126],[7.87847,44.09111],[7.87852,44.09102],[7.87776,44.09075]]},"properties":{}},{"type":"Feature","geometry":{"type":"LineString","coordinates":[[7.87618,44.09227],[7.87627,44.09215],[7.8766,44.09195],[7.87735,44.0914],[7.87757,44.09133],[7.87808,44.09129],[7.87819,44.09126]]},"properties":{}},{"type":"Feature","geometry":{"type":"LineString","coordinates":[[7.87612,44.09234],[7.87618,44.09227]]},"properties":{}},{"type":"Feature","geometry":{"type":"LineString","coordinates":[[7.87465,44.09349],[7.87484,44.09326],[7.87564,44.09289],[7.87574,44.0928],[7.87612,44.09234]]},"properties":{}},{"type":"Feature","geometry":{"type":"LineString","coordinates":[[7.87389,44.09434],[7.8745,44.09372],[7.87465,44.09349]]},"properties":{}},{"type":"Feature","geometry":{"type":"LineString","coordinates":[[7.87386,44.09451],[7.87389,44.09434]]},"properties":{}},{"type":"Feature","geometry":{"type":"LineString","coordinates":[[7.87386,44.09456],[7.87386,44.09451]]},"properties":{}},{"type":"Feature","geometry":{"type":"LineString","coordinates":[[7.87275,44.09597],[7.87284,44.09582],[7.87353,44.09515],[7.87371,44.09486],[7.87386,44.09456]]},"properties":{}},{"type":"Feature","geometry":{"type":"LineString","coordinates":[[7.87441,44.09863],[7.87436,44.09848],[7.87418,44.09821],[7.87398,44.09801],[7.87333,44.09763],[7.87313,44.09742],[7.87302,44.09723],[7.87297,44.09694],[7.8728,44.09662],[7.87277,44.09653],[7.87278,44.09617],[7.87275,44.09597]]},"properties":{}},{"type":"Feature","geometry":{"type":"LineString","coordinates":[[7.87442,44.09871],[7.87441,44.09863]]},"properties":{}},{"type":"Feature","geometry":{"type":"LineString","coordinates":[[7.87403,44.10027],[7.8741,44.10014],[7.87418,44.09975],[7.87404,44.09931],[7.87405,44.0992],[7.87408,44.09908],[7.87435,44.09883],[7.87442,44.09871]]},"properties":{}},{"type":"Feature","geometry":{"type":"LineString","coordinates":[[7.87401,44.10031],[7.87403,44.10027]]},"properties":{}},{"type":"Feature","geometry":{"type":"LineString","coordinates":[[7.87259,44.10166],[7.87276,44.10142],[7.87327,44.10104],[7.87381,44.10056],[7.87401,44.10031]]},"properties":{}},{"type":"Feature","geometry":{"type":"LineString","coordinates":[[7.87255,44.10173],[7.87259,44.10166]]},"properties":{}},{"type":"Feature","geometry":{"type":"LineString","coordinates":[[7.87194,44.10231],[7.87238,44.10193],[7.87255,44.10173]]},"properties":{}},{"type":"Feature","geometry":{"type":"LineString","coordinates":[[7.87194,44.10231],[7.87189,44.10229]]},"properties":{}},{"type":"Feature","geometry":{"type":"LineString","coordinates":[[7.87189,44.10229],[7.87142,44.1022],[7.87124,44.10226],[7.87064,44.10297],[7.87063,44.10311],[7.87073,44.10353],[7.87072,44.10358],[7.87065,44.10364]]},"properties":{}},{"type":"Feature","geometry":{"type":"LineString","coordinates":[[7.98727,44.18087],[7.98708,44.18076],[7.98697,44.18065],[7.98691,44.18024],[7.98678,44.18004],[7.98597,44.17929],[7.98566,44.17904],[7.985,44.17865],[7.98498,44.17859],[7.98511,44.17824],[7.98531,44.17794],[7.9853,44.17759],[7.98521,44.17719],[7.98532,44.17692],[7.98517,44.17646],[7.98482,44.17578],[7.98463,44.17552],[7.98459,44.17537],[7.98437,44.17529],[7.9843,44.17524],[7.98432,44.17513],[7.98429,44.17511],[7.98394,44.17505],[7.98391,44.17501],[7.98393,44.17494],[7.98404,44.17485],[7.98406,44.17479],[7.98399,44.17472],[7.98386,44.17465],[7.98353,44.17426],[7.98335,44.17399],[7.98306,44.17383],[7.98252,44.17341],[7.98206,44.17313],[7.98153,44.17287],[7.9805,44.17256],[7.98041,44.17242],[7.98052,44.17209],[7.98047,44.17191],[7.9797,44.17089],[7.97936,44.1703]]},"properties":{}},{"type":"Feature","geometry":{"type":"LineString","coordinates":[[7.8675,44.1173],[7.86755,44.11708],[7.86757,44.11681],[7.86754,44.11614],[7.86775,44.11523],[7.86789,44.11492],[7.86835,44.11433],[7.86839,44.1142],[7.8684,44.11377],[7.86848,44.11352],[7.86861,44.1133],[7.86891,44.11294],[7.86908,44.11261],[7.86922,44.11197],[7.86906,44.11115],[7.86915,44.11078],[7.86939,44.11011],[7.86939,44.10953],[7.86947,44.10939],[7.86959,44.10927],[7.87046,44.10874],[7.87077,44.10841],[7.87091,44.1082],[7.87106,44.10748],[7.87127,44.10708],[7.87129,44.1069],[7.87126,44.10668],[7.87107,44.10619],[7.87099,44.10586],[7.87089,44.10445],[7.87065,44.10364]]},"properties":{}},{"type":"Feature","geometry":{"type":"LineString","coordinates":[[7.8675,44.1173],[7.86747,44.11751],[7.86751,44.11764]]},"properties":{}},{"type":"Feature","geometry":{"type":"LineString","coordinates":[[7.90237,44.13942],[7.90224,44.13901],[7.90223,44.1387],[7.90229,44.13857],[7.90254,44.13836],[7.90259,44.13824],[7.90261,44.13813],[7.90258,44.13759],[7.90227,44.13586],[7.90202,44.13524],[7.90184,44.13491],[7.90179,44.13445],[7.90152,44.13427],[7.90139,44.1341],[7.90134,44.13393],[7.90107,44.13351],[7.90072,44.13309],[7.9004,44.13256],[7.90026,44.1323],[7.90014,44.13156],[7.89986,44.13111],[7.89964,44.13087],[7.89861,44.13]]},"properties":{}},{"type":"Feature","geometry":{"type":"LineString","coordinates":[[7.90787,44.14392],[7.90726,44.14329],[7.90688,44.14283],[7.90674,44.14222],[7.90625,44.1417],[7.90568,44.14127],[7.90535,44.14119],[7.90487,44.14101],[7.90453,44.14083],[7.90443,44.14071]]},"properties":{}},{"type":"Feature","geometry":{"type":"LineString","coordinates":[[7.94228,44.15706],[7.94199,44.15692],[7.94145,44.15683],[7.94137,44.15684],[7.94092,44.15679],[7.94056,44.15668],[7.94014,44.15662],[7.94,44.15653],[7.93966,44.15643],[7.93921,44.15644],[7.93896,44.15638],[7.93892,44.15634],[7.93892,44.15617],[7.93743,44.1553],[7.93718,44.15518],[7.93663,44.15509],[7.93585,44.15486],[7.93459,44.1548],[7.93431,44.15466],[7.93413,44.15464],[7.93321,44.15468],[7.93283,44.15472],[7.93175,44.15511],[7.93133,44.15521],[7.93024,44.15533],[7.9301,44.15532],[7.92971,44.15512],[7.9295,44.15496],[7.92932,44.15476],[7.92904,44.15459],[7.92877,44.15448],[7.92843,44.1544],[7.9277,44.15433],[7.9273,44.15433],[7.92681,44.15434],[7.92626,44.15445],[7.92584,44.1545],[7.92515,44.15449],[7.92474,44.15441],[7.92428,44.15419],[7.9238,44.15408],[7.92352,44.15397]]},"properties":{}}]}