{"type":"FeatureCollection","features":[{"type":"Feature","geometry":{"type":"LineString","coordinates":[[8.11615,45.50513],[8.11627,45.50489],[8.11657,45.50469],[8.11671,45.50451],[8.11691,45.50439],[8.1171,45.50417],[8.11734,45.50405],[8.11767,45.50401],[8.1178,45.50381],[8.11795,45.50365],[8.11844,45.5033],[8.1185,45.50321],[8.11862,45.50286],[8.11921,45.50248],[8.11937,45.50227],[8.11992,45.50188],[8.11991,45.50182],[8.12017,45.50162],[8.12197,45.50049],[8.12199,45.50044],[8.12196,45.5004],[8.12132,45.5]]},"properties":{}},{"type":"Feature","geometry":{"type":"LineString","coordinates":[[8.11748,45.50402],[8.11749,45.5041]]},"properties":{}},{"type":"Feature","geometry":{"type":"LineString","coordinates":[[8.11175,45.50375],[8.11253,45.50393],[8.11354,45.50423],[8.11376,45.50436],[8.11418,45.50477],[8.11449,45.50492],[8.11613,45.50518],[8.11699,45.50543],[8.11746,45.50546]]},"properties":{}},{"type":"Feature","geometry":{"type":"LineString","coordinates":[[8.11613,45.50518],[8.11615,45.50513]]},"properties":{}},{"type":"Feature","geometry":{"type":"LineString","coordinates":[[8.22439,45.51992],[8.22429,45.51995],[8.22325,45.52188],[8.22322,45.52203],[8.22327,45.52369],[8.22343,45.52493],[8.22341,45.52525],[8.22243,45.52821],[8.221,45.53279],[8.22078,45.53329],[8.21912,45.53619]]},"properties":{}},{"type":"Feature","geometry":{"type":"LineString","coordinates":[[8.11396,45.50456],[8.11323,45.50521],[8.11243,45.50583]]},"properties":{}},{"type":"Feature","geometry":{"type":"LineString","coordinates":[[8.11988,45.50604],[8.12009,45.50615],[8.12048,45.50621]]},"properties":{}},{"type":"Feature","geometry":{"type":"LineString","coordinates":[[8.1198,45.50649],[8.11994,45.50624],[8.11988,45.50604]]},"properties":{}},{"type":"Feature","geometry":{"type":"LineString","coordinates":[[8.04753,45.52613],[8.04778,45.52576],[8.04783,45.52567],[8.04785,45.52553]]},"properties":{}},{"type":"Feature","geometry":{"type":"LineString","coordinates":[[8.04199,45.52832],[8.04209,45.52816],[8.04209,45.52778]]},"properties":{}},{"type":"Feature","geometry":{"type":"LineString","coordinates":[[8.04139,45.52836],[8.04158,45.52841],[8.04187,45.52844]]},"properties":{}},{"type":"Feature","geometry":{"type":"LineString","coordinates":[[8.04182,45.52868],[8.04139,45.52836]]},"properties":{}},{"type":"Feature","geometry":{"type":"LineString","coordinates":[[8.04309,45.52868],[8.04305,45.5288],[8.04295,45.52891],[8.04281,45.529],[8.04258,45.52907],[8.0424,45.52908],[8.04222,45.52905],[8.04194,45.5289],[8.04182,45.52868],[8.04182,45.52856],[8.04187,45.52844],[8.04199,45.52832],[8.0423,45.52819],[8.04248,45.52818],[8.04275,45.52823],[8.04292,45.52832],[8.04304,45.52845],[8.04309,45.52856],[8.04309,45.52868]]},"properties":{}},{"type":"Feature","geometry":{"type":"LineString","coordinates":[[8.04258,45.52907],[8.04243,45.52918],[8.04232,45.52933],[8.04217,45.52972]]},"properties":{}},{"type":"Feature","geometry":{"type":"LineString","coordinates":[[8.0547,45.53791],[8.05466,45.53787],[8.05468,45.53778],[8.05481,45.53776],[8.05489,45.53782],[8.05489,45.53787],[8.05484,45.53792],[8.0547,45.53791]]},"properties":{}},{"type":"Feature","geometry":{"type":"LineString","coordinates":[[8.07337,45.5393],[8.07344,45.53934],[8.07372,45.5394]]},"properties":{}},{"type":"Feature","geometry":{"type":"LineString","coordinates":[[8.07372,45.5394],[8.07367,45.53942],[8.07332,45.53937]]},"properties":{}},{"type":"Feature","geometry":{"type":"LineString","coordinates":[[8.06839,45.54043],[8.06864,45.53948],[8.06872,45.53937]]},"properties":{}},{"type":"Feature","geometry":{"type":"LineString","coordinates":[[8.07919,45.54099],[8.07529,45.53963],[8.07459,45.5395],[8.07372,45.5394]]},"properties":{}},{"type":"Feature","geometry":{"type":"LineString","coordinates":[[8.05249,45.54521],[8.05266,45.54515],[8.05276,45.54516],[8.05355,45.54532],[8.05504,45.54565],[8.05677,45.54614],[8.05806,45.54652],[8.05823,45.54665],[8.05841,45.54689],[8.05857,45.54696],[8.05876,45.54697],[8.05897,45.54693],[8.05917,45.54666],[8.05924,45.54649],[8.05905,45.54645],[8.059,45.54641],[8.05899,45.54636],[8.05982,45.545],[8.06008,45.54493],[8.06018,45.54493],[8.06111,45.54521],[8.06128,45.5452],[8.06166,45.54506],[8.06181,45.54509],[8.06221,45.54408]]},"properties":{}},{"type":"Feature","geometry":{"type":"LineString","coordinates":[[8.07811,45.54568],[8.07823,45.54561],[8.07834,45.54563],[8.07841,45.54571],[8.07835,45.54579]]},"properties":{}},{"type":"Feature","geometry":{"type":"LineString","coordinates":[[8.07839,45.54567],[8.07865,45.54577]]},"properties":{}},{"type":"Feature","geometry":{"type":"LineString","coordinates":[[8.07815,45.54579],[8.07812,45.54576],[8.07811,45.54568]]},"properties":{}},{"type":"Feature","geometry":{"type":"LineString","coordinates":[[8.07835,45.54579],[8.07826,45.54582]]},"properties":{}},{"type":"Feature","geometry":{"type":"LineString","coordinates":[[8.05924,45.54649],[8.06201,45.54736],[8.064,45.54802],[8.06464,45.54836],[8.06652,45.54891],[8.06659,45.54896]]},"properties":{}},{"type":"Feature","geometry":{"type":"LineString","coordinates":[[8.07292,45.54853],[8.0727,45.54841],[8.07246,45.54807],[8.07233,45.54801],[8.07215,45.54799],[8.07116,45.54814],[8.06983,45.54846],[8.06969,45.54852],[8.06948,45.54871]]},"properties":{}},{"type":"Feature","geometry":{"type":"LineString","coordinates":[[8.07319,45.54865],[8.07292,45.54853]]},"properties":{}},{"type":"Feature","geometry":{"type":"LineString","coordinates":[[8.07038,45.54832],[8.07045,45.54835],[8.07048,45.54843],[8.07046,45.54854],[8.06987,45.5493]]},"properties":{}},{"type":"Feature","geometry":{"type":"LineString","coordinates":[[8.07479,45.54901],[8.07481,45.54904],[8.07441,45.54912],[8.07419,45.54912],[8.07376,45.54896],[8.07319,45.54865]]},"properties":{}},{"type":"Feature","geometry":{"type":"LineString","coordinates":[[8.06648,45.54915],[8.06659,45.54896]]},"properties":{}},{"type":"Feature","geometry":{"type":"LineString","coordinates":[[8.09724,45.5482],[8.08755,45.55022],[8.08735,45.5502],[8.08712,45.55002]]},"properties":{}},{"type":"Feature","geometry":{"type":"LineString","coordinates":[[8.03327,45.54968],[8.0336,45.5494]]},"properties":{}},{"type":"Feature","geometry":{"type":"LineString","coordinates":[[8.0336,45.5494],[8.03347,45.54965],[8.03347,45.54975]]},"properties":{}},{"type":"Feature","geometry":{"type":"LineString","coordinates":[[8.08712,45.55002],[8.08698,45.55005],[8.08697,45.55013],[8.0869,45.55018],[8.08688,45.55028],[8.08666,45.55039],[8.08576,45.55063],[8.08537,45.55059],[8.084,45.55009],[8.08312,45.54984],[8.08081,45.54896]]},"properties":{}},{"type":"Feature","geometry":{"type":"LineString","coordinates":[[8.03307,45.54999],[8.03302,45.54995],[8.033,45.54984],[8.03306,45.54974],[8.03312,45.54971],[8.03335,45.54969],[8.03347,45.54975],[8.03353,45.54984],[8.03351,45.54993],[8.03337,45.55004],[8.03321,45.55005],[8.03307,45.54999]]},"properties":{}},{"type":"Feature","geometry":{"type":"LineString","coordinates":[[8.03353,45.54988],[8.03397,45.55018]]},"properties":{}},{"type":"Feature","geometry":{"type":"LineString","coordinates":[[8.03303,45.55021],[8.03307,45.54999]]},"properties":{}},{"type":"Feature","geometry":{"type":"LineString","coordinates":[[8.03397,45.55018],[8.0336,45.55004],[8.03337,45.55004]]},"properties":{}},{"type":"Feature","geometry":{"type":"LineString","coordinates":[[8.03329,45.55005],[8.03303,45.55021]]},"properties":{}},{"type":"Feature","geometry":{"type":"LineString","coordinates":[[8.05051,45.55168],[8.05082,45.55174],[8.05104,45.55184]]},"properties":{}},{"type":"Feature","geometry":{"type":"LineString","coordinates":[[8.05104,45.55184],[8.0507,45.55181],[8.05048,45.55184]]},"properties":{}},{"type":"Feature","geometry":{"type":"LineString","coordinates":[[8.05104,45.55184],[8.05701,45.55371]]},"properties":{}},{"type":"Feature","geometry":{"type":"LineString","coordinates":[[8.04969,45.55353],[8.04926,45.55347],[8.0491,45.55355],[8.04766,45.55353],[8.04684,45.55331],[8.04681,45.55327]]},"properties":{}},{"type":"Feature","geometry":{"type":"LineString","coordinates":[[8.05904,45.55436],[8.06,45.55269]]},"properties":{}},{"type":"Feature","geometry":{"type":"LineString","coordinates":[[8.05701,45.55371],[8.05799,45.55399],[8.05822,45.5541]]},"properties":{}},{"type":"Feature","geometry":{"type":"LineString","coordinates":[[8.05822,45.5541],[8.05736,45.55385],[8.05701,45.55371]]},"properties":{}},{"type":"Feature","geometry":{"type":"LineString","coordinates":[[8.06135,45.55421],[8.06133,45.55443],[8.06136,45.55456],[8.06109,45.55501]]},"properties":{}},{"type":"Feature","geometry":{"type":"LineString","coordinates":[[8.05822,45.5541],[8.06234,45.55541]]},"properties":{}},{"type":"Feature","geometry":{"type":"LineString","coordinates":[[8.05798,45.55682],[8.05884,45.55576],[8.05963,45.55454]]},"properties":{}},{"type":"Feature","geometry":{"type":"LineString","coordinates":[[8.02857,45.55598],[8.02892,45.55565]]},"properties":{}},{"type":"Feature","geometry":{"type":"LineString","coordinates":[[8.02892,45.55565],[8.02875,45.55591],[8.02872,45.55602]]},"properties":{}},{"type":"Feature","geometry":{"type":"LineString","coordinates":[[8.02847,45.55616],[8.02844,45.55607],[8.02854,45.55598],[8.02868,45.55599],[8.02876,45.55607],[8.02874,45.55615],[8.02867,45.5562],[8.02856,45.5562],[8.02847,45.55616]]},"properties":{}},{"type":"Feature","geometry":{"type":"LineString","coordinates":[[8.02887,45.55619],[8.02908,45.55627]]},"properties":{}},{"type":"Feature","geometry":{"type":"LineString","coordinates":[[8.05865,45.55599],[8.05873,45.55605],[8.05872,45.55607],[8.05818,45.55674],[8.05808,45.5567]]},"properties":{}},{"type":"Feature","geometry":{"type":"LineString","coordinates":[[8.02908,45.55627],[8.03044,45.55676],[8.03089,45.55685],[8.03383,45.55701]]},"properties":{}},{"type":"Feature","geometry":{"type":"LineString","coordinates":[[8.03383,45.55701],[8.03387,45.55701]]},"properties":{}},{"type":"Feature","geometry":{"type":"LineString","coordinates":[[8.03387,45.55701],[8.03398,45.55702]]},"properties":{}},{"type":"Feature","geometry":{"type":"LineString","coordinates":[[8.03747,45.55708],[8.03782,45.55705],[8.03854,45.55707]]},"properties":{}},{"type":"Feature","geometry":{"type":"LineString","coordinates":[[8.03431,45.55703],[8.03559,45.55711],[8.03683,45.55711]]},"properties":{}},{"type":"Feature","geometry":{"type":"LineString","coordinates":[[8.03683,45.55711],[8.03747,45.55708]]},"properties":{}},{"type":"Feature","geometry":{"type":"LineString","coordinates":[[8.03852,45.55719],[8.03819,45.55712],[8.03747,45.55708]]},"properties":{}},{"type":"Feature","geometry":{"type":"LineString","coordinates":[[8.03885,45.5572],[8.03951,45.55755]]},"properties":{}},{"type":"Feature","geometry":{"type":"LineString","coordinates":[[8.03951,45.55755],[8.03916,45.55744],[8.03875,45.55726]]},"properties":{}},{"type":"Feature","geometry":{"type":"LineString","coordinates":[[8.05808,45.5567],[8.05804,45.55669],[8.05791,45.5568],[8.05786,45.55689],[8.05752,45.55722],[8.05683,45.55813],[8.05615,45.55933],[8.05592,45.55961],[8.05544,45.5604],[8.05521,45.56049],[8.05513,45.5606]]},"properties":{}},{"type":"Feature","geometry":{"type":"LineString","coordinates":[[8.04742,45.55974],[8.04509,45.55965],[8.04482,45.55959],[8.0422,45.55865],[8.03951,45.55755]]},"properties":{}},{"type":"Feature","geometry":{"type":"LineString","coordinates":[[8.05693,45.55816],[8.0561,45.55952]]},"properties":{}},{"type":"Feature","geometry":{"type":"LineString","coordinates":[[8.10907,45.56029],[8.10904,45.56005],[8.10907,45.55985]]},"properties":{}},{"type":"Feature","geometry":{"type":"LineString","coordinates":[[8.10915,45.56033],[8.109,45.56026],[8.10899,45.56019],[8.10889,45.56008],[8.10818,45.55999],[8.10768,45.56004],[8.10624,45.56033],[8.10586,45.56045],[8.10577,45.56056],[8.10583,45.56093]]},"properties":{}},{"type":"Feature","geometry":{"type":"LineString","coordinates":[[8.0554,45.5606],[8.05553,45.56063],[8.05554,45.56072],[8.05545,45.56076],[8.05536,45.56073],[8.05533,45.56066],[8.0554,45.5606]]},"properties":{}},{"type":"Feature","geometry":{"type":"LineString","coordinates":[[8.05156,45.5612],[8.05005,45.56082]]},"properties":{}},{"type":"Feature","geometry":{"type":"LineString","coordinates":[[8.05178,45.56118],[8.05165,45.56124],[8.05158,45.56122],[8.05154,45.56114],[8.0516,45.56108],[8.0517,45.56108],[8.05177,45.56111],[8.05178,45.56118]]},"properties":{}},{"type":"Feature","geometry":{"type":"LineString","coordinates":[[8.04878,45.56154],[8.04983,45.56098]]},"properties":{}},{"type":"Feature","geometry":{"type":"LineString","coordinates":[[8.05177,45.56111],[8.05473,45.56183]]},"properties":{}},{"type":"Feature","geometry":{"type":"LineString","coordinates":[[8.0579,45.56433],[8.05799,45.56433],[8.05891,45.56473],[8.05903,45.56471]]},"properties":{}},{"type":"Feature","geometry":{"type":"LineString","coordinates":[[8.05903,45.56471],[8.05908,45.56466]]},"properties":{}},{"type":"Feature","geometry":{"type":"LineString","coordinates":[[8.23915,45.56051],[8.23977,45.55973],[8.24086,45.56009],[8.24057,45.56047],[8.24075,45.56058]]},"properties":{}},{"type":"Feature","geometry":{"type":"LineString","coordinates":[[8.24055,45.56076],[8.24037,45.56068],[8.24045,45.56056],[8.23962,45.56027],[8.23937,45.5606],[8.23915,45.56051]]},"properties":{}},{"type":"Feature","geometry":{"type":"LineString","coordinates":[[8.23956,45.56182],[8.24087,45.56058],[8.24101,45.56054],[8.24119,45.56056],[8.24294,45.56275],[8.24309,45.56269],[8.2432,45.56279],[8.24342,45.56282],[8.24378,45.56265],[8.24386,45.56274],[8.24373,45.56284],[8.24356,45.56312],[8.24356,45.56321],[8.24363,45.56331],[8.24364,45.56345],[8.24394,45.56377],[8.24508,45.5652]]},"properties":{}},{"type":"Feature","geometry":{"type":"LineString","coordinates":[[8.20595,45.57393],[8.206,45.57394],[8.2066,45.57333],[8.2109,45.5689],[8.21124,45.5688],[8.21132,45.56874]]},"properties":{}},{"type":"Feature","geometry":{"type":"LineString","coordinates":[[8.22409,45.63163],[8.22417,45.63173],[8.22419,45.6318],[8.22407,45.632],[8.22428,45.632],[8.22445,45.63213],[8.22456,45.63226],[8.22471,45.63257],[8.2247,45.63269],[8.22452,45.6328],[8.22454,45.63292],[8.22459,45.63299],[8.22478,45.63299],[8.22494,45.63306],[8.22512,45.63307],[8.2252,45.6331],[8.22524,45.63315],[8.22517,45.6333],[8.22532,45.63329],[8.22577,45.63315],[8.22614,45.63313],[8.22625,45.63316],[8.22639,45.63329],[8.22661,45.63341],[8.22666,45.63353],[8.22677,45.63355],[8.2271,45.63357],[8.22747,45.63352],[8.22774,45.63339],[8.22791,45.63337],[8.2281,45.63327],[8.22809,45.63317],[8.22814,45.63313],[8.22853,45.63314],[8.22907,45.63322],[8.22982,45.63313],[8.23011,45.63306],[8.23043,45.63293],[8.23089,45.63295],[8.2312,45.63292],[8.23136,45.63287],[8.23176,45.63267],[8.23255,45.63269],[8.23255,45.63257],[8.23259,45.63246],[8.23274,45.63238],[8.23319,45.63244]]},"properties":{}},{"type":"Feature","geometry":{"type":"LineString","coordinates":[[8.22127,45.63306],[8.22164,45.6324]]},"properties":{}},{"type":"Feature","geometry":{"type":"LineString","coordinates":[[8.05908,45.56466],[8.06074,45.56535],[8.06124,45.56546]]},"properties":{}},{"type":"Feature","geometry":{"type":"LineString","coordinates":[[8.06124,45.56546],[8.06127,45.56549]]},"properties":{}},{"type":"Feature","geometry":{"type":"LineString","coordinates":[[8.09784,45.56581],[8.10046,45.56582]]},"properties":{}},{"type":"Feature","geometry":{"type":"LineString","coordinates":[[8.07795,45.56984],[8.07844,45.57004],[8.07904,45.57017]]},"properties":{}},{"type":"Feature","geometry":{"type":"LineString","coordinates":[[8.18703,45.57552],[8.18721,45.57587]]},"properties":{}},{"type":"Feature","geometry":{"type":"LineString","coordinates":[[8.18721,45.57587],[8.18713,45.57583],[8.18703,45.57564],[8.18694,45.57559]]},"properties":{}},{"type":"Feature","geometry":{"type":"LineString","coordinates":[[8.04282,45.63123],[8.04294,45.63132],[8.04368,45.63142],[8.04385,45.63152],[8.04409,45.63199],[8.04415,45.63238],[8.04427,45.63272],[8.04433,45.63329],[8.04452,45.63347],[8.04485,45.63389]]},"properties":{}}]}