{"type":"FeatureCollection","features":[{"type":"Feature","geometry":{"type":"LineString","coordinates":[[8.21352,44.25],[8.21353,44.25025],[8.2136,44.2504],[8.21374,44.25056],[8.21394,44.25102],[8.21417,44.25135],[8.21418,44.25143],[8.21402,44.25164],[8.2138,44.25169],[8.21344,44.25174],[8.21232,44.25172],[8.21222,44.25173],[8.21211,44.25182],[8.21208,44.25188],[8.21211,44.25193],[8.21309,44.25247],[8.21327,44.25263],[8.21337,44.25279],[8.21342,44.25298],[8.21335,44.25318],[8.2132,44.25333],[8.21301,44.25341],[8.21263,44.2535],[8.21252,44.25359],[8.21238,44.25383],[8.21239,44.25393],[8.21243,44.25397],[8.21256,44.25398],[8.21279,44.25384],[8.21295,44.2538],[8.21399,44.25393],[8.21447,44.25406],[8.21488,44.25411],[8.21514,44.25405],[8.21564,44.25385],[8.2162,44.25383],[8.21791,44.25366],[8.2182,44.25367],[8.21824,44.25382],[8.21826,44.25414],[8.21831,44.25421],[8.21837,44.25443],[8.21837,44.2545],[8.21827,44.25462],[8.21822,44.25474],[8.21838,44.25487],[8.21844,44.25499],[8.21834,44.25525],[8.21839,44.25529],[8.2187,44.25521],[8.219,44.25523],[8.21922,44.25538],[8.21953,44.2555],[8.21959,44.25558],[8.21959,44.25564],[8.21917,44.25601],[8.21911,44.2561],[8.21911,44.25618],[8.21917,44.25623],[8.21927,44.25623],[8.2196,44.25594],[8.22021,44.2556],[8.22034,44.25525],[8.22035,44.25514],[8.22032,44.25509],[8.21998,44.25498],[8.21993,44.25494],[8.21997,44.25486],[8.22004,44.25483],[8.22042,44.2549],[8.22059,44.25499],[8.22072,44.25512],[8.2208,44.25527],[8.22086,44.25547],[8.22083,44.25562],[8.22074,44.25574],[8.22031,44.25612],[8.22022,44.25626],[8.22024,44.25635],[8.22036,44.25644],[8.22047,44.25661],[8.22055,44.25691],[8.22067,44.25698],[8.22094,44.257],[8.22108,44.25706],[8.22136,44.25756],[8.22147,44.25769],[8.22188,44.25792],[8.22195,44.25809],[8.22195,44.25829],[8.22185,44.25839],[8.2214,44.25866],[8.22136,44.25875],[8.22137,44.2588],[8.22143,44.25885],[8.22181,44.25907],[8.22186,44.25915],[8.22189,44.25943],[8.22203,44.25954],[8.2226,44.25957],[8.22288,44.25962],[8.22324,44.25979],[8.22379,44.26021],[8.22388,44.26032],[8.22397,44.26082],[8.22402,44.26088],[8.22411,44.26092],[8.22447,44.26094],[8.22465,44.26108],[8.22463,44.26147],[8.22477,44.26167],[8.22518,44.26201],[8.22544,44.26259],[8.22577,44.26287],[8.22586,44.26297],[8.22582,44.26327],[8.22599,44.2636],[8.22622,44.26389],[8.22676,44.26411],[8.2272,44.26436],[8.22743,44.26441],[8.22789,44.26436],[8.22806,44.26441],[8.22877,44.26526],[8.22886,44.26533],[8.22903,44.26536],[8.2294,44.26537],[8.22967,44.26542],[8.23018,44.26608],[8.23024,44.26629],[8.23021,44.26641],[8.22953,44.26803],[8.22939,44.26815],[8.22919,44.26825],[8.22894,44.26828],[8.22858,44.26826],[8.22784,44.26816],[8.22773,44.26822],[8.22772,44.26827],[8.22777,44.26837],[8.22786,44.2684],[8.22829,44.26843],[8.2288,44.26856],[8.22973,44.26887],[8.2299,44.26899],[8.22992,44.26905]]},"properties":{}},{"type":"Feature","geometry":{"type":"LineString","coordinates":[[8.22992,44.26905],[8.22989,44.26931]]},"properties":{}},{"type":"Feature","geometry":{"type":"LineString","coordinates":[[8.22989,44.26931],[8.22974,44.27049],[8.22985,44.27129],[8.22994,44.27142],[8.23006,44.27152],[8.23065,44.27188]]},"properties":{}},{"type":"Feature","geometry":{"type":"LineString","coordinates":[[8.23065,44.27188],[8.23073,44.272],[8.23078,44.27227],[8.23078,44.27302],[8.2315,44.27454],[8.23173,44.27511],[8.23185,44.27572],[8.23193,44.27581],[8.23217,44.27598],[8.23269,44.27628],[8.23311,44.27677],[8.23339,44.27691],[8.23509,44.27758],[8.23539,44.27774],[8.23548,44.27782],[8.23553,44.27796],[8.23564,44.27927],[8.23578,44.27941],[8.23617,44.27956],[8.23755,44.27998],[8.23849,44.28031],[8.23908,44.28041],[8.23961,44.28077],[8.24009,44.28099],[8.24079,44.28123],[8.24107,44.28142],[8.24169,44.28208],[8.24305,44.28326],[8.24341,44.28347],[8.24433,44.28382],[8.24563,44.28458],[8.2486,44.28504],[8.24913,44.28503],[8.25,44.28514]]},"properties":{}},{"type":"Feature","geometry":{"type":"LineString","coordinates":[[8.02283,44.25],[8.02281,44.25028],[8.02232,44.25113],[8.02191,44.25144]]},"properties":{}},{"type":"Feature","geometry":{"type":"LineString","coordinates":[[8.02191,44.25144],[8.02184,44.25164],[8.02117,44.25221],[8.02096,44.25251],[8.02082,44.2531],[8.02064,44.25364],[8.02059,44.25395],[8.02043,44.2546],[8.02041,44.2548],[8.02044,44.25507],[8.02055,44.25546],[8.02071,44.25573],[8.02088,44.25593],[8.02152,44.25636],[8.02428,44.25769]]},"properties":{}},{"type":"Feature","geometry":{"type":"LineString","coordinates":[[8.02516,44.25818],[8.02563,44.25845],[8.02619,44.25873],[8.02702,44.25923],[8.0281,44.25998],[8.02884,44.26055],[8.02886,44.26063],[8.02873,44.26159],[8.02875,44.26171],[8.02896,44.26204],[8.02897,44.26215],[8.02878,44.26223],[8.02755,44.26258],[8.02667,44.26275]]},"properties":{}},{"type":"Feature","geometry":{"type":"LineString","coordinates":[[8.02333,44.26348],[8.02354,44.26387],[8.02356,44.26405],[8.02324,44.26477],[8.0233,44.26485]]},"properties":{}},{"type":"Feature","geometry":{"type":"LineString","coordinates":[[8.0233,44.26485],[8.02337,44.2649]]},"properties":{}},{"type":"Feature","geometry":{"type":"LineString","coordinates":[[8.02344,44.26497],[8.02394,44.26552],[8.02412,44.26596],[8.02417,44.26603],[8.02484,44.26651],[8.02497,44.26668]]},"properties":{}},{"type":"Feature","geometry":{"type":"LineString","coordinates":[[8.02337,44.2649],[8.02345,44.265],[8.02342,44.26506],[8.0228,44.26583],[8.02241,44.26618],[8.02194,44.26646],[8.02046,44.2671],[8.02016,44.26729],[8.01969,44.26807],[8.01961,44.26826],[8.01924,44.26882],[8.01908,44.26901]]},"properties":{}},{"type":"Feature","geometry":{"type":"LineString","coordinates":[[8.17016,44.27097],[8.17024,44.27124],[8.17056,44.2717],[8.17058,44.27178],[8.17052,44.27217],[8.17064,44.27237],[8.17071,44.27275],[8.17086,44.273],[8.17099,44.27309],[8.17113,44.2733],[8.17113,44.27362],[8.1713,44.27441],[8.17126,44.27456],[8.17142,44.27485],[8.17156,44.27497],[8.17162,44.27496]]},"properties":{}},{"type":"Feature","geometry":{"type":"LineString","coordinates":[[8.20293,44.3647],[8.20299,44.36462],[8.20299,44.36451],[8.20431,44.36348],[8.20489,44.36293],[8.2052,44.36271],[8.20598,44.36238],[8.20817,44.36172],[8.20831,44.36161],[8.20847,44.36126],[8.20845,44.36118],[8.20753,44.3611]]},"properties":{}},{"type":"Feature","geometry":{"type":"LineString","coordinates":[[8.20512,44.36403],[8.20494,44.36419]]},"properties":{}},{"type":"Feature","geometry":{"type":"LineString","coordinates":[[8.20574,44.36427],[8.20512,44.36403]]},"properties":{}},{"type":"Feature","geometry":{"type":"LineString","coordinates":[[8.20605,44.36419],[8.20574,44.36427]]},"properties":{}},{"type":"Feature","geometry":{"type":"LineString","coordinates":[[8.16682,44.36445],[8.16614,44.36427],[8.16469,44.36408],[8.16447,44.36401]]},"properties":{}},{"type":"Feature","geometry":{"type":"LineString","coordinates":[[8.20494,44.36419],[8.20474,44.36421],[8.20431,44.36446],[8.20421,44.36445]]},"properties":{}},{"type":"Feature","geometry":{"type":"LineString","coordinates":[[8.16707,44.36454],[8.16682,44.36445]]},"properties":{}},{"type":"Feature","geometry":{"type":"LineString","coordinates":[[8.22784,44.35902],[8.22774,44.35906],[8.22763,44.35905],[8.22739,44.3587],[8.22725,44.35857],[8.22709,44.3585],[8.22672,44.35851],[8.22643,44.3586]]},"properties":{}},{"type":"Feature","geometry":{"type":"LineString","coordinates":[[8.22643,44.3586],[8.22628,44.35869],[8.22618,44.35881],[8.22612,44.35896],[8.22612,44.35967],[8.22607,44.35996]]},"properties":{}},{"type":"Feature","geometry":{"type":"LineString","coordinates":[[8.22607,44.35996],[8.22568,44.36001],[8.22541,44.3601]]},"properties":{}},{"type":"Feature","geometry":{"type":"LineString","coordinates":[[8.22784,44.35902],[8.22806,44.35914],[8.2285,44.35926],[8.22866,44.35938],[8.22884,44.35968],[8.22897,44.36037],[8.22902,44.36045],[8.22972,44.36092],[8.23008,44.36136]]},"properties":{}},{"type":"Feature","geometry":{"type":"LineString","coordinates":[[8.22541,44.3601],[8.22441,44.36013],[8.22423,44.36018],[8.22407,44.36024],[8.22383,44.36041],[8.22369,44.36063],[8.22348,44.36082],[8.22314,44.36103],[8.22229,44.36141],[8.22214,44.36155],[8.22198,44.36162],[8.22151,44.36168],[8.22088,44.36182]]},"properties":{}},{"type":"Feature","geometry":{"type":"LineString","coordinates":[[8.22088,44.36182],[8.22036,44.36198],[8.21999,44.36193],[8.2197,44.362],[8.2187,44.36213],[8.21787,44.36249],[8.21725,44.36265],[8.21643,44.3627],[8.21627,44.36276],[8.21595,44.36296],[8.2154,44.36307],[8.2151,44.36309],[8.21319,44.36291],[8.21188,44.36288],[8.21176,44.36285],[8.21133,44.36261],[8.21123,44.3626],[8.21101,44.36262],[8.21062,44.36272],[8.21034,44.36286],[8.21007,44.36294],[8.20974,44.36295]]},"properties":{}},{"type":"Feature","geometry":{"type":"LineString","coordinates":[[8.23966,44.36255],[8.23953,44.36251],[8.23952,44.36245],[8.23956,44.36241],[8.23967,44.36239],[8.23973,44.36242],[8.23974,44.36251],[8.23966,44.36255]]},"properties":{}},{"type":"Feature","geometry":{"type":"LineString","coordinates":[[8.20772,44.36276],[8.20822,44.36292],[8.20833,44.36299]]},"properties":{}},{"type":"Feature","geometry":{"type":"LineString","coordinates":[[8.20974,44.36295],[8.20955,44.36301],[8.20926,44.36323],[8.20915,44.36325],[8.20833,44.36299]]},"properties":{}},{"type":"Feature","geometry":{"type":"LineString","coordinates":[[8.20605,44.36419],[8.20625,44.36398],[8.20681,44.36354],[8.2074,44.36316],[8.20772,44.36276]]},"properties":{}},{"type":"Feature","geometry":{"type":"LineString","coordinates":[[8.20655,44.36483],[8.20721,44.36426],[8.20789,44.36359]]},"properties":{}},{"type":"Feature","geometry":{"type":"LineString","coordinates":[[8.23008,44.36136],[8.23028,44.36148],[8.23036,44.3616],[8.2304,44.36224],[8.23051,44.36237],[8.23101,44.36273],[8.23137,44.36311],[8.23166,44.36349],[8.23174,44.36368],[8.23176,44.3641],[8.2318,44.36429],[8.232,44.36455],[8.23219,44.36492],[8.23256,44.36546],[8.23292,44.36581],[8.23428,44.36638],[8.23481,44.36714],[8.23486,44.36755]]},"properties":{}},{"type":"Feature","geometry":{"type":"LineString","coordinates":[[8.20382,44.36501],[8.20293,44.3647]]},"properties":{}},{"type":"Feature","geometry":{"type":"LineString","coordinates":[[8.20293,44.3647],[8.20279,44.36473],[8.20238,44.36524]]},"properties":{}},{"type":"Feature","geometry":{"type":"LineString","coordinates":[[8.20384,44.36497],[8.20382,44.36501]]},"properties":{}},{"type":"Feature","geometry":{"type":"LineString","coordinates":[[8.20618,44.36521],[8.20655,44.36483]]},"properties":{}},{"type":"Feature","geometry":{"type":"LineString","coordinates":[[8.20424,44.3651],[8.20384,44.36497]]},"properties":{}},{"type":"Feature","geometry":{"type":"LineString","coordinates":[[8.20447,44.36509],[8.20455,44.365]]},"properties":{}},{"type":"Feature","geometry":{"type":"LineString","coordinates":[[8.20455,44.365],[8.20457,44.36511]]},"properties":{}},{"type":"Feature","geometry":{"type":"LineString","coordinates":[[8.20424,44.3651],[8.2044,44.36511]]},"properties":{}},{"type":"Feature","geometry":{"type":"LineString","coordinates":[[8.20455,44.365],[8.20462,44.365],[8.20466,44.36509],[8.20482,44.36513],[8.20481,44.36522]]},"properties":{}},{"type":"Feature","geometry":{"type":"LineString","coordinates":[[8.20436,44.36519],[8.20424,44.3651]]},"properties":{}},{"type":"Feature","geometry":{"type":"LineString","coordinates":[[8.24323,44.36761],[8.24171,44.36773],[8.24144,44.36767],[8.24111,44.36749],[8.24098,44.36746],[8.2408,44.36754]]},"properties":{}},{"type":"Feature","geometry":{"type":"LineString","coordinates":[[8.2408,44.36754],[8.2403,44.36799],[8.23975,44.36838],[8.23945,44.36848],[8.23914,44.36852],[8.23864,44.36853],[8.23832,44.36852],[8.23785,44.3684],[8.23688,44.3678],[8.23645,44.36764],[8.2357,44.36755],[8.23509,44.36752],[8.23486,44.36755]]},"properties":{}},{"type":"Feature","geometry":{"type":"LineString","coordinates":[[8.20447,44.36509],[8.2046,44.36513],[8.20462,44.36519],[8.20459,44.36524],[8.20448,44.36528],[8.20437,44.36523],[8.20438,44.36514],[8.20447,44.36509]]},"properties":{}},{"type":"Feature","geometry":{"type":"LineString","coordinates":[[8.20481,44.36522],[8.20513,44.36517]]},"properties":{}},{"type":"Feature","geometry":{"type":"LineString","coordinates":[[8.20238,44.36524],[8.20227,44.3654]]},"properties":{}},{"type":"Feature","geometry":{"type":"LineString","coordinates":[[8.20513,44.36517],[8.20525,44.36518],[8.20566,44.36537],[8.20571,44.36532],[8.2062,44.36559]]},"properties":{}},{"type":"Feature","geometry":{"type":"LineString","coordinates":[[8.20636,44.36555],[8.20608,44.36548]]},"properties":{}},{"type":"Feature","geometry":{"type":"LineString","coordinates":[[8.20626,44.36551],[8.2062,44.36559]]},"properties":{}},{"type":"Feature","geometry":{"type":"LineString","coordinates":[[8.20382,44.36501],[8.20327,44.36557],[8.20274,44.36629],[8.2026,44.36658],[8.20218,44.3671],[8.20191,44.36759],[8.202,44.3677]]},"properties":{}},{"type":"Feature","geometry":{"type":"LineString","coordinates":[[8.20227,44.3654],[8.20233,44.36555],[8.20231,44.36566],[8.20091,44.36762],[8.2004,44.36825],[8.19954,44.36908],[8.19923,44.36893]]},"properties":{}},{"type":"Feature","geometry":{"type":"LineString","coordinates":[[8.20151,44.36838],[8.20193,44.36774],[8.202,44.3677]]},"properties":{}},{"type":"Feature","geometry":{"type":"LineString","coordinates":[[8.2047,44.3685],[8.20429,44.36838],[8.20459,44.36784]]},"properties":{}},{"type":"Feature","geometry":{"type":"LineString","coordinates":[[8.23998,44.36829],[8.24081,44.36826],[8.24106,44.36819],[8.24122,44.36811],[8.24224,44.36799],[8.24283,44.3678],[8.24323,44.36761],[8.24367,44.36758],[8.24461,44.36741],[8.2452,44.36742],[8.24653,44.36712],[8.24736,44.36699],[8.24782,44.36705],[8.24803,44.36712],[8.24866,44.36743],[8.24921,44.36758],[8.24982,44.36781],[8.25,44.36784]]},"properties":{}},{"type":"Feature","geometry":{"type":"LineString","coordinates":[[8.20429,44.36838],[8.20403,44.36831]]},"properties":{}},{"type":"Feature","geometry":{"type":"LineString","coordinates":[[8.19923,44.36893],[8.19785,44.37026]]},"properties":{}},{"type":"Feature","geometry":{"type":"LineString","coordinates":[[8.19785,44.37026],[8.19774,44.37036]]},"properties":{}},{"type":"Feature","geometry":{"type":"LineString","coordinates":[[8.19774,44.37036],[8.19695,44.37138],[8.19664,44.37152],[8.1964,44.37154]]},"properties":{}},{"type":"Feature","geometry":{"type":"LineString","coordinates":[[8.1964,44.37154],[8.19637,44.3716],[8.19623,44.37163]]},"properties":{}},{"type":"Feature","geometry":{"type":"LineString","coordinates":[[8.19623,44.37163],[8.19593,44.37205],[8.19581,44.37217],[8.19567,44.37227],[8.1954,44.37241],[8.19527,44.37241],[8.195,44.37232],[8.19481,44.37231],[8.1946,44.37237],[8.19432,44.37251]]},"properties":{}},{"type":"Feature","geometry":{"type":"LineString","coordinates":[[8.14951,44.37266],[8.14984,44.37229]]},"properties":{}},{"type":"Feature","geometry":{"type":"LineString","coordinates":[[8.14984,44.37229],[8.14932,44.37308]]},"properties":{}},{"type":"Feature","geometry":{"type":"LineString","coordinates":[[8.14984,44.37229],[8.14951,44.3729],[8.14953,44.37302],[8.14962,44.37314]]},"properties":{}},{"type":"Feature","geometry":{"type":"LineString","coordinates":[[8.14932,44.37308],[8.14929,44.37306],[8.1495,44.37274],[8.14951,44.37266]]},"properties":{}},{"type":"Feature","geometry":{"type":"LineString","coordinates":[[8.07261,44.37291],[8.07242,44.37303]]},"properties":{}},{"type":"Feature","geometry":{"type":"LineString","coordinates":[[8.07228,44.37304],[8.07261,44.37291]]},"properties":{}},{"type":"Feature","geometry":{"type":"LineString","coordinates":[[8.07242,44.37303],[8.07231,44.3731]]},"properties":{}},{"type":"Feature","geometry":{"type":"LineString","coordinates":[[8.07209,44.37318],[8.07228,44.37304]]},"properties":{}},{"type":"Feature","geometry":{"type":"LineString","coordinates":[[8.14932,44.37308],[8.14945,44.37308],[8.14962,44.37314]]},"properties":{}},{"type":"Feature","geometry":{"type":"LineString","coordinates":[[8.07231,44.3731],[8.07226,44.37314]]},"properties":{}},{"type":"Feature","geometry":{"type":"LineString","coordinates":[[8.14959,44.37318],[8.14932,44.37308]]},"properties":{}},{"type":"Feature","geometry":{"type":"LineString","coordinates":[[8.14932,44.37308],[8.14916,44.37331]]},"properties":{}},{"type":"Feature","geometry":{"type":"LineString","coordinates":[[8.14908,44.37333],[8.14914,44.37329],[8.14927,44.37309],[8.14932,44.37308]]},"properties":{}},{"type":"Feature","geometry":{"type":"LineString","coordinates":[[8.14962,44.37314],[8.1499,44.37328]]},"properties":{}},{"type":"Feature","geometry":{"type":"LineString","coordinates":[[8.1499,44.37328],[8.14959,44.37318]]},"properties":{}},{"type":"Feature","geometry":{"type":"LineString","coordinates":[[8.07226,44.37314],[8.07184,44.37348]]},"properties":{}},{"type":"Feature","geometry":{"type":"LineString","coordinates":[[8.07184,44.37348],[8.07185,44.37342],[8.07209,44.37322],[8.07209,44.37318]]},"properties":{}},{"type":"Feature","geometry":{"type":"LineString","coordinates":[[8.07226,44.37314],[8.07224,44.37321],[8.07208,44.37337],[8.07197,44.37362]]},"properties":{}},{"type":"Feature","geometry":{"type":"LineString","coordinates":[[8.14959,44.37318],[8.1494,44.37319],[8.14924,44.37328],[8.14892,44.37367]]},"properties":{}},{"type":"Feature","geometry":{"type":"LineString","coordinates":[[8.07147,44.37369],[8.07209,44.37318]]},"properties":{}},{"type":"Feature","geometry":{"type":"LineString","coordinates":[[8.07184,44.37348],[8.07191,44.3735],[8.07197,44.37362]]},"properties":{}},{"type":"Feature","geometry":{"type":"LineString","coordinates":[[8.07184,44.37348],[8.07165,44.37364]]},"properties":{}},{"type":"Feature","geometry":{"type":"LineString","coordinates":[[8.0719,44.37365],[8.07184,44.37348]]},"properties":{}},{"type":"Feature","geometry":{"type":"LineString","coordinates":[[8.07147,44.37369],[8.07154,44.37368],[8.07176,44.3735],[8.07184,44.37348]]},"properties":{}},{"type":"Feature","geometry":{"type":"LineString","coordinates":[[8.0719,44.37365],[8.07165,44.37364]]},"properties":{}},{"type":"Feature","geometry":{"type":"LineString","coordinates":[[8.07197,44.37362],[8.07197,44.37369]]},"properties":{}},{"type":"Feature","geometry":{"type":"LineString","coordinates":[[8.07197,44.37369],[8.0719,44.37365]]},"properties":{}},{"type":"Feature","geometry":{"type":"LineString","coordinates":[[8.07165,44.37364],[8.07146,44.3738]]},"properties":{}},{"type":"Feature","geometry":{"type":"LineString","coordinates":[[8.09668,44.37387],[8.09693,44.37368]]},"properties":{}},{"type":"Feature","geometry":{"type":"LineString","coordinates":[[8.09693,44.37368],[8.09685,44.37392]]},"properties":{}},{"type":"Feature","geometry":{"type":"LineString","coordinates":[[8.07105,44.37405],[8.07147,44.37369]]},"properties":{}},{"type":"Feature","geometry":{"type":"LineString","coordinates":[[8.09589,44.3739],[8.09622,44.37388],[8.09657,44.37391]]},"properties":{}},{"type":"Feature","geometry":{"type":"LineString","coordinates":[[8.19399,44.3753],[8.19441,44.37276],[8.19432,44.37251]]},"properties":{}},{"type":"Feature","geometry":{"type":"LineString","coordinates":[[8.09653,44.37403],[8.09589,44.3739]]},"properties":{}},{"type":"Feature","geometry":{"type":"LineString","coordinates":[[8.07146,44.3738],[8.07136,44.37383],[8.07097,44.37418],[8.07089,44.37419]]},"properties":{}},{"type":"Feature","geometry":{"type":"LineString","coordinates":[[8.09663,44.37412],[8.09653,44.37403],[8.09657,44.37391],[8.09674,44.37387],[8.09688,44.37395],[8.09688,44.37403],[8.09683,44.37409],[8.09672,44.37413],[8.09663,44.37412]]},"properties":{}},{"type":"Feature","geometry":{"type":"LineString","coordinates":[[8.07076,44.37409],[8.07087,44.3741],[8.07105,44.37405]]},"properties":{}},{"type":"Feature","geometry":{"type":"LineString","coordinates":[[8.07066,44.37407],[8.07076,44.37409]]},"properties":{}},{"type":"Feature","geometry":{"type":"LineString","coordinates":[[8.07069,44.37415],[8.07066,44.37407]]},"properties":{}},{"type":"Feature","geometry":{"type":"LineString","coordinates":[[8.07089,44.37419],[8.07105,44.37405]]},"properties":{}},{"type":"Feature","geometry":{"type":"LineString","coordinates":[[8.09689,44.374],[8.09735,44.37428]]},"properties":{}},{"type":"Feature","geometry":{"type":"LineString","coordinates":[[8.07076,44.37409],[8.07086,44.37415],[8.07089,44.37419]]},"properties":{}},{"type":"Feature","geometry":{"type":"LineString","coordinates":[[8.07089,44.37419],[8.0708,44.37419],[8.07069,44.37415]]},"properties":{}},{"type":"Feature","geometry":{"type":"LineString","coordinates":[[8.09735,44.37428],[8.09679,44.37411]]},"properties":{}},{"type":"Feature","geometry":{"type":"LineString","coordinates":[[8.07028,44.37474],[8.07029,44.37468],[8.07066,44.3743],[8.07069,44.37415]]},"properties":{}},{"type":"Feature","geometry":{"type":"LineString","coordinates":[[8.07089,44.37419],[8.07088,44.37425],[8.07034,44.37473],[8.07032,44.37479]]},"properties":{}},{"type":"Feature","geometry":{"type":"LineString","coordinates":[[8.07146,44.3738],[8.06993,44.37511],[8.06971,44.37524]]},"properties":{}},{"type":"Feature","geometry":{"type":"LineString","coordinates":[[8.06971,44.37524],[8.07089,44.37419]]},"properties":{}},{"type":"Feature","geometry":{"type":"LineString","coordinates":[[8.1399,44.37472],[8.13999,44.37491]]},"properties":{}},{"type":"Feature","geometry":{"type":"LineString","coordinates":[[8.13983,44.37498],[8.13999,44.37527]]},"properties":{}},{"type":"Feature","geometry":{"type":"LineString","coordinates":[[8.13999,44.37527],[8.13984,44.37517],[8.1396,44.3751]]},"properties":{}},{"type":"Feature","geometry":{"type":"LineString","coordinates":[[8.06605,44.3756],[8.06668,44.37567],[8.06708,44.37575]]},"properties":{}},{"type":"Feature","geometry":{"type":"LineString","coordinates":[[8.19413,44.37608],[8.19418,44.37563],[8.19398,44.37545],[8.19399,44.3753]]},"properties":{}},{"type":"Feature","geometry":{"type":"LineString","coordinates":[[8.06703,44.37584],[8.06679,44.37575],[8.06605,44.3756]]},"properties":{}},{"type":"Feature","geometry":{"type":"LineString","coordinates":[[8.08644,44.37558],[8.08658,44.37565],[8.0866,44.37577],[8.08654,44.37583],[8.08645,44.37586],[8.08629,44.37584],[8.08621,44.37575],[8.08623,44.37567],[8.08632,44.3756],[8.08644,44.37558]]},"properties":{}},{"type":"Feature","geometry":{"type":"LineString","coordinates":[[8.06732,44.37578],[8.06797,44.37576],[8.06864,44.37568]]},"properties":{}},{"type":"Feature","geometry":{"type":"LineString","coordinates":[[8.06864,44.37568],[8.06809,44.37579],[8.06757,44.37582],[8.0673,44.37591]]},"properties":{}},{"type":"Feature","geometry":{"type":"LineString","coordinates":[[8.06721,44.37595],[8.06711,44.37594],[8.06705,44.3759],[8.06703,44.37581],[8.06708,44.37575],[8.06721,44.37573],[8.06732,44.37578],[8.06733,44.37588],[8.06721,44.37595]]},"properties":{}},{"type":"Feature","geometry":{"type":"LineString","coordinates":[[8.0316,44.38225],[8.03198,44.38228]]},"properties":{}},{"type":"Feature","geometry":{"type":"LineString","coordinates":[[8.03198,44.38228],[8.03163,44.38236]]},"properties":{}},{"type":"Feature","geometry":{"type":"LineString","coordinates":[[8.0315,44.38244],[8.03141,44.38243],[8.03134,44.38238],[8.03133,44.38231],[8.03138,44.38225],[8.03149,44.38222],[8.03162,44.38228],[8.03164,44.38233],[8.03162,44.38239],[8.0315,44.38244]]},"properties":{}},{"type":"Feature","geometry":{"type":"LineString","coordinates":[[8.03111,44.38242],[8.03133,44.38231]]},"properties":{}},{"type":"Feature","geometry":{"type":"LineString","coordinates":[[8.03137,44.38241],[8.03111,44.38242]]},"properties":{}},{"type":"Feature","geometry":{"type":"LineString","coordinates":[[8.03815,44.3854],[8.0382,44.38528],[8.03834,44.38515]]},"properties":{}},{"type":"Feature","geometry":{"type":"LineString","coordinates":[[8.03834,44.38515],[8.03823,44.3854],[8.03822,44.3856]]},"properties":{}},{"type":"Feature","geometry":{"type":"LineString","coordinates":[[8.03805,44.38555],[8.03815,44.3854]]},"properties":{}},{"type":"Feature","geometry":{"type":"LineString","coordinates":[[8.03805,44.38555],[8.0382,44.38558],[8.03823,44.38564],[8.03821,44.38569],[8.03809,44.38573],[8.038,44.3857],[8.03797,44.38563],[8.03805,44.38555]]},"properties":{}},{"type":"Feature","geometry":{"type":"LineString","coordinates":[[8.02653,44.38578],[8.02643,44.38569],[8.02648,44.38559],[8.02662,44.38555],[8.02674,44.38562],[8.02676,44.38569],[8.02672,44.38575],[8.02663,44.38579],[8.02653,44.38578]]},"properties":{}},{"type":"Feature","geometry":{"type":"LineString","coordinates":[[8.02738,44.38579],[8.02728,44.38579],[8.0272,44.38576],[8.02716,44.3857],[8.02718,44.38564],[8.0273,44.38557],[8.02744,44.38562],[8.02747,44.38571],[8.02738,44.38579]]},"properties":{}},{"type":"Feature","geometry":{"type":"LineString","coordinates":[[8.02747,44.38568],[8.02802,44.38571]]},"properties":{}},{"type":"Feature","geometry":{"type":"LineString","coordinates":[[8.03777,44.38583],[8.03787,44.38571],[8.03797,44.38565]]},"properties":{}},{"type":"Feature","geometry":{"type":"LineString","coordinates":[[8.03699,44.38798],[8.0369,44.38802],[8.03682,44.38796],[8.03687,44.3879],[8.03694,44.3879],[8.03699,44.38793],[8.03699,44.38798]]},"properties":{}},{"type":"Feature","geometry":{"type":"LineString","coordinates":[[8.03095,44.38852],[8.03099,44.3883]]},"properties":{}},{"type":"Feature","geometry":{"type":"LineString","coordinates":[[8.03117,44.38839],[8.03095,44.38852]]},"properties":{}},{"type":"Feature","geometry":{"type":"LineString","coordinates":[[8.20337,44.38984],[8.20321,44.38985],[8.20284,44.38974],[8.20266,44.38965],[8.2026,44.3896],[8.20256,44.3895],[8.20256,44.38931],[8.20264,44.38874]]},"properties":{}},{"type":"Feature","geometry":{"type":"LineString","coordinates":[[8.20321,44.38985],[8.20292,44.39009],[8.20263,44.39021],[8.20212,44.39026]]},"properties":{}},{"type":"Feature","geometry":{"type":"LineString","coordinates":[[8.1994,44.39049],[8.19898,44.39053],[8.19759,44.39038],[8.19751,44.3904]]},"properties":{}},{"type":"Feature","geometry":{"type":"LineString","coordinates":[[8.20212,44.39026],[8.20208,44.39073],[8.2021,44.391],[8.20206,44.39106],[8.20194,44.39111]]},"properties":{}},{"type":"Feature","geometry":{"type":"LineString","coordinates":[[8.19751,44.3904],[8.19655,44.39102]]},"properties":{}},{"type":"Feature","geometry":{"type":"LineString","coordinates":[[8.19414,44.39073],[8.19515,44.39107],[8.19535,44.3912],[8.19559,44.39124],[8.19571,44.3913]]},"properties":{}},{"type":"Feature","geometry":{"type":"LineString","coordinates":[[8.20194,44.39111],[8.20066,44.39154],[8.20018,44.39161],[8.19978,44.39159],[8.19965,44.39153],[8.19958,44.39146],[8.1994,44.39049]]},"properties":{}},{"type":"Feature","geometry":{"type":"LineString","coordinates":[[8.19655,44.39102],[8.19638,44.39128]]},"properties":{}},{"type":"Feature","geometry":{"type":"LineString","coordinates":[[8.19638,44.39128],[8.19616,44.39133],[8.19571,44.3913]]},"properties":{}},{"type":"Feature","geometry":{"type":"LineString","coordinates":[[8.19569,44.39172],[8.19571,44.3913]]},"properties":{}},{"type":"Feature","geometry":{"type":"LineString","coordinates":[[8.19638,44.39128],[8.19664,44.39131],[8.19703,44.39146],[8.19712,44.39156],[8.19711,44.39177]]},"properties":{}}]}