{"type":"FeatureCollection","features":[{"type":"Feature","geometry":{"type":"LineString","coordinates":[[8.39047,40.80409],[8.3898,40.80481],[8.38909,40.80517],[8.38919,40.80576],[8.38914,40.80592],[8.38925,40.80612],[8.38938,40.80785],[8.38914,40.80851],[8.38858,40.80935],[8.38786,40.81007]]},"properties":{}},{"type":"Feature","geometry":{"type":"LineString","coordinates":[[8.38396,40.81382],[8.38426,40.81406]]},"properties":{}},{"type":"Feature","geometry":{"type":"LineString","coordinates":[[8.38181,40.81423],[8.38215,40.81389]]},"properties":{}},{"type":"Feature","geometry":{"type":"LineString","coordinates":[[8.38426,40.81406],[8.38446,40.81436],[8.38452,40.81455],[8.38452,40.81475],[8.38442,40.81513]]},"properties":{}},{"type":"Feature","geometry":{"type":"LineString","coordinates":[[8.38179,40.81508],[8.38171,40.8148],[8.38171,40.81462],[8.38175,40.81436],[8.38181,40.81423]]},"properties":{}},{"type":"Feature","geometry":{"type":"LineString","coordinates":[[8.38257,40.81569],[8.38224,40.81554],[8.38198,40.81533],[8.38179,40.81508]]},"properties":{}},{"type":"Feature","geometry":{"type":"LineString","coordinates":[[8.40461,40.83006],[8.40449,40.83025]]},"properties":{}},{"type":"Feature","geometry":{"type":"LineString","coordinates":[[8.40525,40.83441],[8.40521,40.83438],[8.40521,40.83434],[8.40527,40.83432],[8.40532,40.83434],[8.40532,40.8344],[8.40525,40.83441]]},"properties":{}},{"type":"Feature","geometry":{"type":"LineString","coordinates":[[8.40521,40.83438],[8.40367,40.83494]]},"properties":{}},{"type":"Feature","geometry":{"type":"LineString","coordinates":[[8.40523,40.83674],[8.40523,40.83441]]},"properties":{}},{"type":"Feature","geometry":{"type":"LineString","coordinates":[[8.40579,40.83823],[8.40639,40.83821],[8.40668,40.83817]]},"properties":{}},{"type":"Feature","geometry":{"type":"LineString","coordinates":[[8.40573,40.83823],[8.40579,40.83823]]},"properties":{}},{"type":"Feature","geometry":{"type":"LineString","coordinates":[[8.40519,40.83844],[8.40503,40.83825]]},"properties":{}},{"type":"Feature","geometry":{"type":"LineString","coordinates":[[8.40565,40.83858],[8.40567,40.83856],[8.40565,40.83848],[8.40557,40.83844],[8.40557,40.83835],[8.40564,40.83829],[8.40579,40.83826]]},"properties":{}},{"type":"Feature","geometry":{"type":"LineString","coordinates":[[8.40156,40.83883],[8.40432,40.83816],[8.40524,40.83816]]},"properties":{}},{"type":"Feature","geometry":{"type":"LineString","coordinates":[[8.40534,40.83824],[8.4054,40.83836],[8.40542,40.83859],[8.40563,40.83889],[8.40565,40.83897]]},"properties":{}},{"type":"Feature","geometry":{"type":"LineString","coordinates":[[8.40129,40.83873],[8.40128,40.83856]]},"properties":{}},{"type":"Feature","geometry":{"type":"LineString","coordinates":[[8.39456,40.83828],[8.39445,40.83861],[8.3944,40.83886],[8.39441,40.83892],[8.39451,40.83904]]},"properties":{}},{"type":"Feature","geometry":{"type":"LineString","coordinates":[[8.3944,40.83911],[8.3943,40.83885],[8.39433,40.83859],[8.39443,40.83825]]},"properties":{}},{"type":"Feature","geometry":{"type":"LineString","coordinates":[[8.39592,40.83868],[8.39621,40.83869]]},"properties":{}},{"type":"Feature","geometry":{"type":"LineString","coordinates":[[8.40128,40.83856],[8.40143,40.8388],[8.40156,40.83883]]},"properties":{}},{"type":"Feature","geometry":{"type":"LineString","coordinates":[[8.40551,40.83896],[8.40552,40.83889],[8.40547,40.8388],[8.40519,40.83844]]},"properties":{}},{"type":"Feature","geometry":{"type":"LineString","coordinates":[[8.40137,40.83888],[8.40129,40.83873]]},"properties":{}},{"type":"Feature","geometry":{"type":"LineString","coordinates":[[8.4012,40.83892],[8.40128,40.83883],[8.40129,40.83873]]},"properties":{}},{"type":"Feature","geometry":{"type":"LineString","coordinates":[[8.40137,40.83888],[8.40156,40.83883]]},"properties":{}},{"type":"Feature","geometry":{"type":"LineString","coordinates":[[8.40151,40.83892],[8.40137,40.83888]]},"properties":{}},{"type":"Feature","geometry":{"type":"LineString","coordinates":[[8.4012,40.83892],[8.40137,40.83888]]},"properties":{}},{"type":"Feature","geometry":{"type":"LineString","coordinates":[[8.40095,40.83899],[8.4012,40.83892]]},"properties":{}},{"type":"Feature","geometry":{"type":"LineString","coordinates":[[8.40562,40.83912],[8.40548,40.83909],[8.40545,40.83904],[8.40548,40.83898],[8.40558,40.83895],[8.40567,40.839],[8.40567,40.83908],[8.40562,40.83912]]},"properties":{}},{"type":"Feature","geometry":{"type":"LineString","coordinates":[[8.40069,40.8391],[8.40095,40.83899]]},"properties":{}},{"type":"Feature","geometry":{"type":"LineString","coordinates":[[8.40087,40.83908],[8.40069,40.8391]]},"properties":{}},{"type":"Feature","geometry":{"type":"LineString","coordinates":[[8.3937,40.8395],[8.39395,40.83944],[8.39426,40.8393],[8.39437,40.83921]]},"properties":{}},{"type":"Feature","geometry":{"type":"LineString","coordinates":[[8.39448,40.83933],[8.39432,40.83936],[8.39379,40.83968]]},"properties":{}},{"type":"Feature","geometry":{"type":"LineString","coordinates":[[8.39694,40.83947],[8.39704,40.83944],[8.39712,40.83947],[8.39717,40.83951],[8.39717,40.83959],[8.39705,40.83966],[8.39694,40.83963],[8.39689,40.83955],[8.39694,40.83947]]},"properties":{}},{"type":"Feature","geometry":{"type":"LineString","coordinates":[[8.39372,40.83976],[8.39359,40.83979],[8.39347,40.83975],[8.3934,40.83967],[8.39341,40.83957],[8.39356,40.83949],[8.39373,40.83952],[8.3938,40.83964],[8.39372,40.83976]]},"properties":{}},{"type":"Feature","geometry":{"type":"LineString","coordinates":[[8.40164,40.83959],[8.40179,40.83956],[8.40185,40.83959],[8.40187,40.83968],[8.4018,40.83974],[8.40169,40.83975],[8.40161,40.83967],[8.40164,40.83959]]},"properties":{}},{"type":"Feature","geometry":{"type":"LineString","coordinates":[[8.40579,40.83826],[8.40672,40.83823],[8.4071,40.83806],[8.40746,40.83782],[8.4079,40.83765],[8.40805,40.83762],[8.40942,40.83791],[8.40964,40.83802],[8.40999,40.83829],[8.41031,40.8384],[8.41079,40.83838],[8.41161,40.83815],[8.41232,40.83828],[8.41249,40.83835],[8.41294,40.83863],[8.41321,40.83869],[8.41363,40.83872],[8.41393,40.83882],[8.41447,40.83939],[8.41482,40.83981],[8.41541,40.84028],[8.4154,40.84039],[8.41589,40.84063],[8.41613,40.8407],[8.41626,40.84067],[8.41634,40.84061],[8.41638,40.84044],[8.41645,40.84038],[8.41658,40.84037],[8.41687,40.84046],[8.41696,40.84045],[8.41717,40.84031],[8.4172,40.84023],[8.41719,40.83988],[8.41708,40.83973],[8.41678,40.83956]]},"properties":{}},{"type":"Feature","geometry":{"type":"LineString","coordinates":[[8.4757,40.81063],[8.4766,40.80728],[8.47654,40.80696],[8.47665,40.80687],[8.47672,40.80675],[8.47698,40.80583],[8.47709,40.80532],[8.4771,40.80447],[8.47706,40.80338],[8.477,40.80276],[8.47602,40.79991],[8.4756,40.79879],[8.47344,40.79613],[8.4731,40.79565],[8.47294,40.79523],[8.47287,40.79443],[8.47298,40.79379],[8.47342,40.79242],[8.47347,40.79214],[8.47347,40.79185],[8.47341,40.79148],[8.4735,40.79144]]},"properties":{}},{"type":"Feature","geometry":{"type":"LineString","coordinates":[[8.46607,40.81566],[8.46601,40.81555],[8.46638,40.81538],[8.46783,40.8148],[8.46864,40.8144],[8.46925,40.81418],[8.47352,40.81343],[8.47399,40.81329],[8.47438,40.81313],[8.4747,40.81295],[8.47496,40.81271],[8.4752,40.81241],[8.47531,40.8121],[8.4757,40.81063],[8.47581,40.81065],[8.4766,40.80766],[8.47676,40.8072],[8.47691,40.80706],[8.47691,40.80699],[8.47683,40.80687],[8.47682,40.80673],[8.47702,40.80599],[8.47718,40.80526],[8.47718,40.8037],[8.47714,40.80313],[8.47708,40.80274],[8.47614,40.79998],[8.47568,40.79877],[8.47419,40.79694],[8.47319,40.79564],[8.47304,40.79525],[8.47298,40.79488],[8.47298,40.79447],[8.47307,40.79382],[8.4732,40.79345],[8.47357,40.7921],[8.47352,40.79152]]},"properties":{}},{"type":"Feature","geometry":{"type":"LineString","coordinates":[[8.47579,40.81051],[8.47661,40.81087],[8.47667,40.81097],[8.47791,40.81152],[8.47823,40.81151],[8.47944,40.81197],[8.48229,40.81194],[8.48246,40.81183],[8.48281,40.81179],[8.48303,40.8117],[8.48383,40.81148],[8.48427,40.81148]]},"properties":{}},{"type":"Feature","geometry":{"type":"LineString","coordinates":[[8.47782,40.8167],[8.47772,40.81672],[8.47764,40.81657],[8.47756,40.81654],[8.47674,40.81656],[8.4723,40.81678],[8.47166,40.81676],[8.46647,40.81616],[8.46616,40.81632],[8.46608,40.81631],[8.46601,40.81615],[8.46589,40.81614],[8.46544,40.81625],[8.46049,40.81835],[8.46006,40.8185]]},"properties":{}},{"type":"Feature","geometry":{"type":"LineString","coordinates":[[8.42037,40.82623],[8.42034,40.82633]]},"properties":{}},{"type":"Feature","geometry":{"type":"LineString","coordinates":[[8.42037,40.82623],[8.4205,40.82616],[8.42259,40.82751],[8.42288,40.82775],[8.42339,40.82827],[8.42613,40.83176],[8.42625,40.83184],[8.42639,40.83187],[8.42664,40.83183],[8.42769,40.83138]]},"properties":{}},{"type":"Feature","geometry":{"type":"LineString","coordinates":[[8.43038,40.82989],[8.43117,40.82942],[8.43119,40.82935]]},"properties":{}},{"type":"Feature","geometry":{"type":"LineString","coordinates":[[8.42663,40.83216],[8.42645,40.83203],[8.42639,40.83194],[8.42639,40.83187]]},"properties":{}},{"type":"Feature","geometry":{"type":"LineString","coordinates":[[8.41801,40.83751],[8.41824,40.83744],[8.41846,40.83733],[8.41849,40.83728],[8.41857,40.83687],[8.41858,40.83634],[8.41865,40.83592],[8.41888,40.83571],[8.41906,40.83566],[8.41946,40.83567],[8.41971,40.83579],[8.42064,40.83569],[8.42086,40.83558],[8.42103,40.83545],[8.42122,40.83515],[8.42147,40.83489],[8.42155,40.83484],[8.42175,40.83475],[8.42275,40.83452],[8.42331,40.83424],[8.42394,40.83425],[8.42443,40.83431],[8.42497,40.83425],[8.42534,40.83429],[8.42566,40.83422],[8.42579,40.83398],[8.42582,40.8338],[8.4258,40.83361],[8.4259,40.83331],[8.42613,40.83301],[8.42629,40.83294],[8.42645,40.83281],[8.42667,40.83254],[8.42663,40.83216],[8.42673,40.83205],[8.43038,40.82989]]},"properties":{}},{"type":"Feature","geometry":{"type":"LineString","coordinates":[[8.41678,40.83956],[8.41623,40.83921],[8.41613,40.83904],[8.41612,40.83871],[8.41631,40.83811],[8.4164,40.83796],[8.41654,40.83783],[8.41684,40.8377],[8.41801,40.83751]]},"properties":{}},{"type":"Feature","geometry":{"type":"LineString","coordinates":[[8.49257,40.81742],[8.48902,40.81702],[8.48736,40.81667],[8.4863,40.81643],[8.48601,40.81633],[8.48453,40.81569],[8.48389,40.8155],[8.4836,40.81546],[8.48309,40.81546],[8.48226,40.81559],[8.47819,40.8164],[8.47797,40.81649],[8.47788,40.8166],[8.47787,40.81668],[8.47782,40.8167]]},"properties":{}},{"type":"Feature","geometry":{"type":"LineString","coordinates":[[8.5,40.81739],[8.49785,40.81758],[8.49626,40.81765],[8.49619,40.81769],[8.49617,40.81777],[8.49602,40.81781],[8.49597,40.81774],[8.4958,40.81767],[8.49501,40.81765],[8.49257,40.81742]]},"properties":{}}]}