{"type":"FeatureCollection","features":[{"type":"Feature","geometry":{"type":"LineString","coordinates":[[8.45969,39.05553],[8.45893,39.05576]]},"properties":{}},{"type":"Feature","geometry":{"type":"LineString","coordinates":[[8.45893,39.05576],[8.45858,39.05586]]},"properties":{}},{"type":"Feature","geometry":{"type":"LineString","coordinates":[[8.45858,39.05586],[8.45838,39.05592]]},"properties":{}},{"type":"Feature","geometry":{"type":"LineString","coordinates":[[8.45826,39.05594],[8.45838,39.05592]]},"properties":{}},{"type":"Feature","geometry":{"type":"LineString","coordinates":[[8.45838,39.05592],[8.45822,39.056],[8.45378,39.05736],[8.45359,39.05738]]},"properties":{}},{"type":"Feature","geometry":{"type":"LineString","coordinates":[[8.45359,39.05738],[8.45826,39.05594]]},"properties":{}},{"type":"Feature","geometry":{"type":"LineString","coordinates":[[8.46636,39.05721],[8.4655,39.057],[8.46517,39.05695],[8.46482,39.05694],[8.46433,39.057]]},"properties":{}},{"type":"Feature","geometry":{"type":"LineString","coordinates":[[8.46869,39.05779],[8.46636,39.05721]]},"properties":{}},{"type":"Feature","geometry":{"type":"LineString","coordinates":[[8.47352,39.05871],[8.47377,39.0586]]},"properties":{}},{"type":"Feature","geometry":{"type":"LineString","coordinates":[[8.44672,39.07149],[8.44649,39.07159]]},"properties":{}},{"type":"Feature","geometry":{"type":"LineString","coordinates":[[8.47377,39.0586],[8.47453,39.05872],[8.47554,39.05905],[8.47663,39.05956],[8.47802,39.06025],[8.47835,39.06053],[8.47875,39.061],[8.47894,39.06133],[8.47905,39.06161],[8.4791,39.06185],[8.47913,39.0623],[8.478,39.06867],[8.47797,39.06922],[8.47804,39.06951],[8.47811,39.06965],[8.47861,39.07031],[8.48017,39.0723],[8.48926,39.08418],[8.4895,39.08459],[8.48977,39.08597]]},"properties":{}},{"type":"Feature","geometry":{"type":"LineString","coordinates":[[8.49719,39.0855],[8.49716,39.08533],[8.4974,39.08482],[8.4976,39.08456]]},"properties":{}},{"type":"Feature","geometry":{"type":"LineString","coordinates":[[8.48977,39.08597],[8.49015,39.08798],[8.49027,39.08846],[8.49051,39.0888],[8.49081,39.08908],[8.49218,39.08999]]},"properties":{}},{"type":"Feature","geometry":{"type":"LineString","coordinates":[[8.49218,39.08999],[8.5,39.09527]]},"properties":{}},{"type":"Feature","geometry":{"type":"LineString","coordinates":[[8.37769,39.02487],[8.3775,39.0249],[8.37658,39.02462],[8.37606,39.0246],[8.37568,39.02441],[8.37527,39.02413],[8.37506,39.0239]]},"properties":{}},{"type":"Feature","geometry":{"type":"LineString","coordinates":[[8.37812,39.02458],[8.37769,39.02487]]},"properties":{}},{"type":"Feature","geometry":{"type":"LineString","coordinates":[[8.38858,39.08959],[8.38825,39.08985]]},"properties":{}},{"type":"Feature","geometry":{"type":"LineString","coordinates":[[8.38825,39.08985],[8.38788,39.09014]]},"properties":{}},{"type":"Feature","geometry":{"type":"LineString","coordinates":[[8.38788,39.09014],[8.38718,39.09071]]},"properties":{}},{"type":"Feature","geometry":{"type":"LineString","coordinates":[[8.38718,39.09071],[8.38688,39.09097]]},"properties":{}},{"type":"Feature","geometry":{"type":"LineString","coordinates":[[8.38688,39.09097],[8.38646,39.0913]]},"properties":{}},{"type":"Feature","geometry":{"type":"LineString","coordinates":[[8.38646,39.0913],[8.38584,39.09183]]},"properties":{}},{"type":"Feature","geometry":{"type":"LineString","coordinates":[[8.38584,39.09183],[8.38334,39.09388],[8.38301,39.09414],[8.3818,39.09492],[8.38143,39.09528]]},"properties":{}},{"type":"Feature","geometry":{"type":"LineString","coordinates":[[8.38143,39.09528],[8.38136,39.09535]]},"properties":{}},{"type":"Feature","geometry":{"type":"LineString","coordinates":[[8.38136,39.09535],[8.3802,39.0966]]},"properties":{}},{"type":"Feature","geometry":{"type":"LineString","coordinates":[[8.3802,39.0966],[8.37981,39.09701]]},"properties":{}},{"type":"Feature","geometry":{"type":"LineString","coordinates":[[8.37981,39.09701],[8.3794,39.09747]]},"properties":{}},{"type":"Feature","geometry":{"type":"LineString","coordinates":[[8.37168,39.09928],[8.37532,39.1009]]},"properties":{}},{"type":"Feature","geometry":{"type":"LineString","coordinates":[[8.3794,39.09747],[8.37645,39.1004],[8.37396,39.10281],[8.37378,39.10307],[8.37304,39.10451]]},"properties":{}},{"type":"Feature","geometry":{"type":"LineString","coordinates":[[8.37532,39.1009],[8.37539,39.10104],[8.37539,39.10127],[8.37547,39.10133]]},"properties":{}},{"type":"Feature","geometry":{"type":"LineString","coordinates":[[8.37167,39.10866],[8.37226,39.10816],[8.37289,39.10736],[8.37356,39.10639],[8.37416,39.10562],[8.37474,39.10467],[8.37529,39.10365],[8.37533,39.10355],[8.37535,39.10329],[8.37534,39.10226],[8.37538,39.10142]]},"properties":{}},{"type":"Feature","geometry":{"type":"LineString","coordinates":[[8.37304,39.10451],[8.37202,39.10649]]},"properties":{}},{"type":"Feature","geometry":{"type":"LineString","coordinates":[[8.30678,39.15053],[8.30668,39.15051],[8.30667,39.15044],[8.30677,39.15041],[8.30682,39.15044],[8.30682,39.15049]]},"properties":{}},{"type":"Feature","geometry":{"type":"LineString","coordinates":[[8.30682,39.15049],[8.30678,39.15053]]},"properties":{}},{"type":"Feature","geometry":{"type":"LineString","coordinates":[[8.44649,39.07159],[8.44584,39.07182],[8.44528,39.07185]]},"properties":{}},{"type":"Feature","geometry":{"type":"LineString","coordinates":[[8.44528,39.07185],[8.44403,39.07187]]},"properties":{}},{"type":"Feature","geometry":{"type":"LineString","coordinates":[[8.45596,39.07468],[8.45621,39.07428]]},"properties":{}},{"type":"Feature","geometry":{"type":"LineString","coordinates":[[8.45421,39.07854],[8.45558,39.07542],[8.45596,39.07468]]},"properties":{}},{"type":"Feature","geometry":{"type":"LineString","coordinates":[[8.44403,39.07187],[8.44298,39.0719],[8.44279,39.07193],[8.44261,39.07202],[8.44179,39.07258],[8.44149,39.07269],[8.44102,39.07281],[8.43546,39.073],[8.43524,39.07304],[8.4343,39.07378],[8.43371,39.07434],[8.43356,39.07455],[8.43316,39.07539],[8.43299,39.07561],[8.4309,39.07725],[8.43077,39.07734],[8.42905,39.07804],[8.4277,39.07875],[8.4275,39.07879],[8.42451,39.07896],[8.42225,39.07952],[8.42191,39.07957],[8.42085,39.07958],[8.41954,39.07952],[8.41928,39.07953],[8.41906,39.07958],[8.41877,39.07972],[8.41729,39.08065],[8.41706,39.08069],[8.41667,39.08066],[8.4165,39.08068],[8.4136,39.08181],[8.41338,39.08186],[8.41287,39.08191],[8.41268,39.08196],[8.41143,39.08262],[8.41117,39.0828],[8.41077,39.08315],[8.4098,39.08371],[8.4095,39.08394],[8.40913,39.08404],[8.40863,39.08399],[8.40846,39.08402],[8.40747,39.08452],[8.40723,39.08461],[8.40694,39.08464],[8.40464,39.08476],[8.4007,39.08489],[8.39846,39.08518],[8.3939,39.08588],[8.39362,39.08599],[8.39348,39.08608],[8.38926,39.08905],[8.38858,39.08959]]},"properties":{}},{"type":"Feature","geometry":{"type":"LineString","coordinates":[[8.43379,39.09495],[8.4348,39.09463],[8.43536,39.0944],[8.4502,39.08705],[8.45083,39.08673],[8.45154,39.0862],[8.45192,39.08577],[8.45295,39.08446],[8.45385,39.0834],[8.45408,39.08302],[8.45419,39.08264],[8.45411,39.08191],[8.45375,39.0804],[8.45367,39.07996],[8.45373,39.07951],[8.45421,39.07854]]},"properties":{}},{"type":"Feature","geometry":{"type":"LineString","coordinates":[[8.43345,39.0947],[8.43379,39.09495]]},"properties":{}},{"type":"Feature","geometry":{"type":"LineString","coordinates":[[8.28686,39.15953],[8.28699,39.15949],[8.28738,39.15928]]},"properties":{}},{"type":"Feature","geometry":{"type":"LineString","coordinates":[[8.29242,39.15734],[8.29193,39.15786],[8.29177,39.15815],[8.29174,39.15834],[8.29179,39.15852],[8.29198,39.15863],[8.29234,39.15877],[8.29267,39.15896],[8.29269,39.15913],[8.29245,39.15936],[8.29239,39.15957],[8.29241,39.15994],[8.29238,39.16023],[8.29225,39.16054],[8.29206,39.16074],[8.29167,39.16093],[8.29155,39.16108],[8.29128,39.16154],[8.29096,39.16216],[8.29082,39.16256],[8.29078,39.16302],[8.29078,39.16344]]},"properties":{}},{"type":"Feature","geometry":{"type":"LineString","coordinates":[[8.28476,39.1641],[8.28496,39.16362],[8.28549,39.16302],[8.28587,39.16253],[8.28599,39.16198],[8.28607,39.16136],[8.28595,39.16088],[8.28598,39.16066],[8.28624,39.16029],[8.28652,39.16004],[8.28664,39.15981],[8.28686,39.15953]]},"properties":{}},{"type":"Feature","geometry":{"type":"LineString","coordinates":[[8.29022,39.16452],[8.29049,39.16423],[8.29075,39.16381],[8.29078,39.16344]]},"properties":{}},{"type":"Feature","geometry":{"type":"LineString","coordinates":[[8.29022,39.16452],[8.291,39.16462],[8.29125,39.16474],[8.29137,39.16489],[8.29141,39.16502],[8.29129,39.16536],[8.29147,39.16601],[8.29157,39.1662],[8.29177,39.16628],[8.29185,39.16641],[8.29233,39.16666],[8.29246,39.16678],[8.29261,39.16723],[8.29263,39.16739],[8.29316,39.16798],[8.29332,39.16804],[8.29353,39.16805],[8.29364,39.16801],[8.29395,39.16784]]},"properties":{}},{"type":"Feature","geometry":{"type":"LineString","coordinates":[[8.29395,39.16784],[8.29439,39.1676],[8.29461,39.16753],[8.29472,39.16757],[8.29495,39.16772],[8.29525,39.16779],[8.29542,39.16788],[8.29552,39.16789],[8.2959,39.16772],[8.29635,39.1679],[8.29648,39.16791],[8.29664,39.16785]]},"properties":{}},{"type":"Feature","geometry":{"type":"LineString","coordinates":[[8.27283,39.17174],[8.27308,39.17151],[8.27401,39.17098],[8.27547,39.17055],[8.27633,39.17023],[8.27646,39.17014],[8.27671,39.16979],[8.27752,39.1692],[8.27963,39.16845],[8.27989,39.16838],[8.28046,39.16833],[8.28199,39.16768],[8.28234,39.16744],[8.28256,39.16715],[8.28304,39.16625],[8.28343,39.16598],[8.28427,39.16522],[8.28445,39.16486],[8.28476,39.1641]]},"properties":{}},{"type":"Feature","geometry":{"type":"LineString","coordinates":[[8.38587,39.20221],[8.38669,39.20218],[8.38728,39.20204],[8.38735,39.20199],[8.38726,39.20156],[8.38734,39.20149],[8.38788,39.20114],[8.38845,39.20067],[8.38881,39.20043],[8.38896,39.20036],[8.38973,39.2002]]},"properties":{}},{"type":"Feature","geometry":{"type":"LineString","coordinates":[[8.38905,39.20303],[8.38905,39.20292],[8.3891,39.20283],[8.38918,39.20248],[8.3893,39.20232],[8.38947,39.20217],[8.38955,39.20185],[8.38971,39.20158],[8.3898,39.20125],[8.38985,39.20073],[8.38978,39.20051],[8.3898,39.20042],[8.38977,39.20031]]},"properties":{}},{"type":"Feature","geometry":{"type":"LineString","coordinates":[[8.38951,39.20207],[8.38971,39.2023],[8.38984,39.20235],[8.39,39.20238],[8.39013,39.20247],[8.39021,39.20262],[8.3902,39.20288],[8.39044,39.20286],[8.39051,39.20299]]},"properties":{}},{"type":"Feature","geometry":{"type":"LineString","coordinates":[[8.38774,39.20523],[8.38738,39.20526]]},"properties":{}},{"type":"Feature","geometry":{"type":"LineString","coordinates":[[8.38874,39.20537],[8.38808,39.20514],[8.38793,39.20515],[8.38774,39.20523]]},"properties":{}},{"type":"Feature","geometry":{"type":"LineString","coordinates":[[8.38031,39.20521],[8.37981,39.20544]]},"properties":{}},{"type":"Feature","geometry":{"type":"LineString","coordinates":[[8.37981,39.20544],[8.3797,39.2053]]},"properties":{}},{"type":"Feature","geometry":{"type":"LineString","coordinates":[[8.38738,39.20526],[8.38732,39.2053],[8.38728,39.2055],[8.38731,39.20556],[8.38728,39.2056],[8.38714,39.2056]]},"properties":{}},{"type":"Feature","geometry":{"type":"LineString","coordinates":[[8.39051,39.20299],[8.39057,39.2032],[8.39059,39.20355],[8.39052,39.20374],[8.3898,39.20441],[8.38937,39.20487],[8.38874,39.20537],[8.38871,39.20545],[8.38874,39.2055],[8.3888,39.20552],[8.38965,39.20565],[8.38975,39.20569],[8.38988,39.20632],[8.39008,39.20667],[8.39021,39.20788],[8.39043,39.2082],[8.39043,39.20825],[8.38974,39.20849],[8.38951,39.20842],[8.38889,39.20835],[8.3888,39.20839],[8.38868,39.20851],[8.38841,39.209],[8.38819,39.20932]]},"properties":{}},{"type":"Feature","geometry":{"type":"LineString","coordinates":[[8.38001,39.21136],[8.38014,39.21126],[8.38091,39.21117],[8.38213,39.21115],[8.3825,39.21107],[8.38305,39.21088],[8.38362,39.2106],[8.3839,39.21041],[8.38425,39.21006],[8.38486,39.20915],[8.38499,39.20904],[8.38504,39.20887],[8.38545,39.20827],[8.38575,39.20805],[8.38592,39.20797],[8.38651,39.20825],[8.38685,39.20846],[8.38714,39.20868],[8.38728,39.20882],[8.38746,39.20894],[8.39042,39.21049],[8.3915,39.21103],[8.392,39.21124],[8.39253,39.2114],[8.39278,39.21154],[8.39288,39.21162],[8.39326,39.21177]]},"properties":{}},{"type":"Feature","geometry":{"type":"LineString","coordinates":[[8.39354,39.21185],[8.39376,39.21191]]},"properties":{}},{"type":"Feature","geometry":{"type":"LineString","coordinates":[[8.39404,39.21254],[8.39389,39.21267]]},"properties":{}},{"type":"Feature","geometry":{"type":"LineString","coordinates":[[8.37132,39.21668],[8.37132,39.21666]]},"properties":{}},{"type":"Feature","geometry":{"type":"LineString","coordinates":[[8.36926,39.2275],[8.3692,39.22736],[8.3692,39.22717],[8.37016,39.22234],[8.37054,39.22075],[8.37057,39.2204],[8.37062,39.22023],[8.37069,39.22014],[8.37073,39.22001],[8.37054,39.21987],[8.37059,39.21918],[8.37078,39.21908],[8.37085,39.219],[8.37132,39.21668]]},"properties":{}}]}