{"type":"FeatureCollection","features":[{"type":"Feature","geometry":{"type":"LineString","coordinates":[[8.70923,44.76876],[8.70866,44.76877],[8.70773,44.76888]]},"properties":{}},{"type":"Feature","geometry":{"type":"LineString","coordinates":[[8.7355,44.77018],[8.73614,44.77013]]},"properties":{}},{"type":"Feature","geometry":{"type":"LineString","coordinates":[[8.6582,44.75297],[8.65824,44.75294],[8.65833,44.75293],[8.65838,44.75296],[8.6584,44.75301],[8.65836,44.75305],[8.65826,44.75307],[8.65821,44.75304],[8.6582,44.75297]]},"properties":{}},{"type":"Feature","geometry":{"type":"LineString","coordinates":[[8.65596,44.75304],[8.65816,44.75307],[8.65821,44.75304]]},"properties":{}},{"type":"Feature","geometry":{"type":"LineString","coordinates":[[8.65837,44.75304],[8.65902,44.75319],[8.65909,44.75324],[8.65892,44.75428]]},"properties":{}},{"type":"Feature","geometry":{"type":"LineString","coordinates":[[8.65823,44.75816],[8.65842,44.75842]]},"properties":{}},{"type":"Feature","geometry":{"type":"LineString","coordinates":[[8.65822,44.75848],[8.65825,44.75839],[8.65823,44.75816]]},"properties":{}},{"type":"Feature","geometry":{"type":"LineString","coordinates":[[8.64452,44.78784],[8.6448,44.78785],[8.64506,44.78772]]},"properties":{}},{"type":"Feature","geometry":{"type":"LineString","coordinates":[[8.64489,44.78782],[8.64497,44.7879]]},"properties":{}},{"type":"Feature","geometry":{"type":"LineString","coordinates":[[8.64497,44.7879],[8.64467,44.78792]]},"properties":{}},{"type":"Feature","geometry":{"type":"LineString","coordinates":[[8.64482,44.7882],[8.64475,44.78799],[8.64452,44.78784]]},"properties":{}},{"type":"Feature","geometry":{"type":"LineString","coordinates":[[8.62912,44.81634],[8.62907,44.81618],[8.62907,44.81603],[8.62916,44.81569]]},"properties":{}},{"type":"Feature","geometry":{"type":"LineString","coordinates":[[8.53768,44.80352],[8.53759,44.80334],[8.53741,44.80316],[8.53714,44.80307]]},"properties":{}},{"type":"Feature","geometry":{"type":"LineString","coordinates":[[8.59938,44.89572],[8.60085,44.89461]]},"properties":{}},{"type":"Feature","geometry":{"type":"LineString","coordinates":[[8.59819,44.89661],[8.59938,44.89572]]},"properties":{}},{"type":"Feature","geometry":{"type":"LineString","coordinates":[[8.61241,44.90205],[8.61395,44.90202],[8.61411,44.90205]]},"properties":{}},{"type":"Feature","geometry":{"type":"LineString","coordinates":[[8.60966,44.90369],[8.60898,44.90341],[8.60835,44.90327],[8.60778,44.90326],[8.60703,44.90342]]},"properties":{}},{"type":"Feature","geometry":{"type":"LineString","coordinates":[[8.61084,44.9043],[8.61063,44.90416],[8.60966,44.90369]]},"properties":{}},{"type":"Feature","geometry":{"type":"LineString","coordinates":[[8.62916,44.81569],[8.62924,44.81603],[8.6292,44.81619],[8.62912,44.81634]]},"properties":{}},{"type":"Feature","geometry":{"type":"LineString","coordinates":[[8.68145,44.82575],[8.68175,44.82593]]},"properties":{}},{"type":"Feature","geometry":{"type":"LineString","coordinates":[[8.68156,44.82602],[8.68152,44.82587],[8.68145,44.82575]]},"properties":{}},{"type":"Feature","geometry":{"type":"LineString","coordinates":[[8.68194,44.82603],[8.68191,44.82614],[8.68178,44.82621],[8.68164,44.82618],[8.68155,44.82608],[8.68158,44.82599],[8.6817,44.82593],[8.68185,44.82595],[8.68194,44.82603]]},"properties":{}},{"type":"Feature","geometry":{"type":"LineString","coordinates":[[8.68162,44.82638],[8.6816,44.82617]]},"properties":{}},{"type":"Feature","geometry":{"type":"LineString","coordinates":[[8.68176,44.82621],[8.68162,44.82638]]},"properties":{}},{"type":"Feature","geometry":{"type":"LineString","coordinates":[[8.62611,44.8352],[8.6266,44.83509],[8.62741,44.83466]]},"properties":{}},{"type":"Feature","geometry":{"type":"LineString","coordinates":[[8.62741,44.83466],[8.62718,44.83499],[8.62681,44.83582],[8.62665,44.83594],[8.62621,44.83608],[8.62592,44.83622]]},"properties":{}},{"type":"Feature","geometry":{"type":"LineString","coordinates":[[8.62673,44.83588],[8.6265,44.83593],[8.62639,44.83591],[8.62629,44.83585]]},"properties":{}},{"type":"Feature","geometry":{"type":"LineString","coordinates":[[8.67756,44.8397],[8.67775,44.83972],[8.67833,44.84006],[8.6785,44.84019],[8.67854,44.84037],[8.67864,44.84042],[8.67947,44.84067],[8.68004,44.84079],[8.68072,44.84102]]},"properties":{}},{"type":"Feature","geometry":{"type":"LineString","coordinates":[[8.68274,44.84694],[8.68268,44.84702],[8.68254,44.84706],[8.6824,44.84702],[8.68234,44.84691],[8.68241,44.84681],[8.68255,44.84678],[8.68269,44.84682],[8.68274,44.84694]]},"properties":{}},{"type":"Feature","geometry":{"type":"LineString","coordinates":[[8.67746,44.84815],[8.67739,44.8481],[8.67736,44.84803],[8.67738,44.84797],[8.67743,44.84791],[8.6776,44.84788],[8.67771,44.84792],[8.67776,44.84797],[8.67776,44.84807],[8.6777,44.84813],[8.67761,44.84816],[8.67746,44.84815]]},"properties":{}},{"type":"Feature","geometry":{"type":"LineString","coordinates":[[8.69765,44.87797],[8.69786,44.87857],[8.69809,44.87897],[8.69844,44.87943],[8.69895,44.87991]]},"properties":{}},{"type":"Feature","geometry":{"type":"LineString","coordinates":[[8.69776,44.8802],[8.69765,44.87797]]},"properties":{}},{"type":"Feature","geometry":{"type":"LineString","coordinates":[[8.69895,44.87991],[8.70006,44.88064]]},"properties":{}},{"type":"Feature","geometry":{"type":"LineString","coordinates":[[8.69785,44.88128],[8.69776,44.8802],[8.69786,44.87985],[8.69797,44.87973],[8.69813,44.87964],[8.69835,44.87961],[8.69852,44.87964],[8.69895,44.87991]]},"properties":{}},{"type":"Feature","geometry":{"type":"LineString","coordinates":[[8.70006,44.88064],[8.7002,44.88079],[8.70024,44.88089],[8.70021,44.88109],[8.70002,44.88125],[8.69953,44.88139]]},"properties":{}},{"type":"Feature","geometry":{"type":"LineString","coordinates":[[8.70006,44.88064],[8.70182,44.88174]]},"properties":{}},{"type":"Feature","geometry":{"type":"LineString","coordinates":[[8.6987,44.88166],[8.69829,44.88176],[8.6981,44.88172],[8.69802,44.88168],[8.69793,44.88156],[8.69785,44.88128]]},"properties":{}},{"type":"Feature","geometry":{"type":"LineString","coordinates":[[8.69953,44.88139],[8.69906,44.88151],[8.6987,44.88166]]},"properties":{}},{"type":"Feature","geometry":{"type":"LineString","coordinates":[[8.7365,44.77015],[8.737,44.77025]]},"properties":{}},{"type":"Feature","geometry":{"type":"LineString","coordinates":[[8.73637,44.7703],[8.73611,44.77027],[8.73607,44.77021],[8.73608,44.77017],[8.73615,44.77012],[8.73633,44.77011],[8.73652,44.77017],[8.73651,44.77025],[8.73637,44.7703]]},"properties":{}},{"type":"Feature","geometry":{"type":"LineString","coordinates":[[8.73611,44.77027],[8.7355,44.77018]]},"properties":{}},{"type":"Feature","geometry":{"type":"LineString","coordinates":[[8.737,44.77025],[8.73649,44.77027]]},"properties":{}},{"type":"Feature","geometry":{"type":"LineString","coordinates":[[8.70182,44.88174],[8.70147,44.88158],[8.701,44.88144],[8.70076,44.8814],[8.7,44.88135],[8.69953,44.88139]]},"properties":{}},{"type":"Feature","geometry":{"type":"LineString","coordinates":[[8.6977,44.88254],[8.6978,44.88213],[8.69785,44.88128]]},"properties":{}},{"type":"Feature","geometry":{"type":"LineString","coordinates":[[8.6987,44.88166],[8.69824,44.88193],[8.69794,44.88219],[8.6977,44.88254]]},"properties":{}},{"type":"Feature","geometry":{"type":"LineString","coordinates":[[8.69522,44.89414],[8.69585,44.89415],[8.69589,44.89424],[8.6959,44.89505],[8.69613,44.89517],[8.69664,44.89517]]},"properties":{}},{"type":"Feature","geometry":{"type":"LineString","coordinates":[[8.69756,44.89051],[8.69719,44.89058],[8.69695,44.89084],[8.69697,44.89099],[8.69668,44.89103],[8.69664,44.89109],[8.69664,44.89525],[8.69631,44.89569],[8.69663,44.8962],[8.69664,44.89947],[8.69661,44.89958],[8.69653,44.8997],[8.69642,44.89979],[8.69619,44.89988],[8.69443,44.90008],[8.69426,44.90006],[8.69419,44.89998],[8.69403,44.89991],[8.69399,44.89985]]},"properties":{}},{"type":"Feature","geometry":{"type":"LineString","coordinates":[[8.65404,44.90145],[8.65429,44.90142],[8.65453,44.90131],[8.65908,44.89921],[8.66052,44.89848],[8.6655,44.89619],[8.66637,44.89582],[8.66766,44.89536],[8.66874,44.89475]]},"properties":{}},{"type":"Feature","geometry":{"type":"LineString","coordinates":[[8.63269,44.90042],[8.63273,44.90018],[8.63264,44.89929],[8.63247,44.8988],[8.63228,44.89807],[8.63222,44.89796],[8.63205,44.8978],[8.63067,44.89658]]},"properties":{}},{"type":"Feature","geometry":{"type":"LineString","coordinates":[[8.6288,44.90161],[8.62898,44.9015],[8.62909,44.90134],[8.62908,44.90121],[8.62933,44.90115],[8.62942,44.90125],[8.6297,44.90135],[8.62977,44.90135],[8.62988,44.90128],[8.63093,44.90103],[8.63242,44.90056],[8.63259,44.90049],[8.63269,44.90042]]},"properties":{}},{"type":"Feature","geometry":{"type":"LineString","coordinates":[[8.65356,44.90168],[8.6536,44.90156],[8.6537,44.90147],[8.65386,44.90142],[8.65404,44.90145]]},"properties":{}},{"type":"Feature","geometry":{"type":"LineString","coordinates":[[8.65404,44.90145],[8.65419,44.90154],[8.65424,44.90166]]},"properties":{}},{"type":"Feature","geometry":{"type":"LineString","coordinates":[[8.65371,44.90186],[8.65361,44.90178],[8.65356,44.90168]]},"properties":{}},{"type":"Feature","geometry":{"type":"LineString","coordinates":[[8.65424,44.90166],[8.65419,44.90178],[8.65406,44.90187],[8.65389,44.9019],[8.65371,44.90186]]},"properties":{}},{"type":"Feature","geometry":{"type":"LineString","coordinates":[[8.62614,44.90248],[8.62889,44.90178],[8.6288,44.90161]]},"properties":{}},{"type":"Feature","geometry":{"type":"LineString","coordinates":[[8.6288,44.90161],[8.62606,44.90232],[8.62615,44.9025]]},"properties":{}},{"type":"Feature","geometry":{"type":"LineString","coordinates":[[8.61411,44.90205],[8.61441,44.90222]]},"properties":{}},{"type":"Feature","geometry":{"type":"LineString","coordinates":[[8.61441,44.90222],[8.61501,44.90258]]},"properties":{}},{"type":"Feature","geometry":{"type":"LineString","coordinates":[[8.61501,44.90258],[8.61505,44.90267],[8.61501,44.90275]]},"properties":{}},{"type":"Feature","geometry":{"type":"LineString","coordinates":[[8.6151,44.90277],[8.61501,44.90275]]},"properties":{}},{"type":"Feature","geometry":{"type":"LineString","coordinates":[[8.6259,44.90279],[8.62598,44.90279]]},"properties":{}},{"type":"Feature","geometry":{"type":"LineString","coordinates":[[8.6257,44.90282],[8.6259,44.90279]]},"properties":{}},{"type":"Feature","geometry":{"type":"LineString","coordinates":[[8.64691,44.90477],[8.65324,44.90191],[8.65343,44.9018],[8.65356,44.90168]]},"properties":{}},{"type":"Feature","geometry":{"type":"LineString","coordinates":[[8.62609,44.90367],[8.6258,44.90281]]},"properties":{}},{"type":"Feature","geometry":{"type":"LineString","coordinates":[[8.65371,44.90186],[8.65351,44.9019],[8.65322,44.90202],[8.65099,44.90305],[8.64697,44.90483]]},"properties":{}},{"type":"Feature","geometry":{"type":"LineString","coordinates":[[8.61638,44.90372],[8.6161,44.90368]]},"properties":{}},{"type":"Feature","geometry":{"type":"LineString","coordinates":[[8.62616,44.90382],[8.62609,44.90367]]},"properties":{}},{"type":"Feature","geometry":{"type":"LineString","coordinates":[[8.61664,44.90363],[8.61688,44.90343],[8.61816,44.90419],[8.61792,44.90439],[8.61664,44.90363]]},"properties":{}},{"type":"Feature","geometry":{"type":"LineString","coordinates":[[8.62665,44.90475],[8.62616,44.90382]]},"properties":{}},{"type":"Feature","geometry":{"type":"LineString","coordinates":[[8.61622,44.90371],[8.61618,44.90423],[8.61603,44.90525]]},"properties":{}},{"type":"Feature","geometry":{"type":"LineString","coordinates":[[8.62677,44.90496],[8.62665,44.90475]]},"properties":{}},{"type":"Feature","geometry":{"type":"LineString","coordinates":[[8.61847,44.90465],[8.61863,44.90451],[8.62067,44.90568],[8.62051,44.90583],[8.61847,44.90465]]},"properties":{}},{"type":"Feature","geometry":{"type":"LineString","coordinates":[[8.61603,44.90525],[8.61602,44.90538]]},"properties":{}},{"type":"Feature","geometry":{"type":"LineString","coordinates":[[8.62728,44.90589],[8.62677,44.90496]]},"properties":{}},{"type":"Feature","geometry":{"type":"LineString","coordinates":[[8.62732,44.90598],[8.62728,44.90589]]},"properties":{}},{"type":"Feature","geometry":{"type":"LineString","coordinates":[[8.61602,44.90538],[8.61579,44.90731]]},"properties":{}},{"type":"Feature","geometry":{"type":"LineString","coordinates":[[8.62785,44.90695],[8.62732,44.90598]]},"properties":{}},{"type":"Feature","geometry":{"type":"LineString","coordinates":[[8.62367,44.90768],[8.62108,44.90616],[8.62122,44.90603],[8.62311,44.90712]]},"properties":{}},{"type":"Feature","geometry":{"type":"LineString","coordinates":[[8.62791,44.90706],[8.62785,44.90695]]},"properties":{}},{"type":"Feature","geometry":{"type":"LineString","coordinates":[[8.61565,44.90731],[8.61573,44.90731]]},"properties":{}},{"type":"Feature","geometry":{"type":"LineString","coordinates":[[8.61573,44.90731],[8.61584,44.90731]]},"properties":{}},{"type":"Feature","geometry":{"type":"LineString","coordinates":[[8.61584,44.90731],[8.61596,44.90732]]},"properties":{}},{"type":"Feature","geometry":{"type":"LineString","coordinates":[[8.611,44.90441],[8.61084,44.9043]]},"properties":{}},{"type":"Feature","geometry":{"type":"LineString","coordinates":[[8.61201,44.90562],[8.61203,44.90525],[8.61201,44.90514],[8.61191,44.90497],[8.6114,44.90461],[8.611,44.90441]]},"properties":{}},{"type":"Feature","geometry":{"type":"LineString","coordinates":[[8.61189,44.90697],[8.6119,44.90636],[8.61201,44.90562]]},"properties":{}},{"type":"Feature","geometry":{"type":"LineString","coordinates":[[8.61234,44.90714],[8.61211,44.9071],[8.61189,44.90697]]},"properties":{}},{"type":"Feature","geometry":{"type":"LineString","coordinates":[[8.61233,44.90742],[8.61239,44.90729],[8.61234,44.90714]]},"properties":{}},{"type":"Feature","geometry":{"type":"LineString","coordinates":[[8.61556,44.90749],[8.61239,44.90729]]},"properties":{}},{"type":"Feature","geometry":{"type":"LineString","coordinates":[[8.61175,44.90742],[8.61153,44.90738]]},"properties":{}},{"type":"Feature","geometry":{"type":"LineString","coordinates":[[8.61233,44.90742],[8.61179,44.90739],[8.61175,44.90742]]},"properties":{}},{"type":"Feature","geometry":{"type":"LineString","coordinates":[[8.6115,44.90859],[8.61159,44.90741],[8.61153,44.90738],[8.61059,44.90731],[8.61027,44.90733],[8.61005,44.90741],[8.60885,44.90844],[8.60882,44.90849],[8.60885,44.90854],[8.60892,44.90857],[8.61129,44.90872],[8.61144,44.90868],[8.6115,44.90859]]},"properties":{}},{"type":"Feature","geometry":{"type":"LineString","coordinates":[[8.6118,44.90875],[8.61396,44.90834],[8.61409,44.90839],[8.61422,44.9088]]},"properties":{}},{"type":"Feature","geometry":{"type":"LineString","coordinates":[[8.62311,44.90712],[8.62383,44.90753]]},"properties":{}},{"type":"Feature","geometry":{"type":"LineString","coordinates":[[8.61565,44.90731],[8.61557,44.90735]]},"properties":{}},{"type":"Feature","geometry":{"type":"LineString","coordinates":[[8.61601,44.90735],[8.61596,44.90735],[8.61596,44.90732]]},"properties":{}},{"type":"Feature","geometry":{"type":"LineString","coordinates":[[8.61556,44.90744],[8.61557,44.90735]]},"properties":{}},{"type":"Feature","geometry":{"type":"LineString","coordinates":[[8.61598,44.90748],[8.61601,44.90735]]},"properties":{}},{"type":"Feature","geometry":{"type":"LineString","coordinates":[[8.61556,44.90753],[8.61556,44.90744]]},"properties":{}},{"type":"Feature","geometry":{"type":"LineString","coordinates":[[8.62836,44.90792],[8.62835,44.90784],[8.62791,44.90706]]},"properties":{}},{"type":"Feature","geometry":{"type":"LineString","coordinates":[[8.61598,44.90757],[8.61598,44.90748]]},"properties":{}},{"type":"Feature","geometry":{"type":"LineString","coordinates":[[8.61557,44.90764],[8.61556,44.90753]]},"properties":{}},{"type":"Feature","geometry":{"type":"LineString","coordinates":[[8.62383,44.90753],[8.62367,44.90768]]},"properties":{}},{"type":"Feature","geometry":{"type":"LineString","coordinates":[[8.61597,44.90767],[8.61598,44.90757]]},"properties":{}},{"type":"Feature","geometry":{"type":"LineString","coordinates":[[8.62383,44.90753],[8.62423,44.90775],[8.62445,44.9078],[8.62467,44.90779]]},"properties":{}},{"type":"Feature","geometry":{"type":"LineString","coordinates":[[8.61579,44.90769],[8.61568,44.90768]]},"properties":{}},{"type":"Feature","geometry":{"type":"LineString","coordinates":[[8.61598,44.90749],[8.62392,44.90799]]},"properties":{}},{"type":"Feature","geometry":{"type":"LineString","coordinates":[[8.62467,44.90779],[8.62479,44.90779]]},"properties":{}},{"type":"Feature","geometry":{"type":"LineString","coordinates":[[8.62367,44.90768],[8.62392,44.90784],[8.6239,44.90816]]},"properties":{}},{"type":"Feature","geometry":{"type":"LineString","coordinates":[[8.62821,44.90796],[8.62836,44.90792]]},"properties":{}},{"type":"Feature","geometry":{"type":"LineString","coordinates":[[8.61579,44.90766],[8.61573,44.90831],[8.61569,44.90834]]},"properties":{}},{"type":"Feature","geometry":{"type":"LineString","coordinates":[[8.62794,44.90813],[8.62804,44.90812],[8.62815,44.90806],[8.62821,44.90796]]},"properties":{}},{"type":"Feature","geometry":{"type":"LineString","coordinates":[[8.62794,44.90826],[8.62482,44.90807]]},"properties":{}},{"type":"Feature","geometry":{"type":"LineString","coordinates":[[8.62482,44.90807],[8.6248,44.90826]]},"properties":{}},{"type":"Feature","geometry":{"type":"LineString","coordinates":[[8.62794,44.90826],[8.62794,44.90813]]},"properties":{}},{"type":"Feature","geometry":{"type":"LineString","coordinates":[[8.62479,44.90839],[8.6248,44.90826]]},"properties":{}},{"type":"Feature","geometry":{"type":"LineString","coordinates":[[8.62794,44.90826],[8.62799,44.9084]]},"properties":{}},{"type":"Feature","geometry":{"type":"LineString","coordinates":[[8.62461,44.90846],[8.62479,44.90839]]},"properties":{}},{"type":"Feature","geometry":{"type":"LineString","coordinates":[[8.62799,44.9084],[8.62856,44.90844],[8.62868,44.90849]]},"properties":{}},{"type":"Feature","geometry":{"type":"LineString","coordinates":[[8.62879,44.90841],[8.62868,44.90849]]},"properties":{}},{"type":"Feature","geometry":{"type":"LineString","coordinates":[[8.63034,44.90937],[8.62999,44.9091],[8.62879,44.90841]]},"properties":{}},{"type":"Feature","geometry":{"type":"LineString","coordinates":[[8.62521,44.90941],[8.62461,44.90846]]},"properties":{}},{"type":"Feature","geometry":{"type":"LineString","coordinates":[[8.61444,44.90901],[8.61434,44.90901]]},"properties":{}},{"type":"Feature","geometry":{"type":"LineString","coordinates":[[8.60883,44.90846],[8.6085,44.90876]]},"properties":{}},{"type":"Feature","geometry":{"type":"LineString","coordinates":[[8.61146,44.90892],[8.61141,44.90888],[8.61138,44.90875],[8.61142,44.90869]]},"properties":{}},{"type":"Feature","geometry":{"type":"LineString","coordinates":[[8.61422,44.9088],[8.61421,44.9089],[8.61417,44.90897],[8.61398,44.90905]]},"properties":{}},{"type":"Feature","geometry":{"type":"LineString","coordinates":[[8.61434,44.90901],[8.61398,44.90905]]},"properties":{}},{"type":"Feature","geometry":{"type":"LineString","coordinates":[[8.61176,44.90932],[8.61158,44.9089]]},"properties":{}},{"type":"Feature","geometry":{"type":"LineString","coordinates":[[8.61398,44.90905],[8.61201,44.9094]]},"properties":{}},{"type":"Feature","geometry":{"type":"LineString","coordinates":[[8.60739,44.91022],[8.61157,44.90941],[8.61163,44.90935],[8.61148,44.90895],[8.61143,44.90891],[8.60854,44.90875],[8.60796,44.90918],[8.60712,44.90994],[8.60708,44.91003],[8.60715,44.91016],[8.60726,44.91021],[8.60739,44.91022]]},"properties":{}},{"type":"Feature","geometry":{"type":"LineString","coordinates":[[8.61359,44.91002],[8.61343,44.90999],[8.61333,44.91005],[8.61332,44.91035]]},"properties":{}},{"type":"Feature","geometry":{"type":"LineString","coordinates":[[8.60729,44.91036],[8.60727,44.91021]]},"properties":{}},{"type":"Feature","geometry":{"type":"LineString","coordinates":[[8.60659,44.91038],[8.60676,44.9105]]},"properties":{}},{"type":"Feature","geometry":{"type":"LineString","coordinates":[[8.6156,44.90905],[8.61912,44.90927]]},"properties":{}},{"type":"Feature","geometry":{"type":"LineString","coordinates":[[8.62521,44.90941],[8.62542,44.90935]]},"properties":{}},{"type":"Feature","geometry":{"type":"LineString","coordinates":[[8.62565,44.9097],[8.62542,44.90935]]},"properties":{}},{"type":"Feature","geometry":{"type":"LineString","coordinates":[[8.63034,44.90937],[8.63088,44.90969]]},"properties":{}},{"type":"Feature","geometry":{"type":"LineString","coordinates":[[8.63073,44.90974],[8.63034,44.90937]]},"properties":{}},{"type":"Feature","geometry":{"type":"LineString","coordinates":[[8.63073,44.90974],[8.63088,44.90969]]},"properties":{}},{"type":"Feature","geometry":{"type":"LineString","coordinates":[[8.62545,44.90976],[8.62565,44.9097]]},"properties":{}},{"type":"Feature","geometry":{"type":"LineString","coordinates":[[8.63081,44.91007],[8.63121,44.90997]]},"properties":{}},{"type":"Feature","geometry":{"type":"LineString","coordinates":[[8.62618,44.91096],[8.62598,44.91069],[8.62545,44.90976]]},"properties":{}},{"type":"Feature","geometry":{"type":"LineString","coordinates":[[8.63122,44.91171],[8.63108,44.91044],[8.63103,44.91017],[8.63098,44.91003]]},"properties":{}},{"type":"Feature","geometry":{"type":"LineString","coordinates":[[8.62618,44.91096],[8.62592,44.91104]]},"properties":{}},{"type":"Feature","geometry":{"type":"LineString","coordinates":[[8.62599,44.91127],[8.62593,44.91116]]},"properties":{}},{"type":"Feature","geometry":{"type":"LineString","coordinates":[[8.62638,44.91127],[8.62619,44.91133]]},"properties":{}},{"type":"Feature","geometry":{"type":"LineString","coordinates":[[8.62687,44.91203],[8.62638,44.91127]]},"properties":{}},{"type":"Feature","geometry":{"type":"LineString","coordinates":[[8.63102,44.91172],[8.63141,44.9117]]},"properties":{}},{"type":"Feature","geometry":{"type":"LineString","coordinates":[[8.63182,44.91187],[8.63174,44.91182]]},"properties":{}},{"type":"Feature","geometry":{"type":"LineString","coordinates":[[8.62687,44.91203],[8.627,44.91223]]},"properties":{}},{"type":"Feature","geometry":{"type":"LineString","coordinates":[[8.63165,44.91217],[8.63175,44.9121]]},"properties":{}},{"type":"Feature","geometry":{"type":"LineString","coordinates":[[8.63116,44.91229],[8.63084,44.9121]]},"properties":{}},{"type":"Feature","geometry":{"type":"LineString","coordinates":[[8.63162,44.9123],[8.63173,44.91224]]},"properties":{}},{"type":"Feature","geometry":{"type":"LineString","coordinates":[[8.60701,44.91058],[8.6073,44.91051]]},"properties":{}},{"type":"Feature","geometry":{"type":"LineString","coordinates":[[8.6053,44.91193],[8.60748,44.91143]]},"properties":{}},{"type":"Feature","geometry":{"type":"LineString","coordinates":[[8.60695,44.91198],[8.60677,44.91158]]},"properties":{}},{"type":"Feature","geometry":{"type":"LineString","coordinates":[[8.60264,44.91395],[8.60321,44.91346],[8.60321,44.91339],[8.60461,44.91206],[8.60659,44.91038]]},"properties":{}},{"type":"Feature","geometry":{"type":"LineString","coordinates":[[8.60511,44.91224],[8.6054,44.91216]]},"properties":{}},{"type":"Feature","geometry":{"type":"LineString","coordinates":[[8.60336,44.91349],[8.60302,44.91379]]},"properties":{}},{"type":"Feature","geometry":{"type":"LineString","coordinates":[[8.60302,44.91379],[8.60277,44.91402]]},"properties":{}},{"type":"Feature","geometry":{"type":"LineString","coordinates":[[8.60527,44.91209],[8.60691,44.91567],[8.60694,44.91582],[8.60702,44.91589]]},"properties":{}},{"type":"Feature","geometry":{"type":"LineString","coordinates":[[8.61315,44.91437],[8.61325,44.91445],[8.61377,44.91472]]},"properties":{}},{"type":"Feature","geometry":{"type":"LineString","coordinates":[[8.60683,44.91593],[8.60682,44.91581],[8.60673,44.91568],[8.60561,44.91319]]},"properties":{}},{"type":"Feature","geometry":{"type":"LineString","coordinates":[[8.63318,44.9139],[8.6333,44.91383],[8.63331,44.91379],[8.63326,44.91373],[8.63347,44.91361],[8.63354,44.91367],[8.63367,44.91365],[8.63459,44.91312],[8.63634,44.91185],[8.63676,44.9117]]},"properties":{}},{"type":"Feature","geometry":{"type":"LineString","coordinates":[[8.63336,44.91407],[8.63362,44.91402],[8.63374,44.91394],[8.6338,44.91382],[8.63469,44.91326],[8.63618,44.91219]]},"properties":{}},{"type":"Feature","geometry":{"type":"LineString","coordinates":[[8.631,44.91219],[8.63062,44.91244],[8.62774,44.91407]]},"properties":{}},{"type":"Feature","geometry":{"type":"LineString","coordinates":[[8.627,44.91223],[8.62727,44.91278],[8.62735,44.91304],[8.62734,44.91365],[8.62717,44.91415]]},"properties":{}},{"type":"Feature","geometry":{"type":"LineString","coordinates":[[8.62742,44.91418],[8.62733,44.9141]]},"properties":{}},{"type":"Feature","geometry":{"type":"LineString","coordinates":[[8.62732,44.91436],[8.62729,44.91433],[8.62747,44.91423],[8.62742,44.91418]]},"properties":{}},{"type":"Feature","geometry":{"type":"LineString","coordinates":[[8.62738,44.91447],[8.62732,44.91436]]},"properties":{}},{"type":"Feature","geometry":{"type":"LineString","coordinates":[[8.62737,44.91455],[8.62735,44.91451],[8.62738,44.91447]]},"properties":{}},{"type":"Feature","geometry":{"type":"LineString","coordinates":[[8.62737,44.91455],[8.6272,44.91475]]},"properties":{}},{"type":"Feature","geometry":{"type":"LineString","coordinates":[[8.62675,44.91481],[8.62701,44.91469],[8.6272,44.91475]]},"properties":{}},{"type":"Feature","geometry":{"type":"LineString","coordinates":[[8.60101,44.91539],[8.60264,44.91395]]},"properties":{}},{"type":"Feature","geometry":{"type":"LineString","coordinates":[[8.60277,44.91402],[8.60115,44.91547]]},"properties":{}},{"type":"Feature","geometry":{"type":"LineString","coordinates":[[8.61043,44.91475],[8.61015,44.91485]]},"properties":{}},{"type":"Feature","geometry":{"type":"LineString","coordinates":[[8.6054,44.91216],[8.60545,44.91213],[8.60549,44.91215],[8.60684,44.91514],[8.60715,44.91579],[8.60725,44.91592],[8.60748,44.91616],[8.60991,44.9175]]},"properties":{}},{"type":"Feature","geometry":{"type":"LineString","coordinates":[[8.61001,44.9144],[8.61043,44.91475],[8.61142,44.9155]]},"properties":{}},{"type":"Feature","geometry":{"type":"LineString","coordinates":[[8.61082,44.9162],[8.61142,44.9155],[8.6118,44.91512],[8.61242,44.91466],[8.61315,44.91437]]},"properties":{}},{"type":"Feature","geometry":{"type":"LineString","coordinates":[[8.611,44.91709],[8.61082,44.9162],[8.61004,44.91461],[8.61001,44.9144],[8.60967,44.91367]]},"properties":{}},{"type":"Feature","geometry":{"type":"LineString","coordinates":[[8.601,44.91536],[8.60125,44.91543]]},"properties":{}},{"type":"Feature","geometry":{"type":"LineString","coordinates":[[8.60086,44.91544],[8.60088,44.91545]]},"properties":{}},{"type":"Feature","geometry":{"type":"LineString","coordinates":[[8.60065,44.91575],[8.60061,44.91571],[8.601,44.91536]]},"properties":{}},{"type":"Feature","geometry":{"type":"LineString","coordinates":[[8.60101,44.91539],[8.60065,44.91575]]},"properties":{}},{"type":"Feature","geometry":{"type":"LineString","coordinates":[[8.61142,44.9155],[8.6124,44.91589]]},"properties":{}},{"type":"Feature","geometry":{"type":"LineString","coordinates":[[8.60125,44.91543],[8.60133,44.91553],[8.6013,44.91562],[8.60101,44.91579],[8.60091,44.91608],[8.60078,44.91611]]},"properties":{}},{"type":"Feature","geometry":{"type":"LineString","coordinates":[[8.60014,44.91584],[8.60051,44.91606]]},"properties":{}},{"type":"Feature","geometry":{"type":"LineString","coordinates":[[8.6124,44.91589],[8.61301,44.91608]]},"properties":{}},{"type":"Feature","geometry":{"type":"LineString","coordinates":[[8.61377,44.91472],[8.61365,44.91503],[8.61306,44.91583],[8.61291,44.91679],[8.61167,44.91747]]},"properties":{}},{"type":"Feature","geometry":{"type":"LineString","coordinates":[[8.61301,44.91608],[8.61444,44.91635]]},"properties":{}},{"type":"Feature","geometry":{"type":"LineString","coordinates":[[8.60115,44.91547],[8.60084,44.91576],[8.60079,44.91589],[8.60079,44.91621],[8.60089,44.91661],[8.60094,44.91669],[8.60135,44.91702],[8.60152,44.91724],[8.60169,44.91734],[8.60198,44.91744]]},"properties":{}},{"type":"Feature","geometry":{"type":"LineString","coordinates":[[8.59934,44.91667],[8.59931,44.91672],[8.59923,44.91674],[8.59915,44.91671],[8.59914,44.91667],[8.59917,44.91663],[8.59924,44.9166],[8.59934,44.91667]]},"properties":{}},{"type":"Feature","geometry":{"type":"LineString","coordinates":[[8.60017,44.91728],[8.60018,44.91715],[8.60023,44.91706],[8.60046,44.91689]]},"properties":{}},{"type":"Feature","geometry":{"type":"LineString","coordinates":[[8.62663,44.9147],[8.62675,44.91481]]},"properties":{}},{"type":"Feature","geometry":{"type":"LineString","coordinates":[[8.62749,44.91484],[8.6272,44.91475]]},"properties":{}},{"type":"Feature","geometry":{"type":"LineString","coordinates":[[8.62737,44.91455],[8.6277,44.91468],[8.62866,44.91495],[8.62897,44.91512],[8.6291,44.91514],[8.62936,44.91531],[8.62945,44.91548],[8.62963,44.91566],[8.62961,44.91571],[8.62974,44.91576],[8.6299,44.91575]]},"properties":{}},{"type":"Feature","geometry":{"type":"LineString","coordinates":[[8.62968,44.91618],[8.62961,44.91612],[8.62947,44.91613],[8.62935,44.91593],[8.62944,44.91587],[8.62943,44.9158],[8.62936,44.91573],[8.62927,44.91572],[8.62875,44.91527],[8.62852,44.91516],[8.62749,44.91484]]},"properties":{}},{"type":"Feature","geometry":{"type":"LineString","coordinates":[[8.62943,44.9158],[8.62961,44.91571]]},"properties":{}},{"type":"Feature","geometry":{"type":"LineString","coordinates":[[8.6299,44.91575],[8.63008,44.91593]]},"properties":{}},{"type":"Feature","geometry":{"type":"LineString","coordinates":[[8.63008,44.91593],[8.62993,44.91603],[8.62991,44.91614]]},"properties":{}},{"type":"Feature","geometry":{"type":"LineString","coordinates":[[8.62968,44.91618],[8.62991,44.91614]]},"properties":{}},{"type":"Feature","geometry":{"type":"LineString","coordinates":[[8.61484,44.91547],[8.61479,44.91572],[8.61456,44.91635],[8.61444,44.91635],[8.6141,44.91717],[8.61392,44.91748]]},"properties":{}},{"type":"Feature","geometry":{"type":"LineString","coordinates":[[8.62663,44.9147],[8.62358,44.9164],[8.62012,44.91839]]},"properties":{}},{"type":"Feature","geometry":{"type":"LineString","coordinates":[[8.61374,44.91766],[8.61299,44.91685],[8.61288,44.91682]]},"properties":{}},{"type":"Feature","geometry":{"type":"LineString","coordinates":[[8.51449,44.91679],[8.51534,44.91711],[8.51824,44.918]]},"properties":{}},{"type":"Feature","geometry":{"type":"LineString","coordinates":[[8.60061,44.91762],[8.60033,44.91751],[8.60022,44.9174],[8.60017,44.91728]]},"properties":{}},{"type":"Feature","geometry":{"type":"LineString","coordinates":[[8.61003,44.9176],[8.6098,44.91781]]},"properties":{}},{"type":"Feature","geometry":{"type":"LineString","coordinates":[[8.61021,44.91793],[8.61002,44.91782]]},"properties":{}},{"type":"Feature","geometry":{"type":"LineString","coordinates":[[8.61036,44.91789],[8.61027,44.91797]]},"properties":{}},{"type":"Feature","geometry":{"type":"LineString","coordinates":[[8.61027,44.91797],[8.61021,44.91793]]},"properties":{}},{"type":"Feature","geometry":{"type":"LineString","coordinates":[[8.6101,44.91808],[8.61014,44.91793],[8.61002,44.91782]]},"properties":{}},{"type":"Feature","geometry":{"type":"LineString","coordinates":[[8.61042,44.91814],[8.61063,44.91796]]},"properties":{}},{"type":"Feature","geometry":{"type":"LineString","coordinates":[[8.61027,44.91797],[8.61012,44.91814]]},"properties":{}},{"type":"Feature","geometry":{"type":"LineString","coordinates":[[8.63038,44.91757],[8.63003,44.9176]]},"properties":{}},{"type":"Feature","geometry":{"type":"LineString","coordinates":[[8.62968,44.91618],[8.62969,44.91623],[8.62965,44.91625],[8.63003,44.9176],[8.63014,44.9186],[8.63034,44.91936],[8.63032,44.91954],[8.63017,44.91968],[8.63022,44.91978]]},"properties":{}},{"type":"Feature","geometry":{"type":"LineString","coordinates":[[8.63088,44.92034],[8.63097,44.92033],[8.63055,44.91887],[8.63036,44.91746],[8.63003,44.91628],[8.62991,44.91614]]},"properties":{}},{"type":"Feature","geometry":{"type":"LineString","coordinates":[[8.61977,44.91831],[8.61983,44.91834],[8.61996,44.91827],[8.61998,44.91828]]},"properties":{}},{"type":"Feature","geometry":{"type":"LineString","coordinates":[[8.61973,44.91835],[8.61977,44.91831]]},"properties":{}},{"type":"Feature","geometry":{"type":"LineString","coordinates":[[8.62023,44.91852],[8.61998,44.91828]]},"properties":{}},{"type":"Feature","geometry":{"type":"LineString","coordinates":[[8.61951,44.91857],[8.61957,44.91853],[8.61973,44.91835]]},"properties":{}},{"type":"Feature","geometry":{"type":"LineString","coordinates":[[8.62023,44.91852],[8.62012,44.91862],[8.62017,44.91875]]},"properties":{}},{"type":"Feature","geometry":{"type":"LineString","coordinates":[[8.61951,44.91857],[8.61971,44.91876]]},"properties":{}},{"type":"Feature","geometry":{"type":"LineString","coordinates":[[8.61971,44.91876],[8.61984,44.91872],[8.61996,44.91882]]},"properties":{}},{"type":"Feature","geometry":{"type":"LineString","coordinates":[[8.6091,44.91705],[8.60982,44.91666],[8.60997,44.91665],[8.6104,44.91687],[8.61052,44.91677],[8.61352,44.9185],[8.61389,44.91937],[8.61397,44.91951]]},"properties":{}},{"type":"Feature","geometry":{"type":"LineString","coordinates":[[8.61002,44.91819],[8.6101,44.91808]]},"properties":{}},{"type":"Feature","geometry":{"type":"LineString","coordinates":[[8.61012,44.91814],[8.61002,44.91819]]},"properties":{}},{"type":"Feature","geometry":{"type":"LineString","coordinates":[[8.61075,44.91825],[8.61037,44.91809],[8.61024,44.91809],[8.61012,44.91814]]},"properties":{}},{"type":"Feature","geometry":{"type":"LineString","coordinates":[[8.61152,44.91846],[8.61135,44.91836]]},"properties":{}},{"type":"Feature","geometry":{"type":"LineString","coordinates":[[8.60065,44.91575],[8.60055,44.91592],[8.60051,44.91606],[8.60056,44.9167],[8.60049,44.91679],[8.60027,44.9169],[8.60006,44.9169],[8.59999,44.917],[8.60008,44.91707],[8.6001,44.91717],[8.60007,44.9173],[8.59994,44.9175],[8.59985,44.91757],[8.59963,44.91769],[8.59915,44.91774],[8.59916,44.91782],[8.599,44.91792],[8.5966,44.91893],[8.59151,44.92116]]},"properties":{}},{"type":"Feature","geometry":{"type":"LineString","coordinates":[[8.50237,44.91929],[8.50145,44.91898],[8.50162,44.91864],[8.50169,44.91859],[8.50198,44.91807],[8.50195,44.91801],[8.50214,44.91773],[8.50229,44.91762]]},"properties":{}},{"type":"Feature","geometry":{"type":"LineString","coordinates":[[8.61002,44.91819],[8.60939,44.91884]]},"properties":{}},{"type":"Feature","geometry":{"type":"LineString","coordinates":[[8.60198,44.91744],[8.6026,44.9175],[8.6031,44.9176],[8.60663,44.91858],[8.60702,44.9188],[8.60735,44.91934],[8.60752,44.91947],[8.60793,44.91964]]},"properties":{}},{"type":"Feature","geometry":{"type":"LineString","coordinates":[[8.51824,44.918],[8.52057,44.91864],[8.52221,44.91901],[8.5232,44.91919]]},"properties":{}},{"type":"Feature","geometry":{"type":"LineString","coordinates":[[8.61376,44.9199],[8.61335,44.91975],[8.61027,44.91797]]},"properties":{}},{"type":"Feature","geometry":{"type":"LineString","coordinates":[[8.61373,44.91955],[8.61372,44.91961],[8.61359,44.91963],[8.61292,44.91928],[8.61152,44.91846]]},"properties":{}},{"type":"Feature","geometry":{"type":"LineString","coordinates":[[8.60939,44.91884],[8.60839,44.91963]]},"properties":{}},{"type":"Feature","geometry":{"type":"LineString","coordinates":[[8.61397,44.91951],[8.6138,44.91951],[8.61373,44.91955]]},"properties":{}},{"type":"Feature","geometry":{"type":"LineString","coordinates":[[8.61397,44.91951],[8.61408,44.9196],[8.61436,44.91962]]},"properties":{}},{"type":"Feature","geometry":{"type":"LineString","coordinates":[[8.53327,44.92003],[8.53,44.91999],[8.52745,44.9198],[8.52491,44.91948],[8.5232,44.91919]]},"properties":{}},{"type":"Feature","geometry":{"type":"LineString","coordinates":[[8.61042,44.91814],[8.61037,44.9182],[8.61039,44.91838],[8.61088,44.91892],[8.61104,44.91893],[8.61113,44.9191],[8.6123,44.92005],[8.61279,44.9205],[8.61345,44.92119],[8.61365,44.92121]]},"properties":{}},{"type":"Feature","geometry":{"type":"LineString","coordinates":[[8.60839,44.91963],[8.60825,44.91978]]},"properties":{}},{"type":"Feature","geometry":{"type":"LineString","coordinates":[[8.60793,44.91964],[8.60782,44.91979]]},"properties":{}},{"type":"Feature","geometry":{"type":"LineString","coordinates":[[8.55951,44.92021],[8.557,44.92017],[8.54697,44.92015],[8.54666,44.9201],[8.54581,44.9198],[8.54563,44.91976],[8.54527,44.91974],[8.54469,44.91977],[8.54303,44.92007],[8.54016,44.92006],[8.53985,44.91997],[8.53923,44.91961],[8.53906,44.91956],[8.53886,44.91958],[8.53763,44.92001],[8.5374,44.92005],[8.53327,44.92003]]},"properties":{}},{"type":"Feature","geometry":{"type":"LineString","coordinates":[[8.61996,44.91882],[8.62017,44.91875]]},"properties":{}},{"type":"Feature","geometry":{"type":"LineString","coordinates":[[8.61436,44.91962],[8.61819,44.91912],[8.61866,44.91898],[8.6192,44.91868],[8.61951,44.91857]]},"properties":{}},{"type":"Feature","geometry":{"type":"LineString","coordinates":[[8.61443,44.91989],[8.61436,44.91962]]},"properties":{}},{"type":"Feature","geometry":{"type":"LineString","coordinates":[[8.63022,44.91978],[8.63028,44.92009],[8.63034,44.92016],[8.63047,44.92023],[8.63056,44.92037],[8.63056,44.92056],[8.63038,44.92059]]},"properties":{}},{"type":"Feature","geometry":{"type":"LineString","coordinates":[[8.62017,44.91875],[8.62107,44.9201],[8.62184,44.92133],[8.62202,44.92146],[8.62223,44.92177]]},"properties":{}},{"type":"Feature","geometry":{"type":"LineString","coordinates":[[8.63038,44.92059],[8.6304,44.92068]]},"properties":{}},{"type":"Feature","geometry":{"type":"LineString","coordinates":[[8.6304,44.92068],[8.62905,44.92087],[8.6223,44.92195]]},"properties":{}},{"type":"Feature","geometry":{"type":"LineString","coordinates":[[8.62221,44.92174],[8.62258,44.9217],[8.62266,44.92164],[8.6237,44.92147],[8.62502,44.92117]]},"properties":{}},{"type":"Feature","geometry":{"type":"LineString","coordinates":[[8.62223,44.92177],[8.6223,44.92195]]},"properties":{}},{"type":"Feature","geometry":{"type":"LineString","coordinates":[[8.61365,44.92121],[8.61372,44.92127],[8.61379,44.92148],[8.61408,44.92182],[8.61492,44.92268],[8.61504,44.92285]]},"properties":{}},{"type":"Feature","geometry":{"type":"LineString","coordinates":[[8.61983,44.92236],[8.62157,44.92207],[8.62167,44.9221],[8.62174,44.92229]]},"properties":{}},{"type":"Feature","geometry":{"type":"LineString","coordinates":[[8.62174,44.92229],[8.62201,44.92225]]},"properties":{}},{"type":"Feature","geometry":{"type":"LineString","coordinates":[[8.61983,44.92236],[8.61668,44.92285]]},"properties":{}},{"type":"Feature","geometry":{"type":"LineString","coordinates":[[8.61521,44.92309],[8.61508,44.92311]]},"properties":{}},{"type":"Feature","geometry":{"type":"LineString","coordinates":[[8.62278,44.92478],[8.62261,44.92481]]},"properties":{}},{"type":"Feature","geometry":{"type":"LineString","coordinates":[[8.62261,44.92481],[8.6211,44.92536]]},"properties":{}},{"type":"Feature","geometry":{"type":"LineString","coordinates":[[8.6223,44.92195],[8.62206,44.92204],[8.622,44.92213],[8.622,44.92219],[8.62325,44.92603],[8.62429,44.92938],[8.62439,44.92953],[8.62445,44.92972]]},"properties":{}},{"type":"Feature","geometry":{"type":"LineString","coordinates":[[8.6211,44.92536],[8.61576,44.92726]]},"properties":{}},{"type":"Feature","geometry":{"type":"LineString","coordinates":[[8.62475,44.93186],[8.62496,44.93183]]},"properties":{}},{"type":"Feature","geometry":{"type":"LineString","coordinates":[[8.62469,44.93207],[8.62472,44.93199]]},"properties":{}},{"type":"Feature","geometry":{"type":"LineString","coordinates":[[8.62446,44.93395],[8.6244,44.9339],[8.62442,44.93388],[8.62467,44.93379],[8.62481,44.93368],[8.62512,44.93312],[8.62509,44.93283],[8.6249,44.93217],[8.62482,44.93211],[8.62469,44.93207]]},"properties":{}},{"type":"Feature","geometry":{"type":"LineString","coordinates":[[8.62484,44.9344],[8.62458,44.93404],[8.62446,44.93395]]},"properties":{}},{"type":"Feature","geometry":{"type":"LineString","coordinates":[[8.6245,44.93572],[8.625,44.93505],[8.62507,44.93494],[8.6251,44.93483],[8.62509,44.93468],[8.62499,44.93454],[8.62484,44.9344]]},"properties":{}},{"type":"Feature","geometry":{"type":"LineString","coordinates":[[8.6234,44.93708],[8.6245,44.93572]]},"properties":{}},{"type":"Feature","geometry":{"type":"LineString","coordinates":[[8.62317,44.93752],[8.62315,44.93738],[8.6234,44.93708]]},"properties":{}},{"type":"Feature","geometry":{"type":"LineString","coordinates":[[8.67667,44.95087],[8.67753,44.95041],[8.67779,44.95014],[8.67784,44.94989],[8.67808,44.94961],[8.67813,44.94915],[8.6789,44.94787],[8.67885,44.94738],[8.67908,44.94707],[8.67895,44.94688]]},"properties":{}},{"type":"Feature","geometry":{"type":"LineString","coordinates":[[8.67291,44.9716],[8.67294,44.97157],[8.67291,44.97151],[8.67278,44.97144],[8.67272,44.97127],[8.67261,44.97125],[8.67247,44.97118],[8.67244,44.97103],[8.67245,44.97079],[8.67259,44.97047],[8.67257,44.97039]]},"properties":{}},{"type":"Feature","geometry":{"type":"LineString","coordinates":[[8.67639,44.973],[8.67647,44.97295],[8.67643,44.97282],[8.67644,44.97277],[8.67662,44.9726],[8.67693,44.9726],[8.67705,44.97253],[8.67716,44.97256],[8.67734,44.97247],[8.67747,44.97252],[8.67754,44.97243],[8.67755,44.97235],[8.67763,44.97227],[8.67778,44.97235],[8.67788,44.97249],[8.67799,44.9725],[8.67821,44.97234],[8.67892,44.97192],[8.67919,44.97191],[8.67987,44.97177]]},"properties":{}},{"type":"Feature","geometry":{"type":"LineString","coordinates":[[8.65711,44.97571],[8.65715,44.97573]]},"properties":{}},{"type":"Feature","geometry":{"type":"LineString","coordinates":[[8.66498,44.97973],[8.66513,44.97961],[8.66517,44.97954],[8.66522,44.97953],[8.66545,44.97957],[8.6656,44.97963],[8.66603,44.97963],[8.66614,44.97967],[8.66647,44.97967],[8.66655,44.97964],[8.66674,44.97966],[8.66695,44.97961],[8.66721,44.97962],[8.66737,44.97958],[8.66741,44.97953],[8.66738,44.97943],[8.66727,44.97935],[8.66727,44.97926],[8.66733,44.97922],[8.66732,44.97878],[8.66724,44.97851],[8.66731,44.97849]]},"properties":{}},{"type":"Feature","geometry":{"type":"LineString","coordinates":[[8.59438,44.9205],[8.59429,44.92042],[8.5943,44.9203],[8.59428,44.92027],[8.5939,44.9201]]},"properties":{}},{"type":"Feature","geometry":{"type":"LineString","coordinates":[[8.6084,44.91988],[8.61042,44.92181],[8.61068,44.92211]]},"properties":{}},{"type":"Feature","geometry":{"type":"LineString","coordinates":[[8.58238,44.92196],[8.58227,44.92184],[8.58229,44.92174],[8.58234,44.92169],[8.58254,44.92165],[8.5827,44.92174],[8.58273,44.92183],[8.58265,44.92195],[8.58249,44.92198],[8.58238,44.92196]]},"properties":{}},{"type":"Feature","geometry":{"type":"LineString","coordinates":[[8.65862,44.98229],[8.65859,44.982],[8.65881,44.9814],[8.65895,44.98126],[8.65916,44.98118],[8.65942,44.98118],[8.66006,44.98125],[8.66014,44.98122],[8.65997,44.98041],[8.65975,44.97967],[8.65975,44.97962],[8.65979,44.9796],[8.6603,44.97963],[8.66053,44.97961],[8.66088,44.97965],[8.66223,44.97996],[8.66312,44.97995],[8.66366,44.97998],[8.66388,44.98007],[8.66382,44.98026],[8.66526,44.9804],[8.66497,44.9798],[8.66498,44.97973]]},"properties":{}},{"type":"Feature","geometry":{"type":"LineString","coordinates":[[8.662,44.98301],[8.66281,44.98285],[8.6637,44.9828],[8.66385,44.98274],[8.66383,44.98255],[8.66362,44.98187],[8.6635,44.98122],[8.66364,44.98077],[8.6637,44.98045],[8.66382,44.98026]]},"properties":{}},{"type":"Feature","geometry":{"type":"LineString","coordinates":[[8.6762,44.98712],[8.67604,44.98715],[8.67589,44.98704],[8.67583,44.98705],[8.67582,44.98714],[8.67576,44.98715],[8.67551,44.98692],[8.67538,44.98674],[8.67508,44.98663],[8.67502,44.98664],[8.67511,44.98686],[8.67498,44.98723],[8.67498,44.98731],[8.67506,44.98741],[8.67486,44.98727],[8.67482,44.9873],[8.67488,44.98743],[8.67483,44.98745],[8.67439,44.98701],[8.67424,44.98661],[8.67412,44.98665]]},"properties":{}}]}