{"type":"FeatureCollection","features":[{"type":"Feature","geometry":{"type":"LineString","coordinates":[[8.75,38.92394],[8.74856,38.92446],[8.74834,38.92461],[8.74736,38.92553],[8.7472,38.92573],[8.74679,38.92658],[8.74663,38.92673],[8.74642,38.92683],[8.74535,38.92702],[8.74516,38.92709],[8.74502,38.92721],[8.74425,38.92816],[8.74405,38.9283],[8.74389,38.92837],[8.74371,38.92835],[8.74313,38.92816],[8.74296,38.92814],[8.74282,38.92818],[8.74272,38.92829],[8.7426,38.92834],[8.74247,38.92832],[8.74235,38.92824],[8.74228,38.92809],[8.74226,38.92791],[8.74233,38.9277],[8.74245,38.92749],[8.74242,38.92732],[8.74229,38.92719],[8.74201,38.92711],[8.74118,38.9271],[8.74049,38.92721],[8.74022,38.92736],[8.74007,38.92751],[8.73993,38.92778],[8.73953,38.92874],[8.73948,38.92892],[8.73955,38.92908],[8.73975,38.92928],[8.73986,38.92949],[8.73988,38.92969],[8.73984,38.9303],[8.73974,38.93047],[8.73957,38.93058],[8.73914,38.93063],[8.73893,38.93073],[8.73882,38.93088],[8.73874,38.93163],[8.73858,38.93217],[8.73845,38.9323],[8.73827,38.93235],[8.73809,38.93233],[8.738,38.93225]]},"properties":{}},{"type":"Feature","geometry":{"type":"LineString","coordinates":[[8.738,38.93225],[8.73782,38.93181],[8.73716,38.93065],[8.737,38.93044],[8.73673,38.93031],[8.73608,38.93025],[8.73572,38.93032],[8.73557,38.9304],[8.73543,38.9306],[8.73529,38.93094],[8.73515,38.93105],[8.73494,38.93107],[8.73442,38.93104],[8.73425,38.93108],[8.73343,38.93161],[8.73321,38.9317],[8.73297,38.93168],[8.73259,38.93155],[8.73229,38.93156],[8.73212,38.93163],[8.73201,38.93173],[8.73189,38.93209],[8.73169,38.93228],[8.7315,38.93233],[8.73094,38.93225],[8.73065,38.93234],[8.73044,38.93249],[8.73023,38.93275],[8.73016,38.93295],[8.73015,38.93321],[8.73006,38.93336],[8.72995,38.93344],[8.72961,38.93357],[8.72947,38.93366],[8.72811,38.93491],[8.72758,38.93552],[8.72739,38.9359],[8.72716,38.93611],[8.72698,38.93622],[8.72623,38.93654],[8.72596,38.93679],[8.72519,38.93733],[8.72474,38.93757],[8.72394,38.93792],[8.72371,38.93807],[8.72355,38.93832],[8.72353,38.93845],[8.72355,38.93862],[8.72367,38.93883],[8.724,38.93912]]},"properties":{}},{"type":"Feature","geometry":{"type":"LineString","coordinates":[[8.724,38.93912],[8.72463,38.93967],[8.72482,38.93989],[8.72539,38.94133],[8.72559,38.94273],[8.72576,38.94532],[8.72618,38.94679],[8.72631,38.94704],[8.72784,38.94939],[8.72933,38.95107],[8.72957,38.95126],[8.73246,38.95284],[8.73381,38.95346]]},"properties":{}},{"type":"Feature","geometry":{"type":"LineString","coordinates":[[8.73394,38.95334],[8.73394,38.95335]]},"properties":{}},{"type":"Feature","geometry":{"type":"LineString","coordinates":[[8.73394,38.95335],[8.73411,38.95355]]},"properties":{}},{"type":"Feature","geometry":{"type":"LineString","coordinates":[[8.73381,38.95346],[8.73398,38.95353]]},"properties":{}},{"type":"Feature","geometry":{"type":"LineString","coordinates":[[8.74233,38.95724],[8.74259,38.95679]]},"properties":{}},{"type":"Feature","geometry":{"type":"LineString","coordinates":[[8.74196,38.95744],[8.7417,38.95722]]},"properties":{}},{"type":"Feature","geometry":{"type":"LineString","coordinates":[[8.742,38.95783],[8.74199,38.95772],[8.74203,38.95761],[8.74196,38.95744]]},"properties":{}},{"type":"Feature","geometry":{"type":"LineString","coordinates":[[8.75,38.95482],[8.74934,38.95496],[8.74898,38.95496],[8.74874,38.95499],[8.74841,38.95509],[8.74812,38.95504],[8.74775,38.95491],[8.7471,38.95428],[8.7465,38.95395],[8.74493,38.95387],[8.74422,38.95407],[8.74401,38.95418],[8.74372,38.95418],[8.74359,38.95429]]},"properties":{}},{"type":"Feature","geometry":{"type":"LineString","coordinates":[[8.73619,38.95258],[8.73642,38.95258],[8.73669,38.95271],[8.73705,38.95298],[8.73764,38.95321],[8.73813,38.95334],[8.73864,38.95329],[8.73877,38.95333],[8.73952,38.95377],[8.73986,38.95404],[8.74053,38.95497],[8.74077,38.95517],[8.74128,38.95535],[8.74186,38.9554],[8.74234,38.95521],[8.74316,38.95456],[8.74359,38.95429]]},"properties":{}},{"type":"Feature","geometry":{"type":"LineString","coordinates":[[8.73411,38.95355],[8.73662,38.95471],[8.73689,38.9548]]},"properties":{}},{"type":"Feature","geometry":{"type":"LineString","coordinates":[[8.73398,38.95353],[8.73678,38.9548],[8.73858,38.95537],[8.7417,38.95722]]},"properties":{}},{"type":"Feature","geometry":{"type":"LineString","coordinates":[[8.74581,38.95569],[8.74704,38.95572]]},"properties":{}},{"type":"Feature","geometry":{"type":"LineString","coordinates":[[8.74327,38.95634],[8.74518,38.95573],[8.74547,38.95568],[8.74581,38.95569]]},"properties":{}},{"type":"Feature","geometry":{"type":"LineString","coordinates":[[8.74704,38.95572],[8.74735,38.95576],[8.74766,38.95586],[8.74868,38.95644],[8.74954,38.95663]]},"properties":{}},{"type":"Feature","geometry":{"type":"LineString","coordinates":[[8.74954,38.95663],[8.74975,38.95661],[8.75,38.95642]]},"properties":{}},{"type":"Feature","geometry":{"type":"LineString","coordinates":[[8.74259,38.95679],[8.74278,38.95659],[8.74305,38.95642],[8.74327,38.95634]]},"properties":{}},{"type":"Feature","geometry":{"type":"LineString","coordinates":[[8.74233,38.95724],[8.74165,38.95846],[8.74134,38.95932],[8.74121,38.9596],[8.74042,38.96046],[8.74016,38.9606],[8.73944,38.96082],[8.73915,38.96098],[8.73531,38.96395],[8.73477,38.9643],[8.73405,38.96468],[8.73169,38.96572],[8.73115,38.966],[8.72724,38.96889],[8.72684,38.96914],[8.72312,38.97065],[8.71779,38.97365],[8.70957,38.97581]]},"properties":{}},{"type":"Feature","geometry":{"type":"LineString","coordinates":[[8.70957,38.97581],[8.70859,38.97609],[8.70647,38.97711],[8.70624,38.97724],[8.70588,38.97751],[8.70561,38.97781],[8.70535,38.9783],[8.70427,38.98135],[8.70405,38.98188],[8.70345,38.9829],[8.7032,38.98323],[8.70288,38.98353],[8.70251,38.98378],[8.69958,38.98531],[8.69909,38.98551],[8.69812,38.98576],[8.69568,38.9861],[8.6675,38.99095],[8.66693,38.99102],[8.66641,38.99104]]},"properties":{}},{"type":"Feature","geometry":{"type":"LineString","coordinates":[[8.6104,38.97415],[8.61061,38.97421],[8.61147,38.97491],[8.61157,38.97505],[8.61264,38.97587],[8.61597,38.97855],[8.61607,38.97864],[8.61612,38.97878],[8.6161,38.97892],[8.61603,38.97902],[8.61614,38.97909],[8.61635,38.979],[8.61648,38.97901],[8.61658,38.97904],[8.61778,38.98],[8.61784,38.98016],[8.61796,38.98017],[8.61803,38.9802],[8.61995,38.98175],[8.62032,38.9821],[8.62466,38.98559],[8.6252,38.98603],[8.62542,38.98625],[8.62796,38.98825],[8.62802,38.98834],[8.62818,38.98843],[8.62977,38.9897],[8.62996,38.9899],[8.63007,38.98994],[8.63535,38.9942],[8.63566,38.99445],[8.63576,38.99448],[8.63872,38.99687],[8.63897,38.99711],[8.63902,38.99719],[8.63903,38.9975],[8.63922,38.99763]]},"properties":{}},{"type":"Feature","geometry":{"type":"LineString","coordinates":[[8.66641,38.99104],[8.66307,38.99096],[8.66095,38.99108],[8.65988,38.99099],[8.65967,38.99102],[8.65684,38.99173],[8.65641,38.99189],[8.65309,38.99401],[8.65264,38.9944],[8.65241,38.99463],[8.65208,38.99507],[8.65182,38.99553],[8.65034,38.99901],[8.64993,38.99965],[8.6496,39.0]]},"properties":{}},{"type":"Feature","geometry":{"type":"LineString","coordinates":[[8.63922,38.99763],[8.6393,38.99762],[8.63936,38.99755],[8.63945,38.99752],[8.6396,38.99757],[8.64039,38.99824],[8.64051,38.99819],[8.6406,38.99819],[8.64291,38.99935],[8.64303,38.99942],[8.64329,38.99983],[8.64347,39.0]]},"properties":{}},{"type":"Feature","geometry":{"type":"LineString","coordinates":[[8.63942,39.0],[8.63941,38.99942],[8.63922,38.99763]]},"properties":{}},{"type":"Feature","geometry":{"type":"LineString","coordinates":[[8.72594,39.0],[8.72648,38.99891],[8.72686,38.99866],[8.72722,38.99849],[8.72759,38.9984],[8.72822,38.9983],[8.72877,38.99839],[8.72913,38.99852],[8.72935,38.99869],[8.72983,38.99924],[8.73006,38.99937],[8.73034,38.99945],[8.73075,38.9995],[8.73116,38.99946],[8.73153,38.99927],[8.73182,38.99898],[8.73208,38.99857],[8.73227,38.99792],[8.73283,38.99745],[8.73291,38.99723],[8.73299,38.99665],[8.73294,38.99642],[8.73279,38.9962],[8.73251,38.99597],[8.73236,38.99578],[8.73231,38.99559],[8.73234,38.99537],[8.73297,38.99408],[8.73315,38.99393],[8.73345,38.99376],[8.73409,38.99349],[8.73427,38.99336],[8.73515,38.99206],[8.73535,38.99189],[8.73554,38.99182],[8.73605,38.99178],[8.73627,38.99171],[8.73713,38.99107],[8.73839,38.98994],[8.73877,38.98933],[8.73889,38.98904],[8.73895,38.98871],[8.73986,38.9813],[8.74006,38.98077],[8.74022,38.98044],[8.74088,38.97962],[8.74104,38.97929],[8.74116,38.97888],[8.74117,38.97841],[8.74107,38.97788],[8.74099,38.977],[8.74105,38.97664],[8.74114,38.97639],[8.74131,38.97618],[8.74165,38.97598],[8.74198,38.97589],[8.74227,38.97588],[8.74297,38.97604],[8.74348,38.97598],[8.74424,38.97545],[8.74459,38.97531],[8.74503,38.97522],[8.74583,38.97515],[8.74678,38.9753],[8.747,38.97528],[8.74722,38.97519],[8.7474,38.97505],[8.74747,38.97486],[8.74746,38.97467],[8.74737,38.97448],[8.74673,38.97397],[8.74659,38.97369],[8.74654,38.97331],[8.74652,38.97283],[8.74656,38.97228],[8.74665,38.97189],[8.74674,38.97064],[8.74675,38.96988],[8.74682,38.96958],[8.74709,38.96906],[8.74729,38.96883],[8.74781,38.96839],[8.74817,38.96819],[8.74884,38.96794],[8.74924,38.96784],[8.75,38.96772]]},"properties":{}},{"type":"Feature","geometry":{"type":"LineString","coordinates":[[8.60213,38.96894],[8.60704,38.97137],[8.61015,38.97397]]},"properties":{}},{"type":"Feature","geometry":{"type":"LineString","coordinates":[[8.61015,38.97397],[8.6104,38.97415]]},"properties":{}}]}