{"type":"FeatureCollection","features":[{"type":"Feature","geometry":{"type":"LineString","coordinates":[[8.54996,40.27729],[8.55002,40.27695]]},"properties":{}},{"type":"Feature","geometry":{"type":"LineString","coordinates":[[8.54996,40.27729],[8.55002,40.27722],[8.55012,40.27718]]},"properties":{}},{"type":"Feature","geometry":{"type":"LineString","coordinates":[[8.55012,40.27718],[8.55005,40.27734]]},"properties":{}},{"type":"Feature","geometry":{"type":"LineString","coordinates":[[8.68093,40.29144],[8.68174,40.29223],[8.68197,40.29232],[8.68258,40.29234],[8.68281,40.29238]]},"properties":{}},{"type":"Feature","geometry":{"type":"LineString","coordinates":[[8.67859,40.29233],[8.67882,40.29201]]},"properties":{}},{"type":"Feature","geometry":{"type":"LineString","coordinates":[[8.55031,40.27734],[8.55005,40.27734]]},"properties":{}},{"type":"Feature","geometry":{"type":"LineString","coordinates":[[8.54993,40.27748],[8.54996,40.27729]]},"properties":{}},{"type":"Feature","geometry":{"type":"LineString","coordinates":[[8.55005,40.27734],[8.54993,40.27748]]},"properties":{}},{"type":"Feature","geometry":{"type":"LineString","coordinates":[[8.55646,40.28199],[8.55669,40.28209]]},"properties":{}},{"type":"Feature","geometry":{"type":"LineString","coordinates":[[8.55671,40.28222],[8.55646,40.28199]]},"properties":{}},{"type":"Feature","geometry":{"type":"LineString","coordinates":[[8.55627,40.28232],[8.55646,40.28214],[8.55646,40.28199]]},"properties":{}},{"type":"Feature","geometry":{"type":"LineString","coordinates":[[8.55669,40.28209],[8.55673,40.28215],[8.55671,40.28222]]},"properties":{}},{"type":"Feature","geometry":{"type":"LineString","coordinates":[[8.55669,40.28209],[8.55712,40.28223]]},"properties":{}},{"type":"Feature","geometry":{"type":"LineString","coordinates":[[8.55231,40.28321],[8.55219,40.2831]]},"properties":{}},{"type":"Feature","geometry":{"type":"LineString","coordinates":[[8.55219,40.2831],[8.5526,40.28325]]},"properties":{}},{"type":"Feature","geometry":{"type":"LineString","coordinates":[[8.5526,40.28325],[8.55291,40.2833]]},"properties":{}},{"type":"Feature","geometry":{"type":"LineString","coordinates":[[8.55265,40.28338],[8.55231,40.28321]]},"properties":{}},{"type":"Feature","geometry":{"type":"LineString","coordinates":[[8.55338,40.28317],[8.55322,40.28328],[8.55316,40.28344]]},"properties":{}},{"type":"Feature","geometry":{"type":"LineString","coordinates":[[8.5526,40.28325],[8.55266,40.28332],[8.55265,40.28338]]},"properties":{}},{"type":"Feature","geometry":{"type":"LineString","coordinates":[[8.54501,40.28326],[8.54502,40.28339]]},"properties":{}},{"type":"Feature","geometry":{"type":"LineString","coordinates":[[8.55226,40.28349],[8.55234,40.28334],[8.55231,40.28321]]},"properties":{}},{"type":"Feature","geometry":{"type":"LineString","coordinates":[[8.55291,40.2833],[8.55309,40.28336],[8.55316,40.28344]]},"properties":{}},{"type":"Feature","geometry":{"type":"LineString","coordinates":[[8.54485,40.28352],[8.54501,40.28326]]},"properties":{}},{"type":"Feature","geometry":{"type":"LineString","coordinates":[[8.55305,40.2835],[8.55296,40.28343],[8.55291,40.2833]]},"properties":{}},{"type":"Feature","geometry":{"type":"LineString","coordinates":[[8.55305,40.2835],[8.55283,40.28344],[8.55251,40.28342]]},"properties":{}},{"type":"Feature","geometry":{"type":"LineString","coordinates":[[8.54502,40.28339],[8.54509,40.28346],[8.54536,40.28357]]},"properties":{}},{"type":"Feature","geometry":{"type":"LineString","coordinates":[[8.54502,40.28339],[8.54504,40.28358],[8.545,40.28362]]},"properties":{}},{"type":"Feature","geometry":{"type":"LineString","coordinates":[[8.55316,40.28344],[8.55324,40.28358]]},"properties":{}},{"type":"Feature","geometry":{"type":"LineString","coordinates":[[8.55324,40.28358],[8.55305,40.2835]]},"properties":{}},{"type":"Feature","geometry":{"type":"LineString","coordinates":[[8.545,40.28362],[8.54488,40.28362],[8.54484,40.28357],[8.54485,40.28352]]},"properties":{}},{"type":"Feature","geometry":{"type":"LineString","coordinates":[[8.54467,40.28385],[8.54485,40.28352]]},"properties":{}},{"type":"Feature","geometry":{"type":"LineString","coordinates":[[8.59344,40.28604],[8.59409,40.28614],[8.59435,40.28613],[8.59468,40.28606]]},"properties":{}},{"type":"Feature","geometry":{"type":"LineString","coordinates":[[8.61285,40.2885],[8.61126,40.28857],[8.61072,40.28855],[8.60977,40.28865]]},"properties":{}},{"type":"Feature","geometry":{"type":"LineString","coordinates":[[8.50104,40.29299],[8.5,40.29288]]},"properties":{}},{"type":"Feature","geometry":{"type":"LineString","coordinates":[[8.50331,40.29256],[8.50333,40.29286],[8.50329,40.29304],[8.50311,40.29316],[8.5028,40.29316],[8.50135,40.29302]]},"properties":{}},{"type":"Feature","geometry":{"type":"LineString","coordinates":[[8.5032,40.29315],[8.50339,40.29292]]},"properties":{}},{"type":"Feature","geometry":{"type":"LineString","coordinates":[[8.5032,40.29315],[8.50341,40.29315]]},"properties":{}},{"type":"Feature","geometry":{"type":"LineString","coordinates":[[8.50298,40.29322],[8.5032,40.29315]]},"properties":{}},{"type":"Feature","geometry":{"type":"LineString","coordinates":[[8.50341,40.29315],[8.50322,40.29325]]},"properties":{}},{"type":"Feature","geometry":{"type":"LineString","coordinates":[[8.50322,40.29325],[8.50298,40.29322]]},"properties":{}},{"type":"Feature","geometry":{"type":"LineString","coordinates":[[8.50343,40.29338],[8.50322,40.29325]]},"properties":{}},{"type":"Feature","geometry":{"type":"LineString","coordinates":[[8.50368,40.2949],[8.5037,40.2953]]},"properties":{}},{"type":"Feature","geometry":{"type":"LineString","coordinates":[[8.50591,40.29506],[8.5056,40.29505],[8.5037,40.2953]]},"properties":{}},{"type":"Feature","geometry":{"type":"LineString","coordinates":[[8.50556,40.29545],[8.50541,40.29544]]},"properties":{}},{"type":"Feature","geometry":{"type":"LineString","coordinates":[[8.73331,40.43574],[8.73432,40.42891],[8.7345,40.42811],[8.73473,40.42758],[8.73534,40.42675]]},"properties":{}},{"type":"Feature","geometry":{"type":"LineString","coordinates":[[8.73369,40.4341],[8.73333,40.43643]]},"properties":{}},{"type":"Feature","geometry":{"type":"LineString","coordinates":[[8.73039,40.43602],[8.73081,40.43577]]},"properties":{}},{"type":"Feature","geometry":{"type":"LineString","coordinates":[[8.73094,40.43588],[8.73039,40.43602]]},"properties":{}},{"type":"Feature","geometry":{"type":"LineString","coordinates":[[8.7322,40.43675],[8.73262,40.43677],[8.73293,40.43665],[8.73304,40.43653],[8.73312,40.43638],[8.73331,40.43574]]},"properties":{}},{"type":"Feature","geometry":{"type":"LineString","coordinates":[[8.73308,40.43705],[8.73331,40.43574]]},"properties":{}},{"type":"Feature","geometry":{"type":"LineString","coordinates":[[8.73333,40.43643],[8.73329,40.43671]]},"properties":{}},{"type":"Feature","geometry":{"type":"LineString","coordinates":[[8.7319,40.43657],[8.7322,40.43675]]},"properties":{}},{"type":"Feature","geometry":{"type":"LineString","coordinates":[[8.73227,40.43692],[8.7319,40.43657]]},"properties":{}},{"type":"Feature","geometry":{"type":"LineString","coordinates":[[8.7322,40.43675],[8.73237,40.43683],[8.73283,40.43695],[8.73308,40.43705]]},"properties":{}},{"type":"Feature","geometry":{"type":"LineString","coordinates":[[8.50004,40.29568],[8.5,40.29558]]},"properties":{}},{"type":"Feature","geometry":{"type":"LineString","coordinates":[[8.50011,40.29584],[8.50004,40.29568]]},"properties":{}},{"type":"Feature","geometry":{"type":"LineString","coordinates":[[8.50024,40.29616],[8.50011,40.29584]]},"properties":{}},{"type":"Feature","geometry":{"type":"LineString","coordinates":[[8.50541,40.29544],[8.5047,40.2954],[8.50325,40.29567],[8.50277,40.29585],[8.50253,40.29607],[8.50217,40.2968],[8.5021,40.29702],[8.50214,40.29704],[8.50217,40.29714],[8.50221,40.29716],[8.50223,40.29727],[8.50211,40.29734],[8.50198,40.29734]]},"properties":{}},{"type":"Feature","geometry":{"type":"LineString","coordinates":[[8.67776,40.29256],[8.67801,40.29247],[8.67829,40.29245],[8.67848,40.2924],[8.67859,40.29233]]},"properties":{}},{"type":"Feature","geometry":{"type":"LineString","coordinates":[[8.73542,40.42678],[8.73484,40.4276],[8.7346,40.42812],[8.73441,40.42892],[8.73369,40.4341]]},"properties":{}},{"type":"Feature","geometry":{"type":"LineString","coordinates":[[8.73306,40.43718],[8.73282,40.43723],[8.73268,40.43719],[8.73227,40.43692]]},"properties":{}},{"type":"Feature","geometry":{"type":"LineString","coordinates":[[8.73306,40.43718],[8.73308,40.43705]]},"properties":{}},{"type":"Feature","geometry":{"type":"LineString","coordinates":[[8.73329,40.43671],[8.73312,40.43762]]},"properties":{}},{"type":"Feature","geometry":{"type":"LineString","coordinates":[[8.73275,40.43841],[8.73285,40.4378],[8.73286,40.43755],[8.73279,40.43743],[8.73227,40.43692]]},"properties":{}},{"type":"Feature","geometry":{"type":"LineString","coordinates":[[8.73312,40.43762],[8.73305,40.4379]]},"properties":{}},{"type":"Feature","geometry":{"type":"LineString","coordinates":[[8.73275,40.43841],[8.73299,40.43758],[8.73306,40.43718]]},"properties":{}}]}