{"type":"FeatureCollection","features":[{"type":"Feature","geometry":{"type":"LineString","coordinates":[[8.71978,44.50017],[8.72008,44.5]]},"properties":{}},{"type":"Feature","geometry":{"type":"LineString","coordinates":[[8.71836,44.50101],[8.71978,44.50017]]},"properties":{}},{"type":"Feature","geometry":{"type":"LineString","coordinates":[[8.71791,44.50127],[8.71836,44.50101]]},"properties":{}},{"type":"Feature","geometry":{"type":"LineString","coordinates":[[8.71768,44.5014],[8.71791,44.50127]]},"properties":{}},{"type":"Feature","geometry":{"type":"LineString","coordinates":[[8.71669,44.50173],[8.71724,44.50159],[8.71768,44.5014]]},"properties":{}},{"type":"Feature","geometry":{"type":"LineString","coordinates":[[8.71335,44.50366],[8.71336,44.50356],[8.7134,44.50351],[8.71424,44.50286],[8.71607,44.50191],[8.71669,44.50173]]},"properties":{}},{"type":"Feature","geometry":{"type":"LineString","coordinates":[[8.72253,44.50466],[8.72227,44.50477],[8.72189,44.50484],[8.72159,44.50484],[8.72138,44.50481],[8.72122,44.50474],[8.72108,44.50463],[8.72098,44.50451],[8.72064,44.50393],[8.71986,44.50323],[8.71838,44.50259],[8.71756,44.50216],[8.7167,44.5018],[8.71669,44.50173]]},"properties":{}},{"type":"Feature","geometry":{"type":"LineString","coordinates":[[8.73459,44.50494],[8.73392,44.50468],[8.73335,44.50456],[8.73237,44.50445],[8.731,44.50448],[8.73062,44.50444],[8.72955,44.50386],[8.72887,44.50357],[8.72836,44.50343],[8.72805,44.50341],[8.72757,44.50322],[8.7273,44.50317],[8.72669,44.50315],[8.72645,44.50316],[8.72593,44.50342],[8.72253,44.50466]]},"properties":{}},{"type":"Feature","geometry":{"type":"LineString","coordinates":[[8.73099,44.50441],[8.73099,44.50422]]},"properties":{}},{"type":"Feature","geometry":{"type":"LineString","coordinates":[[8.73468,44.50488],[8.73459,44.50494]]},"properties":{}},{"type":"Feature","geometry":{"type":"LineString","coordinates":[[8.70544,44.50677],[8.70586,44.50616],[8.70618,44.50582],[8.70649,44.50555],[8.70701,44.50524],[8.70739,44.50512],[8.70757,44.50511],[8.70801,44.50515],[8.70969,44.50576],[8.70993,44.50588],[8.71075,44.50651],[8.7117,44.50702],[8.71202,44.50711],[8.71239,44.50707],[8.71379,44.50633],[8.71398,44.50612],[8.71428,44.50557],[8.71432,44.50539],[8.71427,44.50521],[8.71401,44.50475],[8.71339,44.5038],[8.71335,44.50366]]},"properties":{}},{"type":"Feature","geometry":{"type":"LineString","coordinates":[[8.70544,44.50677],[8.70544,44.50689]]},"properties":{}},{"type":"Feature","geometry":{"type":"LineString","coordinates":[[8.70544,44.50689],[8.7054,44.50695]]},"properties":{}},{"type":"Feature","geometry":{"type":"LineString","coordinates":[[8.7054,44.50695],[8.70531,44.50704]]},"properties":{}},{"type":"Feature","geometry":{"type":"LineString","coordinates":[[8.70143,44.52916],[8.70094,44.52889],[8.7007,44.52867],[8.70064,44.52857],[8.70036,44.52679],[8.70036,44.52659],[8.70042,44.52641],[8.70058,44.52619],[8.70086,44.52593],[8.70142,44.52549],[8.7016,44.52541],[8.70186,44.52534],[8.70204,44.52533],[8.70278,44.52537],[8.70312,44.52528],[8.70339,44.52506],[8.70345,44.52497],[8.70347,44.52468],[8.70339,44.52449],[8.70112,44.52198],[8.7009,44.52165],[8.70079,44.52089],[8.70072,44.52071],[8.70022,44.52006],[8.70012,44.51987],[8.69978,44.51813],[8.69968,44.51751],[8.69969,44.5174]]},"properties":{}},{"type":"Feature","geometry":{"type":"LineString","coordinates":[[8.7022,44.52959],[8.70143,44.52916]]},"properties":{}},{"type":"Feature","geometry":{"type":"LineString","coordinates":[[8.70164,44.53103],[8.70218,44.5304],[8.70233,44.53014],[8.70233,44.52981],[8.7022,44.52959]]},"properties":{}},{"type":"Feature","geometry":{"type":"LineString","coordinates":[[8.70125,44.53151],[8.70164,44.53103]]},"properties":{}},{"type":"Feature","geometry":{"type":"LineString","coordinates":[[8.70123,44.53155],[8.70125,44.53151]]},"properties":{}},{"type":"Feature","geometry":{"type":"LineString","coordinates":[[8.54395,44.5],[8.54431,44.50006],[8.54446,44.50005],[8.54455,44.5]]},"properties":{}},{"type":"Feature","geometry":{"type":"LineString","coordinates":[[8.69908,44.53405],[8.7002,44.5331],[8.7008,44.53274],[8.70095,44.53259],[8.70111,44.53232],[8.70116,44.53184],[8.70123,44.53155]]},"properties":{}},{"type":"Feature","geometry":{"type":"LineString","coordinates":[[8.69906,44.53582],[8.69907,44.53566],[8.69917,44.53565],[8.69919,44.53582],[8.69912,44.53585],[8.69906,44.53582]]},"properties":{}},{"type":"Feature","geometry":{"type":"LineString","coordinates":[[8.70226,44.53578],[8.702,44.53563],[8.70234,44.53536],[8.70234,44.53531],[8.70216,44.53514],[8.70199,44.53513],[8.70157,44.53535],[8.70103,44.53572],[8.70087,44.53589],[8.70056,44.5361],[8.6996,44.53646]]},"properties":{}},{"type":"Feature","geometry":{"type":"LineString","coordinates":[[8.69957,44.53638],[8.69929,44.53593],[8.69917,44.53584]]},"properties":{}},{"type":"Feature","geometry":{"type":"LineString","coordinates":[[8.6996,44.53646],[8.69957,44.53638]]},"properties":{}},{"type":"Feature","geometry":{"type":"LineString","coordinates":[[8.64843,44.63721],[8.64853,44.63736]]},"properties":{}},{"type":"Feature","geometry":{"type":"LineString","coordinates":[[8.6485,44.6374],[8.64843,44.63721]]},"properties":{}},{"type":"Feature","geometry":{"type":"LineString","coordinates":[[8.64853,44.63736],[8.64859,44.63745]]},"properties":{}},{"type":"Feature","geometry":{"type":"LineString","coordinates":[[8.64849,44.63746],[8.6485,44.6374]]},"properties":{}},{"type":"Feature","geometry":{"type":"LineString","coordinates":[[8.64849,44.63746],[8.64859,44.63745]]},"properties":{}},{"type":"Feature","geometry":{"type":"LineString","coordinates":[[8.69969,44.5174],[8.6999,44.51682],[8.70024,44.51612],[8.70037,44.51575],[8.7005,44.5149],[8.70088,44.51342],[8.70106,44.51292],[8.7013,44.51259],[8.70334,44.51056],[8.7036,44.51027],[8.70428,44.50939],[8.70454,44.50899],[8.70467,44.50874],[8.70531,44.50704]]},"properties":{}},{"type":"Feature","geometry":{"type":"LineString","coordinates":[[8.73419,44.54278],[8.73395,44.54274],[8.73351,44.54256],[8.73321,44.54264],[8.73311,44.54259],[8.73307,44.54232],[8.73294,44.5421],[8.7327,44.54198],[8.73265,44.54183],[8.73265,44.54175],[8.73279,44.54162],[8.73286,44.54152],[8.73287,44.54145],[8.73282,44.54141],[8.73249,44.54133],[8.7323,44.54123],[8.73225,44.54114],[8.7323,44.5409],[8.73226,44.54078],[8.73231,44.54037],[8.73228,44.54024],[8.7322,44.54016],[8.73196,44.54002],[8.73195,44.53979],[8.7318,44.53947],[8.73181,44.53928],[8.73177,44.53923],[8.73165,44.53921],[8.73104,44.53936],[8.7309,44.53933],[8.73061,44.53917],[8.73019,44.5391],[8.72985,44.53911],[8.72964,44.53904],[8.72944,44.53893],[8.72934,44.53884],[8.72915,44.53832],[8.72892,44.53797],[8.72897,44.53765],[8.72905,44.53739],[8.72907,44.53724],[8.72899,44.53709],[8.7285,44.53658],[8.72837,44.53652],[8.72824,44.53651],[8.72805,44.53656],[8.72778,44.5367],[8.72766,44.53672],[8.72742,44.5367],[8.7273,44.53666],[8.72714,44.53653],[8.72699,44.53635],[8.72693,44.53618],[8.72694,44.53607],[8.7272,44.53589],[8.72724,44.5358],[8.72703,44.53549],[8.72699,44.53483],[8.72708,44.53461],[8.72756,44.53411],[8.72762,44.53396],[8.72754,44.53352],[8.72754,44.53287],[8.72752,44.53278],[8.72739,44.53275],[8.72692,44.53282],[8.72681,44.53281],[8.72659,44.53267],[8.72642,44.53251],[8.72588,44.53219],[8.72538,44.53159],[8.72531,44.53153],[8.72519,44.53151],[8.72489,44.53158],[8.72457,44.53157],[8.72441,44.53161],[8.72407,44.53175],[8.72362,44.53182],[8.72356,44.53185],[8.72327,44.53219],[8.72308,44.53216],[8.72287,44.53197],[8.72276,44.53176],[8.72269,44.53103],[8.72273,44.53088],[8.72293,44.5306],[8.72306,44.52989],[8.72305,44.52976],[8.72301,44.5297],[8.72283,44.52962],[8.7225,44.5296],[8.72241,44.52952],[8.7223,44.52929],[8.72201,44.52903],[8.72124,44.5287],[8.72122,44.52844],[8.72134,44.52781],[8.72133,44.52773],[8.72127,44.52766],[8.72116,44.52761],[8.72068,44.52754],[8.72017,44.5274],[8.71941,44.52708],[8.71925,44.52697],[8.71918,44.52662],[8.71907,44.52654],[8.71841,44.52638],[8.71825,44.52629],[8.71791,44.52591],[8.71782,44.52584],[8.71774,44.52582],[8.71766,44.52585],[8.71755,44.52605],[8.71735,44.52613],[8.71713,44.52611],[8.71641,44.5259],[8.71636,44.52586],[8.71638,44.52579],[8.71649,44.52558],[8.71645,44.52515],[8.71653,44.52476],[8.71664,44.52439],[8.71664,44.52425],[8.71661,44.52413],[8.71654,44.52405],[8.71619,44.52382],[8.71587,44.52377],[8.71561,44.52378],[8.71547,44.52383],[8.71521,44.52402],[8.71507,44.52407],[8.71372,44.52435],[8.71348,44.52451],[8.71342,44.52458],[8.71327,44.52495],[8.71322,44.52499],[8.71315,44.525],[8.71276,44.52483],[8.71233,44.52475],[8.71221,44.52479],[8.71217,44.52485],[8.71221,44.52515],[8.71213,44.52527],[8.71196,44.52532],[8.71148,44.52533],[8.71137,44.52537],[8.71107,44.52563],[8.71075,44.52581],[8.71061,44.526],[8.71059,44.52612],[8.71063,44.52654],[8.71057,44.52663],[8.71011,44.52681],[8.70985,44.52706],[8.70957,44.5272],[8.70953,44.52727],[8.70958,44.52777],[8.70947,44.52805],[8.7095,44.52842],[8.70955,44.5285],[8.71004,44.52874],[8.71009,44.52883],[8.70999,44.52895],[8.70965,44.52902],[8.70925,44.52917],[8.70918,44.52931],[8.70926,44.52941],[8.70961,44.52952],[8.70984,44.52963],[8.71002,44.52976],[8.71006,44.52989],[8.71004,44.52994],[8.70988,44.52999],[8.70949,44.52986],[8.70918,44.52984],[8.70897,44.52985],[8.70869,44.53],[8.70865,44.53003],[8.70867,44.53051],[8.70861,44.53061],[8.70844,44.53077],[8.70836,44.53099],[8.70812,44.53128],[8.70799,44.53162],[8.70764,44.53188],[8.70751,44.53194],[8.70735,44.532],[8.70694,44.53202],[8.70682,44.53207],[8.70663,44.53226],[8.70658,44.53238],[8.70664,44.53249],[8.70736,44.53283],[8.70735,44.5329],[8.70698,44.53316],[8.70689,44.5333],[8.70694,44.53338],[8.7072,44.53346],[8.70725,44.53349],[8.70726,44.53354],[8.7072,44.53359],[8.70694,44.53363],[8.70655,44.53386],[8.70582,44.53413]]},"properties":{}},{"type":"Feature","geometry":{"type":"LineString","coordinates":[[8.70226,44.53578],[8.70269,44.53522],[8.70315,44.53486],[8.70433,44.53422],[8.70464,44.53417],[8.70554,44.53419],[8.70582,44.53413]]},"properties":{}},{"type":"Feature","geometry":{"type":"LineString","coordinates":[[8.75,44.5456],[8.7499,44.54557],[8.74959,44.54557],[8.7484,44.54568],[8.74827,44.5456],[8.74801,44.54536],[8.74775,44.54531],[8.74731,44.5453],[8.74727,44.54527],[8.74717,44.54508],[8.74695,44.5449],[8.74639,44.54478],[8.74631,44.54451],[8.74623,44.54447],[8.74583,44.54452],[8.74539,44.54473],[8.74478,44.54481],[8.74461,44.5448],[8.74452,44.54474],[8.74433,44.54449],[8.74414,44.54434],[8.74372,44.54419],[8.7423,44.54411],[8.74221,44.54406],[8.74212,44.5439],[8.74197,44.54374],[8.74143,44.54346],[8.74086,44.54308],[8.74052,44.54294],[8.74031,44.54276],[8.73981,44.54267],[8.73955,44.54257],[8.73936,44.54231],[8.73928,44.54226],[8.73898,44.54224],[8.73845,44.54209],[8.73814,44.54209],[8.73747,44.54186],[8.73736,44.54187],[8.73686,44.54204],[8.73598,44.54227],[8.73564,44.54254],[8.73521,44.54281],[8.73445,44.54283],[8.73419,44.54278]]},"properties":{}},{"type":"Feature","geometry":{"type":"LineString","coordinates":[[8.64847,44.63747],[8.64849,44.63746]]},"properties":{}},{"type":"Feature","geometry":{"type":"LineString","coordinates":[[8.64821,44.63755],[8.64847,44.63747]]},"properties":{}},{"type":"Feature","geometry":{"type":"LineString","coordinates":[[8.64859,44.63745],[8.64866,44.63751],[8.64863,44.63759]]},"properties":{}},{"type":"Feature","geometry":{"type":"LineString","coordinates":[[8.64863,44.63759],[8.64855,44.63761],[8.64847,44.63758],[8.64844,44.63752],[8.64847,44.63747]]},"properties":{}},{"type":"Feature","geometry":{"type":"LineString","coordinates":[[8.64847,44.63758],[8.64821,44.63755]]},"properties":{}},{"type":"Feature","geometry":{"type":"LineString","coordinates":[[8.65068,44.63744],[8.65078,44.63746],[8.65087,44.63751],[8.65088,44.6376],[8.65083,44.63767],[8.65066,44.6377],[8.65053,44.63761],[8.65055,44.6375],[8.65068,44.63744]]},"properties":{}},{"type":"Feature","geometry":{"type":"LineString","coordinates":[[8.64865,44.63758],[8.64875,44.63778]]},"properties":{}},{"type":"Feature","geometry":{"type":"LineString","coordinates":[[8.64875,44.63778],[8.64853,44.63761]]},"properties":{}},{"type":"Feature","geometry":{"type":"LineString","coordinates":[[8.6441,44.6375],[8.64394,44.63757],[8.6439,44.6384],[8.64387,44.63845],[8.64374,44.63849]]},"properties":{}},{"type":"Feature","geometry":{"type":"LineString","coordinates":[[8.6437,44.63836],[8.64375,44.63846],[8.64372,44.63853],[8.64365,44.63858],[8.64348,44.63859],[8.64335,44.63849],[8.64337,44.63839],[8.64346,44.63832],[8.64361,44.63831],[8.6437,44.63836]]},"properties":{}},{"type":"Feature","geometry":{"type":"LineString","coordinates":[[8.64613,44.63913],[8.64614,44.63903],[8.64676,44.6386],[8.64709,44.63846],[8.64745,44.63838]]},"properties":{}},{"type":"Feature","geometry":{"type":"LineString","coordinates":[[8.64967,44.63883],[8.64985,44.63897]]},"properties":{}},{"type":"Feature","geometry":{"type":"LineString","coordinates":[[8.64976,44.63902],[8.64967,44.63883]]},"properties":{}},{"type":"Feature","geometry":{"type":"LineString","coordinates":[[8.64993,44.63898],[8.65001,44.63905],[8.64996,44.63914],[8.64984,44.63916],[8.64975,44.63911],[8.64974,44.63905],[8.64978,44.639],[8.64993,44.63898]]},"properties":{}},{"type":"Feature","geometry":{"type":"LineString","coordinates":[[8.64963,44.63916],[8.64974,44.63905]]},"properties":{}},{"type":"Feature","geometry":{"type":"LineString","coordinates":[[8.6498,44.63915],[8.64963,44.63916]]},"properties":{}},{"type":"Feature","geometry":{"type":"LineString","coordinates":[[8.64993,44.63916],[8.64983,44.63937]]},"properties":{}},{"type":"Feature","geometry":{"type":"LineString","coordinates":[[8.64983,44.63937],[8.64984,44.63916]]},"properties":{}},{"type":"Feature","geometry":{"type":"LineString","coordinates":[[8.64613,44.63913],[8.64661,44.63943],[8.64701,44.64018]]},"properties":{}},{"type":"Feature","geometry":{"type":"LineString","coordinates":[[8.64747,44.64016],[8.64862,44.64024]]},"properties":{}},{"type":"Feature","geometry":{"type":"LineString","coordinates":[[8.50348,44.68187],[8.50364,44.6818],[8.50384,44.68182]]},"properties":{}},{"type":"Feature","geometry":{"type":"LineString","coordinates":[[8.50304,44.68185],[8.50348,44.68187]]},"properties":{}},{"type":"Feature","geometry":{"type":"LineString","coordinates":[[8.50384,44.68182],[8.504,44.68192]]},"properties":{}},{"type":"Feature","geometry":{"type":"LineString","coordinates":[[8.50339,44.68207],[8.50304,44.68185]]},"properties":{}},{"type":"Feature","geometry":{"type":"LineString","coordinates":[[8.504,44.68192],[8.50404,44.682]]},"properties":{}},{"type":"Feature","geometry":{"type":"LineString","coordinates":[[8.50339,44.68207],[8.50341,44.68195],[8.50348,44.68187]]},"properties":{}},{"type":"Feature","geometry":{"type":"LineString","coordinates":[[8.50404,44.682],[8.50403,44.6821],[8.50397,44.68218]]},"properties":{}},{"type":"Feature","geometry":{"type":"LineString","coordinates":[[8.50404,44.682],[8.50433,44.68219]]},"properties":{}},{"type":"Feature","geometry":{"type":"LineString","coordinates":[[8.50397,44.68218],[8.5038,44.68225],[8.50362,44.68225],[8.50348,44.68219],[8.50339,44.68207]]},"properties":{}},{"type":"Feature","geometry":{"type":"LineString","coordinates":[[8.50433,44.68219],[8.50397,44.68218]]},"properties":{}},{"type":"Feature","geometry":{"type":"LineString","coordinates":[[8.51187,44.68361],[8.51196,44.68349],[8.51204,44.68345],[8.51223,44.68341],[8.51242,44.68346],[8.51257,44.6836]]},"properties":{}},{"type":"Feature","geometry":{"type":"LineString","coordinates":[[8.51257,44.6836],[8.51288,44.68371]]},"properties":{}},{"type":"Feature","geometry":{"type":"LineString","coordinates":[[8.51157,44.68371],[8.51187,44.68361]]},"properties":{}},{"type":"Feature","geometry":{"type":"LineString","coordinates":[[8.51188,44.68377],[8.51187,44.68361]]},"properties":{}},{"type":"Feature","geometry":{"type":"LineString","coordinates":[[8.51257,44.6836],[8.51258,44.68368],[8.51255,44.68379]]},"properties":{}},{"type":"Feature","geometry":{"type":"LineString","coordinates":[[8.51188,44.68377],[8.51157,44.68371]]},"properties":{}},{"type":"Feature","geometry":{"type":"LineString","coordinates":[[8.51288,44.68371],[8.51255,44.68379]]},"properties":{}},{"type":"Feature","geometry":{"type":"LineString","coordinates":[[8.51207,44.68391],[8.51196,44.68385],[8.51188,44.68377]]},"properties":{}},{"type":"Feature","geometry":{"type":"LineString","coordinates":[[8.51255,44.68379],[8.51233,44.68392]]},"properties":{}},{"type":"Feature","geometry":{"type":"LineString","coordinates":[[8.51233,44.68392],[8.51207,44.68391]]},"properties":{}},{"type":"Feature","geometry":{"type":"LineString","coordinates":[[8.51222,44.68409],[8.51207,44.68391]]},"properties":{}},{"type":"Feature","geometry":{"type":"LineString","coordinates":[[8.51233,44.68392],[8.51222,44.68409]]},"properties":{}},{"type":"Feature","geometry":{"type":"LineString","coordinates":[[8.53489,44.70128],[8.53501,44.7012],[8.53522,44.70114],[8.53539,44.70115],[8.53558,44.70122]]},"properties":{}},{"type":"Feature","geometry":{"type":"LineString","coordinates":[[8.64743,44.64045],[8.64725,44.64052]]},"properties":{}},{"type":"Feature","geometry":{"type":"LineString","coordinates":[[8.68639,44.72348],[8.68633,44.72342],[8.68636,44.72335],[8.68647,44.72333],[8.68654,44.72338],[8.68653,44.72346],[8.68639,44.72348]]},"properties":{}},{"type":"Feature","geometry":{"type":"LineString","coordinates":[[8.6194,44.73115],[8.61953,44.73123],[8.61988,44.73134],[8.61996,44.7314],[8.61995,44.73155],[8.61975,44.73217],[8.61977,44.73226]]},"properties":{}},{"type":"Feature","geometry":{"type":"LineString","coordinates":[[8.64843,44.74722],[8.6486,44.74749]]},"properties":{}},{"type":"Feature","geometry":{"type":"LineString","coordinates":[[8.6484,44.74749],[8.64843,44.74722]]},"properties":{}},{"type":"Feature","geometry":{"type":"LineString","coordinates":[[8.64845,44.74748],[8.64855,44.74748],[8.64865,44.74752],[8.6487,44.7476],[8.64868,44.74769],[8.6486,44.74774],[8.64849,44.74776],[8.64833,44.74769],[8.64831,44.74757],[8.64845,44.74748]]},"properties":{}},{"type":"Feature","geometry":{"type":"LineString","coordinates":[[8.64832,44.74802],[8.64837,44.74773]]},"properties":{}},{"type":"Feature","geometry":{"type":"LineString","coordinates":[[8.64855,44.74776],[8.64832,44.74802]]},"properties":{}},{"type":"Feature","geometry":{"type":"LineString","coordinates":[[8.64978,44.74792],[8.64981,44.7479],[8.64997,44.74791]]},"properties":{}},{"type":"Feature","geometry":{"type":"LineString","coordinates":[[8.64997,44.74791],[8.64976,44.74798]]},"properties":{}},{"type":"Feature","geometry":{"type":"LineString","coordinates":[[8.53558,44.70122],[8.53568,44.70129],[8.53575,44.70139]]},"properties":{}},{"type":"Feature","geometry":{"type":"LineString","coordinates":[[8.53481,44.70139],[8.53489,44.70128]]},"properties":{}},{"type":"Feature","geometry":{"type":"LineString","coordinates":[[8.53448,44.70149],[8.53481,44.70139]]},"properties":{}},{"type":"Feature","geometry":{"type":"LineString","coordinates":[[8.53575,44.70139],[8.53604,44.70151]]},"properties":{}},{"type":"Feature","geometry":{"type":"LineString","coordinates":[[8.53575,44.70139],[8.53577,44.7015],[8.53574,44.70161]]},"properties":{}},{"type":"Feature","geometry":{"type":"LineString","coordinates":[[8.53482,44.70161],[8.53479,44.70149],[8.53481,44.70139]]},"properties":{}},{"type":"Feature","geometry":{"type":"LineString","coordinates":[[8.53482,44.70161],[8.53448,44.70149]]},"properties":{}},{"type":"Feature","geometry":{"type":"LineString","coordinates":[[8.53604,44.70151],[8.53574,44.70161]]},"properties":{}},{"type":"Feature","geometry":{"type":"LineString","coordinates":[[8.53574,44.70161],[8.53562,44.70174]]},"properties":{}},{"type":"Feature","geometry":{"type":"LineString","coordinates":[[8.53504,44.70179],[8.53488,44.70169],[8.53482,44.70161]]},"properties":{}},{"type":"Feature","geometry":{"type":"LineString","coordinates":[[8.53562,44.70174],[8.53537,44.70183],[8.53504,44.70179]]},"properties":{}},{"type":"Feature","geometry":{"type":"LineString","coordinates":[[8.54442,44.70374],[8.54453,44.70394]]},"properties":{}},{"type":"Feature","geometry":{"type":"LineString","coordinates":[[8.5444,44.70396],[8.54442,44.70374]]},"properties":{}},{"type":"Feature","geometry":{"type":"LineString","coordinates":[[8.5444,44.70396],[8.54453,44.70394]]},"properties":{}},{"type":"Feature","geometry":{"type":"LineString","coordinates":[[8.54435,44.70399],[8.5444,44.70396]]},"properties":{}},{"type":"Feature","geometry":{"type":"LineString","coordinates":[[8.54453,44.70394],[8.54461,44.70397],[8.54465,44.70403]]},"properties":{}},{"type":"Feature","geometry":{"type":"LineString","coordinates":[[8.54397,44.70401],[8.54415,44.70403],[8.54435,44.70399]]},"properties":{}},{"type":"Feature","geometry":{"type":"LineString","coordinates":[[8.54434,44.7041],[8.54435,44.70399]]},"properties":{}},{"type":"Feature","geometry":{"type":"LineString","coordinates":[[8.54434,44.7041],[8.54397,44.70401]]},"properties":{}},{"type":"Feature","geometry":{"type":"LineString","coordinates":[[8.54465,44.70403],[8.5449,44.70414]]},"properties":{}},{"type":"Feature","geometry":{"type":"LineString","coordinates":[[8.54465,44.70403],[8.54461,44.70414]]},"properties":{}},{"type":"Feature","geometry":{"type":"LineString","coordinates":[[8.5449,44.70414],[8.54461,44.70414]]},"properties":{}},{"type":"Feature","geometry":{"type":"LineString","coordinates":[[8.54442,44.70417],[8.54434,44.7041]]},"properties":{}},{"type":"Feature","geometry":{"type":"LineString","coordinates":[[8.54461,44.70414],[8.54456,44.70417]]},"properties":{}},{"type":"Feature","geometry":{"type":"LineString","coordinates":[[8.54456,44.70417],[8.54442,44.70417]]},"properties":{}},{"type":"Feature","geometry":{"type":"LineString","coordinates":[[8.53063,44.71598],[8.5308,44.7159],[8.53088,44.7158]]},"properties":{}},{"type":"Feature","geometry":{"type":"LineString","coordinates":[[8.53088,44.7158],[8.53086,44.71592],[8.53091,44.71603]]},"properties":{}},{"type":"Feature","geometry":{"type":"LineString","coordinates":[[8.53007,44.716],[8.53023,44.71605],[8.53043,44.71605]]},"properties":{}},{"type":"Feature","geometry":{"type":"LineString","coordinates":[[8.5303,44.71624],[8.53025,44.71614],[8.53007,44.716]]},"properties":{}},{"type":"Feature","geometry":{"type":"LineString","coordinates":[[8.53083,44.7165],[8.5306,44.71651],[8.53038,44.71642],[8.53032,44.71634],[8.5303,44.71624],[8.53033,44.71615],[8.53043,44.71605],[8.53063,44.71598],[8.53076,44.71598],[8.53098,44.71607],[8.53104,44.71614],[8.53106,44.71631],[8.53094,44.71646],[8.53083,44.7165]]},"properties":{}},{"type":"Feature","geometry":{"type":"LineString","coordinates":[[8.53101,44.71639],[8.53101,44.71645],[8.53108,44.71653]]},"properties":{}},{"type":"Feature","geometry":{"type":"LineString","coordinates":[[8.53108,44.71653],[8.53095,44.71649],[8.53083,44.7165]]},"properties":{}},{"type":"Feature","geometry":{"type":"LineString","coordinates":[[8.53061,44.71672],[8.53058,44.71657],[8.53048,44.71648]]},"properties":{}},{"type":"Feature","geometry":{"type":"LineString","coordinates":[[8.53078,44.71651],[8.53069,44.71657],[8.53061,44.71672]]},"properties":{}}]}