{"type":"FeatureCollection","features":[{"type":"Feature","geometry":{"type":"LineString","coordinates":[[8.82927,38.89123],[8.82957,38.89144],[8.83003,38.89164],[8.83014,38.89189],[8.83005,38.89198],[8.82984,38.89203],[8.82924,38.89203],[8.82886,38.89218],[8.82782,38.89218]]},"properties":{}},{"type":"Feature","geometry":{"type":"LineString","coordinates":[[8.82836,38.8918],[8.82881,38.89173],[8.82907,38.89162],[8.82917,38.89162],[8.82923,38.89169],[8.82916,38.89206]]},"properties":{}},{"type":"Feature","geometry":{"type":"LineString","coordinates":[[8.8442,38.89196],[8.84302,38.89184]]},"properties":{}},{"type":"Feature","geometry":{"type":"LineString","coordinates":[[8.82784,38.89098],[8.82783,38.89267],[8.82766,38.89287]]},"properties":{}},{"type":"Feature","geometry":{"type":"LineString","coordinates":[[8.84434,38.89198],[8.8442,38.89196]]},"properties":{}},{"type":"Feature","geometry":{"type":"LineString","coordinates":[[8.84302,38.89184],[8.84154,38.89204],[8.84104,38.89214],[8.8408,38.89226],[8.84061,38.89243],[8.83995,38.89313],[8.83979,38.89324],[8.8396,38.89329],[8.83931,38.89328],[8.8383,38.89313],[8.83799,38.89304],[8.83699,38.89253],[8.83614,38.89221],[8.83553,38.89204],[8.83348,38.89171],[8.83317,38.89171],[8.83298,38.8918],[8.83286,38.89189],[8.83265,38.89222],[8.8325,38.89236],[8.83234,38.89245],[8.82915,38.89267],[8.82801,38.89278],[8.82766,38.89287]]},"properties":{}},{"type":"Feature","geometry":{"type":"LineString","coordinates":[[8.86734,38.8947],[8.8636,38.89405],[8.85991,38.89362],[8.84434,38.89198]]},"properties":{}},{"type":"Feature","geometry":{"type":"LineString","coordinates":[[8.82766,38.89287],[8.82614,38.89333],[8.8253,38.89366],[8.82475,38.89375],[8.82375,38.89374],[8.82347,38.89376],[8.82319,38.89382],[8.82227,38.89421],[8.82155,38.89455],[8.82102,38.89472],[8.82043,38.89484],[8.8193,38.89498],[8.81869,38.89509],[8.81693,38.89553],[8.81651,38.89571],[8.81625,38.89589],[8.81561,38.89651],[8.81542,38.89679],[8.8154,38.89705],[8.81495,38.89921],[8.81482,38.89945],[8.81443,38.89995]]},"properties":{}},{"type":"Feature","geometry":{"type":"LineString","coordinates":[[8.81443,38.89995],[8.81416,38.90039],[8.81399,38.90075]]},"properties":{}},{"type":"Feature","geometry":{"type":"LineString","coordinates":[[8.81399,38.90075],[8.81365,38.90287],[8.81347,38.90326],[8.81299,38.90407],[8.81292,38.90429]]},"properties":{}},{"type":"Feature","geometry":{"type":"LineString","coordinates":[[8.87648,38.89454],[8.87618,38.89451],[8.87584,38.89453],[8.87548,38.89463],[8.87523,38.89503],[8.87501,38.89517],[8.8743,38.89512],[8.87397,38.89514],[8.87359,38.89528],[8.87311,38.89531],[8.87261,38.89525],[8.872,38.89527],[8.87182,38.89536],[8.87171,38.89553],[8.87175,38.89637],[8.8717,38.89654],[8.87142,38.89687],[8.87122,38.89696],[8.87098,38.89701]]},"properties":{}},{"type":"Feature","geometry":{"type":"LineString","coordinates":[[8.8827,38.9027],[8.8826,38.90221],[8.88258,38.90167],[8.8826,38.9011],[8.88252,38.90003],[8.88254,38.8999],[8.8827,38.89959],[8.88336,38.8987],[8.88389,38.89811],[8.88468,38.89738]]},"properties":{}},{"type":"Feature","geometry":{"type":"LineString","coordinates":[[8.87111,38.89711],[8.87111,38.8976],[8.87127,38.89866],[8.87124,38.89907],[8.87116,38.89937],[8.871,38.89966],[8.87067,38.89992],[8.87023,38.90037],[8.87013,38.90066],[8.86985,38.90219],[8.86977,38.90265],[8.86977,38.90311],[8.86998,38.90351],[8.87067,38.90435],[8.87113,38.90519],[8.87156,38.90634]]},"properties":{}},{"type":"Feature","geometry":{"type":"LineString","coordinates":[[8.88256,38.90283],[8.8827,38.9027]]},"properties":{}},{"type":"Feature","geometry":{"type":"LineString","coordinates":[[8.8827,38.9027],[8.88275,38.90291]]},"properties":{}},{"type":"Feature","geometry":{"type":"LineString","coordinates":[[8.88278,38.90305],[8.88293,38.90319]]},"properties":{}},{"type":"Feature","geometry":{"type":"LineString","coordinates":[[8.88231,38.90321],[8.88237,38.90311]]},"properties":{}},{"type":"Feature","geometry":{"type":"LineString","coordinates":[[8.88293,38.90319],[8.88278,38.90316],[8.88265,38.90318]]},"properties":{}},{"type":"Feature","geometry":{"type":"LineString","coordinates":[[8.88256,38.90319],[8.88231,38.90321]]},"properties":{}},{"type":"Feature","geometry":{"type":"LineString","coordinates":[[8.87365,38.90773],[8.87436,38.90745],[8.87476,38.90724],[8.87532,38.90708],[8.87637,38.90687],[8.87653,38.9068],[8.87683,38.90659],[8.87724,38.90637],[8.87792,38.90609],[8.87896,38.9054],[8.87915,38.90522],[8.87929,38.90506],[8.87948,38.90469],[8.87971,38.90439],[8.87994,38.90415],[8.88115,38.90341],[8.88161,38.9033],[8.88219,38.90326],[8.88231,38.90321]]},"properties":{}},{"type":"Feature","geometry":{"type":"LineString","coordinates":[[8.87156,38.90634],[8.87159,38.90642]]},"properties":{}},{"type":"Feature","geometry":{"type":"LineString","coordinates":[[8.87159,38.90642],[8.87172,38.90684],[8.87157,38.90741],[8.87157,38.90772],[8.87166,38.90798],[8.87199,38.90812],[8.87239,38.90823],[8.87268,38.90816],[8.87365,38.90773]]},"properties":{}},{"type":"Feature","geometry":{"type":"LineString","coordinates":[[8.88025,38.90869],[8.8809,38.90846],[8.88101,38.90847]]},"properties":{}},{"type":"Feature","geometry":{"type":"LineString","coordinates":[[8.87724,38.90637],[8.87755,38.90665],[8.87809,38.90697],[8.87815,38.90712],[8.87819,38.90752],[8.87821,38.90817],[8.87827,38.90839],[8.87843,38.90868],[8.87909,38.90949],[8.87959,38.91052],[8.87977,38.91072],[8.87996,38.91088],[8.88034,38.91113]]},"properties":{}},{"type":"Feature","geometry":{"type":"LineString","coordinates":[[8.88101,38.90847],[8.88098,38.90871],[8.88099,38.90907]]},"properties":{}},{"type":"Feature","geometry":{"type":"LineString","coordinates":[[8.87862,38.9089],[8.87893,38.90881],[8.87942,38.90862],[8.87973,38.90861],[8.88025,38.90869],[8.88057,38.90882],[8.88099,38.90907]]},"properties":{}},{"type":"Feature","geometry":{"type":"LineString","coordinates":[[8.88619,38.90877],[8.88665,38.90931]]},"properties":{}},{"type":"Feature","geometry":{"type":"LineString","coordinates":[[8.88099,38.90907],[8.88112,38.90968],[8.88127,38.9098],[8.88177,38.91006],[8.88211,38.91015],[8.88247,38.91017],[8.88295,38.91011],[8.88389,38.90991],[8.88444,38.90964],[8.885,38.9093],[8.88675,38.90852]]},"properties":{}},{"type":"Feature","geometry":{"type":"LineString","coordinates":[[8.88538,38.90985],[8.885,38.9093]]},"properties":{}},{"type":"Feature","geometry":{"type":"LineString","coordinates":[[8.88493,38.91028],[8.88444,38.90964]]},"properties":{}},{"type":"Feature","geometry":{"type":"LineString","coordinates":[[8.88034,38.91113],[8.88055,38.91042],[8.88065,38.9102],[8.88112,38.90968]]},"properties":{}},{"type":"Feature","geometry":{"type":"LineString","coordinates":[[8.88318,38.91071],[8.883,38.91076],[8.88287,38.91071],[8.88247,38.91017]]},"properties":{}},{"type":"Feature","geometry":{"type":"LineString","coordinates":[[8.88228,38.91016],[8.88221,38.91029],[8.88209,38.91036],[8.88203,38.91049],[8.88206,38.91081],[8.88216,38.91085],[8.88243,38.91089],[8.88244,38.91092],[8.88243,38.91095],[8.88217,38.91109]]},"properties":{}},{"type":"Feature","geometry":{"type":"LineString","coordinates":[[8.8811,38.91232],[8.88121,38.9122],[8.88127,38.91206],[8.8812,38.91187],[8.88112,38.91177],[8.88088,38.91161],[8.88063,38.91151],[8.8805,38.91142],[8.88034,38.91113]]},"properties":{}},{"type":"Feature","geometry":{"type":"LineString","coordinates":[[8.88084,38.91353],[8.8811,38.91268],[8.8811,38.91232]]},"properties":{}},{"type":"Feature","geometry":{"type":"LineString","coordinates":[[8.89214,38.92145],[8.89235,38.92131]]},"properties":{}},{"type":"Feature","geometry":{"type":"LineString","coordinates":[[8.89235,38.92131],[8.89223,38.92152]]},"properties":{}},{"type":"Feature","geometry":{"type":"LineString","coordinates":[[8.89164,38.92139],[8.89184,38.92146],[8.89214,38.92145]]},"properties":{}},{"type":"Feature","geometry":{"type":"LineString","coordinates":[[8.89199,38.92167],[8.89205,38.92154],[8.89214,38.92145]]},"properties":{}},{"type":"Feature","geometry":{"type":"LineString","coordinates":[[8.89223,38.92152],[8.89217,38.92159],[8.89199,38.92167]]},"properties":{}},{"type":"Feature","geometry":{"type":"LineString","coordinates":[[8.80301,38.90551],[8.80288,38.90532],[8.80281,38.90512],[8.80294,38.90442],[8.80326,38.90329],[8.80329,38.90293],[8.80324,38.90238],[8.80315,38.90212],[8.80298,38.90192],[8.8024,38.90152],[8.80159,38.90102],[8.80144,38.90083],[8.80143,38.90061],[8.80147,38.9005],[8.80184,38.89988],[8.80181,38.89965],[8.80168,38.89947],[8.80141,38.89934],[8.80105,38.89933],[8.80084,38.89943],[8.80039,38.89978],[8.80014,38.8999],[8.79889,38.90007],[8.79663,38.90014],[8.79534,38.90002],[8.7949,38.90002],[8.79419,38.90011],[8.79384,38.90012],[8.7935,38.90004],[8.79312,38.89986],[8.79295,38.89971],[8.79286,38.89953],[8.79291,38.89934],[8.79297,38.89927],[8.79315,38.89917],[8.79362,38.89911],[8.79378,38.89902],[8.79423,38.89866],[8.7947,38.89846],[8.79485,38.89836],[8.79496,38.89816],[8.7951,38.89769],[8.79502,38.89752],[8.79463,38.89725],[8.79428,38.89677],[8.79418,38.8967],[8.79398,38.89665],[8.79375,38.89668],[8.7935,38.89676],[8.79297,38.89699],[8.79277,38.89703],[8.79204,38.89704],[8.79182,38.89712],[8.7912,38.89757],[8.79091,38.89792],[8.79064,38.89815],[8.78935,38.89907],[8.78929,38.89925],[8.78933,38.89943],[8.78953,38.89976],[8.7896,38.89998],[8.78955,38.90014],[8.78913,38.90053],[8.78867,38.90119],[8.78862,38.90129],[8.78858,38.90178],[8.78851,38.90189],[8.78815,38.90207],[8.78801,38.90223],[8.78783,38.90232],[8.78761,38.90232],[8.78713,38.90209],[8.78697,38.9021],[8.78686,38.90213],[8.78672,38.90224],[8.78666,38.90242],[8.78697,38.90314],[8.78691,38.90336],[8.78676,38.90353],[8.78656,38.90363],[8.78593,38.90367],[8.78552,38.90378],[8.78509,38.90374],[8.78449,38.90362],[8.78427,38.90367],[8.78418,38.90382],[8.78419,38.90391],[8.78429,38.90407],[8.78439,38.90413],[8.7849,38.90427],[8.78508,38.90439],[8.78511,38.90447],[8.78513,38.90457],[8.78495,38.90526],[8.78486,38.90547],[8.78478,38.90554],[8.78447,38.9056],[8.78426,38.9056],[8.78408,38.90554],[8.78347,38.90519],[8.7827,38.90509],[8.78176,38.90506],[8.78156,38.90513],[8.7814,38.90528],[8.78129,38.90544],[8.78126,38.90563],[8.78141,38.90602],[8.78141,38.9061],[8.78138,38.9062],[8.78118,38.90641],[8.78111,38.90657],[8.78114,38.90674],[8.7812,38.90681],[8.78129,38.90686],[8.78151,38.9069],[8.78254,38.90674],[8.78279,38.90674],[8.78296,38.90684],[8.78304,38.90698],[8.78302,38.90713],[8.78291,38.90725],[8.78141,38.90793],[8.78131,38.90802],[8.78126,38.90817],[8.78128,38.90825],[8.7815,38.90851],[8.78155,38.9086],[8.7817,38.90935]]},"properties":{}},{"type":"Feature","geometry":{"type":"LineString","coordinates":[[8.7817,38.90935],[8.78174,38.90957],[8.7819,38.90976],[8.78272,38.91002],[8.78281,38.91008],[8.78287,38.91022],[8.78286,38.9104],[8.78289,38.91054],[8.78302,38.91069],[8.7834,38.91092],[8.78348,38.91106],[8.78349,38.91116],[8.78347,38.91125],[8.78337,38.9114],[8.78327,38.91146],[8.78291,38.91157],[8.78221,38.91199],[8.7821,38.91214],[8.78206,38.91233],[8.78206,38.91299],[8.78203,38.9131],[8.78188,38.91331],[8.78139,38.9137]]},"properties":{}},{"type":"Feature","geometry":{"type":"LineString","coordinates":[[8.78139,38.9137],[8.78125,38.91381]]},"properties":{}},{"type":"Feature","geometry":{"type":"LineString","coordinates":[[8.78125,38.91381],[8.7809,38.91404],[8.7808,38.91406],[8.78057,38.91405],[8.7801,38.91389],[8.77994,38.91381],[8.77934,38.91331],[8.77911,38.91326],[8.7789,38.91331],[8.77879,38.91345],[8.7788,38.91357],[8.77903,38.91423],[8.77905,38.91441],[8.779,38.9147],[8.77888,38.91484],[8.77875,38.91491],[8.77853,38.91491],[8.77819,38.91476],[8.778,38.91472],[8.77782,38.91473],[8.77765,38.91482],[8.7771,38.91523],[8.77692,38.91543],[8.77689,38.91559],[8.77697,38.91613],[8.77697,38.91646],[8.77687,38.91739],[8.77675,38.91759],[8.77659,38.91772],[8.77641,38.91776],[8.77621,38.91774],[8.77603,38.91764],[8.77581,38.91731],[8.7757,38.91705],[8.77561,38.91652],[8.7755,38.9162],[8.77524,38.91598],[8.7747,38.91567],[8.77461,38.91549],[8.77467,38.91494],[8.77457,38.91477],[8.77438,38.91468],[8.77416,38.91471],[8.77396,38.91483],[8.77378,38.91488],[8.77343,38.91479],[8.77323,38.91482],[8.77279,38.91494],[8.77257,38.91493],[8.77213,38.91475],[8.77191,38.91477],[8.77172,38.91488],[8.77159,38.91504],[8.77152,38.9155],[8.77145,38.91562],[8.77135,38.91567],[8.77094,38.91571],[8.77032,38.91583],[8.76962,38.91587],[8.76896,38.91609],[8.76872,38.91619],[8.76859,38.91629],[8.76845,38.91649],[8.76841,38.91708]]},"properties":{}},{"type":"Feature","geometry":{"type":"LineString","coordinates":[[8.76841,38.91708],[8.76837,38.91729],[8.76823,38.91748],[8.76805,38.9176],[8.76781,38.91768],[8.76748,38.91769],[8.76686,38.91755],[8.76667,38.91744],[8.76577,38.91647],[8.76559,38.91642],[8.7654,38.91644],[8.76505,38.91654],[8.76416,38.91691],[8.76405,38.91703],[8.76398,38.91717],[8.76408,38.91776],[8.76399,38.91795],[8.76361,38.9182],[8.76352,38.91833],[8.7635,38.91853],[8.76365,38.91885],[8.76367,38.91903],[8.76363,38.91938],[8.76367,38.91979],[8.76362,38.91993],[8.76349,38.92006],[8.76308,38.92027],[8.76295,38.92038],[8.76256,38.92142],[8.76246,38.92154],[8.76233,38.92159],[8.76216,38.92162],[8.76168,38.92158],[8.76099,38.92139],[8.76078,38.92126],[8.7607,38.92114],[8.76067,38.92097],[8.76076,38.9206],[8.76056,38.92032],[8.76043,38.92025],[8.76016,38.92023],[8.75939,38.92033],[8.75906,38.9204],[8.75862,38.92058],[8.75827,38.92062],[8.75794,38.92077],[8.75783,38.92091],[8.75765,38.92103],[8.75752,38.92108],[8.75707,38.92091],[8.75689,38.92091],[8.75601,38.92106],[8.75581,38.92116],[8.75434,38.92209],[8.75419,38.92226],[8.754,38.92238],[8.75382,38.92244],[8.75262,38.92223],[8.75242,38.92227],[8.75226,38.92236],[8.75214,38.92248],[8.75186,38.92295],[8.75169,38.92309],[8.75034,38.92382],[8.75,38.92394]]},"properties":{}},{"type":"Feature","geometry":{"type":"LineString","coordinates":[[8.89223,38.92152],[8.89226,38.92181],[8.89248,38.92213]]},"properties":{}},{"type":"Feature","geometry":{"type":"LineString","coordinates":[[8.87107,38.93329],[8.87116,38.93311],[8.87111,38.93275],[8.87113,38.93261],[8.87123,38.93243],[8.8714,38.93227],[8.87215,38.93179],[8.87227,38.93164],[8.87234,38.93145],[8.87239,38.93106],[8.87237,38.93088],[8.87216,38.93039],[8.87214,38.93022],[8.87218,38.93009],[8.87234,38.92992],[8.87292,38.92945],[8.8734,38.92919],[8.8742,38.92884],[8.87441,38.9288],[8.87562,38.92891],[8.87611,38.92891],[8.87932,38.92835],[8.87964,38.92827],[8.87994,38.92816],[8.88141,38.92749],[8.88241,38.92671],[8.88262,38.92645],[8.88307,38.92564],[8.88316,38.92538],[8.88309,38.92458],[8.8831,38.92415],[8.88325,38.92372],[8.88343,38.92347],[8.88355,38.92337],[8.88648,38.92228],[8.88667,38.92215],[8.88691,38.9219],[8.88712,38.92181],[8.88731,38.92178],[8.8885,38.92181],[8.88876,38.92186],[8.88933,38.9219],[8.8896,38.92185],[8.89,38.92159],[8.89023,38.92109],[8.89035,38.92093],[8.89057,38.92085],[8.89084,38.92088],[8.89113,38.92101],[8.89164,38.92139]]},"properties":{}},{"type":"Feature","geometry":{"type":"LineString","coordinates":[[8.87085,38.93352],[8.87107,38.93329]]},"properties":{}},{"type":"Feature","geometry":{"type":"LineString","coordinates":[[8.86618,38.94011],[8.86632,38.94007],[8.8674,38.93994],[8.86772,38.93985],[8.86838,38.93949],[8.86964,38.93867],[8.87008,38.93827],[8.87023,38.93803],[8.87045,38.93683],[8.87056,38.93652],[8.87069,38.9363],[8.87113,38.93574],[8.87149,38.93536],[8.87205,38.93496],[8.87215,38.93479],[8.87213,38.93466],[8.87206,38.93451],[8.87194,38.93442],[8.8713,38.93423],[8.87103,38.93411],[8.87081,38.93395],[8.87075,38.93382],[8.87077,38.93369],[8.87085,38.93352]]},"properties":{}},{"type":"Feature","geometry":{"type":"LineString","coordinates":[[8.86604,38.9402],[8.86618,38.94011]]},"properties":{}},{"type":"Feature","geometry":{"type":"LineString","coordinates":[[8.86589,38.94037],[8.86604,38.9402]]},"properties":{}},{"type":"Feature","geometry":{"type":"LineString","coordinates":[[8.86295,38.94273],[8.86438,38.94242],[8.86459,38.94235],[8.86532,38.9411],[8.86589,38.94037]]},"properties":{}},{"type":"Feature","geometry":{"type":"LineString","coordinates":[[8.86047,38.94165],[8.86008,38.94194],[8.8598,38.9421],[8.85903,38.9424]]},"properties":{}},{"type":"Feature","geometry":{"type":"LineString","coordinates":[[8.86047,38.94165],[8.86081,38.94169],[8.8613,38.94186],[8.86159,38.94202],[8.86182,38.94229],[8.86257,38.94278]]},"properties":{}},{"type":"Feature","geometry":{"type":"LineString","coordinates":[[8.86006,38.94309],[8.86295,38.94273]]},"properties":{}},{"type":"Feature","geometry":{"type":"LineString","coordinates":[[8.81292,38.90429],[8.81279,38.90482],[8.81236,38.90544],[8.81228,38.90569],[8.81231,38.90596],[8.81247,38.90639],[8.81252,38.90662],[8.81248,38.90684],[8.81171,38.90803],[8.81148,38.90819],[8.81126,38.90823],[8.81103,38.90823],[8.81079,38.90812],[8.80971,38.90728],[8.80806,38.90625],[8.80741,38.90597],[8.80548,38.90542],[8.80486,38.90539],[8.80382,38.90571],[8.80352,38.90572],[8.80326,38.90565],[8.80301,38.90551]]},"properties":{}},{"type":"Feature","geometry":{"type":"LineString","coordinates":[[8.82391,38.9401],[8.82551,38.94052],[8.82591,38.94052],[8.82606,38.94047],[8.8263,38.94034],[8.82657,38.94005],[8.82674,38.93992],[8.82711,38.93978],[8.82765,38.93971],[8.82777,38.93968],[8.82786,38.93961],[8.82804,38.93929],[8.82813,38.93926],[8.82834,38.93931],[8.82875,38.93957],[8.82885,38.9396],[8.8295,38.93964],[8.82994,38.94013],[8.83017,38.94022],[8.83103,38.94001],[8.83133,38.93998],[8.83195,38.94006],[8.83226,38.94005],[8.8324,38.94001],[8.83265,38.93987],[8.83322,38.93941],[8.83377,38.93911],[8.83389,38.93902],[8.83408,38.93855],[8.83448,38.93819],[8.83458,38.93815],[8.83474,38.93817],[8.83613,38.93848],[8.83662,38.93865],[8.83688,38.93884],[8.83753,38.93938],[8.83774,38.93961],[8.83798,38.93997],[8.83824,38.94016],[8.83871,38.9404],[8.83905,38.94053],[8.83938,38.94058],[8.84002,38.9406],[8.84029,38.94065],[8.84048,38.94079],[8.84082,38.94123],[8.84105,38.94143],[8.84146,38.94157]]},"properties":{}},{"type":"Feature","geometry":{"type":"LineString","coordinates":[[8.82368,38.94003],[8.82391,38.9401]]},"properties":{}},{"type":"Feature","geometry":{"type":"LineString","coordinates":[[8.84164,38.94162],[8.84242,38.94182],[8.84272,38.94185],[8.84318,38.94175],[8.84438,38.94112],[8.84452,38.94108],[8.84481,38.94106],[8.84621,38.94162],[8.84653,38.94171],[8.84696,38.94177]]},"properties":{}},{"type":"Feature","geometry":{"type":"LineString","coordinates":[[8.84146,38.94157],[8.84164,38.94162]]},"properties":{}},{"type":"Feature","geometry":{"type":"LineString","coordinates":[[8.84696,38.94177],[8.84723,38.94179]]},"properties":{}},{"type":"Feature","geometry":{"type":"LineString","coordinates":[[8.84723,38.94179],[8.8511,38.94185],[8.85146,38.9419],[8.85233,38.94217],[8.85266,38.94223],[8.85299,38.94219],[8.8536,38.94201],[8.85388,38.94201],[8.85454,38.94228],[8.85491,38.94246],[8.85497,38.94272],[8.85503,38.94281],[8.85512,38.94287],[8.85533,38.94291],[8.85553,38.94289],[8.85645,38.94267],[8.85658,38.94269],[8.85688,38.94295],[8.85699,38.943],[8.8572,38.943],[8.85755,38.94292],[8.85823,38.9424],[8.85838,38.94234],[8.85856,38.94229],[8.85874,38.9423],[8.85903,38.9424]]},"properties":{}},{"type":"Feature","geometry":{"type":"LineString","coordinates":[[8.85903,38.9424],[8.85979,38.94305],[8.8599,38.94309],[8.86006,38.94309]]},"properties":{}},{"type":"Feature","geometry":{"type":"LineString","coordinates":[[8.85871,38.94542],[8.85877,38.94523],[8.85859,38.94435],[8.85861,38.94427],[8.85868,38.94421],[8.85879,38.94421],[8.85893,38.94425],[8.85936,38.94451],[8.8594,38.94457],[8.85936,38.94504],[8.85942,38.94515],[8.85962,38.9453],[8.86018,38.94561]]},"properties":{}},{"type":"Feature","geometry":{"type":"LineString","coordinates":[[8.77924,38.96267],[8.78065,38.96274],[8.78091,38.96272],[8.78116,38.96263],[8.78344,38.96163],[8.78401,38.96128],[8.7842,38.96122],[8.78488,38.96111],[8.78503,38.96106],[8.78522,38.96091],[8.78576,38.9604],[8.78616,38.9599],[8.78657,38.95956],[8.78727,38.9591],[8.78821,38.95879],[8.78836,38.9587],[8.78843,38.95861],[8.78855,38.95837],[8.78864,38.95825],[8.78875,38.95817],[8.78936,38.95799],[8.78952,38.95788],[8.78981,38.95747],[8.7905,38.95705],[8.79062,38.95695],[8.79084,38.95666],[8.79111,38.95608],[8.79118,38.95598],[8.79135,38.95595],[8.79174,38.95611],[8.79195,38.95606],[8.79212,38.95594],[8.79222,38.95592],[8.79232,38.95594],[8.79246,38.95609],[8.79261,38.95638],[8.79312,38.95662],[8.79323,38.95664],[8.79361,38.95658],[8.79376,38.95652],[8.79393,38.95638],[8.79414,38.9559],[8.79422,38.95584],[8.79444,38.95581],[8.79456,38.95589],[8.79461,38.95609],[8.79466,38.95618],[8.7949,38.95645],[8.79507,38.95654],[8.7952,38.95655],[8.7953,38.95652],[8.79539,38.95644],[8.79544,38.95616],[8.79548,38.95607],[8.79586,38.95575],[8.79603,38.95534],[8.79611,38.9553],[8.79631,38.95529],[8.79683,38.95548],[8.79699,38.95547],[8.79712,38.95536],[8.79728,38.9548],[8.79734,38.95473],[8.79791,38.95456],[8.79801,38.95447],[8.79807,38.95429],[8.7981,38.9538],[8.7982,38.95355],[8.7982,38.95341],[8.79786,38.95302],[8.79786,38.95294],[8.79792,38.95288],[8.798,38.95284],[8.79836,38.95285],[8.79876,38.95295],[8.79925,38.95333],[8.79944,38.95341],[8.79955,38.95341],[8.79962,38.95337],[8.79982,38.95312],[8.79992,38.95308],[8.80028,38.95313],[8.80036,38.95311],[8.80045,38.95303],[8.8004,38.95279],[8.79997,38.95234],[8.79985,38.95211],[8.79981,38.95187],[8.79988,38.95147],[8.79984,38.95132],[8.79963,38.95083],[8.79966,38.95061],[8.7998,38.95041],[8.79993,38.95009],[8.80005,38.95],[8.8002,38.94993],[8.80027,38.94993],[8.8004,38.94999],[8.80056,38.95057],[8.80064,38.95061],[8.80103,38.9506],[8.80112,38.95065],[8.8013,38.95089],[8.80152,38.95152],[8.8017,38.95174],[8.80177,38.95178],[8.80189,38.95177],[8.80231,38.95164],[8.80242,38.95166],[8.80262,38.95176],[8.80279,38.95191],[8.80312,38.95248],[8.8033,38.95253],[8.80339,38.95253],[8.80354,38.95243],[8.80388,38.95172],[8.80423,38.95118],[8.80443,38.951],[8.80465,38.95087],[8.80508,38.95085],[8.8052,38.95077],[8.80528,38.95063],[8.80526,38.95044],[8.80528,38.95037],[8.8054,38.95026],[8.80565,38.95012],[8.80569,38.94978],[8.80581,38.94946],[8.80591,38.94927],[8.8061,38.94913],[8.80641,38.94902],[8.8065,38.94902],[8.80672,38.94918],[8.80714,38.94988],[8.80737,38.95036],[8.80752,38.95051],[8.8076,38.95055],[8.8077,38.95056],[8.80787,38.95051],[8.80852,38.9502],[8.80889,38.95006],[8.80911,38.95009],[8.80921,38.95024],[8.80911,38.95051],[8.80884,38.95088],[8.80883,38.95106],[8.80891,38.95123],[8.80891,38.9514],[8.80886,38.95148],[8.80814,38.95195],[8.80779,38.9523],[8.80771,38.95249],[8.80778,38.95263],[8.80798,38.95271],[8.80849,38.95278],[8.80903,38.95296],[8.80926,38.9531],[8.80945,38.9533],[8.80961,38.95365],[8.80961,38.95389],[8.80952,38.95409],[8.80932,38.95437],[8.80923,38.95477],[8.80922,38.95484],[8.80926,38.95494],[8.80939,38.95494],[8.80944,38.9549],[8.80947,38.95479],[8.80947,38.95458],[8.80954,38.9544],[8.80959,38.95432],[8.80987,38.95411],[8.81024,38.95363],[8.81045,38.95329],[8.81072,38.95271],[8.81086,38.95172],[8.81083,38.95149],[8.81064,38.95077],[8.8107,38.95054],[8.81112,38.95006],[8.81115,38.94995],[8.81116,38.94928],[8.81111,38.94886],[8.81091,38.94845],[8.81063,38.94808],[8.81027,38.94782],[8.81014,38.94762],[8.81006,38.94696],[8.80985,38.94625],[8.80995,38.94526],[8.80985,38.94502],[8.80963,38.94475],[8.8096,38.94465],[8.8096,38.94455],[8.8099,38.94412],[8.80992,38.94401],[8.80987,38.94377],[8.80993,38.94339],[8.80977,38.94317],[8.80991,38.94275],[8.80983,38.9426],[8.8094,38.94241],[8.80933,38.94234],[8.80925,38.94216],[8.80927,38.94197],[8.80938,38.94181],[8.80969,38.94163],[8.80997,38.9414],[8.81067,38.94128],[8.81107,38.94109],[8.81126,38.94091],[8.81139,38.94049],[8.81145,38.9404],[8.81177,38.94016],[8.81241,38.93987],[8.81258,38.93971],[8.81267,38.93945],[8.8128,38.93935],[8.81326,38.93933],[8.8138,38.9391],[8.81405,38.93897],[8.81424,38.93882],[8.81463,38.93864],[8.81468,38.93859],[8.81469,38.93846],[8.81449,38.93828],[8.81446,38.93819],[8.81461,38.93789],[8.81468,38.93759],[8.81473,38.93751],[8.8149,38.93739],[8.8151,38.93739],[8.81526,38.93747],[8.81541,38.93777],[8.81558,38.93797],[8.81583,38.93812],[8.81612,38.9382],[8.81645,38.93822],[8.81713,38.93815],[8.81788,38.9379],[8.81817,38.93787],[8.81829,38.93788],[8.81879,38.93809],[8.8191,38.93817],[8.8194,38.9382],[8.82023,38.93815],[8.82048,38.93818],[8.82059,38.93825],[8.82108,38.93884],[8.82131,38.93903],[8.82214,38.93935],[8.82278,38.93972],[8.82368,38.94003]]},"properties":{}},{"type":"Feature","geometry":{"type":"LineString","coordinates":[[8.86464,38.94253],[8.86524,38.94276],[8.86536,38.94284],[8.86547,38.94303],[8.86555,38.94332]]},"properties":{}},{"type":"Feature","geometry":{"type":"LineString","coordinates":[[8.86429,38.94347],[8.86428,38.94335],[8.86433,38.94313],[8.86454,38.94257]]},"properties":{}},{"type":"Feature","geometry":{"type":"LineString","coordinates":[[8.86257,38.94278],[8.86287,38.9431],[8.86346,38.94304],[8.86367,38.94307],[8.86387,38.94312],[8.86428,38.94335]]},"properties":{}},{"type":"Feature","geometry":{"type":"LineString","coordinates":[[8.86429,38.94347],[8.86483,38.94346],[8.86507,38.94315],[8.86536,38.94284]]},"properties":{}},{"type":"Feature","geometry":{"type":"LineString","coordinates":[[8.86351,38.94422],[8.8635,38.94391],[8.86354,38.94368],[8.86394,38.94316]]},"properties":{}},{"type":"Feature","geometry":{"type":"LineString","coordinates":[[8.86456,38.94448],[8.86555,38.94332]]},"properties":{}},{"type":"Feature","geometry":{"type":"LineString","coordinates":[[8.86568,38.94406],[8.86561,38.94396],[8.86549,38.94388],[8.86517,38.94377]]},"properties":{}},{"type":"Feature","geometry":{"type":"LineString","coordinates":[[8.86429,38.94347],[8.86433,38.94394],[8.86443,38.94423],[8.86444,38.94443]]},"properties":{}},{"type":"Feature","geometry":{"type":"LineString","coordinates":[[8.86229,38.94543],[8.86217,38.94509],[8.86193,38.94474],[8.86164,38.94412],[8.86162,38.94402],[8.86165,38.94388],[8.8617,38.94376],[8.86211,38.94342],[8.86248,38.94321],[8.86287,38.9431]]},"properties":{}},{"type":"Feature","geometry":{"type":"LineString","coordinates":[[8.86444,38.94443],[8.86456,38.94448]]},"properties":{}},{"type":"Feature","geometry":{"type":"LineString","coordinates":[[8.86491,38.94606],[8.86528,38.94601],[8.8658,38.9457],[8.86601,38.94564],[8.86626,38.94561],[8.86666,38.94543],[8.86686,38.94529],[8.86723,38.94486],[8.8673,38.94418],[8.86714,38.94386],[8.86685,38.94357],[8.86661,38.9434],[8.86642,38.9433],[8.86618,38.94327],[8.86555,38.94332]]},"properties":{}},{"type":"Feature","geometry":{"type":"LineString","coordinates":[[8.86481,38.94535],[8.86545,38.94507],[8.86553,38.94491],[8.86558,38.94442]]},"properties":{}},{"type":"Feature","geometry":{"type":"LineString","coordinates":[[8.86456,38.94448],[8.86481,38.94535]]},"properties":{}},{"type":"Feature","geometry":{"type":"LineString","coordinates":[[8.86371,38.9457],[8.86387,38.94505],[8.86444,38.94443]]},"properties":{}},{"type":"Feature","geometry":{"type":"LineString","coordinates":[[8.86371,38.9457],[8.8639,38.9457],[8.86481,38.94535]]},"properties":{}},{"type":"Feature","geometry":{"type":"LineString","coordinates":[[8.86229,38.94543],[8.86246,38.94562],[8.86256,38.94565],[8.86316,38.94573],[8.86371,38.9457]]},"properties":{}},{"type":"Feature","geometry":{"type":"LineString","coordinates":[[8.86491,38.94606],[8.86493,38.946],[8.86481,38.94535]]},"properties":{}},{"type":"Feature","geometry":{"type":"LineString","coordinates":[[8.85872,38.94632],[8.85917,38.94622],[8.85943,38.94613],[8.85977,38.94584],[8.86018,38.94561],[8.86035,38.94557],[8.86098,38.94542],[8.86142,38.94543],[8.86171,38.94551],[8.86198,38.94554],[8.86229,38.94543]]},"properties":{}},{"type":"Feature","geometry":{"type":"LineString","coordinates":[[8.86484,38.94614],[8.86453,38.94603],[8.86414,38.94601],[8.86407,38.94598],[8.8639,38.9457]]},"properties":{}},{"type":"Feature","geometry":{"type":"LineString","coordinates":[[8.86456,38.94676],[8.86473,38.94632],[8.86491,38.94606]]},"properties":{}},{"type":"Feature","geometry":{"type":"LineString","coordinates":[[8.76133,38.96237],[8.76135,38.96227],[8.76124,38.96218],[8.75861,38.96023],[8.75737,38.95897],[8.75722,38.95885],[8.75631,38.95857],[8.75438,38.95649],[8.75301,38.95587],[8.75218,38.95525],[8.75133,38.95486],[8.7508,38.9548],[8.7505,38.95483],[8.75009,38.9548],[8.75,38.95482]]},"properties":{}},{"type":"Feature","geometry":{"type":"LineString","coordinates":[[8.7527,38.95597],[8.7541,38.95644],[8.75428,38.95654],[8.75613,38.95853],[8.75627,38.95865],[8.75716,38.95893],[8.75733,38.95904],[8.75852,38.96028],[8.76087,38.96203]]},"properties":{}},{"type":"Feature","geometry":{"type":"LineString","coordinates":[[8.7753,38.96092],[8.77524,38.95984],[8.77586,38.95982],[8.77592,38.96089]]},"properties":{}},{"type":"Feature","geometry":{"type":"LineString","coordinates":[[8.77592,38.96089],[8.77616,38.96089]]},"properties":{}},{"type":"Feature","geometry":{"type":"LineString","coordinates":[[8.77564,38.96091],[8.77592,38.96089]]},"properties":{}},{"type":"Feature","geometry":{"type":"LineString","coordinates":[[8.77564,38.96091],[8.7753,38.96092]]},"properties":{}},{"type":"Feature","geometry":{"type":"LineString","coordinates":[[8.7753,38.96092],[8.77499,38.96093]]},"properties":{}},{"type":"Feature","geometry":{"type":"LineString","coordinates":[[8.7504,38.95608],[8.75053,38.95599],[8.75083,38.95594],[8.75249,38.95593],[8.7527,38.95597]]},"properties":{}},{"type":"Feature","geometry":{"type":"LineString","coordinates":[[8.75017,38.95629],[8.7504,38.95608]]},"properties":{}},{"type":"Feature","geometry":{"type":"LineString","coordinates":[[8.75,38.95642],[8.75017,38.95629]]},"properties":{}},{"type":"Feature","geometry":{"type":"LineString","coordinates":[[8.77033,38.96625],[8.77072,38.96677]]},"properties":{}},{"type":"Feature","geometry":{"type":"LineString","coordinates":[[8.76454,38.96473],[8.76747,38.9669],[8.76926,38.9683]]},"properties":{}},{"type":"Feature","geometry":{"type":"LineString","coordinates":[[8.77806,38.96653],[8.77819,38.96637],[8.779,38.96672]]},"properties":{}},{"type":"Feature","geometry":{"type":"LineString","coordinates":[[8.77063,38.96681],[8.77147,38.96647]]},"properties":{}},{"type":"Feature","geometry":{"type":"LineString","coordinates":[[8.77265,38.96644],[8.77224,38.96673],[8.77188,38.96686]]},"properties":{}},{"type":"Feature","geometry":{"type":"LineString","coordinates":[[8.7702,38.96662],[8.76894,38.96672]]},"properties":{}},{"type":"Feature","geometry":{"type":"LineString","coordinates":[[8.77778,38.96688],[8.77806,38.96653]]},"properties":{}},{"type":"Feature","geometry":{"type":"LineString","coordinates":[[8.77072,38.96568],[8.77107,38.96592],[8.77135,38.96623],[8.77147,38.96647],[8.77174,38.96726],[8.77221,38.96767],[8.77228,38.96782]]},"properties":{}},{"type":"Feature","geometry":{"type":"LineString","coordinates":[[8.77756,38.96704],[8.77689,38.96668]]},"properties":{}},{"type":"Feature","geometry":{"type":"LineString","coordinates":[[8.77296,38.97047],[8.77299,38.97071],[8.7729,38.97086],[8.77277,38.97091],[8.77261,38.97111],[8.7724,38.97123]]},"properties":{}},{"type":"Feature","geometry":{"type":"LineString","coordinates":[[8.77373,38.97016],[8.77381,38.97049],[8.77361,38.97087],[8.77366,38.9711],[8.77358,38.97125],[8.77354,38.97153],[8.77343,38.9718],[8.77345,38.97195]]},"properties":{}},{"type":"Feature","geometry":{"type":"LineString","coordinates":[[8.77145,38.97349],[8.77139,38.9734],[8.77135,38.97339],[8.77119,38.97357],[8.7711,38.97364],[8.77106,38.97364],[8.77101,38.97359],[8.77118,38.97334],[8.77119,38.97327],[8.77108,38.97328],[8.7709,38.97344],[8.77085,38.97343],[8.77082,38.97339],[8.77091,38.97312],[8.77141,38.97209],[8.77149,38.97185],[8.77159,38.97168],[8.77165,38.97134],[8.77196,38.97097],[8.77211,38.97086],[8.77263,38.97065],[8.77319,38.9703],[8.77354,38.97016]]},"properties":{}},{"type":"Feature","geometry":{"type":"LineString","coordinates":[[8.75,38.96772],[8.75099,38.96768],[8.75141,38.96755],[8.7517,38.96739],[8.75192,38.96723],[8.75211,38.967],[8.75224,38.96676],[8.7525,38.96556],[8.7526,38.96523],[8.75276,38.965],[8.7531,38.9647],[8.75411,38.96406],[8.7548,38.96376],[8.7552,38.96368],[8.75553,38.96369],[8.756,38.96381],[8.75704,38.96421],[8.75754,38.96437],[8.75975,38.96466],[8.76054,38.96483],[8.76093,38.96496],[8.76129,38.96512],[8.76222,38.96568],[8.76264,38.96583]]},"properties":{}},{"type":"Feature","geometry":{"type":"LineString","coordinates":[[8.77564,38.96091],[8.77568,38.96174]]},"properties":{}},{"type":"Feature","geometry":{"type":"LineString","coordinates":[[8.77884,38.96298],[8.77911,38.96271],[8.77924,38.96267]]},"properties":{}},{"type":"Feature","geometry":{"type":"LineString","coordinates":[[8.77872,38.96312],[8.77884,38.96298]]},"properties":{}},{"type":"Feature","geometry":{"type":"LineString","coordinates":[[8.76087,38.96203],[8.76454,38.96473]]},"properties":{}},{"type":"Feature","geometry":{"type":"LineString","coordinates":[[8.77624,38.96401],[8.77497,38.96285],[8.77475,38.96285],[8.77469,38.96297],[8.77527,38.96355],[8.77527,38.9637],[8.77509,38.96395]]},"properties":{}},{"type":"Feature","geometry":{"type":"LineString","coordinates":[[8.77837,38.96367],[8.77736,38.96353],[8.7767,38.96369],[8.77648,38.9637]]},"properties":{}},{"type":"Feature","geometry":{"type":"LineString","coordinates":[[8.77509,38.96395],[8.77487,38.96418]]},"properties":{}},{"type":"Feature","geometry":{"type":"LineString","coordinates":[[8.77509,38.96395],[8.77601,38.96433]]},"properties":{}},{"type":"Feature","geometry":{"type":"LineString","coordinates":[[8.77854,38.965],[8.77824,38.96471],[8.77763,38.9642],[8.77736,38.96382],[8.77729,38.96377],[8.77721,38.96382],[8.77699,38.96416]]},"properties":{}},{"type":"Feature","geometry":{"type":"LineString","coordinates":[[8.77584,38.9646],[8.77487,38.96418]]},"properties":{}},{"type":"Feature","geometry":{"type":"LineString","coordinates":[[8.76848,38.96395],[8.76884,38.96378],[8.76893,38.96381],[8.76892,38.96417],[8.76901,38.96453],[8.7691,38.96522]]},"properties":{}},{"type":"Feature","geometry":{"type":"LineString","coordinates":[[8.76893,38.96381],[8.76928,38.96385],[8.7697,38.96395],[8.76976,38.96441],[8.76986,38.96478],[8.76986,38.96494],[8.76969,38.96509],[8.76941,38.9652]]},"properties":{}},{"type":"Feature","geometry":{"type":"LineString","coordinates":[[8.77699,38.96416],[8.77652,38.96488]]},"properties":{}},{"type":"Feature","geometry":{"type":"LineString","coordinates":[[8.77699,38.96416],[8.77719,38.96467],[8.77728,38.96474],[8.77744,38.96481],[8.77794,38.96485],[8.77845,38.96505],[8.77854,38.965]]},"properties":{}},{"type":"Feature","geometry":{"type":"LineString","coordinates":[[8.76872,38.96547],[8.76848,38.96395]]},"properties":{}},{"type":"Feature","geometry":{"type":"LineString","coordinates":[[8.77487,38.96418],[8.77433,38.96482],[8.77422,38.96508],[8.77417,38.96535],[8.77414,38.96586]]},"properties":{}},{"type":"Feature","geometry":{"type":"LineString","coordinates":[[8.76332,38.96554],[8.76425,38.96495],[8.76454,38.96473]]},"properties":{}},{"type":"Feature","geometry":{"type":"LineString","coordinates":[[8.77652,38.96488],[8.77609,38.96555]]},"properties":{}},{"type":"Feature","geometry":{"type":"LineString","coordinates":[[8.76941,38.9652],[8.76869,38.96524]]},"properties":{}},{"type":"Feature","geometry":{"type":"LineString","coordinates":[[8.77907,38.96588],[8.77584,38.9646]]},"properties":{}},{"type":"Feature","geometry":{"type":"LineString","coordinates":[[8.77668,38.96552],[8.77695,38.96505]]},"properties":{}},{"type":"Feature","geometry":{"type":"LineString","coordinates":[[8.77686,38.96592],[8.77742,38.96524]]},"properties":{}},{"type":"Feature","geometry":{"type":"LineString","coordinates":[[8.76316,38.96564],[8.76332,38.96554]]},"properties":{}},{"type":"Feature","geometry":{"type":"LineString","coordinates":[[8.77248,38.96809],[8.77297,38.96797],[8.77332,38.96782],[8.77363,38.96763],[8.77406,38.9673],[8.77601,38.96433],[8.77675,38.96328],[8.77689,38.96317],[8.77713,38.96316],[8.77763,38.96333],[8.77793,38.96336],[8.77854,38.96326],[8.77872,38.96312]]},"properties":{}},{"type":"Feature","geometry":{"type":"LineString","coordinates":[[8.76264,38.96583],[8.76284,38.9658],[8.76316,38.96564]]},"properties":{}},{"type":"Feature","geometry":{"type":"LineString","coordinates":[[8.77173,38.96584],[8.77161,38.96579],[8.77107,38.96567],[8.77072,38.96568]]},"properties":{}},{"type":"Feature","geometry":{"type":"LineString","coordinates":[[8.77554,38.96503],[8.77541,38.96507],[8.77487,38.96536],[8.77461,38.96555],[8.7743,38.96585],[8.77414,38.96586],[8.77409,38.96634],[8.77414,38.96643],[8.77447,38.96667]]},"properties":{}},{"type":"Feature","geometry":{"type":"LineString","coordinates":[[8.77542,38.96523],[8.77643,38.9657],[8.77806,38.96653]]},"properties":{}},{"type":"Feature","geometry":{"type":"LineString","coordinates":[[8.77612,38.96609],[8.77643,38.9657]]},"properties":{}},{"type":"Feature","geometry":{"type":"LineString","coordinates":[[8.77373,38.9661],[8.77401,38.96611]]},"properties":{}},{"type":"Feature","geometry":{"type":"LineString","coordinates":[[8.77443,38.96673],[8.77475,38.96658],[8.7749,38.96646],[8.77511,38.96619],[8.77552,38.96583],[8.77571,38.96574],[8.77596,38.96548]]},"properties":{}},{"type":"Feature","geometry":{"type":"LineString","coordinates":[[8.77373,38.9661],[8.77368,38.9661],[8.77366,38.96616]]},"properties":{}},{"type":"Feature","geometry":{"type":"LineString","coordinates":[[8.77401,38.96611],[8.7741,38.96615]]},"properties":{}},{"type":"Feature","geometry":{"type":"LineString","coordinates":[[8.77675,38.96685],[8.77793,38.96544]]},"properties":{}},{"type":"Feature","geometry":{"type":"LineString","coordinates":[[8.77758,38.96666],[8.77842,38.96564]]},"properties":{}},{"type":"Feature","geometry":{"type":"LineString","coordinates":[[8.77274,38.9665],[8.77233,38.96618],[8.77173,38.96584]]},"properties":{}},{"type":"Feature","geometry":{"type":"LineString","coordinates":[[8.77633,38.96653],[8.77686,38.96592]]},"properties":{}},{"type":"Feature","geometry":{"type":"LineString","coordinates":[[8.77432,38.96654],[8.77461,38.96617],[8.77473,38.96607],[8.77488,38.96603]]},"properties":{}},{"type":"Feature","geometry":{"type":"LineString","coordinates":[[8.77366,38.96616],[8.77321,38.96638],[8.77298,38.96642]]},"properties":{}},{"type":"Feature","geometry":{"type":"LineString","coordinates":[[8.77298,38.96642],[8.77274,38.9665]]},"properties":{}},{"type":"Feature","geometry":{"type":"LineString","coordinates":[[8.76844,38.96689],[8.76956,38.96705],[8.76985,38.96705],[8.77002,38.96703],[8.77063,38.96681]]},"properties":{}},{"type":"Feature","geometry":{"type":"LineString","coordinates":[[8.77228,38.96782],[8.77247,38.96777],[8.77259,38.9677],[8.77261,38.96754],[8.77292,38.96724],[8.77296,38.96717],[8.77297,38.96704],[8.77293,38.9669],[8.77274,38.9665]]},"properties":{}},{"type":"Feature","geometry":{"type":"LineString","coordinates":[[8.76607,38.96819],[8.76722,38.96726]]},"properties":{}},{"type":"Feature","geometry":{"type":"LineString","coordinates":[[8.77228,38.96782],[8.77231,38.96786]]},"properties":{}},{"type":"Feature","geometry":{"type":"LineString","coordinates":[[8.76618,38.96691],[8.76778,38.96899]]},"properties":{}},{"type":"Feature","geometry":{"type":"LineString","coordinates":[[8.77231,38.96786],[8.77246,38.96807]]},"properties":{}},{"type":"Feature","geometry":{"type":"LineString","coordinates":[[8.76926,38.9683],[8.7696,38.96823],[8.77079,38.9678],[8.77193,38.96785],[8.77228,38.96782]]},"properties":{}},{"type":"Feature","geometry":{"type":"LineString","coordinates":[[8.77246,38.96807],[8.77248,38.96809]]},"properties":{}},{"type":"Feature","geometry":{"type":"LineString","coordinates":[[8.76931,38.96834],[8.76926,38.9683]]},"properties":{}},{"type":"Feature","geometry":{"type":"LineString","coordinates":[[8.77248,38.96809],[8.77182,38.96839],[8.77032,38.96868]]},"properties":{}},{"type":"Feature","geometry":{"type":"LineString","coordinates":[[8.76674,38.96891],[8.76803,38.96786]]},"properties":{}},{"type":"Feature","geometry":{"type":"LineString","coordinates":[[8.77345,38.96882],[8.77312,38.9685],[8.7728,38.96802]]},"properties":{}},{"type":"Feature","geometry":{"type":"LineString","coordinates":[[8.76951,38.96851],[8.76931,38.96834]]},"properties":{}},{"type":"Feature","geometry":{"type":"LineString","coordinates":[[8.7674,38.96898],[8.76842,38.96815]]},"properties":{}},{"type":"Feature","geometry":{"type":"LineString","coordinates":[[8.77004,38.96872],[8.76983,38.96869],[8.76951,38.96851]]},"properties":{}},{"type":"Feature","geometry":{"type":"LineString","coordinates":[[8.76926,38.9683],[8.76839,38.96886],[8.76784,38.96899],[8.7674,38.96898]]},"properties":{}},{"type":"Feature","geometry":{"type":"LineString","coordinates":[[8.77032,38.96868],[8.77004,38.96872]]},"properties":{}},{"type":"Feature","geometry":{"type":"LineString","coordinates":[[8.77068,38.96895],[8.77312,38.9685]]},"properties":{}},{"type":"Feature","geometry":{"type":"LineString","coordinates":[[8.7699,38.96871],[8.76988,38.96881]]},"properties":{}},{"type":"Feature","geometry":{"type":"LineString","coordinates":[[8.7663,38.96863],[8.76637,38.96871],[8.76674,38.96891]]},"properties":{}},{"type":"Feature","geometry":{"type":"LineString","coordinates":[[8.77419,38.9689],[8.77405,38.96877],[8.77396,38.96872],[8.77333,38.96883]]},"properties":{}},{"type":"Feature","geometry":{"type":"LineString","coordinates":[[8.77004,38.96872],[8.77159,38.96923]]},"properties":{}},{"type":"Feature","geometry":{"type":"LineString","coordinates":[[8.77333,38.96883],[8.77196,38.96902],[8.77155,38.96913],[8.77152,38.9692]]},"properties":{}},{"type":"Feature","geometry":{"type":"LineString","coordinates":[[8.76988,38.96881],[8.76836,38.96924],[8.76669,38.96919],[8.76628,38.96907],[8.76611,38.96906],[8.76598,38.96911]]},"properties":{}},{"type":"Feature","geometry":{"type":"LineString","coordinates":[[8.77508,38.96867],[8.77466,38.96883],[8.77506,38.96944],[8.77545,38.96963],[8.77561,38.96966]]},"properties":{}},{"type":"Feature","geometry":{"type":"LineString","coordinates":[[8.77113,38.96986],[8.76988,38.96881]]},"properties":{}},{"type":"Feature","geometry":{"type":"LineString","coordinates":[[8.77333,38.96883],[8.77338,38.9694],[8.77352,38.9695],[8.77373,38.97016]]},"properties":{}},{"type":"Feature","geometry":{"type":"LineString","coordinates":[[8.76942,38.96894],[8.77077,38.97008]]},"properties":{}},{"type":"Feature","geometry":{"type":"LineString","coordinates":[[8.77159,38.96923],[8.77113,38.96986]]},"properties":{}},{"type":"Feature","geometry":{"type":"LineString","coordinates":[[8.77485,38.97027],[8.77537,38.96991],[8.77561,38.96966],[8.77656,38.9692],[8.77691,38.96884]]},"properties":{}},{"type":"Feature","geometry":{"type":"LineString","coordinates":[[8.77354,38.97016],[8.77241,38.96955],[8.77159,38.96923]]},"properties":{}},{"type":"Feature","geometry":{"type":"LineString","coordinates":[[8.77354,38.97016],[8.77373,38.97016],[8.77393,38.97007],[8.77429,38.9698],[8.77506,38.96944]]},"properties":{}},{"type":"Feature","geometry":{"type":"LineString","coordinates":[[8.76887,38.96908],[8.77059,38.97055]]},"properties":{}},{"type":"Feature","geometry":{"type":"LineString","coordinates":[[8.76836,38.96924],[8.76993,38.97059],[8.77045,38.97064]]},"properties":{}},{"type":"Feature","geometry":{"type":"LineString","coordinates":[[8.77126,38.97066],[8.77145,38.97051],[8.77179,38.96997],[8.772,38.96937]]},"properties":{}},{"type":"Feature","geometry":{"type":"LineString","coordinates":[[8.77113,38.96986],[8.77163,38.97023]]},"properties":{}},{"type":"Feature","geometry":{"type":"LineString","coordinates":[[8.77113,38.96986],[8.77099,38.97007],[8.77086,38.97006],[8.7705,38.97016],[8.7703,38.9703]]},"properties":{}},{"type":"Feature","geometry":{"type":"LineString","coordinates":[[8.77179,38.96997],[8.77188,38.96996],[8.77229,38.97008],[8.77245,38.97016],[8.77289,38.97049]]},"properties":{}},{"type":"Feature","geometry":{"type":"LineString","coordinates":[[8.77059,38.97055],[8.77093,38.97064],[8.77126,38.97066]]},"properties":{}},{"type":"Feature","geometry":{"type":"LineString","coordinates":[[8.76956,38.97111],[8.77,38.97102],[8.77059,38.97055]]},"properties":{}},{"type":"Feature","geometry":{"type":"LineString","coordinates":[[8.86456,38.94676],[8.86424,38.94724],[8.86407,38.94738],[8.86397,38.94764],[8.86389,38.94823],[8.86304,38.94892],[8.86287,38.94913]]},"properties":{}},{"type":"Feature","geometry":{"type":"LineString","coordinates":[[8.86287,38.94913],[8.86269,38.94948]]},"properties":{}},{"type":"Feature","geometry":{"type":"LineString","coordinates":[[8.86269,38.94948],[8.86234,38.95019],[8.86176,38.95103],[8.86193,38.95199],[8.86193,38.95231],[8.86173,38.95311],[8.86176,38.95335],[8.86195,38.95374],[8.8623,38.95409],[8.86263,38.9543],[8.86267,38.95443],[8.86267,38.95484],[8.86258,38.95545],[8.86245,38.95583],[8.86114,38.95727],[8.86055,38.95802],[8.86043,38.95829],[8.86037,38.95865],[8.86045,38.95921],[8.8607,38.95971],[8.86085,38.95979],[8.86087,38.9599],[8.86059,38.96012],[8.86075,38.96074],[8.861,38.96104],[8.86066,38.96144],[8.86056,38.96213],[8.8604,38.96245],[8.86043,38.96263],[8.86058,38.96268],[8.86076,38.96265],[8.861,38.96251],[8.86124,38.96245],[8.86133,38.96248],[8.86131,38.96264],[8.86112,38.96276],[8.86084,38.96286],[8.86073,38.96295],[8.86066,38.9635],[8.86051,38.96366],[8.85995,38.96384],[8.85988,38.964],[8.85985,38.96436],[8.85993,38.96455],[8.86003,38.96472],[8.86048,38.96499],[8.86049,38.96522],[8.86039,38.96542],[8.86022,38.96547],[8.8601,38.96557],[8.85986,38.96629],[8.85925,38.96657],[8.85882,38.96662],[8.85884,38.96672],[8.85913,38.96674],[8.8601,38.96666],[8.86024,38.9668],[8.86031,38.96695],[8.86023,38.96705],[8.85983,38.96695],[8.85959,38.96694],[8.85919,38.96708],[8.85899,38.96718],[8.85852,38.96763],[8.85792,38.96827],[8.85777,38.96854],[8.85766,38.96881],[8.85766,38.96974],[8.85753,38.96994],[8.85724,38.97006],[8.85695,38.97027],[8.8572,38.97088],[8.85704,38.97131],[8.85707,38.9714],[8.85725,38.97135],[8.85744,38.97109],[8.8576,38.97105],[8.85763,38.97117],[8.85722,38.972],[8.85707,38.97275],[8.85772,38.9747],[8.85775,38.97489],[8.85767,38.97534],[8.85755,38.97583],[8.85772,38.97625],[8.85778,38.97736],[8.85752,38.978],[8.85735,38.97833],[8.85734,38.97852],[8.85737,38.97868],[8.85721,38.97914],[8.85735,38.97975],[8.85747,38.97985],[8.85793,38.97983],[8.85812,38.97993],[8.85912,38.98186],[8.86026,38.98321],[8.86046,38.98357],[8.86085,38.98389],[8.86092,38.98416],[8.86139,38.98487],[8.86179,38.9861],[8.86228,38.98657],[8.86261,38.98673],[8.86301,38.9868],[8.8632,38.98696],[8.86343,38.98753],[8.8637,38.98804],[8.8639,38.9882],[8.86395,38.98831],[8.86402,38.98876],[8.86412,38.98887],[8.86464,38.98914],[8.86469,38.98927],[8.86398,38.99063],[8.86369,38.9911],[8.8635,38.99116],[8.86302,38.99107],[8.86242,38.99106],[8.86199,38.99114],[8.86193,38.99125],[8.86203,38.99136],[8.8623,38.99154],[8.86246,38.99171],[8.86266,38.99201],[8.8628,38.9921],[8.86296,38.99214],[8.8635,38.99211],[8.8638,38.99229],[8.86387,38.99246],[8.86386,38.99304],[8.8642,38.99352],[8.8644,38.99365],[8.86472,38.99378],[8.86511,38.99382],[8.86553,38.99375],[8.86614,38.99388],[8.86654,38.99386],[8.86731,38.99371],[8.8677,38.99358],[8.86787,38.99361],[8.86795,38.9937],[8.86775,38.99395],[8.86768,38.9941],[8.86719,38.99452],[8.86711,38.99466],[8.86711,38.99476],[8.86723,38.99494],[8.86739,38.99533],[8.86757,38.99553],[8.86807,38.99584],[8.86827,38.99593],[8.86846,38.99607],[8.8685,38.99617],[8.86842,38.99627],[8.86777,38.99644],[8.86775,38.99654],[8.86784,38.99665],[8.86838,38.99672],[8.86839,38.99681],[8.86817,38.99685],[8.8678,38.99698],[8.86719,38.99701],[8.86701,38.99715],[8.86691,38.99733],[8.86709,38.99764],[8.86736,38.9979],[8.8678,38.99869],[8.86766,38.99903],[8.86748,38.99917],[8.86737,38.99938],[8.86737,38.99962],[8.86747,38.99982],[8.86774,39.0]]},"properties":{}},{"type":"Feature","geometry":{"type":"LineString","coordinates":[[8.97359,38.97246],[8.97367,38.97268],[8.97431,38.97351],[8.97442,38.9737]]},"properties":{}},{"type":"Feature","geometry":{"type":"LineString","coordinates":[[8.97442,38.9737],[8.97363,38.97271],[8.97342,38.97257]]},"properties":{}}]}