{"type":"FeatureCollection","features":[{"type":"Feature","geometry":{"type":"LineString","coordinates":[[8.7923,40.11551],[8.79243,40.11543],[8.79257,40.11547]]},"properties":{}},{"type":"Feature","geometry":{"type":"LineString","coordinates":[[8.7926,40.11551],[8.79261,40.11559],[8.79251,40.11567]]},"properties":{}},{"type":"Feature","geometry":{"type":"LineString","coordinates":[[8.7923,40.11569],[8.7923,40.11551]]},"properties":{}},{"type":"Feature","geometry":{"type":"LineString","coordinates":[[8.79251,40.11567],[8.79243,40.11568]]},"properties":{}},{"type":"Feature","geometry":{"type":"LineString","coordinates":[[8.79243,40.11568],[8.7923,40.11569]]},"properties":{}},{"type":"Feature","geometry":{"type":"LineString","coordinates":[[8.96657,40.08406],[8.96617,40.08416]]},"properties":{}},{"type":"Feature","geometry":{"type":"LineString","coordinates":[[8.93207,40.11069],[8.93219,40.11092]]},"properties":{}},{"type":"Feature","geometry":{"type":"LineString","coordinates":[[8.93201,40.11097],[8.93207,40.11069]]},"properties":{}},{"type":"Feature","geometry":{"type":"LineString","coordinates":[[8.93215,40.11127],[8.93198,40.1112],[8.93194,40.11105],[8.93206,40.11094],[8.93225,40.11093],[8.93239,40.11105],[8.93239,40.11116],[8.93229,40.11125],[8.93215,40.11127]]},"properties":{}},{"type":"Feature","geometry":{"type":"LineString","coordinates":[[8.9318,40.1114],[8.93189,40.11129],[8.93195,40.11115]]},"properties":{}},{"type":"Feature","geometry":{"type":"LineString","coordinates":[[8.96564,40.08401],[8.96601,40.08411]]},"properties":{}},{"type":"Feature","geometry":{"type":"LineString","coordinates":[[8.96601,40.08411],[8.96657,40.08406]]},"properties":{}},{"type":"Feature","geometry":{"type":"LineString","coordinates":[[8.9658,40.08419],[8.96601,40.08411]]},"properties":{}},{"type":"Feature","geometry":{"type":"LineString","coordinates":[[8.96617,40.08416],[8.9658,40.08419]]},"properties":{}},{"type":"Feature","geometry":{"type":"LineString","coordinates":[[8.96617,40.08416],[8.96573,40.08441]]},"properties":{}},{"type":"Feature","geometry":{"type":"LineString","coordinates":[[8.91053,40.10602],[8.91086,40.10643]]},"properties":{}},{"type":"Feature","geometry":{"type":"LineString","coordinates":[[8.91057,40.10661],[8.91057,40.1063]]},"properties":{}},{"type":"Feature","geometry":{"type":"LineString","coordinates":[[8.91072,40.1065],[8.91086,40.10643]]},"properties":{}},{"type":"Feature","geometry":{"type":"LineString","coordinates":[[8.911,40.10654],[8.91089,40.10652],[8.91079,40.10656]]},"properties":{}},{"type":"Feature","geometry":{"type":"LineString","coordinates":[[8.79283,40.11572],[8.7927,40.11567],[8.79251,40.11567]]},"properties":{}},{"type":"Feature","geometry":{"type":"LineString","coordinates":[[8.81391,40.12875],[8.81413,40.12968],[8.8142,40.13173],[8.81411,40.13285]]},"properties":{}},{"type":"Feature","geometry":{"type":"LineString","coordinates":[[8.88482,40.10773],[8.88505,40.10764],[8.8852,40.10753]]},"properties":{}},{"type":"Feature","geometry":{"type":"LineString","coordinates":[[8.88511,40.10785],[8.88482,40.10773]]},"properties":{}},{"type":"Feature","geometry":{"type":"LineString","coordinates":[[8.88532,40.10777],[8.88511,40.10785]]},"properties":{}},{"type":"Feature","geometry":{"type":"LineString","coordinates":[[8.88531,40.10802],[8.88511,40.10785]]},"properties":{}},{"type":"Feature","geometry":{"type":"LineString","coordinates":[[8.87176,40.11285],[8.87177,40.11277],[8.87191,40.11265]]},"properties":{}},{"type":"Feature","geometry":{"type":"LineString","coordinates":[[8.87191,40.11265],[8.87193,40.11277],[8.87186,40.11287]]},"properties":{}}]}