{"type":"FeatureCollection","features":[{"type":"Feature","geometry":{"type":"LineString","coordinates":[[8.75578,46.02634],[8.75588,46.02641],[8.75599,46.0266],[8.75606,46.02684],[8.75604,46.02692],[8.75571,46.02727],[8.75542,46.02777],[8.75526,46.02794],[8.75508,46.0281],[8.75471,46.02831],[8.75448,46.02835]]},"properties":{}},{"type":"Feature","geometry":{"type":"LineString","coordinates":[[8.77881,46.02918],[8.77887,46.02916],[8.77914,46.02868],[8.77931,46.02845],[8.77962,46.02784],[8.77966,46.02763],[8.77966,46.02757],[8.77962,46.02752],[8.77901,46.02742]]},"properties":{}},{"type":"Feature","geometry":{"type":"LineString","coordinates":[[8.77901,46.02742],[8.7787,46.02737],[8.77796,46.0271],[8.77763,46.02706],[8.7766,46.02751],[8.77592,46.02762],[8.7753,46.02779],[8.77268,46.02886],[8.77224,46.02894],[8.77134,46.02916],[8.77047,46.02952],[8.77019,46.02969],[8.76938,46.02989],[8.76869,46.0301],[8.76715,46.03026],[8.76598,46.03056]]},"properties":{}},{"type":"Feature","geometry":{"type":"LineString","coordinates":[[8.75448,46.02835],[8.75394,46.02815],[8.75383,46.02818],[8.75386,46.02823],[8.754,46.02833],[8.75417,46.02867],[8.75413,46.02875],[8.75406,46.02882],[8.75398,46.02883],[8.75382,46.02874],[8.75374,46.02874],[8.75363,46.02886],[8.75363,46.02892],[8.75367,46.02901],[8.75379,46.0291],[8.7538,46.02924],[8.7537,46.02932],[8.75345,46.02937],[8.75328,46.02936],[8.7531,46.02929],[8.75297,46.02932],[8.75293,46.02939],[8.75295,46.02944],[8.7531,46.02951],[8.75309,46.02955],[8.75218,46.0301],[8.7521,46.03023],[8.75208,46.03038],[8.75211,46.03052]]},"properties":{}},{"type":"Feature","geometry":{"type":"LineString","coordinates":[[8.76715,46.03026],[8.7667,46.03017],[8.76659,46.03012],[8.7665,46.02999],[8.76662,46.02991],[8.7683,46.02961],[8.76895,46.02933],[8.76906,46.02924],[8.76904,46.02914],[8.76889,46.02909],[8.76683,46.02953],[8.76597,46.02964],[8.76487,46.03012],[8.76458,46.03034],[8.76446,46.0305],[8.7641,46.03085],[8.76403,46.031]]},"properties":{}},{"type":"Feature","geometry":{"type":"LineString","coordinates":[[8.76652,46.03004],[8.76614,46.03011],[8.76478,46.03064],[8.76453,46.03076]]},"properties":{}},{"type":"Feature","geometry":{"type":"LineString","coordinates":[[8.76598,46.03056],[8.76469,46.03093],[8.76418,46.03101]]},"properties":{}},{"type":"Feature","geometry":{"type":"LineString","coordinates":[[8.76403,46.031],[8.76315,46.03093]]},"properties":{}},{"type":"Feature","geometry":{"type":"LineString","coordinates":[[8.76315,46.03093],[8.76273,46.03105]]},"properties":{}},{"type":"Feature","geometry":{"type":"LineString","coordinates":[[8.76418,46.03101],[8.76403,46.031]]},"properties":{}},{"type":"Feature","geometry":{"type":"LineString","coordinates":[[8.76273,46.03105],[8.7622,46.0312]]},"properties":{}},{"type":"Feature","geometry":{"type":"LineString","coordinates":[[8.7558,46.03191],[8.75571,46.03185],[8.75552,46.03163],[8.75544,46.03142],[8.75523,46.03134],[8.75497,46.03131],[8.75435,46.03139],[8.7537,46.03124],[8.75255,46.03082],[8.75211,46.03052]]},"properties":{}},{"type":"Feature","geometry":{"type":"LineString","coordinates":[[8.7622,46.0312],[8.76213,46.03122]]},"properties":{}},{"type":"Feature","geometry":{"type":"LineString","coordinates":[[8.76213,46.03122],[8.76099,46.03121]]},"properties":{}},{"type":"Feature","geometry":{"type":"LineString","coordinates":[[8.76099,46.03121],[8.76096,46.03116],[8.76088,46.03113],[8.76012,46.03098],[8.75962,46.0308],[8.75921,46.03074],[8.75847,46.03072],[8.75819,46.03078],[8.75793,46.03087],[8.75692,46.03142],[8.75659,46.0318],[8.75633,46.03191],[8.75604,46.03198],[8.75584,46.03193]]},"properties":{}},{"type":"Feature","geometry":{"type":"LineString","coordinates":[[8.7603,46.03157],[8.76089,46.03142],[8.761,46.03129],[8.76099,46.03121]]},"properties":{}},{"type":"Feature","geometry":{"type":"LineString","coordinates":[[8.75584,46.03193],[8.7558,46.03191]]},"properties":{}},{"type":"Feature","geometry":{"type":"LineString","coordinates":[[8.7603,46.03157],[8.76072,46.03175],[8.76181,46.03206],[8.76243,46.0324],[8.76267,46.03259],[8.76274,46.03278],[8.7627,46.03294]]},"properties":{}},{"type":"Feature","geometry":{"type":"LineString","coordinates":[[8.7592,46.03335],[8.75914,46.03323],[8.7593,46.03305],[8.75934,46.03293],[8.75927,46.03277],[8.75913,46.03266],[8.75905,46.03266],[8.75891,46.03274],[8.75882,46.0327],[8.75882,46.03212],[8.75886,46.03201],[8.75923,46.03166],[8.75972,46.03158],[8.76017,46.0316],[8.7603,46.03157]]},"properties":{}},{"type":"Feature","geometry":{"type":"LineString","coordinates":[[8.76137,46.03401],[8.76114,46.0339],[8.76093,46.03388],[8.76071,46.03393],[8.76039,46.03409],[8.76023,46.03413],[8.75943,46.03401],[8.75929,46.03396],[8.75927,46.03385],[8.75931,46.03349],[8.7592,46.03335]]},"properties":{}},{"type":"Feature","geometry":{"type":"LineString","coordinates":[[8.76503,46.03831],[8.76522,46.03832],[8.76574,46.03824],[8.76595,46.03833]]},"properties":{}},{"type":"Feature","geometry":{"type":"LineString","coordinates":[[8.76595,46.03833],[8.76596,46.03834]]},"properties":{}},{"type":"Feature","geometry":{"type":"LineString","coordinates":[[8.76684,46.03873],[8.76701,46.03888],[8.76737,46.03908],[8.76816,46.03916],[8.76826,46.03927]]},"properties":{}}]}