{"type":"FeatureCollection","features":[{"type":"Feature","geometry":{"type":"LineString","coordinates":[[8.76382,40.27091],[8.76381,40.27102]]},"properties":{}},{"type":"Feature","geometry":{"type":"LineString","coordinates":[[8.76381,40.27102],[8.76373,40.27093]]},"properties":{}},{"type":"Feature","geometry":{"type":"LineString","coordinates":[[8.77758,40.29595],[8.77756,40.29469]]},"properties":{}},{"type":"Feature","geometry":{"type":"LineString","coordinates":[[8.77766,40.2947],[8.77772,40.29594]]},"properties":{}},{"type":"Feature","geometry":{"type":"LineString","coordinates":[[8.77772,40.29594],[8.7778,40.29639],[8.77792,40.2968]]},"properties":{}},{"type":"Feature","geometry":{"type":"LineString","coordinates":[[8.77759,40.29706],[8.77767,40.29704],[8.77775,40.29696],[8.77775,40.29682],[8.7776,40.29628],[8.77758,40.29595]]},"properties":{}},{"type":"Feature","geometry":{"type":"LineString","coordinates":[[8.77792,40.29718],[8.77758,40.29595]]},"properties":{}},{"type":"Feature","geometry":{"type":"LineString","coordinates":[[8.77733,40.297],[8.77744,40.29706],[8.77759,40.29706]]},"properties":{}}]}