{"type":"FeatureCollection","features":[{"type":"Feature","geometry":{"type":"LineString","coordinates":[[8.83045,39.75285],[8.83127,39.75225],[8.8317,39.75178],[8.83186,39.75145],[8.83191,39.75123]]},"properties":{}},{"type":"Feature","geometry":{"type":"LineString","coordinates":[[8.83057,39.75323],[8.83061,39.75302],[8.83041,39.7528]]},"properties":{}},{"type":"Feature","geometry":{"type":"LineString","coordinates":[[8.83057,39.75323],[8.83026,39.75371],[8.82995,39.75409],[8.82625,39.75707]]},"properties":{}},{"type":"Feature","geometry":{"type":"LineString","coordinates":[[8.82625,39.75707],[8.82473,39.75836],[8.82326,39.75952],[8.82269,39.76008]]},"properties":{}},{"type":"Feature","geometry":{"type":"LineString","coordinates":[[8.82269,39.76008],[8.82256,39.76011],[8.82226,39.76029],[8.82216,39.76027]]},"properties":{}},{"type":"Feature","geometry":{"type":"LineString","coordinates":[[8.95034,39.93262],[8.95088,39.93266]]},"properties":{}},{"type":"Feature","geometry":{"type":"LineString","coordinates":[[8.95135,39.93265],[8.95089,39.93275]]},"properties":{}},{"type":"Feature","geometry":{"type":"LineString","coordinates":[[8.95056,39.93286],[8.95068,39.93273],[8.95088,39.93266]]},"properties":{}},{"type":"Feature","geometry":{"type":"LineString","coordinates":[[8.95089,39.93275],[8.95075,39.93283],[8.95056,39.93286]]},"properties":{}},{"type":"Feature","geometry":{"type":"LineString","coordinates":[[8.75031,39.92121],[8.75043,39.9212],[8.75048,39.92123]]},"properties":{}},{"type":"Feature","geometry":{"type":"LineString","coordinates":[[8.75005,39.92131],[8.75031,39.92121]]},"properties":{}},{"type":"Feature","geometry":{"type":"LineString","coordinates":[[8.75048,39.92123],[8.75032,39.92131]]},"properties":{}},{"type":"Feature","geometry":{"type":"LineString","coordinates":[[8.75064,39.92166],[8.75046,39.92139],[8.75032,39.92131],[8.75005,39.92131]]},"properties":{}},{"type":"Feature","geometry":{"type":"LineString","coordinates":[[8.75105,39.92253],[8.75082,39.92258],[8.75057,39.92252],[8.75045,39.92241],[8.75041,39.92232],[8.75044,39.92213],[8.75054,39.92202],[8.7507,39.92196],[8.75087,39.92195],[8.75106,39.922],[8.75116,39.92208],[8.75124,39.92226],[8.75119,39.92241],[8.75105,39.92253]]},"properties":{}},{"type":"Feature","geometry":{"type":"LineString","coordinates":[[8.75031,39.92121],[8.75037,39.9211],[8.75041,39.92086]]},"properties":{}},{"type":"Feature","geometry":{"type":"LineString","coordinates":[[8.95089,39.93275],[8.95077,39.93289],[8.95074,39.93305]]},"properties":{}},{"type":"Feature","geometry":{"type":"LineString","coordinates":[[8.85963,39.79017],[8.85922,39.79038],[8.85809,39.79086],[8.85781,39.79106],[8.85768,39.79121],[8.85752,39.79147],[8.85746,39.79171],[8.85728,39.79273],[8.85729,39.79311]]},"properties":{}}]}