{"type":"FeatureCollection","features":[{"type":"Feature","geometry":{"type":"LineString","coordinates":[[9.20288,39.75],[9.20307,39.75024],[9.20329,39.75037],[9.20396,39.75063],[9.20426,39.75067],[9.20451,39.75059],[9.2051,39.75003],[9.20518,39.75]]},"properties":{}},{"type":"Feature","geometry":{"type":"LineString","coordinates":[[9.20555,39.75],[9.20567,39.7501],[9.20574,39.75021],[9.20596,39.75099],[9.20613,39.75121]]},"properties":{}},{"type":"Feature","geometry":{"type":"LineString","coordinates":[[9.20613,39.75121],[9.20627,39.75135]]},"properties":{}},{"type":"Feature","geometry":{"type":"LineString","coordinates":[[9.20627,39.75135],[9.20642,39.75152],[9.20666,39.75193],[9.20704,39.75216],[9.20721,39.75231],[9.20743,39.75275],[9.2079,39.75328],[9.20823,39.75392]]},"properties":{}},{"type":"Feature","geometry":{"type":"LineString","coordinates":[[9.20823,39.75392],[9.20823,39.75437]]},"properties":{}},{"type":"Feature","geometry":{"type":"LineString","coordinates":[[9.20823,39.75437],[9.2083,39.75464],[9.20841,39.75477],[9.20875,39.75488],[9.20938,39.75501],[9.20956,39.75511],[9.20961,39.75525],[9.20957,39.75536],[9.20924,39.75575]]},"properties":{}},{"type":"Feature","geometry":{"type":"LineString","coordinates":[[9.20924,39.75575],[9.20924,39.75581],[9.2093,39.75589],[9.20945,39.75593]]},"properties":{}},{"type":"Feature","geometry":{"type":"LineString","coordinates":[[9.20945,39.75593],[9.21011,39.75585],[9.21024,39.75585],[9.2104,39.75591],[9.21047,39.75599],[9.21048,39.75608],[9.21042,39.75649],[9.21052,39.75685],[9.21073,39.75711],[9.21107,39.75734],[9.2114,39.75751],[9.21156,39.75768],[9.21157,39.75779],[9.21144,39.7583],[9.21152,39.75858],[9.21175,39.75901],[9.21195,39.75917],[9.21216,39.75926],[9.21271,39.75936],[9.21285,39.75942],[9.21299,39.75958],[9.213,39.75976],[9.21292,39.75987],[9.21271,39.75997],[9.21106,39.76043],[9.21035,39.76085],[9.21026,39.76096],[9.21015,39.76123],[9.21016,39.76137],[9.21022,39.76149],[9.21029,39.76156],[9.21048,39.76163],[9.21079,39.76167]]},"properties":{}},{"type":"Feature","geometry":{"type":"LineString","coordinates":[[9.21079,39.76167],[9.21138,39.76174]]},"properties":{}},{"type":"Feature","geometry":{"type":"LineString","coordinates":[[9.21138,39.76174],[9.21169,39.76178],[9.21197,39.76185],[9.21209,39.76195],[9.21233,39.76226],[9.21266,39.76251],[9.21356,39.76285],[9.21374,39.76289],[9.21432,39.76291],[9.21469,39.76302]]},"properties":{}},{"type":"Feature","geometry":{"type":"LineString","coordinates":[[9.21469,39.76302],[9.21495,39.76317]]},"properties":{}},{"type":"Feature","geometry":{"type":"LineString","coordinates":[[9.21495,39.76317],[9.21558,39.76356]]},"properties":{}},{"type":"Feature","geometry":{"type":"LineString","coordinates":[[9.21525,39.76375],[9.21537,39.76364],[9.21558,39.76356]]},"properties":{}},{"type":"Feature","geometry":{"type":"LineString","coordinates":[[9.21558,39.76356],[9.21606,39.76378]]},"properties":{}},{"type":"Feature","geometry":{"type":"LineString","coordinates":[[9.21558,39.76356],[9.21554,39.76389]]},"properties":{}},{"type":"Feature","geometry":{"type":"LineString","coordinates":[[9.21606,39.76378],[9.21629,39.76386]]},"properties":{}},{"type":"Feature","geometry":{"type":"LineString","coordinates":[[9.21535,39.76427],[9.21525,39.76375]]},"properties":{}},{"type":"Feature","geometry":{"type":"LineString","coordinates":[[9.21554,39.76389],[9.21535,39.76427]]},"properties":{}},{"type":"Feature","geometry":{"type":"LineString","coordinates":[[9.20405,39.76909],[9.20415,39.7691],[9.20432,39.76908],[9.20604,39.7685],[9.20624,39.76849],[9.20647,39.76855],[9.20819,39.7695],[9.20828,39.76962],[9.20834,39.76979],[9.20836,39.7702],[9.20841,39.77042],[9.20854,39.77059],[9.20872,39.77073],[9.20911,39.77094]]},"properties":{}},{"type":"Feature","geometry":{"type":"LineString","coordinates":[[9.21535,39.76427],[9.21522,39.76465],[9.21504,39.7649],[9.21481,39.76507],[9.21444,39.76523],[9.21318,39.76553],[9.21283,39.76568],[9.21258,39.76591],[9.2124,39.76618],[9.21234,39.76639],[9.21234,39.76691],[9.21227,39.76716],[9.21158,39.7683],[9.21084,39.76945],[9.21065,39.76965],[9.209,39.77102],[9.20865,39.77128],[9.20841,39.77137],[9.20821,39.77139],[9.20792,39.77137],[9.20696,39.77104],[9.20671,39.77103],[9.20645,39.77106],[9.20575,39.77126],[9.20548,39.77128],[9.20528,39.77123],[9.20512,39.77115],[9.20473,39.77084],[9.20455,39.77082],[9.20444,39.77086],[9.20437,39.77094],[9.20437,39.77102],[9.20441,39.77111],[9.20449,39.77118],[9.20679,39.77268],[9.20763,39.77353],[9.20778,39.7738],[9.2079,39.77416],[9.20804,39.77431],[9.20821,39.7744],[9.20846,39.77443],[9.21119,39.7744],[9.21144,39.77444],[9.21166,39.77455],[9.21182,39.77473],[9.2119,39.77497],[9.21195,39.77607],[9.21206,39.7765],[9.21221,39.77679]]},"properties":{}},{"type":"Feature","geometry":{"type":"LineString","coordinates":[[9.08848,39.75001],[9.08844,39.75009],[9.08828,39.75]]},"properties":{}},{"type":"Feature","geometry":{"type":"LineString","coordinates":[[9.08775,39.75],[9.0876,39.75011],[9.08741,39.7505],[9.08709,39.75145]]},"properties":{}},{"type":"Feature","geometry":{"type":"LineString","coordinates":[[9.09562,39.75],[9.09505,39.75026],[9.09478,39.75055],[9.09472,39.75075],[9.09473,39.75091],[9.09479,39.75112],[9.09493,39.75131],[9.09554,39.75203],[9.09577,39.75237],[9.0961,39.75324],[9.09662,39.75376],[9.09717,39.75413],[9.09723,39.75433],[9.09716,39.75467],[9.09688,39.75538]]},"properties":{}},{"type":"Feature","geometry":{"type":"LineString","coordinates":[[9.08709,39.75145],[9.08704,39.75161]]},"properties":{}},{"type":"Feature","geometry":{"type":"LineString","coordinates":[[9.09021,39.75554],[9.09066,39.75523],[9.0908,39.75519],[9.09159,39.75507],[9.09225,39.7549],[9.09255,39.75486],[9.0929,39.7549],[9.09322,39.75504],[9.0934,39.75515],[9.09362,39.75543],[9.09361,39.7561],[9.09356,39.75641],[9.09343,39.75676]]},"properties":{}},{"type":"Feature","geometry":{"type":"LineString","coordinates":[[9.08704,39.75161],[9.087,39.75176],[9.08684,39.75207],[9.08638,39.75255],[9.08598,39.75286],[9.08546,39.75313],[9.08504,39.75342],[9.08494,39.75353],[9.08499,39.75362],[9.08511,39.75366],[9.08585,39.75359],[9.08698,39.75356],[9.08793,39.75341],[9.08818,39.7534],[9.08844,39.75344],[9.089,39.75376],[9.08929,39.75401],[9.08953,39.75451],[9.08967,39.75501],[9.08965,39.75517],[9.08956,39.7553],[9.08798,39.75651],[9.0874,39.75688],[9.0872,39.75696],[9.08676,39.757],[9.08472,39.75667],[9.08452,39.75668],[9.08444,39.75678],[9.08447,39.75689],[9.08506,39.75731],[9.08512,39.75741],[9.0851,39.75754],[9.08505,39.75766],[9.08453,39.75796],[9.08441,39.75806],[9.08431,39.75828],[9.08415,39.75892],[9.0839,39.75935],[9.08355,39.75976],[9.08298,39.76029],[9.08288,39.76049],[9.08294,39.76068],[9.0831,39.76079],[9.08333,39.76083],[9.0843,39.76094],[9.08561,39.76146],[9.0861,39.76154],[9.08638,39.76148],[9.09188,39.7598],[9.09211,39.75975],[9.09229,39.75979],[9.09247,39.75987],[9.09388,39.76076],[9.09423,39.76114],[9.09452,39.76139],[9.09531,39.76184],[9.09566,39.7621],[9.09665,39.76333],[9.09753,39.76425],[9.09805,39.76473],[9.09841,39.76492],[9.09887,39.76501],[9.09971,39.76513],[9.10003,39.76515],[9.10045,39.7651]]},"properties":{}},{"type":"Feature","geometry":{"type":"LineString","coordinates":[[9.07293,39.77024],[9.06976,39.76817],[9.06956,39.76798],[9.06909,39.76739],[9.06878,39.76711],[9.06845,39.76694],[9.06634,39.76609]]},"properties":{}},{"type":"Feature","geometry":{"type":"LineString","coordinates":[[9.09848,39.77092],[9.09912,39.77033]]},"properties":{}},{"type":"Feature","geometry":{"type":"LineString","coordinates":[[9.02598,39.7532],[9.02607,39.75342],[9.02616,39.75354],[9.02659,39.75387],[9.02718,39.7545],[9.02727,39.75463],[9.02734,39.755],[9.02742,39.75523],[9.02793,39.75579],[9.02859,39.75617],[9.03012,39.75726],[9.03035,39.75749],[9.03191,39.75953],[9.03203,39.75974],[9.03202,39.76002],[9.03166,39.76078],[9.03155,39.76108],[9.03156,39.76122],[9.03162,39.76138],[9.0318,39.76159],[9.03319,39.76285],[9.03334,39.76312],[9.03353,39.76375],[9.03364,39.76397],[9.03399,39.76422],[9.03527,39.76489],[9.03561,39.76515],[9.03581,39.76541],[9.03633,39.76639],[9.03638,39.76656],[9.03637,39.76673],[9.03625,39.76704],[9.03612,39.76719],[9.03558,39.76757],[9.03545,39.76776],[9.03541,39.76799],[9.03555,39.76836],[9.03555,39.76843],[9.0355,39.76854],[9.03506,39.76901],[9.03485,39.76917],[9.03456,39.76936],[9.0337,39.76979],[9.03344,39.77005],[9.03269,39.77145],[9.03217,39.77275],[9.03199,39.77302]]},"properties":{}},{"type":"Feature","geometry":{"type":"LineString","coordinates":[[9.05663,39.76407],[9.0521,39.76727]]},"properties":{}},{"type":"Feature","geometry":{"type":"LineString","coordinates":[[9.06303,39.76743],[9.06272,39.76759],[9.06236,39.76769],[9.062,39.7677],[9.06166,39.76764],[9.06123,39.76747],[9.0609,39.76726],[9.06068,39.76701],[9.05898,39.76411],[9.05868,39.76391],[9.05837,39.76378],[9.05807,39.76372],[9.0575,39.76369],[9.05722,39.76376],[9.05692,39.76389],[9.05663,39.76407]]},"properties":{}},{"type":"Feature","geometry":{"type":"LineString","coordinates":[[9.06336,39.76729],[9.06326,39.7673],[9.06303,39.76743]]},"properties":{}},{"type":"Feature","geometry":{"type":"LineString","coordinates":[[9.0521,39.76727],[9.04919,39.76928],[9.04841,39.76959],[9.04738,39.76993],[9.04707,39.77006],[9.04678,39.77023],[9.04597,39.77088]]},"properties":{}},{"type":"Feature","geometry":{"type":"LineString","coordinates":[[9.04597,39.77088],[9.04402,39.77248],[9.04345,39.77287],[9.04199,39.77366],[9.04022,39.77472]]},"properties":{}},{"type":"Feature","geometry":{"type":"LineString","coordinates":[[9.03199,39.77302],[9.03135,39.77387]]},"properties":{}},{"type":"Feature","geometry":{"type":"LineString","coordinates":[[9.09993,39.76804],[9.09186,39.7688],[9.08933,39.76907],[9.08802,39.76941],[9.08695,39.76978],[9.08502,39.77072],[9.08138,39.77326],[9.08079,39.77344],[9.08044,39.77351],[9.08012,39.77352],[9.07883,39.77338]]},"properties":{}},{"type":"Feature","geometry":{"type":"LineString","coordinates":[[9.07443,39.77114],[9.07364,39.77077],[9.07358,39.77063]]},"properties":{}},{"type":"Feature","geometry":{"type":"LineString","coordinates":[[9.07433,39.77094],[9.07419,39.77092],[9.07406,39.77097]]},"properties":{}},{"type":"Feature","geometry":{"type":"LineString","coordinates":[[9.07448,39.77103],[9.07433,39.77094]]},"properties":{}},{"type":"Feature","geometry":{"type":"LineString","coordinates":[[9.09812,39.77125],[9.09848,39.77092]]},"properties":{}},{"type":"Feature","geometry":{"type":"LineString","coordinates":[[9.07883,39.77338],[9.07713,39.77319],[9.07696,39.77314],[9.07591,39.77266],[9.07532,39.7723],[9.0752,39.77213],[9.07494,39.77154],[9.0746,39.7711],[9.07448,39.77103]]},"properties":{}},{"type":"Feature","geometry":{"type":"LineString","coordinates":[[9.07723,39.78619],[9.07843,39.78411],[9.07878,39.78363],[9.07906,39.78339],[9.08085,39.78209],[9.08114,39.78185],[9.08126,39.78166],[9.08131,39.78147],[9.08129,39.78107],[9.08133,39.78085],[9.08151,39.78058],[9.08171,39.78042],[9.08407,39.77889],[9.08572,39.77734],[9.08595,39.77724],[9.08667,39.77706],[9.08681,39.77699],[9.08954,39.77501],[9.08985,39.77485],[9.09,39.77482],[9.09035,39.77485],[9.09147,39.77536],[9.09181,39.77543],[9.09223,39.77536],[9.09424,39.77485],[9.09452,39.77467],[9.09491,39.77429],[9.09546,39.77401],[9.09554,39.77391],[9.09558,39.7738],[9.09561,39.77342],[9.0957,39.77321],[9.09606,39.7727],[9.09623,39.77253],[9.09671,39.7722],[9.09718,39.77201],[9.09741,39.77188],[9.09812,39.77125]]},"properties":{}},{"type":"Feature","geometry":{"type":"LineString","coordinates":[[9.07723,39.78619],[9.07718,39.78627]]},"properties":{}},{"type":"Feature","geometry":{"type":"LineString","coordinates":[[9.07856,39.78574],[9.07798,39.78602],[9.07769,39.78621],[9.07719,39.78683]]},"properties":{}},{"type":"Feature","geometry":{"type":"LineString","coordinates":[[9.07718,39.78627],[9.0771,39.78653]]},"properties":{}},{"type":"Feature","geometry":{"type":"LineString","coordinates":[[9.03135,39.77387],[9.03129,39.77402]]},"properties":{}},{"type":"Feature","geometry":{"type":"LineString","coordinates":[[9.03129,39.77402],[9.0313,39.77415],[9.03152,39.7749],[9.03168,39.77511],[9.03179,39.77519],[9.03201,39.77527],[9.03318,39.77561]]},"properties":{}},{"type":"Feature","geometry":{"type":"LineString","coordinates":[[9.03318,39.77561],[9.03399,39.77587],[9.03488,39.77603],[9.03529,39.77615],[9.03568,39.7762],[9.0363,39.77643],[9.03713,39.77647],[9.03742,39.77662],[9.0381,39.77714],[9.0384,39.77741]]},"properties":{}},{"type":"Feature","geometry":{"type":"LineString","coordinates":[[9.0384,39.77741],[9.03875,39.77781]]},"properties":{}},{"type":"Feature","geometry":{"type":"LineString","coordinates":[[9.03875,39.77781],[9.03929,39.77856],[9.03988,39.77926]]},"properties":{}},{"type":"Feature","geometry":{"type":"LineString","coordinates":[[9.03988,39.77926],[9.04005,39.77946]]},"properties":{}},{"type":"Feature","geometry":{"type":"LineString","coordinates":[[9.04005,39.77946],[9.04023,39.77968]]},"properties":{}},{"type":"Feature","geometry":{"type":"LineString","coordinates":[[9.04023,39.77968],[9.04057,39.78001],[9.04124,39.78046]]},"properties":{}},{"type":"Feature","geometry":{"type":"LineString","coordinates":[[9.04124,39.78046],[9.04449,39.7819]]},"properties":{}},{"type":"Feature","geometry":{"type":"LineString","coordinates":[[9.04449,39.7819],[9.04481,39.78204]]},"properties":{}},{"type":"Feature","geometry":{"type":"LineString","coordinates":[[9.0771,39.78653],[9.07683,39.78657]]},"properties":{}},{"type":"Feature","geometry":{"type":"LineString","coordinates":[[9.07683,39.78657],[9.07667,39.78654]]},"properties":{}},{"type":"Feature","geometry":{"type":"LineString","coordinates":[[9.07247,39.78657],[9.07667,39.78654]]},"properties":{}},{"type":"Feature","geometry":{"type":"LineString","coordinates":[[9.0771,39.78653],[9.07716,39.78679]]},"properties":{}},{"type":"Feature","geometry":{"type":"LineString","coordinates":[[9.07716,39.78679],[9.07683,39.78657]]},"properties":{}},{"type":"Feature","geometry":{"type":"LineString","coordinates":[[9.07719,39.78683],[9.07716,39.78679]]},"properties":{}},{"type":"Feature","geometry":{"type":"LineString","coordinates":[[9.07304,39.78732],[9.07407,39.78749],[9.07559,39.78748]]},"properties":{}},{"type":"Feature","geometry":{"type":"LineString","coordinates":[[9.07652,39.78738],[9.07774,39.78807],[9.07776,39.78813],[9.0777,39.78827],[9.07757,39.78831],[9.077,39.78824]]},"properties":{}},{"type":"Feature","geometry":{"type":"LineString","coordinates":[[9.08168,39.78732],[9.08098,39.78745],[9.08075,39.78751],[9.08055,39.78762],[9.08053,39.7877],[9.0808,39.7878],[9.08121,39.78804],[9.08131,39.78816],[9.08124,39.78842],[9.0811,39.78851]]},"properties":{}},{"type":"Feature","geometry":{"type":"LineString","coordinates":[[9.07255,39.78778],[9.07423,39.78805],[9.07568,39.78817]]},"properties":{}},{"type":"Feature","geometry":{"type":"LineString","coordinates":[[9.07628,39.78769],[9.07689,39.78807],[9.07696,39.78814],[9.077,39.78824],[9.07697,39.78832]]},"properties":{}},{"type":"Feature","geometry":{"type":"LineString","coordinates":[[9.07568,39.78817],[9.0777,39.7884],[9.07778,39.78839],[9.07827,39.78807]]},"properties":{}},{"type":"Feature","geometry":{"type":"LineString","coordinates":[[9.0811,39.78851],[9.08088,39.78864],[9.0808,39.78914]]},"properties":{}},{"type":"Feature","geometry":{"type":"LineString","coordinates":[[9.07915,39.79106],[9.0796,39.78947],[9.07964,39.78919],[9.07961,39.78909],[9.07949,39.78895],[9.07939,39.78889],[9.07877,39.78858],[9.07827,39.78807],[9.07719,39.78683]]},"properties":{}},{"type":"Feature","geometry":{"type":"LineString","coordinates":[[9.0808,39.78914],[9.08015,39.78911],[9.07979,39.78907],[9.07961,39.78909]]},"properties":{}},{"type":"Feature","geometry":{"type":"LineString","coordinates":[[9.07847,39.78996],[9.07822,39.7898],[9.07817,39.78966],[9.07802,39.78952],[9.07787,39.78927],[9.07766,39.78914],[9.0776,39.78906],[9.07756,39.78897],[9.07757,39.78889],[9.0777,39.7884]]},"properties":{}},{"type":"Feature","geometry":{"type":"LineString","coordinates":[[9.0808,39.78914],[9.08088,39.7893],[9.08135,39.7899],[9.08186,39.79021]]},"properties":{}},{"type":"Feature","geometry":{"type":"LineString","coordinates":[[9.0765,39.7901],[9.07644,39.78932],[9.07581,39.78935]]},"properties":{}},{"type":"Feature","geometry":{"type":"LineString","coordinates":[[9.07825,39.79038],[9.07822,39.79027],[9.07847,39.79008],[9.07849,39.79004],[9.07847,39.78996]]},"properties":{}},{"type":"Feature","geometry":{"type":"LineString","coordinates":[[9.08438,39.78991],[9.08391,39.78983],[9.08364,39.78988],[9.08361,39.78995],[9.08366,39.78999],[9.08489,39.79032],[9.08659,39.79087],[9.08673,39.79088],[9.08739,39.79071],[9.08762,39.79069],[9.08829,39.79078],[9.0885,39.79095],[9.08846,39.79151]]},"properties":{}},{"type":"Feature","geometry":{"type":"LineString","coordinates":[[9.0799,39.79074],[9.07953,39.79062],[9.07926,39.79064]]},"properties":{}},{"type":"Feature","geometry":{"type":"LineString","coordinates":[[9.07787,39.79046],[9.07807,39.79045],[9.07825,39.79038],[9.07843,39.79053],[9.0786,39.79061],[9.07903,39.79095],[9.07917,39.79098]]},"properties":{}},{"type":"Feature","geometry":{"type":"LineString","coordinates":[[9.08001,39.79073],[9.08087,39.7909]]},"properties":{}},{"type":"Feature","geometry":{"type":"LineString","coordinates":[[9.07949,39.79106],[9.07915,39.79106]]},"properties":{}},{"type":"Feature","geometry":{"type":"LineString","coordinates":[[9.08087,39.7909],[9.08115,39.79096],[9.08148,39.79113],[9.08161,39.79126],[9.08163,39.79134]]},"properties":{}},{"type":"Feature","geometry":{"type":"LineString","coordinates":[[9.07895,39.79115],[9.07914,39.79111]]},"properties":{}},{"type":"Feature","geometry":{"type":"LineString","coordinates":[[9.08027,39.7914],[9.07976,39.79126],[9.07958,39.79118],[9.07949,39.79106]]},"properties":{}},{"type":"Feature","geometry":{"type":"LineString","coordinates":[[9.08846,39.79151],[9.08828,39.7916],[9.08801,39.79164],[9.08519,39.7917],[9.08404,39.79135],[9.08364,39.79129],[9.08226,39.79149],[9.08163,39.79134],[9.08128,39.79142],[9.08094,39.79145],[9.08027,39.7914]]},"properties":{}},{"type":"Feature","geometry":{"type":"LineString","coordinates":[[9.07502,39.79091],[9.07527,39.79239]]},"properties":{}},{"type":"Feature","geometry":{"type":"LineString","coordinates":[[9.07692,39.7925],[9.07725,39.79245],[9.07775,39.79228],[9.07848,39.79191],[9.07871,39.79173],[9.07881,39.79159],[9.07884,39.79136],[9.07895,39.79115]]},"properties":{}},{"type":"Feature","geometry":{"type":"LineString","coordinates":[[9.04481,39.78204],[9.04514,39.78219]]},"properties":{}},{"type":"Feature","geometry":{"type":"LineString","coordinates":[[9.04514,39.78219],[9.04865,39.78379],[9.04935,39.78399],[9.05086,39.78416]]},"properties":{}},{"type":"Feature","geometry":{"type":"LineString","coordinates":[[9.05086,39.78416],[9.05122,39.7842]]},"properties":{}},{"type":"Feature","geometry":{"type":"LineString","coordinates":[[9.05122,39.7842],[9.05651,39.78479],[9.05821,39.78503],[9.06247,39.78573],[9.06804,39.78656],[9.06909,39.78661],[9.07247,39.78657]]},"properties":{}},{"type":"Feature","geometry":{"type":"LineString","coordinates":[[9.05599,39.81675],[9.05656,39.81621]]},"properties":{}},{"type":"Feature","geometry":{"type":"LineString","coordinates":[[9.05156,39.82249],[9.05124,39.82228],[9.05113,39.82211],[9.05111,39.82193],[9.05118,39.82174],[9.05134,39.82159],[9.05203,39.82144],[9.05226,39.82135],[9.05236,39.82119],[9.05233,39.82101],[9.05236,39.82083],[9.05266,39.82054],[9.05268,39.82038],[9.05246,39.8201],[9.05247,39.81993],[9.05268,39.81967],[9.05282,39.81956],[9.05316,39.81943],[9.05323,39.81931],[9.05325,39.81893],[9.05337,39.81872],[9.05391,39.81824],[9.05429,39.81796],[9.05505,39.81753],[9.05549,39.81723],[9.05599,39.81675]]},"properties":{}},{"type":"Feature","geometry":{"type":"LineString","coordinates":[[9.05144,39.82283],[9.0516,39.82271],[9.05163,39.82264],[9.05162,39.82256],[9.05156,39.82249]]},"properties":{}},{"type":"Feature","geometry":{"type":"LineString","coordinates":[[9.04732,39.83093],[9.0474,39.83086],[9.04744,39.83067],[9.04721,39.82999],[9.04718,39.82976],[9.04724,39.8296],[9.04754,39.82931],[9.04758,39.82912],[9.04731,39.82855],[9.04731,39.82844],[9.04736,39.82836],[9.04743,39.82829],[9.04754,39.82825],[9.04824,39.82824],[9.04841,39.82817],[9.0485,39.82806],[9.04857,39.82765],[9.04871,39.82745],[9.04891,39.82732],[9.04946,39.82707],[9.04965,39.82686],[9.04958,39.82662],[9.04877,39.82566],[9.04874,39.82545],[9.04877,39.82535],[9.04894,39.82515],[9.04955,39.82465],[9.04969,39.82457],[9.05029,39.82433],[9.05043,39.82421],[9.0506,39.82372],[9.05081,39.82337],[9.05099,39.82315],[9.05144,39.82283]]},"properties":{}},{"type":"Feature","geometry":{"type":"LineString","coordinates":[[9.04728,39.83096],[9.04732,39.83093]]},"properties":{}},{"type":"Feature","geometry":{"type":"LineString","coordinates":[[9.04706,39.83112],[9.04728,39.83096]]},"properties":{}},{"type":"Feature","geometry":{"type":"LineString","coordinates":[[9.08091,39.79336],[9.0801,39.79294],[9.07893,39.79241],[9.07886,39.79235],[9.07885,39.7922],[9.0792,39.79167],[9.07922,39.79156],[9.07915,39.79106]]},"properties":{}},{"type":"Feature","geometry":{"type":"LineString","coordinates":[[9.07527,39.79239],[9.07595,39.79224],[9.07674,39.79229]]},"properties":{}},{"type":"Feature","geometry":{"type":"LineString","coordinates":[[9.07455,39.79252],[9.07468,39.79253],[9.07527,39.79239]]},"properties":{}},{"type":"Feature","geometry":{"type":"LineString","coordinates":[[9.08118,39.79696],[9.08174,39.79625],[9.08193,39.79594],[9.08207,39.79563],[9.08213,39.79533],[9.0821,39.79501],[9.08201,39.79467],[9.08185,39.79439],[9.08166,39.79408],[9.08137,39.79373],[9.08091,39.79336]]},"properties":{}},{"type":"Feature","geometry":{"type":"LineString","coordinates":[[9.08105,39.79712],[9.08118,39.79696]]},"properties":{}},{"type":"Feature","geometry":{"type":"LineString","coordinates":[[9.05656,39.81621],[9.05891,39.81399],[9.06405,39.80995],[9.06858,39.80643],[9.06896,39.80618],[9.06978,39.80575],[9.07583,39.80266],[9.07644,39.80233],[9.07698,39.80196],[9.07765,39.80138],[9.07793,39.80106],[9.07825,39.80059],[9.08105,39.79712]]},"properties":{}},{"type":"Feature","geometry":{"type":"LineString","coordinates":[[9.10933,39.82223],[9.10927,39.82209],[9.10907,39.82186],[9.10863,39.82154],[9.10841,39.82119],[9.10831,39.8209],[9.10805,39.82066],[9.10763,39.8204],[9.10736,39.82018],[9.10727,39.81999],[9.10728,39.81979],[9.10736,39.81955],[9.10754,39.81926],[9.10758,39.81914],[9.10753,39.81868],[9.10748,39.81857],[9.10733,39.81844],[9.10682,39.8183],[9.10665,39.81822],[9.10461,39.81673],[9.10444,39.81668],[9.10371,39.8166],[9.10343,39.81654],[9.10337,39.81645],[9.10335,39.81614],[9.10324,39.81585],[9.1031,39.81558],[9.10284,39.81522],[9.10283,39.8151],[9.10298,39.81473],[9.10286,39.8139],[9.10278,39.81256],[9.10227,39.81027],[9.10211,39.80983],[9.10197,39.80918],[9.10199,39.80903],[9.10221,39.80879],[9.10229,39.80849],[9.10233,39.80821],[9.10227,39.80789],[9.10193,39.807],[9.10182,39.80623],[9.10178,39.8061],[9.10072,39.80498],[9.10049,39.80466],[9.09996,39.80355],[9.09977,39.80299],[9.09969,39.80229],[9.09968,39.80201],[9.09973,39.80179],[9.10011,39.80076],[9.10015,39.80052],[9.10011,39.80039],[9.09981,39.79981],[9.09976,39.7991],[9.09979,39.79869],[9.10046,39.7978],[9.10129,39.79643],[9.10164,39.79625],[9.1017,39.79614],[9.10128,39.79589],[9.1011,39.79559],[9.10044,39.79472],[9.09995,39.7942],[9.09974,39.79407],[9.09951,39.79398],[9.0989,39.79386],[9.09748,39.79342],[9.09713,39.79324],[9.09662,39.79292],[9.09649,39.79283],[9.09627,39.79253],[9.09556,39.79223],[9.09515,39.792],[9.0947,39.79167],[9.09451,39.79157],[9.09396,39.79153],[9.09345,39.79165],[9.09257,39.79161],[9.0918,39.79165],[9.08985,39.79161],[9.08846,39.79151]]},"properties":{}},{"type":"Feature","geometry":{"type":"LineString","coordinates":[[9.07014,39.85168],[9.07042,39.8516],[9.07114,39.85153],[9.07626,39.85171],[9.07663,39.85167],[9.07712,39.85156],[9.08116,39.85018],[9.08154,39.85013],[9.08338,39.8501],[9.0838,39.85001],[9.08407,39.84991],[9.08545,39.84912],[9.08571,39.84905],[9.08614,39.849],[9.08781,39.84912],[9.08848,39.8491],[9.08895,39.84903],[9.09098,39.84858],[9.09211,39.84839],[9.09672,39.84862]]},"properties":{}},{"type":"Feature","geometry":{"type":"LineString","coordinates":[[9.06987,39.85179],[9.07014,39.85168]]},"properties":{}},{"type":"Feature","geometry":{"type":"LineString","coordinates":[[9.09264,39.87548],[9.09186,39.87495],[9.09175,39.87483],[9.09165,39.87462],[9.09161,39.87428],[9.09186,39.87366],[9.0919,39.87339],[9.09187,39.87298],[9.09181,39.87287],[9.09123,39.87221],[9.09112,39.87215],[9.09103,39.87215],[9.08994,39.87266],[9.08966,39.87272],[9.08898,39.87279],[9.08876,39.8729],[9.08781,39.87362],[9.08676,39.87463],[9.08635,39.87478],[9.08562,39.87491],[9.08546,39.87497],[9.0853,39.87507],[9.08506,39.87539],[9.08491,39.87596],[9.0841,39.87704],[9.08387,39.87725],[9.08358,39.87743],[9.08211,39.87806],[9.08159,39.87837],[9.08039,39.87892],[9.07971,39.87941],[9.07896,39.8803],[9.07875,39.88044],[9.0777,39.88095],[9.07741,39.88106],[9.0772,39.8811],[9.07648,39.88105],[9.0763,39.88098],[9.0756,39.88044],[9.07543,39.88037],[9.07523,39.88034],[9.07408,39.88033],[9.07372,39.88029],[9.07257,39.87984],[9.07222,39.87973],[9.07162,39.87963],[9.07147,39.87957],[9.07144,39.87947],[9.07148,39.87937],[9.07179,39.87908],[9.07195,39.87856],[9.07235,39.87796],[9.07321,39.87627],[9.07349,39.87552],[9.07354,39.87524],[9.07352,39.87509],[9.07338,39.87497],[9.07329,39.87494],[9.07303,39.87496],[9.07171,39.8756],[9.07148,39.87565],[9.07107,39.87567],[9.07055,39.87579],[9.07037,39.87578],[9.0696,39.87557],[9.06934,39.87542],[9.06899,39.87511],[9.0688,39.87505],[9.06843,39.87512],[9.06795,39.8751],[9.0676,39.87516],[9.06743,39.87521],[9.06715,39.87552],[9.06698,39.87559],[9.06683,39.87556],[9.06677,39.8755],[9.06666,39.87526],[9.06646,39.87516],[9.06515,39.87512],[9.0649,39.87515],[9.06465,39.87522],[9.06333,39.87577],[9.06246,39.87624],[9.06171,39.87676],[9.06155,39.87681],[9.06087,39.87685],[9.06024,39.87701],[9.06007,39.87701],[9.05983,39.87695],[9.05903,39.87632],[9.05867,39.87597],[9.05839,39.87536],[9.05827,39.875],[9.05827,39.87486],[9.05835,39.87464],[9.05933,39.87304],[9.05932,39.87271],[9.05922,39.87222],[9.05914,39.87212],[9.05901,39.87204],[9.05871,39.87192],[9.05828,39.87187],[9.05765,39.8717],[9.05745,39.8716],[9.0569,39.8712],[9.05664,39.87091],[9.05607,39.86984],[9.05607,39.86974],[9.05617,39.86956],[9.05664,39.86893],[9.0567,39.86882],[9.0567,39.8687],[9.05665,39.86857],[9.05652,39.86839],[9.05626,39.8683],[9.05511,39.86815],[9.05432,39.86785],[9.05338,39.86734],[9.0532,39.86721],[9.05264,39.86645],[9.0526,39.86637],[9.05259,39.86612],[9.05276,39.86535],[9.05273,39.86441],[9.05277,39.86431],[9.05315,39.86382],[9.0532,39.86369],[9.05323,39.86337],[9.05344,39.86297],[9.05341,39.86252],[9.05322,39.86207],[9.05315,39.862],[9.05291,39.86188],[9.05256,39.86185],[9.05232,39.86177],[9.05221,39.86168],[9.0521,39.86148],[9.05209,39.86124],[9.05214,39.86075],[9.05234,39.86003],[9.05231,39.85985],[9.05224,39.8598],[9.05208,39.85975],[9.05072,39.85964],[9.0506,39.85956],[9.05035,39.8593]]},"properties":{}},{"type":"Feature","geometry":{"type":"LineString","coordinates":[[9.0469,39.83128],[9.04706,39.83112]]},"properties":{}},{"type":"Feature","geometry":{"type":"LineString","coordinates":[[9.04679,39.83152],[9.0469,39.83128]]},"properties":{}},{"type":"Feature","geometry":{"type":"LineString","coordinates":[[9.04768,39.84012],[9.04746,39.84016],[9.04675,39.8404],[9.04643,39.84043],[9.04636,39.84041],[9.04599,39.84018],[9.04555,39.84002],[9.0453,39.83977],[9.04521,39.83958],[9.04526,39.83945],[9.04559,39.83918],[9.04569,39.83908],[9.04572,39.83898],[9.0457,39.83885],[9.04551,39.83857],[9.04549,39.83848],[9.04554,39.83827],[9.04573,39.83796],[9.04574,39.83778],[9.04572,39.83771],[9.0454,39.83728],[9.04536,39.83717],[9.04537,39.83706],[9.04542,39.83696],[9.04578,39.83659],[9.04643,39.83628],[9.04649,39.83579],[9.04673,39.83487],[9.04686,39.83469],[9.04737,39.83429],[9.04746,39.83409],[9.04725,39.8332],[9.04714,39.83295],[9.04692,39.83257],[9.04688,39.83243],[9.04679,39.83152]]},"properties":{}},{"type":"Feature","geometry":{"type":"LineString","coordinates":[[9.04794,39.84021],[9.04768,39.84012]]},"properties":{}},{"type":"Feature","geometry":{"type":"LineString","coordinates":[[9.0575,39.85025],[9.05778,39.85021],[9.0581,39.85026],[9.05836,39.85026],[9.05856,39.85016],[9.05868,39.84998],[9.05865,39.84975],[9.05828,39.84904],[9.05821,39.84895],[9.05794,39.84874],[9.0579,39.84864],[9.05793,39.84853],[9.05801,39.84843],[9.05826,39.8482],[9.05842,39.84812],[9.05869,39.84811],[9.0591,39.84824],[9.0594,39.84824],[9.05964,39.84816],[9.05985,39.84802],[9.05992,39.84782],[9.05991,39.84769],[9.05947,39.84666],[9.05928,39.84644],[9.059,39.84635],[9.05868,39.84634],[9.05839,39.84635],[9.05783,39.84645],[9.05748,39.84658],[9.05715,39.84695],[9.05705,39.84698],[9.05694,39.84698],[9.05656,39.84686],[9.05636,39.84676],[9.0563,39.8467],[9.05618,39.8463],[9.05603,39.84625],[9.05551,39.84614],[9.05506,39.84609],[9.05456,39.84611],[9.05363,39.84637],[9.0533,39.8464],[9.05305,39.84637],[9.05278,39.84629],[9.05164,39.84552],[9.05138,39.84517],[9.05057,39.84481],[9.05018,39.84455],[9.04991,39.84426],[9.04987,39.84413],[9.04991,39.84384],[9.04985,39.84369],[9.04935,39.84338],[9.0488,39.84276],[9.04807,39.84223],[9.04789,39.84206],[9.04783,39.84197],[9.04788,39.84143],[9.04781,39.84108],[9.048,39.84044],[9.04794,39.84021]]},"properties":{}},{"type":"Feature","geometry":{"type":"LineString","coordinates":[[9.05707,39.85275],[9.05714,39.85247],[9.0571,39.85221],[9.0569,39.8518],[9.05635,39.85124],[9.0563,39.85102],[9.05639,39.8508],[9.05703,39.85054],[9.0575,39.85025]]},"properties":{}},{"type":"Feature","geometry":{"type":"LineString","coordinates":[[9.05479,39.85281],[9.0551,39.85285]]},"properties":{}},{"type":"Feature","geometry":{"type":"LineString","coordinates":[[9.05479,39.85281],[9.05449,39.85285]]},"properties":{}},{"type":"Feature","geometry":{"type":"LineString","coordinates":[[9.0551,39.85285],[9.05579,39.85308]]},"properties":{}},{"type":"Feature","geometry":{"type":"LineString","coordinates":[[9.05601,39.85314],[9.05636,39.85323],[9.05659,39.85321],[9.05674,39.85316],[9.05685,39.85309],[9.05698,39.85293],[9.05707,39.85275]]},"properties":{}},{"type":"Feature","geometry":{"type":"LineString","coordinates":[[9.05579,39.85308],[9.05601,39.85314]]},"properties":{}},{"type":"Feature","geometry":{"type":"LineString","coordinates":[[9.05218,39.85419],[9.05411,39.85303],[9.05449,39.85285]]},"properties":{}},{"type":"Feature","geometry":{"type":"LineString","coordinates":[[9.05163,39.85453],[9.05218,39.85419]]},"properties":{}},{"type":"Feature","geometry":{"type":"LineString","coordinates":[[9.05897,39.85933],[9.05954,39.85879],[9.05966,39.85854],[9.06009,39.85708],[9.0605,39.85632],[9.06064,39.85611],[9.06076,39.85602],[9.06114,39.85584],[9.06489,39.85453],[9.06718,39.85353],[9.06799,39.85304],[9.06946,39.85203],[9.06987,39.85179]]},"properties":{}},{"type":"Feature","geometry":{"type":"LineString","coordinates":[[9.05035,39.8593],[9.04992,39.85906],[9.04982,39.8589],[9.04984,39.85875],[9.04998,39.85858],[9.05077,39.85806],[9.05139,39.85795],[9.0523,39.85819],[9.05255,39.85815],[9.05264,39.85807],[9.05232,39.85683],[9.05226,39.85649],[9.05204,39.85619],[9.05185,39.85576],[9.05148,39.85544],[9.05129,39.85515],[9.05128,39.85494],[9.05132,39.85481],[9.05141,39.85469],[9.05163,39.85453]]},"properties":{}},{"type":"Feature","geometry":{"type":"LineString","coordinates":[[9.05886,39.85944],[9.05897,39.85933]]},"properties":{}},{"type":"Feature","geometry":{"type":"LineString","coordinates":[[9.05772,39.86056],[9.05886,39.85944]]},"properties":{}},{"type":"Feature","geometry":{"type":"LineString","coordinates":[[9.05653,39.86225],[9.05674,39.86221],[9.05708,39.86201],[9.05726,39.86176],[9.05752,39.86088],[9.05772,39.86056]]},"properties":{}},{"type":"Feature","geometry":{"type":"LineString","coordinates":[[9.05553,39.86088],[9.05574,39.86156],[9.05591,39.86193],[9.05604,39.8621],[9.05621,39.8622],[9.05653,39.86225]]},"properties":{}},{"type":"Feature","geometry":{"type":"LineString","coordinates":[[9.05322,39.86345],[9.05339,39.86343],[9.05361,39.86321],[9.05453,39.86219],[9.0546,39.86196],[9.05456,39.86128],[9.05457,39.86096],[9.05466,39.86077],[9.05488,39.86067],[9.05508,39.86065],[9.05531,39.86069],[9.05553,39.86088]]},"properties":{}},{"type":"Feature","geometry":{"type":"LineString","coordinates":[[9.02615,39.75],[9.0259,39.7502],[9.02584,39.75031],[9.02584,39.75038],[9.02589,39.75046],[9.02604,39.75059],[9.02648,39.75084],[9.02657,39.75094],[9.02657,39.75099],[9.02647,39.75121],[9.02604,39.75175],[9.02597,39.7519],[9.02591,39.7521],[9.02595,39.75267]]},"properties":{}},{"type":"Feature","geometry":{"type":"LineString","coordinates":[[9.02595,39.75267],[9.02598,39.7532]]},"properties":{}},{"type":"Feature","geometry":{"type":"LineString","coordinates":[[9.04681,39.99414],[9.04675,39.99394]]},"properties":{}},{"type":"Feature","geometry":{"type":"LineString","coordinates":[[9.04681,39.99414],[9.04701,39.99401]]},"properties":{}},{"type":"Feature","geometry":{"type":"LineString","coordinates":[[9.04701,39.99401],[9.047,39.99409],[9.04694,39.99416]]},"properties":{}},{"type":"Feature","geometry":{"type":"LineString","coordinates":[[9.04737,39.9941],[9.04694,39.99416]]},"properties":{}},{"type":"Feature","geometry":{"type":"LineString","coordinates":[[9.04672,39.99425],[9.04681,39.99414]]},"properties":{}},{"type":"Feature","geometry":{"type":"LineString","coordinates":[[9.04694,39.99416],[9.04672,39.99425]]},"properties":{}},{"type":"Feature","geometry":{"type":"LineString","coordinates":[[9.09306,39.87557],[9.09277,39.87553],[9.09264,39.87548]]},"properties":{}},{"type":"Feature","geometry":{"type":"LineString","coordinates":[[9.07305,39.98769],[9.07359,39.98753]]},"properties":{}},{"type":"Feature","geometry":{"type":"LineString","coordinates":[[9.07262,39.98757],[9.07281,39.98766],[9.07305,39.98769]]},"properties":{}},{"type":"Feature","geometry":{"type":"LineString","coordinates":[[9.07359,39.98753],[9.07319,39.98777]]},"properties":{}},{"type":"Feature","geometry":{"type":"LineString","coordinates":[[9.07287,39.98785],[9.07305,39.98769]]},"properties":{}},{"type":"Feature","geometry":{"type":"LineString","coordinates":[[9.07319,39.98777],[9.07304,39.98784],[9.07287,39.98785]]},"properties":{}},{"type":"Feature","geometry":{"type":"LineString","coordinates":[[9.07319,39.98777],[9.07312,39.98803],[9.07321,39.9882]]},"properties":{}},{"type":"Feature","geometry":{"type":"LineString","coordinates":[[9.11262,39.75785],[9.1133,39.75757],[9.11437,39.75726],[9.11467,39.75712],[9.11489,39.75694],[9.11497,39.7567],[9.11477,39.75585],[9.11471,39.75525],[9.11474,39.75506],[9.11547,39.75437],[9.11558,39.75404],[9.11569,39.75383],[9.11578,39.75375],[9.1162,39.75363],[9.11645,39.75349],[9.11691,39.75287],[9.11748,39.75239],[9.11768,39.75217],[9.11779,39.75194],[9.1178,39.7518],[9.11774,39.75126],[9.11762,39.7507],[9.11748,39.75047],[9.11734,39.75033],[9.11669,39.75003],[9.11655,39.75]]},"properties":{}},{"type":"Feature","geometry":{"type":"LineString","coordinates":[[9.11614,39.75],[9.11517,39.75033],[9.11412,39.75049],[9.11299,39.75044],[9.11256,39.75028],[9.11228,39.75]]},"properties":{}},{"type":"Feature","geometry":{"type":"LineString","coordinates":[[9.11262,39.75785],[9.1121,39.758],[9.11182,39.75804],[9.11155,39.75804],[9.11093,39.75787],[9.11073,39.75789]]},"properties":{}},{"type":"Feature","geometry":{"type":"LineString","coordinates":[[9.11231,39.75808],[9.11262,39.75785]]},"properties":{}},{"type":"Feature","geometry":{"type":"LineString","coordinates":[[9.11073,39.75789],[9.11049,39.75807],[9.11009,39.75821],[9.10982,39.75825],[9.1096,39.75839],[9.1076,39.75874],[9.1069,39.75898],[9.10643,39.75922],[9.10581,39.75961]]},"properties":{}},{"type":"Feature","geometry":{"type":"LineString","coordinates":[[9.11088,39.75946],[9.1112,39.75898],[9.1114,39.75877],[9.11162,39.75856],[9.11231,39.75808]]},"properties":{}},{"type":"Feature","geometry":{"type":"LineString","coordinates":[[9.10947,39.7618],[9.10988,39.76138],[9.11016,39.76093],[9.11054,39.76014]]},"properties":{}},{"type":"Feature","geometry":{"type":"LineString","coordinates":[[9.10895,39.76226],[9.10947,39.7618]]},"properties":{}},{"type":"Feature","geometry":{"type":"LineString","coordinates":[[9.15956,39.75],[9.16016,39.75089],[9.16029,39.75112],[9.16032,39.75128],[9.16028,39.75148],[9.15994,39.75241],[9.1599,39.75258],[9.15993,39.75275],[9.16054,39.75461],[9.16073,39.75602],[9.16066,39.75757],[9.16028,39.76026],[9.1603,39.76045],[9.16041,39.76065],[9.1607,39.76106],[9.16081,39.76127],[9.16083,39.76164],[9.16072,39.76184],[9.16048,39.76208],[9.16022,39.76266],[9.16018,39.76293],[9.1602,39.76317],[9.16029,39.76343],[9.16044,39.76372],[9.16092,39.76435],[9.16154,39.76483],[9.16197,39.76532],[9.16217,39.76567],[9.16229,39.76581],[9.16289,39.76614],[9.16309,39.76632],[9.16322,39.76651],[9.16343,39.76727],[9.16371,39.76768],[9.16377,39.76783],[9.16375,39.768],[9.16365,39.76814],[9.16287,39.76854],[9.16271,39.76866],[9.16205,39.76859],[9.16082,39.76876],[9.16063,39.76873],[9.16052,39.76867],[9.16004,39.76806],[9.15992,39.76764],[9.15982,39.76746],[9.15961,39.76727],[9.15802,39.76692],[9.15784,39.76694],[9.15762,39.76703],[9.15686,39.76739],[9.15666,39.76751],[9.1562,39.7679],[9.1549,39.7688],[9.1545,39.76891],[9.15304,39.76913],[9.15289,39.7692],[9.15185,39.76996],[9.15166,39.77006],[9.1515,39.77011],[9.15074,39.77019],[9.14878,39.77059],[9.14537,39.77098],[9.14475,39.7707],[9.14435,39.77027],[9.14424,39.77018],[9.14414,39.77015],[9.14404,39.77014],[9.14353,39.77024],[9.14295,39.77019],[9.14215,39.77023],[9.14042,39.76967],[9.13955,39.76921],[9.13928,39.76911],[9.13671,39.7684],[9.13591,39.768],[9.13439,39.76747],[9.13358,39.76694],[9.13343,39.76688],[9.13207,39.76656],[9.13171,39.76642],[9.13068,39.76571],[9.1305,39.76563],[9.1299,39.76552],[9.12914,39.76529],[9.1288,39.76511],[9.12844,39.76484],[9.12819,39.7646],[9.12751,39.76355],[9.12734,39.76344],[9.12714,39.76338],[9.12686,39.76336],[9.12603,39.76341],[9.12586,39.7634],[9.12573,39.76334],[9.12438,39.76202],[9.12408,39.76179],[9.12379,39.76165],[9.12327,39.76151],[9.1225,39.76145],[9.11955,39.76177],[9.11917,39.76178],[9.11872,39.76173],[9.11838,39.76166],[9.11726,39.7612],[9.11703,39.76104],[9.11695,39.76093],[9.11681,39.76061],[9.1166,39.7604],[9.1161,39.76004],[9.11529,39.75932],[9.115,39.75912],[9.11455,39.75896],[9.11425,39.75891],[9.11398,39.75888],[9.11356,39.75894],[9.11316,39.75905],[9.11275,39.75922],[9.1123,39.75946],[9.11182,39.75999],[9.11166,39.76005],[9.1115,39.76006],[9.11068,39.75989]]},"properties":{}},{"type":"Feature","geometry":{"type":"LineString","coordinates":[[9.13142,39.77707],[9.13124,39.77689]]},"properties":{}},{"type":"Feature","geometry":{"type":"LineString","coordinates":[[9.13142,39.77707],[9.13449,39.78998]]},"properties":{}},{"type":"Feature","geometry":{"type":"LineString","coordinates":[[9.13232,39.78771],[9.13225,39.78775],[9.13224,39.78781],[9.13243,39.78876],[9.13232,39.78884],[9.13042,39.78912]]},"properties":{}},{"type":"Feature","geometry":{"type":"LineString","coordinates":[[9.13449,39.78998],[9.13078,39.7905],[9.12824,39.79089]]},"properties":{}},{"type":"Feature","geometry":{"type":"LineString","coordinates":[[9.16008,39.75323],[9.15968,39.75326],[9.1592,39.75322],[9.15895,39.75316],[9.15875,39.75308],[9.15822,39.75268],[9.15793,39.75237],[9.15757,39.75176],[9.15744,39.75162],[9.15666,39.75109],[9.15646,39.7509],[9.15633,39.75073],[9.15608,39.75]]},"properties":{}},{"type":"Feature","geometry":{"type":"LineString","coordinates":[[9.17714,39.7598],[9.17742,39.76007],[9.17804,39.76078],[9.17826,39.76124],[9.17828,39.76139],[9.17826,39.76152],[9.17804,39.76199],[9.17794,39.76259],[9.17804,39.76265],[9.17863,39.7624],[9.17883,39.76237],[9.17908,39.76242],[9.17943,39.76274],[9.17962,39.76317],[9.17979,39.76322],[9.17994,39.76317],[9.18045,39.76271],[9.18062,39.76265],[9.18112,39.76271],[9.18142,39.76296],[9.18152,39.7632],[9.18156,39.76395],[9.18165,39.76421],[9.18165,39.76436],[9.18159,39.7645],[9.1816,39.76458],[9.1817,39.76461],[9.18201,39.7644],[9.18215,39.76439],[9.18239,39.76448],[9.18264,39.76448],[9.1828,39.76436],[9.18322,39.76383],[9.18346,39.76372],[9.18368,39.76369],[9.18396,39.76371],[9.18429,39.76379],[9.18562,39.76431],[9.18649,39.76453],[9.18668,39.76449],[9.18712,39.7642],[9.1873,39.76413],[9.18745,39.76417],[9.18754,39.76432],[9.18768,39.76483],[9.1877,39.76509],[9.18764,39.7653],[9.18749,39.76548],[9.18696,39.76582],[9.18685,39.76597],[9.18681,39.7661],[9.18686,39.76624],[9.18706,39.76631],[9.18732,39.76633],[9.18762,39.76631]]},"properties":{}},{"type":"Feature","geometry":{"type":"LineString","coordinates":[[9.19229,39.89261],[9.19211,39.89214],[9.19209,39.89193],[9.19214,39.89173]]},"properties":{}},{"type":"Feature","geometry":{"type":"LineString","coordinates":[[9.19401,39.89714],[9.19401,39.8969],[9.1939,39.89656],[9.19229,39.89261]]},"properties":{}},{"type":"Feature","geometry":{"type":"LineString","coordinates":[[9.19311,39.8985],[9.19382,39.89754]]},"properties":{}},{"type":"Feature","geometry":{"type":"LineString","coordinates":[[9.17857,39.79263],[9.17631,39.79328],[9.17598,39.79344]]},"properties":{}},{"type":"Feature","geometry":{"type":"LineString","coordinates":[[9.18762,39.76631],[9.18883,39.766],[9.18895,39.76591],[9.18932,39.76544],[9.18953,39.76534],[9.19028,39.76517],[9.19092,39.76492],[9.19167,39.76468],[9.19189,39.76465],[9.19206,39.76468],[9.19226,39.76496],[9.19252,39.76559],[9.19262,39.7657],[9.19278,39.76575],[9.19293,39.76575],[9.19371,39.76529],[9.19392,39.7652],[9.19407,39.76519],[9.19579,39.76515],[9.19598,39.7652],[9.19656,39.76543],[9.19669,39.76539],[9.19784,39.76462],[9.19796,39.76456],[9.19812,39.76458],[9.19824,39.76464],[9.1983,39.76475],[9.19834,39.76496],[9.19813,39.76604],[9.19816,39.76619],[9.19826,39.76628],[9.19842,39.76634],[9.19859,39.7663],[9.19933,39.76544],[9.1995,39.76534],[9.19968,39.76533],[9.19985,39.76539],[9.19993,39.76551],[9.19999,39.76571],[9.19999,39.76634],[9.20002,39.76658],[9.20009,39.76678],[9.20027,39.76705],[9.20051,39.76723],[9.20072,39.76729],[9.2009,39.76722],[9.20098,39.7671],[9.20094,39.76696],[9.20045,39.76633],[9.20043,39.76618],[9.20056,39.76595],[9.20066,39.76589],[9.20076,39.76589],[9.20097,39.766],[9.20123,39.76623],[9.20222,39.76746],[9.20267,39.76831],[9.20289,39.76853],[9.20325,39.76878],[9.20388,39.76903]]},"properties":{}},{"type":"Feature","geometry":{"type":"LineString","coordinates":[[9.20388,39.76903],[9.20405,39.76909]]},"properties":{}},{"type":"Feature","geometry":{"type":"LineString","coordinates":[[9.21015,39.78491],[9.20777,39.78671],[9.20523,39.78808],[9.20481,39.78823],[9.20443,39.78833],[9.20404,39.78837],[9.20371,39.78838],[9.20205,39.78833],[9.20033,39.78823],[9.19953,39.78807],[9.19802,39.7876],[9.1975,39.78748],[9.19657,39.78741],[9.1935,39.78731],[9.19266,39.78741],[9.19159,39.78777],[9.19044,39.78829],[9.18973,39.78844],[9.18678,39.78895],[9.18621,39.78913],[9.18575,39.78945],[9.18381,39.79147],[9.18351,39.79169],[9.18325,39.79184],[9.18283,39.792],[9.18228,39.79211],[9.18028,39.7922],[9.17975,39.79229],[9.17857,39.79263]]},"properties":{}},{"type":"Feature","geometry":{"type":"LineString","coordinates":[[9.15845,39.80994],[9.15888,39.80939],[9.15897,39.80922],[9.1593,39.80822],[9.16014,39.80678],[9.16114,39.80417],[9.16124,39.80376],[9.16146,39.80161],[9.16143,39.80123],[9.1613,39.8008],[9.16116,39.80051],[9.16055,39.79954],[9.1603,39.79891],[9.16023,39.79857],[9.16019,39.79804],[9.16,39.79503],[9.16001,39.79451],[9.16005,39.79423],[9.16021,39.79377],[9.16084,39.79257],[9.1609,39.79218],[9.16088,39.79189],[9.16072,39.7914],[9.15954,39.78964],[9.15922,39.78929],[9.15887,39.78902],[9.15842,39.78874],[9.15775,39.78849],[9.15084,39.78645],[9.15004,39.7863],[9.14926,39.78627],[9.14831,39.78636],[9.14785,39.78646],[9.14729,39.78664],[9.14676,39.78688],[9.14483,39.78797],[9.14442,39.78818],[9.14358,39.78851],[9.14289,39.78872],[9.14215,39.78888],[9.13449,39.78998]]},"properties":{}},{"type":"Feature","geometry":{"type":"LineString","coordinates":[[9.17598,39.79344],[9.17459,39.79439],[9.1738,39.79501],[9.17234,39.79677],[9.17167,39.79746],[9.16986,39.7991],[9.16605,39.80266],[9.16042,39.80904],[9.1596,39.80965],[9.15866,39.81016],[9.15748,39.81075],[9.15653,39.81128],[9.15585,39.81179],[9.1541,39.81327],[9.15351,39.81368],[9.14929,39.81599],[9.14859,39.81629],[9.13731,39.82036],[9.13665,39.82071],[9.13607,39.82117],[9.13432,39.82275],[9.13393,39.82311],[9.13367,39.82344],[9.1335,39.82387],[9.13345,39.82431],[9.13381,39.82597]]},"properties":{}},{"type":"Feature","geometry":{"type":"LineString","coordinates":[[9.15845,39.80994],[9.15841,39.81005]]},"properties":{}},{"type":"Feature","geometry":{"type":"LineString","coordinates":[[9.21126,39.77785],[9.21072,39.77734],[9.20972,39.77654],[9.20931,39.77641],[9.20895,39.77634],[9.20867,39.77623]]},"properties":{}},{"type":"Feature","geometry":{"type":"LineString","coordinates":[[9.21187,39.77709],[9.21204,39.77718],[9.21211,39.77715],[9.21222,39.77708],[9.21229,39.77693]]},"properties":{}},{"type":"Feature","geometry":{"type":"LineString","coordinates":[[9.21204,39.77718],[9.21222,39.77721],[9.21244,39.7772]]},"properties":{}},{"type":"Feature","geometry":{"type":"LineString","coordinates":[[9.21221,39.77679],[9.21274,39.77771]]},"properties":{}},{"type":"Feature","geometry":{"type":"LineString","coordinates":[[9.21246,39.77723],[9.21231,39.77737],[9.21215,39.77738]]},"properties":{}},{"type":"Feature","geometry":{"type":"LineString","coordinates":[[9.21274,39.77771],[9.21215,39.77738],[9.2119,39.77717],[9.21187,39.77709]]},"properties":{}},{"type":"Feature","geometry":{"type":"LineString","coordinates":[[9.21282,39.7778],[9.21285,39.77775],[9.21254,39.77722],[9.21256,39.77711],[9.21276,39.77703],[9.21306,39.77737],[9.21327,39.77752],[9.21452,39.77766],[9.21488,39.77775]]},"properties":{}},{"type":"Feature","geometry":{"type":"LineString","coordinates":[[9.20983,39.77755],[9.21041,39.77763],[9.21089,39.77786],[9.21116,39.77795]]},"properties":{}},{"type":"Feature","geometry":{"type":"LineString","coordinates":[[9.21776,39.77747],[9.21748,39.77771],[9.21742,39.77784],[9.21738,39.7781]]},"properties":{}},{"type":"Feature","geometry":{"type":"LineString","coordinates":[[9.21116,39.77795],[9.21126,39.77785]]},"properties":{}},{"type":"Feature","geometry":{"type":"LineString","coordinates":[[9.21488,39.77775],[9.21561,39.77846]]},"properties":{}},{"type":"Feature","geometry":{"type":"LineString","coordinates":[[9.21274,39.77771],[9.21295,39.77792],[9.21311,39.77804],[9.21379,39.77812],[9.21439,39.7783],[9.21448,39.77838],[9.21462,39.77862]]},"properties":{}},{"type":"Feature","geometry":{"type":"LineString","coordinates":[[9.21064,39.77841],[9.21116,39.77795]]},"properties":{}},{"type":"Feature","geometry":{"type":"LineString","coordinates":[[9.21561,39.77846],[9.21617,39.77837],[9.21654,39.77822],[9.21738,39.7781],[9.218,39.77812]]},"properties":{}},{"type":"Feature","geometry":{"type":"LineString","coordinates":[[9.21286,39.77873],[9.2126,39.77866],[9.212,39.77835],[9.21126,39.77785]]},"properties":{}},{"type":"Feature","geometry":{"type":"LineString","coordinates":[[9.21411,39.77856],[9.21453,39.77857],[9.21462,39.77862]]},"properties":{}},{"type":"Feature","geometry":{"type":"LineString","coordinates":[[9.21561,39.77846],[9.21557,39.77863],[9.21538,39.7788],[9.21507,39.77869],[9.21462,39.77862]]},"properties":{}},{"type":"Feature","geometry":{"type":"LineString","coordinates":[[9.21411,39.77856],[9.21299,39.77869],[9.21286,39.77873]]},"properties":{}},{"type":"Feature","geometry":{"type":"LineString","coordinates":[[9.21734,39.77879],[9.21747,39.77876]]},"properties":{}},{"type":"Feature","geometry":{"type":"LineString","coordinates":[[9.21462,39.77862],[9.2146,39.77889],[9.21449,39.77905],[9.21388,39.77927],[9.21379,39.77932],[9.21351,39.7796]]},"properties":{}},{"type":"Feature","geometry":{"type":"LineString","coordinates":[[9.21286,39.77873],[9.21185,39.77932],[9.21174,39.77944],[9.2117,39.77958],[9.21175,39.77971]]},"properties":{}},{"type":"Feature","geometry":{"type":"LineString","coordinates":[[9.21286,39.77873],[9.21321,39.77903],[9.21328,39.77915],[9.21328,39.7794],[9.2133,39.77945],[9.21351,39.7796],[9.21413,39.7797],[9.21451,39.77971],[9.21486,39.77983],[9.21524,39.77981]]},"properties":{}},{"type":"Feature","geometry":{"type":"LineString","coordinates":[[9.21734,39.77879],[9.21691,39.77893],[9.21675,39.77906],[9.21605,39.77937],[9.21539,39.77977],[9.21524,39.77981]]},"properties":{}},{"type":"Feature","geometry":{"type":"LineString","coordinates":[[9.21747,39.77876],[9.21756,39.77898],[9.21759,39.77908],[9.21756,39.77912],[9.2168,39.77951],[9.21619,39.77996],[9.21616,39.78005]]},"properties":{}},{"type":"Feature","geometry":{"type":"LineString","coordinates":[[9.21462,39.77862],[9.21511,39.77938],[9.21531,39.77956],[9.21525,39.7797],[9.21522,39.7799],[9.21494,39.78041],[9.21456,39.78079]]},"properties":{}},{"type":"Feature","geometry":{"type":"LineString","coordinates":[[9.21187,39.77709],[9.21158,39.77659],[9.21102,39.77591],[9.21071,39.77568],[9.21044,39.77556],[9.21011,39.7755],[9.20975,39.77553],[9.20943,39.77564],[9.20923,39.77576],[9.20867,39.77623],[9.20817,39.77674],[9.20799,39.77699],[9.20791,39.77727],[9.20787,39.77747],[9.20793,39.77785],[9.208,39.7781],[9.21045,39.78396]]},"properties":{}},{"type":"Feature","geometry":{"type":"LineString","coordinates":[[9.21351,39.7796],[9.21339,39.77968],[9.21282,39.77988],[9.21235,39.7801],[9.21227,39.78016]]},"properties":{}},{"type":"Feature","geometry":{"type":"LineString","coordinates":[[9.21175,39.77971],[9.21227,39.78016]]},"properties":{}},{"type":"Feature","geometry":{"type":"LineString","coordinates":[[9.21679,39.77987],[9.2164,39.78002],[9.21612,39.78006],[9.21581,39.78026],[9.21562,39.78041],[9.21507,39.78101],[9.21495,39.78101],[9.21456,39.78079]]},"properties":{}},{"type":"Feature","geometry":{"type":"LineString","coordinates":[[9.21001,39.78154],[9.21049,39.78117],[9.21227,39.78016]]},"properties":{}},{"type":"Feature","geometry":{"type":"LineString","coordinates":[[9.20992,39.77991],[9.21215,39.78183],[9.21222,39.78186],[9.21229,39.78184],[9.21262,39.78162]]},"properties":{}},{"type":"Feature","geometry":{"type":"LineString","coordinates":[[9.21522,39.78132],[9.21491,39.78117],[9.21453,39.7808]]},"properties":{}},{"type":"Feature","geometry":{"type":"LineString","coordinates":[[9.21227,39.78016],[9.21228,39.78025],[9.21214,39.78071],[9.21217,39.78089],[9.21246,39.78123],[9.21287,39.78222],[9.21299,39.78231]]},"properties":{}},{"type":"Feature","geometry":{"type":"LineString","coordinates":[[9.21456,39.78079],[9.21389,39.78113],[9.21372,39.78139],[9.21371,39.78149],[9.21384,39.78179],[9.21382,39.78186],[9.21299,39.78231]]},"properties":{}},{"type":"Feature","geometry":{"type":"LineString","coordinates":[[9.20979,39.78237],[9.21002,39.78233],[9.21217,39.78089]]},"properties":{}},{"type":"Feature","geometry":{"type":"LineString","coordinates":[[9.20998,39.78234],[9.20975,39.78179],[9.21001,39.78154]]},"properties":{}},{"type":"Feature","geometry":{"type":"LineString","coordinates":[[9.21021,39.78285],[9.21196,39.78167]]},"properties":{}},{"type":"Feature","geometry":{"type":"LineString","coordinates":[[9.21059,39.78307],[9.2111,39.78276],[9.21117,39.78269],[9.21116,39.78258],[9.21001,39.78154]]},"properties":{}},{"type":"Feature","geometry":{"type":"LineString","coordinates":[[9.21801,39.78334],[9.21779,39.78302],[9.21765,39.78292],[9.21722,39.78273],[9.21522,39.78132]]},"properties":{}},{"type":"Feature","geometry":{"type":"LineString","coordinates":[[9.21375,39.7819],[9.2143,39.78269],[9.21433,39.78281]]},"properties":{}},{"type":"Feature","geometry":{"type":"LineString","coordinates":[[9.21363,39.78302],[9.21326,39.78285],[9.21299,39.78231]]},"properties":{}},{"type":"Feature","geometry":{"type":"LineString","coordinates":[[9.21299,39.78231],[9.21258,39.78259],[9.21244,39.78278],[9.2124,39.78294],[9.2123,39.78309]]},"properties":{}},{"type":"Feature","geometry":{"type":"LineString","coordinates":[[9.21433,39.78281],[9.21405,39.78316]]},"properties":{}},{"type":"Feature","geometry":{"type":"LineString","coordinates":[[9.21378,39.78354],[9.21363,39.78302]]},"properties":{}},{"type":"Feature","geometry":{"type":"LineString","coordinates":[[9.21263,39.78354],[9.21259,39.78344],[9.2123,39.78309]]},"properties":{}},{"type":"Feature","geometry":{"type":"LineString","coordinates":[[9.21299,39.78338],[9.21263,39.78354]]},"properties":{}},{"type":"Feature","geometry":{"type":"LineString","coordinates":[[9.21378,39.78354],[9.21318,39.78368],[9.21305,39.78341],[9.21299,39.78338]]},"properties":{}},{"type":"Feature","geometry":{"type":"LineString","coordinates":[[9.21433,39.78281],[9.2161,39.78363],[9.21644,39.78428]]},"properties":{}},{"type":"Feature","geometry":{"type":"LineString","coordinates":[[9.2123,39.78309],[9.21107,39.78416]]},"properties":{}},{"type":"Feature","geometry":{"type":"LineString","coordinates":[[9.21644,39.78428],[9.21521,39.78366],[9.21405,39.78316],[9.21363,39.78302]]},"properties":{}},{"type":"Feature","geometry":{"type":"LineString","coordinates":[[9.21644,39.78428],[9.21658,39.7845],[9.21656,39.78457],[9.2165,39.78464],[9.21632,39.78467],[9.21378,39.78354]]},"properties":{}},{"type":"Feature","geometry":{"type":"LineString","coordinates":[[9.21049,39.7843],[9.21045,39.78396]]},"properties":{}},{"type":"Feature","geometry":{"type":"LineString","coordinates":[[9.21161,39.78463],[9.21174,39.78461],[9.21268,39.78371]]},"properties":{}},{"type":"Feature","geometry":{"type":"LineString","coordinates":[[9.21107,39.78416],[9.21077,39.78441]]},"properties":{}},{"type":"Feature","geometry":{"type":"LineString","coordinates":[[9.21024,39.78484],[9.21041,39.78458],[9.21049,39.7843]]},"properties":{}},{"type":"Feature","geometry":{"type":"LineString","coordinates":[[9.21077,39.78441],[9.21024,39.78484]]},"properties":{}},{"type":"Feature","geometry":{"type":"LineString","coordinates":[[9.21236,39.7845],[9.21198,39.78489],[9.2122,39.78499]]},"properties":{}},{"type":"Feature","geometry":{"type":"LineString","coordinates":[[9.21024,39.78484],[9.21015,39.78491]]},"properties":{}},{"type":"Feature","geometry":{"type":"LineString","coordinates":[[9.21174,39.78663],[9.21183,39.78649],[9.21212,39.78621],[9.21219,39.78608],[9.2122,39.78499],[9.21223,39.78481],[9.2123,39.78471],[9.21269,39.78437],[9.2127,39.78391],[9.21263,39.78354]]},"properties":{}},{"type":"Feature","geometry":{"type":"LineString","coordinates":[[9.21182,39.78808],[9.21174,39.78783],[9.21169,39.7868],[9.21174,39.78663]]},"properties":{}},{"type":"Feature","geometry":{"type":"LineString","coordinates":[[9.21629,39.76386],[9.21682,39.7641],[9.21695,39.76428],[9.21697,39.76448],[9.21693,39.76458],[9.21652,39.76505],[9.21643,39.76525],[9.21638,39.76552],[9.21632,39.76563],[9.21591,39.76582],[9.21586,39.76591],[9.21588,39.76598],[9.21609,39.76611],[9.21629,39.76614],[9.2166,39.76611],[9.217,39.76597],[9.21714,39.76598],[9.2172,39.76602],[9.21769,39.76666],[9.21779,39.76704],[9.218,39.76735],[9.21805,39.76753],[9.21803,39.7679],[9.21793,39.76808],[9.21768,39.76834],[9.21763,39.76854],[9.21762,39.76877],[9.21778,39.76963],[9.21787,39.76976],[9.21805,39.76985],[9.21883,39.77012],[9.21906,39.77016],[9.21926,39.77017],[9.21945,39.77014],[9.21971,39.77016],[9.22055,39.7703],[9.22073,39.77035],[9.22083,39.77043],[9.22086,39.77057],[9.22082,39.77067],[9.22064,39.77084],[9.22063,39.77094],[9.22071,39.77101],[9.22084,39.77104],[9.22096,39.77097],[9.22117,39.77047],[9.2212,39.77027],[9.22114,39.76922],[9.2212,39.7691],[9.22125,39.76905],[9.22132,39.76902],[9.22149,39.769],[9.22167,39.76907],[9.22253,39.77017],[9.22268,39.7702],[9.2228,39.77018],[9.22289,39.77006],[9.22286,39.76967],[9.22288,39.76945],[9.22295,39.76935],[9.22309,39.76924],[9.22395,39.76878],[9.22413,39.76874],[9.22431,39.76875],[9.22447,39.7688],[9.22468,39.76895],[9.22474,39.76918],[9.22427,39.77028],[9.22428,39.77047],[9.22434,39.77063],[9.22447,39.77079],[9.22461,39.77091],[9.22489,39.77103],[9.22669,39.77142],[9.2272,39.77161],[9.22739,39.77162]]},"properties":{}},{"type":"Feature","geometry":{"type":"LineString","coordinates":[[9.22916,39.77108],[9.22939,39.77097],[9.22991,39.77062],[9.23093,39.76969],[9.23104,39.76945],[9.2311,39.76915],[9.2309,39.76831],[9.23099,39.7681],[9.23219,39.76684],[9.23256,39.76661],[9.23365,39.7661],[9.23388,39.76608],[9.23406,39.76615],[9.23445,39.76648],[9.23453,39.7665],[9.23467,39.76648],[9.23491,39.76632],[9.23506,39.76628],[9.23523,39.76631],[9.23563,39.76658],[9.23589,39.76665],[9.2363,39.76667],[9.23682,39.76662],[9.23695,39.7665],[9.23697,39.76634],[9.23673,39.76589],[9.23672,39.76575],[9.2368,39.76563],[9.23698,39.76557],[9.23739,39.76558]]},"properties":{}},{"type":"Feature","geometry":{"type":"LineString","coordinates":[[9.22739,39.77162],[9.22916,39.77108]]},"properties":{}},{"type":"Feature","geometry":{"type":"LineString","coordinates":[[9.22418,39.86745],[9.22425,39.86741],[9.22526,39.86733],[9.22542,39.86728],[9.2257,39.867],[9.22601,39.86602],[9.22598,39.86565],[9.22604,39.86541],[9.22698,39.86392],[9.22724,39.8636],[9.22769,39.86315],[9.2281,39.86258],[9.22837,39.86203],[9.22855,39.86135],[9.22879,39.86066],[9.22934,39.85858],[9.22961,39.85812],[9.22965,39.85769],[9.22977,39.85753],[9.22996,39.85737],[9.23002,39.85725],[9.22998,39.85715],[9.22979,39.85696],[9.22975,39.85649],[9.22971,39.85637],[9.22958,39.85627],[9.22929,39.85616],[9.22912,39.85588],[9.22908,39.85567],[9.22897,39.85551],[9.22865,39.8552],[9.22856,39.85507],[9.22828,39.85444],[9.22826,39.85432],[9.22828,39.85396],[9.22817,39.85363],[9.22785,39.85294],[9.22775,39.85263],[9.2275,39.85254],[9.22691,39.85244],[9.2267,39.85229],[9.22647,39.85198],[9.22622,39.85178],[9.2257,39.85147],[9.22538,39.85141],[9.22513,39.85141],[9.22498,39.85134],[9.22492,39.85121],[9.22495,39.85105],[9.22524,39.85066],[9.22508,39.85042],[9.22493,39.84976],[9.22443,39.84879],[9.22435,39.84858],[9.22427,39.84814],[9.22418,39.84788],[9.22401,39.84758],[9.22393,39.84734],[9.22401,39.84678],[9.22425,39.84617],[9.22425,39.846],[9.22417,39.84584],[9.22368,39.84535],[9.22343,39.84519],[9.22314,39.84479],[9.22248,39.84435],[9.22179,39.844],[9.22137,39.84359],[9.2213,39.84341],[9.22131,39.84318],[9.22145,39.84256],[9.22143,39.8423],[9.22134,39.84191]]},"properties":{}},{"type":"Feature","geometry":{"type":"LineString","coordinates":[[9.22437,39.86812],[9.22431,39.86781],[9.22419,39.86757],[9.22418,39.86745]]},"properties":{}},{"type":"Feature","geometry":{"type":"LineString","coordinates":[[9.22431,39.8687],[9.22437,39.86812]]},"properties":{}},{"type":"Feature","geometry":{"type":"LineString","coordinates":[[9.22464,39.86949],[9.22467,39.86933],[9.22432,39.86887],[9.22431,39.8687]]},"properties":{}},{"type":"Feature","geometry":{"type":"LineString","coordinates":[[9.23397,39.86999],[9.2343,39.86993],[9.23487,39.86996]]},"properties":{}},{"type":"Feature","geometry":{"type":"LineString","coordinates":[[9.23297,39.87069],[9.23315,39.87048],[9.23361,39.87023],[9.23376,39.87009],[9.23397,39.86999]]},"properties":{}},{"type":"Feature","geometry":{"type":"LineString","coordinates":[[9.2333,39.87109],[9.23328,39.87104],[9.23364,39.87037],[9.23395,39.87005],[9.23397,39.86999]]},"properties":{}},{"type":"Feature","geometry":{"type":"LineString","coordinates":[[9.23364,39.87403],[9.23367,39.87372],[9.23385,39.87303],[9.23382,39.87263],[9.23384,39.87248],[9.23397,39.87207],[9.23398,39.87185],[9.2339,39.87172],[9.23375,39.87162],[9.23341,39.87148],[9.23328,39.87134],[9.23325,39.87125],[9.2333,39.87109],[9.23405,39.87058],[9.23446,39.87042],[9.23483,39.87019],[9.2357,39.86986],[9.23579,39.86977],[9.23587,39.86955],[9.23658,39.86862],[9.2368,39.86844],[9.23757,39.8681],[9.23784,39.86805],[9.23802,39.86806],[9.23828,39.86819]]},"properties":{}},{"type":"Feature","geometry":{"type":"LineString","coordinates":[[9.23585,39.87272],[9.23574,39.87168]]},"properties":{}},{"type":"Feature","geometry":{"type":"LineString","coordinates":[[9.23566,39.87076],[9.23535,39.87088],[9.23506,39.87118],[9.23495,39.87136],[9.23478,39.87191],[9.23478,39.87225],[9.23398,39.87411],[9.2339,39.87416],[9.23381,39.87409],[9.23376,39.8738],[9.23367,39.87372]]},"properties":{}},{"type":"Feature","geometry":{"type":"LineString","coordinates":[[9.23358,39.87472],[9.23376,39.87456],[9.23378,39.87442],[9.23364,39.87403]]},"properties":{}},{"type":"Feature","geometry":{"type":"LineString","coordinates":[[9.23348,39.87477],[9.23358,39.87472]]},"properties":{}},{"type":"Feature","geometry":{"type":"LineString","coordinates":[[9.22431,39.86957],[9.22415,39.86986],[9.22405,39.87013],[9.22393,39.87074],[9.2238,39.87099],[9.22336,39.87144],[9.22337,39.8715],[9.22348,39.87152],[9.22377,39.87134],[9.22438,39.87121],[9.22448,39.87123],[9.22447,39.87134],[9.22429,39.87144],[9.22373,39.87217],[9.22367,39.87242],[9.22373,39.8726],[9.22386,39.87278],[9.22396,39.87279],[9.22403,39.87274],[9.22406,39.87256],[9.22423,39.87239],[9.22447,39.87227],[9.22482,39.87221],[9.22499,39.87224],[9.22504,39.87235],[9.22477,39.87278],[9.22464,39.87315],[9.22461,39.87363],[9.22472,39.87378],[9.22491,39.87392],[9.22513,39.87422],[9.2252,39.87447],[9.2251,39.87468],[9.22481,39.87493],[9.22462,39.87505],[9.22449,39.87501],[9.22352,39.87508],[9.22303,39.87515],[9.22277,39.87524],[9.2227,39.87527],[9.22271,39.87532],[9.22275,39.87534],[9.22313,39.87527],[9.22336,39.87527],[9.22373,39.87533],[9.22392,39.87541],[9.22394,39.87548],[9.22346,39.87572],[9.22342,39.87584],[9.22348,39.87605],[9.22358,39.87621],[9.22356,39.87713],[9.22362,39.87719],[9.22409,39.87743],[9.22426,39.87759],[9.22481,39.87833],[9.22506,39.87853],[9.22533,39.87863],[9.22569,39.87867],[9.226,39.87878],[9.22613,39.87894],[9.22613,39.87915],[9.22589,39.87947],[9.22591,39.87967],[9.22606,39.8799],[9.22611,39.8801],[9.22605,39.88079],[9.22598,39.88096],[9.22582,39.88107],[9.22561,39.88113],[9.22404,39.88119],[9.22382,39.88123],[9.22355,39.88136],[9.22326,39.88159],[9.2229,39.88206],[9.22283,39.88227],[9.2228,39.8827],[9.22263,39.88286],[9.22238,39.88301],[9.22149,39.88343],[9.22128,39.88359],[9.22117,39.88376],[9.22118,39.88393],[9.22159,39.88447],[9.22173,39.88472],[9.22182,39.88553],[9.22196,39.88591],[9.2221,39.88614],[9.2226,39.88629],[9.2227,39.88642],[9.22293,39.88684],[9.22312,39.88702],[9.22326,39.88702],[9.22347,39.88696],[9.22431,39.88619],[9.22475,39.88585],[9.22523,39.88559],[9.22573,39.88541],[9.22606,39.88537],[9.22641,39.88543],[9.22674,39.88557],[9.22746,39.88608],[9.2281,39.88634],[9.22932,39.88693],[9.22964,39.88704],[9.23046,39.88701],[9.23075,39.88709],[9.23115,39.88725],[9.23283,39.88744],[9.23306,39.88761],[9.23323,39.88785],[9.23344,39.88788],[9.23362,39.88777],[9.23381,39.88773],[9.23409,39.88778],[9.23516,39.88814],[9.23531,39.88814],[9.23559,39.888],[9.23592,39.88698],[9.23594,39.88674],[9.23637,39.88535],[9.23658,39.88494],[9.2367,39.88485],[9.23713,39.88482],[9.2383,39.88419],[9.23846,39.88405],[9.23858,39.88391],[9.23877,39.88345],[9.23886,39.88333],[9.23928,39.88298],[9.23953,39.88285],[9.24024,39.8827],[9.24075,39.88249],[9.24092,39.88238],[9.24127,39.88207],[9.24187,39.88135],[9.24192,39.88125],[9.24186,39.88114],[9.24121,39.88028],[9.24089,39.88005],[9.24075,39.87991],[9.24063,39.87961],[9.2405,39.87951],[9.2402,39.87937],[9.24005,39.87925],[9.23996,39.87912],[9.24,39.87866],[9.23996,39.87856],[9.23989,39.87842],[9.23939,39.87793],[9.23931,39.87776],[9.23927,39.87752],[9.23934,39.87699],[9.23931,39.87671],[9.23872,39.87545],[9.2387,39.87531],[9.23872,39.8752],[9.239,39.87422],[9.23898,39.87392],[9.23871,39.87369],[9.23821,39.87348],[9.23805,39.87334],[9.23768,39.87288],[9.23754,39.87257],[9.23731,39.87225]]},"properties":{}},{"type":"Feature","geometry":{"type":"LineString","coordinates":[[9.21897,39.80143],[9.21924,39.80126],[9.21941,39.80103],[9.21993,39.80048],[9.22005,39.80027],[9.22007,39.80004],[9.21993,39.79979],[9.21982,39.79933],[9.21966,39.79903],[9.21986,39.79859],[9.21976,39.79816],[9.21978,39.79712],[9.2195,39.79635],[9.21901,39.79598],[9.21875,39.79524],[9.2187,39.7948],[9.21892,39.79419],[9.2187,39.79369],[9.2179,39.79276],[9.21764,39.7925],[9.21752,39.79217],[9.21729,39.79169],[9.21744,39.79144],[9.21741,39.79135],[9.2172,39.79129],[9.21661,39.7913],[9.21652,39.79126],[9.21628,39.79102],[9.21628,39.79088],[9.21646,39.79039],[9.21663,39.78963],[9.2166,39.78954],[9.21647,39.78943],[9.21639,39.78931],[9.21592,39.78917],[9.21589,39.78911],[9.21591,39.78856],[9.21599,39.78845],[9.21628,39.78832],[9.21639,39.78823],[9.2164,39.78813],[9.21565,39.78711],[9.21563,39.78696],[9.21615,39.78663],[9.21645,39.78624],[9.21651,39.78599],[9.21647,39.78594],[9.21623,39.78537],[9.21586,39.78506],[9.21559,39.78501],[9.21507,39.78497],[9.21471,39.78487],[9.21432,39.7846],[9.214,39.7841],[9.21378,39.78354]]},"properties":{}},{"type":"Feature","geometry":{"type":"LineString","coordinates":[[9.20842,39.82095],[9.2084,39.82074],[9.208,39.8204],[9.20792,39.81986],[9.20778,39.8195],[9.20761,39.81922],[9.20715,39.81866],[9.20708,39.81844],[9.20708,39.81825],[9.20722,39.81767],[9.20723,39.81749],[9.20708,39.81719],[9.20705,39.81704],[9.20711,39.8169],[9.20724,39.81674],[9.20752,39.81657],[9.2077,39.81634],[9.20785,39.81599],[9.2079,39.81578],[9.2077,39.8151],[9.20769,39.81447],[9.20751,39.81409],[9.2075,39.81397],[9.20756,39.81382],[9.20838,39.81272],[9.20844,39.81258],[9.20841,39.81247],[9.20835,39.81234],[9.2081,39.81205],[9.20803,39.81192],[9.20796,39.81154],[9.2079,39.81138],[9.20777,39.81126],[9.20625,39.81024],[9.20606,39.81017],[9.20564,39.8101],[9.20541,39.81001],[9.20526,39.80986],[9.20521,39.80971],[9.20523,39.8095],[9.20549,39.80884],[9.20553,39.80868],[9.20552,39.80855],[9.20544,39.80835],[9.20494,39.80752],[9.20491,39.80738],[9.20492,39.80722],[9.20513,39.80686],[9.20534,39.80667],[9.20627,39.80547],[9.20637,39.80528],[9.20667,39.80495],[9.20686,39.8048],[9.20727,39.80459],[9.20745,39.80445],[9.20821,39.80362],[9.20828,39.80348],[9.20871,39.80316],[9.20903,39.80282],[9.21118,39.80165],[9.21136,39.8015],[9.21258,39.80016],[9.21264,39.80001],[9.21259,39.79982],[9.2125,39.79962],[9.21244,39.79909],[9.21252,39.79891],[9.21267,39.79869],[9.21294,39.79851],[9.21394,39.79825],[9.2142,39.7981],[9.2144,39.79793],[9.21453,39.7977],[9.21459,39.79722],[9.21532,39.79637],[9.21539,39.79619],[9.21539,39.79426],[9.21551,39.79333],[9.21544,39.7932],[9.21531,39.79307],[9.21483,39.79276],[9.21391,39.79183],[9.21389,39.79166],[9.21407,39.7904],[9.21402,39.79024],[9.2121,39.7888],[9.21203,39.78869],[9.21182,39.78808]]},"properties":{}},{"type":"Feature","geometry":{"type":"LineString","coordinates":[[9.19214,39.89173],[9.19226,39.89151],[9.19323,39.8902],[9.19421,39.88911],[9.19442,39.88901],[9.19471,39.88905],[9.19598,39.88937],[9.19639,39.88939],[9.19669,39.88931],[9.19707,39.88904],[9.19721,39.88888],[9.19728,39.88872],[9.19726,39.88853],[9.19715,39.88835],[9.19694,39.88822],[9.19658,39.88815],[9.19626,39.88797],[9.19614,39.88784],[9.19552,39.88683],[9.19543,39.88654],[9.19546,39.88625],[9.1956,39.88598],[9.19714,39.88395],[9.19737,39.88378],[9.19761,39.88372],[9.19809,39.88371],[9.19852,39.88377],[9.19884,39.88378],[9.19958,39.88356],[9.19996,39.88352],[9.2004,39.88353],[9.20081,39.8836],[9.20103,39.8836],[9.20136,39.88351],[9.20265,39.88303],[9.20287,39.88299],[9.20313,39.88299],[9.20546,39.88335],[9.20573,39.88335],[9.2061,39.88326],[9.20629,39.88316],[9.20646,39.88303],[9.20702,39.88181],[9.20701,39.88158],[9.20685,39.88103],[9.20674,39.88081],[9.2066,39.88066],[9.20574,39.88016],[9.20489,39.87987],[9.2041,39.8797],[9.20282,39.87957],[9.20261,39.87948],[9.20236,39.87922],[9.20213,39.87882],[9.20197,39.87838],[9.20195,39.87813],[9.20226,39.87738],[9.20242,39.87676],[9.20261,39.87553],[9.20261,39.87527],[9.20245,39.87453],[9.20247,39.87433],[9.20257,39.87409],[9.2034,39.8727],[9.20498,39.87091],[9.20565,39.8697],[9.20585,39.8695],[9.20613,39.86935],[9.20659,39.86926],[9.20702,39.86925],[9.20744,39.86937],[9.20831,39.86978],[9.2087,39.86987],[9.20899,39.86997],[9.20922,39.87012],[9.20987,39.87081],[9.21019,39.87105],[9.21047,39.87121],[9.21082,39.8713],[9.21112,39.87142],[9.21263,39.87253],[9.21288,39.87288],[9.21301,39.87331],[9.21313,39.87348],[9.21333,39.87363],[9.21361,39.87374],[9.21385,39.87378],[9.21406,39.87376],[9.21431,39.87366],[9.21449,39.87352],[9.21495,39.87268],[9.21517,39.87252],[9.21575,39.87236],[9.21609,39.87232],[9.21776,39.87231],[9.21799,39.87239],[9.21828,39.8726],[9.21873,39.87317],[9.21897,39.87333],[9.21922,39.87341],[9.21954,39.87342],[9.21978,39.87336],[9.22004,39.87318],[9.22076,39.87231],[9.22212,39.87091],[9.22249,39.87063],[9.22347,39.87012],[9.22431,39.86957],[9.22464,39.86949],[9.22482,39.86953],[9.22567,39.87011],[9.22603,39.87045],[9.22621,39.87059],[9.22769,39.87109],[9.22819,39.87113],[9.22843,39.87123],[9.22866,39.87144],[9.2288,39.87164],[9.22896,39.87223],[9.22904,39.87278],[9.22914,39.87294],[9.22932,39.87307],[9.22947,39.87311],[9.23027,39.87297],[9.23061,39.87295],[9.23098,39.87298],[9.23157,39.87317],[9.23178,39.87336],[9.2319,39.87353],[9.2319,39.87414],[9.23212,39.87458],[9.23223,39.87468],[9.23237,39.87473],[9.23258,39.87475],[9.23279,39.87472],[9.23317,39.87478],[9.23348,39.87477]]},"properties":{}},{"type":"Feature","geometry":{"type":"LineString","coordinates":[[9.12075,39.76195],[9.12071,39.76189],[9.12046,39.76168]]},"properties":{}},{"type":"Feature","geometry":{"type":"LineString","coordinates":[[9.12081,39.76205],[9.12075,39.76195]]},"properties":{}},{"type":"Feature","geometry":{"type":"LineString","coordinates":[[9.13263,39.78883],[9.1319,39.78624],[9.13181,39.784],[9.13178,39.78385],[9.13023,39.77914],[9.13013,39.77893],[9.12999,39.77873],[9.12867,39.77776],[9.12862,39.77766],[9.12862,39.77752],[9.12888,39.77621],[9.12888,39.77601],[9.12832,39.77427],[9.1281,39.77387],[9.12714,39.77244],[9.1267,39.77198],[9.1255,39.77091],[9.1254,39.77079],[9.12547,39.7697],[9.1255,39.76962],[9.12683,39.76849],[9.12718,39.76807],[9.12726,39.76788],[9.12733,39.76651],[9.12743,39.76628],[9.12758,39.76609],[9.12764,39.76591],[9.1274,39.76492],[9.12732,39.76482],[9.12717,39.76475],[9.12677,39.76465],[9.12607,39.7647],[9.12584,39.76466],[9.12474,39.76411],[9.12441,39.76383],[9.12298,39.76296],[9.12264,39.76262],[9.12247,39.76256],[9.12226,39.76252],[9.12148,39.76254],[9.12126,39.76247],[9.12098,39.7623],[9.12081,39.76205]]},"properties":{}},{"type":"Feature","geometry":{"type":"LineString","coordinates":[[9.13078,39.7905],[9.13042,39.78912],[9.12805,39.77921]]},"properties":{}},{"type":"Feature","geometry":{"type":"LineString","coordinates":[[9.12824,39.79089],[9.12807,39.79089],[9.12786,39.79083],[9.12768,39.79069],[9.12761,39.79056],[9.12521,39.78003],[9.12509,39.77976],[9.125,39.77966],[9.12439,39.77921],[9.12414,39.77896]]},"properties":{}},{"type":"Feature","geometry":{"type":"LineString","coordinates":[[9.13175,39.78645],[9.12985,39.78672]]},"properties":{}},{"type":"Feature","geometry":{"type":"LineString","coordinates":[[9.13179,39.78767],[9.13013,39.78791]]},"properties":{}},{"type":"Feature","geometry":{"type":"LineString","coordinates":[[9.12786,39.79352],[9.12766,39.79277],[9.12643,39.7929],[9.12593,39.79124],[9.12824,39.79089]]},"properties":{}},{"type":"Feature","geometry":{"type":"LineString","coordinates":[[9.10045,39.7651],[9.10026,39.76422],[9.10025,39.76389],[9.10027,39.7636],[9.10035,39.76334],[9.10053,39.76311],[9.10078,39.76291],[9.10108,39.76278],[9.10161,39.76262]]},"properties":{}},{"type":"Feature","geometry":{"type":"LineString","coordinates":[[9.10082,39.76612],[9.10078,39.76589],[9.10054,39.7654],[9.10045,39.7651]]},"properties":{}},{"type":"Feature","geometry":{"type":"LineString","coordinates":[[9.09912,39.77033],[9.09945,39.76998],[9.09974,39.76957],[9.09996,39.76912],[9.1004,39.76787],[9.10072,39.7672],[9.10092,39.76687],[9.10135,39.76643],[9.10167,39.76616],[9.10203,39.76591],[9.10545,39.76389],[9.10613,39.76356],[9.10812,39.76276],[9.10854,39.76254],[9.10895,39.76226]]},"properties":{}},{"type":"Feature","geometry":{"type":"LineString","coordinates":[[9.09993,39.76804],[9.09991,39.76794],[9.10075,39.76676],[9.10082,39.76649],[9.10082,39.76612]]},"properties":{}},{"type":"Feature","geometry":{"type":"LineString","coordinates":[[9.10028,39.76821],[9.10002,39.76814],[9.09993,39.76804]]},"properties":{}},{"type":"Feature","geometry":{"type":"LineString","coordinates":[[9.1118,39.83478],[9.11218,39.83472],[9.11241,39.83463],[9.11268,39.83443],[9.11299,39.83408],[9.11335,39.83315],[9.11339,39.83285],[9.11343,39.83176],[9.11328,39.83039],[9.11321,39.83013],[9.11229,39.82859],[9.11156,39.82791],[9.11121,39.82763],[9.11083,39.82739],[9.1107,39.82726],[9.11013,39.82646],[9.10978,39.82569],[9.10962,39.82552],[9.10956,39.82539],[9.10967,39.82502],[9.10957,39.82437],[9.10963,39.82364],[9.10962,39.82342],[9.10945,39.82287],[9.10933,39.82223]]},"properties":{}},{"type":"Feature","geometry":{"type":"LineString","coordinates":[[9.09672,39.84862],[9.10538,39.8491],[9.1059,39.84921],[9.10679,39.84957],[9.10757,39.85005],[9.1109,39.85287],[9.11166,39.8536],[9.11187,39.85387]]},"properties":{}},{"type":"Feature","geometry":{"type":"LineString","coordinates":[[9.11187,39.85387],[9.11204,39.85416],[9.11219,39.85451],[9.11294,39.85662],[9.1134,39.85745],[9.11379,39.85789],[9.11417,39.85818],[9.11463,39.85846],[9.11994,39.86161]]},"properties":{}},{"type":"Feature","geometry":{"type":"LineString","coordinates":[[9.11343,39.88688],[9.11264,39.88685],[9.11181,39.8867],[9.11165,39.88666],[9.11067,39.88619],[9.10876,39.88581],[9.10858,39.88572],[9.10832,39.8855],[9.10825,39.8854],[9.10822,39.88527],[9.1083,39.88482],[9.1083,39.88463],[9.10827,39.88449],[9.10816,39.88432],[9.10701,39.88394],[9.10684,39.88394],[9.10648,39.884],[9.10626,39.88397],[9.10379,39.88291],[9.10371,39.8828],[9.10374,39.88229],[9.10364,39.88191],[9.10348,39.8817],[9.10339,39.88166],[9.10327,39.88166],[9.10275,39.88169],[9.10226,39.88151],[9.10217,39.88142],[9.10215,39.88135],[9.1025,39.8809],[9.1026,39.88066],[9.10259,39.88055],[9.10253,39.88043],[9.10244,39.88034],[9.10232,39.88028],[9.10218,39.88027],[9.10151,39.88031],[9.10071,39.88015],[9.10021,39.87992],[9.09999,39.87988],[9.09992,39.8799],[9.09947,39.88017],[9.09836,39.88028],[9.09829,39.88024],[9.09812,39.88008],[9.09805,39.87993],[9.09799,39.87954],[9.0978,39.87931],[9.09754,39.87913],[9.09693,39.87892],[9.09676,39.8789],[9.09659,39.87892],[9.09611,39.87912],[9.09594,39.87914],[9.0958,39.87912],[9.09521,39.8789],[9.09515,39.87886],[9.09509,39.87874],[9.09469,39.87779],[9.0942,39.87708],[9.09391,39.87638],[9.09371,39.87569],[9.09365,39.87559],[9.0935,39.87553],[9.09306,39.87557]]},"properties":{}},{"type":"Feature","geometry":{"type":"LineString","coordinates":[[9.11891,39.89075],[9.11901,39.88985],[9.11889,39.88957],[9.11847,39.88892],[9.11822,39.88881],[9.11659,39.88831],[9.11452,39.88761],[9.11439,39.88755],[9.11378,39.88697],[9.11343,39.88688]]},"properties":{}},{"type":"Feature","geometry":{"type":"LineString","coordinates":[[9.12814,39.83964],[9.12676,39.84121],[9.12633,39.84186],[9.12608,39.84247],[9.12556,39.84506],[9.12556,39.84533],[9.12563,39.84566],[9.12612,39.84683],[9.12628,39.84737],[9.12631,39.8477],[9.12636,39.8503]]},"properties":{}},{"type":"Feature","geometry":{"type":"LineString","coordinates":[[9.12636,39.8503],[9.12638,39.85046]]},"properties":{}},{"type":"Feature","geometry":{"type":"LineString","coordinates":[[9.12638,39.85046],[9.12673,39.85421],[9.12671,39.85447],[9.12661,39.8549],[9.12635,39.85553],[9.12611,39.85593],[9.12585,39.85623],[9.12084,39.8615]]},"properties":{}},{"type":"Feature","geometry":{"type":"LineString","coordinates":[[9.11994,39.86161],[9.12009,39.8617]]},"properties":{}},{"type":"Feature","geometry":{"type":"LineString","coordinates":[[9.12009,39.8617],[9.12051,39.86195]]},"properties":{}},{"type":"Feature","geometry":{"type":"LineString","coordinates":[[9.12051,39.86195],[9.12108,39.86229]]},"properties":{}},{"type":"Feature","geometry":{"type":"LineString","coordinates":[[9.12108,39.86229],[9.12131,39.86243]]},"properties":{}},{"type":"Feature","geometry":{"type":"LineString","coordinates":[[9.12131,39.86243],[9.12941,39.8672],[9.12993,39.86753],[9.13035,39.86791],[9.1306,39.86823],[9.1308,39.86861],[9.13092,39.86893],[9.13098,39.86928],[9.13094,39.87302],[9.1309,39.87323],[9.13082,39.8735],[9.13056,39.8739],[9.12591,39.87874],[9.12531,39.87938],[9.12514,39.87962],[9.12498,39.87997],[9.12214,39.8881],[9.12172,39.88922],[9.12145,39.88958],[9.1211,39.88989],[9.11945,39.89104]]},"properties":{}},{"type":"Feature","geometry":{"type":"LineString","coordinates":[[9.11886,39.89116],[9.11891,39.89075]]},"properties":{}},{"type":"Feature","geometry":{"type":"LineString","coordinates":[[9.11879,39.89167],[9.11886,39.89116]]},"properties":{}},{"type":"Feature","geometry":{"type":"LineString","coordinates":[[9.13289,39.79022],[9.13261,39.79038],[9.13247,39.79056],[9.13193,39.79323],[9.13186,39.79349],[9.13175,39.7937],[9.13071,39.79485],[9.13063,39.79505],[9.13055,39.7956],[9.13046,39.79585],[9.12868,39.79789],[9.12793,39.79852],[9.12716,39.79885],[9.12683,39.79912],[9.12666,39.79936],[9.12657,39.79961],[9.12658,39.79984],[9.12665,39.79997],[9.12755,39.80099],[9.12801,39.80194],[9.12832,39.80279],[9.12843,39.80294],[9.1301,39.80407],[9.13033,39.80414],[9.13065,39.80414],[9.13201,39.80394],[9.13232,39.8039],[9.13346,39.80357],[9.1349,39.80336],[9.13542,39.80335],[9.13626,39.80347]]},"properties":{}},{"type":"Feature","geometry":{"type":"LineString","coordinates":[[9.13626,39.80347],[9.13682,39.80361],[9.13722,39.80378],[9.13803,39.80428],[9.13831,39.80437],[9.13865,39.80441],[9.13909,39.80434],[9.13967,39.80452],[9.13985,39.80464],[9.13998,39.80485],[9.14015,39.80498],[9.14034,39.80507],[9.14065,39.80509],[9.14091,39.80516],[9.1411,39.80524],[9.14173,39.80584],[9.14191,39.80596],[9.14209,39.80602],[9.144,39.80629],[9.14418,39.80634],[9.14426,39.80643],[9.14431,39.80654],[9.14455,39.80769]]},"properties":{}},{"type":"Feature","geometry":{"type":"LineString","coordinates":[[9.13381,39.82597],[9.13391,39.82643]]},"properties":{}},{"type":"Feature","geometry":{"type":"LineString","coordinates":[[9.13391,39.82643],[9.13438,39.82852],[9.1344,39.8292],[9.13434,39.82973],[9.13275,39.83536],[9.13252,39.83608],[9.13223,39.83652],[9.13177,39.83695],[9.1314,39.83717],[9.1301,39.83782],[9.12943,39.83825],[9.12921,39.83843],[9.12814,39.83964]]},"properties":{}},{"type":"Feature","geometry":{"type":"LineString","coordinates":[[9.11873,39.892],[9.11879,39.89167]]},"properties":{}},{"type":"Feature","geometry":{"type":"LineString","coordinates":[[9.12243,39.90325],[9.12241,39.90297],[9.12232,39.90283],[9.1188,39.89937],[9.1187,39.89925],[9.11857,39.89902],[9.11828,39.89576],[9.11873,39.892]]},"properties":{}},{"type":"Feature","geometry":{"type":"LineString","coordinates":[[9.12232,39.90359],[9.12243,39.90325]]},"properties":{}},{"type":"Feature","geometry":{"type":"LineString","coordinates":[[9.24053,39.87058],[9.24065,39.87076],[9.24083,39.87133],[9.2409,39.87141],[9.24102,39.87147],[9.24118,39.87147],[9.24133,39.87142],[9.24189,39.87083],[9.24211,39.87068],[9.24241,39.87058],[9.24322,39.87053],[9.24349,39.87059],[9.24373,39.87072],[9.2439,39.87092],[9.24406,39.87136],[9.24415,39.87149],[9.24431,39.87158],[9.24444,39.87158],[9.24459,39.87153],[9.24468,39.87143],[9.24486,39.87107],[9.24507,39.87045],[9.24519,39.87028],[9.24539,39.87015],[9.24612,39.87012],[9.24657,39.8702],[9.24803,39.87084],[9.24836,39.87093],[9.24929,39.87106],[9.24962,39.87119],[9.24985,39.87142],[9.25,39.87161]]},"properties":{}},{"type":"Feature","geometry":{"type":"LineString","coordinates":[[9.23739,39.76558],[9.23753,39.76559]]},"properties":{}},{"type":"Feature","geometry":{"type":"LineString","coordinates":[[9.23753,39.76559],[9.23798,39.76557],[9.23811,39.7655],[9.23812,39.76536],[9.23785,39.76481],[9.23786,39.76456],[9.23806,39.76417],[9.23831,39.76394],[9.23877,39.76363],[9.23889,39.76346],[9.23895,39.76316],[9.23907,39.76289],[9.23947,39.76234],[9.23959,39.76224],[9.24035,39.76209],[9.24055,39.76198],[9.24057,39.76183],[9.24049,39.76064],[9.24051,39.76049],[9.2406,39.7604],[9.24117,39.76013],[9.24123,39.75999],[9.24117,39.75971],[9.2412,39.7596],[9.24126,39.75952],[9.24161,39.75927],[9.24167,39.75919],[9.2417,39.7591],[9.24155,39.75869],[9.24156,39.75856],[9.24163,39.75844],[9.24188,39.75822],[9.24198,39.75806],[9.24194,39.75766],[9.24201,39.75756],[9.24241,39.75738],[9.24291,39.75737],[9.24313,39.7573],[9.24379,39.75654],[9.24407,39.75634],[9.24429,39.75609],[9.2446,39.75596],[9.24475,39.75585],[9.24479,39.75573],[9.24475,39.7556],[9.24465,39.75552],[9.24439,39.75542],[9.24402,39.7553],[9.24389,39.75519],[9.24386,39.75503],[9.24397,39.75457],[9.24392,39.75445],[9.24379,39.75435],[9.24344,39.75417],[9.24335,39.75404],[9.24337,39.75388],[9.2435,39.7536],[9.24475,39.75158],[9.24487,39.75152],[9.24512,39.75154],[9.246,39.75202],[9.24632,39.75213],[9.24656,39.75218],[9.2468,39.75216],[9.24702,39.75209],[9.24783,39.75156],[9.24863,39.75128],[9.24886,39.75113],[9.24897,39.75112],[9.24906,39.75116],[9.24908,39.75126],[9.2488,39.75146],[9.24865,39.7516],[9.24849,39.75187],[9.24813,39.75278],[9.24805,39.75332],[9.24811,39.75424],[9.24833,39.75458],[9.24862,39.75477],[9.24933,39.75501],[9.24943,39.75507],[9.24951,39.7552],[9.24953,39.75539],[9.24924,39.7567],[9.24892,39.75716],[9.24889,39.75728],[9.24893,39.75748],[9.249,39.75756],[9.24917,39.75763],[9.25,39.75765]]},"properties":{}},{"type":"Feature","geometry":{"type":"LineString","coordinates":[[9.25,39.76472],[9.24993,39.76477],[9.24979,39.76503],[9.24962,39.766],[9.24954,39.76622],[9.24906,39.76691],[9.24903,39.76699],[9.24905,39.76709],[9.24913,39.76723],[9.25,39.7681]]},"properties":{}},{"type":"Feature","geometry":{"type":"LineString","coordinates":[[9.24605,39.85355],[9.24516,39.85364],[9.24363,39.85349],[9.24252,39.85356],[9.24237,39.85363],[9.24234,39.85374],[9.24234,39.85467],[9.24237,39.85485],[9.24252,39.85495],[9.24299,39.85497],[9.24353,39.85495],[9.24387,39.85487],[9.24448,39.85481],[9.24463,39.85484],[9.24479,39.855],[9.24503,39.85518],[9.24543,39.85535],[9.24576,39.85543],[9.24595,39.85542],[9.24649,39.85531],[9.24664,39.85533],[9.24688,39.85546],[9.2477,39.85577],[9.24818,39.85584],[9.24827,39.85589],[9.24835,39.85603],[9.2484,39.85619],[9.24837,39.85631],[9.24802,39.85664],[9.2478,39.85674],[9.24688,39.8573],[9.24674,39.85743],[9.24668,39.85757],[9.24669,39.85775],[9.24696,39.85859],[9.24697,39.85921],[9.24701,39.85937],[9.24715,39.85954],[9.2474,39.85972],[9.2476,39.85982],[9.2478,39.85986],[9.24824,39.8598],[9.24846,39.85983],[9.24863,39.85988],[9.2491,39.86012],[9.24931,39.86017],[9.25,39.86016]]},"properties":{}},{"type":"Feature","geometry":{"type":"LineString","coordinates":[[9.23828,39.86819],[9.23873,39.86868]]},"properties":{}},{"type":"Feature","geometry":{"type":"LineString","coordinates":[[9.23757,39.86904],[9.23754,39.86899],[9.23765,39.86867],[9.23773,39.86854],[9.23787,39.86848],[9.23829,39.86859],[9.23889,39.86889],[9.23895,39.86886]]},"properties":{}},{"type":"Feature","geometry":{"type":"LineString","coordinates":[[9.2364,39.86924],[9.23617,39.86917]]},"properties":{}},{"type":"Feature","geometry":{"type":"LineString","coordinates":[[9.23633,39.86949],[9.2364,39.86924]]},"properties":{}},{"type":"Feature","geometry":{"type":"LineString","coordinates":[[9.23608,39.86971],[9.23633,39.86949]]},"properties":{}},{"type":"Feature","geometry":{"type":"LineString","coordinates":[[9.23873,39.86868],[9.23895,39.86886],[9.23916,39.86909],[9.2393,39.8693],[9.23951,39.86979],[9.23963,39.86998],[9.24053,39.87058]]},"properties":{}},{"type":"Feature","geometry":{"type":"LineString","coordinates":[[9.23804,39.86974],[9.23815,39.86976],[9.23828,39.86982],[9.23828,39.86985]]},"properties":{}},{"type":"Feature","geometry":{"type":"LineString","coordinates":[[9.23785,39.86959],[9.23804,39.86974],[9.23786,39.87011]]},"properties":{}},{"type":"Feature","geometry":{"type":"LineString","coordinates":[[9.23757,39.86904],[9.23733,39.86982],[9.23717,39.86995],[9.2371,39.87005],[9.2369,39.87025],[9.23656,39.87047],[9.23636,39.87053],[9.23609,39.87069]]},"properties":{}},{"type":"Feature","geometry":{"type":"LineString","coordinates":[[9.23637,39.86994],[9.23604,39.87021]]},"properties":{}},{"type":"Feature","geometry":{"type":"LineString","coordinates":[[9.23786,39.87011],[9.23747,39.8703],[9.23739,39.87031],[9.23728,39.87026]]},"properties":{}},{"type":"Feature","geometry":{"type":"LineString","coordinates":[[9.23504,39.87123],[9.23507,39.87129],[9.23522,39.87144],[9.23574,39.87168],[9.23583,39.87164],[9.23609,39.87134],[9.23623,39.87124],[9.23633,39.87096],[9.23659,39.87078],[9.23687,39.87064],[9.23704,39.8705],[9.23781,39.8697],[9.23794,39.8692],[9.23804,39.86915],[9.23825,39.86924],[9.2383,39.86921],[9.2383,39.86917],[9.23808,39.86894],[9.23801,39.86892],[9.23757,39.86904]]},"properties":{}},{"type":"Feature","geometry":{"type":"LineString","coordinates":[[9.23604,39.87021],[9.23584,39.87044]]},"properties":{}},{"type":"Feature","geometry":{"type":"LineString","coordinates":[[9.23609,39.87069],[9.23566,39.87076]]},"properties":{}},{"type":"Feature","geometry":{"type":"LineString","coordinates":[[9.23612,39.87204],[9.23608,39.8718],[9.23616,39.87147],[9.23617,39.87136],[9.23613,39.87133]]},"properties":{}},{"type":"Feature","geometry":{"type":"LineString","coordinates":[[9.23731,39.87225],[9.2372,39.87202],[9.23692,39.87163],[9.23624,39.87133],[9.23613,39.87133]]},"properties":{}},{"type":"Feature","geometry":{"type":"LineString","coordinates":[[9.23725,39.87217],[9.23684,39.87302],[9.23675,39.87305],[9.23669,39.87301],[9.23623,39.87231],[9.23612,39.87204]]},"properties":{}}]}