{"type":"FeatureCollection","features":[{"type":"Feature","geometry":{"type":"LineString","coordinates":[[9.38231,41.06872],[9.38254,41.06907]]},"properties":{}},{"type":"Feature","geometry":{"type":"LineString","coordinates":[[9.38215,41.0691],[9.38225,41.0689],[9.38231,41.06872]]},"properties":{}},{"type":"Feature","geometry":{"type":"LineString","coordinates":[[9.38215,41.0691],[9.38234,41.06905],[9.38254,41.06907]]},"properties":{}},{"type":"Feature","geometry":{"type":"LineString","coordinates":[[9.41941,41.06297],[9.41865,41.06267]]},"properties":{}},{"type":"Feature","geometry":{"type":"LineString","coordinates":[[9.41941,41.06297],[9.4194,41.06291],[9.41947,41.06285]]},"properties":{}},{"type":"Feature","geometry":{"type":"LineString","coordinates":[[9.41947,41.06285],[9.4197,41.06308]]},"properties":{}},{"type":"Feature","geometry":{"type":"LineString","coordinates":[[9.4199,41.0629],[9.41976,41.0629],[9.41968,41.06294],[9.41965,41.06299],[9.4197,41.06308]]},"properties":{}},{"type":"Feature","geometry":{"type":"LineString","coordinates":[[9.4197,41.06308],[9.41941,41.06297]]},"properties":{}},{"type":"Feature","geometry":{"type":"LineString","coordinates":[[9.4308,41.06524],[9.43118,41.06513],[9.43144,41.06502]]},"properties":{}},{"type":"Feature","geometry":{"type":"LineString","coordinates":[[9.43144,41.06502],[9.43126,41.06539]]},"properties":{}},{"type":"Feature","geometry":{"type":"LineString","coordinates":[[9.37645,41.07144],[9.37661,41.07149]]},"properties":{}},{"type":"Feature","geometry":{"type":"LineString","coordinates":[[9.37646,41.07156],[9.37645,41.07144]]},"properties":{}},{"type":"Feature","geometry":{"type":"LineString","coordinates":[[9.37453,41.08084],[9.37453,41.08063]]},"properties":{}},{"type":"Feature","geometry":{"type":"LineString","coordinates":[[9.37453,41.08063],[9.37468,41.08091]]},"properties":{}},{"type":"Feature","geometry":{"type":"LineString","coordinates":[[9.31233,41.16334],[9.31256,41.16328],[9.31281,41.16316]]},"properties":{}},{"type":"Feature","geometry":{"type":"LineString","coordinates":[[9.31279,41.16344],[9.31274,41.16334],[9.31281,41.16316]]},"properties":{}},{"type":"Feature","geometry":{"type":"LineString","coordinates":[[9.37463,41.08113],[9.37457,41.08102],[9.37453,41.08084]]},"properties":{}},{"type":"Feature","geometry":{"type":"LineString","coordinates":[[9.37468,41.08091],[9.37467,41.08102],[9.37463,41.08113]]},"properties":{}},{"type":"Feature","geometry":{"type":"LineString","coordinates":[[9.37468,41.08091],[9.37488,41.08105],[9.37531,41.08118]]},"properties":{}},{"type":"Feature","geometry":{"type":"LineString","coordinates":[[9.37726,41.08153],[9.37755,41.08161]]},"properties":{}},{"type":"Feature","geometry":{"type":"LineString","coordinates":[[9.37747,41.0818],[9.37737,41.08163],[9.37726,41.08153]]},"properties":{}},{"type":"Feature","geometry":{"type":"LineString","coordinates":[[9.37755,41.08161],[9.37758,41.08167],[9.37757,41.08175],[9.37747,41.0818]]},"properties":{}},{"type":"Feature","geometry":{"type":"LineString","coordinates":[[9.33692,41.17],[9.33668,41.17009],[9.33659,41.17017],[9.33652,41.17029]]},"properties":{}},{"type":"Feature","geometry":{"type":"LineString","coordinates":[[9.36758,41.1737],[9.36774,41.17361],[9.3679,41.17345]]},"properties":{}},{"type":"Feature","geometry":{"type":"LineString","coordinates":[[9.3679,41.17345],[9.36786,41.17361],[9.36787,41.17379]]},"properties":{}},{"type":"Feature","geometry":{"type":"LineString","coordinates":[[9.36698,41.17361],[9.36755,41.17371]]},"properties":{}},{"type":"Feature","geometry":{"type":"LineString","coordinates":[[9.313,41.16328],[9.31294,41.16336],[9.31279,41.16344]]},"properties":{}},{"type":"Feature","geometry":{"type":"LineString","coordinates":[[9.313,41.16328],[9.31303,41.16338],[9.31318,41.16353]]},"properties":{}},{"type":"Feature","geometry":{"type":"LineString","coordinates":[[9.33637,41.17001],[9.33651,41.17013],[9.33652,41.17029]]},"properties":{}},{"type":"Feature","geometry":{"type":"LineString","coordinates":[[9.33632,41.17029],[9.3363,41.17015],[9.33637,41.17001]]},"properties":{}},{"type":"Feature","geometry":{"type":"LineString","coordinates":[[9.33632,41.17029],[9.33614,41.1702],[9.33585,41.1702]]},"properties":{}},{"type":"Feature","geometry":{"type":"LineString","coordinates":[[9.33652,41.17029],[9.33646,41.17042]]},"properties":{}},{"type":"Feature","geometry":{"type":"LineString","coordinates":[[9.3364,41.17042],[9.33632,41.17029]]},"properties":{}},{"type":"Feature","geometry":{"type":"LineString","coordinates":[[9.33641,41.17054],[9.3364,41.17042]]},"properties":{}},{"type":"Feature","geometry":{"type":"LineString","coordinates":[[9.4308,41.06524],[9.43103,41.06524],[9.43117,41.0653],[9.43126,41.06539]]},"properties":{}},{"type":"Feature","geometry":{"type":"LineString","coordinates":[[9.43051,41.06561],[9.4305,41.0655],[9.43057,41.06536],[9.43066,41.06529],[9.4308,41.06524]]},"properties":{}},{"type":"Feature","geometry":{"type":"LineString","coordinates":[[9.43126,41.06539],[9.43131,41.06551],[9.43127,41.06567],[9.43118,41.06575],[9.43103,41.06582]]},"properties":{}},{"type":"Feature","geometry":{"type":"LineString","coordinates":[[9.4313,41.06545],[9.43147,41.06562],[9.43185,41.06582]]},"properties":{}},{"type":"Feature","geometry":{"type":"LineString","coordinates":[[9.43103,41.06582],[9.43089,41.06584],[9.43074,41.06581],[9.43062,41.06575],[9.43051,41.06561]]},"properties":{}},{"type":"Feature","geometry":{"type":"LineString","coordinates":[[9.43185,41.06582],[9.43155,41.06578],[9.43113,41.06579]]},"properties":{}},{"type":"Feature","geometry":{"type":"LineString","coordinates":[[9.43038,41.06607],[9.43048,41.06591],[9.43052,41.0658],[9.43051,41.06561]]},"properties":{}},{"type":"Feature","geometry":{"type":"LineString","coordinates":[[9.43103,41.06582],[9.43038,41.06607]]},"properties":{}},{"type":"Feature","geometry":{"type":"LineString","coordinates":[[9.45129,41.07002],[9.45118,41.06985],[9.45086,41.06962]]},"properties":{}},{"type":"Feature","geometry":{"type":"LineString","coordinates":[[9.45129,41.07002],[9.45131,41.06992],[9.45137,41.06983],[9.45145,41.06978]]},"properties":{}},{"type":"Feature","geometry":{"type":"LineString","coordinates":[[9.45145,41.06978],[9.45151,41.06993],[9.45149,41.07004]]},"properties":{}},{"type":"Feature","geometry":{"type":"LineString","coordinates":[[9.45201,41.06987],[9.45173,41.06991],[9.45149,41.07004]]},"properties":{}},{"type":"Feature","geometry":{"type":"LineString","coordinates":[[9.46019,41.07027],[9.46062,41.07005]]},"properties":{}},{"type":"Feature","geometry":{"type":"LineString","coordinates":[[9.45136,41.07037],[9.45129,41.07002]]},"properties":{}},{"type":"Feature","geometry":{"type":"LineString","coordinates":[[9.46062,41.07005],[9.46047,41.07018],[9.46036,41.07036]]},"properties":{}},{"type":"Feature","geometry":{"type":"LineString","coordinates":[[9.45149,41.07004],[9.45142,41.07015],[9.45136,41.07037]]},"properties":{}},{"type":"Feature","geometry":{"type":"LineString","coordinates":[[9.4595,41.0704],[9.45996,41.07036],[9.46019,41.07027]]},"properties":{}},{"type":"Feature","geometry":{"type":"LineString","coordinates":[[9.46011,41.07052],[9.46011,41.07037],[9.46019,41.07027]]},"properties":{}},{"type":"Feature","geometry":{"type":"LineString","coordinates":[[9.46036,41.07036],[9.46029,41.07046],[9.46011,41.07052]]},"properties":{}},{"type":"Feature","geometry":{"type":"LineString","coordinates":[[9.46036,41.07036],[9.46035,41.07043],[9.4604,41.07059],[9.46051,41.07073]]},"properties":{}},{"type":"Feature","geometry":{"type":"LineString","coordinates":[[9.38271,41.06918],[9.38337,41.06926]]},"properties":{}},{"type":"Feature","geometry":{"type":"LineString","coordinates":[[9.38143,41.06944],[9.38201,41.06922]]},"properties":{}},{"type":"Feature","geometry":{"type":"LineString","coordinates":[[9.38254,41.06907],[9.38271,41.06918],[9.38278,41.0693],[9.38275,41.06948],[9.38262,41.0696]]},"properties":{}},{"type":"Feature","geometry":{"type":"LineString","coordinates":[[9.38337,41.06926],[9.38277,41.06943]]},"properties":{}},{"type":"Feature","geometry":{"type":"LineString","coordinates":[[9.38224,41.06964],[9.38204,41.06952],[9.38197,41.06938],[9.38201,41.06922],[9.38215,41.0691]]},"properties":{}},{"type":"Feature","geometry":{"type":"LineString","coordinates":[[9.38262,41.0696],[9.38243,41.06966],[9.38224,41.06964]]},"properties":{}},{"type":"Feature","geometry":{"type":"LineString","coordinates":[[9.38262,41.0696],[9.38253,41.06999]]},"properties":{}},{"type":"Feature","geometry":{"type":"LineString","coordinates":[[9.39727,41.15878],[9.39758,41.15864]]},"properties":{}},{"type":"Feature","geometry":{"type":"LineString","coordinates":[[9.39758,41.15864],[9.39737,41.15887]]},"properties":{}},{"type":"Feature","geometry":{"type":"LineString","coordinates":[[9.39738,41.15891],[9.39733,41.159],[9.39728,41.15904],[9.39715,41.15907],[9.39702,41.15902],[9.39696,41.15892],[9.39703,41.1588],[9.39717,41.15876],[9.39732,41.1588],[9.39738,41.15891]]},"properties":{}},{"type":"Feature","geometry":{"type":"LineString","coordinates":[[9.39737,41.15896],[9.39746,41.15917]]},"properties":{}},{"type":"Feature","geometry":{"type":"LineString","coordinates":[[9.39746,41.15917],[9.39722,41.15906]]},"properties":{}},{"type":"Feature","geometry":{"type":"LineString","coordinates":[[9.38233,41.17731],[9.38272,41.17724]]},"properties":{}},{"type":"Feature","geometry":{"type":"LineString","coordinates":[[9.38195,41.1773],[9.38227,41.17732]]},"properties":{}},{"type":"Feature","geometry":{"type":"LineString","coordinates":[[9.38272,41.17724],[9.38246,41.17744]]},"properties":{}},{"type":"Feature","geometry":{"type":"LineString","coordinates":[[9.38216,41.17743],[9.38204,41.17733],[9.38195,41.1773]]},"properties":{}},{"type":"Feature","geometry":{"type":"LineString","coordinates":[[9.38233,41.17731],[9.38244,41.17737],[9.38245,41.17748],[9.38234,41.17754],[9.38222,41.17752],[9.38216,41.17746],[9.38217,41.17739],[9.38223,41.17733],[9.38233,41.17731]]},"properties":{}},{"type":"Feature","geometry":{"type":"LineString","coordinates":[[9.38226,41.17777],[9.38227,41.17765],[9.38222,41.17752]]},"properties":{}},{"type":"Feature","geometry":{"type":"LineString","coordinates":[[9.37778,41.17874],[9.37904,41.17872],[9.3809,41.17893],[9.38132,41.17907],[9.38201,41.1795]]},"properties":{}},{"type":"Feature","geometry":{"type":"LineString","coordinates":[[9.38535,41.18052],[9.38504,41.18035],[9.3843,41.17976],[9.38407,41.17852],[9.38412,41.17842]]},"properties":{}},{"type":"Feature","geometry":{"type":"LineString","coordinates":[[9.36747,41.17393],[9.3674,41.17383],[9.36698,41.17361]]},"properties":{}},{"type":"Feature","geometry":{"type":"LineString","coordinates":[[9.36747,41.17393],[9.36745,41.17383],[9.36755,41.17371]]},"properties":{}},{"type":"Feature","geometry":{"type":"LineString","coordinates":[[9.36755,41.17371],[9.36772,41.17369],[9.36785,41.17377],[9.36788,41.17388],[9.3678,41.17399]]},"properties":{}},{"type":"Feature","geometry":{"type":"LineString","coordinates":[[9.36749,41.17396],[9.36747,41.17393]]},"properties":{}},{"type":"Feature","geometry":{"type":"LineString","coordinates":[[9.3678,41.17399],[9.36764,41.17402],[9.36749,41.17396]]},"properties":{}},{"type":"Feature","geometry":{"type":"LineString","coordinates":[[9.36759,41.17427],[9.36756,41.17409],[9.36749,41.17396]]},"properties":{}},{"type":"Feature","geometry":{"type":"LineString","coordinates":[[9.3678,41.17399],[9.36768,41.17411],[9.36759,41.17427]]},"properties":{}},{"type":"Feature","geometry":{"type":"LineString","coordinates":[[9.3774,41.17481],[9.37763,41.1749]]},"properties":{}},{"type":"Feature","geometry":{"type":"LineString","coordinates":[[9.36777,41.17576],[9.36797,41.17594]]},"properties":{}},{"type":"Feature","geometry":{"type":"LineString","coordinates":[[9.36776,41.17601],[9.3678,41.17586],[9.36777,41.17576]]},"properties":{}},{"type":"Feature","geometry":{"type":"LineString","coordinates":[[9.36776,41.17601],[9.36782,41.17597],[9.36797,41.17594]]},"properties":{}},{"type":"Feature","geometry":{"type":"LineString","coordinates":[[9.36797,41.17594],[9.36812,41.17599],[9.36819,41.17609]]},"properties":{}},{"type":"Feature","geometry":{"type":"LineString","coordinates":[[9.36814,41.17622],[9.36794,41.17629],[9.3678,41.17625],[9.36772,41.17615],[9.36776,41.17601]]},"properties":{}},{"type":"Feature","geometry":{"type":"LineString","coordinates":[[9.36819,41.17609],[9.36851,41.17622]]},"properties":{}},{"type":"Feature","geometry":{"type":"LineString","coordinates":[[9.36819,41.17609],[9.36814,41.17622]]},"properties":{}},{"type":"Feature","geometry":{"type":"LineString","coordinates":[[9.36851,41.17622],[9.36814,41.17622]]},"properties":{}},{"type":"Feature","geometry":{"type":"LineString","coordinates":[[9.37808,41.17697],[9.37818,41.17706]]},"properties":{}},{"type":"Feature","geometry":{"type":"LineString","coordinates":[[9.37806,41.17711],[9.37818,41.17706]]},"properties":{}},{"type":"Feature","geometry":{"type":"LineString","coordinates":[[9.37818,41.17706],[9.37847,41.17713]]},"properties":{}},{"type":"Feature","geometry":{"type":"LineString","coordinates":[[9.37828,41.17715],[9.37815,41.17715],[9.37806,41.17711]]},"properties":{}},{"type":"Feature","geometry":{"type":"LineString","coordinates":[[9.37847,41.17713],[9.37828,41.17715]]},"properties":{}},{"type":"Feature","geometry":{"type":"LineString","coordinates":[[9.37828,41.17715],[9.37803,41.17726]]},"properties":{}},{"type":"Feature","geometry":{"type":"LineString","coordinates":[[9.36983,41.17713],[9.37002,41.17729]]},"properties":{}},{"type":"Feature","geometry":{"type":"LineString","coordinates":[[9.36983,41.17736],[9.36985,41.17722],[9.36983,41.17713]]},"properties":{}},{"type":"Feature","geometry":{"type":"LineString","coordinates":[[9.36983,41.17736],[9.37002,41.17729]]},"properties":{}},{"type":"Feature","geometry":{"type":"LineString","coordinates":[[9.37002,41.17729],[9.37018,41.17736]]},"properties":{}},{"type":"Feature","geometry":{"type":"LineString","coordinates":[[9.37018,41.17736],[9.37057,41.17737]]},"properties":{}},{"type":"Feature","geometry":{"type":"LineString","coordinates":[[9.37018,41.17736],[9.37021,41.17741],[9.37021,41.17752]]},"properties":{}},{"type":"Feature","geometry":{"type":"LineString","coordinates":[[9.37057,41.17737],[9.37021,41.17752]]},"properties":{}},{"type":"Feature","geometry":{"type":"LineString","coordinates":[[9.37021,41.17752],[9.37011,41.1776],[9.36991,41.17761],[9.3698,41.17752],[9.36978,41.17744],[9.36983,41.17736]]},"properties":{}},{"type":"Feature","geometry":{"type":"LineString","coordinates":[[9.44088,41.11185],[9.44149,41.11158],[9.44159,41.11147],[9.44164,41.11131],[9.44168,41.11099],[9.4415,41.11074],[9.44147,41.1106],[9.44144,41.1106]]},"properties":{}},{"type":"Feature","geometry":{"type":"LineString","coordinates":[[9.4372,41.12692],[9.43721,41.12695],[9.43751,41.12685],[9.43834,41.12656],[9.43877,41.12633],[9.43902,41.126],[9.43963,41.12504],[9.43973,41.12406],[9.43993,41.12318],[9.44007,41.12295],[9.44058,41.12241],[9.44103,41.12161],[9.44109,41.12146],[9.4411,41.12116],[9.44083,41.12014],[9.44086,41.11992],[9.44109,41.11919],[9.44108,41.1189],[9.44082,41.11821],[9.44012,41.1166],[9.44006,41.11634],[9.44007,41.1162],[9.44013,41.11607],[9.44074,41.11501],[9.44077,41.11487],[9.44075,41.11472],[9.44068,41.11457],[9.44016,41.11359],[9.44008,41.11339],[9.44007,41.11317],[9.4401,41.113],[9.44035,41.1126],[9.44026,41.11245],[9.44058,41.11195],[9.44064,41.11187],[9.44088,41.11185]]},"properties":{}},{"type":"Feature","geometry":{"type":"LineString","coordinates":[[9.38395,41.18321],[9.38341,41.18418],[9.38325,41.18425],[9.38303,41.18427],[9.38302,41.18423]]},"properties":{}}]}