{"type":"FeatureCollection","features":[{"type":"Feature","geometry":{"type":"LineString","coordinates":[[9.31776,40.65445],[9.31827,40.65433],[9.31878,40.6541],[9.31929,40.65374],[9.32066,40.65257]]},"properties":{}},{"type":"Feature","geometry":{"type":"LineString","coordinates":[[9.31195,40.65517],[9.3125,40.65478],[9.31305,40.65402],[9.31313,40.65395],[9.31327,40.65392],[9.31452,40.65406],[9.31485,40.65404],[9.31533,40.65395],[9.31568,40.65397],[9.31655,40.65425],[9.31744,40.65443],[9.31776,40.65445]]},"properties":{}}]}