{"type":"FeatureCollection","features":[{"type":"Feature","geometry":{"type":"LineString","coordinates":[[9.25812,44.39673],[9.25826,44.3967],[9.25837,44.39639],[9.25846,44.39636],[9.25932,44.39657]]},"properties":{}},{"type":"Feature","geometry":{"type":"LineString","coordinates":[[9.25928,44.39673],[9.25932,44.39657]]},"properties":{}},{"type":"Feature","geometry":{"type":"LineString","coordinates":[[9.25758,44.39671],[9.25812,44.39673]]},"properties":{}},{"type":"Feature","geometry":{"type":"LineString","coordinates":[[9.25928,44.39673],[9.25964,44.39679],[9.26099,44.3973],[9.26125,44.39736],[9.26147,44.39738],[9.26207,44.39731],[9.2623,44.39737],[9.26285,44.39757],[9.26298,44.39758],[9.26315,44.39754]]},"properties":{}},{"type":"Feature","geometry":{"type":"LineString","coordinates":[[9.25751,44.39907],[9.25757,44.39869],[9.2575,44.39853],[9.25702,44.39787],[9.25682,44.39751],[9.25682,44.39742],[9.25712,44.39718],[9.25745,44.39678],[9.25758,44.39671]]},"properties":{}},{"type":"Feature","geometry":{"type":"LineString","coordinates":[[9.25,44.4004],[9.25021,44.40029],[9.25071,44.40018],[9.25135,44.40017],[9.2518,44.40007],[9.25305,44.39967],[9.25379,44.39956],[9.25418,44.39965],[9.25442,44.39963],[9.25473,44.39976],[9.25532,44.39988],[9.25561,44.39993],[9.25622,44.39995],[9.25641,44.39989],[9.25679,44.39958],[9.25717,44.3994],[9.25751,44.39907]]},"properties":{}},{"type":"Feature","geometry":{"type":"LineString","coordinates":[[9.2876,44.37867],[9.28711,44.37799],[9.2871,44.37776],[9.2872,44.37752],[9.28793,44.37647],[9.28824,44.37608],[9.28905,44.37521],[9.28921,44.37495],[9.28933,44.37433],[9.28946,44.37407],[9.28959,44.374],[9.29095,44.37405],[9.29296,44.37337],[9.29353,44.37305],[9.2941,44.37282],[9.29644,44.37203],[9.29687,44.37183],[9.29784,44.3715],[9.29819,44.37129]]},"properties":{}},{"type":"Feature","geometry":{"type":"LineString","coordinates":[[9.33364,44.31166],[9.33456,44.31135]]},"properties":{}},{"type":"Feature","geometry":{"type":"LineString","coordinates":[[9.33267,44.31174],[9.33229,44.31152]]},"properties":{}},{"type":"Feature","geometry":{"type":"LineString","coordinates":[[9.34655,44.30602],[9.34622,44.30603]]},"properties":{}},{"type":"Feature","geometry":{"type":"LineString","coordinates":[[9.34353,44.30666],[9.34496,44.30606],[9.34506,44.30612]]},"properties":{}},{"type":"Feature","geometry":{"type":"LineString","coordinates":[[9.34427,44.30651],[9.34447,44.3064],[9.34429,44.30652]]},"properties":{}},{"type":"Feature","geometry":{"type":"LineString","coordinates":[[9.34415,44.30657],[9.34427,44.30651]]},"properties":{}},{"type":"Feature","geometry":{"type":"LineString","coordinates":[[9.34372,44.3069],[9.34353,44.30666]]},"properties":{}},{"type":"Feature","geometry":{"type":"LineString","coordinates":[[9.34439,44.30681],[9.34436,44.30685],[9.34443,44.3069],[9.34439,44.30684],[9.34448,44.30692]]},"properties":{}},{"type":"Feature","geometry":{"type":"LineString","coordinates":[[9.34362,44.30695],[9.34372,44.3069]]},"properties":{}},{"type":"Feature","geometry":{"type":"LineString","coordinates":[[9.34618,44.30851],[9.34529,44.30771]]},"properties":{}},{"type":"Feature","geometry":{"type":"LineString","coordinates":[[9.3472,44.30938],[9.34618,44.30851]]},"properties":{}},{"type":"Feature","geometry":{"type":"LineString","coordinates":[[9.334,44.31107],[9.33528,44.31056],[9.34362,44.30695]]},"properties":{}},{"type":"Feature","geometry":{"type":"LineString","coordinates":[[9.33797,44.31352],[9.3382,44.31369],[9.339,44.31411],[9.33981,44.31459],[9.34096,44.31534],[9.3432,44.31689],[9.34372,44.31731],[9.3441,44.31765],[9.34409,44.31775],[9.34648,44.32066],[9.34687,44.32128],[9.34732,44.32255],[9.34759,44.32306],[9.34761,44.32327],[9.34771,44.32342],[9.34779,44.32374],[9.34793,44.32404],[9.34832,44.3256],[9.34853,44.32658],[9.34857,44.32741],[9.34868,44.32814],[9.34869,44.32846]]},"properties":{}},{"type":"Feature","geometry":{"type":"LineString","coordinates":[[9.34869,44.32846],[9.34869,44.32853]]},"properties":{}},{"type":"Feature","geometry":{"type":"LineString","coordinates":[[9.34869,44.32853],[9.34869,44.33013],[9.34871,44.33021],[9.34866,44.33036],[9.34854,44.3316],[9.34853,44.33207],[9.34858,44.33284],[9.34879,44.33334],[9.34904,44.33356],[9.34919,44.33388],[9.34963,44.33458],[9.35043,44.33572],[9.35159,44.33755],[9.35171,44.33768],[9.35185,44.33796],[9.35288,44.33947],[9.35331,44.33988],[9.35396,44.34032],[9.3545,44.34075],[9.35481,44.34088],[9.35539,44.34122],[9.35644,44.34198],[9.3573,44.34247]]},"properties":{}},{"type":"Feature","geometry":{"type":"LineString","coordinates":[[9.35365,44.33849],[9.35229,44.3386]]},"properties":{}},{"type":"Feature","geometry":{"type":"LineString","coordinates":[[9.35672,44.34209],[9.3557,44.34137]]},"properties":{}},{"type":"Feature","geometry":{"type":"LineString","coordinates":[[9.3583,44.34335],[9.3573,44.34247]]},"properties":{}},{"type":"Feature","geometry":{"type":"LineString","coordinates":[[9.35761,44.34382],[9.3583,44.34335]]},"properties":{}},{"type":"Feature","geometry":{"type":"LineString","coordinates":[[9.35747,44.3441],[9.35756,44.34386],[9.35761,44.34382]]},"properties":{}},{"type":"Feature","geometry":{"type":"LineString","coordinates":[[9.35747,44.3441],[9.35743,44.34406],[9.35755,44.34379],[9.35763,44.34377],[9.35824,44.34442],[9.35896,44.34533],[9.35894,44.34537]]},"properties":{}},{"type":"Feature","geometry":{"type":"LineString","coordinates":[[9.34202,44.34712],[9.34146,44.34613]]},"properties":{}},{"type":"Feature","geometry":{"type":"LineString","coordinates":[[9.33275,44.31197],[9.33364,44.31166]]},"properties":{}},{"type":"Feature","geometry":{"type":"LineString","coordinates":[[9.33323,44.3121],[9.33267,44.31174]]},"properties":{}},{"type":"Feature","geometry":{"type":"LineString","coordinates":[[9.33353,44.31227],[9.33323,44.3121]]},"properties":{}},{"type":"Feature","geometry":{"type":"LineString","coordinates":[[9.334,44.31107],[9.33456,44.3115],[9.33528,44.31179],[9.33553,44.31201],[9.33554,44.3121],[9.33563,44.31226],[9.33583,44.31239],[9.33797,44.31352]]},"properties":{}},{"type":"Feature","geometry":{"type":"LineString","coordinates":[[9.32486,44.31322],[9.32501,44.31316],[9.32514,44.31306],[9.32664,44.31238],[9.327,44.31225],[9.32759,44.3121],[9.32857,44.31197],[9.32974,44.31197],[9.33056,44.31186],[9.33086,44.31185],[9.33094,44.31187],[9.33109,44.31182],[9.3312,44.31185],[9.33159,44.31176],[9.33165,44.3116],[9.33177,44.31159],[9.33186,44.31152],[9.33229,44.31152]]},"properties":{}},{"type":"Feature","geometry":{"type":"LineString","coordinates":[[9.33676,44.31393],[9.33353,44.31227]]},"properties":{}},{"type":"Feature","geometry":{"type":"LineString","coordinates":[[9.32448,44.31318],[9.32442,44.31316],[9.32352,44.3135],[9.32336,44.3135],[9.32185,44.31417],[9.32173,44.31427],[9.32143,44.31436]]},"properties":{}},{"type":"Feature","geometry":{"type":"LineString","coordinates":[[9.33259,44.35821],[9.33248,44.35821]]},"properties":{}},{"type":"Feature","geometry":{"type":"LineString","coordinates":[[9.33847,44.35895],[9.33841,44.35888],[9.33825,44.35888],[9.33782,44.35901],[9.33717,44.35911],[9.3368,44.35899],[9.3365,44.3588],[9.33603,44.35865],[9.33569,44.35851],[9.33521,44.3584],[9.33483,44.35836],[9.33451,44.3584],[9.33351,44.35837],[9.33259,44.35821]]},"properties":{}},{"type":"Feature","geometry":{"type":"LineString","coordinates":[[9.33248,44.35821],[9.33257,44.35868],[9.33275,44.35918],[9.33273,44.35948],[9.33247,44.36021],[9.33241,44.36051],[9.33225,44.36079],[9.33188,44.36117],[9.33168,44.36136],[9.33146,44.36146],[9.33133,44.36157],[9.33135,44.36173],[9.33152,44.36195],[9.33197,44.36213],[9.332,44.36222],[9.33197,44.36242],[9.33205,44.36283],[9.33201,44.36316],[9.33206,44.3635]]},"properties":{}},{"type":"Feature","geometry":{"type":"LineString","coordinates":[[9.34776,44.34664],[9.34792,44.34681],[9.34807,44.34684],[9.34817,44.34676]]},"properties":{}},{"type":"Feature","geometry":{"type":"LineString","coordinates":[[9.34191,44.34722],[9.34203,44.34714],[9.34202,44.34712]]},"properties":{}},{"type":"Feature","geometry":{"type":"LineString","coordinates":[[9.35894,44.34537],[9.35927,44.34589],[9.35945,44.34625],[9.35946,44.3466],[9.35957,44.34686],[9.35971,44.34744],[9.35967,44.34785],[9.35995,44.34892],[9.35992,44.34978],[9.35996,44.35011],[9.35992,44.35071],[9.35988,44.35093],[9.35968,44.35122]]},"properties":{}},{"type":"Feature","geometry":{"type":"LineString","coordinates":[[9.36188,44.35172],[9.36179,44.35202],[9.36162,44.35238],[9.36138,44.35275],[9.36131,44.35275],[9.36115,44.35265],[9.36097,44.35264],[9.35974,44.353],[9.35844,44.35295],[9.35794,44.35291],[9.35754,44.35283],[9.35585,44.35274],[9.35434,44.35226],[9.35352,44.35203],[9.35327,44.35189],[9.35294,44.35161],[9.3529,44.35152],[9.35312,44.35098],[9.35353,44.35031],[9.35373,44.34982],[9.35415,44.34947],[9.35438,44.34887],[9.35423,44.34845],[9.35405,44.34824],[9.35306,44.34759],[9.35241,44.3474],[9.35019,44.34695],[9.34962,44.34687],[9.34929,44.34675],[9.34799,44.34661],[9.34776,44.34664],[9.34746,44.34647],[9.34724,44.34639],[9.34641,44.34632],[9.34591,44.34633],[9.34513,44.3465],[9.3445,44.34646],[9.34366,44.34647],[9.34286,44.34654],[9.34258,44.34661],[9.34244,44.34669],[9.34215,44.34671],[9.34179,44.3468],[9.34173,44.34686],[9.34191,44.34722]]},"properties":{}},{"type":"Feature","geometry":{"type":"LineString","coordinates":[[9.35968,44.35122],[9.36048,44.35137],[9.36132,44.35158]]},"properties":{}},{"type":"Feature","geometry":{"type":"LineString","coordinates":[[9.36132,44.35158],[9.36188,44.35172]]},"properties":{}},{"type":"Feature","geometry":{"type":"LineString","coordinates":[[9.36188,44.35172],[9.36193,44.35173]]},"properties":{}},{"type":"Feature","geometry":{"type":"LineString","coordinates":[[9.36193,44.35173],[9.36205,44.35177]]},"properties":{}},{"type":"Feature","geometry":{"type":"LineString","coordinates":[[9.3616,44.35261],[9.36196,44.3519],[9.36205,44.35177]]},"properties":{}},{"type":"Feature","geometry":{"type":"LineString","coordinates":[[9.339,44.35305],[9.33974,44.35351],[9.34063,44.35443],[9.34082,44.35467]]},"properties":{}},{"type":"Feature","geometry":{"type":"LineString","coordinates":[[9.28823,44.37853],[9.28818,44.37852],[9.2876,44.37867]]},"properties":{}},{"type":"Feature","geometry":{"type":"LineString","coordinates":[[9.27953,44.38651],[9.2798,44.38607],[9.27974,44.38557],[9.27985,44.38514],[9.28005,44.38473],[9.28058,44.38398],[9.28065,44.38383],[9.28091,44.38346],[9.2812,44.38316],[9.28102,44.3831],[9.28099,44.38305],[9.28102,44.383],[9.28112,44.38297],[9.28127,44.38303],[9.28133,44.38301],[9.28194,44.3823],[9.28275,44.38105],[9.28305,44.38067],[9.28329,44.38045],[9.28375,44.38029],[9.28414,44.3801],[9.28487,44.37966],[9.28743,44.37879],[9.28801,44.37866],[9.28823,44.37853]]},"properties":{}},{"type":"Feature","geometry":{"type":"LineString","coordinates":[[9.27345,44.38893],[9.27472,44.38845],[9.27771,44.38722],[9.27953,44.38651]]},"properties":{}},{"type":"Feature","geometry":{"type":"LineString","coordinates":[[9.27205,44.38879],[9.27231,44.38878],[9.27285,44.38884],[9.27312,44.3888],[9.27322,44.38882],[9.27336,44.38891],[9.27345,44.38893]]},"properties":{}},{"type":"Feature","geometry":{"type":"LineString","coordinates":[[9.27174,44.38896],[9.27205,44.38879]]},"properties":{}},{"type":"Feature","geometry":{"type":"LineString","coordinates":[[9.27166,44.38902],[9.27174,44.38896]]},"properties":{}},{"type":"Feature","geometry":{"type":"LineString","coordinates":[[9.27159,44.38908],[9.27166,44.38902]]},"properties":{}},{"type":"Feature","geometry":{"type":"LineString","coordinates":[[9.26762,44.39145],[9.26902,44.39093],[9.26956,44.39058],[9.27029,44.39024],[9.27117,44.38977],[9.2713,44.38959],[9.27159,44.38908]]},"properties":{}},{"type":"Feature","geometry":{"type":"LineString","coordinates":[[9.26759,44.39182],[9.26755,44.39161],[9.26762,44.39145]]},"properties":{}},{"type":"Feature","geometry":{"type":"LineString","coordinates":[[9.26875,44.39285],[9.26788,44.3922],[9.26769,44.39199],[9.26759,44.39182]]},"properties":{}},{"type":"Feature","geometry":{"type":"LineString","coordinates":[[9.32486,44.36226],[9.32546,44.36264],[9.32589,44.36281],[9.32704,44.36301],[9.32813,44.36317],[9.32903,44.36336],[9.32922,44.36346],[9.32935,44.36361],[9.32964,44.36385],[9.32998,44.36427],[9.33015,44.36439],[9.33035,44.36448],[9.33064,44.3645],[9.33101,44.36442],[9.33125,44.36432],[9.33146,44.36417],[9.33179,44.36381],[9.33196,44.36372],[9.33203,44.36363],[9.33206,44.3635]]},"properties":{}},{"type":"Feature","geometry":{"type":"LineString","coordinates":[[9.31392,44.3656],[9.31421,44.36553],[9.31493,44.36505],[9.31537,44.36438],[9.31581,44.36386],[9.31625,44.36366],[9.31676,44.36335],[9.31724,44.36314],[9.31844,44.36244],[9.31893,44.36211],[9.31926,44.36194],[9.32049,44.3617],[9.32171,44.36157],[9.32308,44.36151],[9.32437,44.36202],[9.32486,44.36226]]},"properties":{}},{"type":"Feature","geometry":{"type":"LineString","coordinates":[[9.31381,44.36564],[9.31392,44.3656]]},"properties":{}},{"type":"Feature","geometry":{"type":"LineString","coordinates":[[9.31376,44.36566],[9.31381,44.36564]]},"properties":{}},{"type":"Feature","geometry":{"type":"LineString","coordinates":[[9.31443,44.36833],[9.31448,44.36812],[9.31447,44.36784],[9.31461,44.36765],[9.31467,44.36748],[9.31465,44.36734],[9.31468,44.36712],[9.31463,44.36702],[9.31447,44.36685],[9.31409,44.3666],[9.31392,44.3664],[9.31366,44.366],[9.31347,44.36587],[9.31365,44.3657],[9.31376,44.36566]]},"properties":{}},{"type":"Feature","geometry":{"type":"LineString","coordinates":[[9.31339,44.36864],[9.31348,44.36867],[9.31435,44.36833],[9.31443,44.36833]]},"properties":{}},{"type":"Feature","geometry":{"type":"LineString","coordinates":[[9.29898,44.37061],[9.29946,44.37025],[9.30063,44.36997],[9.30126,44.36976],[9.30167,44.36957],[9.30245,44.36907],[9.30279,44.36883],[9.30307,44.36855],[9.30327,44.36842],[9.30364,44.36835],[9.30417,44.3682],[9.30513,44.36823],[9.30538,44.36821],[9.30588,44.36809],[9.30605,44.36809],[9.30788,44.36821],[9.30817,44.36827],[9.30888,44.36851],[9.30922,44.3686],[9.30976,44.36897],[9.31003,44.36936],[9.31045,44.36955],[9.31064,44.36954],[9.31159,44.36927],[9.31204,44.36909],[9.31286,44.36887],[9.31339,44.36864]]},"properties":{}},{"type":"Feature","geometry":{"type":"LineString","coordinates":[[9.29819,44.37129],[9.29898,44.37061]]},"properties":{}},{"type":"Feature","geometry":{"type":"LineString","coordinates":[[9.34082,44.35467],[9.34101,44.35503],[9.34148,44.35566],[9.34175,44.35614],[9.34199,44.35694],[9.34214,44.35736],[9.34278,44.35862],[9.34309,44.35936],[9.3432,44.35945]]},"properties":{}},{"type":"Feature","geometry":{"type":"LineString","coordinates":[[9.3432,44.35945],[9.34324,44.35949],[9.34331,44.35972],[9.34329,44.35981],[9.34281,44.36033],[9.34255,44.36053],[9.34231,44.36066],[9.34197,44.36074],[9.3413,44.36051],[9.34093,44.36019],[9.34048,44.36001],[9.33853,44.35907],[9.33847,44.35895]]},"properties":{}},{"type":"Feature","geometry":{"type":"LineString","coordinates":[[9.2693,44.39325],[9.26875,44.39285]]},"properties":{}},{"type":"Feature","geometry":{"type":"LineString","coordinates":[[9.25876,44.39644],[9.25871,44.39621],[9.25859,44.39611],[9.25866,44.396],[9.2588,44.39603],[9.25918,44.39588],[9.25929,44.39602],[9.25941,44.39603],[9.25958,44.39564],[9.2597,44.39547],[9.25994,44.39526],[9.26116,44.39479],[9.26099,44.39425],[9.26123,44.39425],[9.26151,44.39421],[9.26183,44.39407],[9.26212,44.39402],[9.26284,44.39422],[9.26324,44.39445],[9.26385,44.39466],[9.26417,44.39484],[9.2648,44.39488],[9.26537,44.39484],[9.26624,44.39468],[9.26666,44.39451],[9.26721,44.39445],[9.26806,44.39396],[9.26847,44.39378],[9.26894,44.39369],[9.26906,44.39377],[9.2693,44.39362],[9.26918,44.39345],[9.26926,44.39335],[9.26925,44.3933],[9.26788,44.39234]]},"properties":{}},{"type":"Feature","geometry":{"type":"LineString","coordinates":[[9.26657,44.39476],[9.26689,44.39471]]},"properties":{}},{"type":"Feature","geometry":{"type":"LineString","coordinates":[[9.26625,44.39481],[9.26657,44.39476]]},"properties":{}},{"type":"Feature","geometry":{"type":"LineString","coordinates":[[9.26625,44.39481],[9.26626,44.39487],[9.26613,44.3949],[9.26466,44.39511],[9.26419,44.39513]]},"properties":{}},{"type":"Feature","geometry":{"type":"LineString","coordinates":[[9.26594,44.39788],[9.26607,44.39786],[9.2663,44.39787],[9.26634,44.39774],[9.26617,44.39754],[9.26615,44.39738],[9.26602,44.39722],[9.26604,44.39718],[9.2662,44.39719],[9.26656,44.39737],[9.26672,44.39741],[9.26697,44.39742],[9.26703,44.39737],[9.26702,44.39729],[9.26657,44.39687],[9.26638,44.3968],[9.26608,44.39662],[9.26554,44.39658],[9.26503,44.39663],[9.26439,44.39637],[9.26416,44.39623],[9.26403,44.39619],[9.26335,44.39615],[9.26308,44.39608],[9.26285,44.39595],[9.26279,44.39586],[9.26282,44.39578],[9.26286,44.39576],[9.26347,44.39573],[9.26397,44.39548],[9.26415,44.39532],[9.26439,44.39521],[9.26433,44.39516],[9.26419,44.39513]]},"properties":{}},{"type":"Feature","geometry":{"type":"LineString","coordinates":[[9.26315,44.39754],[9.26328,44.3976],[9.26352,44.39764],[9.26437,44.39755],[9.26466,44.39756],[9.26594,44.39788]]},"properties":{}},{"type":"Feature","geometry":{"type":"LineString","coordinates":[[9.42027,44.26002],[9.42048,44.25996],[9.42053,44.2599],[9.42135,44.25976],[9.42152,44.25977],[9.42233,44.25961]]},"properties":{}},{"type":"Feature","geometry":{"type":"LineString","coordinates":[[9.42515,44.26674],[9.42515,44.26668]]},"properties":{}},{"type":"Feature","geometry":{"type":"LineString","coordinates":[[9.42516,44.26686],[9.42515,44.26674]]},"properties":{}},{"type":"Feature","geometry":{"type":"LineString","coordinates":[[9.42336,44.26696],[9.42364,44.26708],[9.42419,44.26711],[9.42515,44.26668]]},"properties":{}},{"type":"Feature","geometry":{"type":"LineString","coordinates":[[9.42519,44.26696],[9.42517,44.26725]]},"properties":{}},{"type":"Feature","geometry":{"type":"LineString","coordinates":[[9.416,44.26875],[9.4163,44.26863],[9.42223,44.2675],[9.42267,44.2673],[9.42327,44.26697],[9.42336,44.26696]]},"properties":{}},{"type":"Feature","geometry":{"type":"LineString","coordinates":[[9.42392,44.26875],[9.42389,44.26869],[9.42416,44.26861],[9.42417,44.26853],[9.42363,44.26772]]},"properties":{}},{"type":"Feature","geometry":{"type":"LineString","coordinates":[[9.42517,44.26725],[9.42517,44.26774],[9.42521,44.26809],[9.42573,44.26931]]},"properties":{}},{"type":"Feature","geometry":{"type":"LineString","coordinates":[[9.4131,44.26957],[9.41269,44.26974],[9.41114,44.2702],[9.41067,44.27031],[9.40922,44.27056],[9.40892,44.27054],[9.4087,44.27057],[9.40844,44.27062],[9.40845,44.27067]]},"properties":{}},{"type":"Feature","geometry":{"type":"LineString","coordinates":[[9.40595,44.27113],[9.40617,44.27102],[9.4062,44.27092],[9.40618,44.27055],[9.40622,44.27043],[9.40631,44.27036],[9.40642,44.27031],[9.40653,44.27031],[9.40708,44.27034]]},"properties":{}},{"type":"Feature","geometry":{"type":"LineString","coordinates":[[9.40576,44.27121],[9.40591,44.27113],[9.4077,44.27085],[9.40793,44.27074],[9.40845,44.27067]]},"properties":{}},{"type":"Feature","geometry":{"type":"LineString","coordinates":[[9.40841,44.27106],[9.40855,44.27115],[9.40872,44.27101],[9.40889,44.27093],[9.40905,44.27096],[9.40919,44.27107],[9.40923,44.27105]]},"properties":{}},{"type":"Feature","geometry":{"type":"LineString","coordinates":[[9.40107,44.27061],[9.40164,44.27058],[9.40163,44.27134],[9.4017,44.27162],[9.40177,44.27161]]},"properties":{}},{"type":"Feature","geometry":{"type":"LineString","coordinates":[[9.40395,44.27147],[9.40576,44.27121]]},"properties":{}},{"type":"Feature","geometry":{"type":"LineString","coordinates":[[9.4018,44.27173],[9.40177,44.27161]]},"properties":{}},{"type":"Feature","geometry":{"type":"LineString","coordinates":[[9.40576,44.27121],[9.40596,44.27125],[9.40614,44.27136],[9.40623,44.27147],[9.40627,44.27168],[9.40614,44.27212],[9.4062,44.27217],[9.40636,44.27219]]},"properties":{}},{"type":"Feature","geometry":{"type":"LineString","coordinates":[[9.40179,44.27183],[9.4018,44.27173]]},"properties":{}},{"type":"Feature","geometry":{"type":"LineString","coordinates":[[9.42442,44.2686],[9.42526,44.26838]]},"properties":{}},{"type":"Feature","geometry":{"type":"LineString","coordinates":[[9.42392,44.26875],[9.42395,44.26881],[9.42445,44.26867],[9.42442,44.2686]]},"properties":{}},{"type":"Feature","geometry":{"type":"LineString","coordinates":[[9.42379,44.26881],[9.42392,44.26875]]},"properties":{}},{"type":"Feature","geometry":{"type":"LineString","coordinates":[[9.42526,44.26838],[9.4253,44.26839],[9.42532,44.26844],[9.42569,44.26932]]},"properties":{}},{"type":"Feature","geometry":{"type":"LineString","coordinates":[[9.42306,44.26901],[9.42379,44.26881]]},"properties":{}},{"type":"Feature","geometry":{"type":"LineString","coordinates":[[9.42573,44.26931],[9.42581,44.26927],[9.42587,44.26915],[9.42649,44.26884],[9.4273,44.26857],[9.42738,44.26859],[9.42781,44.26891]]},"properties":{}},{"type":"Feature","geometry":{"type":"LineString","coordinates":[[9.42781,44.26891],[9.42796,44.26901]]},"properties":{}},{"type":"Feature","geometry":{"type":"LineString","coordinates":[[9.416,44.26875],[9.41574,44.26879],[9.41547,44.26877],[9.41529,44.26881],[9.41345,44.2695],[9.41348,44.26954]]},"properties":{}},{"type":"Feature","geometry":{"type":"LineString","coordinates":[[9.42289,44.26935],[9.42289,44.26905],[9.42306,44.26901]]},"properties":{}},{"type":"Feature","geometry":{"type":"LineString","coordinates":[[9.42796,44.26901],[9.42849,44.26918],[9.42872,44.26929],[9.42912,44.26957],[9.42969,44.2699],[9.4299,44.26995],[9.43042,44.27023],[9.4307,44.27032],[9.43187,44.27038],[9.432,44.27035],[9.43228,44.27037],[9.43363,44.27023],[9.43402,44.27014],[9.43962,44.26974],[9.4401,44.26973],[9.44131,44.2698]]},"properties":{}},{"type":"Feature","geometry":{"type":"LineString","coordinates":[[9.49331,44.25781],[9.49347,44.25777],[9.49386,44.25756],[9.49432,44.25742],[9.49726,44.25768],[9.49793,44.25789],[9.49825,44.25785],[9.49896,44.25783],[9.5,44.25763]]},"properties":{}},{"type":"Feature","geometry":{"type":"LineString","coordinates":[[9.49331,44.25781],[9.49342,44.25792],[9.49369,44.2581],[9.49396,44.25821],[9.49434,44.25832],[9.49471,44.25834],[9.49503,44.25831],[9.49553,44.25835],[9.49561,44.25845],[9.49545,44.25865],[9.49545,44.25871],[9.49553,44.25877],[9.49607,44.25871],[9.49619,44.25874],[9.49658,44.25893],[9.49682,44.25894],[9.49693,44.25891],[9.49703,44.25892],[9.49711,44.25897],[9.49725,44.2591],[9.49731,44.25934],[9.49737,44.25941],[9.4979,44.25952],[9.49804,44.25962],[9.49805,44.25967],[9.49801,44.25972],[9.49749,44.26001],[9.49733,44.26014],[9.49728,44.26026],[9.49732,44.2604],[9.49747,44.26053],[9.4979,44.26075],[9.49817,44.2608],[9.49825,44.26084],[9.49839,44.26102],[9.49875,44.26118],[9.49878,44.26122],[9.49876,44.26125],[9.49789,44.2617],[9.49783,44.26177],[9.49783,44.26184],[9.49802,44.26199],[9.49807,44.26207],[9.49806,44.26212],[9.49773,44.26224],[9.49702,44.26234],[9.4968,44.26242],[9.49646,44.26262],[9.49635,44.26262],[9.49604,44.26255],[9.49586,44.2624],[9.49536,44.26225],[9.49444,44.26205],[9.49403,44.26208],[9.49373,44.2622],[9.49339,44.26249],[9.49325,44.2627],[9.49329,44.2631],[9.49339,44.2634],[9.49368,44.26386],[9.49378,44.26484],[9.49375,44.26501],[9.49338,44.26541],[9.49325,44.26561],[9.49311,44.26614],[9.49313,44.26626],[9.49337,44.26661],[9.49336,44.26667],[9.49327,44.26667],[9.49315,44.2666],[9.4927,44.26621],[9.49266,44.26615],[9.49264,44.266],[9.49232,44.26567],[9.49146,44.26526],[9.49142,44.2652],[9.49142,44.26515],[9.4918,44.2647],[9.49181,44.26451],[9.49177,44.26443],[9.4913,44.26407],[9.49121,44.2639],[9.49118,44.26343],[9.49102,44.26305],[9.49078,44.26287],[9.48987,44.26243],[9.48981,44.26235],[9.48986,44.26197],[9.48973,44.26188],[9.48915,44.2618],[9.48856,44.26166],[9.48788,44.26157],[9.48755,44.26163],[9.48736,44.26172],[9.48707,44.26197],[9.48704,44.26207],[9.4871,44.26227],[9.48709,44.26241],[9.48699,44.26268],[9.4869,44.26282],[9.48668,44.26304],[9.4866,44.26333],[9.48668,44.26381],[9.4869,44.26413],[9.48683,44.2642],[9.48663,44.26418],[9.48648,44.26413],[9.48636,44.26389],[9.48626,44.26388],[9.48623,44.26392],[9.48621,44.26414],[9.4863,44.26459],[9.48662,44.26464],[9.48672,44.26469],[9.48678,44.26478],[9.48677,44.26488],[9.48655,44.26514]]},"properties":{}},{"type":"Feature","geometry":{"type":"LineString","coordinates":[[9.48655,44.26514],[9.48638,44.2652]]},"properties":{}},{"type":"Feature","geometry":{"type":"LineString","coordinates":[[9.48638,44.2652],[9.48612,44.26524],[9.48598,44.26522],[9.48589,44.26517],[9.48571,44.26496],[9.48532,44.26498],[9.48501,44.26492],[9.48483,44.26476],[9.48474,44.26474],[9.48467,44.26477],[9.48441,44.26493],[9.48424,44.26529],[9.48394,44.26554],[9.48372,44.26586],[9.48326,44.26624],[9.48317,44.26656],[9.48307,44.26665],[9.48294,44.26669],[9.48241,44.26683],[9.48148,44.26736],[9.48047,44.26816],[9.47994,44.26881],[9.47993,44.26901],[9.47999,44.26923],[9.47997,44.26942],[9.47977,44.26984],[9.47929,44.27041],[9.47894,44.27094],[9.47832,44.27176],[9.47817,44.27203],[9.47815,44.27211],[9.47824,44.27226],[9.47866,44.27238],[9.47916,44.27258]]},"properties":{}},{"type":"Feature","geometry":{"type":"LineString","coordinates":[[9.47916,44.27258],[9.47943,44.27269]]},"properties":{}},{"type":"Feature","geometry":{"type":"LineString","coordinates":[[9.47943,44.27269],[9.47957,44.27274]]},"properties":{}},{"type":"Feature","geometry":{"type":"LineString","coordinates":[[9.4798,44.27289],[9.47957,44.27274]]},"properties":{}},{"type":"Feature","geometry":{"type":"LineString","coordinates":[[9.42331,44.27009],[9.42372,44.27008],[9.42573,44.26931]]},"properties":{}},{"type":"Feature","geometry":{"type":"LineString","coordinates":[[9.42331,44.27009],[9.42312,44.26988],[9.42301,44.26983],[9.42251,44.26985],[9.42235,44.26979],[9.4223,44.26968],[9.42228,44.26943],[9.42286,44.26938],[9.42289,44.26935]]},"properties":{}},{"type":"Feature","geometry":{"type":"LineString","coordinates":[[9.44131,44.2698],[9.44185,44.26989],[9.44313,44.27027],[9.44832,44.27207],[9.44888,44.27232],[9.45008,44.27259],[9.45216,44.27314],[9.45223,44.27318]]},"properties":{}},{"type":"Feature","geometry":{"type":"LineString","coordinates":[[9.45243,44.27241],[9.45246,44.2724]]},"properties":{}},{"type":"Feature","geometry":{"type":"LineString","coordinates":[[9.45415,44.2726],[9.45408,44.27258],[9.45366,44.27265],[9.45246,44.2724]]},"properties":{}},{"type":"Feature","geometry":{"type":"LineString","coordinates":[[9.4545,44.27269],[9.45415,44.2726]]},"properties":{}},{"type":"Feature","geometry":{"type":"LineString","coordinates":[[9.4523,44.27316],[9.45243,44.27241]]},"properties":{}},{"type":"Feature","geometry":{"type":"LineString","coordinates":[[9.4523,44.27316],[9.45223,44.27318]]},"properties":{}},{"type":"Feature","geometry":{"type":"LineString","coordinates":[[9.45944,44.27396],[9.45771,44.27335],[9.4545,44.27269]]},"properties":{}},{"type":"Feature","geometry":{"type":"LineString","coordinates":[[9.45328,44.27352],[9.45318,44.27342],[9.45304,44.27335],[9.4523,44.27316]]},"properties":{}},{"type":"Feature","geometry":{"type":"LineString","coordinates":[[9.40845,44.27067],[9.4085,44.27094],[9.40841,44.27106],[9.40814,44.27125],[9.4079,44.27148],[9.40502,44.27283],[9.40458,44.27292],[9.40443,44.27292],[9.40384,44.27283],[9.40379,44.27281],[9.40361,44.27261]]},"properties":{}},{"type":"Feature","geometry":{"type":"LineString","coordinates":[[9.39866,44.27205],[9.39826,44.27195],[9.39626,44.27166]]},"properties":{}},{"type":"Feature","geometry":{"type":"LineString","coordinates":[[9.39945,44.27203],[9.39943,44.27198],[9.39931,44.272],[9.39894,44.27199],[9.39866,44.27205]]},"properties":{}},{"type":"Feature","geometry":{"type":"LineString","coordinates":[[9.40361,44.27261],[9.40358,44.27246],[9.40371,44.272],[9.40366,44.27185],[9.40353,44.27163],[9.40354,44.27156],[9.40357,44.27153],[9.40395,44.27147]]},"properties":{}},{"type":"Feature","geometry":{"type":"LineString","coordinates":[[9.40458,44.27292],[9.40507,44.2713]]},"properties":{}},{"type":"Feature","geometry":{"type":"LineString","coordinates":[[9.40165,44.27248],[9.40176,44.27219],[9.40179,44.27183]]},"properties":{}},{"type":"Feature","geometry":{"type":"LineString","coordinates":[[9.39941,44.27219],[9.39956,44.27221]]},"properties":{}},{"type":"Feature","geometry":{"type":"LineString","coordinates":[[9.40615,44.27214],[9.40619,44.27221],[9.40618,44.27228]]},"properties":{}},{"type":"Feature","geometry":{"type":"LineString","coordinates":[[9.3942,44.27269],[9.39417,44.27255],[9.3941,44.27244],[9.39414,44.27219],[9.3941,44.27202]]},"properties":{}},{"type":"Feature","geometry":{"type":"LineString","coordinates":[[9.40339,44.2726],[9.40338,44.27265],[9.40328,44.27272],[9.40185,44.27248],[9.40127,44.27244],[9.39948,44.27216],[9.39943,44.27215],[9.39945,44.27203]]},"properties":{}},{"type":"Feature","geometry":{"type":"LineString","coordinates":[[9.39956,44.27221],[9.40133,44.2725],[9.40145,44.27261],[9.40148,44.27272]]},"properties":{}},{"type":"Feature","geometry":{"type":"LineString","coordinates":[[9.40133,44.2725],[9.40175,44.27256]]},"properties":{}},{"type":"Feature","geometry":{"type":"LineString","coordinates":[[9.40972,44.27159],[9.40968,44.27161],[9.41027,44.27233],[9.41024,44.27236],[9.41029,44.27244],[9.41037,44.27246],[9.41059,44.27277],[9.41052,44.27291],[9.40977,44.27318],[9.41004,44.27359],[9.41006,44.27358]]},"properties":{}},{"type":"Feature","geometry":{"type":"LineString","coordinates":[[9.40361,44.27261],[9.40339,44.2726]]},"properties":{}},{"type":"Feature","geometry":{"type":"LineString","coordinates":[[9.40239,44.27257],[9.40235,44.27267]]},"properties":{}},{"type":"Feature","geometry":{"type":"LineString","coordinates":[[9.40175,44.27256],[9.40338,44.27282]]},"properties":{}},{"type":"Feature","geometry":{"type":"LineString","coordinates":[[9.39425,44.27271],[9.3942,44.27269]]},"properties":{}},{"type":"Feature","geometry":{"type":"LineString","coordinates":[[9.39442,44.27271],[9.39425,44.27271]]},"properties":{}},{"type":"Feature","geometry":{"type":"LineString","coordinates":[[9.39488,44.27277],[9.39442,44.27271]]},"properties":{}},{"type":"Feature","geometry":{"type":"LineString","coordinates":[[9.39662,44.27302],[9.39488,44.27277]]},"properties":{}},{"type":"Feature","geometry":{"type":"LineString","coordinates":[[9.40235,44.27267],[9.40177,44.27259],[9.4017,44.27259],[9.40162,44.27263],[9.40156,44.27363],[9.40172,44.27364],[9.40212,44.27339]]},"properties":{}},{"type":"Feature","geometry":{"type":"LineString","coordinates":[[9.40148,44.27272],[9.40142,44.27375]]},"properties":{}},{"type":"Feature","geometry":{"type":"LineString","coordinates":[[9.396,44.27414],[9.39667,44.27322],[9.39668,44.27309],[9.39662,44.27302]]},"properties":{}},{"type":"Feature","geometry":{"type":"LineString","coordinates":[[9.40172,44.27364],[9.40185,44.27365],[9.40184,44.27372]]},"properties":{}},{"type":"Feature","geometry":{"type":"LineString","coordinates":[[9.40142,44.27375],[9.40138,44.27412]]},"properties":{}},{"type":"Feature","geometry":{"type":"LineString","coordinates":[[9.3957,44.2745],[9.396,44.27414]]},"properties":{}},{"type":"Feature","geometry":{"type":"LineString","coordinates":[[9.39588,44.27457],[9.3957,44.2745]]},"properties":{}},{"type":"Feature","geometry":{"type":"LineString","coordinates":[[9.39697,44.27571],[9.396,44.27462],[9.39588,44.27457]]},"properties":{}},{"type":"Feature","geometry":{"type":"LineString","coordinates":[[9.39148,44.28038],[9.39143,44.28036],[9.39295,44.27827],[9.39295,44.27817],[9.39286,44.27804],[9.39283,44.27789],[9.39299,44.27777],[9.39421,44.27573],[9.39428,44.27556],[9.39434,44.27535],[9.39437,44.27457],[9.39437,44.27439],[9.39429,44.27427],[9.39435,44.27412],[9.39437,44.27394],[9.39433,44.27333],[9.39427,44.27313],[9.39414,44.27288],[9.3942,44.27269]]},"properties":{}},{"type":"Feature","geometry":{"type":"LineString","coordinates":[[9.39111,44.2807],[9.39148,44.28038]]},"properties":{}},{"type":"Feature","geometry":{"type":"LineString","coordinates":[[9.39105,44.28082],[9.391,44.28078],[9.391,44.28074],[9.39111,44.2807]]},"properties":{}},{"type":"Feature","geometry":{"type":"LineString","coordinates":[[9.39111,44.2807],[9.39117,44.28075],[9.39117,44.28079],[9.39111,44.28083],[9.39105,44.28082]]},"properties":{}},{"type":"Feature","geometry":{"type":"LineString","coordinates":[[9.38961,44.28182],[9.38982,44.2817],[9.39105,44.28082]]},"properties":{}},{"type":"Feature","geometry":{"type":"LineString","coordinates":[[9.389,44.28209],[9.3894,44.28193],[9.38961,44.28182]]},"properties":{}},{"type":"Feature","geometry":{"type":"LineString","coordinates":[[9.38303,44.28549],[9.38388,44.28522],[9.38472,44.28484],[9.38646,44.28395],[9.3875,44.28332],[9.38781,44.28303],[9.38823,44.28254],[9.38847,44.28234],[9.389,44.28209]]},"properties":{}},{"type":"Feature","geometry":{"type":"LineString","coordinates":[[9.38147,44.28693],[9.38166,44.28649],[9.38195,44.28601],[9.3821,44.28588],[9.38303,44.28549]]},"properties":{}},{"type":"Feature","geometry":{"type":"LineString","coordinates":[[9.38144,44.28742],[9.38147,44.28693]]},"properties":{}},{"type":"Feature","geometry":{"type":"LineString","coordinates":[[9.37992,44.28971],[9.37973,44.28984],[9.37919,44.29009]]},"properties":{}},{"type":"Feature","geometry":{"type":"LineString","coordinates":[[9.38191,44.29116],[9.38193,44.29095],[9.38188,44.29081],[9.38172,44.2907],[9.38028,44.28994]]},"properties":{}},{"type":"Feature","geometry":{"type":"LineString","coordinates":[[9.38049,44.28991],[9.38084,44.29015],[9.38192,44.29075],[9.38201,44.29083],[9.38201,44.29101],[9.38193,44.29132]]},"properties":{}},{"type":"Feature","geometry":{"type":"LineString","coordinates":[[9.37686,44.29144],[9.37753,44.29076]]},"properties":{}},{"type":"Feature","geometry":{"type":"LineString","coordinates":[[9.37246,44.29387],[9.37686,44.29144]]},"properties":{}},{"type":"Feature","geometry":{"type":"LineString","coordinates":[[9.35909,44.30003],[9.3592,44.30014]]},"properties":{}},{"type":"Feature","geometry":{"type":"LineString","coordinates":[[9.3592,44.30014],[9.35928,44.30021]]},"properties":{}},{"type":"Feature","geometry":{"type":"LineString","coordinates":[[9.3513,44.30318],[9.35181,44.30319],[9.35217,44.30304],[9.35345,44.3025],[9.35379,44.30231],[9.35399,44.30226],[9.35605,44.30134],[9.35673,44.30103],[9.35684,44.30096],[9.35909,44.30003]]},"properties":{}},{"type":"Feature","geometry":{"type":"LineString","coordinates":[[9.34689,44.30524],[9.35094,44.30352],[9.35101,44.3034],[9.35114,44.30326],[9.3513,44.30318]]},"properties":{}},{"type":"Feature","geometry":{"type":"LineString","coordinates":[[9.34629,44.30551],[9.34689,44.30524]]},"properties":{}},{"type":"Feature","geometry":{"type":"LineString","coordinates":[[9.34332,44.30611],[9.34375,44.30612],[9.34456,44.30597],[9.34529,44.30569],[9.34583,44.30562],[9.34658,44.30532],[9.34689,44.30524]]},"properties":{}},{"type":"Feature","geometry":{"type":"LineString","coordinates":[[9.34506,44.30612],[9.34629,44.30551]]},"properties":{}},{"type":"Feature","geometry":{"type":"LineString","coordinates":[[9.34622,44.30603],[9.34648,44.30591]]},"properties":{}},{"type":"Feature","geometry":{"type":"LineString","coordinates":[[9.4798,44.27299],[9.4798,44.27289]]},"properties":{}},{"type":"Feature","geometry":{"type":"LineString","coordinates":[[9.47958,44.2731],[9.4798,44.27299]]},"properties":{}},{"type":"Feature","geometry":{"type":"LineString","coordinates":[[9.47888,44.27312],[9.47915,44.27307],[9.47958,44.2731]]},"properties":{}},{"type":"Feature","geometry":{"type":"LineString","coordinates":[[9.46914,44.27475],[9.46924,44.2748],[9.46931,44.27491],[9.46939,44.27525],[9.46944,44.2753],[9.46958,44.27532],[9.47012,44.27518]]},"properties":{}},{"type":"Feature","geometry":{"type":"LineString","coordinates":[[9.4705,44.27516],[9.47078,44.27515],[9.47141,44.2752],[9.47192,44.27509]]},"properties":{}},{"type":"Feature","geometry":{"type":"LineString","coordinates":[[9.47012,44.27518],[9.4705,44.27516]]},"properties":{}},{"type":"Feature","geometry":{"type":"LineString","coordinates":[[9.46973,44.27673],[9.46987,44.27677],[9.47007,44.27678]]},"properties":{}},{"type":"Feature","geometry":{"type":"LineString","coordinates":[[9.45348,44.27355],[9.45328,44.27352]]},"properties":{}},{"type":"Feature","geometry":{"type":"LineString","coordinates":[[9.41739,44.27332],[9.41659,44.27371],[9.41657,44.27377],[9.41643,44.27385],[9.41625,44.27383]]},"properties":{}},{"type":"Feature","geometry":{"type":"LineString","coordinates":[[9.45416,44.27372],[9.45462,44.27371]]},"properties":{}},{"type":"Feature","geometry":{"type":"LineString","coordinates":[[9.45348,44.27355],[9.4536,44.2732],[9.45586,44.27356],[9.45747,44.27389],[9.45792,44.27402],[9.45868,44.27426],[9.45991,44.27479],[9.46069,44.27501],[9.46085,44.27511],[9.46153,44.27517],[9.46218,44.27519]]},"properties":{}},{"type":"Feature","geometry":{"type":"LineString","coordinates":[[9.41567,44.27414],[9.4149,44.27454]]},"properties":{}},{"type":"Feature","geometry":{"type":"LineString","coordinates":[[9.41532,44.27492],[9.4149,44.27454]]},"properties":{}},{"type":"Feature","geometry":{"type":"LineString","coordinates":[[9.41796,44.2772],[9.41688,44.2763],[9.41532,44.27492]]},"properties":{}},{"type":"Feature","geometry":{"type":"LineString","coordinates":[[9.41821,44.27738],[9.41796,44.2772]]},"properties":{}},{"type":"Feature","geometry":{"type":"LineString","coordinates":[[9.38193,44.29132],[9.38191,44.29116]]},"properties":{}}]}