{"type":"FeatureCollection","features":[{"type":"Feature","geometry":{"type":"LineString","coordinates":[[9.72427,46.15835],[9.72403,46.15899],[9.7239,46.15914],[9.72362,46.15932],[9.72346,46.15936]]},"properties":{}},{"type":"Feature","geometry":{"type":"LineString","coordinates":[[9.72457,46.15833],[9.72441,46.15896],[9.72422,46.15931],[9.72417,46.15951]]},"properties":{}},{"type":"Feature","geometry":{"type":"LineString","coordinates":[[9.69525,46.15946],[9.69533,46.15931]]},"properties":{}},{"type":"Feature","geometry":{"type":"LineString","coordinates":[[9.72346,46.15936],[9.72297,46.15948],[9.72185,46.15949],[9.72119,46.15956],[9.7199,46.15951],[9.71883,46.15954],[9.71799,46.1596],[9.7164,46.15957],[9.71418,46.15947],[9.71357,46.15938],[9.71253,46.1593],[9.71127,46.1593],[9.71089,46.15922],[9.71053,46.1591],[9.71016,46.15905],[9.70967,46.15905],[9.70948,46.15898],[9.70914,46.15896],[9.70845,46.15899],[9.70791,46.15908],[9.707,46.15934],[9.70534,46.15963],[9.70475,46.15977],[9.70401,46.15983],[9.70298,46.15983],[9.70043,46.15974],[9.69889,46.15975],[9.69581,46.1596],[9.69525,46.15946]]},"properties":{}},{"type":"Feature","geometry":{"type":"LineString","coordinates":[[9.72417,46.15951],[9.72346,46.15936]]},"properties":{}},{"type":"Feature","geometry":{"type":"LineString","coordinates":[[9.68827,46.15929],[9.68829,46.15954]]},"properties":{}},{"type":"Feature","geometry":{"type":"LineString","coordinates":[[9.68829,46.15969],[9.69124,46.15972],[9.69427,46.15967],[9.69504,46.15963],[9.69515,46.15961],[9.69525,46.15946]]},"properties":{}},{"type":"Feature","geometry":{"type":"LineString","coordinates":[[9.7378,46.15177],[9.73842,46.1515],[9.73859,46.15148],[9.73932,46.15185],[9.73946,46.15189],[9.73954,46.15186],[9.73964,46.15182],[9.74028,46.15115],[9.74083,46.15073],[9.7412,46.15069],[9.74156,46.15052],[9.74235,46.15023]]},"properties":{}},{"type":"Feature","geometry":{"type":"LineString","coordinates":[[9.74266,46.15131],[9.74272,46.15148]]},"properties":{}},{"type":"Feature","geometry":{"type":"LineString","coordinates":[[9.7438,46.15241],[9.74371,46.15203],[9.74354,46.15184],[9.74354,46.15178],[9.74357,46.1517],[9.74394,46.15115],[9.74398,46.15107],[9.74392,46.15087],[9.74371,46.15085],[9.74282,46.15115],[9.74282,46.15139],[9.74277,46.15147],[9.74272,46.15148],[9.74289,46.15223],[9.74284,46.15226],[9.7427,46.15227],[9.74263,46.15232],[9.74206,46.15331],[9.74206,46.15354],[9.74217,46.15369],[9.74224,46.15376],[9.74237,46.15377],[9.74272,46.15362],[9.743,46.15377],[9.74284,46.15357],[9.74303,46.15361],[9.74317,46.15354],[9.7438,46.15241]]},"properties":{}},{"type":"Feature","geometry":{"type":"LineString","coordinates":[[9.7438,46.15241],[9.74399,46.15216],[9.74411,46.15212]]},"properties":{}},{"type":"Feature","geometry":{"type":"LineString","coordinates":[[9.74613,46.15047],[9.74576,46.15091],[9.74543,46.1514],[9.74426,46.15299],[9.74324,46.15456],[9.74307,46.15495],[9.74287,46.15516],[9.7429,46.1552],[9.74206,46.15661],[9.74202,46.15684],[9.7418,46.15728]]},"properties":{}},{"type":"Feature","geometry":{"type":"LineString","coordinates":[[9.7418,46.15728],[9.74174,46.15738]]},"properties":{}},{"type":"Feature","geometry":{"type":"LineString","coordinates":[[9.74174,46.15738],[9.74161,46.15753],[9.7415,46.15771]]},"properties":{}},{"type":"Feature","geometry":{"type":"LineString","coordinates":[[9.75,46.15983],[9.74445,46.15982],[9.74384,46.15979]]},"properties":{}},{"type":"Feature","geometry":{"type":"LineString","coordinates":[[9.74072,46.15809],[9.74106,46.15775],[9.7411,46.15759]]},"properties":{}},{"type":"Feature","geometry":{"type":"LineString","coordinates":[[9.74123,46.15818],[9.7415,46.15771]]},"properties":{}},{"type":"Feature","geometry":{"type":"LineString","coordinates":[[9.74072,46.15809],[9.74123,46.15818]]},"properties":{}},{"type":"Feature","geometry":{"type":"LineString","coordinates":[[9.74876,46.15845],[9.75,46.15849]]},"properties":{}},{"type":"Feature","geometry":{"type":"LineString","coordinates":[[9.74656,46.15847],[9.74876,46.15845]]},"properties":{}},{"type":"Feature","geometry":{"type":"LineString","coordinates":[[9.74288,46.15881],[9.7419,46.15891],[9.74161,46.1589],[9.74141,46.15884],[9.74124,46.15873],[9.74115,46.15853],[9.74123,46.15818]]},"properties":{}},{"type":"Feature","geometry":{"type":"LineString","coordinates":[[9.74656,46.15847],[9.74571,46.15852],[9.74322,46.15877]]},"properties":{}},{"type":"Feature","geometry":{"type":"LineString","coordinates":[[9.74322,46.15877],[9.74288,46.15881]]},"properties":{}},{"type":"Feature","geometry":{"type":"LineString","coordinates":[[9.72417,46.15951],[9.72422,46.15959],[9.7246,46.15967],[9.72575,46.15969],[9.72705,46.15985],[9.72813,46.15991],[9.73032,46.15952],[9.73175,46.15909],[9.73217,46.15899],[9.73304,46.15889],[9.73348,46.15879],[9.73654,46.15891],[9.73762,46.159],[9.73797,46.15896],[9.74031,46.15829],[9.74072,46.15809]]},"properties":{}},{"type":"Feature","geometry":{"type":"LineString","coordinates":[[9.74373,46.1598],[9.74384,46.15979]]},"properties":{}},{"type":"Feature","geometry":{"type":"LineString","coordinates":[[9.68829,46.15954],[9.68829,46.15967]]},"properties":{}},{"type":"Feature","geometry":{"type":"LineString","coordinates":[[9.68829,46.15967],[9.68829,46.15969]]},"properties":{}},{"type":"Feature","geometry":{"type":"LineString","coordinates":[[9.68829,46.15969],[9.68829,46.15975]]},"properties":{}},{"type":"Feature","geometry":{"type":"LineString","coordinates":[[9.68829,46.15975],[9.68835,46.16077]]},"properties":{}},{"type":"Feature","geometry":{"type":"LineString","coordinates":[[9.68835,46.16077],[9.68837,46.16088]]},"properties":{}},{"type":"Feature","geometry":{"type":"LineString","coordinates":[[9.68837,46.16088],[9.68839,46.16094]]},"properties":{}},{"type":"Feature","geometry":{"type":"LineString","coordinates":[[9.68839,46.16094],[9.68844,46.16107]]},"properties":{}},{"type":"Feature","geometry":{"type":"LineString","coordinates":[[9.68844,46.16107],[9.68887,46.16181],[9.689,46.1621],[9.68908,46.1625],[9.68911,46.16306],[9.68917,46.16323],[9.68946,46.16365]]},"properties":{}},{"type":"Feature","geometry":{"type":"LineString","coordinates":[[9.67375,46.16439],[9.67413,46.16437]]},"properties":{}},{"type":"Feature","geometry":{"type":"LineString","coordinates":[[9.67413,46.16443],[9.67375,46.16439]]},"properties":{}},{"type":"Feature","geometry":{"type":"LineString","coordinates":[[9.74325,46.15987],[9.74373,46.1598]]},"properties":{}},{"type":"Feature","geometry":{"type":"LineString","coordinates":[[9.74786,46.17568],[9.74775,46.17571],[9.74775,46.17563],[9.74765,46.17549],[9.74744,46.17528],[9.74736,46.17528]]},"properties":{}},{"type":"Feature","geometry":{"type":"LineString","coordinates":[[9.7415,46.1775],[9.7415,46.17722],[9.74142,46.1771],[9.74139,46.17693],[9.7412,46.17674],[9.7411,46.17667],[9.74093,46.17663],[9.74056,46.17649],[9.74051,46.17645],[9.74049,46.17636],[9.74042,46.17625],[9.74034,46.17618],[9.73982,46.17613],[9.73972,46.17608],[9.73964,46.17593],[9.73949,46.17589],[9.73944,46.17569],[9.73937,46.17565],[9.73894,46.17561]]},"properties":{}},{"type":"Feature","geometry":{"type":"LineString","coordinates":[[9.68989,46.16737],[9.68967,46.16749],[9.68955,46.16753],[9.68863,46.16764]]},"properties":{}},{"type":"Feature","geometry":{"type":"LineString","coordinates":[[9.68863,46.16764],[9.68762,46.16772],[9.68665,46.16775],[9.68464,46.16803],[9.68413,46.16805],[9.68199,46.1677],[9.68105,46.16758],[9.68075,46.16751]]},"properties":{}},{"type":"Feature","geometry":{"type":"LineString","coordinates":[[9.69369,46.17245],[9.69395,46.1727],[9.69437,46.17288],[9.69445,46.17295],[9.69462,46.1734],[9.69458,46.1735],[9.69428,46.17382],[9.6941,46.17412],[9.69372,46.17451],[9.69314,46.17491],[9.69271,46.17526],[9.69247,46.17551],[9.69228,46.17556],[9.69123,46.17571],[9.6911,46.17564],[9.69087,46.17543],[9.69036,46.17515]]},"properties":{}},{"type":"Feature","geometry":{"type":"LineString","coordinates":[[9.71735,46.16293],[9.70325,46.16343]]},"properties":{}},{"type":"Feature","geometry":{"type":"LineString","coordinates":[[9.69524,46.1637],[9.70325,46.16343]]},"properties":{}},{"type":"Feature","geometry":{"type":"LineString","coordinates":[[9.72843,46.18223],[9.72809,46.18215],[9.72789,46.18206],[9.72776,46.18195],[9.72714,46.18196],[9.72692,46.18189],[9.72681,46.18192],[9.72649,46.1818],[9.72631,46.18182],[9.7262,46.18194],[9.72613,46.18214],[9.72601,46.18224],[9.72578,46.18221],[9.72571,46.18207],[9.72559,46.18207],[9.72524,46.1822],[9.72502,46.18221],[9.72481,46.18205],[9.72409,46.18198]]},"properties":{}},{"type":"Feature","geometry":{"type":"LineString","coordinates":[[9.50069,46.11123],[9.50165,46.11144],[9.50211,46.11165],[9.50235,46.11181],[9.50253,46.11199],[9.50339,46.11225],[9.50378,46.11249],[9.50416,46.11254],[9.50466,46.11275],[9.50487,46.11287],[9.50507,46.11302],[9.50507,46.11306],[9.50487,46.11316],[9.50463,46.1133],[9.50463,46.11332],[9.50506,46.11349],[9.50518,46.11356],[9.50526,46.11364],[9.50525,46.11368],[9.50514,46.1137],[9.50518,46.11374],[9.50544,46.11381],[9.50583,46.11384],[9.50586,46.11389],[9.50578,46.11399],[9.50598,46.11418],[9.5061,46.11436],[9.50635,46.11459],[9.50672,46.11469],[9.50696,46.11483],[9.50836,46.11503],[9.50847,46.11508],[9.5085,46.11514],[9.50845,46.1152],[9.5082,46.11532],[9.50817,46.11546],[9.50823,46.1155],[9.50857,46.11559],[9.50901,46.11559],[9.50904,46.11561],[9.50902,46.11574],[9.50946,46.11566],[9.50964,46.11566],[9.50977,46.11575],[9.50969,46.1159]]},"properties":{}},{"type":"Feature","geometry":{"type":"LineString","coordinates":[[9.50806,46.1171],[9.50804,46.11723],[9.50779,46.11738],[9.50769,46.11764],[9.50755,46.11779],[9.50721,46.11795],[9.50689,46.11799],[9.50683,46.11821],[9.50689,46.11831],[9.50704,46.11836],[9.50737,46.11836],[9.50792,46.11825],[9.50836,46.11808],[9.50855,46.11795],[9.5087,46.11789],[9.5089,46.11792],[9.50908,46.118],[9.50929,46.11805],[9.50961,46.11806],[9.51006,46.11801]]},"properties":{}},{"type":"Feature","geometry":{"type":"LineString","coordinates":[[9.51017,46.11856],[9.51013,46.11866],[9.50999,46.11876],[9.50991,46.11888],[9.50999,46.119],[9.51027,46.11905],[9.51131,46.1189],[9.51133,46.11895],[9.51118,46.11907],[9.5114,46.11921],[9.51154,46.11924],[9.51158,46.1193],[9.51147,46.11936],[9.51149,46.11943],[9.51126,46.1196],[9.51144,46.11976],[9.5114,46.11982],[9.51122,46.11992],[9.5107,46.12012],[9.51035,46.12036],[9.51021,46.1205],[9.51016,46.12062],[9.51048,46.12055],[9.51045,46.12064],[9.51034,46.12072],[9.50973,46.12103],[9.50949,46.12114],[9.50911,46.12117],[9.50879,46.12113],[9.50857,46.12116]]},"properties":{}},{"type":"Feature","geometry":{"type":"LineString","coordinates":[[9.50825,46.1211],[9.50776,46.12109],[9.50762,46.12118],[9.50766,46.12128],[9.50784,46.12137],[9.50811,46.12142],[9.50853,46.12166],[9.50893,46.12178],[9.50932,46.12184],[9.50974,46.12179],[9.51072,46.12179],[9.51141,46.12173],[9.51271,46.12151],[9.51295,46.12152],[9.51299,46.12161],[9.51285,46.12171],[9.5118,46.12206],[9.51105,46.12211],[9.51064,46.12219],[9.51031,46.12235],[9.51014,46.12251]]},"properties":{}},{"type":"Feature","geometry":{"type":"LineString","coordinates":[[9.6001,46.05874],[9.6003,46.05845],[9.60044,46.05811],[9.6003,46.05759],[9.60064,46.05652],[9.60069,46.05605],[9.60068,46.05573],[9.60012,46.05484],[9.60007,46.05462],[9.60016,46.05429],[9.60009,46.0539],[9.60025,46.05361],[9.60031,46.05326],[9.6006,46.05259],[9.6007,46.05248],[9.60079,46.05242],[9.60079,46.05224],[9.60083,46.05215],[9.60106,46.05208],[9.60121,46.05225],[9.60146,46.05218],[9.60148,46.05215],[9.60137,46.05205],[9.60136,46.05202],[9.60151,46.05192],[9.60188,46.05177],[9.60195,46.05169],[9.60192,46.05162],[9.60196,46.05157],[9.60199,46.05157],[9.60231,46.05111],[9.60243,46.05102],[9.60241,46.05098],[9.60225,46.051],[9.60224,46.05084],[9.60192,46.05106],[9.6019,46.05098],[9.60204,46.05057],[9.60219,46.05056],[9.60231,46.05041],[9.60227,46.05032],[9.60232,46.05021],[9.6025,46.05003],[9.60256,46.04991],[9.60271,46.04974],[9.60282,46.04943],[9.60301,46.04902],[9.60329,46.04889],[9.60359,46.04845],[9.60382,46.04828],[9.60406,46.04805],[9.60434,46.04804],[9.60448,46.04776],[9.60444,46.04752],[9.60464,46.04717],[9.6047,46.04716],[9.60474,46.04719],[9.60476,46.04741],[9.60489,46.04727],[9.60491,46.04737],[9.60488,46.04749],[9.60496,46.04744],[9.60495,46.04762],[9.60507,46.0476],[9.60502,46.04769],[9.60511,46.04768],[9.60501,46.04792],[9.6051,46.04787],[9.6051,46.04792],[9.60503,46.04807],[9.6052,46.048],[9.60502,46.04827],[9.60527,46.04818],[9.60528,46.04821],[9.60518,46.04835],[9.60527,46.04839],[9.60523,46.0485],[9.60542,46.04853],[9.60554,46.04861],[9.60555,46.04865],[9.60549,46.04871],[9.60566,46.04889],[9.60574,46.04892],[9.60583,46.04892],[9.60674,46.04859],[9.60699,46.04872],[9.60702,46.0489],[9.60709,46.04896],[9.60725,46.04893],[9.60734,46.04896],[9.60734,46.04893],[9.6074,46.04893],[9.60755,46.04877],[9.60769,46.04874],[9.60807,46.04883],[9.6082,46.0489],[9.60826,46.04899],[9.60824,46.04903],[9.6084,46.04915],[9.60864,46.04917],[9.60892,46.04926],[9.60925,46.04942],[9.60941,46.04941],[9.60941,46.04947],[9.6095,46.04947],[9.6101,46.04964],[9.61023,46.04963],[9.61034,46.04967],[9.61049,46.04982],[9.61051,46.04987],[9.61051,46.05001],[9.61058,46.05004],[9.61104,46.05003],[9.61108,46.05016],[9.61119,46.05025],[9.61142,46.05031],[9.61149,46.0505],[9.61169,46.05081],[9.61197,46.05108],[9.61208,46.05114],[9.61227,46.05116],[9.61237,46.05113],[9.61239,46.05109],[9.61224,46.05107],[9.61237,46.05101],[9.61222,46.05099],[9.612,46.05088],[9.61198,46.05084],[9.61218,46.05089],[9.61239,46.05084],[9.61241,46.05074],[9.6126,46.05067],[9.61259,46.05073],[9.61265,46.05073],[9.61305,46.05066],[9.61375,46.05077],[9.61451,46.05096],[9.61501,46.05097],[9.61532,46.05081],[9.61559,46.0509],[9.61569,46.05105],[9.61588,46.05114],[9.61675,46.05122],[9.61689,46.05134],[9.61693,46.05146],[9.61723,46.05158],[9.6173,46.05159],[9.61739,46.05154],[9.61739,46.05132],[9.61754,46.05126],[9.61768,46.05141],[9.61794,46.05149],[9.61817,46.05141],[9.61839,46.05143],[9.61872,46.05153],[9.61911,46.05175],[9.61959,46.05196],[9.61963,46.05204],[9.61962,46.05219],[9.61984,46.05233],[9.62067,46.05232],[9.62078,46.05237],[9.62096,46.05246],[9.62126,46.05276],[9.62146,46.05305],[9.62159,46.05332],[9.62158,46.05366],[9.62141,46.05405],[9.62143,46.05422]]},"properties":{}},{"type":"Feature","geometry":{"type":"LineString","coordinates":[[9.59525,46.06585],[9.59523,46.06574],[9.59539,46.06559],[9.5953,46.0654],[9.59529,46.06526],[9.59536,46.06508],[9.59548,46.06445],[9.59593,46.06356],[9.59592,46.06325],[9.59598,46.06294],[9.59613,46.06267],[9.59619,46.06242],[9.59643,46.06217],[9.59707,46.06168],[9.59708,46.06146],[9.59714,46.06131],[9.59727,46.06112],[9.59741,46.06067],[9.59776,46.0604],[9.59788,46.06013],[9.59828,46.06007],[9.59843,46.0602],[9.59875,46.06031],[9.59917,46.06019],[9.59952,46.06031],[9.59971,46.06061],[9.60007,46.06073],[9.60049,46.0607],[9.6011,46.06086],[9.60167,46.06082]]},"properties":{}},{"type":"Feature","geometry":{"type":"LineString","coordinates":[[9.60864,46.12799],[9.60869,46.12809],[9.60868,46.12816],[9.60863,46.12826],[9.60847,46.12832],[9.60852,46.12842],[9.60846,46.12857],[9.60791,46.12894],[9.60792,46.12902],[9.60802,46.12912],[9.60802,46.12921],[9.6079,46.12928],[9.60757,46.1294],[9.60729,46.12958],[9.60712,46.12962],[9.60692,46.12971],[9.60691,46.12973],[9.6071,46.12976],[9.60712,46.12982],[9.60688,46.13],[9.60686,46.1301],[9.60676,46.1302],[9.60678,46.13033],[9.60666,46.13046],[9.60642,46.13049],[9.60613,46.13063],[9.60614,46.13074],[9.60652,46.13088],[9.60674,46.131],[9.60674,46.13106],[9.60664,46.13111],[9.60662,46.13123],[9.60645,46.13135],[9.60593,46.1314],[9.60547,46.1315],[9.60543,46.13156],[9.6055,46.13162],[9.60546,46.13174],[9.60558,46.13191],[9.60557,46.13213]]},"properties":{}},{"type":"Feature","geometry":{"type":"LineString","coordinates":[[9.59353,46.1277],[9.59417,46.12784],[9.59532,46.12833],[9.59536,46.1284],[9.59521,46.12899],[9.59531,46.129],[9.59535,46.12914],[9.59546,46.12928],[9.59609,46.12938],[9.59639,46.12939],[9.59696,46.12935],[9.59731,46.12929],[9.59737,46.1294],[9.59778,46.12958],[9.59785,46.12972],[9.59807,46.12981],[9.59806,46.12993],[9.59793,46.13],[9.59825,46.13009],[9.59827,46.13013],[9.5982,46.13017],[9.59822,46.1302],[9.59839,46.13022],[9.59857,46.13029],[9.59845,46.13032],[9.59846,46.13037],[9.59866,46.13046],[9.59856,46.13062],[9.59858,46.13066],[9.5993,46.1308],[9.59935,46.13084],[9.59935,46.13088],[9.59918,46.13096],[9.59926,46.13097],[9.5994,46.13094],[9.59957,46.13098],[9.59956,46.13105],[9.59941,46.1312],[9.59983,46.13127],[9.59992,46.13124],[9.59999,46.13134],[9.60016,46.13134],[9.60023,46.13125],[9.60029,46.13123],[9.60036,46.13126],[9.60051,46.13122],[9.6007,46.13133],[9.60075,46.13143],[9.60091,46.13157],[9.60093,46.13164],[9.60087,46.13183],[9.60077,46.13189],[9.60074,46.13195],[9.60048,46.13208],[9.5996,46.13232],[9.59905,46.1323],[9.59888,46.13238],[9.59876,46.13252],[9.5986,46.13266]]},"properties":{}},{"type":"Feature","geometry":{"type":"LineString","coordinates":[[9.61013,46.1423],[9.60791,46.1429],[9.60694,46.14312],[9.60642,46.14318],[9.60346,46.14318],[9.60022,46.14308],[9.59933,46.14302],[9.59851,46.14292],[9.59378,46.14203],[9.58183,46.13883],[9.58167,46.13883],[9.58048,46.13938],[9.58006,46.13972]]},"properties":{}},{"type":"Feature","geometry":{"type":"LineString","coordinates":[[9.59705,46.14428],[9.5971,46.14428]]},"properties":{}},{"type":"Feature","geometry":{"type":"LineString","coordinates":[[9.54688,46.1197],[9.54688,46.11989],[9.54682,46.11998],[9.54669,46.11996],[9.54661,46.11988],[9.54655,46.11993],[9.54654,46.12003],[9.5464,46.12002],[9.54625,46.11988],[9.54628,46.12001],[9.54624,46.12006],[9.54592,46.12003],[9.5455,46.12008],[9.54543,46.12015],[9.54521,46.12019],[9.54444,46.12006]]},"properties":{}},{"type":"Feature","geometry":{"type":"LineString","coordinates":[[9.5411,46.12052],[9.5413,46.12063],[9.5415,46.12064],[9.54152,46.12072],[9.54141,46.12086],[9.54143,46.12088],[9.54174,46.12088],[9.54188,46.12094],[9.54234,46.12096],[9.54249,46.12103],[9.543,46.12118],[9.54334,46.12133],[9.54355,46.12127],[9.5437,46.12131],[9.54419,46.12127],[9.54447,46.12115],[9.54465,46.12112],[9.54534,46.1211],[9.5456,46.12107],[9.54568,46.12109],[9.54581,46.12124],[9.5462,46.12135],[9.54669,46.12122],[9.54743,46.12142],[9.54841,46.12149],[9.54867,46.12157],[9.54866,46.12164],[9.54856,46.1217]]},"properties":{}},{"type":"Feature","geometry":{"type":"LineString","coordinates":[[9.54856,46.1217],[9.54853,46.12176],[9.54873,46.12176],[9.54859,46.12188],[9.5488,46.12186],[9.54885,46.12188],[9.5489,46.12199],[9.54858,46.12215],[9.54826,46.12225],[9.54825,46.12242],[9.54795,46.12254],[9.54764,46.12275],[9.54759,46.12287],[9.54763,46.12297],[9.54727,46.12315],[9.54727,46.12318],[9.54709,46.12319],[9.54695,46.12312],[9.54673,46.12319],[9.54646,46.12321],[9.54617,46.12318],[9.54584,46.12319],[9.54573,46.12324],[9.54569,46.12335],[9.54537,46.12338],[9.54536,46.1234],[9.54548,46.12351],[9.54536,46.1236],[9.54536,46.12368],[9.54502,46.12371],[9.54486,46.12367],[9.54483,46.12371]]},"properties":{}},{"type":"Feature","geometry":{"type":"LineString","coordinates":[[9.54483,46.12371],[9.54479,46.12378],[9.544,46.12372],[9.54371,46.1238],[9.54342,46.1238],[9.54275,46.12371],[9.54235,46.12372],[9.54209,46.12377],[9.54176,46.12392],[9.5411,46.12431],[9.53975,46.12461],[9.53914,46.12485],[9.53871,46.12492],[9.53785,46.12484],[9.53741,46.12501],[9.53724,46.12502],[9.53698,46.1251],[9.5368,46.12511],[9.53636,46.12495],[9.53617,46.12483],[9.53597,46.12479],[9.53505,46.12493],[9.53428,46.12514],[9.53381,46.12539],[9.53317,46.12564],[9.5329,46.12571],[9.53236,46.12579],[9.53232,46.12585]]},"properties":{}},{"type":"Feature","geometry":{"type":"LineString","coordinates":[[9.53121,46.12625],[9.5314,46.12625]]},"properties":{}},{"type":"Feature","geometry":{"type":"LineString","coordinates":[[9.5274,46.1272],[9.52803,46.12696],[9.52843,46.1267],[9.52862,46.12663],[9.52871,46.12648],[9.52888,46.12647],[9.52921,46.12655],[9.52967,46.12659],[9.53003,46.12667],[9.53027,46.12652],[9.53096,46.12645],[9.5314,46.12625],[9.53159,46.12626],[9.53192,46.12638],[9.53213,46.12641],[9.53254,46.12633],[9.53295,46.12631],[9.53295,46.12636],[9.53287,46.12644],[9.53255,46.12653],[9.53241,46.12661],[9.5324,46.12665],[9.53255,46.12666],[9.53275,46.12661],[9.5334,46.12664],[9.53369,46.12678],[9.53377,46.12689]]},"properties":{}},{"type":"Feature","geometry":{"type":"LineString","coordinates":[[9.52297,46.12816],[9.52301,46.12807],[9.52299,46.12798],[9.52283,46.12756],[9.52267,46.12734],[9.52265,46.12725],[9.5227,46.12718]]},"properties":{}},{"type":"Feature","geometry":{"type":"LineString","coordinates":[[9.63773,46.13947],[9.63839,46.14009]]},"properties":{}},{"type":"Feature","geometry":{"type":"LineString","coordinates":[[9.63306,46.15428],[9.63339,46.15406],[9.63396,46.15405],[9.63446,46.15416],[9.63595,46.15433],[9.63628,46.15444],[9.63654,46.15464],[9.63767,46.15583],[9.63794,46.15617],[9.63801,46.15622],[9.63816,46.15622],[9.63828,46.15617]]},"properties":{}},{"type":"Feature","geometry":{"type":"LineString","coordinates":[[9.63851,46.15611],[9.63866,46.15612],[9.63875,46.15617],[9.63885,46.15615],[9.63889,46.1561],[9.63889,46.15604],[9.63881,46.15585],[9.63863,46.15561],[9.63867,46.1555],[9.63875,46.15547],[9.63884,46.15544],[9.63894,46.15546],[9.63945,46.15569],[9.63967,46.15575]]},"properties":{}},{"type":"Feature","geometry":{"type":"LineString","coordinates":[[9.63967,46.15575],[9.63994,46.15589]]},"properties":{}},{"type":"Feature","geometry":{"type":"LineString","coordinates":[[9.63828,46.15617],[9.63851,46.15611]]},"properties":{}},{"type":"Feature","geometry":{"type":"LineString","coordinates":[[9.53291,46.12769],[9.53286,46.12783],[9.53277,46.12794],[9.53268,46.12798],[9.5323,46.12802],[9.53229,46.12807],[9.53254,46.12816],[9.53262,46.12822],[9.53251,46.12823],[9.53242,46.12834],[9.53228,46.12836],[9.53199,46.12834],[9.53193,46.12836],[9.53197,46.12842],[9.53217,46.12852],[9.53219,46.12857],[9.53201,46.12865],[9.53165,46.12862],[9.53162,46.12866],[9.53163,46.12881],[9.53169,46.12886],[9.5319,46.12889],[9.5325,46.12877],[9.53276,46.12882],[9.53307,46.12881],[9.53324,46.12879],[9.53341,46.12873],[9.53381,46.1288],[9.53414,46.12882],[9.53418,46.12885],[9.53416,46.12888],[9.53406,46.1289],[9.53338,46.12887],[9.53277,46.1291],[9.53227,46.12918],[9.53213,46.12923],[9.53206,46.12929],[9.53223,46.12931],[9.53273,46.12948],[9.53292,46.12948],[9.5334,46.12938],[9.53357,46.12939],[9.53431,46.12958]]},"properties":{}},{"type":"Feature","geometry":{"type":"LineString","coordinates":[[9.53709,46.12851],[9.53727,46.12854],[9.53734,46.12864],[9.53721,46.12882],[9.53689,46.12903],[9.5369,46.1291],[9.53699,46.12917],[9.53736,46.12908],[9.53811,46.12908],[9.53817,46.12913],[9.53817,46.12921],[9.53767,46.12958],[9.53774,46.12961],[9.53806,46.12956],[9.53798,46.12969],[9.53776,46.12986],[9.53764,46.12991],[9.53748,46.12993],[9.53741,46.13002],[9.53714,46.1301]]},"properties":{}},{"type":"Feature","geometry":{"type":"LineString","coordinates":[[9.5653,46.13091],[9.56539,46.13104],[9.56539,46.13115]]},"properties":{}},{"type":"Feature","geometry":{"type":"LineString","coordinates":[[9.56526,46.13117],[9.56523,46.13135]]},"properties":{}},{"type":"Feature","geometry":{"type":"LineString","coordinates":[[9.56523,46.13135],[9.56512,46.13118]]},"properties":{}},{"type":"Feature","geometry":{"type":"LineString","coordinates":[[9.56637,46.13281],[9.56662,46.13285]]},"properties":{}},{"type":"Feature","geometry":{"type":"LineString","coordinates":[[9.56653,46.13296],[9.56637,46.13281]]},"properties":{}},{"type":"Feature","geometry":{"type":"LineString","coordinates":[[9.56649,46.13313],[9.56655,46.13298]]},"properties":{}},{"type":"Feature","geometry":{"type":"LineString","coordinates":[[9.5667,46.133],[9.56649,46.13313]]},"properties":{}},{"type":"Feature","geometry":{"type":"LineString","coordinates":[[9.56904,46.13351],[9.56898,46.13345],[9.569,46.13339]]},"properties":{}},{"type":"Feature","geometry":{"type":"LineString","coordinates":[[9.55894,46.13361],[9.55996,46.13375],[9.56078,46.13393],[9.56168,46.1342],[9.56311,46.13477],[9.56329,46.13478],[9.56341,46.13483]]},"properties":{}},{"type":"Feature","geometry":{"type":"LineString","coordinates":[[9.58095,46.13471],[9.58091,46.13462]]},"properties":{}},{"type":"Feature","geometry":{"type":"LineString","coordinates":[[9.56341,46.13483],[9.56387,46.13502]]},"properties":{}},{"type":"Feature","geometry":{"type":"LineString","coordinates":[[9.56387,46.13502],[9.56409,46.13517],[9.56435,46.13525]]},"properties":{}},{"type":"Feature","geometry":{"type":"LineString","coordinates":[[9.57453,46.135],[9.57445,46.13507],[9.57409,46.13514],[9.5731,46.13554]]},"properties":{}},{"type":"Feature","geometry":{"type":"LineString","coordinates":[[9.56604,46.13521],[9.56614,46.13538]]},"properties":{}},{"type":"Feature","geometry":{"type":"LineString","coordinates":[[9.56597,46.13538],[9.56604,46.13521]]},"properties":{}},{"type":"Feature","geometry":{"type":"LineString","coordinates":[[9.56603,46.13575],[9.56595,46.13552]]},"properties":{}},{"type":"Feature","geometry":{"type":"LineString","coordinates":[[9.56614,46.13554],[9.56603,46.13575]]},"properties":{}},{"type":"Feature","geometry":{"type":"LineString","coordinates":[[9.5839,46.13665],[9.58372,46.13685]]},"properties":{}},{"type":"Feature","geometry":{"type":"LineString","coordinates":[[9.52988,46.13716],[9.52992,46.13772]]},"properties":{}},{"type":"Feature","geometry":{"type":"LineString","coordinates":[[9.52992,46.13772],[9.52993,46.13787]]},"properties":{}},{"type":"Feature","geometry":{"type":"LineString","coordinates":[[9.54183,46.13751],[9.54136,46.13818],[9.5411,46.1383],[9.54089,46.13833],[9.54014,46.13829],[9.53971,46.13833]]},"properties":{}},{"type":"Feature","geometry":{"type":"LineString","coordinates":[[9.52993,46.13787],[9.52998,46.13797],[9.5302,46.13798],[9.53024,46.13799],[9.53025,46.13803]]},"properties":{}},{"type":"Feature","geometry":{"type":"LineString","coordinates":[[9.58372,46.13685],[9.58357,46.13715],[9.58325,46.13749],[9.58263,46.13799],[9.58216,46.1383],[9.58141,46.13873],[9.58096,46.13894],[9.58044,46.13916],[9.57958,46.13944]]},"properties":{}},{"type":"Feature","geometry":{"type":"LineString","coordinates":[[9.52787,46.13824],[9.52737,46.13823]]},"properties":{}},{"type":"Feature","geometry":{"type":"LineString","coordinates":[[9.53971,46.13833],[9.54018,46.13839],[9.54024,46.13843],[9.54026,46.13849]]},"properties":{}},{"type":"Feature","geometry":{"type":"LineString","coordinates":[[9.54026,46.13849],[9.54029,46.13866]]},"properties":{}},{"type":"Feature","geometry":{"type":"LineString","coordinates":[[9.56753,46.13885],[9.56847,46.13885]]},"properties":{}},{"type":"Feature","geometry":{"type":"LineString","coordinates":[[9.55949,46.13914],[9.55966,46.13889]]},"properties":{}},{"type":"Feature","geometry":{"type":"LineString","coordinates":[[9.55949,46.13914],[9.56019,46.13937]]},"properties":{}},{"type":"Feature","geometry":{"type":"LineString","coordinates":[[9.51517,46.14075],[9.51664,46.14022],[9.52121,46.13886],[9.52239,46.13858],[9.52338,46.13841],[9.52733,46.13829],[9.52972,46.13813],[9.52994,46.13807],[9.53025,46.13803],[9.53451,46.13782],[9.53506,46.13786],[9.5363,46.13809],[9.53971,46.13833]]},"properties":{}},{"type":"Feature","geometry":{"type":"LineString","coordinates":[[9.54029,46.13866],[9.54035,46.13879],[9.54064,46.13887],[9.54334,46.13947],[9.54359,46.13957],[9.54425,46.13973],[9.54554,46.14001]]},"properties":{}},{"type":"Feature","geometry":{"type":"LineString","coordinates":[[9.57958,46.13944],[9.57806,46.13981]]},"properties":{}},{"type":"Feature","geometry":{"type":"LineString","coordinates":[[9.56579,46.13971],[9.56567,46.13966],[9.56566,46.13962],[9.56569,46.13957],[9.56578,46.13954],[9.56589,46.13959],[9.56589,46.13965],[9.56579,46.13971]]},"properties":{}},{"type":"Feature","geometry":{"type":"LineString","coordinates":[[9.56181,46.1397],[9.56282,46.13975],[9.5654,46.13963]]},"properties":{}},{"type":"Feature","geometry":{"type":"LineString","coordinates":[[9.54554,46.14001],[9.54642,46.14024],[9.54813,46.1409]]},"properties":{}},{"type":"Feature","geometry":{"type":"LineString","coordinates":[[9.57789,46.13988],[9.5773,46.14014],[9.5769,46.1404],[9.57579,46.14145]]},"properties":{}},{"type":"Feature","geometry":{"type":"LineString","coordinates":[[9.54813,46.1409],[9.54855,46.14084],[9.54865,46.14085],[9.54862,46.14098],[9.54856,46.14101]]},"properties":{}},{"type":"Feature","geometry":{"type":"LineString","coordinates":[[9.56716,46.14154],[9.56734,46.14137],[9.5673,46.14074]]},"properties":{}},{"type":"Feature","geometry":{"type":"LineString","coordinates":[[9.51517,46.12191],[9.51524,46.12197],[9.51519,46.12202],[9.51484,46.12207],[9.51433,46.12222],[9.51413,46.12222],[9.51355,46.12249],[9.51311,46.12257],[9.51289,46.12266],[9.51222,46.12299],[9.51205,46.12321],[9.51177,46.12339],[9.51132,46.12358],[9.51123,46.12368]]},"properties":{}},{"type":"Feature","geometry":{"type":"LineString","coordinates":[[9.51504,46.12425],[9.51519,46.12432],[9.51533,46.12432],[9.51552,46.12444],[9.51553,46.12452]]},"properties":{}},{"type":"Feature","geometry":{"type":"LineString","coordinates":[[9.51347,46.12474],[9.51297,46.12488],[9.51258,46.12504],[9.51217,46.12527],[9.51096,46.1255],[9.51092,46.12556],[9.51099,46.12562]]},"properties":{}},{"type":"Feature","geometry":{"type":"LineString","coordinates":[[9.50799,46.12483],[9.50798,46.12491],[9.50803,46.12494],[9.50814,46.12492],[9.50819,46.12495],[9.50812,46.12501],[9.50794,46.12509],[9.50778,46.1253],[9.50782,46.12534],[9.50796,46.12535],[9.50783,46.12547],[9.50783,46.12553],[9.50796,46.12567],[9.50813,46.12566],[9.50873,46.1255],[9.50933,46.12542],[9.5095,46.12527]]},"properties":{}},{"type":"Feature","geometry":{"type":"LineString","coordinates":[[9.51489,46.12491],[9.5149,46.12496],[9.51463,46.12522],[9.51469,46.12536],[9.5148,46.12546],[9.51482,46.12558],[9.51479,46.12565],[9.51463,46.12569],[9.51442,46.12584],[9.51397,46.12589],[9.51341,46.1259],[9.51292,46.12597],[9.51278,46.12603],[9.5126,46.12619],[9.51222,46.12631],[9.51206,46.12644],[9.51197,46.12646],[9.51135,46.12635],[9.51072,46.12641]]},"properties":{}},{"type":"Feature","geometry":{"type":"LineString","coordinates":[[9.51325,46.12977],[9.51324,46.1299],[9.51302,46.13004],[9.51116,46.13065],[9.51053,46.13073],[9.51023,46.13072],[9.51005,46.13067],[9.50977,46.1307],[9.50919,46.1309],[9.50906,46.13099],[9.50882,46.13099],[9.50855,46.1311],[9.50833,46.13101],[9.50823,46.131],[9.50793,46.13119],[9.50723,46.13133],[9.50712,46.13139]]},"properties":{}},{"type":"Feature","geometry":{"type":"LineString","coordinates":[[9.5,46.14896],[9.50583,46.14559],[9.50936,46.14362],[9.51191,46.14226],[9.51324,46.14159],[9.51457,46.14097],[9.51517,46.14075]]},"properties":{}},{"type":"Feature","geometry":{"type":"LineString","coordinates":[[9.54856,46.14101],[9.5484,46.1413]]},"properties":{}},{"type":"Feature","geometry":{"type":"LineString","coordinates":[[9.5484,46.1413],[9.54827,46.14149],[9.54838,46.14161],[9.54856,46.14163],[9.5501,46.14257],[9.55099,46.14323],[9.55103,46.14327],[9.55101,46.14334],[9.55089,46.14349]]},"properties":{}},{"type":"Feature","geometry":{"type":"LineString","coordinates":[[9.55089,46.14349],[9.55058,46.14382]]},"properties":{}},{"type":"Feature","geometry":{"type":"LineString","coordinates":[[9.55051,46.14392],[9.5502,46.14367],[9.54985,46.1435]]},"properties":{}},{"type":"Feature","geometry":{"type":"LineString","coordinates":[[9.57765,46.14561],[9.57795,46.14553],[9.57858,46.14548],[9.57896,46.14539],[9.57907,46.14533],[9.57952,46.14479],[9.57976,46.14463],[9.58299,46.14323],[9.58328,46.14317],[9.58452,46.14315],[9.58547,46.1429],[9.58751,46.14248],[9.58861,46.14249],[9.59006,46.14285],[9.59112,46.14287],[9.59313,46.14315],[9.59689,46.14387],[9.59698,46.14391],[9.59708,46.14404],[9.59705,46.14428]]},"properties":{}},{"type":"Feature","geometry":{"type":"LineString","coordinates":[[9.55058,46.14382],[9.55051,46.14392],[9.55076,46.14413],[9.55092,46.14419],[9.55149,46.14425],[9.55192,46.1444],[9.55339,46.14474],[9.55567,46.14485],[9.55789,46.14507]]},"properties":{}},{"type":"Feature","geometry":{"type":"LineString","coordinates":[[9.56433,46.14571],[9.55977,46.14529],[9.55789,46.14507]]},"properties":{}},{"type":"Feature","geometry":{"type":"LineString","coordinates":[[9.56433,46.14571],[9.57077,46.14608],[9.57171,46.14629]]},"properties":{}},{"type":"Feature","geometry":{"type":"LineString","coordinates":[[9.5719,46.14575],[9.57171,46.14629]]},"properties":{}},{"type":"Feature","geometry":{"type":"LineString","coordinates":[[9.57572,46.14679],[9.5765,46.14598],[9.57736,46.146],[9.5774,46.14597],[9.57748,46.14572],[9.57765,46.14561]]},"properties":{}},{"type":"Feature","geometry":{"type":"LineString","coordinates":[[9.57171,46.14629],[9.57171,46.14634]]},"properties":{}},{"type":"Feature","geometry":{"type":"LineString","coordinates":[[9.57171,46.14629],[9.57255,46.14637],[9.57362,46.1464],[9.57431,46.14648],[9.57497,46.14671],[9.57531,46.14679],[9.57572,46.14679]]},"properties":{}},{"type":"Feature","geometry":{"type":"LineString","coordinates":[[9.57574,46.1469],[9.57572,46.14679]]},"properties":{}},{"type":"Feature","geometry":{"type":"LineString","coordinates":[[9.5971,46.14428],[9.59724,46.1443]]},"properties":{}},{"type":"Feature","geometry":{"type":"LineString","coordinates":[[9.59724,46.1443],[9.59729,46.14431]]},"properties":{}},{"type":"Feature","geometry":{"type":"LineString","coordinates":[[9.59729,46.14431],[9.59741,46.14407],[9.59751,46.14401],[9.6017,46.14456],[9.60314,46.14457],[9.60422,46.14438],[9.60625,46.14433],[9.60714,46.14426],[9.60796,46.1441],[9.60942,46.14364],[9.6101,46.14352],[9.61043,46.14352],[9.61076,46.14349],[9.61171,46.14362],[9.61311,46.14398],[9.61537,46.14471],[9.61787,46.14542],[9.61796,46.14548],[9.61798,46.14554],[9.61797,46.14561],[9.61789,46.14568],[9.61707,46.14567],[9.61701,46.14574]]},"properties":{}},{"type":"Feature","geometry":{"type":"LineString","coordinates":[[9.62016,46.15863],[9.62048,46.15856],[9.62138,46.15852],[9.62184,46.15859],[9.62206,46.15869],[9.62229,46.15871],[9.62337,46.15902],[9.62396,46.15907],[9.62472,46.15891],[9.62515,46.15894],[9.62543,46.15902],[9.62553,46.15913],[9.62585,46.1592],[9.62661,46.15911],[9.62689,46.15922],[9.6277,46.15925],[9.62824,46.15939],[9.62845,46.1595],[9.62864,46.15953],[9.62953,46.1594],[9.63002,46.15939]]},"properties":{}},{"type":"Feature","geometry":{"type":"LineString","coordinates":[[9.61568,46.15835],[9.61579,46.15845],[9.61598,46.15853],[9.6163,46.15856],[9.61801,46.15843],[9.619,46.15855],[9.61919,46.15853],[9.62013,46.15857],[9.62018,46.15861],[9.6201,46.15868],[9.61985,46.15879],[9.61877,46.15899],[9.61863,46.15906],[9.61862,46.15913],[9.61934,46.15949],[9.6197,46.15956],[9.62032,46.15976],[9.62048,46.15976],[9.62084,46.15984],[9.62112,46.15995],[9.62122,46.16004],[9.62129,46.16006],[9.62168,46.15999],[9.62211,46.15996],[9.6224,46.16004],[9.6227,46.16001],[9.62272,46.16013],[9.62281,46.16018],[9.6229,46.16032],[9.62303,46.16037],[9.62307,46.16045],[9.6234,46.1604],[9.62362,46.16049],[9.62401,46.16044],[9.62408,46.16044],[9.62414,46.16047],[9.62443,46.16045],[9.62466,46.16062],[9.62483,46.16066],[9.62498,46.16064]]},"properties":{}},{"type":"Feature","geometry":{"type":"LineString","coordinates":[[9.62538,46.16056],[9.62586,46.1605],[9.62627,46.16029]]},"properties":{}},{"type":"Feature","geometry":{"type":"LineString","coordinates":[[9.62498,46.16064],[9.62516,46.16058],[9.62538,46.16056]]},"properties":{}},{"type":"Feature","geometry":{"type":"LineString","coordinates":[[9.60106,46.16962],[9.59997,46.1696]]},"properties":{}},{"type":"Feature","geometry":{"type":"LineString","coordinates":[[9.59997,46.1696],[9.60002,46.16966],[9.60043,46.16971],[9.60077,46.16982],[9.60256,46.17053],[9.60296,46.17071],[9.60374,46.17117],[9.60374,46.17124],[9.60366,46.17123],[9.60308,46.17101],[9.60289,46.17097],[9.60271,46.17097],[9.60188,46.17112],[9.60034,46.17107],[9.60032,46.1711],[9.60035,46.17113],[9.60094,46.17142],[9.60142,46.17177],[9.6018,46.17179],[9.60236,46.17206],[9.60265,46.17224],[9.60287,46.17248]]},"properties":{}},{"type":"Feature","geometry":{"type":"LineString","coordinates":[[9.63493,46.22982],[9.63485,46.22998],[9.63478,46.23024],[9.63459,46.23051],[9.63448,46.23084],[9.63425,46.23124],[9.63419,46.23149],[9.63417,46.23186],[9.63398,46.23236]]},"properties":{}},{"type":"Feature","geometry":{"type":"LineString","coordinates":[[9.63994,46.15589],[9.6402,46.15631],[9.6405,46.15663],[9.64121,46.15701]]},"properties":{}},{"type":"Feature","geometry":{"type":"LineString","coordinates":[[9.64121,46.15701],[9.6416,46.15717],[9.64201,46.15729],[9.64263,46.15742],[9.64412,46.15752],[9.64517,46.15748],[9.64599,46.15758],[9.65032,46.1587],[9.65072,46.15887]]},"properties":{}},{"type":"Feature","geometry":{"type":"LineString","coordinates":[[9.6403,46.159],[9.64075,46.15897],[9.64113,46.15899]]},"properties":{}},{"type":"Feature","geometry":{"type":"LineString","coordinates":[[9.63921,46.15912],[9.6403,46.159]]},"properties":{}},{"type":"Feature","geometry":{"type":"LineString","coordinates":[[9.64033,46.15909],[9.63926,46.1592]]},"properties":{}},{"type":"Feature","geometry":{"type":"LineString","coordinates":[[9.64262,46.15941],[9.64221,46.15935],[9.64181,46.15925],[9.64164,46.15925],[9.64148,46.1593]]},"properties":{}},{"type":"Feature","geometry":{"type":"LineString","coordinates":[[9.65072,46.15887],[9.65141,46.15905],[9.65181,46.15924],[9.65241,46.1596],[9.65369,46.16087],[9.65421,46.16162],[9.65428,46.16182],[9.65431,46.16207],[9.65427,46.16231],[9.6542,46.16242],[9.65403,46.16258]]},"properties":{}},{"type":"Feature","geometry":{"type":"LineString","coordinates":[[9.65401,46.1884],[9.65398,46.18837],[9.6541,46.18818],[9.65408,46.18815],[9.65379,46.18816],[9.65375,46.1881],[9.6538,46.18804],[9.6536,46.18792],[9.65312,46.18784],[9.65308,46.18785],[9.65303,46.18783],[9.65307,46.18778],[9.65306,46.18761]]},"properties":{}},{"type":"Feature","geometry":{"type":"LineString","coordinates":[[9.66641,46.19539],[9.66613,46.19571],[9.66574,46.1959],[9.66541,46.19594],[9.6654,46.19588],[9.66571,46.19571],[9.66589,46.19554],[9.66597,46.19516],[9.66598,46.19475],[9.66583,46.19436],[9.66591,46.19412],[9.66603,46.19395],[9.66609,46.19374],[9.66606,46.19362],[9.66484,46.19386],[9.66468,46.19383],[9.66458,46.19374],[9.66462,46.19362],[9.66479,46.19353],[9.66517,46.19298],[9.66528,46.19273],[9.66536,46.19241],[9.66546,46.19228],[9.66585,46.19216],[9.66588,46.1921],[9.66573,46.19176],[9.66559,46.19124],[9.66552,46.19109],[9.66522,46.19076],[9.66515,46.19051],[9.66499,46.19031],[9.66473,46.19007],[9.66449,46.18979],[9.66448,46.18949],[9.66438,46.18899],[9.66455,46.18858],[9.66479,46.18825],[9.66491,46.18811],[9.66513,46.18794],[9.66555,46.18771],[9.6659,46.18764],[9.66617,46.18755],[9.66642,46.18742],[9.66643,46.18732],[9.66592,46.18723],[9.66604,46.18712],[9.6663,46.18701]]},"properties":{}},{"type":"Feature","geometry":{"type":"LineString","coordinates":[[9.63657,46.2219],[9.63685,46.22178],[9.63705,46.22175],[9.63729,46.22162],[9.63827,46.22092],[9.63869,46.22068],[9.63999,46.22013],[9.64011,46.22],[9.64014,46.21989],[9.6401,46.21967],[9.64011,46.21956],[9.64008,46.21943],[9.63989,46.21925]]},"properties":{}},{"type":"Feature","geometry":{"type":"LineString","coordinates":[[9.63593,46.22208],[9.63564,46.22258],[9.63557,46.22307],[9.63559,46.22343]]},"properties":{}},{"type":"Feature","geometry":{"type":"LineString","coordinates":[[9.63737,46.22408],[9.63743,46.22392],[9.63749,46.22346],[9.6378,46.2228],[9.63791,46.22246],[9.63804,46.22233],[9.63829,46.22219]]},"properties":{}},{"type":"Feature","geometry":{"type":"LineString","coordinates":[[9.63559,46.22343],[9.6356,46.22349]]},"properties":{}},{"type":"Feature","geometry":{"type":"LineString","coordinates":[[9.63724,46.22559],[9.63726,46.22536],[9.63744,46.22517],[9.63746,46.22506],[9.63744,46.22482],[9.63726,46.22467],[9.63723,46.2246],[9.63727,46.22431],[9.63737,46.22408]]},"properties":{}},{"type":"Feature","geometry":{"type":"LineString","coordinates":[[9.63721,46.22565],[9.6372,46.22561],[9.63724,46.22556]]},"properties":{}},{"type":"Feature","geometry":{"type":"LineString","coordinates":[[9.63722,46.22563],[9.63724,46.22559]]},"properties":{}},{"type":"Feature","geometry":{"type":"LineString","coordinates":[[9.63729,46.22608],[9.63723,46.2259],[9.63722,46.22563]]},"properties":{}},{"type":"Feature","geometry":{"type":"LineString","coordinates":[[9.63729,46.22608],[9.63728,46.22618]]},"properties":{}},{"type":"Feature","geometry":{"type":"LineString","coordinates":[[9.6356,46.22349],[9.63564,46.22376],[9.63639,46.22615],[9.6364,46.22626],[9.63637,46.22638],[9.63629,46.22649],[9.63577,46.22677],[9.63543,46.22719],[9.63532,46.22745],[9.63518,46.22763],[9.63499,46.22824],[9.63456,46.22892],[9.63444,46.22918],[9.63441,46.22941],[9.63448,46.22955],[9.63453,46.22977]]},"properties":{}},{"type":"Feature","geometry":{"type":"LineString","coordinates":[[9.63728,46.22618],[9.63691,46.22664],[9.63674,46.22702],[9.6364,46.22742],[9.63642,46.2276],[9.6364,46.22768],[9.63628,46.22787],[9.63618,46.22793]]},"properties":{}},{"type":"Feature","geometry":{"type":"LineString","coordinates":[[9.63614,46.22794],[9.63619,46.22793]]},"properties":{}},{"type":"Feature","geometry":{"type":"LineString","coordinates":[[9.63618,46.22793],[9.63616,46.22793]]},"properties":{}},{"type":"Feature","geometry":{"type":"LineString","coordinates":[[9.63616,46.22793],[9.63587,46.22805],[9.63522,46.22894],[9.63515,46.22905],[9.63502,46.22961],[9.63493,46.22982]]},"properties":{}},{"type":"Feature","geometry":{"type":"LineString","coordinates":[[9.63398,46.23236],[9.63397,46.23239]]},"properties":{}},{"type":"Feature","geometry":{"type":"LineString","coordinates":[[9.63397,46.23239],[9.63387,46.23267],[9.63376,46.23319],[9.63345,46.23374],[9.63345,46.23439],[9.63289,46.23495],[9.63275,46.23526],[9.63258,46.23551],[9.63254,46.23564],[9.63256,46.23579],[9.63261,46.23589],[9.6331,46.23636],[9.63318,46.2365],[9.63316,46.23684],[9.63293,46.23709]]},"properties":{}},{"type":"Feature","geometry":{"type":"LineString","coordinates":[[9.63293,46.23709],[9.6324,46.23852]]},"properties":{}}]}