{"type":"FeatureCollection","features":[{"type":"Feature","geometry":{"type":"LineString","coordinates":[[9.60402,40.0],[9.60411,40.00084],[9.60412,40.00153],[9.60415,40.00169],[9.6047,40.00283],[9.60541,40.00407],[9.60543,40.00416],[9.60534,40.00422]]},"properties":{}},{"type":"Feature","geometry":{"type":"LineString","coordinates":[[9.60534,40.00422],[9.60411,40.00414],[9.6034,40.00413],[9.60326,40.00416],[9.60319,40.00428],[9.60269,40.00689],[9.60268,40.00711],[9.60273,40.0073]]},"properties":{}},{"type":"Feature","geometry":{"type":"LineString","coordinates":[[9.60273,40.0073],[9.60294,40.00818]]},"properties":{}},{"type":"Feature","geometry":{"type":"LineString","coordinates":[[9.60294,40.00818],[9.60303,40.00887],[9.60302,40.00918],[9.60297,40.00946],[9.60257,40.01105],[9.6026,40.0113],[9.60296,40.01183],[9.60512,40.01399],[9.60532,40.01402],[9.60764,40.01386]]},"properties":{}},{"type":"Feature","geometry":{"type":"LineString","coordinates":[[9.60764,40.01386],[9.60819,40.01389],[9.60865,40.01401],[9.60891,40.01415],[9.61152,40.01588],[9.61195,40.01607],[9.61417,40.01685],[9.61491,40.01703]]},"properties":{}},{"type":"Feature","geometry":{"type":"LineString","coordinates":[[9.61491,40.01703],[9.61521,40.0171]]},"properties":{}},{"type":"Feature","geometry":{"type":"LineString","coordinates":[[9.61521,40.0171],[9.61539,40.01713],[9.61733,40.01707],[9.62176,40.01691],[9.62205,40.01698],[9.62273,40.01717],[9.62283,40.01726],[9.62286,40.01748],[9.62296,40.01767],[9.62308,40.01781],[9.62327,40.01794],[9.62394,40.01823],[9.62429,40.01847],[9.62552,40.01949],[9.62601,40.01952],[9.62619,40.01957],[9.62679,40.01985],[9.62703,40.01986],[9.62753,40.01973],[9.62761,40.01974],[9.62788,40.01991],[9.62802,40.01994],[9.62936,40.02001],[9.62946,40.02006],[9.62948,40.02017],[9.62935,40.02054],[9.62943,40.02062],[9.62961,40.02067],[9.63277,40.02115],[9.63301,40.02116],[9.63344,40.02108],[9.634,40.02112],[9.63415,40.02119],[9.63429,40.0214],[9.63452,40.02149],[9.63566,40.02146],[9.63576,40.02144],[9.63584,40.02139],[9.63607,40.02086],[9.63618,40.02072],[9.63633,40.02054],[9.63686,40.02008],[9.63712,40.01991],[9.63785,40.01961]]},"properties":{}},{"type":"Feature","geometry":{"type":"LineString","coordinates":[[9.50089,40.0],[9.50059,40.00042],[9.50031,40.00064],[9.5,40.00096]]},"properties":{}},{"type":"Feature","geometry":{"type":"LineString","coordinates":[[9.63815,40.00731],[9.63928,40.00647],[9.63951,40.00625],[9.63967,40.006],[9.63986,40.00546],[9.63997,40.00501],[9.6403,40.00419],[9.64053,40.0033],[9.64062,40.00311],[9.64076,40.00295],[9.64358,40.00053],[9.64369,40.0004],[9.64373,40.00031],[9.64371,40.00018],[9.6436,40.0]]},"properties":{}},{"type":"Feature","geometry":{"type":"LineString","coordinates":[[9.63778,40.00758],[9.63815,40.00731]]},"properties":{}},{"type":"Feature","geometry":{"type":"LineString","coordinates":[[9.63646,40.00858],[9.63778,40.00758]]},"properties":{}},{"type":"Feature","geometry":{"type":"LineString","coordinates":[[9.6355,40.01083],[9.63544,40.01004],[9.63549,40.00942],[9.63554,40.0093],[9.63574,40.00908],[9.63646,40.00858]]},"properties":{}},{"type":"Feature","geometry":{"type":"LineString","coordinates":[[9.63549,40.01162],[9.6355,40.01083]]},"properties":{}},{"type":"Feature","geometry":{"type":"LineString","coordinates":[[9.63533,40.01256],[9.63548,40.01189],[9.63549,40.01162]]},"properties":{}},{"type":"Feature","geometry":{"type":"LineString","coordinates":[[9.63755,40.02721],[9.63743,40.0267],[9.63747,40.02557],[9.63752,40.02541],[9.63819,40.02465],[9.63834,40.02444],[9.63842,40.02423],[9.63864,40.02326],[9.63912,40.02194],[9.63917,40.02175],[9.63914,40.02148],[9.63873,40.02071],[9.63824,40.01961],[9.63769,40.01929],[9.63528,40.01733],[9.63512,40.01714],[9.635,40.01692],[9.63429,40.01455],[9.63437,40.01438],[9.6348,40.01393],[9.63497,40.01366],[9.63505,40.01337],[9.63511,40.01294],[9.63533,40.01256]]},"properties":{}},{"type":"Feature","geometry":{"type":"LineString","coordinates":[[9.63815,40.02501],[9.63822,40.02489],[9.63834,40.02444]]},"properties":{}},{"type":"Feature","geometry":{"type":"LineString","coordinates":[[9.55175,40.0093],[9.55282,40.00937],[9.5551,40.00858],[9.55659,40.00839],[9.55737,40.00805],[9.55764,40.00798],[9.5596,40.0078],[9.56081,40.00786],[9.56465,40.00717],[9.56481,40.00711],[9.56574,40.00662],[9.56763,40.00591],[9.56791,40.00576],[9.56897,40.00484],[9.57382,40.00205],[9.57736,40.00054],[9.57933,40.0]]},"properties":{}},{"type":"Feature","geometry":{"type":"LineString","coordinates":[[9.54489,40.01386],[9.54543,40.01302],[9.54581,40.01235],[9.5462,40.01184],[9.54628,40.01138],[9.54636,40.0112],[9.54709,40.01048],[9.54735,40.01027],[9.54874,40.00959],[9.55023,40.00906],[9.55036,40.00899],[9.55044,40.00889],[9.5506,40.00858],[9.55072,40.00849],[9.55093,40.00847],[9.55107,40.00851],[9.55117,40.00862],[9.55153,40.00922],[9.55175,40.0093]]},"properties":{}},{"type":"Feature","geometry":{"type":"LineString","coordinates":[[9.53668,40.01161],[9.53698,40.01162]]},"properties":{}},{"type":"Feature","geometry":{"type":"LineString","coordinates":[[9.53698,40.01162],[9.53714,40.01172],[9.53745,40.01249],[9.53754,40.01262],[9.53777,40.01278],[9.53836,40.01303],[9.5386,40.01324],[9.5389,40.01457],[9.53896,40.0147]]},"properties":{}},{"type":"Feature","geometry":{"type":"LineString","coordinates":[[9.53907,40.01489],[9.53918,40.01505],[9.53929,40.01514],[9.53945,40.01517],[9.53996,40.01511],[9.54043,40.0149],[9.54102,40.01476],[9.54112,40.01477],[9.5416,40.01498],[9.542,40.0151],[9.54236,40.01515],[9.54281,40.01514],[9.54298,40.01509],[9.54322,40.01496],[9.54378,40.0146],[9.54394,40.01455],[9.54448,40.01455],[9.54463,40.0145],[9.54471,40.01439],[9.54477,40.01404],[9.54489,40.01386]]},"properties":{}},{"type":"Feature","geometry":{"type":"LineString","coordinates":[[9.53896,40.0147],[9.53907,40.01489]]},"properties":{}},{"type":"Feature","geometry":{"type":"LineString","coordinates":[[9.5306,40.0203],[9.53063,40.02022],[9.53074,40.02015],[9.53353,40.02002],[9.53434,40.01974],[9.53527,40.01915],[9.5354,40.01904],[9.53542,40.0188],[9.53533,40.01862],[9.53535,40.01847],[9.53578,40.01831],[9.5359,40.01821],[9.53595,40.01807],[9.53599,40.01772],[9.53605,40.01757],[9.53642,40.01705],[9.53654,40.01694],[9.53704,40.0166],[9.53716,40.0164],[9.53718,40.01631],[9.53709,40.016],[9.53662,40.01549],[9.53636,40.01501],[9.5365,40.01451],[9.53648,40.01429],[9.53642,40.01421],[9.53626,40.01412],[9.5361,40.01411],[9.53568,40.01427],[9.53559,40.01428],[9.5355,40.01427],[9.53538,40.01416],[9.53548,40.01395],[9.53566,40.01369],[9.53597,40.01338],[9.53643,40.01311],[9.53649,40.01299],[9.53643,40.01274],[9.53615,40.01244],[9.53614,40.01236],[9.53628,40.01189],[9.53638,40.01172],[9.53652,40.01163],[9.53668,40.01161]]},"properties":{}},{"type":"Feature","geometry":{"type":"LineString","coordinates":[[9.5306,40.02061],[9.5306,40.0203]]},"properties":{}},{"type":"Feature","geometry":{"type":"LineString","coordinates":[[9.53314,40.0215],[9.53162,40.02093],[9.5307,40.02073],[9.53062,40.02067],[9.5306,40.02061]]},"properties":{}},{"type":"Feature","geometry":{"type":"LineString","coordinates":[[9.63815,40.02512],[9.63815,40.02501]]},"properties":{}},{"type":"Feature","geometry":{"type":"LineString","coordinates":[[9.63869,40.02911],[9.6386,40.02785],[9.6385,40.02717],[9.63836,40.02644],[9.63804,40.0257],[9.63804,40.02551],[9.63817,40.02517],[9.63815,40.02512]]},"properties":{}},{"type":"Feature","geometry":{"type":"LineString","coordinates":[[9.63794,40.02874],[9.63755,40.02721]]},"properties":{}},{"type":"Feature","geometry":{"type":"LineString","coordinates":[[9.63822,40.0292],[9.63807,40.0291],[9.63799,40.02896],[9.63794,40.02874]]},"properties":{}},{"type":"Feature","geometry":{"type":"LineString","coordinates":[[9.63869,40.02916],[9.63869,40.02911]]},"properties":{}},{"type":"Feature","geometry":{"type":"LineString","coordinates":[[9.63842,40.0293],[9.63822,40.0292]]},"properties":{}},{"type":"Feature","geometry":{"type":"LineString","coordinates":[[9.63859,40.02939],[9.63869,40.02925],[9.63869,40.02916]]},"properties":{}},{"type":"Feature","geometry":{"type":"LineString","coordinates":[[9.6393,40.03102],[9.63938,40.0315],[9.63961,40.03173]]},"properties":{}},{"type":"Feature","geometry":{"type":"LineString","coordinates":[[9.64065,40.03401],[9.64072,40.03355],[9.64049,40.03242],[9.64038,40.03221],[9.64016,40.0319],[9.63971,40.03149],[9.6393,40.03102],[9.63893,40.02967],[9.63866,40.02942],[9.63842,40.0293]]},"properties":{}},{"type":"Feature","geometry":{"type":"LineString","coordinates":[[9.66225,40.03261],[9.66238,40.03227],[9.66242,40.03202],[9.6624,40.03193],[9.66229,40.03186],[9.66218,40.03186],[9.66205,40.03195],[9.66178,40.03231],[9.6616,40.03245]]},"properties":{}},{"type":"Feature","geometry":{"type":"LineString","coordinates":[[9.5001,40.04407],[9.50031,40.04415],[9.50052,40.04418],[9.50138,40.04371],[9.50175,40.04356],[9.50255,40.04288],[9.50259,40.04278],[9.50266,40.04236],[9.50272,40.04226],[9.50308,40.04194],[9.50323,40.04174],[9.50338,40.0412],[9.5035,40.04106],[9.50392,40.04087],[9.50431,40.04074],[9.50446,40.04066],[9.50493,40.04052],[9.50514,40.04034],[9.5055,40.04017],[9.50557,40.04008],[9.5056,40.03997],[9.50561,40.03981],[9.50567,40.03969],[9.50589,40.03952],[9.50608,40.0393],[9.50612,40.03891],[9.50625,40.03848],[9.50619,40.03807],[9.50623,40.03795],[9.50635,40.03777],[9.50693,40.03555],[9.50697,40.03523],[9.50689,40.0349],[9.50691,40.03468],[9.50709,40.03441],[9.50768,40.03424],[9.50805,40.03381],[9.50812,40.03358],[9.50804,40.03295],[9.50809,40.03279],[9.50817,40.03274],[9.50829,40.03272],[9.509,40.0327],[9.50982,40.03258],[9.51028,40.03243],[9.5105,40.03225],[9.51079,40.03188],[9.51166,40.03112],[9.51171,40.03104],[9.51213,40.02987],[9.51217,40.02966],[9.51219,40.02912],[9.51216,40.02901],[9.51176,40.02871],[9.51165,40.02858],[9.51154,40.02836],[9.51154,40.02825],[9.51156,40.02813],[9.51185,40.02753],[9.5119,40.02707],[9.512,40.02659],[9.51206,40.02649],[9.51214,40.02643],[9.51292,40.02612],[9.5131,40.02608],[9.51331,40.02607],[9.51348,40.02609],[9.5136,40.02615],[9.51372,40.02631],[9.51416,40.02731],[9.51445,40.02754],[9.51462,40.02774],[9.51469,40.02777],[9.51477,40.02777],[9.51486,40.02774],[9.51538,40.0274],[9.51607,40.02706],[9.51735,40.02675],[9.51823,40.02645],[9.51852,40.02627],[9.51899,40.02577],[9.51941,40.02547],[9.51958,40.02539],[9.51988,40.02537],[9.52003,40.02541],[9.52017,40.02549],[9.52022,40.02556],[9.52024,40.02566],[9.52002,40.02619],[9.51966,40.02664],[9.51967,40.02671],[9.51972,40.02677],[9.51986,40.02681],[9.51993,40.02679],[9.52079,40.02614],[9.52089,40.02601],[9.52119,40.02547],[9.52116,40.02533],[9.52096,40.02497],[9.52095,40.02485],[9.52098,40.02477],[9.52112,40.02467],[9.52142,40.02464],[9.52157,40.02457],[9.52182,40.02431],[9.52247,40.02387],[9.52257,40.02384],[9.52278,40.02392],[9.5229,40.0242],[9.52303,40.02429],[9.52313,40.0243],[9.52333,40.02427],[9.52364,40.02415],[9.52401,40.02389],[9.52427,40.02335],[9.52453,40.02313],[9.52475,40.02309],[9.52506,40.02323],[9.52514,40.02324],[9.52547,40.0232],[9.52585,40.02326],[9.52651,40.02325],[9.52661,40.02323],[9.52693,40.02288],[9.52735,40.02257],[9.52785,40.02228],[9.52796,40.02228],[9.52807,40.02233],[9.52811,40.02239],[9.52812,40.02252],[9.52806,40.02262],[9.52802,40.02294],[9.52814,40.02342],[9.52825,40.02351],[9.52844,40.02352],[9.52892,40.02332],[9.52905,40.02332],[9.52915,40.02336],[9.52922,40.02343],[9.52928,40.02379],[9.52956,40.02417],[9.52954,40.02436],[9.52933,40.0247],[9.52934,40.02479],[9.52939,40.02485],[9.52958,40.02488],[9.52967,40.02484],[9.52972,40.02478],[9.52991,40.02422],[9.52993,40.02413],[9.5299,40.02373],[9.52994,40.02363],[9.53077,40.02319],[9.53085,40.02308],[9.53083,40.02298],[9.53057,40.0227],[9.53038,40.02262],[9.52997,40.02258],[9.52991,40.02249],[9.52994,40.0224],[9.53035,40.02219],[9.53098,40.02218],[9.53118,40.02211],[9.53156,40.02176],[9.53175,40.02143],[9.53197,40.02135],[9.53233,40.02138],[9.53256,40.02143],[9.53268,40.02149],[9.53291,40.02171],[9.53303,40.02174],[9.53308,40.02172]]},"properties":{}},{"type":"Feature","geometry":{"type":"LineString","coordinates":[[9.63856,40.03288],[9.63827,40.03233],[9.63826,40.03201],[9.63841,40.03171],[9.63856,40.0316],[9.63867,40.03161],[9.63915,40.03192],[9.63935,40.03199]]},"properties":{}},{"type":"Feature","geometry":{"type":"LineString","coordinates":[[9.63961,40.03173],[9.64007,40.03206],[9.64025,40.03223],[9.64035,40.03238],[9.64057,40.03315],[9.64064,40.03315]]},"properties":{}},{"type":"Feature","geometry":{"type":"LineString","coordinates":[[9.6616,40.03245],[9.66099,40.03244]]},"properties":{}},{"type":"Feature","geometry":{"type":"LineString","coordinates":[[9.64025,40.03223],[9.63856,40.03288]]},"properties":{}},{"type":"Feature","geometry":{"type":"LineString","coordinates":[[9.63961,40.03173],[9.63922,40.03214],[9.63915,40.03226],[9.63915,40.03236],[9.63934,40.03259],[9.64,40.03359],[9.64016,40.03376],[9.64042,40.03389],[9.64047,40.03397],[9.6406,40.03404]]},"properties":{}},{"type":"Feature","geometry":{"type":"LineString","coordinates":[[9.66099,40.03244],[9.66054,40.03288],[9.66016,40.03359],[9.65977,40.03385],[9.65946,40.03428],[9.65934,40.03436],[9.65908,40.03447],[9.65826,40.03456],[9.65818,40.03461],[9.65793,40.0349],[9.65748,40.03527],[9.65689,40.03607],[9.65679,40.03635],[9.65657,40.03724]]},"properties":{}},{"type":"Feature","geometry":{"type":"LineString","coordinates":[[9.64237,40.03501],[9.64214,40.03499],[9.64164,40.03475],[9.64145,40.0347],[9.64106,40.03467],[9.64082,40.03473]]},"properties":{}},{"type":"Feature","geometry":{"type":"LineString","coordinates":[[9.64104,40.03542],[9.64123,40.03531],[9.64127,40.03526],[9.64126,40.03521],[9.64082,40.03473],[9.64066,40.03451]]},"properties":{}},{"type":"Feature","geometry":{"type":"LineString","coordinates":[[9.63855,40.0355],[9.63856,40.03535],[9.63902,40.03467]]},"properties":{}},{"type":"Feature","geometry":{"type":"LineString","coordinates":[[9.64126,40.03689],[9.64112,40.0365],[9.64102,40.0353],[9.64095,40.03511],[9.64075,40.03487],[9.6407,40.03477],[9.64065,40.03401]]},"properties":{}},{"type":"Feature","geometry":{"type":"LineString","coordinates":[[9.64631,40.04026],[9.64547,40.04005],[9.64525,40.04007],[9.64506,40.04014],[9.64468,40.04059],[9.64449,40.04069],[9.64431,40.04071],[9.64399,40.04059],[9.64326,40.04016],[9.64304,40.03998]]},"properties":{}},{"type":"Feature","geometry":{"type":"LineString","coordinates":[[9.65051,40.04043],[9.64931,40.04037],[9.64907,40.04039],[9.6489,40.04049],[9.64857,40.04081],[9.64831,40.04087],[9.64714,40.04062],[9.64659,40.04036],[9.64631,40.04026]]},"properties":{}},{"type":"Feature","geometry":{"type":"LineString","coordinates":[[9.65013,40.04163],[9.65041,40.04133]]},"properties":{}},{"type":"Feature","geometry":{"type":"LineString","coordinates":[[9.64753,40.0423],[9.64804,40.04225],[9.64868,40.0424],[9.64939,40.04246],[9.64964,40.04237],[9.64982,40.04211],[9.64997,40.04179],[9.65013,40.04163]]},"properties":{}},{"type":"Feature","geometry":{"type":"LineString","coordinates":[[9.64707,40.04235],[9.64753,40.0423]]},"properties":{}},{"type":"Feature","geometry":{"type":"LineString","coordinates":[[9.65053,40.04296],[9.65017,40.0431],[9.64999,40.04311],[9.64851,40.04273],[9.64833,40.04264],[9.64804,40.04257],[9.64766,40.04258],[9.64721,40.04266],[9.64699,40.04261],[9.64695,40.04246],[9.64707,40.04235]]},"properties":{}},{"type":"Feature","geometry":{"type":"LineString","coordinates":[[9.6383,40.0367],[9.63803,40.0366],[9.63791,40.0365],[9.63738,40.03582],[9.63733,40.03574],[9.63733,40.03566],[9.63748,40.03534],[9.63755,40.03529],[9.63774,40.03524],[9.63808,40.03524],[9.63827,40.03518],[9.6387,40.03474],[9.63887,40.03468],[9.63902,40.03467],[9.6392,40.03482],[9.63921,40.03555],[9.63927,40.03572],[9.63956,40.03602],[9.63985,40.03612],[9.6402,40.03616]]},"properties":{}},{"type":"Feature","geometry":{"type":"LineString","coordinates":[[9.63999,40.03768],[9.64,40.03734],[9.64008,40.03686],[9.6402,40.03642],[9.64014,40.0357],[9.64032,40.03502],[9.64054,40.03471],[9.64058,40.0341],[9.6406,40.03404],[9.64065,40.03401]]},"properties":{}},{"type":"Feature","geometry":{"type":"LineString","coordinates":[[9.64136,40.03693],[9.64153,40.03684],[9.64156,40.03634],[9.6419,40.0362],[9.64172,40.03568],[9.64156,40.03547],[9.64127,40.03526]]},"properties":{}},{"type":"Feature","geometry":{"type":"LineString","coordinates":[[9.6383,40.0367],[9.63856,40.03641],[9.63858,40.03598],[9.63855,40.0355]]},"properties":{}},{"type":"Feature","geometry":{"type":"LineString","coordinates":[[9.64089,40.03739],[9.64101,40.03715],[9.64126,40.03689]]},"properties":{}},{"type":"Feature","geometry":{"type":"LineString","coordinates":[[9.63931,40.03835],[9.63932,40.03831],[9.63903,40.0379],[9.63898,40.03776],[9.63901,40.03754],[9.63926,40.03691],[9.63925,40.03673],[9.63911,40.03663],[9.63879,40.03656],[9.63856,40.03641]]},"properties":{}},{"type":"Feature","geometry":{"type":"LineString","coordinates":[[9.64066,40.03825],[9.64018,40.03849],[9.63997,40.03864],[9.63983,40.03865],[9.63974,40.03864],[9.63938,40.03838],[9.63908,40.03829],[9.63884,40.03807],[9.6387,40.03789],[9.63854,40.03757],[9.63846,40.03749],[9.63835,40.03718],[9.63837,40.0368],[9.6383,40.0367]]},"properties":{}},{"type":"Feature","geometry":{"type":"LineString","coordinates":[[9.64241,40.03803],[9.64204,40.03801],[9.64168,40.0381],[9.64127,40.03806],[9.64107,40.038],[9.64094,40.03772],[9.64092,40.03742],[9.64089,40.03739]]},"properties":{}},{"type":"Feature","geometry":{"type":"LineString","coordinates":[[9.63973,40.03811],[9.63942,40.03795],[9.63916,40.03746],[9.63907,40.03739]]},"properties":{}},{"type":"Feature","geometry":{"type":"LineString","coordinates":[[9.64066,40.03825],[9.64059,40.03783],[9.64069,40.0376],[9.64089,40.03739]]},"properties":{}},{"type":"Feature","geometry":{"type":"LineString","coordinates":[[9.64066,40.03825],[9.64052,40.03817],[9.64038,40.03787],[9.64018,40.03773],[9.63999,40.03768]]},"properties":{}},{"type":"Feature","geometry":{"type":"LineString","coordinates":[[9.64439,40.03831],[9.64412,40.03835],[9.64409,40.03841],[9.64376,40.03857],[9.64361,40.03854],[9.64307,40.03816],[9.64277,40.03812],[9.64256,40.03812],[9.64241,40.03803]]},"properties":{}},{"type":"Feature","geometry":{"type":"LineString","coordinates":[[9.63864,40.03778],[9.63858,40.03786],[9.63853,40.03809],[9.63899,40.03864],[9.63905,40.03931],[9.63907,40.03947],[9.63912,40.03955],[9.63922,40.03959],[9.63934,40.03955],[9.63935,40.03925],[9.63942,40.03914],[9.63952,40.03908],[9.63991,40.03901]]},"properties":{}},{"type":"Feature","geometry":{"type":"LineString","coordinates":[[9.63991,40.03901],[9.64001,40.03894],[9.64005,40.03885],[9.63997,40.03864]]},"properties":{}},{"type":"Feature","geometry":{"type":"LineString","coordinates":[[9.63999,40.03916],[9.63991,40.03901]]},"properties":{}},{"type":"Feature","geometry":{"type":"LineString","coordinates":[[9.64009,40.0392],[9.63999,40.03916]]},"properties":{}},{"type":"Feature","geometry":{"type":"LineString","coordinates":[[9.64057,40.03917],[9.64015,40.03922],[9.64009,40.0392]]},"properties":{}},{"type":"Feature","geometry":{"type":"LineString","coordinates":[[9.64304,40.03998],[9.6429,40.03982],[9.64258,40.03956],[9.64228,40.03939],[9.64204,40.03929],[9.64188,40.03927],[9.64173,40.03929],[9.64158,40.03936],[9.64149,40.03948],[9.64146,40.03962],[9.64163,40.04091],[9.64169,40.04111],[9.64162,40.04122],[9.64148,40.04126],[9.6413,40.04124],[9.64117,40.04116],[9.64099,40.04044],[9.64083,40.0402],[9.64046,40.03987],[9.64035,40.03968],[9.64043,40.03936],[9.6408,40.03885],[9.64081,40.03861],[9.64073,40.03836],[9.64066,40.03825]]},"properties":{}},{"type":"Feature","geometry":{"type":"LineString","coordinates":[[9.65041,40.04133],[9.65069,40.0411],[9.65104,40.04109],[9.65134,40.04096],[9.65142,40.04076],[9.65151,40.04022],[9.65114,40.03933],[9.65107,40.03929],[9.65094,40.03927],[9.65083,40.03934],[9.6508,40.03942],[9.65087,40.03975],[9.65107,40.04005],[9.65106,40.0402],[9.65088,40.04037],[9.65066,40.04045],[9.65051,40.04043]]},"properties":{}},{"type":"Feature","geometry":{"type":"LineString","coordinates":[[9.65657,40.03724],[9.65598,40.03865],[9.65547,40.03921],[9.65513,40.03964],[9.65515,40.03987],[9.65509,40.04004],[9.65456,40.04046],[9.65442,40.04066],[9.65421,40.04111],[9.65382,40.04129],[9.6537,40.04152],[9.65375,40.04213],[9.65309,40.04275],[9.65218,40.04312],[9.65163,40.04314],[9.65143,40.0432],[9.65111,40.04339],[9.65098,40.0434],[9.65086,40.04337],[9.6508,40.04328],[9.65079,40.04316],[9.65086,40.04308],[9.65209,40.04271],[9.65214,40.04262],[9.65214,40.04252],[9.6521,40.04246],[9.65201,40.04241],[9.65184,40.04241],[9.65053,40.04296]]},"properties":{}},{"type":"Feature","geometry":{"type":"LineString","coordinates":[[9.5,40.04403],[9.5001,40.04407]]},"properties":{}},{"type":"Feature","geometry":{"type":"LineString","coordinates":[[9.5,40.04409],[9.50013,40.04415]]},"properties":{}},{"type":"Feature","geometry":{"type":"LineString","coordinates":[[9.50013,40.04415],[9.50037,40.04423],[9.50056,40.04425],[9.50095,40.04413],[9.50141,40.04393],[9.50192,40.04376],[9.50266,40.04331],[9.50304,40.04315],[9.50316,40.04302],[9.50327,40.04253],[9.50393,40.04176],[9.50405,40.04163],[9.50421,40.04156],[9.50442,40.04151],[9.50602,40.04144],[9.5068,40.04166],[9.50737,40.04193],[9.50759,40.04209],[9.50758,40.04229],[9.50726,40.04254],[9.50694,40.04311],[9.5068,40.0433],[9.50665,40.04343],[9.5058,40.04396],[9.5055,40.04411],[9.50477,40.04438],[9.50447,40.04454],[9.50439,40.0447],[9.50433,40.04561],[9.50429,40.04573],[9.50389,40.04629],[9.50365,40.04652],[9.50353,40.04659],[9.5034,40.04663],[9.50259,40.04669],[9.50245,40.0468],[9.50243,40.04688],[9.50245,40.047],[9.50262,40.0473],[9.50264,40.04739],[9.5026,40.04749],[9.50242,40.04775],[9.50238,40.04797],[9.50256,40.04818],[9.50263,40.04835],[9.50286,40.04855],[9.50317,40.04868],[9.50328,40.04887],[9.50332,40.04922],[9.50339,40.04943],[9.50338,40.04956],[9.50321,40.04972],[9.5027,40.0498],[9.50179,40.05007],[9.50148,40.05005],[9.50141,40.05008]]},"properties":{}},{"type":"Feature","geometry":{"type":"LineString","coordinates":[[9.50141,40.05008],[9.50137,40.05021],[9.50142,40.05034]]},"properties":{}},{"type":"Feature","geometry":{"type":"LineString","coordinates":[[9.50142,40.05034],[9.50232,40.05067],[9.50294,40.05078],[9.50346,40.05092],[9.504,40.05103],[9.50408,40.05109],[9.50412,40.05126],[9.50401,40.05153],[9.50381,40.05175],[9.50347,40.05188],[9.50334,40.05197],[9.50327,40.05221],[9.50309,40.05247],[9.50272,40.05266],[9.50227,40.05267],[9.50178,40.05251],[9.50123,40.0525],[9.50077,40.05244],[9.50052,40.05249],[9.50033,40.05262],[9.50024,40.0528],[9.5,40.05276]]},"properties":{}},{"type":"Feature","geometry":{"type":"LineString","coordinates":[[9.5,40.05428],[9.50006,40.05426],[9.50041,40.05433],[9.50111,40.05458],[9.50135,40.05471],[9.50168,40.05574],[9.50179,40.05596],[9.50204,40.05604],[9.50227,40.056],[9.50248,40.05586],[9.50263,40.0557],[9.50284,40.05574],[9.50303,40.05584],[9.50313,40.056],[9.50295,40.05628],[9.50295,40.05636],[9.50301,40.05644],[9.5033,40.05661],[9.50433,40.05671],[9.50466,40.05681],[9.50567,40.05679],[9.50591,40.0569],[9.50596,40.057],[9.50592,40.05724],[9.50558,40.05827],[9.5056,40.05845],[9.50597,40.05863],[9.50608,40.05876],[9.50602,40.05909],[9.5062,40.05922],[9.50686,40.05925],[9.50745,40.05936],[9.50768,40.05932],[9.50777,40.05907],[9.50789,40.05891],[9.50813,40.05869],[9.50856,40.05847],[9.50864,40.05829],[9.50862,40.05804],[9.50887,40.05736],[9.50893,40.05703],[9.50909,40.05682],[9.50922,40.05681],[9.50944,40.05694],[9.50982,40.05804],[9.50996,40.05812],[9.51012,40.05813],[9.51053,40.058],[9.51137,40.05781],[9.51171,40.0575],[9.51268,40.05712],[9.51285,40.05708],[9.51314,40.05715],[9.51328,40.05727],[9.51332,40.05749],[9.51321,40.05772],[9.51296,40.05861],[9.51278,40.05941],[9.51264,40.05977],[9.51212,40.06026],[9.51207,40.06038],[9.51227,40.0612],[9.51225,40.06151],[9.51208,40.06165],[9.51171,40.06178],[9.5115,40.06191],[9.5111,40.06233],[9.511,40.06301],[9.51083,40.06336],[9.51087,40.06344]]},"properties":{}},{"type":"Feature","geometry":{"type":"LineString","coordinates":[[9.53308,40.02172],[9.53318,40.02165],[9.53319,40.0216],[9.53314,40.0215]]},"properties":{}},{"type":"Feature","geometry":{"type":"LineString","coordinates":[[9.53352,40.02174],[9.53318,40.02165]]},"properties":{}},{"type":"Feature","geometry":{"type":"LineString","coordinates":[[9.52927,40.03284],[9.5305,40.02752],[9.53056,40.02737],[9.53072,40.02724],[9.53113,40.02717],[9.53131,40.02711],[9.5319,40.02651],[9.53196,40.02638],[9.53213,40.02514],[9.53225,40.02492],[9.53279,40.02429],[9.53294,40.02404],[9.53321,40.02308],[9.53365,40.02211],[9.53368,40.02195],[9.53363,40.02183],[9.53352,40.02174]]},"properties":{}},{"type":"Feature","geometry":{"type":"LineString","coordinates":[[9.52923,40.03309],[9.52927,40.03284]]},"properties":{}},{"type":"Feature","geometry":{"type":"LineString","coordinates":[[9.5228,40.04418],[9.52283,40.04405],[9.5229,40.04393],[9.52428,40.04242],[9.52453,40.04201],[9.52478,40.04187],[9.52504,40.04181],[9.5252,40.0417],[9.52562,40.04135],[9.52585,40.04108],[9.5263,40.03912],[9.52727,40.03787],[9.52742,40.03772],[9.52831,40.03719],[9.52854,40.03704],[9.52862,40.03695],[9.52866,40.03688],[9.52866,40.0361],[9.52912,40.03511],[9.52913,40.03354],[9.52923,40.03309]]},"properties":{}},{"type":"Feature","geometry":{"type":"LineString","coordinates":[[9.52317,40.04474],[9.52307,40.04468],[9.52286,40.04444],[9.5228,40.04418]]},"properties":{}},{"type":"Feature","geometry":{"type":"LineString","coordinates":[[9.52352,40.04782],[9.52343,40.0476],[9.5237,40.04531],[9.52366,40.04513],[9.52348,40.04491],[9.52317,40.04474]]},"properties":{}},{"type":"Feature","geometry":{"type":"LineString","coordinates":[[9.5239,40.04817],[9.52364,40.04799],[9.52352,40.04782]]},"properties":{}},{"type":"Feature","geometry":{"type":"LineString","coordinates":[[9.51916,40.10339],[9.51966,40.10337],[9.51993,40.1033],[9.52022,40.10317],[9.52049,40.10299],[9.52109,40.10246],[9.52153,40.10221],[9.522,40.10172],[9.52233,40.10154],[9.52267,40.10107],[9.52268,40.10089],[9.52261,40.10072],[9.5226,40.1006],[9.52323,40.09945],[9.52325,40.09934],[9.52319,40.09903],[9.52327,40.09879],[9.52348,40.09844],[9.5236,40.09838],[9.52433,40.09827],[9.52475,40.09811],[9.52487,40.09779],[9.52512,40.09763],[9.52539,40.09758],[9.52568,40.0976],[9.52634,40.09786],[9.52642,40.09792],[9.52643,40.09798],[9.52635,40.09809],[9.52625,40.0981],[9.52592,40.098],[9.52578,40.09801],[9.52561,40.09812],[9.52541,40.09843],[9.52504,40.09879],[9.52459,40.09894],[9.52451,40.09904],[9.52453,40.09913],[9.52468,40.09919],[9.52546,40.09887],[9.52587,40.09883],[9.52602,40.0989],[9.52643,40.09937],[9.52667,40.09965],[9.52691,40.10005],[9.52702,40.10015],[9.52721,40.10018],[9.52746,40.10017],[9.52772,40.10025],[9.52784,40.10025],[9.52808,40.10018],[9.52813,40.10012],[9.52822,40.09954],[9.52834,40.09935],[9.52886,40.09868],[9.52903,40.09832],[9.52906,40.09811],[9.52896,40.09793],[9.52893,40.09783],[9.52897,40.09775],[9.52932,40.0973],[9.5296,40.09718],[9.52991,40.09716]]},"properties":{}},{"type":"Feature","geometry":{"type":"LineString","coordinates":[[9.51907,40.10332],[9.51916,40.10339]]},"properties":{}},{"type":"Feature","geometry":{"type":"LineString","coordinates":[[9.51087,40.06344],[9.51111,40.06358]]},"properties":{}},{"type":"Feature","geometry":{"type":"LineString","coordinates":[[9.50935,40.08538],[9.51005,40.08521],[9.51017,40.08511],[9.51021,40.08503],[9.51023,40.08472],[9.51023,40.08285],[9.51032,40.08273],[9.51045,40.08265],[9.51098,40.08243],[9.51112,40.08236],[9.51122,40.08225],[9.5125,40.08007],[9.51266,40.07974],[9.51284,40.07857],[9.51292,40.07841],[9.51304,40.0783],[9.5142,40.07766],[9.51451,40.07742],[9.51453,40.07712],[9.51444,40.07629],[9.51448,40.07599],[9.51502,40.07527],[9.51511,40.07501],[9.51513,40.07462],[9.51507,40.07433],[9.51522,40.07405],[9.51538,40.07377],[9.51584,40.07348],[9.51597,40.07332],[9.51676,40.07048],[9.51717,40.06977],[9.51731,40.06874],[9.51732,40.06791],[9.51708,40.06714],[9.51698,40.0666],[9.51707,40.066],[9.51776,40.06402],[9.51802,40.06368],[9.51832,40.06341],[9.51898,40.06307],[9.51998,40.06245],[9.52039,40.06175],[9.52054,40.06146],[9.52059,40.06116],[9.5206,40.06088],[9.52017,40.0592],[9.52015,40.05885],[9.52226,40.05445],[9.52258,40.05407],[9.52337,40.05359],[9.52362,40.05327],[9.52461,40.05009],[9.52488,40.04907],[9.52493,40.04878],[9.52484,40.04852],[9.52468,40.04838],[9.5245,40.04829],[9.5239,40.04817]]},"properties":{}},{"type":"Feature","geometry":{"type":"LineString","coordinates":[[9.51111,40.06358],[9.51153,40.06354],[9.51217,40.06365],[9.51248,40.06391],[9.51261,40.0643],[9.51273,40.0645],[9.51309,40.06472],[9.51328,40.06498],[9.51332,40.06516],[9.51306,40.0653],[9.51292,40.06544],[9.51291,40.06569],[9.51273,40.06588],[9.51206,40.06641],[9.51183,40.06677],[9.51186,40.06705],[9.51181,40.06744],[9.51162,40.06785],[9.51171,40.06819],[9.51161,40.06917],[9.51155,40.06942],[9.51133,40.06966],[9.51123,40.06986],[9.51137,40.07005],[9.51164,40.07032],[9.51211,40.07067],[9.51242,40.07087],[9.51281,40.07093],[9.51296,40.07091],[9.51353,40.07066],[9.51366,40.07063],[9.5139,40.07065],[9.51402,40.07078],[9.51401,40.07118],[9.51395,40.07135],[9.51362,40.07156],[9.51352,40.07183],[9.51341,40.07196],[9.51297,40.0722],[9.51286,40.07231],[9.51284,40.07251],[9.51277,40.07265],[9.51261,40.07279],[9.51131,40.07354]]},"properties":{}},{"type":"Feature","geometry":{"type":"LineString","coordinates":[[9.51131,40.07354],[9.51128,40.07363],[9.5113,40.07371],[9.51141,40.07383]]},"properties":{}},{"type":"Feature","geometry":{"type":"LineString","coordinates":[[9.51141,40.07383],[9.51159,40.07387],[9.51193,40.07383],[9.51222,40.07386],[9.51243,40.07384],[9.51313,40.07401],[9.51326,40.07408],[9.51348,40.0744],[9.51362,40.07464],[9.51361,40.07473],[9.51358,40.07482],[9.51319,40.07506],[9.51242,40.07539],[9.5121,40.07549],[9.51165,40.07552],[9.51137,40.07566],[9.51129,40.07586],[9.51131,40.07593],[9.51158,40.07615],[9.51176,40.07641],[9.51179,40.07653],[9.51176,40.07667],[9.5116,40.07681],[9.5109,40.07689],[9.51066,40.07687],[9.51041,40.07673],[9.51024,40.07673],[9.5101,40.0768],[9.50992,40.07717],[9.50984,40.07724],[9.50856,40.07772],[9.50826,40.07775],[9.50816,40.07779],[9.50806,40.07789],[9.50803,40.07801],[9.50805,40.07807],[9.50865,40.07859],[9.50873,40.07869],[9.50872,40.07884],[9.50858,40.07911],[9.50829,40.07936],[9.50801,40.0795],[9.50783,40.07982],[9.50769,40.08014],[9.50769,40.08023],[9.50773,40.08031],[9.50783,40.08038],[9.50798,40.0804],[9.50831,40.08036],[9.50875,40.08025],[9.50892,40.08027],[9.50909,40.08036],[9.5093,40.08055],[9.5093,40.08069],[9.50923,40.08079],[9.5089,40.08103],[9.50887,40.08115],[9.509,40.08159],[9.50894,40.0817],[9.50874,40.08185],[9.50784,40.0823],[9.50777,40.08239],[9.50774,40.08249],[9.5079,40.08279],[9.5079,40.08293],[9.50786,40.0832],[9.50759,40.08357],[9.50725,40.08393],[9.50713,40.08399],[9.50672,40.08398],[9.5065,40.08395],[9.50642,40.0839],[9.5063,40.08372],[9.50621,40.08341],[9.50563,40.08272],[9.50562,40.08254],[9.50571,40.08239],[9.50573,40.08224],[9.50567,40.08216],[9.50538,40.08192],[9.50485,40.08156]]},"properties":{}},{"type":"Feature","geometry":{"type":"LineString","coordinates":[[9.50485,40.08156],[9.50476,40.08156],[9.50459,40.0816],[9.50446,40.0817]]},"properties":{}},{"type":"Feature","geometry":{"type":"LineString","coordinates":[[9.50446,40.0817],[9.50423,40.08295],[9.50349,40.08368],[9.5028,40.08401],[9.50264,40.08413],[9.5021,40.08467],[9.50201,40.0848],[9.50201,40.08497],[9.50227,40.08513],[9.50271,40.08546],[9.50276,40.08565],[9.50264,40.08576],[9.50194,40.086],[9.5015,40.08643],[9.50139,40.08667]]},"properties":{}},{"type":"Feature","geometry":{"type":"LineString","coordinates":[[9.5091,40.0855],[9.50935,40.08538]]},"properties":{}},{"type":"Feature","geometry":{"type":"LineString","coordinates":[[9.50889,40.08569],[9.5091,40.0855]]},"properties":{}},{"type":"Feature","geometry":{"type":"LineString","coordinates":[[9.50879,40.08591],[9.50889,40.08569]]},"properties":{}},{"type":"Feature","geometry":{"type":"LineString","coordinates":[[9.50139,40.08667],[9.50142,40.0868],[9.50147,40.08687],[9.50156,40.08692]]},"properties":{}},{"type":"Feature","geometry":{"type":"LineString","coordinates":[[9.50374,40.09152],[9.50369,40.09105],[9.50385,40.0908],[9.5042,40.09052],[9.50497,40.09029],[9.50524,40.09015],[9.50572,40.08932],[9.50583,40.08918],[9.50599,40.0891],[9.50649,40.08893],[9.50828,40.08809],[9.5085,40.08796],[9.50908,40.08748],[9.50919,40.08735],[9.50921,40.08721],[9.50917,40.08707],[9.50872,40.08639],[9.50868,40.08629],[9.5087,40.08613],[9.50879,40.08591]]},"properties":{}},{"type":"Feature","geometry":{"type":"LineString","coordinates":[[9.50156,40.08692],[9.50176,40.08696],[9.5021,40.08695],[9.50266,40.08706],[9.50306,40.0872],[9.50431,40.08776],[9.50518,40.08793],[9.50533,40.08806],[9.50534,40.08822],[9.50527,40.08834],[9.50397,40.08986],[9.50338,40.09061],[9.50335,40.09069],[9.50339,40.0911],[9.50326,40.09134]]},"properties":{}},{"type":"Feature","geometry":{"type":"LineString","coordinates":[[9.50326,40.09134],[9.50327,40.09145],[9.50341,40.0916]]},"properties":{}},{"type":"Feature","geometry":{"type":"LineString","coordinates":[[9.50341,40.0916],[9.50354,40.09174],[9.50358,40.09183]]},"properties":{}},{"type":"Feature","geometry":{"type":"LineString","coordinates":[[9.50358,40.09183],[9.50356,40.09202],[9.5035,40.09211]]},"properties":{}},{"type":"Feature","geometry":{"type":"LineString","coordinates":[[9.5035,40.09211],[9.50322,40.09241]]},"properties":{}},{"type":"Feature","geometry":{"type":"LineString","coordinates":[[9.50322,40.09241],[9.50324,40.09251],[9.50336,40.09257]]},"properties":{}},{"type":"Feature","geometry":{"type":"LineString","coordinates":[[9.50336,40.09257],[9.50354,40.0926],[9.50392,40.09256],[9.50408,40.09246],[9.50435,40.09217],[9.50463,40.09208],[9.50527,40.09197],[9.50535,40.09202],[9.50537,40.09208],[9.50523,40.09283],[9.50528,40.09295],[9.50547,40.09321]]},"properties":{}},{"type":"Feature","geometry":{"type":"LineString","coordinates":[[9.50552,40.09377],[9.50547,40.09403]]},"properties":{}},{"type":"Feature","geometry":{"type":"LineString","coordinates":[[9.62935,40.02054],[9.62888,40.02176],[9.62876,40.02198],[9.6288,40.02209],[9.62932,40.02252],[9.62975,40.02273],[9.62989,40.02282],[9.62997,40.02293],[9.63014,40.02377],[9.63029,40.02393],[9.6305,40.02424],[9.63069,40.0247],[9.63146,40.02517],[9.63236,40.02528],[9.63252,40.02533],[9.63255,40.0254],[9.63232,40.026],[9.63236,40.02615],[9.63307,40.02655],[9.63347,40.02669],[9.63383,40.02672],[9.63414,40.02692],[9.63466,40.02762],[9.63485,40.02776],[9.63512,40.02779],[9.63524,40.02784],[9.63599,40.02844],[9.63668,40.02919],[9.63683,40.02927],[9.63704,40.02928],[9.63799,40.02896]]},"properties":{}},{"type":"Feature","geometry":{"type":"LineString","coordinates":[[9.50547,40.09403],[9.50551,40.09411],[9.50561,40.09417]]},"properties":{}},{"type":"Feature","geometry":{"type":"LineString","coordinates":[[9.50561,40.09417],[9.50573,40.09417],[9.50657,40.09393],[9.5069,40.09387],[9.50811,40.09392],[9.50832,40.09401],[9.50834,40.09418],[9.5082,40.09449],[9.50825,40.0947],[9.50833,40.09479],[9.50845,40.09484],[9.50858,40.09486],[9.50908,40.09478],[9.51014,40.09473],[9.51025,40.09477],[9.51054,40.09506],[9.51068,40.09513],[9.51078,40.09512],[9.51151,40.09485]]},"properties":{}},{"type":"Feature","geometry":{"type":"LineString","coordinates":[[9.51151,40.09485],[9.51169,40.09489],[9.512,40.09528],[9.51221,40.09568],[9.51224,40.09604],[9.51234,40.09619]]},"properties":{}},{"type":"Feature","geometry":{"type":"LineString","coordinates":[[9.51234,40.09619],[9.51254,40.09622],[9.51292,40.09618],[9.51316,40.09624],[9.51329,40.09634],[9.51384,40.09709]]},"properties":{}},{"type":"Feature","geometry":{"type":"LineString","coordinates":[[9.51384,40.09709],[9.51403,40.09728],[9.51417,40.09736],[9.51492,40.09758],[9.51535,40.09775],[9.51588,40.09812],[9.51723,40.09876],[9.51762,40.09899],[9.51801,40.09941],[9.51839,40.09964],[9.51862,40.09989],[9.51879,40.10025],[9.51986,40.10084],[9.51982,40.10097],[9.51955,40.10123],[9.51954,40.10148],[9.51958,40.10182],[9.51972,40.10222],[9.51958,40.10256],[9.51946,40.10276],[9.51903,40.10324],[9.51907,40.10332]]},"properties":{}}]}