{"type":"FeatureCollection","features":[{"type":"Feature","geometry":{"type":"LineString","coordinates":[[9.75905,44.45823],[9.75851,44.45878],[9.75842,44.45898],[9.75841,44.45911],[9.75831,44.4592],[9.75833,44.45938],[9.75826,44.45946],[9.75825,44.45956],[9.75812,44.45968],[9.75809,44.45978],[9.75791,44.45999],[9.75763,44.46064],[9.7574,44.46077],[9.75707,44.46084]]},"properties":{}},{"type":"Feature","geometry":{"type":"LineString","coordinates":[[9.75832,44.45939],[9.75852,44.45946],[9.75894,44.45968]]},"properties":{}},{"type":"Feature","geometry":{"type":"LineString","coordinates":[[9.75789,44.46006],[9.75818,44.46016],[9.75841,44.46017],[9.75887,44.46006],[9.75899,44.45996],[9.75899,44.45991]]},"properties":{}},{"type":"Feature","geometry":{"type":"LineString","coordinates":[[9.75977,44.45898],[9.75962,44.45903],[9.75954,44.45914],[9.75941,44.45922],[9.75941,44.45933],[9.75937,44.45944],[9.75906,44.45965],[9.75894,44.45968],[9.75896,44.45985],[9.75915,44.46012],[9.75918,44.46029],[9.75933,44.46064],[9.75934,44.46074],[9.75922,44.46099],[9.75897,44.46114],[9.75881,44.46119],[9.75864,44.46143],[9.75828,44.46183],[9.75791,44.46199],[9.75781,44.46214],[9.75779,44.46221],[9.75783,44.46254],[9.75775,44.46263],[9.75761,44.46269],[9.7575,44.46299],[9.75723,44.46332],[9.75715,44.46347],[9.75717,44.46352],[9.75722,44.46355],[9.75759,44.46359],[9.75779,44.46366],[9.75802,44.46379],[9.75806,44.46386],[9.75825,44.46404]]},"properties":{}},{"type":"Feature","geometry":{"type":"LineString","coordinates":[[9.77548,44.48949],[9.77587,44.48922],[9.77591,44.48914],[9.77647,44.48878]]},"properties":{}},{"type":"Feature","geometry":{"type":"LineString","coordinates":[[9.93018,44.3318],[9.93049,44.3317]]},"properties":{}},{"type":"Feature","geometry":{"type":"LineString","coordinates":[[9.93049,44.3317],[9.93027,44.33187]]},"properties":{}},{"type":"Feature","geometry":{"type":"LineString","coordinates":[[9.92966,44.33207],[9.92997,44.33191]]},"properties":{}},{"type":"Feature","geometry":{"type":"LineString","coordinates":[[9.93006,44.33201],[9.92966,44.33207]]},"properties":{}},{"type":"Feature","geometry":{"type":"LineString","coordinates":[[9.87382,44.37487],[9.87374,44.37478]]},"properties":{}},{"type":"Feature","geometry":{"type":"LineString","coordinates":[[9.87383,44.37494],[9.87353,44.37497]]},"properties":{}},{"type":"Feature","geometry":{"type":"LineString","coordinates":[[9.87402,44.37497],[9.8739,44.37498]]},"properties":{}},{"type":"Feature","geometry":{"type":"LineString","coordinates":[[9.88096,44.37754],[9.88091,44.37748],[9.88028,44.3774],[9.87924,44.3772]]},"properties":{}}]}