{"type":"FeatureCollection","features":[{"type":"Feature","geometry":{"type":"LineString","coordinates":[[9.76447,46.15047],[9.76452,46.15041]]},"properties":{}},{"type":"Feature","geometry":{"type":"LineString","coordinates":[[9.76433,46.15371],[9.7643,46.15355],[9.76386,46.15198],[9.76384,46.15078],[9.76391,46.15034]]},"properties":{}},{"type":"Feature","geometry":{"type":"LineString","coordinates":[[9.76549,46.15611],[9.76531,46.15585],[9.7643,46.15232],[9.76422,46.15195],[9.76416,46.15144],[9.76418,46.1513],[9.76447,46.15047]]},"properties":{}},{"type":"Feature","geometry":{"type":"LineString","coordinates":[[9.76433,46.15371],[9.76426,46.15365]]},"properties":{}},{"type":"Feature","geometry":{"type":"LineString","coordinates":[[9.77341,46.15451],[9.77341,46.15446]]},"properties":{}},{"type":"Feature","geometry":{"type":"LineString","coordinates":[[9.7856,46.15504],[9.78515,46.15516],[9.78488,46.15518],[9.7834,46.1552],[9.78297,46.15512],[9.78221,46.15482],[9.78065,46.15469],[9.77972,46.15457],[9.77734,46.15443],[9.77548,46.15447],[9.77397,46.15458],[9.77353,46.15466],[9.77345,46.15463],[9.77341,46.15451]]},"properties":{}},{"type":"Feature","geometry":{"type":"LineString","coordinates":[[9.76488,46.1562],[9.76496,46.15605],[9.76495,46.1559],[9.76433,46.15371]]},"properties":{}},{"type":"Feature","geometry":{"type":"LineString","coordinates":[[9.78584,46.15504],[9.7856,46.15504]]},"properties":{}},{"type":"Feature","geometry":{"type":"LineString","coordinates":[[9.77341,46.15446],[9.7734,46.15443],[9.77232,46.15455],[9.76937,46.15509],[9.76861,46.15527],[9.76618,46.15595]]},"properties":{}},{"type":"Feature","geometry":{"type":"LineString","coordinates":[[9.76618,46.15595],[9.76549,46.15611]]},"properties":{}},{"type":"Feature","geometry":{"type":"LineString","coordinates":[[9.76549,46.15611],[9.76488,46.1562]]},"properties":{}},{"type":"Feature","geometry":{"type":"LineString","coordinates":[[9.76549,46.15611],[9.76548,46.15649],[9.76552,46.15653],[9.76563,46.15655],[9.76606,46.15621],[9.76616,46.15605],[9.76618,46.15595]]},"properties":{}},{"type":"Feature","geometry":{"type":"LineString","coordinates":[[9.75736,46.15813],[9.7623,46.15732],[9.76345,46.157],[9.76404,46.157],[9.76427,46.15697],[9.76453,46.15685],[9.76473,46.15668],[9.76482,46.15653],[9.76488,46.1562]]},"properties":{}},{"type":"Feature","geometry":{"type":"LineString","coordinates":[[9.7729,46.15738],[9.77298,46.15702],[9.77302,46.15574],[9.77295,46.15558],[9.7728,46.15553],[9.77246,46.15554],[9.77165,46.15574],[9.77079,46.15579],[9.77039,46.15586],[9.76987,46.15602],[9.76897,46.15655],[9.76677,46.15717],[9.76371,46.15792],[9.76002,46.15868],[9.75972,46.15886],[9.75713,46.15919],[9.75316,46.15959],[9.75133,46.15977],[9.75,46.15983]]},"properties":{}},{"type":"Feature","geometry":{"type":"LineString","coordinates":[[9.75,46.15849],[9.75243,46.15855],[9.75258,46.15858],[9.75291,46.15872],[9.75308,46.15872],[9.75497,46.15855],[9.75736,46.15813]]},"properties":{}},{"type":"Feature","geometry":{"type":"LineString","coordinates":[[9.78028,46.04381],[9.78064,46.04368],[9.78099,46.04364],[9.78136,46.04371],[9.78162,46.04382],[9.78198,46.04406],[9.78219,46.04412],[9.78265,46.04415],[9.78283,46.04419],[9.78297,46.04428],[9.78401,46.04462],[9.7855,46.04493],[9.78571,46.04501],[9.78696,46.04497],[9.78783,46.04498],[9.78796,46.04493]]},"properties":{}},{"type":"Feature","geometry":{"type":"LineString","coordinates":[[9.77548,46.04683],[9.7762,46.04695],[9.77664,46.04706],[9.77684,46.04718],[9.77722,46.04781],[9.77731,46.04786],[9.77744,46.0478],[9.77767,46.04762],[9.77774,46.04749],[9.77784,46.04748],[9.77798,46.04761],[9.77807,46.04775],[9.77816,46.04772],[9.77822,46.04759],[9.77829,46.04755],[9.77834,46.04764],[9.77842,46.04769],[9.77849,46.04749],[9.77834,46.04704],[9.77798,46.04642],[9.77782,46.04627],[9.77753,46.04567],[9.77744,46.04539],[9.77755,46.04512],[9.77818,46.04436],[9.77858,46.04407],[9.77889,46.04389],[9.77921,46.04383],[9.77956,46.04381]]},"properties":{}},{"type":"Feature","geometry":{"type":"LineString","coordinates":[[9.79208,46.09254],[9.79213,46.09256]]},"properties":{}},{"type":"Feature","geometry":{"type":"LineString","coordinates":[[9.79213,46.09256],[9.79221,46.09262],[9.79222,46.09268],[9.79219,46.09296],[9.7921,46.09328],[9.79213,46.09374],[9.79208,46.09388],[9.79234,46.09414],[9.7924,46.09432],[9.79231,46.09493],[9.79218,46.09516],[9.79217,46.09531],[9.79194,46.09599],[9.79164,46.09618],[9.7914,46.0964],[9.79113,46.09657],[9.79095,46.09675]]},"properties":{}},{"type":"Feature","geometry":{"type":"LineString","coordinates":[[9.79095,46.09675],[9.79089,46.09682]]},"properties":{}},{"type":"Feature","geometry":{"type":"LineString","coordinates":[[9.79089,46.09682],[9.79093,46.09705],[9.79104,46.09731],[9.79105,46.09765],[9.79117,46.09794],[9.79117,46.09805],[9.79097,46.09832],[9.79084,46.09843],[9.79086,46.09866],[9.79096,46.09888],[9.79068,46.09958],[9.79055,46.09979],[9.79046,46.10039],[9.7905,46.10088],[9.79049,46.1011],[9.79031,46.10134],[9.79029,46.10142],[9.79036,46.10183],[9.79048,46.10195],[9.79068,46.10209],[9.79083,46.10245],[9.79095,46.10259],[9.79094,46.10274],[9.79065,46.10299],[9.79047,46.10304],[9.79008,46.10334],[9.78966,46.10358],[9.78953,46.10372],[9.78943,46.10385],[9.78908,46.10477],[9.78875,46.10525],[9.78875,46.10548]]},"properties":{}},{"type":"Feature","geometry":{"type":"LineString","coordinates":[[9.78875,46.10548],[9.78877,46.10576],[9.78892,46.10604],[9.78916,46.10632],[9.78923,46.10635],[9.78932,46.10632],[9.7895,46.10581],[9.78957,46.10578],[9.78965,46.10582],[9.78981,46.10644],[9.78965,46.1068],[9.78974,46.10706],[9.78988,46.10727],[9.79014,46.10754],[9.79026,46.10779],[9.79026,46.10799],[9.79014,46.10815],[9.79013,46.10831],[9.79025,46.10855],[9.79091,46.10899],[9.7911,46.1092],[9.79112,46.10967],[9.7914,46.11011],[9.79135,46.11141],[9.7912,46.11188],[9.79125,46.11294],[9.79105,46.11319],[9.79059,46.11352],[9.7905,46.1137],[9.79052,46.11389],[9.79034,46.11422],[9.79028,46.11453],[9.79028,46.11502],[9.79055,46.11544],[9.79075,46.11563],[9.79071,46.11586],[9.79078,46.11612],[9.79092,46.11637],[9.79092,46.11656],[9.79109,46.11681],[9.79116,46.11714],[9.79126,46.11733],[9.79153,46.1176],[9.79152,46.11767],[9.79144,46.11777],[9.79143,46.11787],[9.79155,46.11823],[9.79152,46.1183],[9.79117,46.1185],[9.79088,46.11854],[9.79064,46.11868],[9.79002,46.11941],[9.79013,46.1195],[9.79016,46.1196],[9.78984,46.11999],[9.78983,46.12037],[9.78957,46.12078],[9.78938,46.12125],[9.7895,46.12168],[9.78926,46.12244],[9.78926,46.12306],[9.78892,46.12348],[9.78837,46.12282],[9.78843,46.12346],[9.78799,46.12438],[9.78656,46.12622],[9.78616,46.12716],[9.78626,46.12773],[9.78611,46.12787],[9.78519,46.12772],[9.78485,46.12818],[9.78478,46.12887],[9.78458,46.12911],[9.78401,46.12913],[9.7835,46.12964],[9.78313,46.13036],[9.78318,46.1314],[9.78345,46.13245],[9.78331,46.13312],[9.78328,46.13405],[9.7832,46.13438],[9.78314,46.13446]]},"properties":{}},{"type":"Feature","geometry":{"type":"LineString","coordinates":[[9.78285,46.13427],[9.78239,46.13356],[9.78243,46.13339],[9.78231,46.13323],[9.78226,46.13303],[9.78184,46.13278],[9.78181,46.13266],[9.78132,46.13212],[9.78114,46.13177],[9.78094,46.13151],[9.78087,46.13128],[9.78084,46.131],[9.78079,46.13099]]},"properties":{}},{"type":"Feature","geometry":{"type":"LineString","coordinates":[[9.79614,46.06396],[9.79648,46.0635],[9.79656,46.06328],[9.7966,46.06327]]},"properties":{}},{"type":"Feature","geometry":{"type":"LineString","coordinates":[[9.7966,46.06327],[9.79664,46.06328],[9.79666,46.06343],[9.79675,46.06354],[9.79725,46.06409],[9.79727,46.06461],[9.79717,46.06491],[9.79633,46.06568],[9.79646,46.0659],[9.79648,46.06616],[9.79621,46.06658],[9.79607,46.06709],[9.79604,46.06742],[9.79596,46.06756],[9.79569,46.06781],[9.79552,46.06838],[9.79545,46.06881],[9.79515,46.06915],[9.79515,46.06944],[9.7952,46.06975],[9.79483,46.07013],[9.79488,46.07044],[9.79474,46.07084],[9.79481,46.07117],[9.795,46.07169],[9.79503,46.07201],[9.79497,46.07227],[9.79487,46.07244],[9.795,46.07297],[9.79488,46.0736],[9.79496,46.07417],[9.79487,46.07465],[9.79514,46.07497],[9.79532,46.07525],[9.79538,46.0755],[9.7954,46.07582],[9.79528,46.07614],[9.79527,46.0764],[9.79532,46.07683],[9.79557,46.07776],[9.79561,46.07816],[9.79551,46.07842],[9.79525,46.07879],[9.79495,46.07916],[9.79435,46.07978],[9.79425,46.08012],[9.7944,46.08071],[9.79456,46.0811],[9.79479,46.08144],[9.79489,46.08181],[9.79486,46.0823],[9.79493,46.08269],[9.79484,46.08286],[9.79447,46.0833],[9.79403,46.08344],[9.79372,46.08358],[9.79373,46.08398],[9.79385,46.08422],[9.7937,46.08463],[9.79371,46.08505],[9.79398,46.08608],[9.79389,46.08627],[9.79421,46.08692],[9.79422,46.08726],[9.79382,46.08786],[9.79356,46.0881],[9.7933,46.08852],[9.79313,46.08867],[9.79311,46.08909],[9.79301,46.08939],[9.79302,46.08967],[9.79297,46.08982],[9.79302,46.09049],[9.79294,46.09067],[9.79274,46.09091],[9.79272,46.09114],[9.79257,46.09152],[9.79208,46.09211],[9.79169,46.09236],[9.79151,46.09281],[9.79159,46.09283],[9.79171,46.0927],[9.79196,46.09254],[9.79208,46.09254]]},"properties":{}},{"type":"Feature","geometry":{"type":"LineString","coordinates":[[9.82808,46.14037],[9.82779,46.14048],[9.82758,46.1406],[9.82738,46.14066],[9.82728,46.14075],[9.82726,46.14087],[9.8271,46.14097],[9.82685,46.141],[9.8266,46.14096],[9.82644,46.14102],[9.82637,46.14109],[9.82639,46.14125],[9.82646,46.14136],[9.82671,46.14166],[9.82712,46.14201],[9.82719,46.14223],[9.8271,46.14229],[9.82652,46.1423],[9.82646,46.14237],[9.82634,46.14279]]},"properties":{}},{"type":"Feature","geometry":{"type":"LineString","coordinates":[[9.94992,46.01097],[9.94975,46.0116],[9.95043,46.01316],[9.95086,46.01401],[9.95096,46.01433],[9.9511,46.01463],[9.95141,46.01512],[9.95171,46.01551],[9.95201,46.01579],[9.95261,46.0161],[9.95284,46.01644],[9.95294,46.01645],[9.9529,46.01617],[9.95297,46.01614],[9.95301,46.01635],[9.95327,46.01666],[9.95365,46.01702],[9.95402,46.01722],[9.9555,46.01781],[9.95582,46.01799],[9.95606,46.0182],[9.95652,46.01849],[9.95663,46.01872],[9.95678,46.01884],[9.95719,46.019],[9.95759,46.0191],[9.95793,46.01928],[9.9581,46.01957],[9.95826,46.01975],[9.9584,46.01989],[9.95868,46.02004],[9.95882,46.02015],[9.95892,46.02028],[9.95891,46.02038]]},"properties":{}},{"type":"Feature","geometry":{"type":"LineString","coordinates":[[9.95891,46.02038],[9.95892,46.02051],[9.95896,46.02059],[9.95906,46.02067],[9.95915,46.02083],[9.95918,46.02131],[9.9593,46.02161]]},"properties":{}},{"type":"Feature","geometry":{"type":"LineString","coordinates":[[9.96253,46.02484],[9.96362,46.02506],[9.96547,46.02562],[9.96682,46.02614],[9.96737,46.02639],[9.96767,46.02643],[9.96792,46.02638],[9.96821,46.0264],[9.96831,46.02653]]},"properties":{}},{"type":"Feature","geometry":{"type":"LineString","coordinates":[[9.96831,46.02653],[9.9684,46.02663]]},"properties":{}},{"type":"Feature","geometry":{"type":"LineString","coordinates":[[9.9684,46.02663],[9.96862,46.02671],[9.96967,46.02727],[9.96991,46.02749],[9.97,46.02778],[9.96987,46.02798],[9.96989,46.02812],[9.97033,46.02837],[9.97048,46.0284],[9.97093,46.02859],[9.97144,46.02898],[9.97169,46.02907],[9.97214,46.02908],[9.97293,46.02934],[9.97326,46.0293],[9.97335,46.02933],[9.97372,46.02915],[9.97411,46.02884],[9.97443,46.02876],[9.97478,46.02871],[9.97556,46.02885],[9.9767,46.02886],[9.97757,46.02904],[9.97789,46.02902],[9.97831,46.02907]]},"properties":{}},{"type":"Feature","geometry":{"type":"LineString","coordinates":[[9.97313,46.02933],[9.97313,46.02933]]},"properties":{}},{"type":"Feature","geometry":{"type":"LineString","coordinates":[[9.97313,46.02933],[9.97315,46.02952]]},"properties":{}},{"type":"Feature","geometry":{"type":"LineString","coordinates":[[9.97315,46.02952],[9.97327,46.02968]]},"properties":{}},{"type":"Feature","geometry":{"type":"LineString","coordinates":[[9.97831,46.02907],[9.97856,46.02919],[9.979,46.02948],[9.97936,46.02964],[9.97983,46.02969],[9.98038,46.02987],[9.98079,46.02993],[9.98137,46.02978],[9.98246,46.02934],[9.98282,46.02925],[9.98342,46.02924],[9.98466,46.02939],[9.98568,46.02987],[9.98602,46.02997],[9.98649,46.02993],[9.98711,46.03005],[9.98816,46.03009],[9.98875,46.0303],[9.98959,46.03039],[9.99064,46.03023],[9.99245,46.03025]]},"properties":{}},{"type":"Feature","geometry":{"type":"LineString","coordinates":[[9.99245,46.03025],[9.99338,46.03031],[9.99387,46.03022],[9.99424,46.03024],[9.99477,46.03041],[9.99549,46.03043]]},"properties":{}},{"type":"Feature","geometry":{"type":"LineString","coordinates":[[9.8677,46.15823],[9.86882,46.15842],[9.86887,46.15841],[9.86889,46.15837]]},"properties":{}},{"type":"Feature","geometry":{"type":"LineString","coordinates":[[9.86936,46.15908],[9.86898,46.15928],[9.86856,46.15928]]},"properties":{}},{"type":"Feature","geometry":{"type":"LineString","coordinates":[[9.86851,46.15955],[9.86856,46.15928]]},"properties":{}},{"type":"Feature","geometry":{"type":"LineString","coordinates":[[9.86836,46.15986],[9.86839,46.15964],[9.86842,46.15959],[9.86851,46.15955]]},"properties":{}},{"type":"Feature","geometry":{"type":"LineString","coordinates":[[9.88681,46.1614],[9.88663,46.16131],[9.88633,46.16123],[9.88455,46.16106],[9.88363,46.16086],[9.88341,46.16084],[9.88244,46.16085],[9.88203,46.16081],[9.87983,46.16072],[9.87927,46.16067],[9.87793,46.16046],[9.87741,46.16044],[9.87669,46.1603],[9.8764,46.16028],[9.87617,46.16028],[9.87567,46.16047],[9.87479,46.16015],[9.8741,46.15969],[9.87389,46.1596],[9.87304,46.15954],[9.87242,46.15934],[9.86973,46.15913],[9.86776,46.15885],[9.86602,46.15868],[9.86577,46.15877],[9.8657,46.15876],[9.86527,46.1586],[9.86371,46.15837],[9.8617,46.15836],[9.86122,46.15838],[9.86081,46.15852],[9.86049,46.15867]]},"properties":{}},{"type":"Feature","geometry":{"type":"LineString","coordinates":[[9.91096,46.15971],[9.91115,46.15981],[9.91155,46.15993],[9.91259,46.16013],[9.91306,46.16015],[9.91345,46.16007],[9.91353,46.16026]]},"properties":{}},{"type":"Feature","geometry":{"type":"LineString","coordinates":[[9.86836,46.15986],[9.86839,46.16072]]},"properties":{}},{"type":"Feature","geometry":{"type":"LineString","coordinates":[[9.99549,46.03043],[9.99718,46.03047],[9.99781,46.03041],[9.99817,46.03042],[9.99849,46.03049]]},"properties":{}},{"type":"Feature","geometry":{"type":"LineString","coordinates":[[9.97835,46.14727],[9.97807,46.14746],[9.97782,46.14754],[9.97754,46.14742]]},"properties":{}},{"type":"Feature","geometry":{"type":"LineString","coordinates":[[9.95407,46.15611],[9.95427,46.15608]]},"properties":{}},{"type":"Feature","geometry":{"type":"LineString","coordinates":[[9.95427,46.15608],[9.95522,46.15607],[9.9557,46.15612],[9.95683,46.15629],[9.95727,46.15641],[9.95837,46.1566],[9.95874,46.15676]]},"properties":{}},{"type":"Feature","geometry":{"type":"LineString","coordinates":[[9.95001,46.15703],[9.95208,46.15626],[9.9525,46.15622],[9.95302,46.15625],[9.95328,46.15623],[9.95407,46.15611]]},"properties":{}},{"type":"Feature","geometry":{"type":"LineString","coordinates":[[9.94969,46.15719],[9.95001,46.15703]]},"properties":{}},{"type":"Feature","geometry":{"type":"LineString","coordinates":[[9.95874,46.15676],[9.95902,46.15702],[9.95919,46.15703],[9.95938,46.157],[9.95978,46.15712],[9.96045,46.15752],[9.9608,46.15788]]},"properties":{}},{"type":"Feature","geometry":{"type":"LineString","coordinates":[[9.94885,46.1575],[9.94969,46.15719]]},"properties":{}},{"type":"Feature","geometry":{"type":"LineString","coordinates":[[9.99095,46.15967],[9.99193,46.15934],[9.99242,46.15927],[9.99275,46.15932],[9.99461,46.15911],[9.99518,46.15901],[9.99614,46.15897],[9.99677,46.1589],[9.99784,46.15893],[9.9979,46.1595],[9.99793,46.15956],[9.99809,46.15956],[9.99846,46.15947],[9.99907,46.1592],[10.0,46.15895]]},"properties":{}},{"type":"Feature","geometry":{"type":"LineString","coordinates":[[9.9608,46.15788],[9.96103,46.15821],[9.96177,46.15854],[9.96266,46.15865],[9.9634,46.15891],[9.96356,46.15901],[9.96407,46.15963],[9.96439,46.15997],[9.9652,46.16038],[9.96575,46.16047],[9.96734,46.16045],[9.96792,46.16042],[9.96843,46.16049],[9.96892,46.16062],[9.96924,46.16065],[9.96956,46.16064],[9.97222,46.16018]]},"properties":{}},{"type":"Feature","geometry":{"type":"LineString","coordinates":[[9.78314,46.13446],[9.78296,46.13438],[9.78285,46.13427]]},"properties":{}},{"type":"Feature","geometry":{"type":"LineString","coordinates":[[9.78079,46.13099],[9.78071,46.13103],[9.78068,46.13112],[9.78066,46.13178],[9.78059,46.13207],[9.78059,46.13236],[9.78072,46.1328],[9.78068,46.13306],[9.7808,46.13323],[9.7808,46.13333],[9.78076,46.1334],[9.78058,46.13351],[9.7805,46.13362],[9.78049,46.13373],[9.78052,46.13383],[9.78069,46.13402],[9.78033,46.13435],[9.78034,46.13461],[9.78025,46.13462],[9.78024,46.13452],[9.78014,46.13433],[9.78023,46.13415],[9.78021,46.13402],[9.77994,46.13381],[9.77988,46.13368],[9.7799,46.13346],[9.77987,46.13343],[9.77979,46.13342],[9.77972,46.13345],[9.7796,46.13372],[9.77958,46.13407],[9.77938,46.1344],[9.77936,46.13457],[9.77916,46.13496],[9.77918,46.13528],[9.77913,46.13537],[9.77906,46.13532],[9.77899,46.13506],[9.77889,46.13421],[9.77875,46.13398],[9.77874,46.1339],[9.7788,46.1337],[9.77868,46.13366],[9.77862,46.1337],[9.77853,46.13458],[9.77823,46.13579],[9.7782,46.13603],[9.77807,46.13624],[9.77807,46.13643],[9.77802,46.13663],[9.77772,46.13717],[9.7777,46.13733],[9.77782,46.1377],[9.77773,46.13775],[9.77766,46.13775],[9.77762,46.1377],[9.77751,46.13739],[9.77749,46.13718],[9.77754,46.13673],[9.77755,46.13626],[9.77753,46.13579],[9.77745,46.13553],[9.77743,46.13515],[9.77735,46.13495],[9.77723,46.13435],[9.77714,46.13412],[9.77705,46.13407],[9.77698,46.13407],[9.77695,46.1341],[9.77704,46.13426],[9.77705,46.13432],[9.77688,46.13498],[9.77685,46.13532],[9.77678,46.13549],[9.77662,46.13579],[9.77648,46.13646],[9.77632,46.1368],[9.77624,46.13717],[9.77611,46.13751],[9.77609,46.13825],[9.776,46.13856],[9.77605,46.13869]]},"properties":{}},{"type":"Feature","geometry":{"type":"LineString","coordinates":[[9.77605,46.13869],[9.77602,46.13871],[9.77592,46.13869],[9.77592,46.13829],[9.77586,46.13794],[9.77582,46.13791],[9.77574,46.13793],[9.7757,46.1383],[9.77542,46.13866]]},"properties":{}},{"type":"Feature","geometry":{"type":"LineString","coordinates":[[9.77542,46.13866],[9.77524,46.13885],[9.77523,46.13891],[9.77532,46.13905],[9.77524,46.13923],[9.77525,46.13933],[9.77535,46.13944],[9.77541,46.13957],[9.77542,46.13973],[9.77533,46.13973],[9.77532,46.13959],[9.77528,46.13951],[9.77506,46.13934],[9.77493,46.13914],[9.77487,46.13913],[9.77481,46.13916],[9.77479,46.13922],[9.77504,46.13976]]},"properties":{}},{"type":"Feature","geometry":{"type":"LineString","coordinates":[[9.7738,46.14073],[9.77317,46.14044],[9.77282,46.14011],[9.77277,46.13999],[9.77279,46.13991],[9.77288,46.13981],[9.77286,46.13976],[9.77275,46.13974],[9.77253,46.13996],[9.7724,46.14031],[9.77243,46.14039],[9.77269,46.14054],[9.77276,46.14063],[9.77283,46.14099],[9.77289,46.14113],[9.77302,46.14124],[9.77316,46.1413],[9.77354,46.14161]]},"properties":{}},{"type":"Feature","geometry":{"type":"LineString","coordinates":[[9.77504,46.13976],[9.77511,46.14009],[9.77524,46.14016],[9.77559,46.14025],[9.77625,46.14047],[9.77738,46.14121],[9.77768,46.14134],[9.77776,46.14141],[9.77781,46.14151],[9.7778,46.1416],[9.77785,46.14174],[9.77807,46.14186],[9.77811,46.14192],[9.77809,46.14196],[9.77793,46.14196],[9.77777,46.14189],[9.77751,46.14172],[9.77728,46.14145],[9.77659,46.14114],[9.77626,46.14107],[9.77601,46.14096],[9.77423,46.14088],[9.774,46.14083],[9.7738,46.14073]]},"properties":{}},{"type":"Feature","geometry":{"type":"LineString","coordinates":[[9.76929,46.14188],[9.76903,46.14177],[9.76896,46.14177],[9.76893,46.14182],[9.76896,46.1419],[9.76925,46.14205]]},"properties":{}},{"type":"Feature","geometry":{"type":"LineString","coordinates":[[9.77354,46.14161],[9.77379,46.14181],[9.77391,46.14197],[9.77402,46.142],[9.77451,46.14196],[9.77467,46.142],[9.77505,46.14228],[9.77507,46.14233],[9.77505,46.14238],[9.77489,46.14239],[9.77343,46.1421],[9.77287,46.14192],[9.77243,46.14186],[9.77182,46.14169],[9.77175,46.14173],[9.77173,46.14178],[9.77188,46.14192],[9.77307,46.14245],[9.77436,46.14313]]},"properties":{}},{"type":"Feature","geometry":{"type":"LineString","coordinates":[[9.77436,46.14313],[9.77435,46.1432],[9.7743,46.14321],[9.77328,46.14293],[9.77209,46.14276],[9.77085,46.14239],[9.76959,46.14205],[9.76929,46.14188]]},"properties":{}},{"type":"Feature","geometry":{"type":"LineString","coordinates":[[9.76925,46.14205],[9.76941,46.14224],[9.77009,46.14273],[9.7705,46.14275],[9.7713,46.14309],[9.77149,46.14333],[9.77192,46.14367],[9.77221,46.1438],[9.77313,46.14403],[9.77328,46.14419],[9.77329,46.14444],[9.77341,46.14454],[9.77373,46.14465],[9.7738,46.14477],[9.77369,46.14483],[9.77351,46.14483],[9.77319,46.14473],[9.77258,46.14446],[9.77232,46.1444],[9.77212,46.14439],[9.77169,46.14446],[9.77132,46.14442],[9.77086,46.1443],[9.7708,46.14431],[9.7708,46.14436],[9.7715,46.14478],[9.77186,46.1448],[9.77195,46.14498],[9.77204,46.14507],[9.77226,46.14513],[9.77258,46.1454],[9.77456,46.14593],[9.77517,46.146],[9.7759,46.14629],[9.77594,46.14634],[9.77556,46.14637],[9.77513,46.14632],[9.77457,46.14639],[9.77397,46.14623],[9.77394,46.14625],[9.77425,46.14641],[9.77437,46.14654],[9.7747,46.14672],[9.7747,46.14681],[9.77455,46.14686],[9.77444,46.14686],[9.77419,46.14674],[9.77371,46.14663],[9.77304,46.14653],[9.77207,46.1465],[9.77123,46.14643],[9.77048,46.14632],[9.77046,46.14633],[9.7715,46.14668],[9.77249,46.14694],[9.7727,46.14704],[9.77273,46.1471],[9.7727,46.14714],[9.77254,46.14717],[9.77224,46.14707],[9.77164,46.14703],[9.77114,46.14704],[9.7705,46.14692]]},"properties":{}},{"type":"Feature","geometry":{"type":"LineString","coordinates":[[9.80709,46.16028],[9.8046,46.16049],[9.80073,46.1604],[9.80017,46.16034],[9.79832,46.15983],[9.79254,46.15728],[9.78804,46.15555],[9.78693,46.15518],[9.78658,46.15511],[9.78584,46.15504]]},"properties":{}},{"type":"Feature","geometry":{"type":"LineString","coordinates":[[9.8641,46.15787],[9.8644,46.15784],[9.86455,46.15776]]},"properties":{}},{"type":"Feature","geometry":{"type":"LineString","coordinates":[[9.86017,46.15791],[9.86011,46.15802]]},"properties":{}},{"type":"Feature","geometry":{"type":"LineString","coordinates":[[9.85997,46.15828],[9.86156,46.15772],[9.86194,46.15769],[9.86376,46.15783],[9.86521,46.15801],[9.86742,46.1582]]},"properties":{}},{"type":"Feature","geometry":{"type":"LineString","coordinates":[[9.85997,46.15828],[9.85998,46.15805],[9.86011,46.15802]]},"properties":{}},{"type":"Feature","geometry":{"type":"LineString","coordinates":[[9.86013,46.15822],[9.86,46.15818],[9.85996,46.15813]]},"properties":{}},{"type":"Feature","geometry":{"type":"LineString","coordinates":[[9.86742,46.1582],[9.86759,46.15822]]},"properties":{}},{"type":"Feature","geometry":{"type":"LineString","coordinates":[[9.86759,46.15822],[9.8677,46.15823]]},"properties":{}},{"type":"Feature","geometry":{"type":"LineString","coordinates":[[9.86011,46.15802],[9.86072,46.15866]]},"properties":{}},{"type":"Feature","geometry":{"type":"LineString","coordinates":[[9.85942,46.15852],[9.85974,46.15835],[9.85997,46.15828]]},"properties":{}},{"type":"Feature","geometry":{"type":"LineString","coordinates":[[9.85929,46.15862],[9.85942,46.15852]]},"properties":{}},{"type":"Feature","geometry":{"type":"LineString","coordinates":[[9.86038,46.15874],[9.86051,46.15876]]},"properties":{}},{"type":"Feature","geometry":{"type":"LineString","coordinates":[[9.86049,46.15867],[9.86051,46.15876],[9.86058,46.15883],[9.86066,46.15884],[9.86078,46.15879],[9.86078,46.15875],[9.86072,46.15866]]},"properties":{}},{"type":"Feature","geometry":{"type":"LineString","coordinates":[[9.86756,46.15884],[9.86759,46.15896],[9.86763,46.15902],[9.86772,46.15907],[9.86797,46.15909],[9.86797,46.1592]]},"properties":{}},{"type":"Feature","geometry":{"type":"LineString","coordinates":[[9.86797,46.1592],[9.86787,46.1595]]},"properties":{}},{"type":"Feature","geometry":{"type":"LineString","coordinates":[[9.86049,46.15867],[9.85953,46.1593],[9.85932,46.15953],[9.85885,46.15973],[9.85873,46.15996],[9.85837,46.16023]]},"properties":{}},{"type":"Feature","geometry":{"type":"LineString","coordinates":[[9.86787,46.1595],[9.86813,46.15962],[9.86818,46.15971],[9.8682,46.15986],[9.86836,46.15986]]},"properties":{}},{"type":"Feature","geometry":{"type":"LineString","coordinates":[[9.81673,46.15975],[9.81691,46.15969]]},"properties":{}},{"type":"Feature","geometry":{"type":"LineString","coordinates":[[9.81673,46.15975],[9.81678,46.15988],[9.81676,46.1601],[9.81685,46.16015],[9.8172,46.16013],[9.8178,46.15986],[9.81869,46.1598],[9.81922,46.15972],[9.82086,46.15979],[9.82178,46.15993]]},"properties":{}},{"type":"Feature","geometry":{"type":"LineString","coordinates":[[9.82178,46.15993],[9.82199,46.15998]]},"properties":{}},{"type":"Feature","geometry":{"type":"LineString","coordinates":[[9.9798,46.15974],[9.98069,46.15964],[9.98157,46.15942],[9.98186,46.15938],[9.98234,46.15926],[9.98294,46.15918],[9.98338,46.15904],[9.98354,46.15903],[9.98397,46.15911],[9.98465,46.15904],[9.98474,46.15907],[9.98517,46.15951],[9.98527,46.15967],[9.98541,46.1598],[9.9857,46.15997],[9.98628,46.16018],[9.98734,46.16017],[9.98859,46.15992],[9.98879,46.15992],[9.9891,46.16003],[9.98926,46.16021],[9.98945,46.16036],[9.98962,46.16037],[9.9905,46.16]]},"properties":{}},{"type":"Feature","geometry":{"type":"LineString","coordinates":[[9.94165,46.16196],[9.94336,46.1618],[9.9442,46.16181],[9.94482,46.16164],[9.94618,46.16115],[9.94663,46.16079],[9.94811,46.15908],[9.94859,46.1586],[9.94862,46.15847],[9.94881,46.15809],[9.94899,46.15788],[9.94898,46.15782],[9.94882,46.15757],[9.94885,46.1575]]},"properties":{}},{"type":"Feature","geometry":{"type":"LineString","coordinates":[[9.97956,46.15974],[9.9798,46.15974]]},"properties":{}},{"type":"Feature","geometry":{"type":"LineString","coordinates":[[9.97337,46.16011],[9.9735,46.16006],[9.97445,46.15986],[9.97526,46.15988],[9.9755,46.15985],[9.9758,46.15978],[9.97614,46.15965],[9.97649,46.15958],[9.97697,46.15941],[9.97725,46.15937],[9.97779,46.15943],[9.97832,46.15944],[9.97902,46.15967],[9.97956,46.15974]]},"properties":{}},{"type":"Feature","geometry":{"type":"LineString","coordinates":[[9.97222,46.16018],[9.9723,46.16015],[9.97255,46.16012],[9.97337,46.16011]]},"properties":{}},{"type":"Feature","geometry":{"type":"LineString","coordinates":[[9.95387,46.15716],[9.95312,46.15735],[9.95211,46.15751],[9.95117,46.15754],[9.95082,46.15759],[9.95034,46.15772],[9.95019,46.15781],[9.94998,46.158],[9.9502,46.15812],[9.95016,46.15817],[9.95012,46.15821],[9.94996,46.15816],[9.94983,46.15816],[9.94954,46.1584],[9.94952,46.15847],[9.94935,46.15866],[9.94887,46.15907],[9.94827,46.15966],[9.94727,46.16092],[9.94682,46.16139],[9.9466,46.16159],[9.94581,46.16199],[9.9451,46.16223],[9.94442,46.16234],[9.94268,46.16235],[9.94157,46.16245],[9.9406,46.16259],[9.93912,46.16298],[9.93882,46.16307],[9.93848,46.16323]]},"properties":{}},{"type":"Feature","geometry":{"type":"LineString","coordinates":[[9.95937,46.15928],[9.9595,46.1593],[9.96032,46.15975],[9.96076,46.1599],[9.96198,46.16],[9.96316,46.16023],[9.96372,46.1606],[9.96425,46.16079],[9.96469,46.16101],[9.96559,46.16128],[9.96664,46.16141],[9.96736,46.16155],[9.96742,46.16161],[9.96732,46.16163],[9.96606,46.16155],[9.96567,46.16145],[9.96559,46.16146],[9.96559,46.16151]]},"properties":{}},{"type":"Feature","geometry":{"type":"LineString","coordinates":[[9.93981,46.16159],[9.93998,46.16213],[9.94008,46.16217],[9.94165,46.16196]]},"properties":{}},{"type":"Feature","geometry":{"type":"LineString","coordinates":[[9.9925,46.16307],[9.99206,46.16312],[9.99192,46.16302],[9.99138,46.16125],[9.99126,46.16102],[9.99119,46.16097]]},"properties":{}},{"type":"Feature","geometry":{"type":"LineString","coordinates":[[9.99263,46.16305],[9.9925,46.16307]]},"properties":{}},{"type":"Feature","geometry":{"type":"LineString","coordinates":[[9.80724,46.16027],[9.81154,46.15981],[9.81325,46.15978],[9.8164,46.15981],[9.81673,46.15975]]},"properties":{}},{"type":"Feature","geometry":{"type":"LineString","coordinates":[[9.85839,46.16031],[9.85837,46.16023]]},"properties":{}},{"type":"Feature","geometry":{"type":"LineString","coordinates":[[9.80724,46.16027],[9.80709,46.16028]]},"properties":{}},{"type":"Feature","geometry":{"type":"LineString","coordinates":[[9.82199,46.15998],[9.82231,46.16001],[9.82322,46.16002],[9.82519,46.15991],[9.82639,46.15981],[9.82695,46.15984],[9.82726,46.15981],[9.82746,46.15978],[9.82772,46.15967],[9.82818,46.15946],[9.82826,46.15937],[9.82835,46.15935],[9.82879,46.15942],[9.82917,46.15954],[9.83019,46.15967],[9.83032,46.15971],[9.83074,46.15991],[9.83115,46.15999],[9.83204,46.16004],[9.8325,46.16002],[9.83295,46.16003],[9.83406,46.16023],[9.83569,46.16058],[9.83627,46.16076],[9.83721,46.16095],[9.83783,46.16119],[9.83899,46.16154],[9.83978,46.16161],[9.84062,46.16161],[9.84084,46.16164],[9.84118,46.16182],[9.84276,46.16215],[9.84305,46.16212],[9.84337,46.16205],[9.84644,46.16087],[9.84764,46.1607],[9.84857,46.16062],[9.84999,46.16061],[9.85269,46.16088],[9.8536,46.1609],[9.85528,46.16038],[9.85605,46.16031],[9.85664,46.16006],[9.85733,46.1597],[9.85757,46.15962],[9.85886,46.15892],[9.85929,46.15862]]},"properties":{}},{"type":"Feature","geometry":{"type":"LineString","coordinates":[[9.85845,46.16048],[9.85839,46.16031]]},"properties":{}},{"type":"Feature","geometry":{"type":"LineString","coordinates":[[9.81687,46.16083],[9.81705,46.16083]]},"properties":{}},{"type":"Feature","geometry":{"type":"LineString","coordinates":[[9.81705,46.16083],[9.81825,46.16091],[9.81855,46.16082],[9.81899,46.16079],[9.81922,46.16084],[9.81964,46.16082],[9.82075,46.16087],[9.82107,46.16094],[9.82175,46.16131],[9.82452,46.16131],[9.82511,46.16126],[9.82546,46.16133]]},"properties":{}},{"type":"Feature","geometry":{"type":"LineString","coordinates":[[9.85984,46.16165],[9.85941,46.16119],[9.8586,46.16067],[9.85845,46.16048]]},"properties":{}},{"type":"Feature","geometry":{"type":"LineString","coordinates":[[9.8029,46.16147],[9.80297,46.16144],[9.8047,46.16139],[9.80586,46.16121],[9.80765,46.16129],[9.80818,46.16122],[9.80901,46.16104],[9.80956,46.16103],[9.80981,46.16104],[9.81256,46.16152],[9.81353,46.16156],[9.81442,46.16152],[9.81649,46.16156],[9.81667,46.16147],[9.81677,46.16135],[9.81676,46.16087],[9.81687,46.16083]]},"properties":{}},{"type":"Feature","geometry":{"type":"LineString","coordinates":[[9.79552,46.16153],[9.7981,46.16152],[9.79817,46.16092],[9.79945,46.16113],[9.80004,46.16126],[9.80011,46.16135],[9.80011,46.1615]]},"properties":{}},{"type":"Feature","geometry":{"type":"LineString","coordinates":[[9.91124,46.16121],[9.91146,46.16117],[9.91153,46.16112],[9.9114,46.16047]]},"properties":{}},{"type":"Feature","geometry":{"type":"LineString","coordinates":[[9.88257,46.16138],[9.88245,46.16125],[9.88241,46.16092],[9.88234,46.16084]]},"properties":{}},{"type":"Feature","geometry":{"type":"LineString","coordinates":[[9.8683,46.16137],[9.86834,46.16121]]},"properties":{}},{"type":"Feature","geometry":{"type":"LineString","coordinates":[[9.91127,46.1615],[9.91124,46.16121]]},"properties":{}},{"type":"Feature","geometry":{"type":"LineString","coordinates":[[9.88706,46.16151],[9.88704,46.16148],[9.88681,46.1614]]},"properties":{}},{"type":"Feature","geometry":{"type":"LineString","coordinates":[[9.88706,46.16167],[9.88706,46.16151]]},"properties":{}},{"type":"Feature","geometry":{"type":"LineString","coordinates":[[9.88793,46.1616],[9.88922,46.16169],[9.88929,46.16164]]},"properties":{}},{"type":"Feature","geometry":{"type":"LineString","coordinates":[[9.88793,46.1616],[9.88789,46.16173]]},"properties":{}},{"type":"Feature","geometry":{"type":"LineString","coordinates":[[9.88733,46.16172],[9.88706,46.16167]]},"properties":{}},{"type":"Feature","geometry":{"type":"LineString","coordinates":[[9.88764,46.16173],[9.88733,46.16172]]},"properties":{}},{"type":"Feature","geometry":{"type":"LineString","coordinates":[[9.80577,46.16145],[9.80574,46.1614],[9.80574,46.16123]]},"properties":{}},{"type":"Feature","geometry":{"type":"LineString","coordinates":[[9.80011,46.16142],[9.80017,46.16146]]},"properties":{}},{"type":"Feature","geometry":{"type":"LineString","coordinates":[[9.81649,46.16156],[9.81698,46.16137]]},"properties":{}},{"type":"Feature","geometry":{"type":"LineString","coordinates":[[9.8028,46.16152],[9.8029,46.16147]]},"properties":{}},{"type":"Feature","geometry":{"type":"LineString","coordinates":[[9.80011,46.1615],[9.80025,46.1615]]},"properties":{}},{"type":"Feature","geometry":{"type":"LineString","coordinates":[[9.80025,46.1615],[9.8005,46.16158],[9.80264,46.16159],[9.8028,46.16152]]},"properties":{}},{"type":"Feature","geometry":{"type":"LineString","coordinates":[[9.80017,46.16146],[9.80014,46.16175]]},"properties":{}},{"type":"Feature","geometry":{"type":"LineString","coordinates":[[9.80014,46.16175],[9.80012,46.16178],[9.79965,46.16178]]},"properties":{}},{"type":"Feature","geometry":{"type":"LineString","coordinates":[[9.82546,46.16133],[9.82634,46.16137],[9.82755,46.16133],[9.83186,46.16143],[9.83282,46.16147],[9.83407,46.16159],[9.83988,46.16256],[9.8408,46.16273],[9.8412,46.1629],[9.8413,46.16291],[9.8416,46.16285],[9.8421,46.1629],[9.84245,46.163],[9.84267,46.16315],[9.84276,46.16334]]},"properties":{}},{"type":"Feature","geometry":{"type":"LineString","coordinates":[[9.86096,46.1634],[9.86118,46.16336],[9.86114,46.1632],[9.86116,46.16303],[9.8613,46.16283],[9.86164,46.16268],[9.863,46.16231],[9.86335,46.16216],[9.86418,46.16169],[9.86448,46.16155],[9.86496,46.16149],[9.86792,46.1615],[9.86811,46.16151],[9.86819,46.16153],[9.86828,46.16163],[9.86844,46.16163]]},"properties":{}},{"type":"Feature","geometry":{"type":"LineString","coordinates":[[9.88709,46.16173],[9.88733,46.16172]]},"properties":{}},{"type":"Feature","geometry":{"type":"LineString","coordinates":[[9.88789,46.16173],[9.88764,46.16173]]},"properties":{}},{"type":"Feature","geometry":{"type":"LineString","coordinates":[[9.90754,46.16235],[9.90772,46.16229],[9.90793,46.16212],[9.90832,46.16193],[9.90922,46.16157],[9.91022,46.16129],[9.91124,46.16121]]},"properties":{}},{"type":"Feature","geometry":{"type":"LineString","coordinates":[[9.91115,46.16238],[9.91128,46.16176],[9.91127,46.1615]]},"properties":{}},{"type":"Feature","geometry":{"type":"LineString","coordinates":[[9.86839,46.16072],[9.86841,46.16121],[9.86845,46.1613],[9.86857,46.16142],[9.86856,46.16149],[9.86844,46.16163],[9.86852,46.16353],[9.86859,46.16359],[9.86859,46.16368],[9.86854,46.16373]]},"properties":{}},{"type":"Feature","geometry":{"type":"LineString","coordinates":[[9.88929,46.16164],[9.88937,46.16159],[9.8901,46.16165],[9.89088,46.16175],[9.89185,46.16196],[9.89272,46.16226],[9.89312,46.16243],[9.89352,46.16263],[9.89412,46.16302]]},"properties":{}},{"type":"Feature","geometry":{"type":"LineString","coordinates":[[9.93241,46.16383],[9.93253,46.16394],[9.93286,46.16393],[9.9345,46.16362],[9.9366,46.16316],[9.93824,46.16268],[9.93966,46.16222],[9.93971,46.16218],[9.93971,46.16213],[9.93952,46.16167]]},"properties":{}},{"type":"Feature","geometry":{"type":"LineString","coordinates":[[9.89406,46.16305],[9.89412,46.16302]]},"properties":{}},{"type":"Feature","geometry":{"type":"LineString","coordinates":[[9.89985,46.16374],[9.8999,46.16362],[9.89982,46.16359],[9.89973,46.16362],[9.89964,46.16375],[9.89973,46.16383],[9.90005,46.16394],[9.90106,46.16349],[9.90145,46.16336],[9.90162,46.16327],[9.90194,46.16324],[9.90253,46.1631],[9.90298,46.16317],[9.90352,46.16302]]},"properties":{}},{"type":"Feature","geometry":{"type":"LineString","coordinates":[[9.8989,46.1642],[9.89985,46.16374]]},"properties":{}},{"type":"Feature","geometry":{"type":"LineString","coordinates":[[9.85344,46.16352],[9.85303,46.16337],[9.85259,46.16343],[9.85235,46.16323],[9.85219,46.16317],[9.85106,46.16295],[9.85086,46.16281],[9.8506,46.16255],[9.84986,46.16227],[9.84962,46.16202],[9.84932,46.16179],[9.84917,46.16172],[9.84905,46.16171],[9.84847,46.16172],[9.84749,46.1619],[9.84669,46.16237],[9.84612,46.1628],[9.84581,46.1629]]},"properties":{}},{"type":"Feature","geometry":{"type":"LineString","coordinates":[[9.84581,46.1629],[9.84573,46.16292]]},"properties":{}},{"type":"Feature","geometry":{"type":"LineString","coordinates":[[9.79822,46.16288],[9.79826,46.16291],[9.7982,46.16301],[9.79822,46.16305],[9.79855,46.16316]]},"properties":{}},{"type":"Feature","geometry":{"type":"LineString","coordinates":[[9.84281,46.16335],[9.84318,46.16346],[9.84328,46.16345],[9.84334,46.16341],[9.84344,46.16319],[9.84372,46.16294],[9.84416,46.16289],[9.84539,46.16301]]},"properties":{}},{"type":"Feature","geometry":{"type":"LineString","coordinates":[[9.86096,46.1634],[9.86085,46.16326],[9.86069,46.1632],[9.86059,46.1631],[9.86045,46.16306],[9.85783,46.16274],[9.85763,46.16276],[9.8575,46.16282],[9.85652,46.16366]]},"properties":{}},{"type":"Feature","geometry":{"type":"LineString","coordinates":[[9.79855,46.16316],[9.79877,46.16325]]},"properties":{}},{"type":"Feature","geometry":{"type":"LineString","coordinates":[[9.84573,46.16292],[9.84539,46.16301],[9.84507,46.16316],[9.84503,46.16323],[9.84507,46.16333],[9.84513,46.16342],[9.84536,46.16355],[9.84567,46.16359],[9.84581,46.1637],[9.84603,46.16375],[9.8463,46.16375],[9.84678,46.16356],[9.8471,46.16347],[9.84777,46.16344],[9.84827,46.16347],[9.84865,46.16345],[9.85023,46.16325],[9.85088,46.16343],[9.85166,46.16352],[9.85236,46.16351],[9.85259,46.16343]]},"properties":{}},{"type":"Feature","geometry":{"type":"LineString","coordinates":[[9.84276,46.16334],[9.84281,46.16335]]},"properties":{}},{"type":"Feature","geometry":{"type":"LineString","coordinates":[[9.855,46.16338],[9.85505,46.16335]]},"properties":{}},{"type":"Feature","geometry":{"type":"LineString","coordinates":[[9.85486,46.1633],[9.8551,46.16337],[9.85515,46.16346]]},"properties":{}},{"type":"Feature","geometry":{"type":"LineString","coordinates":[[9.89884,46.16412],[9.89861,46.16428],[9.89867,46.16431]]},"properties":{}},{"type":"Feature","geometry":{"type":"LineString","coordinates":[[9.89867,46.16431],[9.8989,46.1642]]},"properties":{}},{"type":"Feature","geometry":{"type":"LineString","coordinates":[[9.86854,46.16373],[9.86859,46.16484]]},"properties":{}},{"type":"Feature","geometry":{"type":"LineString","coordinates":[[9.87072,46.16586],[9.87583,46.16616],[9.87663,46.16617],[9.87687,46.1661],[9.87705,46.16599],[9.87714,46.16604],[9.87745,46.16579],[9.87762,46.16572],[9.87805,46.16536],[9.87821,46.16529],[9.87828,46.1652],[9.87821,46.16505],[9.87838,46.16472],[9.87857,46.16406],[9.87863,46.16381],[9.87859,46.16367]]},"properties":{}},{"type":"Feature","geometry":{"type":"LineString","coordinates":[[9.89412,46.16302],[9.8942,46.16298],[9.8951,46.16212],[9.89642,46.16289],[9.89752,46.16341],[9.89861,46.16402],[9.8989,46.16413],[9.89908,46.16427],[9.8994,46.16456],[9.90013,46.16594],[9.90056,46.16647],[9.90097,46.16691],[9.9013,46.16719],[9.90175,46.16747],[9.90263,46.16785],[9.90329,46.16793],[9.90383,46.16792]]},"properties":{}},{"type":"Feature","geometry":{"type":"LineString","coordinates":[[9.92979,46.16505],[9.92926,46.16512],[9.92906,46.16521],[9.92905,46.16524]]},"properties":{}},{"type":"Feature","geometry":{"type":"LineString","coordinates":[[9.92902,46.16526],[9.92913,46.16521],[9.92995,46.16508]]},"properties":{}},{"type":"Feature","geometry":{"type":"LineString","coordinates":[[9.92889,46.16535],[9.92902,46.16526]]},"properties":{}},{"type":"Feature","geometry":{"type":"LineString","coordinates":[[9.86854,46.16537],[9.86858,46.16557],[9.86865,46.16571]]},"properties":{}},{"type":"Feature","geometry":{"type":"LineString","coordinates":[[9.86846,46.16572],[9.86853,46.16569],[9.86865,46.16571]]},"properties":{}},{"type":"Feature","geometry":{"type":"LineString","coordinates":[[9.85381,46.16355],[9.85344,46.16352]]},"properties":{}},{"type":"Feature","geometry":{"type":"LineString","coordinates":[[9.855,46.16338],[9.85442,46.16392]]},"properties":{}},{"type":"Feature","geometry":{"type":"LineString","coordinates":[[9.80667,46.16371],[9.8067,46.16379]]},"properties":{}},{"type":"Feature","geometry":{"type":"LineString","coordinates":[[9.80926,46.16322],[9.80926,46.16327],[9.80897,46.16337],[9.80852,46.16369],[9.80831,46.16378],[9.80676,46.16376],[9.80665,46.16382],[9.80656,46.16394],[9.80645,46.16397],[9.80494,46.16397],[9.80492,46.16403],[9.80526,46.16436],[9.80527,46.1644],[9.80516,46.16445]]},"properties":{}},{"type":"Feature","geometry":{"type":"LineString","coordinates":[[9.85381,46.16355],[9.85456,46.164],[9.85524,46.16426]]},"properties":{}},{"type":"Feature","geometry":{"type":"LineString","coordinates":[[9.80516,46.16445],[9.80506,46.16447]]},"properties":{}},{"type":"Feature","geometry":{"type":"LineString","coordinates":[[9.80339,46.16459],[9.803,46.16485],[9.80287,46.16498]]},"properties":{}},{"type":"Feature","geometry":{"type":"LineString","coordinates":[[9.80506,46.16447],[9.805,46.16448],[9.8044,46.16512],[9.80411,46.16527],[9.80404,46.16528],[9.80397,46.1652]]},"properties":{}},{"type":"Feature","geometry":{"type":"LineString","coordinates":[[9.86096,46.16753],[9.86081,46.1674],[9.86039,46.16714],[9.8589,46.16651],[9.85749,46.16597],[9.85667,46.16554],[9.85619,46.1652],[9.85557,46.16454],[9.85511,46.16417],[9.85417,46.16361],[9.85401,46.16354],[9.85381,46.16355]]},"properties":{}},{"type":"Feature","geometry":{"type":"LineString","coordinates":[[9.86493,46.16666],[9.86432,46.16624],[9.86343,46.16541],[9.86311,46.16523],[9.86195,46.1648],[9.86175,46.1647],[9.86158,46.16457]]},"properties":{}},{"type":"Feature","geometry":{"type":"LineString","coordinates":[[9.99395,46.16434],[9.99377,46.16382],[9.99366,46.16365],[9.99295,46.16314],[9.99263,46.16305]]},"properties":{}},{"type":"Feature","geometry":{"type":"LineString","coordinates":[[9.99401,46.16459],[9.99395,46.16434]]},"properties":{}},{"type":"Feature","geometry":{"type":"LineString","coordinates":[[9.99188,46.16465],[9.99188,46.16467]]},"properties":{}},{"type":"Feature","geometry":{"type":"LineString","coordinates":[[9.99163,46.16468],[9.99149,46.16469],[9.99188,46.16465]]},"properties":{}},{"type":"Feature","geometry":{"type":"LineString","coordinates":[[9.99165,46.16476],[9.99163,46.16468]]},"properties":{}},{"type":"Feature","geometry":{"type":"LineString","coordinates":[[9.99168,46.1649],[9.99165,46.16476]]},"properties":{}},{"type":"Feature","geometry":{"type":"LineString","coordinates":[[9.9918,46.16489],[9.99181,46.16491]]},"properties":{}},{"type":"Feature","geometry":{"type":"LineString","coordinates":[[9.99181,46.16496],[9.99181,46.16491]]},"properties":{}},{"type":"Feature","geometry":{"type":"LineString","coordinates":[[9.99181,46.16491],[9.99136,46.16495],[9.99168,46.1649]]},"properties":{}},{"type":"Feature","geometry":{"type":"LineString","coordinates":[[9.99395,46.16817],[9.99201,46.16802],[9.99181,46.16791],[9.99178,46.16786],[9.99199,46.16521],[9.99201,46.16514],[9.99208,46.16507],[9.99221,46.16502],[9.99253,46.16511],[9.99375,46.165],[9.99391,46.16493],[9.994,46.16479],[9.99401,46.16459]]},"properties":{}},{"type":"Feature","geometry":{"type":"LineString","coordinates":[[9.86865,46.16571],[9.86868,46.16573]]},"properties":{}},{"type":"Feature","geometry":{"type":"LineString","coordinates":[[9.86844,46.16575],[9.86846,46.16572]]},"properties":{}},{"type":"Feature","geometry":{"type":"LineString","coordinates":[[9.86868,46.16573],[9.86897,46.1658]]},"properties":{}},{"type":"Feature","geometry":{"type":"LineString","coordinates":[[9.86868,46.16573],[9.8687,46.16578],[9.86867,46.16584]]},"properties":{}},{"type":"Feature","geometry":{"type":"LineString","coordinates":[[9.86847,46.16584],[9.86844,46.16575]]},"properties":{}},{"type":"Feature","geometry":{"type":"LineString","coordinates":[[9.86867,46.16584],[9.86864,46.16586]]},"properties":{}},{"type":"Feature","geometry":{"type":"LineString","coordinates":[[9.86851,46.16586],[9.86847,46.16584]]},"properties":{}},{"type":"Feature","geometry":{"type":"LineString","coordinates":[[9.86864,46.16586],[9.86851,46.16586]]},"properties":{}},{"type":"Feature","geometry":{"type":"LineString","coordinates":[[9.86864,46.16586],[9.86863,46.16606]]},"properties":{}},{"type":"Feature","geometry":{"type":"LineString","coordinates":[[9.86863,46.16606],[9.86851,46.16586]]},"properties":{}},{"type":"Feature","geometry":{"type":"LineString","coordinates":[[9.85639,46.16415],[9.86139,46.16691],[9.86171,46.16707],[9.86198,46.16712],[9.86216,46.16725],[9.86217,46.16734]]},"properties":{}},{"type":"Feature","geometry":{"type":"LineString","coordinates":[[9.86808,46.16586],[9.86218,46.16728]]},"properties":{}},{"type":"Feature","geometry":{"type":"LineString","coordinates":[[9.86089,46.16756],[9.86082,46.16757],[9.8606,46.16751],[9.8604,46.1675],[9.86018,46.16739],[9.85992,46.16723],[9.85982,46.1669]]},"properties":{}},{"type":"Feature","geometry":{"type":"LineString","coordinates":[[9.86071,46.16733],[9.86015,46.16731],[9.86007,46.16743]]},"properties":{}},{"type":"Feature","geometry":{"type":"LineString","coordinates":[[9.86218,46.16728],[9.86089,46.16756]]},"properties":{}},{"type":"Feature","geometry":{"type":"LineString","coordinates":[[9.86109,46.16765],[9.86096,46.16753]]},"properties":{}},{"type":"Feature","geometry":{"type":"LineString","coordinates":[[9.86228,46.1674],[9.86255,46.16744],[9.86315,46.16778]]},"properties":{}},{"type":"Feature","geometry":{"type":"LineString","coordinates":[[9.86297,46.16758],[9.86285,46.16761]]},"properties":{}},{"type":"Feature","geometry":{"type":"LineString","coordinates":[[9.86244,46.16801],[9.86211,46.16789],[9.86109,46.16765]]},"properties":{}},{"type":"Feature","geometry":{"type":"LineString","coordinates":[[9.86315,46.16778],[9.86324,46.16795]]},"properties":{}},{"type":"Feature","geometry":{"type":"LineString","coordinates":[[9.87701,46.16609],[9.87697,46.1662]]},"properties":{}},{"type":"Feature","geometry":{"type":"LineString","coordinates":[[9.87701,46.16623],[9.87723,46.16632]]},"properties":{}},{"type":"Feature","geometry":{"type":"LineString","coordinates":[[9.87723,46.16632],[9.87697,46.16635]]},"properties":{}},{"type":"Feature","geometry":{"type":"LineString","coordinates":[[9.8788,46.1665],[9.87843,46.16642],[9.87723,46.16632]]},"properties":{}},{"type":"Feature","geometry":{"type":"LineString","coordinates":[[9.87047,46.16652],[9.87058,46.16664],[9.87062,46.16664],[9.87053,46.16654],[9.87056,46.16652]]},"properties":{}},{"type":"Feature","geometry":{"type":"LineString","coordinates":[[9.93023,46.16803],[9.92944,46.16672],[9.92912,46.16541],[9.92902,46.16526]]},"properties":{}},{"type":"Feature","geometry":{"type":"LineString","coordinates":[[9.90703,46.16788],[9.90813,46.16818],[9.90891,46.16831],[9.90934,46.16835],[9.9104,46.16829],[9.91138,46.16808],[9.91179,46.16793],[9.91212,46.16777],[9.91291,46.16731],[9.91373,46.16697],[9.91478,46.16665],[9.91603,46.16636],[9.91648,46.16632],[9.91973,46.16643],[9.9211,46.16643],[9.92219,46.16618],[9.92341,46.16582],[9.92464,46.16577],[9.92565,46.16583],[9.92863,46.16526],[9.92878,46.16528],[9.92889,46.16535]]},"properties":{}},{"type":"Feature","geometry":{"type":"LineString","coordinates":[[9.87107,46.167],[9.87134,46.16707]]},"properties":{}},{"type":"Feature","geometry":{"type":"LineString","coordinates":[[9.89671,46.16587],[9.89489,46.1678],[9.89462,46.16803],[9.8942,46.16825],[9.89399,46.16832],[9.8924,46.16862]]},"properties":{}},{"type":"Feature","geometry":{"type":"LineString","coordinates":[[9.89656,46.16584],[9.89647,46.166],[9.8956,46.16696],[9.89482,46.16775],[9.89457,46.16794],[9.89395,46.16824],[9.89356,46.16835],[9.89215,46.1686],[9.89138,46.16866],[9.89135,46.16877]]},"properties":{}},{"type":"Feature","geometry":{"type":"LineString","coordinates":[[9.88228,46.16789],[9.88281,46.16779],[9.88352,46.16773],[9.88407,46.16762]]},"properties":{}},{"type":"Feature","geometry":{"type":"LineString","coordinates":[[9.90627,46.16781],[9.90647,46.1678]]},"properties":{}},{"type":"Feature","geometry":{"type":"LineString","coordinates":[[9.90647,46.1678],[9.90691,46.16786]]},"properties":{}},{"type":"Feature","geometry":{"type":"LineString","coordinates":[[9.90396,46.16792],[9.90543,46.16778],[9.90588,46.16777],[9.90627,46.16781]]},"properties":{}},{"type":"Feature","geometry":{"type":"LineString","coordinates":[[9.90691,46.16786],[9.90703,46.16788]]},"properties":{}},{"type":"Feature","geometry":{"type":"LineString","coordinates":[[9.90383,46.16792],[9.90396,46.16792]]},"properties":{}},{"type":"Feature","geometry":{"type":"LineString","coordinates":[[9.87445,46.16837],[9.87474,46.16775]]},"properties":{}},{"type":"Feature","geometry":{"type":"LineString","coordinates":[[9.93029,46.16812],[9.93023,46.16803]]},"properties":{}},{"type":"Feature","geometry":{"type":"LineString","coordinates":[[9.93047,46.16815],[9.93037,46.16819],[9.93035,46.16833],[9.93032,46.16833],[9.93032,46.16816],[9.93029,46.16812]]},"properties":{}},{"type":"Feature","geometry":{"type":"LineString","coordinates":[[9.89001,46.16865],[9.88865,46.16848],[9.8881,46.1685],[9.88752,46.16857]]},"properties":{}},{"type":"Feature","geometry":{"type":"LineString","coordinates":[[9.86324,46.16795],[9.86354,46.16811]]},"properties":{}},{"type":"Feature","geometry":{"type":"LineString","coordinates":[[9.86249,46.16809],[9.86244,46.16801]]},"properties":{}},{"type":"Feature","geometry":{"type":"LineString","coordinates":[[9.86413,46.16844],[9.86354,46.16811]]},"properties":{}},{"type":"Feature","geometry":{"type":"LineString","coordinates":[[9.85616,46.16719],[9.85582,46.16754],[9.8557,46.16776],[9.85568,46.16791],[9.85569,46.16809],[9.85578,46.16821],[9.85606,46.16846],[9.8565,46.16872],[9.85668,46.16878],[9.85744,46.16891],[9.85759,46.16896],[9.85775,46.16911],[9.85789,46.16915],[9.85829,46.16915],[9.85836,46.16917],[9.85841,46.16926],[9.85835,46.16936],[9.85836,46.16942]]},"properties":{}},{"type":"Feature","geometry":{"type":"LineString","coordinates":[[9.86356,46.16856],[9.86281,46.16813],[9.86249,46.16809]]},"properties":{}},{"type":"Feature","geometry":{"type":"LineString","coordinates":[[9.85974,46.16837],[9.85989,46.1684]]},"properties":{}},{"type":"Feature","geometry":{"type":"LineString","coordinates":[[9.85588,46.16847],[9.85592,46.16835]]},"properties":{}},{"type":"Feature","geometry":{"type":"LineString","coordinates":[[9.85964,46.16846],[9.85967,46.1684],[9.85974,46.16837]]},"properties":{}},{"type":"Feature","geometry":{"type":"LineString","coordinates":[[9.85989,46.1684],[9.85991,46.16846]]},"properties":{}},{"type":"Feature","geometry":{"type":"LineString","coordinates":[[9.85991,46.16846],[9.85988,46.16851]]},"properties":{}},{"type":"Feature","geometry":{"type":"LineString","coordinates":[[9.85968,46.16852],[9.85964,46.16846]]},"properties":{}},{"type":"Feature","geometry":{"type":"LineString","coordinates":[[9.85988,46.16851],[9.8598,46.16855]]},"properties":{}},{"type":"Feature","geometry":{"type":"LineString","coordinates":[[9.85968,46.16854],[9.85968,46.16852]]},"properties":{}},{"type":"Feature","geometry":{"type":"LineString","coordinates":[[9.8598,46.16855],[9.85968,46.16852]]},"properties":{}},{"type":"Feature","geometry":{"type":"LineString","coordinates":[[9.85968,46.16854],[9.86,46.16867],[9.86006,46.16865]]},"properties":{}},{"type":"Feature","geometry":{"type":"LineString","coordinates":[[9.85935,46.16931],[9.85945,46.16895],[9.85968,46.16854],[9.85939,46.16843]]},"properties":{}},{"type":"Feature","geometry":{"type":"LineString","coordinates":[[9.86662,46.16982],[9.86413,46.16844]]},"properties":{}},{"type":"Feature","geometry":{"type":"LineString","coordinates":[[9.86661,46.16982],[9.86761,46.16916],[9.8687,46.16867],[9.86913,46.16852],[9.86945,46.16857]]},"properties":{}},{"type":"Feature","geometry":{"type":"LineString","coordinates":[[9.86631,46.17008],[9.86662,46.16982]]},"properties":{}},{"type":"Feature","geometry":{"type":"LineString","coordinates":[[9.8659,46.17078],[9.86631,46.17008]]},"properties":{}},{"type":"Feature","geometry":{"type":"LineString","coordinates":[[9.8947,46.16844],[9.89492,46.16864],[9.89518,46.16874],[9.89784,46.16861]]},"properties":{}},{"type":"Feature","geometry":{"type":"LineString","coordinates":[[9.89172,46.16873],[9.8924,46.16862]]},"properties":{}},{"type":"Feature","geometry":{"type":"LineString","coordinates":[[9.89001,46.16865],[9.89081,46.16875]]},"properties":{}},{"type":"Feature","geometry":{"type":"LineString","coordinates":[[9.89152,46.16876],[9.89172,46.16873]]},"properties":{}},{"type":"Feature","geometry":{"type":"LineString","coordinates":[[9.89081,46.16875],[9.89114,46.16877]]},"properties":{}},{"type":"Feature","geometry":{"type":"LineString","coordinates":[[9.89114,46.16877],[9.89152,46.16876]]},"properties":{}},{"type":"Feature","geometry":{"type":"LineString","coordinates":[[9.88716,46.16863],[9.88559,46.16891]]},"properties":{}},{"type":"Feature","geometry":{"type":"LineString","coordinates":[[9.86945,46.16857],[9.87006,46.16872],[9.87698,46.17015]]},"properties":{}},{"type":"Feature","geometry":{"type":"LineString","coordinates":[[9.88438,46.17071],[9.88998,46.17055],[9.89155,46.17053],[9.8981,46.1702],[9.89809,46.17015]]},"properties":{}},{"type":"Feature","geometry":{"type":"LineString","coordinates":[[9.86865,46.16992],[9.86878,46.17023],[9.86943,46.17117],[9.86944,46.17122],[9.86934,46.1713]]},"properties":{}},{"type":"Feature","geometry":{"type":"LineString","coordinates":[[9.99683,46.16532],[9.99625,46.16602],[9.99613,46.16629],[9.99609,46.1665],[9.99611,46.16691],[9.99597,46.16785]]},"properties":{}},{"type":"Feature","geometry":{"type":"LineString","coordinates":[[9.99947,46.16736],[10.0,46.16741]]},"properties":{}},{"type":"Feature","geometry":{"type":"LineString","coordinates":[[9.99931,46.16732],[9.99947,46.16736]]},"properties":{}},{"type":"Feature","geometry":{"type":"LineString","coordinates":[[9.9977,46.16825],[9.99931,46.16732]]},"properties":{}},{"type":"Feature","geometry":{"type":"LineString","coordinates":[[9.99597,46.16785],[9.99607,46.16788]]},"properties":{}},{"type":"Feature","geometry":{"type":"LineString","coordinates":[[9.99607,46.16788],[9.99641,46.16796]]},"properties":{}},{"type":"Feature","geometry":{"type":"LineString","coordinates":[[9.99641,46.16796],[9.99777,46.16828]]},"properties":{}},{"type":"Feature","geometry":{"type":"LineString","coordinates":[[9.99597,46.16785],[9.99596,46.16794],[9.99572,46.16849]]},"properties":{}},{"type":"Feature","geometry":{"type":"LineString","coordinates":[[9.994,46.16805],[9.99516,46.1683],[9.99572,46.16849]]},"properties":{}},{"type":"Feature","geometry":{"type":"LineString","coordinates":[[9.98745,46.16843],[9.98761,46.16836],[9.98825,46.16825],[9.98858,46.16825],[9.98887,46.16829]]},"properties":{}},{"type":"Feature","geometry":{"type":"LineString","coordinates":[[9.99261,46.17128],[9.99311,46.17137],[9.99341,46.17131],[9.99358,46.17121],[9.99374,46.17102],[9.99376,46.17089],[9.99382,46.17076],[9.99395,46.17059],[9.99437,46.17029],[9.9948,46.16987],[9.99513,46.16947],[9.99531,46.16924],[9.99535,46.16911],[9.99572,46.16849]]},"properties":{}},{"type":"Feature","geometry":{"type":"LineString","coordinates":[[9.99327,46.1699],[9.99389,46.17004],[9.99437,46.17029]]},"properties":{}},{"type":"Feature","geometry":{"type":"LineString","coordinates":[[9.99344,46.16994],[9.99337,46.17017],[9.99395,46.17059]]},"properties":{}},{"type":"Feature","geometry":{"type":"LineString","coordinates":[[9.87698,46.17086],[9.87703,46.1709],[9.88438,46.17071]]},"properties":{}},{"type":"Feature","geometry":{"type":"LineString","coordinates":[[9.87676,46.1709],[9.87223,46.171]]},"properties":{}},{"type":"Feature","geometry":{"type":"LineString","coordinates":[[9.87366,46.17182],[9.87338,46.17165],[9.87284,46.17156],[9.87231,46.17142]]},"properties":{}},{"type":"Feature","geometry":{"type":"LineString","coordinates":[[9.87446,46.17147],[9.87575,46.17198]]},"properties":{}},{"type":"Feature","geometry":{"type":"LineString","coordinates":[[9.87886,46.17282],[9.87882,46.17314]]},"properties":{}},{"type":"Feature","geometry":{"type":"LineString","coordinates":[[9.89535,46.1736],[9.89579,46.17385],[9.89633,46.17398],[9.89686,46.17405]]},"properties":{}},{"type":"Feature","geometry":{"type":"LineString","coordinates":[[9.89358,46.17408],[9.89383,46.17399],[9.89388,46.17388],[9.89406,46.1738],[9.89466,46.17371],[9.8952,46.17358],[9.89535,46.1736]]},"properties":{}},{"type":"Feature","geometry":{"type":"LineString","coordinates":[[9.89686,46.17405],[9.89905,46.17413]]},"properties":{}},{"type":"Feature","geometry":{"type":"LineString","coordinates":[[9.89905,46.17413],[9.89942,46.17418],[9.89987,46.17437]]},"properties":{}},{"type":"Feature","geometry":{"type":"LineString","coordinates":[[9.89987,46.17437],[9.90006,46.17449],[9.90028,46.17458],[9.90062,46.17462],[9.90138,46.1746]]},"properties":{}},{"type":"Feature","geometry":{"type":"LineString","coordinates":[[9.90138,46.1746],[9.90193,46.1746],[9.90213,46.17465],[9.90226,46.17475],[9.90228,46.17495],[9.90211,46.17503],[9.90141,46.17515],[9.90103,46.17517],[9.89855,46.17507],[9.89833,46.17515],[9.89828,46.17529],[9.89828,46.17553]]},"properties":{}},{"type":"Feature","geometry":{"type":"LineString","coordinates":[[9.91142,46.17588],[9.91136,46.17596],[9.9111,46.176]]},"properties":{}},{"type":"Feature","geometry":{"type":"LineString","coordinates":[[9.89178,46.17641],[9.89184,46.17648],[9.89261,46.17692],[9.89294,46.17702],[9.89412,46.17693],[9.89483,46.17674],[9.89538,46.17675],[9.89569,46.17672]]},"properties":{}},{"type":"Feature","geometry":{"type":"LineString","coordinates":[[9.90346,46.17697],[9.90376,46.17682],[9.90392,46.17666],[9.90403,46.17649]]},"properties":{}},{"type":"Feature","geometry":{"type":"LineString","coordinates":[[9.90463,46.17665],[9.90474,46.17664],[9.90501,46.17683],[9.90517,46.17679],[9.90524,46.17664]]},"properties":{}},{"type":"Feature","geometry":{"type":"LineString","coordinates":[[9.90489,46.17699],[9.90479,46.17685],[9.9046,46.17672],[9.90463,46.17665]]},"properties":{}},{"type":"Feature","geometry":{"type":"LineString","coordinates":[[9.9111,46.176],[9.91042,46.17621],[9.90981,46.17626],[9.90933,46.17644],[9.90841,46.17628],[9.90815,46.17628],[9.90806,46.1763],[9.90798,46.17639],[9.90797,46.17662],[9.90793,46.17674],[9.90781,46.17687],[9.90717,46.17727],[9.90634,46.17767],[9.90619,46.17777]]},"properties":{}},{"type":"Feature","geometry":{"type":"LineString","coordinates":[[9.90463,46.17691],[9.90429,46.1769]]},"properties":{}},{"type":"Feature","geometry":{"type":"LineString","coordinates":[[9.90489,46.17699],[9.90485,46.177],[9.90473,46.17692],[9.90463,46.17691]]},"properties":{}},{"type":"Feature","geometry":{"type":"LineString","coordinates":[[9.90687,46.17649],[9.90692,46.17653],[9.90692,46.1767],[9.90684,46.17687],[9.9066,46.17703],[9.90629,46.17718],[9.90614,46.1773],[9.90609,46.17754],[9.90617,46.17772],[9.90621,46.17775]]},"properties":{}},{"type":"Feature","geometry":{"type":"LineString","coordinates":[[9.88874,46.17752],[9.88892,46.17748],[9.88897,46.1774],[9.88894,46.17729],[9.88874,46.17701]]},"properties":{}},{"type":"Feature","geometry":{"type":"LineString","coordinates":[[9.90677,46.17771],[9.90695,46.17764],[9.907,46.17754],[9.9071,46.17745],[9.90746,46.17724],[9.90743,46.1772],[9.9075,46.17718],[9.90772,46.17703]]},"properties":{}},{"type":"Feature","geometry":{"type":"LineString","coordinates":[[9.90591,46.1778],[9.90529,46.17753],[9.90506,46.17727],[9.90489,46.17699]]},"properties":{}},{"type":"Feature","geometry":{"type":"LineString","coordinates":[[9.91044,46.17774],[9.91059,46.17768],[9.91088,46.17764],[9.91131,46.17783],[9.91128,46.17756],[9.91135,46.17749],[9.91184,46.17728],[9.9134,46.17719],[9.91475,46.17699],[9.91531,46.17703],[9.91602,46.17719],[9.91631,46.1773]]},"properties":{}},{"type":"Feature","geometry":{"type":"LineString","coordinates":[[9.88448,46.17752],[9.88469,46.17752],[9.88487,46.1776],[9.88524,46.17763],[9.88695,46.17767],[9.88749,46.17771],[9.88809,46.17757],[9.88874,46.17752]]},"properties":{}},{"type":"Feature","geometry":{"type":"LineString","coordinates":[[9.90677,46.17771],[9.9065,46.17768],[9.90643,46.17763]]},"properties":{}},{"type":"Feature","geometry":{"type":"LineString","coordinates":[[9.9072,46.17793],[9.90758,46.17772],[9.90883,46.17751],[9.90948,46.17758],[9.91035,46.17775],[9.91044,46.17774]]},"properties":{}},{"type":"Feature","geometry":{"type":"LineString","coordinates":[[9.89904,46.17859],[9.89902,46.17849],[9.89911,46.17833],[9.89928,46.17821],[9.90065,46.17803],[9.90154,46.17752],[9.90258,46.1773],[9.90346,46.17697]]},"properties":{}},{"type":"Feature","geometry":{"type":"LineString","coordinates":[[9.90619,46.17777],[9.90607,46.17781]]},"properties":{}},{"type":"Feature","geometry":{"type":"LineString","coordinates":[[9.91074,46.17794],[9.9107,46.17787],[9.91071,46.17773],[9.91067,46.17766]]},"properties":{}},{"type":"Feature","geometry":{"type":"LineString","coordinates":[[9.90607,46.17781],[9.90591,46.1778]]},"properties":{}},{"type":"Feature","geometry":{"type":"LineString","coordinates":[[9.9072,46.17793],[9.9065,46.17791],[9.90639,46.17786],[9.90645,46.17781],[9.90677,46.17774],[9.90677,46.17771]]},"properties":{}},{"type":"Feature","geometry":{"type":"LineString","coordinates":[[9.91044,46.17774],[9.91047,46.17784],[9.9104,46.1779],[9.90993,46.17793],[9.90997,46.17799],[9.91002,46.178],[9.9102,46.17797],[9.91054,46.17801],[9.91094,46.17787],[9.91093,46.17777],[9.91098,46.1777]]},"properties":{}},{"type":"Feature","geometry":{"type":"LineString","coordinates":[[9.87642,46.17845],[9.87787,46.17838],[9.87827,46.17839],[9.87918,46.17835],[9.87996,46.17837],[9.88138,46.17829],[9.88188,46.17822],[9.88216,46.17815],[9.88299,46.17783],[9.88343,46.17772],[9.88368,46.17763],[9.88412,46.1776],[9.88448,46.17752]]},"properties":{}},{"type":"Feature","geometry":{"type":"LineString","coordinates":[[9.89522,46.17826],[9.89515,46.17827],[9.89449,46.1782]]},"properties":{}},{"type":"Feature","geometry":{"type":"LineString","coordinates":[[9.89449,46.1782],[9.89377,46.17851]]},"properties":{}},{"type":"Feature","geometry":{"type":"LineString","coordinates":[[9.90445,46.17824],[9.90442,46.17842],[9.90446,46.1786],[9.90451,46.1786],[9.90451,46.17854],[9.90461,46.17853],[9.90462,46.17849],[9.90459,46.17849],[9.90465,46.17821],[9.90482,46.17818],[9.9048,46.17816],[9.9046,46.17815],[9.90457,46.17825],[9.90445,46.17824]]},"properties":{}},{"type":"Feature","geometry":{"type":"LineString","coordinates":[[9.9041,46.17851],[9.90407,46.17843],[9.90401,46.1784]]},"properties":{}},{"type":"Feature","geometry":{"type":"LineString","coordinates":[[9.87606,46.17848],[9.87642,46.17845]]},"properties":{}},{"type":"Feature","geometry":{"type":"LineString","coordinates":[[9.89904,46.17859],[9.89875,46.17857],[9.89777,46.17872],[9.89721,46.17875],[9.89689,46.17865],[9.89664,46.17849],[9.89598,46.17827],[9.89556,46.17822],[9.89522,46.17826]]},"properties":{}},{"type":"Feature","geometry":{"type":"LineString","coordinates":[[9.8704,46.17874],[9.87043,46.1786],[9.87041,46.17844],[9.87105,46.17837],[9.87182,46.1784],[9.8726,46.17837],[9.87415,46.17848],[9.87519,46.17846],[9.87554,46.17853],[9.87585,46.17852],[9.87606,46.17848]]},"properties":{}},{"type":"Feature","geometry":{"type":"LineString","coordinates":[[9.91032,46.17848],[9.90928,46.17867]]},"properties":{}},{"type":"Feature","geometry":{"type":"LineString","coordinates":[[9.90401,46.1784],[9.90064,46.17872],[9.89994,46.17875],[9.89938,46.17876],[9.89914,46.17869],[9.89904,46.17859]]},"properties":{}},{"type":"Feature","geometry":{"type":"LineString","coordinates":[[9.90361,46.17878],[9.90376,46.17866],[9.9041,46.17851]]},"properties":{}},{"type":"Feature","geometry":{"type":"LineString","coordinates":[[9.89377,46.17851],[9.89355,46.17853],[9.89304,46.17842],[9.89266,46.17845],[9.89184,46.17858],[9.89121,46.17878],[9.8905,46.17889],[9.89013,46.17899],[9.88964,46.17905]]},"properties":{}},{"type":"Feature","geometry":{"type":"LineString","coordinates":[[9.90361,46.17878],[9.90353,46.17888]]},"properties":{}},{"type":"Feature","geometry":{"type":"LineString","coordinates":[[9.90218,46.1791],[9.90197,46.17881],[9.90164,46.17886],[9.90124,46.17883],[9.901,46.17875],[9.90092,46.17869]]},"properties":{}},{"type":"Feature","geometry":{"type":"LineString","coordinates":[[9.8955,46.17911],[9.89578,46.17901],[9.89595,46.17898],[9.89613,46.17901],[9.89627,46.17898],[9.89692,46.17896],[9.89728,46.179],[9.89788,46.17888]]},"properties":{}},{"type":"Feature","geometry":{"type":"LineString","coordinates":[[9.8994,46.17932],[9.89979,46.17937],[9.90075,46.17931],[9.90111,46.17938],[9.90121,46.17926],[9.90134,46.17917],[9.90201,46.1791],[9.9024,46.17909],[9.9028,46.17896],[9.90361,46.17878]]},"properties":{}},{"type":"Feature","geometry":{"type":"LineString","coordinates":[[9.89904,46.17859],[9.89788,46.17888],[9.89533,46.17961]]},"properties":{}},{"type":"Feature","geometry":{"type":"LineString","coordinates":[[9.90383,46.17935],[9.90335,46.17923],[9.90276,46.17922],[9.90275,46.17918],[9.90283,46.17915],[9.90324,46.17903],[9.90353,46.17888]]},"properties":{}},{"type":"Feature","geometry":{"type":"LineString","coordinates":[[9.89391,46.17939],[9.89416,46.17931],[9.8946,46.17922],[9.89538,46.17918],[9.8955,46.17911]]},"properties":{}},{"type":"Feature","geometry":{"type":"LineString","coordinates":[[9.90757,46.1791],[9.90731,46.17928],[9.90712,46.17948],[9.90692,46.17961],[9.90665,46.17961]]},"properties":{}},{"type":"Feature","geometry":{"type":"LineString","coordinates":[[9.90649,46.17958],[9.90591,46.17948],[9.90568,46.17929],[9.90551,46.17922],[9.90534,46.17918],[9.90509,46.1792],[9.90426,46.17946]]},"properties":{}},{"type":"Feature","geometry":{"type":"LineString","coordinates":[[9.90426,46.17946],[9.90422,46.17942],[9.90383,46.17935]]},"properties":{}},{"type":"Feature","geometry":{"type":"LineString","coordinates":[[9.89381,46.17942],[9.89391,46.17939]]},"properties":{}},{"type":"Feature","geometry":{"type":"LineString","coordinates":[[9.91207,46.17983],[9.91185,46.17978],[9.91157,46.17979],[9.91107,46.17985],[9.91036,46.17979],[9.91008,46.1798],[9.91002,46.17975],[9.91005,46.17971],[9.91073,46.17958],[9.9108,46.17956],[9.91081,46.17952],[9.91071,46.17947],[9.91043,46.17949],[9.9095,46.17941],[9.90786,46.17941],[9.9076,46.17948],[9.90738,46.17967],[9.90728,46.17967],[9.90728,46.17958],[9.90741,46.17945],[9.90753,46.17927],[9.90786,46.17914],[9.90789,46.17907],[9.90785,46.17903],[9.9078,46.17903],[9.90757,46.1791]]},"properties":{}},{"type":"Feature","geometry":{"type":"LineString","coordinates":[[9.89283,46.17968],[9.89335,46.17963],[9.89381,46.17942]]},"properties":{}},{"type":"Feature","geometry":{"type":"LineString","coordinates":[[9.90665,46.17961],[9.90649,46.17958]]},"properties":{}},{"type":"Feature","geometry":{"type":"LineString","coordinates":[[9.89533,46.17961],[9.89515,46.17965],[9.89514,46.17969]]},"properties":{}},{"type":"Feature","geometry":{"type":"LineString","coordinates":[[9.9108,46.17956],[9.91108,46.17963],[9.91138,46.1795],[9.91144,46.17952],[9.91145,46.17957],[9.91124,46.17968],[9.91124,46.17974],[9.9113,46.17977],[9.91176,46.1797],[9.91192,46.17973],[9.91207,46.17983]]},"properties":{}},{"type":"Feature","geometry":{"type":"LineString","coordinates":[[9.89514,46.17969],[9.89554,46.1798],[9.89555,46.17982],[9.89544,46.1799],[9.89522,46.17992],[9.89437,46.17985],[9.89374,46.17988]]},"properties":{}},{"type":"Feature","geometry":{"type":"LineString","coordinates":[[9.92042,46.18017],[9.91956,46.18016],[9.91727,46.17986],[9.91692,46.17984],[9.91653,46.17992],[9.91628,46.17993],[9.91544,46.17965],[9.91522,46.17963],[9.91473,46.17965],[9.91436,46.1797],[9.91316,46.17976],[9.91255,46.1799],[9.91207,46.17983]]},"properties":{}},{"type":"Feature","geometry":{"type":"LineString","coordinates":[[9.89062,46.18014],[9.89063,46.18011],[9.89152,46.1799],[9.892,46.17986],[9.89251,46.17978],[9.89283,46.17968]]},"properties":{}},{"type":"Feature","geometry":{"type":"LineString","coordinates":[[9.89188,46.18014],[9.89195,46.18009],[9.89227,46.18007],[9.89278,46.17998],[9.89331,46.17999],[9.89374,46.17988]]},"properties":{}},{"type":"Feature","geometry":{"type":"LineString","coordinates":[[9.90291,46.18033],[9.90298,46.18026],[9.90269,46.17999],[9.90239,46.18006]]},"properties":{}},{"type":"Feature","geometry":{"type":"LineString","coordinates":[[9.9002,46.18105],[9.90061,46.18095],[9.90137,46.18067],[9.90191,46.1803],[9.90239,46.18006],[9.90262,46.17977],[9.90293,46.17961],[9.90315,46.17955],[9.90344,46.17951],[9.90417,46.17955],[9.90424,46.17951],[9.90426,46.17946]]},"properties":{}},{"type":"Feature","geometry":{"type":"LineString","coordinates":[[9.90434,46.18038],[9.90421,46.1804],[9.9039,46.18054],[9.90374,46.18054],[9.9033,46.18046],[9.90263,46.18027],[9.90213,46.18034],[9.90156,46.18055]]},"properties":{}},{"type":"Feature","geometry":{"type":"LineString","coordinates":[[9.89188,46.18014],[9.89192,46.18017],[9.89235,46.18023],[9.89304,46.18028],[9.89392,46.18044],[9.89471,46.18051],[9.89587,46.18074],[9.8966,46.18094],[9.89677,46.18095]]},"properties":{}},{"type":"Feature","geometry":{"type":"LineString","coordinates":[[9.89951,46.18105],[9.90002,46.18111],[9.9002,46.18105]]},"properties":{}},{"type":"Feature","geometry":{"type":"LineString","coordinates":[[9.89677,46.18095],[9.8978,46.18138],[9.89825,46.18144],[9.89856,46.18142],[9.89879,46.18132],[9.89888,46.18126],[9.89892,46.18117],[9.89904,46.18112],[9.89951,46.18105]]},"properties":{}},{"type":"Feature","geometry":{"type":"LineString","coordinates":[[9.89713,46.18109],[9.89689,46.1811],[9.89638,46.18122],[9.89528,46.18131],[9.89471,46.18146]]},"properties":{}},{"type":"Feature","geometry":{"type":"LineString","coordinates":[[9.89982,46.18162],[9.89859,46.1816],[9.89828,46.18154],[9.89825,46.18144]]},"properties":{}},{"type":"Feature","geometry":{"type":"LineString","coordinates":[[9.90055,46.18159],[9.90045,46.18158],[9.9002,46.1817],[9.89982,46.18162]]},"properties":{}},{"type":"Feature","geometry":{"type":"LineString","coordinates":[[9.89995,46.18191],[9.90026,46.18195],[9.90036,46.18193],[9.90056,46.18165],[9.90055,46.18159]]},"properties":{}},{"type":"Feature","geometry":{"type":"LineString","coordinates":[[9.89894,46.18218],[9.8991,46.18218],[9.8992,46.18208],[9.89932,46.18203],[9.89995,46.18191]]},"properties":{}},{"type":"Feature","geometry":{"type":"LineString","coordinates":[[9.90435,46.18345],[9.90428,46.18339],[9.9043,46.18326],[9.90442,46.18311],[9.905,46.18289],[9.9054,46.18284],[9.90582,46.18293],[9.90638,46.18282],[9.90672,46.18281],[9.90688,46.18276],[9.9069,46.18268],[9.90687,46.18257],[9.90672,46.18239],[9.90675,46.18228],[9.90688,46.18218],[9.90704,46.18213],[9.90733,46.18214],[9.90747,46.18212],[9.90752,46.18206],[9.9075,46.18201],[9.90736,46.18196],[9.90646,46.18188],[9.90619,46.18182],[9.90601,46.18183],[9.90565,46.18198],[9.90552,46.18194],[9.90561,46.18183],[9.9059,46.18168],[9.90676,46.18153],[9.90721,46.18152],[9.90733,46.18148],[9.90733,46.18143],[9.90717,46.18136],[9.90626,46.1812],[9.90595,46.1811],[9.90553,46.18111],[9.90499,46.18123],[9.90436,46.1813],[9.90367,46.18145],[9.9019,46.18139],[9.90161,46.18143],[9.9012,46.18155],[9.90068,46.18161],[9.90055,46.18159]]},"properties":{}},{"type":"Feature","geometry":{"type":"LineString","coordinates":[[9.90396,46.18709],[9.90381,46.18697],[9.90322,46.18673],[9.90212,46.18639],[9.90141,46.18621],[9.90088,46.186],[9.90059,46.18596],[9.90054,46.18589],[9.90062,46.18584],[9.90127,46.18591],[9.90151,46.18597],[9.90157,46.18595],[9.90151,46.18588],[9.90124,46.18581],[9.90063,46.18555],[9.90038,46.18547],[9.90014,46.18545],[9.90006,46.18539],[9.9001,46.18533],[9.90024,46.18532],[9.90104,46.18537],[9.90157,46.18546],[9.90222,46.18544],[9.90259,46.1855],[9.90267,46.18546],[9.90264,46.18539],[9.90186,46.18515],[9.90145,46.18515],[9.90141,46.18508],[9.90147,46.18504],[9.9022,46.18501],[9.90284,46.18506],[9.90334,46.18517],[9.9038,46.18518],[9.90463,46.18513],[9.90506,46.18505],[9.90595,46.18504],[9.90639,46.185],[9.9065,46.18492],[9.9065,46.18488],[9.90639,46.18482],[9.9055,46.18477],[9.9052,46.18472],[9.90487,46.18461],[9.90453,46.18462],[9.90384,46.18452],[9.90335,46.18449],[9.90318,46.18441],[9.9032,46.18435],[9.90326,46.18434],[9.90381,46.18437],[9.90471,46.18418],[9.90587,46.18398],[9.90649,46.18395],[9.90666,46.18392],[9.90671,46.18387],[9.90668,46.18378],[9.90662,46.18374],[9.90578,46.18354],[9.90495,46.18347],[9.90435,46.18345]]},"properties":{}},{"type":"Feature","geometry":{"type":"LineString","coordinates":[[9.9039,46.18715],[9.90396,46.18709]]},"properties":{}},{"type":"Feature","geometry":{"type":"LineString","coordinates":[[9.90272,46.18792],[9.90236,46.18763],[9.90203,46.18725],[9.90199,46.18719],[9.902,46.18715],[9.90215,46.18712],[9.90251,46.18732],[9.90274,46.18738],[9.90284,46.18735],[9.90285,46.18732],[9.90278,46.18726],[9.90254,46.18714],[9.90251,46.18709],[9.90252,46.18704],[9.90303,46.18709],[9.90364,46.18709],[9.9039,46.18715]]},"properties":{}},{"type":"Feature","geometry":{"type":"LineString","coordinates":[[9.88459,46.18793],[9.88469,46.18787],[9.88479,46.18787],[9.88547,46.18773],[9.88703,46.18755]]},"properties":{}},{"type":"Feature","geometry":{"type":"LineString","coordinates":[[9.88703,46.18755],[9.88808,46.18752],[9.88854,46.18754],[9.88869,46.1875],[9.88932,46.18749],[9.8905,46.18768],[9.89321,46.18761],[9.89355,46.18766],[9.89464,46.1877],[9.89527,46.18775],[9.89562,46.18782],[9.89629,46.18803],[9.89729,46.18827],[9.89745,46.18834],[9.89758,46.18835],[9.89763,46.18832],[9.89758,46.18828],[9.89716,46.18816],[9.89679,46.18801],[9.89628,46.18766],[9.89586,46.18743],[9.89583,46.18737],[9.89593,46.18735],[9.89714,46.18776],[9.89776,46.18789],[9.89812,46.1879],[9.89888,46.18784],[9.89937,46.18786],[9.90047,46.18793],[9.90071,46.18798],[9.90092,46.18807]]},"properties":{}},{"type":"Feature","geometry":{"type":"LineString","coordinates":[[9.90237,46.18808],[9.90249,46.18806],[9.90304,46.18825],[9.90312,46.18823],[9.9031,46.18814],[9.90272,46.18792]]},"properties":{}},{"type":"Feature","geometry":{"type":"LineString","coordinates":[[9.87266,46.18797],[9.87243,46.18822],[9.87221,46.18859]]},"properties":{}},{"type":"Feature","geometry":{"type":"LineString","coordinates":[[9.90092,46.18807],[9.90136,46.18831],[9.90176,46.18847],[9.90232,46.18853],[9.90326,46.18877],[9.90335,46.18875],[9.90337,46.18871],[9.9033,46.18865],[9.90301,46.18858],[9.90283,46.18849],[9.90265,46.1883],[9.90241,46.18815],[9.90237,46.18808]]},"properties":{}},{"type":"Feature","geometry":{"type":"LineString","coordinates":[[9.87221,46.18859],[9.87204,46.18919],[9.87209,46.19036],[9.87189,46.19142],[9.87192,46.19163],[9.87214,46.19226]]},"properties":{}},{"type":"Feature","geometry":{"type":"LineString","coordinates":[[9.87141,46.19096],[9.87126,46.19116],[9.871,46.19132],[9.87073,46.19158],[9.87077,46.19214]]},"properties":{}},{"type":"Feature","geometry":{"type":"LineString","coordinates":[[9.87077,46.19214],[9.87079,46.19232]]},"properties":{}},{"type":"Feature","geometry":{"type":"LineString","coordinates":[[9.87079,46.19232],[9.87082,46.19249],[9.8707,46.19252],[9.87061,46.1925],[9.87055,46.19253],[9.87056,46.19276],[9.8707,46.19318],[9.87067,46.1934],[9.87058,46.19364],[9.87054,46.19395],[9.87069,46.19458],[9.87062,46.1948],[9.87049,46.195],[9.87033,46.19516],[9.87022,46.19567],[9.87014,46.1959]]},"properties":{}},{"type":"Feature","geometry":{"type":"LineString","coordinates":[[9.87014,46.1959],[9.8703,46.19604],[9.87057,46.19641],[9.87127,46.19666],[9.87152,46.1968],[9.87183,46.19709],[9.872,46.19716]]},"properties":{}},{"type":"Feature","geometry":{"type":"LineString","coordinates":[[9.86571,46.17081],[9.8659,46.17078]]},"properties":{}},{"type":"Feature","geometry":{"type":"LineString","coordinates":[[9.86636,46.17105],[9.86571,46.17081]]},"properties":{}},{"type":"Feature","geometry":{"type":"LineString","coordinates":[[9.86803,46.17169],[9.86636,46.17105]]},"properties":{}},{"type":"Feature","geometry":{"type":"LineString","coordinates":[[9.86719,46.19216],[9.86716,46.19203],[9.86748,46.19134],[9.8675,46.19062],[9.86748,46.1905],[9.86724,46.19005],[9.86716,46.18961],[9.86719,46.18934],[9.86709,46.18887],[9.86657,46.18775],[9.86644,46.18683],[9.86637,46.18664],[9.86593,46.18618],[9.86593,46.1859],[9.86582,46.18545],[9.86583,46.18536],[9.86606,46.185],[9.8661,46.18464],[9.86567,46.18358],[9.86558,46.18306],[9.8655,46.18296],[9.86535,46.18287]]},"properties":{}},{"type":"Feature","geometry":{"type":"LineString","coordinates":[[9.86984,46.20445],[9.86948,46.20494],[9.86823,46.20703],[9.86791,46.20736],[9.86768,46.20772],[9.86762,46.20799],[9.86758,46.20838],[9.86761,46.2088],[9.86739,46.20915],[9.86699,46.21023],[9.86688,46.21059],[9.86691,46.21084],[9.86685,46.21113],[9.86659,46.21195],[9.86636,46.21251],[9.86635,46.21265],[9.86639,46.21271],[9.8667,46.21279],[9.8669,46.2128]]},"properties":{}},{"type":"Feature","geometry":{"type":"LineString","coordinates":[[9.86484,46.21425],[9.86474,46.2143],[9.86455,46.21451],[9.86444,46.21457],[9.86402,46.21509],[9.86384,46.21525],[9.86375,46.21547],[9.86375,46.21561],[9.86336,46.21639],[9.86331,46.21655],[9.86323,46.21661],[9.8632,46.2167]]},"properties":{}},{"type":"Feature","geometry":{"type":"LineString","coordinates":[[9.86399,46.21737],[9.86385,46.21752],[9.86346,46.21809],[9.863,46.21856],[9.86252,46.21897],[9.86233,46.2192],[9.86213,46.21991],[9.86203,46.22011],[9.86189,46.22026],[9.8618,46.22043],[9.86179,46.22053],[9.86185,46.22073],[9.86159,46.22107],[9.86154,46.22127],[9.86166,46.22157],[9.8616,46.22167],[9.8613,46.22188],[9.86115,46.22202],[9.86109,46.22215],[9.8611,46.22232],[9.86103,46.22245],[9.86085,46.22257],[9.86065,46.22275],[9.86018,46.22331],[9.85993,46.2237],[9.85986,46.22388],[9.85984,46.2241],[9.85963,46.22445],[9.85914,46.225],[9.85888,46.22538],[9.85871,46.22571],[9.85862,46.22615],[9.85846,46.22621],[9.85854,46.22619]]},"properties":{}},{"type":"Feature","geometry":{"type":"LineString","coordinates":[[9.85854,46.22619],[9.85825,46.22627]]},"properties":{}},{"type":"Feature","geometry":{"type":"LineString","coordinates":[[9.85825,46.22627],[9.85816,46.22633],[9.85804,46.22652],[9.85779,46.22702],[9.85737,46.22747]]},"properties":{}},{"type":"Feature","geometry":{"type":"LineString","coordinates":[[9.85737,46.22747],[9.85735,46.22752]]},"properties":{}},{"type":"Feature","geometry":{"type":"LineString","coordinates":[[9.87102,46.19936],[9.87111,46.19941],[9.87115,46.19949],[9.87115,46.19962],[9.87108,46.19979],[9.87092,46.19988],[9.87043,46.19989],[9.87103,46.20009],[9.87131,46.20015],[9.87135,46.20019],[9.87123,46.2002],[9.87065,46.2001],[9.87039,46.20018],[9.87016,46.20028],[9.87014,46.20031],[9.87064,46.20021],[9.8709,46.20026],[9.87091,46.20028],[9.87078,46.2003],[9.87118,46.20041],[9.8712,46.20044],[9.87096,46.20043],[9.87075,46.20054],[9.87074,46.20057],[9.87077,46.20058],[9.87122,46.20057],[9.87125,46.20059],[9.87094,46.20071],[9.87062,46.20094],[9.87067,46.20097],[9.87116,46.2009],[9.8712,46.20092],[9.87119,46.20094],[9.87083,46.20116],[9.87075,46.20127],[9.87068,46.20158],[9.8706,46.20169],[9.8702,46.20203],[9.86995,46.2022],[9.87,46.20222],[9.87082,46.20207],[9.87089,46.20207],[9.87092,46.20211],[9.8709,46.20217],[9.8708,46.20225],[9.87026,46.2025],[9.86986,46.20254],[9.86994,46.20258],[9.87029,46.20263],[9.87066,46.20258],[9.87069,46.20261],[9.87026,46.2028],[9.87009,46.20281],[9.86986,46.20277],[9.86989,46.20282],[9.87015,46.20293],[9.87051,46.20295],[9.87058,46.20299],[9.87055,46.20302],[9.87031,46.20305],[9.86964,46.20306],[9.86965,46.20311],[9.87034,46.20331],[9.86972,46.20342],[9.8697,46.20346],[9.8697,46.20362],[9.86964,46.20372]]},"properties":{}},{"type":"Feature","geometry":{"type":"LineString","coordinates":[[9.86959,46.20373],[9.86964,46.20372]]},"properties":{}},{"type":"Feature","geometry":{"type":"LineString","coordinates":[[9.86964,46.20372],[9.86972,46.20392],[9.86988,46.2042],[9.86984,46.20445]]},"properties":{}},{"type":"Feature","geometry":{"type":"LineString","coordinates":[[9.86971,46.20439],[9.86984,46.20445]]},"properties":{}},{"type":"Feature","geometry":{"type":"LineString","coordinates":[[9.85735,46.22752],[9.85734,46.22757]]},"properties":{}},{"type":"Feature","geometry":{"type":"LineString","coordinates":[[9.85734,46.22757],[9.8573,46.22774],[9.85711,46.22797],[9.85701,46.22817],[9.85618,46.22924],[9.85551,46.23017],[9.85535,46.2305],[9.85532,46.23083],[9.85499,46.23124],[9.85472,46.23172]]},"properties":{}},{"type":"Feature","geometry":{"type":"LineString","coordinates":[[9.85472,46.23172],[9.85476,46.23132],[9.85469,46.23093],[9.85475,46.23079]]},"properties":{}},{"type":"Feature","geometry":{"type":"LineString","coordinates":[[9.85472,46.23172],[9.85471,46.23189],[9.85457,46.23221],[9.8538,46.23321],[9.85362,46.23361],[9.85321,46.23426],[9.85294,46.23483],[9.85251,46.23546],[9.8524,46.23544],[9.85236,46.2355]]},"properties":{}},{"type":"Feature","geometry":{"type":"LineString","coordinates":[[9.85236,46.2355],[9.85244,46.23568]]},"properties":{}},{"type":"Feature","geometry":{"type":"LineString","coordinates":[[9.85244,46.23568],[9.85222,46.23585],[9.85216,46.23577],[9.85196,46.23578]]},"properties":{}},{"type":"Feature","geometry":{"type":"LineString","coordinates":[[9.85073,46.23948],[9.85086,46.23952],[9.85095,46.2397],[9.85146,46.24028],[9.8516,46.24055],[9.85167,46.24075],[9.85171,46.24104],[9.85171,46.24154],[9.85167,46.24177],[9.85126,46.24246],[9.85096,46.24282]]},"properties":{}},{"type":"Feature","geometry":{"type":"LineString","coordinates":[[9.85096,46.24282],[9.85087,46.24308],[9.85082,46.24311],[9.85076,46.24325],[9.85072,46.2435],[9.85064,46.24369],[9.85055,46.2438],[9.85035,46.24427],[9.85033,46.24452],[9.85023,46.2448],[9.85024,46.24488]]},"properties":{}},{"type":"Feature","geometry":{"type":"LineString","coordinates":[[9.85024,46.24488],[9.85031,46.24508],[9.85021,46.24537],[9.84957,46.24595],[9.84944,46.24613],[9.8493,46.24645]]},"properties":{}},{"type":"Feature","geometry":{"type":"LineString","coordinates":[[9.8493,46.24645],[9.8492,46.24752],[9.8491,46.24773],[9.84919,46.24875],[9.84919,46.24923]]},"properties":{}},{"type":"Feature","geometry":{"type":"LineString","coordinates":[[9.84919,46.24923],[9.84922,46.24931],[9.84941,46.24942],[9.84949,46.24956],[9.84943,46.24964],[9.84941,46.25]]},"properties":{}}]}