{"type":"FeatureCollection","features":[{"type":"Feature","geometry":{"type":"LineString","coordinates":[[9.87161,46.25794],[9.87147,46.25814],[9.87139,46.25837],[9.87117,46.25863],[9.87102,46.25872],[9.87085,46.25863],[9.87052,46.25861],[9.87045,46.25863],[9.87033,46.25877],[9.87011,46.25886],[9.87009,46.25896],[9.86964,46.25901],[9.86889,46.25894],[9.86873,46.25887],[9.86862,46.25879],[9.86858,46.2588],[9.86859,46.2589],[9.86849,46.25888],[9.86839,46.25876],[9.86807,46.25868],[9.86798,46.25851],[9.8679,46.25843],[9.86703,46.25812],[9.86672,46.25829],[9.86652,46.25828],[9.86638,46.25815],[9.86605,46.258],[9.86539,46.25793],[9.86534,46.25799],[9.86542,46.25809],[9.86558,46.25815],[9.86505,46.25836],[9.86504,46.2584],[9.86511,46.25845],[9.86552,46.25852],[9.8656,46.25859],[9.86555,46.25866],[9.86512,46.25879],[9.86529,46.2589],[9.86532,46.25902],[9.86537,46.25908],[9.8653,46.25914],[9.86533,46.2592],[9.86528,46.25938],[9.86522,46.25946],[9.86523,46.25965]]},"properties":{}},{"type":"Feature","geometry":{"type":"LineString","coordinates":[[9.87558,46.26734],[9.87446,46.26698],[9.87377,46.26662],[9.8723,46.26629],[9.87142,46.26631],[9.8712,46.26629],[9.8709,46.26637],[9.87079,46.26637],[9.87055,46.26627],[9.87027,46.26633],[9.86998,46.26629],[9.86909,46.26628],[9.86813,46.26597],[9.8677,46.26593],[9.86769,46.26589],[9.86771,46.26587],[9.86812,46.26583],[9.86812,46.2658],[9.86804,46.26575],[9.86782,46.26572],[9.86767,46.26572],[9.86725,46.26594],[9.86706,46.266],[9.86702,46.26598],[9.86703,46.26595],[9.86755,46.26561],[9.86777,46.2655],[9.86778,46.26547],[9.86768,46.26545]]},"properties":{}},{"type":"Feature","geometry":{"type":"LineString","coordinates":[[9.87744,46.26799],[9.87753,46.26803]]},"properties":{}},{"type":"Feature","geometry":{"type":"LineString","coordinates":[[9.87753,46.26803],[9.87826,46.26827]]},"properties":{}},{"type":"Feature","geometry":{"type":"LineString","coordinates":[[9.86883,46.2683],[9.86881,46.268]]},"properties":{}},{"type":"Feature","geometry":{"type":"LineString","coordinates":[[9.87826,46.26827],[9.87845,46.2683]]},"properties":{}},{"type":"Feature","geometry":{"type":"LineString","coordinates":[[9.84941,46.25],[9.84929,46.25027],[9.84927,46.25041],[9.84929,46.25071],[9.84926,46.25078],[9.8493,46.25096],[9.84912,46.25136],[9.849,46.25175],[9.84873,46.25209],[9.84891,46.2526],[9.84884,46.25278],[9.84849,46.25323],[9.84837,46.25344],[9.84832,46.25371],[9.84836,46.25441],[9.84835,46.25469],[9.84843,46.25482]]},"properties":{}},{"type":"Feature","geometry":{"type":"LineString","coordinates":[[9.84843,46.25482],[9.84843,46.25482]]},"properties":{}},{"type":"Feature","geometry":{"type":"LineString","coordinates":[[9.84843,46.25482],[9.84875,46.2553],[9.8487,46.25554],[9.84832,46.25559],[9.8477,46.256],[9.84747,46.2561],[9.84732,46.25624]]},"properties":{}},{"type":"Feature","geometry":{"type":"LineString","coordinates":[[9.84732,46.25624],[9.84732,46.25625]]},"properties":{}},{"type":"Feature","geometry":{"type":"LineString","coordinates":[[9.86741,46.25743],[9.86734,46.25743],[9.86721,46.2575],[9.86719,46.25755],[9.86704,46.2576],[9.86697,46.25753],[9.86699,46.25739],[9.86705,46.25728],[9.86702,46.25726],[9.86672,46.2574],[9.86668,46.25728],[9.8666,46.25725],[9.8661,46.25758],[9.86601,46.25773],[9.866,46.25786]]},"properties":{}},{"type":"Feature","geometry":{"type":"LineString","coordinates":[[9.866,46.25786],[9.86591,46.25797],[9.86593,46.25811],[9.86587,46.25823],[9.86589,46.25831],[9.86603,46.25839],[9.86606,46.25844],[9.86591,46.25854],[9.86588,46.25866],[9.86594,46.25874],[9.86612,46.25886],[9.86599,46.25891],[9.86586,46.25901],[9.86567,46.25895],[9.86563,46.25898],[9.86565,46.25908],[9.8656,46.25915],[9.86569,46.25936],[9.86565,46.25938],[9.86555,46.25939],[9.86546,46.25945],[9.86527,46.2594]]},"properties":{}},{"type":"Feature","geometry":{"type":"LineString","coordinates":[[9.84732,46.25625],[9.84726,46.2563],[9.84714,46.25659],[9.84715,46.25687],[9.84738,46.25744],[9.84737,46.25805],[9.84728,46.25861],[9.84733,46.25875],[9.8478,46.25912],[9.8484,46.25947],[9.84853,46.25965],[9.84894,46.26003],[9.84924,46.26067],[9.84953,46.26113]]},"properties":{}},{"type":"Feature","geometry":{"type":"LineString","coordinates":[[9.85948,46.25977],[9.85974,46.2596],[9.86018,46.25943]]},"properties":{}},{"type":"Feature","geometry":{"type":"LineString","coordinates":[[9.86523,46.25965],[9.86522,46.25979],[9.86526,46.25984],[9.8654,46.25992]]},"properties":{}},{"type":"Feature","geometry":{"type":"LineString","coordinates":[[9.86018,46.25943],[9.86015,46.25964],[9.86044,46.25985],[9.86012,46.26004],[9.8601,46.26013],[9.86001,46.26018]]},"properties":{}},{"type":"Feature","geometry":{"type":"LineString","coordinates":[[9.8654,46.25992],[9.86577,46.26001]]},"properties":{}},{"type":"Feature","geometry":{"type":"LineString","coordinates":[[9.86581,46.26004],[9.86584,46.2601],[9.86606,46.26032],[9.86598,46.26031],[9.86579,46.26022],[9.86571,46.26022],[9.86568,46.26025],[9.8658,46.26034],[9.86576,46.2604],[9.86556,46.26041],[9.86541,46.26037],[9.86532,46.26039],[9.86527,46.26048],[9.86519,46.26052],[9.86502,46.26052],[9.86478,46.26061],[9.86469,46.26061],[9.86466,46.26065],[9.86469,46.26068],[9.86521,46.26074],[9.86487,46.2609],[9.86456,46.26093],[9.86433,46.26104],[9.86418,46.26104],[9.86416,46.26107],[9.86421,46.2611],[9.86453,46.26118],[9.86456,46.26121],[9.86451,46.26124],[9.86409,46.26116],[9.86394,46.26122],[9.86428,46.26133],[9.86433,46.2614],[9.86432,46.26148],[9.86436,46.2615],[9.86434,46.26154],[9.86423,46.2616],[9.8643,46.26166],[9.86414,46.26171],[9.86384,46.26171],[9.86368,46.26178],[9.86355,46.26188],[9.86356,46.26192],[9.86375,46.26194],[9.86379,46.26196],[9.86378,46.262],[9.86357,46.26208],[9.86357,46.26211]]},"properties":{}},{"type":"Feature","geometry":{"type":"LineString","coordinates":[[9.84953,46.26113],[9.84953,46.26113]]},"properties":{}},{"type":"Feature","geometry":{"type":"LineString","coordinates":[[9.84953,46.26113],[9.8502,46.26185],[9.85044,46.26208],[9.85086,46.26225],[9.85174,46.26315],[9.85198,46.26354],[9.85202,46.26375],[9.852,46.26417],[9.85194,46.26432],[9.85205,46.26472]]},"properties":{}},{"type":"Feature","geometry":{"type":"LineString","coordinates":[[9.84725,46.26573],[9.84723,46.26559],[9.84718,46.26553],[9.8466,46.26502],[9.84577,46.26402],[9.84538,46.26369],[9.84534,46.26357],[9.84537,46.26327],[9.84535,46.2628],[9.84526,46.26261],[9.84496,46.26247]]},"properties":{}},{"type":"Feature","geometry":{"type":"LineString","coordinates":[[9.85205,46.26472],[9.85206,46.26474]]},"properties":{}},{"type":"Feature","geometry":{"type":"LineString","coordinates":[[9.85206,46.26474],[9.85224,46.26504],[9.85247,46.26564],[9.85251,46.26581],[9.85272,46.26613],[9.85283,46.26622]]},"properties":{}},{"type":"Feature","geometry":{"type":"LineString","coordinates":[[9.85296,46.26631],[9.85316,46.26644],[9.85351,46.2666],[9.85379,46.26686],[9.85384,46.267],[9.85385,46.26738],[9.85394,46.26763],[9.8539,46.26778],[9.85391,46.26793],[9.85378,46.26837],[9.85383,46.26865],[9.85377,46.26886],[9.85349,46.26912],[9.85343,46.26908],[9.85324,46.26873]]},"properties":{}},{"type":"Feature","geometry":{"type":"LineString","coordinates":[[9.85638,46.26769],[9.85648,46.26771],[9.85683,46.26791]]},"properties":{}},{"type":"Feature","geometry":{"type":"LineString","coordinates":[[9.85683,46.26791],[9.85749,46.2684],[9.85812,46.26877],[9.85875,46.26889],[9.85923,46.26894],[9.8601,46.26884],[9.8614,46.26856],[9.86206,46.26837],[9.86265,46.2683],[9.86392,46.26825],[9.86437,46.26812],[9.86501,46.26769],[9.86538,46.26751],[9.86572,46.26749],[9.86603,46.26751],[9.86645,46.26762],[9.8672,46.26791],[9.86775,46.26804],[9.86807,46.26808],[9.86833,46.26809],[9.86899,46.26799],[9.86944,46.26798],[9.86967,46.26794],[9.86979,46.26789],[9.86984,46.26744],[9.86992,46.26723],[9.86997,46.26717],[9.87012,46.26709],[9.87211,46.26692],[9.87269,46.26696],[9.87302,46.26695],[9.87397,46.26714],[9.87523,46.26734],[9.87577,46.26736],[9.8759,46.26732],[9.87632,46.26748],[9.87681,46.26785],[9.87698,46.26794],[9.87721,46.26793],[9.87744,46.26799]]},"properties":{}},{"type":"Feature","geometry":{"type":"LineString","coordinates":[[9.85683,46.26791],[9.8567,46.26808]]},"properties":{}},{"type":"Feature","geometry":{"type":"LineString","coordinates":[[9.8567,46.26808],[9.8566,46.26825]]},"properties":{}},{"type":"Feature","geometry":{"type":"LineString","coordinates":[[9.85631,46.26849],[9.85616,46.26825],[9.8559,46.26809],[9.85557,46.26806],[9.8555,46.26811]]},"properties":{}},{"type":"Feature","geometry":{"type":"LineString","coordinates":[[9.8566,46.26825],[9.85658,46.26843],[9.85649,46.26852]]},"properties":{}},{"type":"Feature","geometry":{"type":"LineString","coordinates":[[9.85649,46.26852],[9.85631,46.26849]]},"properties":{}},{"type":"Feature","geometry":{"type":"LineString","coordinates":[[9.85466,46.26899],[9.85462,46.26883],[9.85468,46.26858],[9.85497,46.26822],[9.85508,46.26814],[9.8555,46.26811]]},"properties":{}},{"type":"Feature","geometry":{"type":"LineString","coordinates":[[9.8555,46.26811],[9.85582,46.26815],[9.85594,46.26821],[9.85604,46.26828],[9.85607,46.26841],[9.85599,46.26856],[9.85564,46.26865],[9.85558,46.2687],[9.85554,46.2688],[9.85556,46.26892],[9.85568,46.26927],[9.85561,46.26942],[9.85551,46.26951]]},"properties":{}},{"type":"Feature","geometry":{"type":"LineString","coordinates":[[9.85923,46.26894],[9.85917,46.26937]]},"properties":{}},{"type":"Feature","geometry":{"type":"LineString","coordinates":[[9.85689,46.27036],[9.85687,46.27018]]},"properties":{}},{"type":"Feature","geometry":{"type":"LineString","coordinates":[[9.85551,46.26951],[9.85542,46.26957],[9.85521,46.2696],[9.85513,46.26964],[9.85464,46.27015],[9.85458,46.27039],[9.85427,46.27071],[9.85429,46.27096],[9.85424,46.27177],[9.8542,46.27184],[9.85411,46.27182],[9.85406,46.27162],[9.8541,46.27095],[9.85407,46.27059],[9.85432,46.27001],[9.85455,46.26974],[9.8547,46.26919],[9.85466,46.26899]]},"properties":{}},{"type":"Feature","geometry":{"type":"LineString","coordinates":[[9.87845,46.2683],[9.87879,46.26828],[9.87933,46.26839],[9.87948,46.26844],[9.88019,46.2688]]},"properties":{}},{"type":"Feature","geometry":{"type":"LineString","coordinates":[[9.87826,46.26827],[9.87807,46.26867],[9.8781,46.26873],[9.87826,46.26885],[9.87827,46.26893],[9.87806,46.2693]]},"properties":{}},{"type":"Feature","geometry":{"type":"LineString","coordinates":[[9.87827,46.26893],[9.8784,46.2688]]},"properties":{}},{"type":"Feature","geometry":{"type":"LineString","coordinates":[[9.88019,46.2688],[9.88082,46.26919],[9.88106,46.26923],[9.88208,46.26927],[9.88235,46.26934]]},"properties":{}},{"type":"Feature","geometry":{"type":"LineString","coordinates":[[9.89143,46.27012],[9.89053,46.26998],[9.88961,46.26997],[9.8893,46.27004],[9.8884,46.26996],[9.88785,46.26973],[9.88761,46.26957],[9.88727,46.26924],[9.88677,46.26922],[9.88636,46.26907],[9.88577,46.26908],[9.88535,46.26904],[9.88509,46.26907],[9.88445,46.26894],[9.88407,46.26898],[9.8838,46.26905],[9.88301,46.2689],[9.88284,46.26891],[9.88274,46.26898],[9.8827,46.26929],[9.88257,46.26933],[9.88235,46.26934]]},"properties":{}},{"type":"Feature","geometry":{"type":"LineString","coordinates":[[9.89255,46.27178],[9.89237,46.27168],[9.89232,46.27146],[9.89244,46.27132],[9.89249,46.27113],[9.89233,46.27052],[9.89225,46.2704],[9.8921,46.27036],[9.89174,46.27036],[9.89164,46.27032],[9.89143,46.27012]]},"properties":{}},{"type":"Feature","geometry":{"type":"LineString","coordinates":[[9.89445,46.27156],[9.89438,46.2716],[9.89436,46.27167],[9.8945,46.2722],[9.89458,46.2723],[9.8946,46.27238],[9.89458,46.27242],[9.89452,46.27244],[9.89445,46.27241],[9.89433,46.27231],[9.89424,46.27211],[9.89408,46.27197],[9.89361,46.27172],[9.89335,46.27165],[9.89329,46.27159],[9.89298,46.27095],[9.89287,46.27095],[9.89278,46.27104],[9.89282,46.27118],[9.89281,46.27131],[9.89262,46.27149],[9.89264,46.27173],[9.89255,46.27178]]},"properties":{}},{"type":"Feature","geometry":{"type":"LineString","coordinates":[[9.88189,46.28894],[9.88142,46.289],[9.88133,46.28906],[9.88132,46.28931],[9.8809,46.28956],[9.88088,46.28961],[9.88092,46.28967],[9.88107,46.28972],[9.88108,46.28976],[9.88101,46.28986],[9.88137,46.29006],[9.88134,46.29011],[9.88123,46.29013],[9.88122,46.29019],[9.88157,46.29036],[9.88225,46.29044],[9.88237,46.29047],[9.88245,46.29054],[9.88295,46.29059],[9.8833,46.2905],[9.88351,46.29049],[9.8835,46.29061]]},"properties":{}},{"type":"Feature","geometry":{"type":"LineString","coordinates":[[9.8835,46.29061],[9.88323,46.29089],[9.88369,46.29096],[9.8839,46.29106],[9.88418,46.29113],[9.88424,46.29124],[9.88373,46.29137],[9.8838,46.29142],[9.88374,46.29149],[9.88381,46.29159],[9.88377,46.29168],[9.88366,46.2918]]},"properties":{}},{"type":"Feature","geometry":{"type":"LineString","coordinates":[[9.86883,46.2915],[9.86901,46.29178],[9.86898,46.29183],[9.86891,46.29184],[9.86877,46.29177],[9.86872,46.29181],[9.86835,46.29187],[9.86839,46.29192],[9.86804,46.29215]]},"properties":{}},{"type":"Feature","geometry":{"type":"LineString","coordinates":[[9.86351,46.2877],[9.86387,46.28786],[9.86393,46.28794],[9.86382,46.28797],[9.86379,46.28801],[9.86389,46.2881],[9.86372,46.28822],[9.86386,46.28831],[9.86378,46.28845],[9.86369,46.28853],[9.86357,46.28852],[9.86341,46.28844],[9.86364,46.28899],[9.86358,46.28916],[9.86335,46.28938],[9.86298,46.28946],[9.86292,46.28952],[9.86294,46.28961],[9.86303,46.28967],[9.86367,46.28976],[9.86389,46.28985],[9.86449,46.2904],[9.86455,46.2905]]},"properties":{}},{"type":"Feature","geometry":{"type":"LineString","coordinates":[[9.86688,46.29202],[9.86678,46.29213],[9.86667,46.29219]]},"properties":{}},{"type":"Feature","geometry":{"type":"LineString","coordinates":[[9.86577,46.29165],[9.86568,46.29191],[9.8656,46.292],[9.86544,46.29209],[9.86539,46.29217],[9.86589,46.29234],[9.86615,46.29247],[9.86561,46.29266],[9.86485,46.29299],[9.86439,46.29312],[9.86422,46.29319],[9.8641,46.29334],[9.86391,46.29346],[9.86363,46.29353],[9.86347,46.29352],[9.86341,46.29357],[9.86333,46.29372],[9.86299,46.2939],[9.86271,46.2939],[9.8626,46.29402],[9.86253,46.29414],[9.86247,46.29418],[9.86209,46.29417],[9.86144,46.29428]]},"properties":{}},{"type":"Feature","geometry":{"type":"LineString","coordinates":[[9.86667,46.29219],[9.86652,46.29238],[9.86636,46.29308],[9.86569,46.29392],[9.86579,46.29413],[9.86583,46.29428],[9.86582,46.2944],[9.86571,46.29448],[9.8655,46.29452],[9.86524,46.29438],[9.86467,46.29448],[9.86453,46.2946]]},"properties":{}},{"type":"Feature","geometry":{"type":"LineString","coordinates":[[9.86302,46.29624],[9.86333,46.29606],[9.86383,46.29568],[9.86413,46.29526],[9.86454,46.29497]]},"properties":{}},{"type":"Feature","geometry":{"type":"LineString","coordinates":[[9.85771,46.29608],[9.85759,46.29569]]},"properties":{}},{"type":"Feature","geometry":{"type":"LineString","coordinates":[[9.85759,46.29569],[9.85757,46.29558],[9.85752,46.29551],[9.85717,46.2954],[9.85702,46.29546],[9.85685,46.29542],[9.85665,46.29549],[9.85649,46.29545],[9.8563,46.29551],[9.85613,46.29545],[9.85591,46.29554],[9.85569,46.29551],[9.85531,46.29557],[9.85504,46.29552],[9.85492,46.29557],[9.85471,46.29583],[9.85458,46.2959],[9.85444,46.29624],[9.85428,46.29634],[9.8542,46.2963],[9.85403,46.29633],[9.85388,46.29639],[9.85379,46.29647],[9.85375,46.29661],[9.85378,46.29672],[9.85366,46.29701]]},"properties":{}},{"type":"Feature","geometry":{"type":"LineString","coordinates":[[9.86302,46.29624],[9.86294,46.29622],[9.86295,46.29604],[9.8628,46.29592],[9.8628,46.29584],[9.86291,46.29576],[9.86276,46.29557],[9.86274,46.29544],[9.86267,46.29538],[9.86256,46.29513],[9.86246,46.29509],[9.86232,46.29511],[9.86216,46.29529],[9.86184,46.29537],[9.86174,46.29547],[9.8619,46.29562],[9.86192,46.2957],[9.86188,46.29593],[9.86164,46.29608],[9.86164,46.29615],[9.86153,46.29623],[9.86109,46.29645],[9.86091,46.29652],[9.86079,46.29651],[9.86065,46.29661],[9.86028,46.29673],[9.86028,46.29685],[9.86012,46.29695],[9.86022,46.29719],[9.86016,46.29729],[9.86,46.29743],[9.8599,46.29743],[9.85959,46.29761],[9.85942,46.2976],[9.8591,46.29741],[9.85895,46.29738],[9.85893,46.29721],[9.85869,46.29681]]},"properties":{}},{"type":"Feature","geometry":{"type":"LineString","coordinates":[[9.86144,46.29428],[9.86148,46.29441],[9.86136,46.29461],[9.86095,46.29468],[9.86089,46.29472],[9.86086,46.29488],[9.86078,46.29495],[9.86066,46.29502],[9.86007,46.29507],[9.85989,46.29544],[9.85974,46.29556],[9.85945,46.29567],[9.85938,46.29573],[9.85949,46.29609],[9.85936,46.2962],[9.85929,46.29621],[9.85908,46.29613],[9.8589,46.29613],[9.85887,46.29617],[9.85887,46.29657],[9.85884,46.29671],[9.85874,46.29679],[9.85869,46.29681],[9.85855,46.29671],[9.85819,46.29632],[9.85769,46.29607],[9.85731,46.29595],[9.85718,46.29594],[9.85707,46.29598],[9.85696,46.29608],[9.85671,46.29668],[9.85658,46.29679],[9.85639,46.29723],[9.85605,46.29788],[9.85555,46.29855],[9.85547,46.2986],[9.85538,46.29849],[9.85532,46.2982],[9.85514,46.29771],[9.85499,46.29749],[9.85488,46.29743],[9.85476,46.29743],[9.85451,46.29752],[9.85441,46.29749],[9.85389,46.29726],[9.85387,46.29709],[9.85382,46.29703],[9.85375,46.297],[9.85366,46.29701]]},"properties":{}},{"type":"Feature","geometry":{"type":"LineString","coordinates":[[9.86294,46.29733],[9.86262,46.29728],[9.86251,46.29719],[9.8625,46.29707],[9.86258,46.29693],[9.86284,46.29669],[9.86293,46.29653],[9.86295,46.29636],[9.86302,46.29624]]},"properties":{}},{"type":"Feature","geometry":{"type":"LineString","coordinates":[[9.88366,46.2918],[9.8836,46.29197],[9.8836,46.29208],[9.88351,46.29224],[9.88351,46.29242],[9.88345,46.29254],[9.88332,46.29268]]},"properties":{}},{"type":"Feature","geometry":{"type":"LineString","coordinates":[[9.88187,46.29247],[9.88129,46.29234],[9.88056,46.2923],[9.88012,46.29223],[9.87995,46.29219],[9.87946,46.29201],[9.879,46.29198],[9.87861,46.29208],[9.87809,46.29208],[9.87766,46.29221],[9.8773,46.29235],[9.87678,46.29245],[9.87654,46.29246],[9.87601,46.29235],[9.87587,46.29234],[9.87575,46.2924],[9.87564,46.29251],[9.87543,46.29281],[9.87532,46.29289],[9.87518,46.2929],[9.87485,46.29301],[9.8747,46.29299],[9.87444,46.29273],[9.87414,46.29253],[9.874,46.29233],[9.87386,46.29222],[9.87373,46.29215],[9.87331,46.29218]]},"properties":{}},{"type":"Feature","geometry":{"type":"LineString","coordinates":[[9.90003,46.29671],[9.90015,46.29695],[9.90015,46.2971],[9.90028,46.2972],[9.90014,46.29743],[9.90018,46.29757]]},"properties":{}},{"type":"Feature","geometry":{"type":"LineString","coordinates":[[9.85366,46.29701],[9.85343,46.29722],[9.85323,46.29709],[9.85316,46.29699],[9.85302,46.29692],[9.85275,46.29668],[9.85268,46.29667],[9.85261,46.29659],[9.85251,46.29662],[9.85222,46.2965],[9.85208,46.29656],[9.85183,46.29692],[9.85156,46.2972],[9.85146,46.29723],[9.85133,46.29732],[9.85097,46.29765],[9.85049,46.2977],[9.85022,46.29762],[9.85005,46.29763],[9.84976,46.2978],[9.84964,46.29785],[9.84947,46.29785],[9.84934,46.29795],[9.84915,46.29803],[9.849,46.29805],[9.84887,46.29799],[9.84872,46.29803],[9.84854,46.29815],[9.84834,46.29818],[9.84817,46.29835],[9.84813,46.29846],[9.84798,46.29859],[9.84793,46.29875],[9.84746,46.2989],[9.8474,46.29899],[9.84727,46.29903],[9.84682,46.29889],[9.84638,46.29893],[9.84624,46.29899],[9.84613,46.29916],[9.84604,46.29922],[9.84574,46.2991],[9.84549,46.29907],[9.84534,46.29911],[9.84516,46.2994],[9.84493,46.29956],[9.84498,46.29967],[9.84491,46.29975],[9.84473,46.2998],[9.84459,46.29996],[9.84445,46.30003],[9.84428,46.3],[9.8442,46.29955],[9.84415,46.2994],[9.84408,46.29934],[9.84341,46.29927],[9.84339,46.29937],[9.84347,46.29957],[9.8432,46.29948],[9.84318,46.29954],[9.84328,46.29972],[9.84317,46.29974],[9.84299,46.29972],[9.8427,46.29962],[9.84264,46.29964],[9.84268,46.30007],[9.84265,46.30024],[9.8426,46.30027],[9.84241,46.30019],[9.84227,46.30018],[9.84165,46.30038],[9.84102,46.30038]]},"properties":{}},{"type":"Feature","geometry":{"type":"LineString","coordinates":[[9.86592,46.30053],[9.86541,46.30024],[9.86511,46.30002],[9.86489,46.29994],[9.86483,46.3001],[9.86472,46.30021],[9.86453,46.30028],[9.86438,46.30028],[9.86422,46.30019],[9.86412,46.30013],[9.86396,46.29994],[9.86384,46.29991],[9.8636,46.30007],[9.86346,46.30004],[9.86347,46.2999],[9.86376,46.29952],[9.86359,46.29917],[9.86354,46.29895],[9.86346,46.29898],[9.8634,46.29906],[9.86334,46.29909],[9.86328,46.29904],[9.86325,46.29885],[9.86331,46.29838],[9.86338,46.29828],[9.86333,46.29818],[9.86334,46.29804],[9.86348,46.29791],[9.86347,46.29773],[9.86342,46.29762],[9.86309,46.29735],[9.86294,46.29733]]},"properties":{}},{"type":"Feature","geometry":{"type":"LineString","coordinates":[[9.84102,46.30038],[9.84084,46.30042]]},"properties":{}}]}