{"type":"FeatureCollection","features":[{"type":"Feature","geometry":{"type":"LineString","coordinates":[[9.93785,45.76836],[9.93785,45.76813],[9.93773,45.768]]},"properties":{}},{"type":"Feature","geometry":{"type":"LineString","coordinates":[[9.93809,45.76916],[9.93794,45.76882],[9.93785,45.76836]]},"properties":{}},{"type":"Feature","geometry":{"type":"LineString","coordinates":[[9.98353,45.78306],[9.98313,45.78303],[9.983,45.78306]]},"properties":{}},{"type":"Feature","geometry":{"type":"LineString","coordinates":[[9.98477,45.78336],[9.98513,45.78349],[9.98536,45.78353],[9.98599,45.78354],[9.98688,45.78381],[9.9875,45.78395],[9.98842,45.7844]]},"properties":{}},{"type":"Feature","geometry":{"type":"LineString","coordinates":[[9.99267,45.78569],[9.99212,45.78555],[9.99038,45.78481],[9.98971,45.78459],[9.98833,45.78444],[9.98809,45.78438],[9.98762,45.78411],[9.98733,45.78399],[9.98617,45.78365],[9.98591,45.7836],[9.98516,45.78357],[9.98427,45.78323],[9.98395,45.78314],[9.98353,45.78306]]},"properties":{}},{"type":"Feature","geometry":{"type":"LineString","coordinates":[[9.94467,45.78578],[9.94461,45.7859]]},"properties":{}},{"type":"Feature","geometry":{"type":"LineString","coordinates":[[9.94491,45.78608],[9.94506,45.78606]]},"properties":{}},{"type":"Feature","geometry":{"type":"LineString","coordinates":[[9.9812,45.79036],[9.98166,45.79031],[9.98219,45.79032],[9.98394,45.79047],[9.98452,45.79048],[9.98511,45.7904],[9.98556,45.79028],[9.98625,45.79023],[9.98771,45.79039],[9.98853,45.79035],[9.98876,45.7904],[9.98891,45.79035],[9.98888,45.79031],[9.98893,45.79022],[9.99175,45.78907],[9.99273,45.78871],[9.99312,45.78861],[9.99528,45.78824],[9.9967,45.78809]]},"properties":{}},{"type":"Feature","geometry":{"type":"LineString","coordinates":[[9.81403,45.75556],[9.81758,45.75517],[9.81804,45.75507],[9.81953,45.75461],[9.81977,45.75449],[9.82,45.75411],[9.82004,45.75395],[9.81991,45.75372],[9.8199,45.75362],[9.82018,45.75317],[9.82028,45.75307],[9.82042,45.75301],[9.82152,45.75288],[9.8218,45.75281],[9.82226,45.75255],[9.82292,45.75234],[9.82411,45.7518],[9.82427,45.75177],[9.82438,45.75182]]},"properties":{}},{"type":"Feature","geometry":{"type":"LineString","coordinates":[[9.79536,45.75497],[9.7953,45.75504]]},"properties":{}},{"type":"Feature","geometry":{"type":"LineString","coordinates":[[9.82101,45.75813],[9.82162,45.75774],[9.82364,45.75667],[9.82367,45.75659],[9.82366,45.75618],[9.82376,45.75603],[9.82471,45.75512],[9.82497,45.75478],[9.82529,45.75451],[9.82588,45.75418],[9.82594,45.75405],[9.8258,45.75389]]},"properties":{}},{"type":"Feature","geometry":{"type":"LineString","coordinates":[[9.79765,45.7559],[9.7975,45.7563]]},"properties":{}},{"type":"Feature","geometry":{"type":"LineString","coordinates":[[9.7975,45.7563],[9.79746,45.75647]]},"properties":{}},{"type":"Feature","geometry":{"type":"LineString","coordinates":[[9.79746,45.75647],[9.79756,45.7565]]},"properties":{}},{"type":"Feature","geometry":{"type":"LineString","coordinates":[[9.82033,45.75691],[9.82059,45.75644],[9.82095,45.7563],[9.82108,45.75621]]},"properties":{}},{"type":"Feature","geometry":{"type":"LineString","coordinates":[[9.82026,45.75693],[9.82033,45.75691]]},"properties":{}},{"type":"Feature","geometry":{"type":"LineString","coordinates":[[9.90877,45.75095],[9.90867,45.75098]]},"properties":{}},{"type":"Feature","geometry":{"type":"LineString","coordinates":[[9.90867,45.75098],[9.90742,45.75144]]},"properties":{}},{"type":"Feature","geometry":{"type":"LineString","coordinates":[[9.90742,45.75144],[9.90661,45.75176]]},"properties":{}},{"type":"Feature","geometry":{"type":"LineString","coordinates":[[9.90661,45.75176],[9.90613,45.75183],[9.90468,45.75181]]},"properties":{}},{"type":"Feature","geometry":{"type":"LineString","coordinates":[[9.90661,45.75176],[9.90669,45.75188],[9.90669,45.75218],[9.9068,45.75289]]},"properties":{}},{"type":"Feature","geometry":{"type":"LineString","coordinates":[[9.90672,45.75171],[9.90674,45.75175],[9.90673,45.75217],[9.90685,45.75299]]},"properties":{}},{"type":"Feature","geometry":{"type":"LineString","coordinates":[[9.90468,45.75181],[9.90473,45.75371]]},"properties":{}},{"type":"Feature","geometry":{"type":"LineString","coordinates":[[9.90685,45.75299],[9.90677,45.75295],[9.90666,45.75219],[9.90666,45.75195],[9.90661,45.75182],[9.90589,45.75187],[9.90476,45.75185],[9.90472,45.7519],[9.90478,45.75357],[9.90486,45.75366],[9.90507,45.75372]]},"properties":{}},{"type":"Feature","geometry":{"type":"LineString","coordinates":[[9.90824,45.75285],[9.90736,45.75291],[9.9068,45.75289]]},"properties":{}},{"type":"Feature","geometry":{"type":"LineString","coordinates":[[9.7805,45.75017],[9.78037,45.75012],[9.78028,45.75]]},"properties":{}},{"type":"Feature","geometry":{"type":"LineString","coordinates":[[9.78569,45.75],[9.78557,45.75008]]},"properties":{}},{"type":"Feature","geometry":{"type":"LineString","coordinates":[[9.78242,45.75],[9.78204,45.75008],[9.78176,45.75045]]},"properties":{}},{"type":"Feature","geometry":{"type":"LineString","coordinates":[[9.78074,45.75008],[9.78062,45.75023]]},"properties":{}},{"type":"Feature","geometry":{"type":"LineString","coordinates":[[9.78484,45.75056],[9.78397,45.7501],[9.78387,45.75]]},"properties":{}},{"type":"Feature","geometry":{"type":"LineString","coordinates":[[9.78062,45.75023],[9.7805,45.75017]]},"properties":{}},{"type":"Feature","geometry":{"type":"LineString","coordinates":[[9.78176,45.75045],[9.78065,45.75005]]},"properties":{}},{"type":"Feature","geometry":{"type":"LineString","coordinates":[[9.78043,45.75037],[9.78014,45.75083]]},"properties":{}},{"type":"Feature","geometry":{"type":"LineString","coordinates":[[9.785,45.75066],[9.78484,45.75056]]},"properties":{}},{"type":"Feature","geometry":{"type":"LineString","coordinates":[[9.78143,45.75085],[9.78043,45.75037]]},"properties":{}},{"type":"Feature","geometry":{"type":"LineString","coordinates":[[9.7814,45.75089],[9.7805,45.75048],[9.78044,45.75048],[9.77978,45.7515]]},"properties":{}},{"type":"Feature","geometry":{"type":"LineString","coordinates":[[9.78014,45.75083],[9.77973,45.75148]]},"properties":{}},{"type":"Feature","geometry":{"type":"LineString","coordinates":[[9.77973,45.75148],[9.77966,45.75158]]},"properties":{}},{"type":"Feature","geometry":{"type":"LineString","coordinates":[[9.78545,45.75],[9.786,45.75037],[9.78804,45.75122],[9.78837,45.75139],[9.78912,45.75183],[9.78949,45.75215],[9.79015,45.75248],[9.79052,45.7526],[9.79061,45.75267],[9.79066,45.75284],[9.79074,45.75295],[9.79112,45.75329],[9.7914,45.75351],[9.79191,45.75381],[9.79249,45.75402],[9.79365,45.75462],[9.79388,45.75471],[9.79477,45.75494],[9.79538,45.75506],[9.79763,45.75573],[9.79771,45.75578],[9.79765,45.7559]]},"properties":{}},{"type":"Feature","geometry":{"type":"LineString","coordinates":[[9.77978,45.7515],[9.77972,45.7516]]},"properties":{}},{"type":"Feature","geometry":{"type":"LineString","coordinates":[[9.77972,45.7516],[9.77974,45.75162]]},"properties":{}},{"type":"Feature","geometry":{"type":"LineString","coordinates":[[9.77966,45.75158],[9.77962,45.75165]]},"properties":{}},{"type":"Feature","geometry":{"type":"LineString","coordinates":[[9.78604,45.75547],[9.78588,45.75557]]},"properties":{}},{"type":"Feature","geometry":{"type":"LineString","coordinates":[[9.78804,45.75607],[9.78816,45.75601],[9.78823,45.75593]]},"properties":{}},{"type":"Feature","geometry":{"type":"LineString","coordinates":[[9.78823,45.75593],[9.78824,45.75612]]},"properties":{}},{"type":"Feature","geometry":{"type":"LineString","coordinates":[[9.79064,45.75668],[9.79073,45.7567]]},"properties":{}},{"type":"Feature","geometry":{"type":"LineString","coordinates":[[9.79052,45.75671],[9.79064,45.75668]]},"properties":{}},{"type":"Feature","geometry":{"type":"LineString","coordinates":[[9.79073,45.7567],[9.79078,45.75676]]},"properties":{}},{"type":"Feature","geometry":{"type":"LineString","coordinates":[[9.79048,45.7568],[9.79052,45.75671]]},"properties":{}},{"type":"Feature","geometry":{"type":"LineString","coordinates":[[9.79078,45.75676],[9.79077,45.75682],[9.79067,45.75688],[9.79053,45.75686],[9.79048,45.7568]]},"properties":{}},{"type":"Feature","geometry":{"type":"LineString","coordinates":[[9.79075,45.75685],[9.79136,45.75695]]},"properties":{}},{"type":"Feature","geometry":{"type":"LineString","coordinates":[[9.78619,45.75765],[9.78596,45.75749],[9.78592,45.75742],[9.78594,45.75714]]},"properties":{}},{"type":"Feature","geometry":{"type":"LineString","coordinates":[[9.78644,45.75777],[9.78619,45.75765]]},"properties":{}},{"type":"Feature","geometry":{"type":"LineString","coordinates":[[9.78788,45.75853],[9.78644,45.75777]]},"properties":{}},{"type":"Feature","geometry":{"type":"LineString","coordinates":[[9.78802,45.75853],[9.78868,45.75791]]},"properties":{}},{"type":"Feature","geometry":{"type":"LineString","coordinates":[[9.78926,45.7582],[9.78853,45.75888]]},"properties":{}},{"type":"Feature","geometry":{"type":"LineString","coordinates":[[9.78797,45.75858],[9.78802,45.75853]]},"properties":{}},{"type":"Feature","geometry":{"type":"LineString","coordinates":[[9.78805,45.75862],[9.78788,45.75853]]},"properties":{}},{"type":"Feature","geometry":{"type":"LineString","coordinates":[[9.7901,45.75862],[9.79015,45.75859],[9.79027,45.75836],[9.79118,45.75858],[9.79102,45.75887]]},"properties":{}},{"type":"Feature","geometry":{"type":"LineString","coordinates":[[9.7901,45.75862],[9.79014,45.75864]]},"properties":{}},{"type":"Feature","geometry":{"type":"LineString","coordinates":[[9.82015,45.75696],[9.82026,45.75693]]},"properties":{}},{"type":"Feature","geometry":{"type":"LineString","coordinates":[[9.79756,45.7565],[9.79857,45.75686],[9.79865,45.75697],[9.7985,45.7574]]},"properties":{}},{"type":"Feature","geometry":{"type":"LineString","coordinates":[[9.8201,45.75697],[9.82015,45.75696]]},"properties":{}},{"type":"Feature","geometry":{"type":"LineString","coordinates":[[9.8197,45.75736],[9.8201,45.75697]]},"properties":{}},{"type":"Feature","geometry":{"type":"LineString","coordinates":[[9.7985,45.7574],[9.7986,45.75746]]},"properties":{}},{"type":"Feature","geometry":{"type":"LineString","coordinates":[[9.7986,45.75746],[9.79877,45.75756]]},"properties":{}},{"type":"Feature","geometry":{"type":"LineString","coordinates":[[9.79877,45.75756],[9.79886,45.75761]]},"properties":{}},{"type":"Feature","geometry":{"type":"LineString","coordinates":[[9.79742,45.75855],[9.79753,45.75843],[9.79763,45.75838]]},"properties":{}},{"type":"Feature","geometry":{"type":"LineString","coordinates":[[9.79763,45.75838],[9.79743,45.75871]]},"properties":{}},{"type":"Feature","geometry":{"type":"LineString","coordinates":[[9.79886,45.75761],[9.79905,45.75717],[9.7991,45.75711],[9.79921,45.7571],[9.80005,45.75739],[9.8007,45.75766],[9.80098,45.75783],[9.80113,45.758],[9.80136,45.75845],[9.8016,45.75879],[9.80207,45.75929],[9.80312,45.76001]]},"properties":{}},{"type":"Feature","geometry":{"type":"LineString","coordinates":[[9.79743,45.75871],[9.79742,45.75855]]},"properties":{}},{"type":"Feature","geometry":{"type":"LineString","coordinates":[[9.79715,45.75939],[9.79693,45.75935]]},"properties":{}},{"type":"Feature","geometry":{"type":"LineString","coordinates":[[9.79758,45.75941],[9.79715,45.75939]]},"properties":{}},{"type":"Feature","geometry":{"type":"LineString","coordinates":[[9.81418,45.76223],[9.81465,45.76227],[9.81511,45.76224],[9.81564,45.76198],[9.81568,45.76192],[9.81571,45.76141],[9.81587,45.76107],[9.81603,45.76087],[9.81643,45.76061],[9.81726,45.75991],[9.81735,45.75978],[9.81757,45.75918],[9.81803,45.75818],[9.8181,45.7581],[9.81863,45.75783]]},"properties":{}},{"type":"Feature","geometry":{"type":"LineString","coordinates":[[9.80297,45.76011],[9.80312,45.76001]]},"properties":{}},{"type":"Feature","geometry":{"type":"LineString","coordinates":[[9.80312,45.76001],[9.80353,45.76028],[9.80443,45.76051],[9.80505,45.76086],[9.80577,45.76101],[9.80637,45.76123],[9.80647,45.76124]]},"properties":{}},{"type":"Feature","geometry":{"type":"LineString","coordinates":[[9.80527,45.7609],[9.80526,45.761]]},"properties":{}},{"type":"Feature","geometry":{"type":"LineString","coordinates":[[9.80647,45.76124],[9.80651,45.76119]]},"properties":{}},{"type":"Feature","geometry":{"type":"LineString","coordinates":[[9.79359,45.76186],[9.79377,45.76174],[9.79396,45.76142],[9.79411,45.76126],[9.79433,45.76116],[9.79461,45.76112]]},"properties":{}},{"type":"Feature","geometry":{"type":"LineString","coordinates":[[9.79987,45.76215],[9.79976,45.76219],[9.79947,45.76199],[9.7994,45.76201],[9.7994,45.76205],[9.79972,45.76228],[9.7996,45.76237],[9.79946,45.76274]]},"properties":{}},{"type":"Feature","geometry":{"type":"LineString","coordinates":[[9.79014,45.75864],[9.79102,45.75887]]},"properties":{}},{"type":"Feature","geometry":{"type":"LineString","coordinates":[[9.78987,45.75958],[9.78805,45.75862]]},"properties":{}},{"type":"Feature","geometry":{"type":"LineString","coordinates":[[9.79224,45.75912],[9.79206,45.75917],[9.79183,45.75953]]},"properties":{}},{"type":"Feature","geometry":{"type":"LineString","coordinates":[[9.79183,45.75953],[9.79177,45.75964]]},"properties":{}},{"type":"Feature","geometry":{"type":"LineString","coordinates":[[9.79004,45.75967],[9.78987,45.75958]]},"properties":{}},{"type":"Feature","geometry":{"type":"LineString","coordinates":[[9.79287,45.75936],[9.79302,45.75945],[9.79313,45.75959],[9.79294,45.7598],[9.7931,45.7599],[9.7929,45.76017]]},"properties":{}},{"type":"Feature","geometry":{"type":"LineString","coordinates":[[9.79073,45.75999],[9.79004,45.75967]]},"properties":{}},{"type":"Feature","geometry":{"type":"LineString","coordinates":[[9.78914,45.76331],[9.7892,45.76331],[9.78926,45.76335]]},"properties":{}},{"type":"Feature","geometry":{"type":"LineString","coordinates":[[9.78914,45.76342],[9.7891,45.76337],[9.78914,45.76331]]},"properties":{}},{"type":"Feature","geometry":{"type":"LineString","coordinates":[[9.78926,45.76335],[9.78925,45.7634],[9.78914,45.76342]]},"properties":{}},{"type":"Feature","geometry":{"type":"LineString","coordinates":[[9.81355,45.76251],[9.81387,45.7623],[9.81408,45.76223],[9.81418,45.76223]]},"properties":{}},{"type":"Feature","geometry":{"type":"LineString","coordinates":[[9.80651,45.76119],[9.8069,45.76094],[9.80708,45.76087],[9.80719,45.76087],[9.80745,45.76098],[9.80765,45.76112],[9.80813,45.76195],[9.80901,45.76389]]},"properties":{}},{"type":"Feature","geometry":{"type":"LineString","coordinates":[[9.81027,45.76284],[9.81039,45.76278],[9.8105,45.76279],[9.81244,45.76302],[9.81263,45.76301],[9.81314,45.76285],[9.81355,45.76251]]},"properties":{}},{"type":"Feature","geometry":{"type":"LineString","coordinates":[[9.81021,45.763],[9.81027,45.76284]]},"properties":{}},{"type":"Feature","geometry":{"type":"LineString","coordinates":[[9.80901,45.76389],[9.80911,45.76418]]},"properties":{}},{"type":"Feature","geometry":{"type":"LineString","coordinates":[[9.81432,45.76814],[9.81418,45.76808],[9.81363,45.76803],[9.81321,45.76791],[9.81299,45.76783],[9.81213,45.76733],[9.81114,45.76618],[9.81104,45.766],[9.8107,45.76521],[9.81051,45.76463],[9.81041,45.76423],[9.81015,45.76356],[9.81021,45.763]]},"properties":{}},{"type":"Feature","geometry":{"type":"LineString","coordinates":[[9.80911,45.76418],[9.80954,45.76505],[9.80979,45.76539],[9.80993,45.76572],[9.81011,45.76603],[9.81056,45.76668],[9.81111,45.76723],[9.81157,45.76752],[9.8118,45.76775],[9.81216,45.76798],[9.81357,45.76867],[9.81373,45.76869]]},"properties":{}},{"type":"Feature","geometry":{"type":"LineString","coordinates":[[9.81449,45.76816],[9.81461,45.76805],[9.81474,45.76804]]},"properties":{}},{"type":"Feature","geometry":{"type":"LineString","coordinates":[[9.81442,45.76815],[9.81443,45.76809]]},"properties":{}},{"type":"Feature","geometry":{"type":"LineString","coordinates":[[9.81415,45.76865],[9.81432,45.76814]]},"properties":{}},{"type":"Feature","geometry":{"type":"LineString","coordinates":[[9.81425,45.76866],[9.81442,45.76815]]},"properties":{}},{"type":"Feature","geometry":{"type":"LineString","coordinates":[[9.81433,45.76867],[9.81449,45.76816]]},"properties":{}},{"type":"Feature","geometry":{"type":"LineString","coordinates":[[9.81373,45.76869],[9.8141,45.76869]]},"properties":{}},{"type":"Feature","geometry":{"type":"LineString","coordinates":[[9.8141,45.76869],[9.81435,45.76872]]},"properties":{}},{"type":"Feature","geometry":{"type":"LineString","coordinates":[[9.81374,45.76877],[9.8141,45.76871],[9.81415,45.76865]]},"properties":{}},{"type":"Feature","geometry":{"type":"LineString","coordinates":[[9.81435,45.76872],[9.81452,45.76869],[9.81467,45.7687]]},"properties":{}},{"type":"Feature","geometry":{"type":"LineString","coordinates":[[9.81467,45.7687],[9.81438,45.76875],[9.81431,45.76872],[9.81433,45.76867]]},"properties":{}},{"type":"Feature","geometry":{"type":"LineString","coordinates":[[9.81373,45.76869],[9.81374,45.76877]]},"properties":{}},{"type":"Feature","geometry":{"type":"LineString","coordinates":[[9.81374,45.76877],[9.81343,45.76893],[9.81347,45.76898]]},"properties":{}},{"type":"Feature","geometry":{"type":"LineString","coordinates":[[9.81859,45.77076],[9.81837,45.77075],[9.81801,45.77084]]},"properties":{}},{"type":"Feature","geometry":{"type":"LineString","coordinates":[[9.81467,45.7687],[9.8155,45.7687],[9.81606,45.76866],[9.81631,45.76861],[9.81766,45.76855],[9.81783,45.76857],[9.81797,45.76864],[9.81832,45.76902],[9.81838,45.76916],[9.81862,45.77061],[9.81845,45.7714],[9.81856,45.77182],[9.8184,45.77284],[9.81853,45.77455],[9.81847,45.77473],[9.81847,45.7749]]},"properties":{}},{"type":"Feature","geometry":{"type":"LineString","coordinates":[[9.81847,45.7749],[9.81851,45.77494]]},"properties":{}},{"type":"Feature","geometry":{"type":"LineString","coordinates":[[9.81869,45.77545],[9.81879,45.7753]]},"properties":{}},{"type":"Feature","geometry":{"type":"LineString","coordinates":[[9.81865,45.77552],[9.81869,45.77545]]},"properties":{}},{"type":"Feature","geometry":{"type":"LineString","coordinates":[[9.81851,45.77494],[9.81867,45.77511],[9.81892,45.77551],[9.81957,45.77607],[9.82005,45.77641],[9.82135,45.77704],[9.82143,45.77699]]},"properties":{}},{"type":"Feature","geometry":{"type":"LineString","coordinates":[[9.82143,45.77699],[9.82178,45.77671]]},"properties":{}},{"type":"Feature","geometry":{"type":"LineString","coordinates":[[9.82178,45.77671],[9.82183,45.77668],[9.82192,45.77671],[9.82222,45.77687],[9.82254,45.77708],[9.82283,45.77732],[9.82301,45.77754],[9.82325,45.77775],[9.8243,45.77852],[9.82507,45.77878]]},"properties":{}},{"type":"Feature","geometry":{"type":"LineString","coordinates":[[9.82135,45.77704],[9.82189,45.77731],[9.82213,45.77749],[9.82215,45.77756],[9.82195,45.77858],[9.82193,45.77886]]},"properties":{}},{"type":"Feature","geometry":{"type":"LineString","coordinates":[[9.82531,45.779],[9.82552,45.77883],[9.82553,45.77877],[9.82547,45.77862],[9.82553,45.77847],[9.82547,45.77838],[9.82537,45.77832],[9.82542,45.7781],[9.82523,45.77796]]},"properties":{}},{"type":"Feature","geometry":{"type":"LineString","coordinates":[[9.82507,45.77878],[9.82525,45.77891]]},"properties":{}},{"type":"Feature","geometry":{"type":"LineString","coordinates":[[9.90685,45.75299],[9.9069,45.7535],[9.9068,45.75362],[9.90671,45.75366],[9.90647,45.75371],[9.90508,45.75379]]},"properties":{}},{"type":"Feature","geometry":{"type":"LineString","coordinates":[[9.90508,45.75379],[9.90492,45.75382],[9.90474,45.75395],[9.90468,45.75404],[9.9047,45.75414]]},"properties":{}},{"type":"Feature","geometry":{"type":"LineString","coordinates":[[9.9047,45.75414],[9.90465,45.75419],[9.90487,45.75457],[9.90575,45.75558],[9.90599,45.7559],[9.906,45.75601],[9.90591,45.75619],[9.90558,45.7565],[9.90543,45.75657]]},"properties":{}},{"type":"Feature","geometry":{"type":"LineString","coordinates":[[9.91352,45.75713],[9.91361,45.75728],[9.91393,45.75753],[9.91479,45.758],[9.91605,45.75842],[9.917,45.75867],[9.91745,45.75884]]},"properties":{}},{"type":"Feature","geometry":{"type":"LineString","coordinates":[[9.93773,45.768],[9.93751,45.76764],[9.93745,45.7672],[9.93695,45.76665],[9.9365,45.76636],[9.93637,45.76637],[9.93631,45.76642],[9.93593,45.76682],[9.93554,45.76688]]},"properties":{}},{"type":"Feature","geometry":{"type":"LineString","coordinates":[[9.88568,45.81127],[9.88583,45.81102]]},"properties":{}},{"type":"Feature","geometry":{"type":"LineString","coordinates":[[9.88496,45.81144],[9.88568,45.81127]]},"properties":{}},{"type":"Feature","geometry":{"type":"LineString","coordinates":[[9.88496,45.81144],[9.8837,45.81172],[9.88287,45.81221]]},"properties":{}},{"type":"Feature","geometry":{"type":"LineString","coordinates":[[9.88211,45.81238],[9.88225,45.81233],[9.88287,45.81221]]},"properties":{}},{"type":"Feature","geometry":{"type":"LineString","coordinates":[[9.8792,45.81285],[9.87958,45.81267],[9.87988,45.81259],[9.88211,45.81238]]},"properties":{}},{"type":"Feature","geometry":{"type":"LineString","coordinates":[[9.82525,45.77891],[9.8253,45.77896],[9.8253,45.77903],[9.82513,45.77923],[9.82498,45.77935],[9.82475,45.77941],[9.82469,45.77947],[9.82438,45.77996],[9.82392,45.78041],[9.82341,45.78082],[9.82326,45.78099],[9.8231,45.78128],[9.82294,45.78185],[9.82262,45.78234],[9.82218,45.78286],[9.82203,45.78311],[9.82187,45.78367],[9.82189,45.78397],[9.82199,45.78408],[9.82208,45.78412],[9.82258,45.78418],[9.82267,45.78411],[9.82285,45.78412],[9.82287,45.78406],[9.82449,45.78459],[9.8247,45.78478],[9.82493,45.78485],[9.82496,45.78488],[9.82492,45.78493],[9.82493,45.78499],[9.8255,45.78549],[9.82637,45.78606],[9.82648,45.78625],[9.82647,45.78631],[9.82635,45.78641],[9.82636,45.78648],[9.82676,45.78673],[9.82752,45.7871],[9.82843,45.78738],[9.82878,45.78744],[9.82916,45.78742]]},"properties":{}},{"type":"Feature","geometry":{"type":"LineString","coordinates":[[9.82166,45.78463],[9.8221,45.7845]]},"properties":{}},{"type":"Feature","geometry":{"type":"LineString","coordinates":[[9.82916,45.78742],[9.82927,45.78745],[9.82922,45.78758]]},"properties":{}},{"type":"Feature","geometry":{"type":"LineString","coordinates":[[9.82922,45.78758],[9.82901,45.78815]]},"properties":{}},{"type":"Feature","geometry":{"type":"LineString","coordinates":[[9.82901,45.78815],[9.829,45.78825],[9.82906,45.78834],[9.8297,45.78858],[9.82996,45.78874],[9.8301,45.78891],[9.83091,45.79082],[9.83081,45.79084],[9.83029,45.79123],[9.82981,45.79099],[9.82977,45.7911]]},"properties":{}},{"type":"Feature","geometry":{"type":"LineString","coordinates":[[9.83277,45.79051],[9.83275,45.79027],[9.83251,45.78951],[9.83249,45.78925],[9.8324,45.78904]]},"properties":{}},{"type":"Feature","geometry":{"type":"LineString","coordinates":[[9.83024,45.79128],[9.83007,45.79115],[9.82978,45.79104]]},"properties":{}},{"type":"Feature","geometry":{"type":"LineString","coordinates":[[9.83019,45.7913],[9.83024,45.79128]]},"properties":{}},{"type":"Feature","geometry":{"type":"LineString","coordinates":[[9.83019,45.7913],[9.83143,45.79257],[9.83287,45.7936]]},"properties":{}},{"type":"Feature","geometry":{"type":"LineString","coordinates":[[9.84182,45.79507],[9.84123,45.79486],[9.84012,45.79453],[9.83927,45.7944],[9.83763,45.79408],[9.83727,45.79405]]},"properties":{}},{"type":"Feature","geometry":{"type":"LineString","coordinates":[[9.84179,45.7951],[9.84182,45.79507]]},"properties":{}},{"type":"Feature","geometry":{"type":"LineString","coordinates":[[9.84156,45.7955],[9.84179,45.7951]]},"properties":{}},{"type":"Feature","geometry":{"type":"LineString","coordinates":[[9.84049,45.79544],[9.84056,45.79532]]},"properties":{}},{"type":"Feature","geometry":{"type":"LineString","coordinates":[[9.84056,45.79532],[9.84136,45.7955],[9.84156,45.7955]]},"properties":{}},{"type":"Feature","geometry":{"type":"LineString","coordinates":[[9.84141,45.79641],[9.84185,45.79585],[9.84125,45.79562],[9.84108,45.79557],[9.8407,45.79554],[9.84049,45.79544]]},"properties":{}},{"type":"Feature","geometry":{"type":"LineString","coordinates":[[9.84111,45.79632],[9.84141,45.79641]]},"properties":{}},{"type":"Feature","geometry":{"type":"LineString","coordinates":[[9.84141,45.79641],[9.84168,45.79652],[9.84132,45.79696],[9.84205,45.79727],[9.8422,45.7971]]},"properties":{}},{"type":"Feature","geometry":{"type":"LineString","coordinates":[[9.8422,45.7971],[9.84237,45.79714]]},"properties":{}},{"type":"Feature","geometry":{"type":"LineString","coordinates":[[9.84237,45.79714],[9.84728,45.79863],[9.84733,45.79873]]},"properties":{}},{"type":"Feature","geometry":{"type":"LineString","coordinates":[[9.84733,45.79873],[9.84735,45.79884]]},"properties":{}},{"type":"Feature","geometry":{"type":"LineString","coordinates":[[9.8468,45.79951],[9.84671,45.79949]]},"properties":{}},{"type":"Feature","geometry":{"type":"LineString","coordinates":[[9.84735,45.79884],[9.84728,45.799],[9.8468,45.79951],[9.84651,45.79998],[9.84636,45.80029],[9.84637,45.80042],[9.84639,45.80041],[9.8464,45.80029]]},"properties":{}},{"type":"Feature","geometry":{"type":"LineString","coordinates":[[9.84638,45.80027],[9.84632,45.80023]]},"properties":{}},{"type":"Feature","geometry":{"type":"LineString","coordinates":[[9.84685,45.80031],[9.84693,45.80031],[9.84724,45.80019],[9.84739,45.80021],[9.84745,45.80025]]},"properties":{}},{"type":"Feature","geometry":{"type":"LineString","coordinates":[[9.8464,45.80029],[9.84685,45.80031]]},"properties":{}},{"type":"Feature","geometry":{"type":"LineString","coordinates":[[9.84745,45.80025],[9.84784,45.80052]]},"properties":{}},{"type":"Feature","geometry":{"type":"LineString","coordinates":[[9.84639,45.80041],[9.84626,45.80111],[9.84613,45.80116],[9.84603,45.80115]]},"properties":{}},{"type":"Feature","geometry":{"type":"LineString","coordinates":[[9.84784,45.80052],[9.84784,45.80056],[9.84724,45.80122],[9.84716,45.80159],[9.8472,45.80167]]},"properties":{}},{"type":"Feature","geometry":{"type":"LineString","coordinates":[[9.8472,45.80167],[9.84718,45.80182]]},"properties":{}},{"type":"Feature","geometry":{"type":"LineString","coordinates":[[9.84718,45.80182],[9.84714,45.80188],[9.84712,45.80199],[9.84721,45.80227],[9.84742,45.80258],[9.84832,45.80331],[9.84888,45.80369],[9.84927,45.80388],[9.85055,45.8041],[9.85224,45.80451],[9.85242,45.80451]]},"properties":{}},{"type":"Feature","geometry":{"type":"LineString","coordinates":[[9.85218,45.80108],[9.85323,45.80118],[9.85337,45.80123],[9.85359,45.80136],[9.8539,45.80138],[9.8548,45.80134],[9.85495,45.80136],[9.85529,45.80158],[9.85586,45.80163],[9.8565,45.80176],[9.85703,45.80175],[9.85716,45.80181],[9.85739,45.80203],[9.85764,45.80213],[9.8585,45.80216],[9.85867,45.8022],[9.86001,45.80284],[9.86024,45.8029],[9.86092,45.80298],[9.86105,45.80303],[9.8612,45.80312],[9.86162,45.80346],[9.86195,45.80368],[9.86277,45.80382],[9.8639,45.80436],[9.8641,45.8046],[9.8643,45.80469],[9.86493,45.80481],[9.86527,45.80497],[9.86561,45.80507],[9.86614,45.80532],[9.86631,45.80536],[9.86675,45.80536],[9.86712,45.80529],[9.86756,45.80531],[9.8688,45.80556],[9.8695,45.80552],[9.87077,45.80566],[9.87115,45.80567],[9.87165,45.80576]]},"properties":{}},{"type":"Feature","geometry":{"type":"LineString","coordinates":[[9.84699,45.80314],[9.84793,45.80398],[9.84801,45.80403],[9.84829,45.80409],[9.849,45.80458],[9.84922,45.80483],[9.84978,45.80523]]},"properties":{}},{"type":"Feature","geometry":{"type":"LineString","coordinates":[[9.85242,45.80451],[9.85252,45.80448]]},"properties":{}},{"type":"Feature","geometry":{"type":"LineString","coordinates":[[9.85252,45.80448],[9.85258,45.80448],[9.85283,45.80464],[9.85315,45.8047],[9.85343,45.80486],[9.85394,45.80504],[9.85398,45.8051]]},"properties":{}},{"type":"Feature","geometry":{"type":"LineString","coordinates":[[9.8508,45.80598],[9.84829,45.80431],[9.84757,45.80379]]},"properties":{}},{"type":"Feature","geometry":{"type":"LineString","coordinates":[[9.85398,45.8051],[9.85376,45.80539]]},"properties":{}},{"type":"Feature","geometry":{"type":"LineString","coordinates":[[9.84978,45.80523],[9.84994,45.80533]]},"properties":{}},{"type":"Feature","geometry":{"type":"LineString","coordinates":[[9.84994,45.80533],[9.85074,45.80587],[9.85097,45.80598],[9.8515,45.80633]]},"properties":{}},{"type":"Feature","geometry":{"type":"LineString","coordinates":[[9.85146,45.8064],[9.8508,45.80598]]},"properties":{}},{"type":"Feature","geometry":{"type":"LineString","coordinates":[[9.8515,45.80633],[9.85165,45.80643]]},"properties":{}},{"type":"Feature","geometry":{"type":"LineString","coordinates":[[9.85158,45.80648],[9.85146,45.8064]]},"properties":{}},{"type":"Feature","geometry":{"type":"LineString","coordinates":[[9.85165,45.80643],[9.85287,45.80737]]},"properties":{}},{"type":"Feature","geometry":{"type":"LineString","coordinates":[[9.85376,45.80539],[9.85369,45.80554],[9.85446,45.8062],[9.85481,45.80629],[9.85491,45.80637],[9.85494,45.80649],[9.85501,45.80657],[9.85572,45.8069],[9.85598,45.80716],[9.85637,45.80739],[9.85709,45.80791],[9.85776,45.80854]]},"properties":{}},{"type":"Feature","geometry":{"type":"LineString","coordinates":[[9.85297,45.80751],[9.85158,45.80648]]},"properties":{}},{"type":"Feature","geometry":{"type":"LineString","coordinates":[[9.85776,45.80854],[9.85835,45.80864],[9.85867,45.80864]]},"properties":{}},{"type":"Feature","geometry":{"type":"LineString","coordinates":[[9.85867,45.80864],[9.85908,45.8086]]},"properties":{}},{"type":"Feature","geometry":{"type":"LineString","coordinates":[[9.85776,45.80854],[9.85794,45.80866],[9.85779,45.80876]]},"properties":{}},{"type":"Feature","geometry":{"type":"LineString","coordinates":[[9.85779,45.80876],[9.8577,45.80881]]},"properties":{}},{"type":"Feature","geometry":{"type":"LineString","coordinates":[[9.8577,45.80881],[9.85759,45.80889]]},"properties":{}},{"type":"Feature","geometry":{"type":"LineString","coordinates":[[9.8616,45.80923],[9.86192,45.80947],[9.86257,45.80981],[9.86282,45.80999],[9.86312,45.81022],[9.86331,45.81048],[9.86371,45.81084],[9.8641,45.81111],[9.86434,45.81113]]},"properties":{}},{"type":"Feature","geometry":{"type":"LineString","coordinates":[[9.75177,45.78127],[9.75244,45.78157],[9.75266,45.7816],[9.7547,45.78159],[9.755,45.78173]]},"properties":{}},{"type":"Feature","geometry":{"type":"LineString","coordinates":[[9.75383,45.78189],[9.75301,45.78171],[9.7523,45.78162],[9.75201,45.7815],[9.75189,45.78142],[9.75177,45.78127]]},"properties":{}},{"type":"Feature","geometry":{"type":"LineString","coordinates":[[9.755,45.78173],[9.75584,45.7824],[9.75597,45.78244],[9.75625,45.78244],[9.75674,45.78233],[9.75702,45.78243],[9.75713,45.78259],[9.75716,45.78273],[9.75714,45.78292],[9.7566,45.78391],[9.7565,45.78413],[9.75638,45.78459],[9.75628,45.78472],[9.75629,45.7851]]},"properties":{}},{"type":"Feature","geometry":{"type":"LineString","coordinates":[[9.75629,45.7851],[9.75584,45.78352],[9.7557,45.78327],[9.75546,45.78297],[9.7553,45.78284],[9.7545,45.7826],[9.75435,45.78249],[9.7543,45.78239]]},"properties":{}},{"type":"Feature","geometry":{"type":"LineString","coordinates":[[9.75643,45.78557],[9.75642,45.78542]]},"properties":{}},{"type":"Feature","geometry":{"type":"LineString","coordinates":[[9.75642,45.78542],[9.75662,45.78559]]},"properties":{}},{"type":"Feature","geometry":{"type":"LineString","coordinates":[[9.75643,45.78557],[9.75662,45.78559]]},"properties":{}},{"type":"Feature","geometry":{"type":"LineString","coordinates":[[9.75662,45.78559],[9.75677,45.78571]]},"properties":{}},{"type":"Feature","geometry":{"type":"LineString","coordinates":[[9.75623,45.78576],[9.75628,45.78567],[9.75643,45.78557]]},"properties":{}},{"type":"Feature","geometry":{"type":"LineString","coordinates":[[9.85908,45.8086],[9.85917,45.8086],[9.85925,45.80866],[9.85943,45.80905],[9.8596,45.80932],[9.85968,45.80979],[9.85975,45.80993],[9.85988,45.81007],[9.86091,45.81085],[9.86153,45.8115],[9.86186,45.81179]]},"properties":{}},{"type":"Feature","geometry":{"type":"LineString","coordinates":[[9.86371,45.81084],[9.8639,45.81108],[9.86407,45.81187],[9.86423,45.81199],[9.86454,45.81201],[9.86458,45.81206]]},"properties":{}},{"type":"Feature","geometry":{"type":"LineString","coordinates":[[9.86186,45.81179],[9.86184,45.81185]]},"properties":{}},{"type":"Feature","geometry":{"type":"LineString","coordinates":[[9.86184,45.81185],[9.86177,45.81204],[9.86184,45.81234],[9.86181,45.81243],[9.86164,45.81253],[9.86144,45.81293],[9.86141,45.81318],[9.8613,45.81334],[9.86124,45.81377],[9.86118,45.81381],[9.86114,45.81377],[9.8612,45.81359],[9.8612,45.81356],[9.86116,45.81356],[9.86104,45.8138],[9.861,45.81378]]},"properties":{}},{"type":"Feature","geometry":{"type":"LineString","coordinates":[[9.85773,45.81315],[9.85785,45.81327],[9.85798,45.8135]]},"properties":{}},{"type":"Feature","geometry":{"type":"LineString","coordinates":[[9.85743,45.81328],[9.85753,45.81354]]},"properties":{}},{"type":"Feature","geometry":{"type":"LineString","coordinates":[[9.85704,45.81352],[9.8574,45.81354],[9.85798,45.8135],[9.85842,45.81332]]},"properties":{}},{"type":"Feature","geometry":{"type":"LineString","coordinates":[[9.861,45.81378],[9.86092,45.81374]]},"properties":{}},{"type":"Feature","geometry":{"type":"LineString","coordinates":[[9.86092,45.81374],[9.86049,45.81426],[9.8604,45.81427]]},"properties":{}},{"type":"Feature","geometry":{"type":"LineString","coordinates":[[9.85942,45.81405],[9.8593,45.81413]]},"properties":{}},{"type":"Feature","geometry":{"type":"LineString","coordinates":[[9.85954,45.81417],[9.85942,45.81405]]},"properties":{}},{"type":"Feature","geometry":{"type":"LineString","coordinates":[[9.8593,45.81413],[9.85918,45.81408],[9.85911,45.8141],[9.85908,45.81415]]},"properties":{}},{"type":"Feature","geometry":{"type":"LineString","coordinates":[[9.86004,45.81439],[9.85954,45.81417]]},"properties":{}},{"type":"Feature","geometry":{"type":"LineString","coordinates":[[9.8604,45.81427],[9.86019,45.8143]]},"properties":{}},{"type":"Feature","geometry":{"type":"LineString","coordinates":[[9.86019,45.8143],[9.86008,45.81434],[9.86011,45.81437],[9.86015,45.81435],[9.86015,45.81438],[9.86004,45.81439]]},"properties":{}},{"type":"Feature","geometry":{"type":"LineString","coordinates":[[9.85908,45.81415],[9.85902,45.81459],[9.85869,45.81533],[9.85853,45.81606],[9.85851,45.81702],[9.85862,45.81745],[9.85865,45.81853]]},"properties":{}},{"type":"Feature","geometry":{"type":"LineString","coordinates":[[9.85865,45.81853],[9.85865,45.81854]]},"properties":{}},{"type":"Feature","geometry":{"type":"LineString","coordinates":[[9.85865,45.81854],[9.85865,45.81943],[9.85918,45.82222],[9.85948,45.82294],[9.85991,45.82375],[9.86001,45.82399],[9.86008,45.82431],[9.86007,45.82518]]},"properties":{}},{"type":"Feature","geometry":{"type":"LineString","coordinates":[[9.86007,45.82518],[9.86007,45.82526]]},"properties":{}},{"type":"Feature","geometry":{"type":"LineString","coordinates":[[9.86007,45.82526],[9.8601,45.8259],[9.86019,45.8265],[9.86027,45.82666]]},"properties":{}},{"type":"Feature","geometry":{"type":"LineString","coordinates":[[9.87165,45.81403],[9.87213,45.81363],[9.87304,45.81316],[9.8732,45.81312],[9.87355,45.81313],[9.87431,45.81326],[9.8754,45.81315],[9.87651,45.81318],[9.87751,45.81308],[9.87829,45.81307],[9.8786,45.81303],[9.8792,45.81285]]},"properties":{}},{"type":"Feature","geometry":{"type":"LineString","coordinates":[[9.87139,45.81429],[9.87165,45.81403]]},"properties":{}},{"type":"Feature","geometry":{"type":"LineString","coordinates":[[9.90148,45.81444],[9.9013,45.81444],[9.90052,45.81425]]},"properties":{}},{"type":"Feature","geometry":{"type":"LineString","coordinates":[[9.8705,45.81483],[9.87121,45.81443],[9.87139,45.81429]]},"properties":{}},{"type":"Feature","geometry":{"type":"LineString","coordinates":[[9.8705,45.81483],[9.86972,45.81519]]},"properties":{}},{"type":"Feature","geometry":{"type":"LineString","coordinates":[[9.90148,45.81444],[9.90154,45.8147],[9.90153,45.81488],[9.90161,45.81541],[9.90169,45.81545],[9.90224,45.81545],[9.90264,45.81551],[9.90303,45.81563],[9.90363,45.81596],[9.90372,45.81608],[9.90369,45.8162],[9.9036,45.81631],[9.90314,45.81664],[9.90305,45.81677],[9.90303,45.8173],[9.90297,45.81738],[9.90277,45.81737],[9.90255,45.81724],[9.90237,45.8172],[9.90206,45.81722],[9.90193,45.81726],[9.9019,45.8173],[9.90193,45.81766],[9.90226,45.81797],[9.90226,45.81829],[9.90232,45.81839],[9.90291,45.81885],[9.90304,45.8189],[9.90316,45.81893],[9.90373,45.81891],[9.90396,45.81902],[9.90438,45.8193],[9.9051,45.81952],[9.90563,45.81961],[9.90623,45.81978],[9.9065,45.81988],[9.90662,45.81996],[9.90663,45.82003],[9.9066,45.82008],[9.90644,45.82008],[9.90617,45.81997],[9.90596,45.81993],[9.90579,45.81994],[9.90507,45.82024],[9.90432,45.82049],[9.9036,45.82068],[9.9033,45.82067],[9.9029,45.8206],[9.90269,45.82061],[9.90237,45.82071],[9.90225,45.82071],[9.90204,45.82062]]},"properties":{}},{"type":"Feature","geometry":{"type":"LineString","coordinates":[[9.90272,45.81871],[9.90263,45.81873],[9.90241,45.81866],[9.90193,45.81858],[9.90169,45.8186],[9.90073,45.81895],[9.90005,45.8189]]},"properties":{}},{"type":"Feature","geometry":{"type":"LineString","coordinates":[[9.90219,45.81861],[9.90189,45.8187],[9.90187,45.81875],[9.90195,45.81881],[9.90218,45.81887],[9.90218,45.8189],[9.90135,45.81906]]},"properties":{}},{"type":"Feature","geometry":{"type":"LineString","coordinates":[[9.89733,45.81897],[9.89779,45.81903],[9.89791,45.81909],[9.89875,45.81907],[9.89899,45.8191],[9.89935,45.8192],[9.89991,45.81928],[9.90027,45.81939],[9.90085,45.81937],[9.90135,45.81939],[9.90218,45.81924],[9.90243,45.81931],[9.90265,45.81944]]},"properties":{}},{"type":"Feature","geometry":{"type":"LineString","coordinates":[[9.8673,45.83735],[9.86805,45.83777],[9.86892,45.83818],[9.86898,45.83826],[9.87021,45.83878],[9.8707,45.83904],[9.87351,45.84121]]},"properties":{}},{"type":"Feature","geometry":{"type":"LineString","coordinates":[[9.94832,45.78944],[9.94839,45.78933]]},"properties":{}},{"type":"Feature","geometry":{"type":"LineString","coordinates":[[9.94989,45.78999],[9.94994,45.78986]]},"properties":{}},{"type":"Feature","geometry":{"type":"LineString","coordinates":[[9.95141,45.7906],[9.95135,45.79069]]},"properties":{}},{"type":"Feature","geometry":{"type":"LineString","coordinates":[[9.99528,45.86913],[9.996,45.86863],[9.99702,45.86759]]},"properties":{}},{"type":"Feature","geometry":{"type":"LineString","coordinates":[[9.99401,45.86977],[9.99437,45.86967],[9.99493,45.86938],[9.99528,45.86913]]},"properties":{}},{"type":"Feature","geometry":{"type":"LineString","coordinates":[[9.95726,45.8823],[9.95735,45.88214],[9.95726,45.88183],[9.95726,45.88168],[9.9574,45.88146],[9.95766,45.88155],[9.9581,45.88162]]},"properties":{}},{"type":"Feature","geometry":{"type":"LineString","coordinates":[[9.98268,45.88183],[9.98286,45.88195],[9.98302,45.88212],[9.98315,45.88234],[9.98319,45.88249]]},"properties":{}},{"type":"Feature","geometry":{"type":"LineString","coordinates":[[9.9572,45.8824],[9.95726,45.8823]]},"properties":{}},{"type":"Feature","geometry":{"type":"LineString","coordinates":[[9.95729,45.88299],[9.95724,45.88296],[9.95735,45.88274],[9.95728,45.88251],[9.9572,45.8824]]},"properties":{}},{"type":"Feature","geometry":{"type":"LineString","coordinates":[[9.98319,45.88249],[9.98311,45.88292],[9.98325,45.88345],[9.98331,45.88382],[9.98331,45.88389],[9.98328,45.88392]]},"properties":{}},{"type":"Feature","geometry":{"type":"LineString","coordinates":[[9.86027,45.82666],[9.86031,45.82674]]},"properties":{}},{"type":"Feature","geometry":{"type":"LineString","coordinates":[[9.86031,45.82674],[9.8608,45.82765],[9.86156,45.8283],[9.86228,45.82868],[9.86346,45.82962]]},"properties":{}},{"type":"Feature","geometry":{"type":"LineString","coordinates":[[9.86346,45.82962],[9.86357,45.82973]]},"properties":{}},{"type":"Feature","geometry":{"type":"LineString","coordinates":[[9.86357,45.82973],[9.86368,45.82983]]},"properties":{}},{"type":"Feature","geometry":{"type":"LineString","coordinates":[[9.8492,45.85754],[9.84916,45.85774]]},"properties":{}},{"type":"Feature","geometry":{"type":"LineString","coordinates":[[9.85701,45.85802],[9.85695,45.85793],[9.8568,45.8579],[9.85584,45.85798],[9.85535,45.85807],[9.85477,45.85805],[9.8543,45.85791],[9.85382,45.85784],[9.85293,45.85749],[9.85263,45.8575],[9.85244,45.85742],[9.85229,45.85739],[9.85154,45.85743],[9.8506,45.85731],[9.84953,45.85753],[9.84923,45.85752],[9.8492,45.85754]]},"properties":{}},{"type":"Feature","geometry":{"type":"LineString","coordinates":[[9.84916,45.85774],[9.84912,45.85781],[9.84896,45.85789]]},"properties":{}},{"type":"Feature","geometry":{"type":"LineString","coordinates":[[9.85707,45.85823],[9.85701,45.85802]]},"properties":{}},{"type":"Feature","geometry":{"type":"LineString","coordinates":[[9.84896,45.85789],[9.84718,45.85812],[9.84634,45.8584],[9.84591,45.85843]]},"properties":{}},{"type":"Feature","geometry":{"type":"LineString","coordinates":[[9.85709,45.85828],[9.85707,45.85823]]},"properties":{}},{"type":"Feature","geometry":{"type":"LineString","coordinates":[[9.87351,45.84121],[9.87449,45.84205]]},"properties":{}},{"type":"Feature","geometry":{"type":"LineString","coordinates":[[9.87449,45.84205],[9.87457,45.84212]]},"properties":{}},{"type":"Feature","geometry":{"type":"LineString","coordinates":[[9.87457,45.84212],[9.87503,45.84252],[9.87548,45.84283],[9.87578,45.84302],[9.87628,45.84324],[9.87654,45.84341],[9.87723,45.84366],[9.87863,45.844],[9.87918,45.84423],[9.87936,45.84437],[9.87977,45.84485]]},"properties":{}},{"type":"Feature","geometry":{"type":"LineString","coordinates":[[9.87977,45.84485],[9.87985,45.84528],[9.87982,45.84547],[9.87946,45.84669],[9.87943,45.84693],[9.87946,45.84733]]},"properties":{}},{"type":"Feature","geometry":{"type":"LineString","coordinates":[[9.87946,45.84733],[9.87958,45.8476],[9.87983,45.84789],[9.88149,45.84927],[9.88177,45.84967],[9.88188,45.84996],[9.88195,45.85026],[9.88191,45.85097],[9.88173,45.85248],[9.88169,45.85261],[9.88125,45.8536],[9.88079,45.8543],[9.88062,45.85463],[9.8805,45.85512],[9.88046,45.8557],[9.87955,45.85732],[9.8793,45.85788],[9.87928,45.8581],[9.87933,45.8584]]},"properties":{}},{"type":"Feature","geometry":{"type":"LineString","coordinates":[[9.87933,45.8584],[9.87941,45.85876]]},"properties":{}},{"type":"Feature","geometry":{"type":"LineString","coordinates":[[9.87946,45.85867],[9.87925,45.85867]]},"properties":{}},{"type":"Feature","geometry":{"type":"LineString","coordinates":[[9.87953,45.85899],[9.87956,45.8589],[9.87954,45.85872],[9.87946,45.85867]]},"properties":{}},{"type":"Feature","geometry":{"type":"LineString","coordinates":[[9.87941,45.85876],[9.87953,45.85899]]},"properties":{}},{"type":"Feature","geometry":{"type":"LineString","coordinates":[[9.87925,45.85867],[9.87871,45.85879],[9.87788,45.85914],[9.87737,45.8592],[9.87731,45.85929],[9.8749,45.85945],[9.86941,45.85929],[9.86835,45.85898],[9.86805,45.85886],[9.86742,45.85882],[9.86691,45.85874],[9.86661,45.85877],[9.86592,45.85898],[9.86583,45.85904],[9.86575,45.85906]]},"properties":{}},{"type":"Feature","geometry":{"type":"LineString","coordinates":[[9.86876,45.85909],[9.86871,45.85914]]},"properties":{}},{"type":"Feature","geometry":{"type":"LineString","coordinates":[[9.87957,45.85907],[9.87964,45.85924],[9.87972,45.85983],[9.88033,45.85961]]},"properties":{}},{"type":"Feature","geometry":{"type":"LineString","coordinates":[[9.87953,45.85899],[9.87957,45.85907],[9.88063,45.85982],[9.88124,45.86046],[9.8817,45.8612],[9.88177,45.8614]]},"properties":{}},{"type":"Feature","geometry":{"type":"LineString","coordinates":[[9.88177,45.8614],[9.88183,45.86147]]},"properties":{}},{"type":"Feature","geometry":{"type":"LineString","coordinates":[[9.88183,45.86147],[9.88216,45.86198],[9.8823,45.8623],[9.88235,45.86251],[9.88327,45.86377],[9.88346,45.86388],[9.88363,45.86412],[9.88363,45.86428],[9.88371,45.86431],[9.88384,45.86444],[9.88403,45.86476],[9.88417,45.86523],[9.88437,45.86661],[9.88458,45.86686]]},"properties":{}},{"type":"Feature","geometry":{"type":"LineString","coordinates":[[9.88458,45.86686],[9.88544,45.86768]]},"properties":{}},{"type":"Feature","geometry":{"type":"LineString","coordinates":[[9.88544,45.86768],[9.88551,45.86776],[9.88573,45.86789]]},"properties":{}},{"type":"Feature","geometry":{"type":"LineString","coordinates":[[9.88573,45.86789],[9.88598,45.86803],[9.88807,45.86835],[9.89022,45.86909]]},"properties":{}},{"type":"Feature","geometry":{"type":"LineString","coordinates":[[9.89318,45.86905],[9.89324,45.86908]]},"properties":{}},{"type":"Feature","geometry":{"type":"LineString","coordinates":[[9.89032,45.86909],[9.89029,45.86912]]},"properties":{}},{"type":"Feature","geometry":{"type":"LineString","coordinates":[[9.89126,45.8692],[9.89203,45.86924],[9.89237,45.86922],[9.89318,45.86905]]},"properties":{}},{"type":"Feature","geometry":{"type":"LineString","coordinates":[[9.89022,45.86909],[9.89055,45.86922],[9.89099,45.86928],[9.89132,45.86939]]},"properties":{}},{"type":"Feature","geometry":{"type":"LineString","coordinates":[[9.8914,45.8693],[9.89143,45.86927]]},"properties":{}},{"type":"Feature","geometry":{"type":"LineString","coordinates":[[9.89132,45.86939],[9.8914,45.8693]]},"properties":{}},{"type":"Feature","geometry":{"type":"LineString","coordinates":[[9.89318,45.86905],[9.89355,45.86899],[9.89383,45.869],[9.89406,45.86902],[9.89446,45.86913],[9.9002,45.87141]]},"properties":{}},{"type":"Feature","geometry":{"type":"LineString","coordinates":[[9.9002,45.87141],[9.90076,45.87163]]},"properties":{}},{"type":"Feature","geometry":{"type":"LineString","coordinates":[[9.90145,45.87219],[9.90184,45.87223],[9.90169,45.87212],[9.90183,45.87203]]},"properties":{}},{"type":"Feature","geometry":{"type":"LineString","coordinates":[[9.90076,45.87163],[9.90183,45.87203],[9.90246,45.87218],[9.90312,45.87221],[9.90423,45.87218],[9.90473,45.87226],[9.9059,45.87273],[9.90625,45.87279],[9.90779,45.8729],[9.91367,45.8732],[9.91457,45.87327],[9.91533,45.87334],[9.91576,45.87346],[9.91616,45.87363]]},"properties":{}},{"type":"Feature","geometry":{"type":"LineString","coordinates":[[9.90978,45.87322],[9.90976,45.873]]},"properties":{}},{"type":"Feature","geometry":{"type":"LineString","coordinates":[[9.90979,45.87329],[9.90978,45.87322]]},"properties":{}},{"type":"Feature","geometry":{"type":"LineString","coordinates":[[9.91565,45.87306],[9.91573,45.87323],[9.91579,45.87342],[9.91576,45.87346]]},"properties":{}},{"type":"Feature","geometry":{"type":"LineString","coordinates":[[9.91457,45.87327],[9.91469,45.87332],[9.91505,45.87338],[9.9155,45.87343],[9.91558,45.87341]]},"properties":{}},{"type":"Feature","geometry":{"type":"LineString","coordinates":[[9.91616,45.87363],[9.91647,45.87377]]},"properties":{}},{"type":"Feature","geometry":{"type":"LineString","coordinates":[[9.90979,45.87329],[9.90989,45.87346],[9.91008,45.87367],[9.91017,45.87384],[9.91029,45.87426],[9.91067,45.87452],[9.91086,45.8746],[9.91132,45.87467]]},"properties":{}},{"type":"Feature","geometry":{"type":"LineString","coordinates":[[9.91132,45.87467],[9.91146,45.87464],[9.91188,45.87441],[9.91203,45.87437],[9.91241,45.87441],[9.91264,45.87459]]},"properties":{}},{"type":"Feature","geometry":{"type":"LineString","coordinates":[[9.91393,45.87592],[9.91421,45.87562],[9.9142,45.87548],[9.9141,45.87529],[9.91395,45.8751],[9.9135,45.87478],[9.91278,45.87442],[9.91264,45.87425],[9.91243,45.87376],[9.91229,45.87371],[9.91152,45.87359],[9.91073,45.87331],[9.91058,45.87328],[9.90979,45.87329]]},"properties":{}},{"type":"Feature","geometry":{"type":"LineString","coordinates":[[9.9133,45.87469],[9.91311,45.87464],[9.91241,45.87458],[9.9115,45.87469],[9.91129,45.87476]]},"properties":{}},{"type":"Feature","geometry":{"type":"LineString","coordinates":[[9.91132,45.87467],[9.91133,45.87472],[9.91129,45.87476],[9.91103,45.87487],[9.91071,45.87495]]},"properties":{}},{"type":"Feature","geometry":{"type":"LineString","coordinates":[[9.91071,45.87495],[9.91059,45.87497]]},"properties":{}},{"type":"Feature","geometry":{"type":"LineString","coordinates":[[9.90966,45.87599],[9.90943,45.87586],[9.90948,45.87579],[9.90997,45.87541],[9.91016,45.87522],[9.91059,45.87497],[9.91063,45.87499],[9.91064,45.87505],[9.91081,45.8751],[9.91127,45.8751],[9.91167,45.87504],[9.91211,45.87503],[9.91298,45.87511],[9.91356,45.87523],[9.9138,45.87533],[9.91393,45.87592]]},"properties":{}},{"type":"Feature","geometry":{"type":"LineString","coordinates":[[9.91127,45.87728],[9.91097,45.87687],[9.90984,45.87687],[9.90935,45.87678],[9.9089,45.87657],[9.90836,45.87624],[9.90804,45.87608],[9.90776,45.87629]]},"properties":{}},{"type":"Feature","geometry":{"type":"LineString","coordinates":[[9.91647,45.87377],[9.92153,45.87625],[9.92179,45.87647],[9.92236,45.87706],[9.92264,45.87725],[9.92322,45.87754],[9.92804,45.87935],[9.9304,45.88016]]},"properties":{}},{"type":"Feature","geometry":{"type":"LineString","coordinates":[[9.9114,45.87748],[9.91127,45.87728]]},"properties":{}},{"type":"Feature","geometry":{"type":"LineString","coordinates":[[9.91876,45.88104],[9.91802,45.88098],[9.91752,45.88083],[9.91697,45.8806],[9.9159,45.87987],[9.9153,45.87953],[9.91471,45.87927],[9.91367,45.87861],[9.91326,45.87844],[9.91243,45.87792],[9.91184,45.8777],[9.91158,45.87767],[9.9114,45.87748]]},"properties":{}},{"type":"Feature","geometry":{"type":"LineString","coordinates":[[9.9304,45.88016],[9.93038,45.88019],[9.93063,45.88029],[9.93062,45.88034]]},"properties":{}},{"type":"Feature","geometry":{"type":"LineString","coordinates":[[9.9304,45.88016],[9.93088,45.88034],[9.93097,45.88035],[9.93099,45.88032]]},"properties":{}},{"type":"Feature","geometry":{"type":"LineString","coordinates":[[9.93062,45.88034],[9.93055,45.88044]]},"properties":{}},{"type":"Feature","geometry":{"type":"LineString","coordinates":[[9.93055,45.88044],[9.93026,45.88038],[9.92981,45.88048],[9.92965,45.88042],[9.92959,45.88042],[9.92956,45.88046]]},"properties":{}},{"type":"Feature","geometry":{"type":"LineString","coordinates":[[9.9371,45.88028],[9.93691,45.88089],[9.93666,45.88154],[9.93649,45.88196],[9.9364,45.88208],[9.93626,45.88213],[9.93583,45.88212],[9.9355,45.88207],[9.93525,45.88197],[9.9352,45.88199]]},"properties":{}},{"type":"Feature","geometry":{"type":"LineString","coordinates":[[9.91876,45.88104],[9.91829,45.88152],[9.91818,45.88184],[9.91823,45.88208]]},"properties":{}},{"type":"Feature","geometry":{"type":"LineString","coordinates":[[9.98309,45.88387],[9.97873,45.88375]]},"properties":{}},{"type":"Feature","geometry":{"type":"LineString","coordinates":[[9.98328,45.88392],[9.98317,45.88387],[9.98309,45.88387]]},"properties":{}},{"type":"Feature","geometry":{"type":"LineString","coordinates":[[9.9352,45.88199],[9.93918,45.88382],[9.93976,45.88403],[9.9414,45.88428],[9.94275,45.88463],[9.94323,45.88489],[9.94496,45.88611]]},"properties":{}},{"type":"Feature","geometry":{"type":"LineString","coordinates":[[9.98328,45.88392],[9.98338,45.88404],[9.98361,45.88458],[9.98394,45.8848],[9.98431,45.8851],[9.9847,45.88522],[9.98479,45.88533],[9.98479,45.88537]]},"properties":{}},{"type":"Feature","geometry":{"type":"LineString","coordinates":[[9.98261,45.88506],[9.98264,45.88501],[9.983,45.88486],[9.98312,45.88451],[9.98315,45.88447],[9.98322,45.88446]]},"properties":{}},{"type":"Feature","geometry":{"type":"LineString","coordinates":[[9.98259,45.88519],[9.98261,45.88506]]},"properties":{}},{"type":"Feature","geometry":{"type":"LineString","coordinates":[[9.98468,45.88562],[9.98479,45.88537]]},"properties":{}},{"type":"Feature","geometry":{"type":"LineString","coordinates":[[9.98468,45.88562],[9.98356,45.88563],[9.98344,45.88567],[9.9833,45.88582]]},"properties":{}},{"type":"Feature","geometry":{"type":"LineString","coordinates":[[9.98495,45.88587],[9.9848,45.88564],[9.98468,45.88562]]},"properties":{}},{"type":"Feature","geometry":{"type":"LineString","coordinates":[[9.9887,45.88601],[9.98876,45.88602]]},"properties":{}},{"type":"Feature","geometry":{"type":"LineString","coordinates":[[9.91823,45.88208],[9.91933,45.88246],[9.92049,45.88274],[9.92072,45.88277],[9.92109,45.88291]]},"properties":{}},{"type":"Feature","geometry":{"type":"LineString","coordinates":[[9.92119,45.88344],[9.92109,45.88291]]},"properties":{}},{"type":"Feature","geometry":{"type":"LineString","coordinates":[[9.91919,45.88696],[9.9198,45.88629],[9.92025,45.88596],[9.92059,45.8856],[9.92074,45.88498],[9.92121,45.88367],[9.92119,45.88344]]},"properties":{}},{"type":"Feature","geometry":{"type":"LineString","coordinates":[[9.91692,45.88591],[9.91594,45.88527],[9.91565,45.88504],[9.91538,45.88467],[9.91522,45.88464]]},"properties":{}},{"type":"Feature","geometry":{"type":"LineString","coordinates":[[9.91116,45.88573],[9.91064,45.8856]]},"properties":{}},{"type":"Feature","geometry":{"type":"LineString","coordinates":[[9.90988,45.8859],[9.90999,45.88587],[9.91011,45.88578],[9.9104,45.88547],[9.91048,45.88547],[9.91058,45.88558],[9.91064,45.8856]]},"properties":{}},{"type":"Feature","geometry":{"type":"LineString","coordinates":[[9.91919,45.88696],[9.91907,45.88682],[9.91869,45.88656],[9.91718,45.88587],[9.91692,45.88591],[9.91688,45.88595]]},"properties":{}},{"type":"Feature","geometry":{"type":"LineString","coordinates":[[9.91116,45.88573],[9.91128,45.88576],[9.91156,45.88558],[9.91177,45.88552],[9.91194,45.88553],[9.91276,45.88591],[9.91326,45.88608],[9.91339,45.88617],[9.91343,45.88623],[9.91382,45.88638],[9.91445,45.88654],[9.91621,45.88764]]},"properties":{}},{"type":"Feature","geometry":{"type":"LineString","coordinates":[[9.91907,45.88704],[9.91919,45.88696]]},"properties":{}},{"type":"Feature","geometry":{"type":"LineString","coordinates":[[9.93579,45.88658],[9.93646,45.88705],[9.93785,45.88788],[9.93848,45.88816]]},"properties":{}},{"type":"Feature","geometry":{"type":"LineString","coordinates":[[9.92139,45.89078],[9.92121,45.89052],[9.92081,45.88949],[9.92055,45.88909],[9.92,45.88843],[9.92012,45.88835],[9.92013,45.88831],[9.91953,45.88743],[9.91922,45.8871],[9.91919,45.88696]]},"properties":{}},{"type":"Feature","geometry":{"type":"LineString","coordinates":[[9.92005,45.89346],[9.91982,45.89331],[9.9195,45.89301],[9.91922,45.89289],[9.91917,45.89281],[9.91909,45.89267],[9.91907,45.89251],[9.91876,45.89205],[9.91855,45.89166],[9.91807,45.89104],[9.91798,45.89071],[9.91761,45.89025],[9.91749,45.88995],[9.91755,45.88954]]},"properties":{}},{"type":"Feature","geometry":{"type":"LineString","coordinates":[[9.91969,45.8934],[9.91992,45.8935],[9.92002,45.89351],[9.92005,45.89346]]},"properties":{}},{"type":"Feature","geometry":{"type":"LineString","coordinates":[[9.91896,45.89394],[9.91969,45.8934]]},"properties":{}},{"type":"Feature","geometry":{"type":"LineString","coordinates":[[9.91848,45.89444],[9.91852,45.89441],[9.91854,45.89432],[9.91896,45.89394]]},"properties":{}},{"type":"Feature","geometry":{"type":"LineString","coordinates":[[9.92713,45.90032],[9.92665,45.8999],[9.92625,45.89969],[9.92561,45.89952],[9.92539,45.89933],[9.9246,45.89779],[9.92436,45.89707],[9.92417,45.89689],[9.92389,45.8967],[9.92362,45.89662],[9.92344,45.89653],[9.92306,45.89633],[9.92278,45.89612],[9.92215,45.89511],[9.92146,45.8943],[9.92095,45.89403],[9.92005,45.89346]]},"properties":{}},{"type":"Feature","geometry":{"type":"LineString","coordinates":[[9.92573,45.90143],[9.92513,45.90093],[9.92502,45.90095]]},"properties":{}},{"type":"Feature","geometry":{"type":"LineString","coordinates":[[9.92607,45.9017],[9.92573,45.90143]]},"properties":{}},{"type":"Feature","geometry":{"type":"LineString","coordinates":[[9.92607,45.9017],[9.92599,45.90171]]},"properties":{}},{"type":"Feature","geometry":{"type":"LineString","coordinates":[[9.92607,45.9017],[9.9263,45.90169],[9.9264,45.90177],[9.92643,45.90184],[9.9264,45.90193],[9.92627,45.90202]]},"properties":{}},{"type":"Feature","geometry":{"type":"LineString","coordinates":[[9.92711,45.90295],[9.92696,45.9028],[9.92683,45.90231],[9.92667,45.9021],[9.92642,45.90201],[9.9261,45.90205]]},"properties":{}},{"type":"Feature","geometry":{"type":"LineString","coordinates":[[9.92751,45.90309],[9.92711,45.90295]]},"properties":{}},{"type":"Feature","geometry":{"type":"LineString","coordinates":[[9.92838,45.9032],[9.92751,45.90309]]},"properties":{}},{"type":"Feature","geometry":{"type":"LineString","coordinates":[[9.92844,45.9032],[9.92838,45.9032]]},"properties":{}},{"type":"Feature","geometry":{"type":"LineString","coordinates":[[9.92732,45.90558],[9.92748,45.90517],[9.92748,45.90489],[9.92755,45.9043],[9.92753,45.90365],[9.92749,45.90353],[9.92709,45.90313],[9.92708,45.90304],[9.92711,45.90295]]},"properties":{}},{"type":"Feature","geometry":{"type":"LineString","coordinates":[[9.92782,45.90645],[9.92781,45.9065],[9.92784,45.9065],[9.9277,45.90668],[9.9276,45.9071],[9.92759,45.90751],[9.92763,45.90766],[9.92779,45.90792],[9.92816,45.90819]]},"properties":{}},{"type":"Feature","geometry":{"type":"LineString","coordinates":[[9.92816,45.90819],[9.92826,45.9083]]},"properties":{}},{"type":"Feature","geometry":{"type":"LineString","coordinates":[[9.92826,45.9083],[9.92829,45.90836],[9.92828,45.9085],[9.92859,45.90874],[9.92933,45.90946],[9.92957,45.90972],[9.9296,45.90982],[9.92946,45.91033],[9.92904,45.91068],[9.92855,45.91144],[9.92871,45.91154],[9.93002,45.91201]]},"properties":{}},{"type":"Feature","geometry":{"type":"LineString","coordinates":[[9.92613,45.93737],[9.92621,45.93718],[9.92636,45.93695],[9.92652,45.93682],[9.92665,45.93664],[9.92704,45.93626],[9.9272,45.93591],[9.92744,45.93567],[9.92778,45.93525],[9.92786,45.93519],[9.92827,45.93468],[9.92838,45.93447],[9.92841,45.93421],[9.92839,45.9339]]},"properties":{}},{"type":"Feature","geometry":{"type":"LineString","coordinates":[[9.92612,45.93815],[9.92611,45.93802],[9.92599,45.93769],[9.92604,45.9375],[9.92613,45.93737]]},"properties":{}},{"type":"Feature","geometry":{"type":"LineString","coordinates":[[9.94496,45.88611],[9.9451,45.88622]]},"properties":{}},{"type":"Feature","geometry":{"type":"LineString","coordinates":[[9.98744,45.88682],[9.9887,45.88601]]},"properties":{}},{"type":"Feature","geometry":{"type":"LineString","coordinates":[[9.98768,45.88761],[9.98759,45.88735],[9.98729,45.88704],[9.98731,45.88691],[9.98744,45.88682]]},"properties":{}},{"type":"Feature","geometry":{"type":"LineString","coordinates":[[9.98317,45.89034],[9.9831,45.89026],[9.98308,45.88901],[9.98311,45.88895],[9.98317,45.88603],[9.98309,45.88555],[9.98299,45.88546],[9.9826,45.88522],[9.98259,45.88519]]},"properties":{}},{"type":"Feature","geometry":{"type":"LineString","coordinates":[[9.99785,45.88998],[9.99934,45.89004],[10.0,45.89026]]},"properties":{}},{"type":"Feature","geometry":{"type":"LineString","coordinates":[[9.96575,45.89045],[9.96583,45.89045],[9.96587,45.89032],[9.96596,45.89028],[9.9661,45.89031],[9.96692,45.89055],[9.96705,45.89063],[9.96716,45.89064],[9.96828,45.89113],[9.97019,45.89176],[9.97149,45.89192],[9.97198,45.89208],[9.97209,45.89207],[9.9722,45.89199],[9.97238,45.892],[9.97245,45.89195]]},"properties":{}},{"type":"Feature","geometry":{"type":"LineString","coordinates":[[9.9968,45.89334],[9.998,45.89304]]},"properties":{}},{"type":"Feature","geometry":{"type":"LineString","coordinates":[[9.9411,45.97916],[9.94147,45.97932],[9.94166,45.97934],[9.94186,45.97926],[9.94209,45.97924],[9.94213,45.97917],[9.94206,45.97908],[9.94208,45.97905],[9.94215,45.97905],[9.94217,45.9791],[9.94227,45.97915],[9.94277,45.97927],[9.9429,45.9794],[9.94315,45.97982],[9.94333,45.98001],[9.94321,45.98012]]},"properties":{}},{"type":"Feature","geometry":{"type":"LineString","coordinates":[[9.92474,45.93808],[9.92536,45.93811]]},"properties":{}},{"type":"Feature","geometry":{"type":"LineString","coordinates":[[9.92536,45.93811],[9.92603,45.93814]]},"properties":{}},{"type":"Feature","geometry":{"type":"LineString","coordinates":[[9.92584,45.93928],[9.92612,45.93815],[9.92603,45.93814]]},"properties":{}},{"type":"Feature","geometry":{"type":"LineString","coordinates":[[9.92584,45.93928],[9.92611,45.93944],[9.92634,45.93981],[9.92651,45.93996],[9.92668,45.94019],[9.927,45.94101],[9.92699,45.94122],[9.92686,45.94149],[9.92692,45.94162]]},"properties":{}},{"type":"Feature","geometry":{"type":"LineString","coordinates":[[9.92691,45.94184],[9.92695,45.94213],[9.92691,45.94268],[9.92673,45.94299],[9.92638,45.94346],[9.92611,45.94374],[9.926,45.94375],[9.92585,45.94366],[9.92571,45.94338],[9.92563,45.94311],[9.92559,45.94269],[9.92563,45.94228],[9.92584,45.94136],[9.92598,45.94106],[9.92598,45.94068],[9.92604,45.94053],[9.92604,45.94036],[9.92587,45.9399],[9.92582,45.9394],[9.92584,45.93928]]},"properties":{}},{"type":"Feature","geometry":{"type":"LineString","coordinates":[[9.92692,45.94162],[9.92699,45.94153],[9.9272,45.94149],[9.92761,45.94159],[9.92799,45.94147],[9.92818,45.94153]]},"properties":{}},{"type":"Feature","geometry":{"type":"LineString","coordinates":[[9.92691,45.94184],[9.92692,45.94162]]},"properties":{}},{"type":"Feature","geometry":{"type":"LineString","coordinates":[[9.91494,45.94889],[9.91453,45.94864],[9.91358,45.94824],[9.91327,45.94804],[9.91256,45.94777]]},"properties":{}},{"type":"Feature","geometry":{"type":"LineString","coordinates":[[9.92461,45.9559],[9.925,45.95615],[9.92533,45.95649]]},"properties":{}},{"type":"Feature","geometry":{"type":"LineString","coordinates":[[9.92541,45.95657],[9.92542,45.95649],[9.92534,45.95642],[9.92527,45.95643]]},"properties":{}},{"type":"Feature","geometry":{"type":"LineString","coordinates":[[9.75677,45.78571],[9.75727,45.78605],[9.75738,45.78616],[9.75742,45.78626]]},"properties":{}},{"type":"Feature","geometry":{"type":"LineString","coordinates":[[9.75609,45.78698],[9.75623,45.78576]]},"properties":{}},{"type":"Feature","geometry":{"type":"LineString","coordinates":[[9.84576,45.85846],[9.84591,45.85843]]},"properties":{}},{"type":"Feature","geometry":{"type":"LineString","coordinates":[[9.84568,45.85847],[9.84576,45.85846]]},"properties":{}},{"type":"Feature","geometry":{"type":"LineString","coordinates":[[9.84591,45.85843],[9.84585,45.85862]]},"properties":{}},{"type":"Feature","geometry":{"type":"LineString","coordinates":[[9.86553,45.85907],[9.86547,45.85905],[9.86543,45.85898],[9.86511,45.85892],[9.86466,45.85892],[9.86426,45.85895],[9.86398,45.85903],[9.86356,45.85906],[9.86263,45.85922],[9.86214,45.85922],[9.86179,45.85916],[9.86172,45.85917],[9.86147,45.8593],[9.86076,45.85925],[9.85947,45.85905],[9.85933,45.85894],[9.85919,45.85888],[9.8587,45.85879],[9.85804,45.85858],[9.85774,45.85844],[9.85709,45.85828]]},"properties":{}},{"type":"Feature","geometry":{"type":"LineString","coordinates":[[9.86575,45.85906],[9.86572,45.85906]]},"properties":{}},{"type":"Feature","geometry":{"type":"LineString","coordinates":[[9.86572,45.85906],[9.86553,45.85907]]},"properties":{}},{"type":"Feature","geometry":{"type":"LineString","coordinates":[[9.83973,45.8598],[9.8404,45.85938],[9.84055,45.85925],[9.84072,45.85902],[9.84088,45.85893],[9.84118,45.85884],[9.84141,45.85882],[9.84195,45.85889],[9.84236,45.85888],[9.84304,45.85878],[9.84343,45.85868],[9.84436,45.85863],[9.84525,45.85849],[9.84568,45.85847]]},"properties":{}},{"type":"Feature","geometry":{"type":"LineString","coordinates":[[9.92539,45.95655],[9.92594,45.95711],[9.92606,45.95732],[9.92625,45.95774],[9.92629,45.95789],[9.9263,45.95816],[9.92623,45.95849],[9.92606,45.9589],[9.92595,45.95932],[9.92587,45.95949],[9.92551,45.95996],[9.92544,45.9601],[9.92522,45.961],[9.92522,45.96122],[9.92526,45.9614],[9.92533,45.96153],[9.92552,45.96177],[9.92614,45.96223],[9.92652,45.96248],[9.92659,45.96249]]},"properties":{}},{"type":"Feature","geometry":{"type":"LineString","coordinates":[[9.92745,45.96289],[9.92748,45.96297],[9.92982,45.96418],[9.9299,45.96439]]},"properties":{}},{"type":"Feature","geometry":{"type":"LineString","coordinates":[[9.93103,45.96834],[9.93118,45.96843],[9.93122,45.96849],[9.93108,45.96849],[9.93094,45.96845],[9.93085,45.96858],[9.93088,45.96875],[9.93121,45.96923],[9.93128,45.96953],[9.93138,45.96976],[9.93166,45.97007],[9.93197,45.97025],[9.93254,45.97078],[9.93275,45.97111],[9.9331,45.97138],[9.93373,45.97158],[9.93518,45.97232],[9.93559,45.97257],[9.93615,45.97309],[9.93658,45.97364],[9.93697,45.97422],[9.93767,45.97454],[9.93836,45.97504],[9.9392,45.97596],[9.93945,45.97617],[9.93984,45.97677],[9.94001,45.97711],[9.9401,45.9776],[9.94049,45.97823],[9.94093,45.97858],[9.94109,45.97886],[9.94114,45.97911],[9.9411,45.97916]]},"properties":{}}]}