{"type":"FeatureCollection","features":[{"type":"Feature","geometry":{"type":"LineString","coordinates":[[9.77267,44.84469],[9.77266,44.84441],[9.77216,44.84398],[9.77159,44.84364],[9.77136,44.84342],[9.7716,44.84321],[9.77195,44.84309],[9.77189,44.84301],[9.77193,44.84278],[9.77176,44.84262],[9.77169,44.84246],[9.7718,44.84241],[9.7716,44.84157],[9.77133,44.84141]]},"properties":{}},{"type":"Feature","geometry":{"type":"LineString","coordinates":[[9.78974,44.90915],[9.78996,44.90989]]},"properties":{}},{"type":"Feature","geometry":{"type":"LineString","coordinates":[[9.78541,44.91449],[9.78524,44.91447],[9.78468,44.91427],[9.78461,44.91376],[9.78313,44.91384]]},"properties":{}},{"type":"Feature","geometry":{"type":"LineString","coordinates":[[9.85946,44.78085],[9.85955,44.78067],[9.85968,44.78054],[9.86,44.78035],[9.86044,44.78003],[9.86058,44.77984],[9.86074,44.77984],[9.86108,44.77991],[9.86123,44.77987],[9.86136,44.77972],[9.86144,44.77958],[9.86162,44.77944],[9.86185,44.77935],[9.86241,44.77924],[9.86264,44.77912],[9.86286,44.77883],[9.86302,44.77876],[9.86312,44.77863],[9.86323,44.77792],[9.86338,44.77777],[9.86357,44.77764],[9.86356,44.7775],[9.86348,44.77739],[9.86307,44.77724],[9.86245,44.77687],[9.86227,44.77669],[9.86228,44.7761],[9.86235,44.77602],[9.86233,44.77584]]},"properties":{}},{"type":"Feature","geometry":{"type":"LineString","coordinates":[[9.82736,44.79536],[9.82767,44.7955],[9.8279,44.79543]]},"properties":{}},{"type":"Feature","geometry":{"type":"LineString","coordinates":[[9.85283,44.96577],[9.85307,44.96576],[9.85315,44.96582],[9.85379,44.96547]]},"properties":{}},{"type":"Feature","geometry":{"type":"LineString","coordinates":[[9.85175,44.96732],[9.85175,44.96737],[9.85225,44.9678]]},"properties":{}},{"type":"Feature","geometry":{"type":"LineString","coordinates":[[9.85225,44.9678],[9.85238,44.96791]]},"properties":{}},{"type":"Feature","geometry":{"type":"LineString","coordinates":[[9.85238,44.96791],[9.85242,44.96794]]},"properties":{}},{"type":"Feature","geometry":{"type":"LineString","coordinates":[[9.85242,44.96794],[9.85249,44.968]]},"properties":{}},{"type":"Feature","geometry":{"type":"LineString","coordinates":[[9.84194,44.97104],[9.84226,44.97092],[9.84258,44.97075],[9.84654,44.96842]]},"properties":{}},{"type":"Feature","geometry":{"type":"LineString","coordinates":[[9.93693,44.75793],[9.93697,44.75817],[9.93708,44.75845],[9.93706,44.75894],[9.93716,44.75938],[9.93723,44.75952],[9.93761,44.76072],[9.93761,44.76129],[9.93776,44.76172],[9.93767,44.762],[9.93774,44.76226],[9.93785,44.76341],[9.93783,44.76381]]},"properties":{}},{"type":"Feature","geometry":{"type":"LineString","coordinates":[[9.9838,44.81573],[9.98468,44.81552],[9.98495,44.81554],[9.98514,44.81559],[9.98539,44.81573]]},"properties":{}},{"type":"Feature","geometry":{"type":"LineString","coordinates":[[9.98539,44.81573],[9.98544,44.81581]]},"properties":{}},{"type":"Feature","geometry":{"type":"LineString","coordinates":[[9.98333,44.81586],[9.9838,44.81573]]},"properties":{}},{"type":"Feature","geometry":{"type":"LineString","coordinates":[[9.98218,44.81651],[9.98247,44.81618],[9.98271,44.81609],[9.98454,44.81557],[9.9848,44.81556],[9.98506,44.8156],[9.98544,44.81581]]},"properties":{}},{"type":"Feature","geometry":{"type":"LineString","coordinates":[[9.98139,44.81624],[9.98209,44.81649],[9.98248,44.81616],[9.98291,44.81598],[9.98333,44.81586]]},"properties":{}},{"type":"Feature","geometry":{"type":"LineString","coordinates":[[9.98125,44.81618],[9.98139,44.81624]]},"properties":{}},{"type":"Feature","geometry":{"type":"LineString","coordinates":[[9.98216,44.81655],[9.98122,44.81622]]},"properties":{}},{"type":"Feature","geometry":{"type":"LineString","coordinates":[[9.99299,44.81741],[9.99238,44.81829],[9.99247,44.81835]]},"properties":{}},{"type":"Feature","geometry":{"type":"LineString","coordinates":[[9.99173,44.81974],[9.99178,44.81979],[9.99307,44.82024]]},"properties":{}},{"type":"Feature","geometry":{"type":"LineString","coordinates":[[9.86738,44.78222],[9.86755,44.78193],[9.86774,44.78185],[9.86795,44.78184],[9.86817,44.78188],[9.86859,44.78167],[9.86917,44.78126],[9.86949,44.78094],[9.86954,44.78076],[9.86944,44.78053],[9.86954,44.78028],[9.86944,44.78017],[9.86925,44.78009],[9.86914,44.77999],[9.86912,44.77989],[9.86919,44.77977],[9.8697,44.77957],[9.86976,44.77944],[9.86968,44.77922]]},"properties":{}},{"type":"Feature","geometry":{"type":"LineString","coordinates":[[9.91216,44.82802],[9.91154,44.82781],[9.91122,44.82754],[9.91082,44.82708],[9.91072,44.82701],[9.91067,44.82688],[9.91059,44.82683],[9.91027,44.82689],[9.91008,44.82689],[9.91001,44.82686],[9.90996,44.82677],[9.90984,44.82674],[9.90971,44.82661],[9.90962,44.82659]]},"properties":{}},{"type":"Feature","geometry":{"type":"LineString","coordinates":[[9.87731,44.85259],[9.8772,44.8525],[9.8772,44.85246],[9.87726,44.85238],[9.8774,44.85234],[9.87753,44.8524],[9.87756,44.85247],[9.87753,44.85255],[9.87743,44.8526],[9.87731,44.85259]]},"properties":{}},{"type":"Feature","geometry":{"type":"LineString","coordinates":[[9.87756,44.85247],[9.87791,44.85274]]},"properties":{}},{"type":"Feature","geometry":{"type":"LineString","coordinates":[[9.87791,44.85274],[9.87748,44.85258]]},"properties":{}},{"type":"Feature","geometry":{"type":"LineString","coordinates":[[9.88204,44.85784],[9.88221,44.85794],[9.88246,44.85803]]},"properties":{}},{"type":"Feature","geometry":{"type":"LineString","coordinates":[[9.88246,44.85803],[9.8828,44.85817]]},"properties":{}},{"type":"Feature","geometry":{"type":"LineString","coordinates":[[9.89919,44.89013],[9.89931,44.89005]]},"properties":{}},{"type":"Feature","geometry":{"type":"LineString","coordinates":[[9.90511,44.91615],[9.90518,44.91611],[9.90531,44.91611],[9.90539,44.91618],[9.90539,44.91625],[9.90529,44.91632],[9.90519,44.91632],[9.90509,44.91624],[9.90511,44.91615]]},"properties":{}},{"type":"Feature","geometry":{"type":"LineString","coordinates":[[9.99669,44.82057],[9.9968,44.82054]]},"properties":{}},{"type":"Feature","geometry":{"type":"LineString","coordinates":[[9.99669,44.82057],[9.99655,44.82061],[9.9962,44.8206],[9.99585,44.82071]]},"properties":{}},{"type":"Feature","geometry":{"type":"LineString","coordinates":[[9.99815,44.82097],[9.99788,44.82089],[9.9973,44.82079],[9.9968,44.82054]]},"properties":{}},{"type":"Feature","geometry":{"type":"LineString","coordinates":[[9.99734,44.8208],[9.99744,44.82075]]},"properties":{}},{"type":"Feature","geometry":{"type":"LineString","coordinates":[[9.96412,44.83546],[9.96398,44.83546],[9.96387,44.8355],[9.96361,44.83548],[9.96285,44.83515],[9.96164,44.83553],[9.96112,44.83589],[9.96061,44.83638],[9.96055,44.83652],[9.96064,44.83675],[9.96066,44.83692],[9.96038,44.83714],[9.96018,44.8377],[9.96006,44.83793],[9.95987,44.8382],[9.95904,44.83862],[9.95874,44.8387],[9.9561,44.83975],[9.95557,44.8399],[9.95496,44.83995],[9.95404,44.8398],[9.95314,44.8395],[9.95306,44.83932],[9.95234,44.8387],[9.95179,44.83832],[9.95009,44.83801],[9.94915,44.83747],[9.94901,44.83747],[9.94816,44.83726],[9.94778,44.83728],[9.94736,44.83713],[9.94724,44.83703],[9.94722,44.83686],[9.947,44.83663],[9.94666,44.83646],[9.94615,44.8365],[9.94574,44.83637],[9.94509,44.83652],[9.94488,44.83666],[9.94241,44.83709],[9.94203,44.83727],[9.94163,44.83733],[9.94112,44.83701],[9.9402,44.83666],[9.9399,44.83634],[9.93934,44.83621],[9.93883,44.83628],[9.93838,44.83628],[9.93756,44.83585],[9.93738,44.83545],[9.93698,44.83511],[9.93658,44.83458],[9.93622,44.8345],[9.93599,44.83418],[9.93591,44.83397],[9.93606,44.83369],[9.93609,44.83354],[9.93621,44.83344],[9.93625,44.83335],[9.93613,44.83304],[9.93616,44.83289],[9.93637,44.83269],[9.9365,44.83237],[9.93642,44.8322],[9.93621,44.83207],[9.93595,44.83201],[9.9355,44.83184],[9.93467,44.83171],[9.934,44.83167],[9.93383,44.8316],[9.9334,44.83134],[9.93308,44.83108],[9.93276,44.831]]},"properties":{}},{"type":"Feature","geometry":{"type":"LineString","coordinates":[[9.98475,44.88753],[9.98511,44.88768],[9.98535,44.88773]]},"properties":{}},{"type":"Feature","geometry":{"type":"LineString","coordinates":[[9.98514,44.88786],[9.98506,44.88773],[9.98475,44.88753]]},"properties":{}},{"type":"Feature","geometry":{"type":"LineString","coordinates":[[9.98575,44.88782],[9.98596,44.88786],[9.98667,44.88773]]},"properties":{}},{"type":"Feature","geometry":{"type":"LineString","coordinates":[[9.98667,44.88773],[9.9864,44.88787],[9.98581,44.88807]]},"properties":{}},{"type":"Feature","geometry":{"type":"LineString","coordinates":[[9.90419,44.92017],[9.90415,44.9201]]},"properties":{}},{"type":"Feature","geometry":{"type":"LineString","coordinates":[[9.92645,44.92],[9.92642,44.9203]]},"properties":{}},{"type":"Feature","geometry":{"type":"LineString","coordinates":[[9.92617,44.92017],[9.92642,44.9203]]},"properties":{}},{"type":"Feature","geometry":{"type":"LineString","coordinates":[[9.92624,44.9204],[9.92618,44.92028],[9.92617,44.92017]]},"properties":{}},{"type":"Feature","geometry":{"type":"LineString","coordinates":[[9.90354,44.92037],[9.90351,44.92033]]},"properties":{}},{"type":"Feature","geometry":{"type":"LineString","coordinates":[[9.92624,44.9204],[9.92575,44.92042]]},"properties":{}},{"type":"Feature","geometry":{"type":"LineString","coordinates":[[9.92642,44.9203],[9.92666,44.92058]]},"properties":{}},{"type":"Feature","geometry":{"type":"LineString","coordinates":[[9.92666,44.92058],[9.92624,44.9204]]},"properties":{}},{"type":"Feature","geometry":{"type":"LineString","coordinates":[[9.91049,44.92419],[9.91386,44.92292],[9.91368,44.92212],[9.91384,44.92208]]},"properties":{}},{"type":"Feature","geometry":{"type":"LineString","coordinates":[[9.91888,44.92407],[9.91911,44.92394]]},"properties":{}},{"type":"Feature","geometry":{"type":"LineString","coordinates":[[9.78556,44.91431],[9.78561,44.91433]]},"properties":{}},{"type":"Feature","geometry":{"type":"LineString","coordinates":[[9.78541,44.91449],[9.78553,44.91431],[9.78556,44.91431]]},"properties":{}},{"type":"Feature","geometry":{"type":"LineString","coordinates":[[9.78556,44.91431],[9.78545,44.91447],[9.78541,44.91449]]},"properties":{}},{"type":"Feature","geometry":{"type":"LineString","coordinates":[[9.91915,44.92408],[9.91888,44.92407]]},"properties":{}},{"type":"Feature","geometry":{"type":"LineString","coordinates":[[9.91468,44.92434],[9.9147,44.92413],[9.9148,44.92409],[9.9149,44.92413],[9.91487,44.92439],[9.91473,44.92441],[9.91468,44.92434]]},"properties":{}},{"type":"Feature","geometry":{"type":"LineString","coordinates":[[9.9111,44.92548],[9.91131,44.92565]]},"properties":{}},{"type":"Feature","geometry":{"type":"LineString","coordinates":[[9.91118,44.9257],[9.9111,44.92548]]},"properties":{}},{"type":"Feature","geometry":{"type":"LineString","coordinates":[[9.91137,44.92566],[9.91173,44.92554]]},"properties":{}},{"type":"Feature","geometry":{"type":"LineString","coordinates":[[9.91173,44.92554],[9.91144,44.92574]]},"properties":{}},{"type":"Feature","geometry":{"type":"LineString","coordinates":[[9.91126,44.92584],[9.91117,44.92577],[9.91118,44.9257],[9.91131,44.92565],[9.91141,44.92569],[9.91144,44.92574],[9.91141,44.9258],[9.91126,44.92584]]},"properties":{}},{"type":"Feature","geometry":{"type":"LineString","coordinates":[[9.9102,44.92638],[9.91117,44.92577]]},"properties":{}},{"type":"Feature","geometry":{"type":"LineString","coordinates":[[9.91126,44.92584],[9.91095,44.92603],[9.9102,44.92638]]},"properties":{}},{"type":"Feature","geometry":{"type":"LineString","coordinates":[[9.90786,44.93043],[9.90785,44.93027]]},"properties":{}},{"type":"Feature","geometry":{"type":"LineString","coordinates":[[9.90785,44.93027],[9.90792,44.93034],[9.90795,44.93047],[9.90794,44.93057],[9.90785,44.93073]]},"properties":{}},{"type":"Feature","geometry":{"type":"LineString","coordinates":[[9.90771,44.93069],[9.90783,44.9306],[9.90786,44.93043]]},"properties":{}},{"type":"Feature","geometry":{"type":"LineString","coordinates":[[9.90393,44.93306],[9.90383,44.93298]]},"properties":{}},{"type":"Feature","geometry":{"type":"LineString","coordinates":[[9.90316,44.93336],[9.90329,44.93329]]},"properties":{}},{"type":"Feature","geometry":{"type":"LineString","coordinates":[[9.8974,44.93664],[9.89792,44.93649]]},"properties":{}},{"type":"Feature","geometry":{"type":"LineString","coordinates":[[9.89792,44.93649],[9.8975,44.93675]]},"properties":{}},{"type":"Feature","geometry":{"type":"LineString","coordinates":[[9.8974,44.93664],[9.8975,44.93675],[9.89746,44.93684],[9.89728,44.93689],[9.89713,44.93681],[9.89712,44.93673],[9.89717,44.93666],[9.89728,44.93662],[9.8974,44.93664]]},"properties":{}},{"type":"Feature","geometry":{"type":"LineString","coordinates":[[9.89682,44.93712],[9.89713,44.93681]]},"properties":{}},{"type":"Feature","geometry":{"type":"LineString","coordinates":[[9.89728,44.93689],[9.89682,44.93712]]},"properties":{}},{"type":"Feature","geometry":{"type":"LineString","coordinates":[[9.92498,44.97427],[9.92478,44.97369],[9.92483,44.97362],[9.92478,44.97343],[9.92469,44.97338],[9.92453,44.97284],[9.92457,44.97275],[9.92452,44.9726],[9.92444,44.97256],[9.92373,44.97096],[9.92376,44.97088],[9.9237,44.97074],[9.92361,44.97068],[9.92339,44.97018],[9.92341,44.97009],[9.92333,44.96991],[9.92324,44.96986],[9.92302,44.96935],[9.92305,44.96926],[9.92297,44.96906],[9.92288,44.96903],[9.92266,44.96853],[9.92269,44.96845],[9.92262,44.96829],[9.92253,44.96823],[9.92228,44.9677],[9.92242,44.96766]]},"properties":{}},{"type":"Feature","geometry":{"type":"LineString","coordinates":[[9.98452,44.88838],[9.98491,44.8882],[9.98504,44.8881],[9.98509,44.88802]]},"properties":{}},{"type":"Feature","geometry":{"type":"LineString","coordinates":[[9.98532,44.88823],[9.98473,44.88836],[9.98452,44.88838]]},"properties":{}},{"type":"Feature","geometry":{"type":"LineString","coordinates":[[9.96135,44.89777],[9.96211,44.89734],[9.96218,44.89735],[9.96273,44.89702],[9.96302,44.89726],[9.96309,44.89737],[9.96339,44.89763]]},"properties":{}},{"type":"Feature","geometry":{"type":"LineString","coordinates":[[9.96376,44.89849],[9.96493,44.89782]]},"properties":{}},{"type":"Feature","geometry":{"type":"LineString","coordinates":[[9.96135,44.89777],[9.95993,44.89858],[9.9599,44.89868],[9.95903,44.89915],[9.95892,44.89914],[9.95855,44.89877]]},"properties":{}},{"type":"Feature","geometry":{"type":"LineString","coordinates":[[9.9627,44.8991],[9.96376,44.89849]]},"properties":{}},{"type":"Feature","geometry":{"type":"LineString","coordinates":[[9.95908,44.89912],[9.95915,44.89923],[9.95909,44.8993],[9.95919,44.89945],[9.95929,44.89946],[9.95966,44.89985],[9.95964,44.89994],[9.95976,44.90001],[9.96005,44.9003],[9.95992,44.90034]]},"properties":{}},{"type":"Feature","geometry":{"type":"LineString","coordinates":[[9.95355,44.98735],[9.95343,44.98754],[9.95343,44.98764],[9.95337,44.98766],[9.95285,44.98754],[9.95225,44.98729],[9.95184,44.98701],[9.95171,44.98702],[9.95126,44.98719],[9.95099,44.98724],[9.94899,44.98801],[9.9478,44.98837],[9.94763,44.98846],[9.94489,44.98941],[9.94486,44.98938],[9.93737,44.99189],[9.93724,44.992],[9.93719,44.99218],[9.9372,44.99226],[9.93746,44.9927]]},"properties":{}},{"type":"Feature","geometry":{"type":"LineString","coordinates":[[9.92399,44.97154],[9.92428,44.97149],[9.92441,44.97153],[9.92452,44.97163],[9.92452,44.97174],[9.92441,44.97185],[9.92415,44.97191]]},"properties":{}},{"type":"Feature","geometry":{"type":"LineString","coordinates":[[9.92539,44.97243],[9.92518,44.97193],[9.92426,44.97169],[9.92464,44.97127]]},"properties":{}},{"type":"Feature","geometry":{"type":"LineString","coordinates":[[9.92994,44.99241],[9.93005,44.99239],[9.93225,44.99243],[9.93238,44.99235],[9.93235,44.99213],[9.93208,44.99138],[9.9316,44.99063],[9.93104,44.98953],[9.93077,44.98799],[9.93078,44.98767],[9.9309,44.98755]]},"properties":{}},{"type":"Feature","geometry":{"type":"LineString","coordinates":[[9.92387,44.99497],[9.92381,44.99515],[9.92382,44.99526]]},"properties":{}},{"type":"Feature","geometry":{"type":"LineString","coordinates":[[9.92382,44.99526],[9.92363,44.99502]]},"properties":{}},{"type":"Feature","geometry":{"type":"LineString","coordinates":[[9.78701,44.97982],[9.78729,44.97965],[9.78733,44.97956],[9.78732,44.97942],[9.78592,44.97671],[9.78579,44.97662],[9.78495,44.97486],[9.78429,44.97339],[9.78401,44.97261],[9.78369,44.97155],[9.78325,44.97089],[9.78301,44.97017]]},"properties":{}},{"type":"Feature","geometry":{"type":"LineString","coordinates":[[9.78831,44.99106],[9.78813,44.99004],[9.78793,44.98922],[9.78785,44.98899],[9.78778,44.9889],[9.78687,44.9863],[9.78711,44.98614],[9.78884,44.98583],[9.78905,44.98575],[9.78909,44.9857],[9.78912,44.98556],[9.78831,44.9832],[9.78832,44.98315],[9.78863,44.98291],[9.78867,44.98282],[9.78865,44.98273],[9.78853,44.98253],[9.78657,44.97998]]},"properties":{}},{"type":"Feature","geometry":{"type":"LineString","coordinates":[[9.78837,44.99108],[9.78831,44.99106]]},"properties":{}},{"type":"Feature","geometry":{"type":"LineString","coordinates":[[9.7881,44.99588],[9.78828,44.99609],[9.78833,44.9961],[9.78883,44.99584],[9.7887,44.99564]]},"properties":{}},{"type":"Feature","geometry":{"type":"LineString","coordinates":[[9.78495,44.99534],[9.78453,44.99546],[9.78434,44.9956],[9.7842,44.99564],[9.78399,44.99585],[9.78356,44.9959],[9.78337,44.99602],[9.78326,44.99605],[9.78319,44.99619],[9.78305,44.99628],[9.78281,44.99633],[9.78128,44.99716]]},"properties":{}},{"type":"Feature","geometry":{"type":"LineString","coordinates":[[9.85249,44.968],[9.85292,44.96854],[9.85327,44.96903],[9.85329,44.96911],[9.85453,44.9708],[9.85486,44.97152],[9.85482,44.97155]]},"properties":{}},{"type":"Feature","geometry":{"type":"LineString","coordinates":[[9.84141,44.97117],[9.84194,44.97104]]},"properties":{}},{"type":"Feature","geometry":{"type":"LineString","coordinates":[[9.84108,44.97116],[9.84141,44.97117]]},"properties":{}}]}