{"type":"FeatureCollection","features":[{"type":"Feature","geometry":{"type":"LineString","coordinates":[[10.22728,42.74142],[10.2271,42.74175],[10.22703,42.74216],[10.22703,42.74274]]},"properties":{}},{"type":"Feature","geometry":{"type":"LineString","coordinates":[[10.23208,42.74584],[10.23212,42.74578],[10.23221,42.74577]]},"properties":{}},{"type":"Feature","geometry":{"type":"LineString","coordinates":[[10.23221,42.74577],[10.23228,42.7458],[10.2323,42.74585]]},"properties":{}},{"type":"Feature","geometry":{"type":"LineString","coordinates":[[10.2323,42.74585],[10.23398,42.74586]]},"properties":{}},{"type":"Feature","geometry":{"type":"LineString","coordinates":[[10.23215,42.74592],[10.23208,42.74584]]},"properties":{}},{"type":"Feature","geometry":{"type":"LineString","coordinates":[[10.2323,42.74585],[10.23225,42.74592],[10.23215,42.74592]]},"properties":{}},{"type":"Feature","geometry":{"type":"LineString","coordinates":[[10.23398,42.74586],[10.23399,42.74641]]},"properties":{}},{"type":"Feature","geometry":{"type":"LineString","coordinates":[[10.23272,42.74665],[10.23225,42.7464],[10.23211,42.74628],[10.23215,42.74592]]},"properties":{}},{"type":"Feature","geometry":{"type":"LineString","coordinates":[[10.23399,42.74641],[10.23391,42.74652]]},"properties":{}},{"type":"Feature","geometry":{"type":"LineString","coordinates":[[10.23399,42.74641],[10.2341,42.74665]]},"properties":{}},{"type":"Feature","geometry":{"type":"LineString","coordinates":[[10.23561,42.74649],[10.23563,42.74648]]},"properties":{}},{"type":"Feature","geometry":{"type":"LineString","coordinates":[[10.2369,42.74769],[10.23545,42.74634],[10.23534,42.74622],[10.23517,42.74593],[10.23505,42.74585]]},"properties":{}},{"type":"Feature","geometry":{"type":"LineString","coordinates":[[10.23511,42.74579],[10.23537,42.74622],[10.2355,42.74636],[10.23674,42.74751],[10.23698,42.74778]]},"properties":{}},{"type":"Feature","geometry":{"type":"LineString","coordinates":[[10.23598,42.74684],[10.23599,42.74683]]},"properties":{}},{"type":"Feature","geometry":{"type":"LineString","coordinates":[[10.23607,42.74692],[10.23608,42.74691]]},"properties":{}},{"type":"Feature","geometry":{"type":"LineString","coordinates":[[10.23685,42.74764],[10.23687,42.74763]]},"properties":{}},{"type":"Feature","geometry":{"type":"LineString","coordinates":[[10.23698,42.74778],[10.23701,42.74783]]},"properties":{}},{"type":"Feature","geometry":{"type":"LineString","coordinates":[[10.23707,42.74796],[10.2369,42.74769]]},"properties":{}},{"type":"Feature","geometry":{"type":"LineString","coordinates":[[10.23709,42.74798],[10.23711,42.74797]]},"properties":{}},{"type":"Feature","geometry":{"type":"LineString","coordinates":[[10.23842,42.74876],[10.23727,42.74813],[10.23707,42.74796]]},"properties":{}},{"type":"Feature","geometry":{"type":"LineString","coordinates":[[10.23502,42.7484],[10.23545,42.74894],[10.23578,42.74918]]},"properties":{}},{"type":"Feature","geometry":{"type":"LineString","coordinates":[[10.23701,42.74783],[10.23718,42.74805],[10.23844,42.74876],[10.23722,42.75]]},"properties":{}},{"type":"Feature","geometry":{"type":"LineString","coordinates":[[10.23766,42.74951],[10.23842,42.74876]]},"properties":{}},{"type":"Feature","geometry":{"type":"LineString","coordinates":[[10.23578,42.74918],[10.2359,42.74926]]},"properties":{}},{"type":"Feature","geometry":{"type":"LineString","coordinates":[[10.23774,42.74943],[10.23776,42.74945]]},"properties":{}},{"type":"Feature","geometry":{"type":"LineString","coordinates":[[10.23448,42.74948],[10.23451,42.74954]]},"properties":{}},{"type":"Feature","geometry":{"type":"LineString","coordinates":[[10.2359,42.74926],[10.237,42.75]]},"properties":{}},{"type":"Feature","geometry":{"type":"LineString","coordinates":[[10.23718,42.75],[10.23766,42.74951]]},"properties":{}},{"type":"Feature","geometry":{"type":"LineString","coordinates":[[10.23687,42.75],[10.23695,42.74997]]},"properties":{}},{"type":"Feature","geometry":{"type":"LineString","coordinates":[[10.2341,42.74665],[10.23391,42.74652]]},"properties":{}},{"type":"Feature","geometry":{"type":"LineString","coordinates":[[10.23391,42.74652],[10.2335,42.74669],[10.23307,42.74673],[10.2328,42.7467],[10.23272,42.74665]]},"properties":{}},{"type":"Feature","geometry":{"type":"LineString","coordinates":[[10.23448,42.74948],[10.23454,42.74916],[10.23434,42.74883],[10.23412,42.74855],[10.23373,42.74828],[10.23304,42.74794],[10.23278,42.74792],[10.23226,42.74798],[10.23186,42.74796]]},"properties":{}}]}