{"type":"FeatureCollection","features":[{"type":"Feature","geometry":{"type":"LineString","coordinates":[[10.22983,43.88842],[10.23007,43.88818],[10.23041,43.88776],[10.23121,43.88667],[10.23167,43.88611],[10.23224,43.88529],[10.23241,43.88511],[10.23252,43.88491],[10.23295,43.88434],[10.23305,43.88414],[10.23322,43.88395],[10.23332,43.88375],[10.23349,43.88354],[10.23358,43.88336],[10.23374,43.88317],[10.23393,43.8828],[10.23411,43.8826],[10.23423,43.88236],[10.23436,43.8822],[10.23476,43.88204],[10.23482,43.88195]]},"properties":{}},{"type":"Feature","geometry":{"type":"LineString","coordinates":[[10.23208,43.88552],[10.23218,43.88556],[10.23213,43.88564],[10.23206,43.88572],[10.23197,43.88568]]},"properties":{}},{"type":"Feature","geometry":{"type":"LineString","coordinates":[[10.23401,43.88615],[10.2325,43.88575]]},"properties":{}},{"type":"Feature","geometry":{"type":"LineString","coordinates":[[10.22931,43.8885],[10.22938,43.88846],[10.22956,43.88848],[10.22983,43.88842]]},"properties":{}},{"type":"Feature","geometry":{"type":"LineString","coordinates":[[10.22931,43.88851],[10.22931,43.8885]]},"properties":{}},{"type":"Feature","geometry":{"type":"LineString","coordinates":[[10.22911,43.88877],[10.22931,43.88851]]},"properties":{}},{"type":"Feature","geometry":{"type":"LineString","coordinates":[[10.23037,43.88873],[10.23091,43.88883],[10.23139,43.88882]]},"properties":{}},{"type":"Feature","geometry":{"type":"LineString","coordinates":[[10.24616,43.84954],[10.24759,43.84704]]},"properties":{}},{"type":"Feature","geometry":{"type":"LineString","coordinates":[[10.2436,43.85423],[10.2435,43.85419],[10.24616,43.84954]]},"properties":{}},{"type":"Feature","geometry":{"type":"LineString","coordinates":[[10.24472,43.85607],[10.24464,43.85587],[10.24443,43.85564],[10.24417,43.8555],[10.24351,43.85527],[10.24332,43.85509],[10.24325,43.85491],[10.24326,43.85479],[10.2436,43.85423]]},"properties":{}},{"type":"Feature","geometry":{"type":"LineString","coordinates":[[10.24357,43.85537],[10.2434,43.85529]]},"properties":{}},{"type":"Feature","geometry":{"type":"LineString","coordinates":[[10.24464,43.85606],[10.24495,43.8561],[10.24568,43.85627],[10.2459,43.85635],[10.24609,43.85647],[10.24638,43.85674],[10.24753,43.858],[10.2477,43.85828]]},"properties":{}},{"type":"Feature","geometry":{"type":"LineString","coordinates":[[10.24762,43.85876],[10.24756,43.85875],[10.24768,43.8585],[10.2477,43.85828]]},"properties":{}},{"type":"Feature","geometry":{"type":"LineString","coordinates":[[10.24762,43.85876],[10.24878,43.85909],[10.2465,43.86334],[10.24728,43.86357]]},"properties":{}},{"type":"Feature","geometry":{"type":"LineString","coordinates":[[10.24701,43.86415],[10.24661,43.8649]]},"properties":{}},{"type":"Feature","geometry":{"type":"LineString","coordinates":[[10.24459,43.86514],[10.24476,43.8652]]},"properties":{}},{"type":"Feature","geometry":{"type":"LineString","coordinates":[[10.24608,43.86612],[10.24478,43.8657]]},"properties":{}},{"type":"Feature","geometry":{"type":"LineString","coordinates":[[10.24151,43.87005],[10.24446,43.86509]]},"properties":{}},{"type":"Feature","geometry":{"type":"LineString","coordinates":[[10.24015,43.87281],[10.24278,43.86833],[10.24287,43.86827],[10.24309,43.86791],[10.24336,43.86744],[10.24351,43.86708],[10.24415,43.86597],[10.24425,43.86589],[10.24464,43.86516]]},"properties":{}},{"type":"Feature","geometry":{"type":"LineString","coordinates":[[10.24345,43.87064],[10.2435,43.87069],[10.25,43.87265]]},"properties":{}},{"type":"Feature","geometry":{"type":"LineString","coordinates":[[10.2419,43.87335],[10.24029,43.87284]]},"properties":{}},{"type":"Feature","geometry":{"type":"LineString","coordinates":[[10.24602,43.87454],[10.24588,43.8745],[10.24568,43.87458],[10.2453,43.8745],[10.24455,43.87421],[10.24379,43.87417],[10.24363,43.87413],[10.24356,43.87407],[10.24347,43.87389],[10.24307,43.87379],[10.24295,43.87371],[10.24262,43.87365],[10.24202,43.87342],[10.24026,43.87289],[10.24015,43.87281]]},"properties":{}},{"type":"Feature","geometry":{"type":"LineString","coordinates":[[10.19816,43.92793],[10.19842,43.92773],[10.19851,43.92758],[10.19866,43.92746],[10.19947,43.92657],[10.19961,43.92646],[10.20173,43.92401],[10.20175,43.92393],[10.20197,43.92363],[10.2045,43.92074]]},"properties":{}},{"type":"Feature","geometry":{"type":"LineString","coordinates":[[10.19914,43.92841],[10.19992,43.92756]]},"properties":{}},{"type":"Feature","geometry":{"type":"LineString","coordinates":[[10.19752,43.9302],[10.19914,43.92841]]},"properties":{}},{"type":"Feature","geometry":{"type":"LineString","coordinates":[[10.1896,43.93731],[10.19764,43.92846],[10.19816,43.92793]]},"properties":{}},{"type":"Feature","geometry":{"type":"LineString","coordinates":[[10.19219,43.93604],[10.19752,43.9302]]},"properties":{}},{"type":"Feature","geometry":{"type":"LineString","coordinates":[[10.18947,43.93744],[10.1896,43.93731]]},"properties":{}},{"type":"Feature","geometry":{"type":"LineString","coordinates":[[10.19129,43.93742],[10.19092,43.93745]]},"properties":{}},{"type":"Feature","geometry":{"type":"LineString","coordinates":[[10.18929,43.9376],[10.18947,43.93744]]},"properties":{}},{"type":"Feature","geometry":{"type":"LineString","coordinates":[[10.18161,43.94473],[10.18801,43.93875],[10.18929,43.9376]]},"properties":{}},{"type":"Feature","geometry":{"type":"LineString","coordinates":[[10.17526,43.95055],[10.17995,43.94618],[10.18161,43.94473]]},"properties":{}},{"type":"Feature","geometry":{"type":"LineString","coordinates":[[10.17483,43.95105],[10.17528,43.95063],[10.17526,43.95055]]},"properties":{}},{"type":"Feature","geometry":{"type":"LineString","coordinates":[[10.20177,43.95102],[10.2022,43.95076]]},"properties":{}},{"type":"Feature","geometry":{"type":"LineString","coordinates":[[10.17443,43.95142],[10.17483,43.95105]]},"properties":{}},{"type":"Feature","geometry":{"type":"LineString","coordinates":[[10.21223,43.93941],[10.21228,43.93929]]},"properties":{}},{"type":"Feature","geometry":{"type":"LineString","coordinates":[[10.21203,43.93977],[10.21223,43.93941]]},"properties":{}},{"type":"Feature","geometry":{"type":"LineString","coordinates":[[10.20776,43.94532],[10.2101,43.94225],[10.21088,43.94128],[10.21172,43.94013],[10.21203,43.93977]]},"properties":{}},{"type":"Feature","geometry":{"type":"LineString","coordinates":[[10.20659,43.94643],[10.20682,43.94616],[10.20682,43.94612],[10.20635,43.94565],[10.19835,43.9413],[10.19809,43.94126]]},"properties":{}},{"type":"Feature","geometry":{"type":"LineString","coordinates":[[10.20748,43.94627],[10.20731,43.9462],[10.20718,43.94622],[10.20701,43.94631],[10.20678,43.94653]]},"properties":{}},{"type":"Feature","geometry":{"type":"LineString","coordinates":[[10.20662,43.94645],[10.20659,43.94643]]},"properties":{}},{"type":"Feature","geometry":{"type":"LineString","coordinates":[[10.20678,43.94653],[10.20662,43.94645]]},"properties":{}},{"type":"Feature","geometry":{"type":"LineString","coordinates":[[10.20599,43.94713],[10.20662,43.94645]]},"properties":{}},{"type":"Feature","geometry":{"type":"LineString","coordinates":[[10.2022,43.95076],[10.20599,43.94713]]},"properties":{}},{"type":"Feature","geometry":{"type":"LineString","coordinates":[[10.22006,43.95344],[10.22018,43.95326],[10.22016,43.95318],[10.22009,43.9531],[10.20748,43.94627]]},"properties":{}},{"type":"Feature","geometry":{"type":"LineString","coordinates":[[10.17434,43.95153],[10.17443,43.95142]]},"properties":{}},{"type":"Feature","geometry":{"type":"LineString","coordinates":[[10.16774,43.95757],[10.16789,43.95751],[10.17434,43.95153]]},"properties":{}},{"type":"Feature","geometry":{"type":"LineString","coordinates":[[10.19681,43.95548],[10.19696,43.95538],[10.19767,43.955]]},"properties":{}},{"type":"Feature","geometry":{"type":"LineString","coordinates":[[10.17559,43.95581],[10.17665,43.95478]]},"properties":{}},{"type":"Feature","geometry":{"type":"LineString","coordinates":[[10.19724,43.95556],[10.19726,43.95571],[10.19712,43.95591],[10.19638,43.95663],[10.19606,43.95686],[10.19581,43.95687],[10.19568,43.95679],[10.19565,43.95668],[10.19567,43.95653],[10.19617,43.95601],[10.19681,43.95548],[10.19705,43.95544],[10.19716,43.95548],[10.19724,43.95556]]},"properties":{}},{"type":"Feature","geometry":{"type":"LineString","coordinates":[[10.18503,43.95963],[10.17399,43.95326]]},"properties":{}},{"type":"Feature","geometry":{"type":"LineString","coordinates":[[10.17229,43.95887],[10.17559,43.95581]]},"properties":{}},{"type":"Feature","geometry":{"type":"LineString","coordinates":[[10.16774,43.95757],[10.16731,43.95794]]},"properties":{}},{"type":"Feature","geometry":{"type":"LineString","coordinates":[[10.17758,43.95532],[10.17196,43.9606]]},"properties":{}},{"type":"Feature","geometry":{"type":"LineString","coordinates":[[10.16735,43.95809],[10.16704,43.95835]]},"properties":{}},{"type":"Feature","geometry":{"type":"LineString","coordinates":[[10.19323,43.95891],[10.19431,43.95799],[10.19431,43.95792],[10.19435,43.95788]]},"properties":{}},{"type":"Feature","geometry":{"type":"LineString","coordinates":[[10.1851,43.95967],[10.18503,43.95963]]},"properties":{}},{"type":"Feature","geometry":{"type":"LineString","coordinates":[[10.19181,43.96033],[10.19339,43.959]]},"properties":{}},{"type":"Feature","geometry":{"type":"LineString","coordinates":[[10.18897,43.96207],[10.18796,43.96147],[10.1851,43.95967]]},"properties":{}},{"type":"Feature","geometry":{"type":"LineString","coordinates":[[10.16704,43.95835],[10.15885,43.96524]]},"properties":{}},{"type":"Feature","geometry":{"type":"LineString","coordinates":[[10.16731,43.95794],[10.16202,43.9624],[10.14831,43.97384],[10.14513,43.97654]]},"properties":{}},{"type":"Feature","geometry":{"type":"LineString","coordinates":[[10.18979,43.96982],[10.18903,43.96938]]},"properties":{}},{"type":"Feature","geometry":{"type":"LineString","coordinates":[[10.18998,43.96993],[10.18979,43.96982]]},"properties":{}},{"type":"Feature","geometry":{"type":"LineString","coordinates":[[10.19044,43.97019],[10.18998,43.96993]]},"properties":{}},{"type":"Feature","geometry":{"type":"LineString","coordinates":[[10.19098,43.97052],[10.19044,43.97019]]},"properties":{}},{"type":"Feature","geometry":{"type":"LineString","coordinates":[[10.14513,43.97654],[10.14426,43.97727],[10.14421,43.97737],[10.14384,43.97767]]},"properties":{}},{"type":"Feature","geometry":{"type":"LineString","coordinates":[[10.14315,43.97823],[10.14376,43.97777],[10.14384,43.97767]]},"properties":{}},{"type":"Feature","geometry":{"type":"LineString","coordinates":[[10.14274,43.97854],[10.14315,43.97823]]},"properties":{}},{"type":"Feature","geometry":{"type":"LineString","coordinates":[[10.14265,43.97861],[10.14274,43.97854]]},"properties":{}},{"type":"Feature","geometry":{"type":"LineString","coordinates":[[10.13806,43.98224],[10.13902,43.98157]]},"properties":{}},{"type":"Feature","geometry":{"type":"LineString","coordinates":[[10.12811,43.98921],[10.12819,43.98923],[10.13107,43.98723],[10.13442,43.98484],[10.13574,43.98387],[10.13806,43.98224]]},"properties":{}},{"type":"Feature","geometry":{"type":"LineString","coordinates":[[10.12803,43.98927],[10.12811,43.98921]]},"properties":{}},{"type":"Feature","geometry":{"type":"LineString","coordinates":[[10.12796,43.98922],[10.12199,43.99343],[10.11547,43.99768]]},"properties":{}},{"type":"Feature","geometry":{"type":"LineString","coordinates":[[10.11527,43.99804],[10.11532,43.99791],[10.11828,43.99601],[10.12208,43.9935],[10.12369,43.99235],[10.12706,43.99003],[10.12804,43.98933],[10.12803,43.98927]]},"properties":{}},{"type":"Feature","geometry":{"type":"LineString","coordinates":[[10.11475,43.99824],[10.115,43.99817],[10.11516,43.99821],[10.11528,43.99813],[10.11527,43.99804]]},"properties":{}},{"type":"Feature","geometry":{"type":"LineString","coordinates":[[10.11449,43.99841],[10.11475,43.99824]]},"properties":{}},{"type":"Feature","geometry":{"type":"LineString","coordinates":[[10.1144,43.99836],[10.11176,44.0]]},"properties":{}},{"type":"Feature","geometry":{"type":"LineString","coordinates":[[10.11198,44.0],[10.11322,43.99921],[10.11438,43.99854],[10.11449,43.99841]]},"properties":{}},{"type":"Feature","geometry":{"type":"LineString","coordinates":[[10.19642,43.97419],[10.19527,43.97347],[10.19464,43.97299],[10.19111,43.9706]]},"properties":{}},{"type":"Feature","geometry":{"type":"LineString","coordinates":[[10.16482,43.97477],[10.16474,43.97471],[10.16478,43.97467],[10.16471,43.9746],[10.16119,43.97234],[10.16123,43.9723]]},"properties":{}},{"type":"Feature","geometry":{"type":"LineString","coordinates":[[10.19496,43.97653],[10.19629,43.97497],[10.19644,43.9747],[10.1965,43.97452],[10.19651,43.97435],[10.19642,43.97419]]},"properties":{}},{"type":"Feature","geometry":{"type":"LineString","coordinates":[[10.17693,43.99332],[10.17687,43.99346]]},"properties":{}},{"type":"Feature","geometry":{"type":"LineString","coordinates":[[10.23546,43.88085],[10.23547,43.88078],[10.23805,43.87639],[10.23827,43.87605],[10.23843,43.87574],[10.24015,43.87281]]},"properties":{}},{"type":"Feature","geometry":{"type":"LineString","coordinates":[[10.23539,43.88098],[10.23588,43.88111],[10.23707,43.88154]]},"properties":{}},{"type":"Feature","geometry":{"type":"LineString","coordinates":[[10.23487,43.88185],[10.23546,43.88085]]},"properties":{}},{"type":"Feature","geometry":{"type":"LineString","coordinates":[[10.23482,43.88195],[10.23487,43.88185]]},"properties":{}},{"type":"Feature","geometry":{"type":"LineString","coordinates":[[10.23707,43.88154],[10.23835,43.882],[10.2384,43.88207],[10.23923,43.88231],[10.23948,43.88263],[10.2401,43.88303],[10.24051,43.88323],[10.24066,43.88295],[10.24081,43.88295],[10.24089,43.88283]]},"properties":{}},{"type":"Feature","geometry":{"type":"LineString","coordinates":[[10.24078,43.88334],[10.24085,43.88342]]},"properties":{}},{"type":"Feature","geometry":{"type":"LineString","coordinates":[[10.24051,43.88323],[10.24078,43.88334],[10.2406,43.88364],[10.24047,43.88393],[10.24056,43.88392]]},"properties":{}},{"type":"Feature","geometry":{"type":"LineString","coordinates":[[10.24005,43.88462],[10.24018,43.88457]]},"properties":{}},{"type":"Feature","geometry":{"type":"LineString","coordinates":[[10.2397,43.88525],[10.23982,43.8852]]},"properties":{}},{"type":"Feature","geometry":{"type":"LineString","coordinates":[[10.24047,43.88393],[10.24017,43.88446],[10.24005,43.88462],[10.24001,43.88463],[10.23996,43.8848],[10.23925,43.88598],[10.23915,43.88624],[10.23853,43.88731],[10.23854,43.88739]]},"properties":{}},{"type":"Feature","geometry":{"type":"LineString","coordinates":[[10.23923,43.88601],[10.23933,43.88603]]},"properties":{}},{"type":"Feature","geometry":{"type":"LineString","coordinates":[[10.23853,43.88731],[10.23745,43.88702],[10.23727,43.88689],[10.23712,43.8869],[10.23666,43.88674],[10.23653,43.88674],[10.23425,43.88608],[10.23384,43.88608],[10.2326,43.88573],[10.23213,43.88564]]},"properties":{}},{"type":"Feature","geometry":{"type":"LineString","coordinates":[[10.2389,43.88667],[10.23894,43.88668]]},"properties":{}},{"type":"Feature","geometry":{"type":"LineString","coordinates":[[10.24158,43.88803],[10.24126,43.88795],[10.2409,43.88794]]},"properties":{}},{"type":"Feature","geometry":{"type":"LineString","coordinates":[[10.24159,43.88945],[10.24163,43.88948],[10.24238,43.88967]]},"properties":{}},{"type":"Feature","geometry":{"type":"LineString","coordinates":[[10.24286,43.89831],[10.2434,43.8978],[10.2434,43.89754],[10.24354,43.8974],[10.2437,43.89733],[10.24404,43.89749],[10.24418,43.89758],[10.24432,43.89747],[10.2442,43.89735],[10.24401,43.89706],[10.24403,43.89678],[10.24459,43.89651],[10.24531,43.8963],[10.24544,43.89617],[10.24499,43.89626],[10.24489,43.89615],[10.24537,43.89593],[10.24549,43.89573],[10.24578,43.89554],[10.24631,43.89562],[10.24637,43.89587],[10.246,43.89606],[10.24581,43.89601],[10.24528,43.89675],[10.24509,43.89676],[10.24496,43.89664],[10.2448,43.89669],[10.24492,43.89705],[10.24477,43.89705],[10.2445,43.89675],[10.24459,43.89716],[10.24481,43.89754],[10.24407,43.89777],[10.24337,43.89817],[10.24262,43.89882],[10.24245,43.89872],[10.24167,43.89868],[10.24137,43.89842],[10.2419,43.89759],[10.24254,43.89753],[10.24194,43.89713],[10.24209,43.89702],[10.2427,43.89728],[10.24285,43.89716],[10.24215,43.8968],[10.24283,43.8967],[10.24334,43.89699],[10.24288,43.8976],[10.24241,43.89783],[10.24251,43.8981],[10.24286,43.89831]]},"properties":{}},{"type":"Feature","geometry":{"type":"LineString","coordinates":[[10.23629,43.89762],[10.23598,43.89762],[10.2357,43.89749],[10.23561,43.8974],[10.23555,43.89728],[10.23556,43.89708],[10.23571,43.8969],[10.23598,43.89679],[10.23631,43.89679],[10.23656,43.8969]]},"properties":{}},{"type":"Feature","geometry":{"type":"LineString","coordinates":[[10.23656,43.8969],[10.23671,43.8971],[10.23673,43.8972],[10.23671,43.8973],[10.23653,43.89752],[10.23629,43.89762]]},"properties":{}},{"type":"Feature","geometry":{"type":"LineString","coordinates":[[10.23451,43.89772],[10.23489,43.89743]]},"properties":{}},{"type":"Feature","geometry":{"type":"LineString","coordinates":[[10.23489,43.89743],[10.23472,43.89777]]},"properties":{}},{"type":"Feature","geometry":{"type":"LineString","coordinates":[[10.23475,43.8978],[10.23497,43.89786],[10.2352,43.89784]]},"properties":{}},{"type":"Feature","geometry":{"type":"LineString","coordinates":[[10.23467,43.89796],[10.23455,43.89798],[10.23444,43.89795],[10.23439,43.89788],[10.23441,43.89779],[10.23455,43.89772],[10.23469,43.89775],[10.23476,43.89786],[10.23467,43.89796]]},"properties":{}},{"type":"Feature","geometry":{"type":"LineString","coordinates":[[10.2352,43.89784],[10.23469,43.89795]]},"properties":{}},{"type":"Feature","geometry":{"type":"LineString","coordinates":[[10.22905,43.88884],[10.22911,43.88877]]},"properties":{}},{"type":"Feature","geometry":{"type":"LineString","coordinates":[[10.22896,43.88881],[10.22905,43.88884]]},"properties":{}},{"type":"Feature","geometry":{"type":"LineString","coordinates":[[10.22905,43.88884],[10.22915,43.88888]]},"properties":{}},{"type":"Feature","geometry":{"type":"LineString","coordinates":[[10.23139,43.88882],[10.23113,43.88889],[10.23075,43.88895]]},"properties":{}},{"type":"Feature","geometry":{"type":"LineString","coordinates":[[10.22854,43.88948],[10.22945,43.88984]]},"properties":{}},{"type":"Feature","geometry":{"type":"LineString","coordinates":[[10.22593,43.89447],[10.23145,43.89667]]},"properties":{}},{"type":"Feature","geometry":{"type":"LineString","coordinates":[[10.22303,43.89677],[10.22287,43.89674]]},"properties":{}},{"type":"Feature","geometry":{"type":"LineString","coordinates":[[10.22384,43.8971],[10.22303,43.89677]]},"properties":{}},{"type":"Feature","geometry":{"type":"LineString","coordinates":[[10.22384,43.8971],[10.22394,43.89714]]},"properties":{}},{"type":"Feature","geometry":{"type":"LineString","coordinates":[[10.22394,43.89714],[10.22609,43.89802]]},"properties":{}},{"type":"Feature","geometry":{"type":"LineString","coordinates":[[10.22609,43.89802],[10.23009,43.89967],[10.23195,43.90046]]},"properties":{}},{"type":"Feature","geometry":{"type":"LineString","coordinates":[[10.21205,43.9114],[10.2139,43.90896],[10.21855,43.90272],[10.2188,43.90222],[10.21887,43.90201],[10.21904,43.90175],[10.22891,43.88881],[10.22896,43.88881]]},"properties":{}},{"type":"Feature","geometry":{"type":"LineString","coordinates":[[10.23195,43.90046],[10.23196,43.90048]]},"properties":{}},{"type":"Feature","geometry":{"type":"LineString","coordinates":[[10.23196,43.90048],[10.23211,43.90055]]},"properties":{}},{"type":"Feature","geometry":{"type":"LineString","coordinates":[[10.23371,43.90125],[10.23211,43.90055]]},"properties":{}},{"type":"Feature","geometry":{"type":"LineString","coordinates":[[10.23388,43.90132],[10.23371,43.90125]]},"properties":{}},{"type":"Feature","geometry":{"type":"LineString","coordinates":[[10.21905,43.90232],[10.21925,43.90237]]},"properties":{}},{"type":"Feature","geometry":{"type":"LineString","coordinates":[[10.21902,43.90222],[10.22464,43.90482]]},"properties":{}},{"type":"Feature","geometry":{"type":"LineString","coordinates":[[10.21925,43.90237],[10.22434,43.90471]]},"properties":{}},{"type":"Feature","geometry":{"type":"LineString","coordinates":[[10.22434,43.90471],[10.22444,43.90465]]},"properties":{}},{"type":"Feature","geometry":{"type":"LineString","coordinates":[[10.22444,43.90465],[10.22494,43.90488],[10.22501,43.90485]]},"properties":{}},{"type":"Feature","geometry":{"type":"LineString","coordinates":[[10.22464,43.90482],[10.22496,43.90491]]},"properties":{}},{"type":"Feature","geometry":{"type":"LineString","coordinates":[[10.2249,43.90496],[10.22464,43.90482]]},"properties":{}},{"type":"Feature","geometry":{"type":"LineString","coordinates":[[10.22513,43.90489],[10.22512,43.9049]]},"properties":{}},{"type":"Feature","geometry":{"type":"LineString","coordinates":[[10.22512,43.9049],[10.22512,43.90497],[10.22646,43.90555],[10.22669,43.90558],[10.22696,43.9055]]},"properties":{}},{"type":"Feature","geometry":{"type":"LineString","coordinates":[[10.22696,43.9055],[10.22706,43.90543],[10.22709,43.90545]]},"properties":{}},{"type":"Feature","geometry":{"type":"LineString","coordinates":[[10.22724,43.90552],[10.22742,43.90548]]},"properties":{}},{"type":"Feature","geometry":{"type":"LineString","coordinates":[[10.22724,43.90552],[10.22729,43.90568],[10.22726,43.90575],[10.22736,43.9058]]},"properties":{}},{"type":"Feature","geometry":{"type":"LineString","coordinates":[[10.21844,43.90831],[10.2197,43.90658],[10.22041,43.90567]]},"properties":{}},{"type":"Feature","geometry":{"type":"LineString","coordinates":[[10.21571,43.90733],[10.21524,43.90716]]},"properties":{}},{"type":"Feature","geometry":{"type":"LineString","coordinates":[[10.23415,43.89824],[10.23439,43.89788]]},"properties":{}},{"type":"Feature","geometry":{"type":"LineString","coordinates":[[10.23455,43.89798],[10.23437,43.89807],[10.23415,43.89824]]},"properties":{}},{"type":"Feature","geometry":{"type":"LineString","coordinates":[[10.23799,43.8988],[10.23786,43.89873],[10.23782,43.89867],[10.23759,43.89857],[10.23749,43.89846],[10.23704,43.89827],[10.23698,43.89818],[10.23578,43.89771]]},"properties":{}},{"type":"Feature","geometry":{"type":"LineString","coordinates":[[10.23803,43.89898],[10.23672,43.89824],[10.23573,43.89779]]},"properties":{}},{"type":"Feature","geometry":{"type":"LineString","coordinates":[[10.23388,43.90132],[10.23395,43.90136],[10.23398,43.90144],[10.23555,43.90215]]},"properties":{}},{"type":"Feature","geometry":{"type":"LineString","coordinates":[[10.24658,43.91942],[10.2462,43.91932],[10.24605,43.91933],[10.24577,43.91941],[10.24573,43.91947]]},"properties":{}},{"type":"Feature","geometry":{"type":"LineString","coordinates":[[10.24716,43.91956],[10.24658,43.91942]]},"properties":{}},{"type":"Feature","geometry":{"type":"LineString","coordinates":[[10.24772,43.92037],[10.24774,43.92029],[10.24747,43.91977],[10.24735,43.91965],[10.24716,43.91956]]},"properties":{}},{"type":"Feature","geometry":{"type":"LineString","coordinates":[[10.21534,43.90714],[10.21839,43.90829]]},"properties":{}},{"type":"Feature","geometry":{"type":"LineString","coordinates":[[10.21571,43.90733],[10.21844,43.90839]]},"properties":{}},{"type":"Feature","geometry":{"type":"LineString","coordinates":[[10.21858,43.90829],[10.21844,43.90839]]},"properties":{}},{"type":"Feature","geometry":{"type":"LineString","coordinates":[[10.21858,43.90829],[10.22236,43.90974],[10.22248,43.90966],[10.22387,43.91018],[10.22382,43.91026],[10.22385,43.91036]]},"properties":{}},{"type":"Feature","geometry":{"type":"LineString","coordinates":[[10.2245,43.91242],[10.2246,43.91261],[10.22557,43.91337],[10.22555,43.91338]]},"properties":{}},{"type":"Feature","geometry":{"type":"LineString","coordinates":[[10.20916,43.91539],[10.2113,43.91249],[10.21205,43.9114]]},"properties":{}},{"type":"Feature","geometry":{"type":"LineString","coordinates":[[10.20886,43.91582],[10.2091,43.91552],[10.20909,43.91548],[10.20916,43.91539]]},"properties":{}},{"type":"Feature","geometry":{"type":"LineString","coordinates":[[10.20863,43.9161],[10.20886,43.91582]]},"properties":{}},{"type":"Feature","geometry":{"type":"LineString","coordinates":[[10.2063,43.91869],[10.20825,43.91648],[10.20839,43.91638],[10.20863,43.9161]]},"properties":{}},{"type":"Feature","geometry":{"type":"LineString","coordinates":[[10.2045,43.92074],[10.2063,43.91869]]},"properties":{}},{"type":"Feature","geometry":{"type":"LineString","coordinates":[[10.2078,43.92051],[10.2086,43.91964]]},"properties":{}},{"type":"Feature","geometry":{"type":"LineString","coordinates":[[10.22004,43.92649],[10.22014,43.9267]]},"properties":{}},{"type":"Feature","geometry":{"type":"LineString","coordinates":[[10.22013,43.92701],[10.22014,43.9267]]},"properties":{}},{"type":"Feature","geometry":{"type":"LineString","coordinates":[[10.22015,43.9272],[10.22004,43.92723]]},"properties":{}},{"type":"Feature","geometry":{"type":"LineString","coordinates":[[10.22015,43.92743],[10.22013,43.92701]]},"properties":{}},{"type":"Feature","geometry":{"type":"LineString","coordinates":[[10.22004,43.92723],[10.21983,43.92726]]},"properties":{}},{"type":"Feature","geometry":{"type":"LineString","coordinates":[[10.22012,43.92756],[10.22011,43.92749],[10.22015,43.92743]]},"properties":{}},{"type":"Feature","geometry":{"type":"LineString","coordinates":[[10.21998,43.9277],[10.22012,43.92756]]},"properties":{}},{"type":"Feature","geometry":{"type":"LineString","coordinates":[[10.2198,43.92806],[10.21985,43.92788],[10.21998,43.9277]]},"properties":{}},{"type":"Feature","geometry":{"type":"LineString","coordinates":[[10.21523,43.93448],[10.21574,43.93363],[10.21619,43.93304],[10.21643,43.93276],[10.21788,43.9313],[10.21862,43.9305],[10.21896,43.92997],[10.2198,43.92806]]},"properties":{}},{"type":"Feature","geometry":{"type":"LineString","coordinates":[[10.21494,43.93474],[10.21523,43.93448]]},"properties":{}},{"type":"Feature","geometry":{"type":"LineString","coordinates":[[10.21481,43.935],[10.21477,43.93494],[10.21477,43.93486],[10.21489,43.93475],[10.21498,43.93473],[10.21512,43.93476],[10.21524,43.93487],[10.21521,43.93498],[10.2151,43.93506],[10.21494,43.93507],[10.21481,43.935]]},"properties":{}},{"type":"Feature","geometry":{"type":"LineString","coordinates":[[10.21478,43.93534],[10.21483,43.93513],[10.21481,43.935]]},"properties":{}},{"type":"Feature","geometry":{"type":"LineString","coordinates":[[10.2127,43.93889],[10.21367,43.93731],[10.21478,43.93534]]},"properties":{}},{"type":"Feature","geometry":{"type":"LineString","coordinates":[[10.21217,43.93898],[10.21226,43.93903]]},"properties":{}},{"type":"Feature","geometry":{"type":"LineString","coordinates":[[10.21226,43.93903],[10.21245,43.93904],[10.21259,43.93899]]},"properties":{}},{"type":"Feature","geometry":{"type":"LineString","coordinates":[[10.21243,43.93915],[10.2127,43.93889]]},"properties":{}},{"type":"Feature","geometry":{"type":"LineString","coordinates":[[10.21229,43.93922],[10.21217,43.93898]]},"properties":{}},{"type":"Feature","geometry":{"type":"LineString","coordinates":[[10.21239,43.93915],[10.21243,43.93915]]},"properties":{}},{"type":"Feature","geometry":{"type":"LineString","coordinates":[[10.21228,43.93929],[10.21229,43.93922]]},"properties":{}},{"type":"Feature","geometry":{"type":"LineString","coordinates":[[10.20136,43.95095],[10.20142,43.95092],[10.20155,43.95097],[10.20176,43.95096],[10.20189,43.95091],[10.20202,43.95081],[10.20218,43.95088],[10.20204,43.95111],[10.20205,43.95123],[10.2021,43.95133],[10.20247,43.95164],[10.20361,43.95232]]},"properties":{}},{"type":"Feature","geometry":{"type":"LineString","coordinates":[[10.20361,43.95232],[10.20438,43.95277]]},"properties":{}},{"type":"Feature","geometry":{"type":"LineString","coordinates":[[10.20438,43.95277],[10.2048,43.95309],[10.2051,43.95339],[10.20523,43.95348],[10.20536,43.95348],[10.20559,43.95335],[10.20567,43.95337]]},"properties":{}},{"type":"Feature","geometry":{"type":"LineString","coordinates":[[10.22014,43.95352],[10.22006,43.95344]]},"properties":{}},{"type":"Feature","geometry":{"type":"LineString","coordinates":[[10.22626,43.95635],[10.22653,43.95649],[10.22666,43.9565],[10.22671,43.95647],[10.22856,43.95505],[10.22877,43.95486],[10.22917,43.95416],[10.22933,43.95375],[10.22936,43.95351],[10.22933,43.95323],[10.22923,43.95283]]},"properties":{}},{"type":"Feature","geometry":{"type":"LineString","coordinates":[[10.22553,43.95718],[10.22575,43.95708],[10.22628,43.95667],[10.22633,43.95659],[10.22631,43.95654],[10.22594,43.95633],[10.22564,43.95621],[10.22551,43.95609],[10.22367,43.95509],[10.2234,43.95505],[10.22325,43.95498],[10.22311,43.95479],[10.22303,43.95474],[10.22087,43.95355],[10.22054,43.95346],[10.22029,43.95348],[10.21991,43.9536],[10.21965,43.95378],[10.21957,43.95389],[10.21955,43.95406],[10.21966,43.95477],[10.21971,43.95493],[10.21989,43.95525],[10.22017,43.95562],[10.22179,43.9573],[10.22199,43.95741],[10.22212,43.95757],[10.22349,43.95798],[10.22386,43.95817],[10.22409,43.95819],[10.22424,43.95816],[10.22472,43.95793],[10.22514,43.95766],[10.22547,43.95738],[10.22549,43.95729],[10.22546,43.95723],[10.22553,43.95718]]},"properties":{}},{"type":"Feature","geometry":{"type":"LineString","coordinates":[[10.2156,43.96034],[10.2156,43.96021],[10.21696,43.95777],[10.21734,43.95717],[10.21833,43.95595],[10.21845,43.95591],[10.21872,43.95552],[10.21885,43.95539],[10.21924,43.95506],[10.21947,43.95494],[10.21962,43.95493]]},"properties":{}},{"type":"Feature","geometry":{"type":"LineString","coordinates":[[10.22409,43.95819],[10.22429,43.95839]]},"properties":{}},{"type":"Feature","geometry":{"type":"LineString","coordinates":[[10.22429,43.95839],[10.22426,43.95848],[10.22432,43.95861],[10.22452,43.95949]]},"properties":{}},{"type":"Feature","geometry":{"type":"LineString","coordinates":[[10.22452,43.95949],[10.2246,43.95977]]},"properties":{}},{"type":"Feature","geometry":{"type":"LineString","coordinates":[[10.2246,43.95977],[10.22468,43.9601],[10.22482,43.96046],[10.22502,43.96061],[10.22519,43.96063],[10.22742,43.96014],[10.22756,43.96007],[10.22808,43.95967],[10.22823,43.95959],[10.22834,43.95957]]},"properties":{}},{"type":"Feature","geometry":{"type":"LineString","coordinates":[[10.22248,43.96131],[10.22283,43.9611],[10.22373,43.96044],[10.22435,43.96011],[10.22443,43.95986],[10.22466,43.95972],[10.22472,43.95976],[10.22486,43.96051]]},"properties":{}},{"type":"Feature","geometry":{"type":"LineString","coordinates":[[10.22229,43.96138],[10.22212,43.96124]]},"properties":{}},{"type":"Feature","geometry":{"type":"LineString","coordinates":[[10.22252,43.96137],[10.22248,43.96131],[10.22213,43.96147],[10.22229,43.96138]]},"properties":{}},{"type":"Feature","geometry":{"type":"LineString","coordinates":[[10.22212,43.96124],[10.22176,43.96155]]},"properties":{}}]}