{"type":"FeatureCollection","features":[{"type":"Feature","geometry":{"type":"LineString","coordinates":[[10.39596,42.75662],[10.39616,42.75634],[10.39627,42.75624],[10.39658,42.7562]]},"properties":{}},{"type":"Feature","geometry":{"type":"LineString","coordinates":[[10.39658,42.7562],[10.39727,42.75643],[10.39937,42.75675],[10.39971,42.75677],[10.40034,42.75672],[10.4009,42.75673],[10.40147,42.7567],[10.40212,42.75678]]},"properties":{}},{"type":"Feature","geometry":{"type":"LineString","coordinates":[[10.3871,42.75769],[10.38772,42.7578],[10.38807,42.75778],[10.3885,42.75779],[10.38896,42.75766],[10.38932,42.75763],[10.38976,42.75781],[10.39032,42.7578],[10.39061,42.75788],[10.3907,42.75788],[10.39145,42.75743],[10.39176,42.75715],[10.39189,42.75694],[10.392,42.75664],[10.39204,42.75625],[10.39219,42.75618],[10.39233,42.75619],[10.39241,42.75623],[10.39264,42.75653],[10.39367,42.75741],[10.39416,42.75751],[10.39432,42.75749],[10.39458,42.75738]]},"properties":{}},{"type":"Feature","geometry":{"type":"LineString","coordinates":[[10.30846,42.81004],[10.30862,42.80974]]},"properties":{}},{"type":"Feature","geometry":{"type":"LineString","coordinates":[[10.30883,42.80999],[10.30846,42.81004]]},"properties":{}},{"type":"Feature","geometry":{"type":"LineString","coordinates":[[10.3194,42.81083],[10.32029,42.81086]]},"properties":{}},{"type":"Feature","geometry":{"type":"LineString","coordinates":[[10.31472,42.81095],[10.31521,42.81112],[10.31548,42.81116],[10.31732,42.81118],[10.3194,42.81083]]},"properties":{}},{"type":"Feature","geometry":{"type":"LineString","coordinates":[[10.31306,42.81318],[10.31299,42.81309],[10.31283,42.81244],[10.3127,42.81222],[10.31258,42.8121],[10.31104,42.81128],[10.31036,42.81095]]},"properties":{}},{"type":"Feature","geometry":{"type":"LineString","coordinates":[[10.32229,42.81297],[10.32261,42.81287]]},"properties":{}},{"type":"Feature","geometry":{"type":"LineString","coordinates":[[10.32111,42.81328],[10.32229,42.81297]]},"properties":{}},{"type":"Feature","geometry":{"type":"LineString","coordinates":[[10.32179,42.81318],[10.32115,42.81337]]},"properties":{}},{"type":"Feature","geometry":{"type":"LineString","coordinates":[[10.32109,42.81327],[10.32111,42.81328]]},"properties":{}},{"type":"Feature","geometry":{"type":"LineString","coordinates":[[10.32095,42.81331],[10.32101,42.81327],[10.32109,42.81327]]},"properties":{}},{"type":"Feature","geometry":{"type":"LineString","coordinates":[[10.32111,42.81328],[10.32115,42.81332],[10.32115,42.81337]]},"properties":{}},{"type":"Feature","geometry":{"type":"LineString","coordinates":[[10.32099,42.81342],[10.32094,42.81336],[10.32095,42.81331]]},"properties":{}},{"type":"Feature","geometry":{"type":"LineString","coordinates":[[10.32115,42.81337],[10.32115,42.81338]]},"properties":{}},{"type":"Feature","geometry":{"type":"LineString","coordinates":[[10.32115,42.81338],[10.32107,42.81343],[10.32099,42.81342]]},"properties":{}},{"type":"Feature","geometry":{"type":"LineString","coordinates":[[10.32115,42.81338],[10.32115,42.81348]]},"properties":{}},{"type":"Feature","geometry":{"type":"LineString","coordinates":[[10.31455,42.81394],[10.31382,42.81364],[10.31306,42.81318]]},"properties":{}},{"type":"Feature","geometry":{"type":"LineString","coordinates":[[10.32441,42.81424],[10.3239,42.81401],[10.32376,42.81392]]},"properties":{}},{"type":"Feature","geometry":{"type":"LineString","coordinates":[[10.32339,42.81439],[10.32376,42.81392]]},"properties":{}},{"type":"Feature","geometry":{"type":"LineString","coordinates":[[10.31658,42.81405],[10.31692,42.81413],[10.31837,42.81467],[10.31866,42.81468],[10.31872,42.81465],[10.31877,42.81456]]},"properties":{}},{"type":"Feature","geometry":{"type":"LineString","coordinates":[[10.31657,42.81531],[10.31617,42.81426],[10.31616,42.81404]]},"properties":{}},{"type":"Feature","geometry":{"type":"LineString","coordinates":[[10.3189,42.81606],[10.31881,42.81612],[10.31871,42.81612],[10.3179,42.81528],[10.31759,42.81501]]},"properties":{}},{"type":"Feature","geometry":{"type":"LineString","coordinates":[[10.31977,42.81679],[10.3189,42.81606]]},"properties":{}}]}