{"type":"FeatureCollection","features":[{"type":"Feature","geometry":{"type":"LineString","coordinates":[[10.48241,44.07127],[10.4817,44.07183],[10.48162,44.07194],[10.48159,44.07205],[10.48161,44.07218],[10.48189,44.07274],[10.48196,44.07282],[10.48222,44.07292],[10.48249,44.07295],[10.48287,44.07304],[10.48292,44.07301],[10.48293,44.07296],[10.48289,44.07292],[10.4824,44.07268],[10.48246,44.07258],[10.48265,44.07251]]},"properties":{}},{"type":"Feature","geometry":{"type":"LineString","coordinates":[[10.48196,44.07448],[10.4805,44.07391]]},"properties":{}},{"type":"Feature","geometry":{"type":"LineString","coordinates":[[10.4805,44.07391],[10.47998,44.07469]]},"properties":{}},{"type":"Feature","geometry":{"type":"LineString","coordinates":[[10.48283,44.07481],[10.48196,44.07448]]},"properties":{}},{"type":"Feature","geometry":{"type":"LineString","coordinates":[[10.48152,44.0752],[10.48181,44.07477],[10.48196,44.07448]]},"properties":{}},{"type":"Feature","geometry":{"type":"LineString","coordinates":[[10.48316,44.07494],[10.48283,44.07481]]},"properties":{}},{"type":"Feature","geometry":{"type":"LineString","coordinates":[[10.48224,44.07543],[10.48246,44.07547],[10.48253,44.07553]]},"properties":{}},{"type":"Feature","geometry":{"type":"LineString","coordinates":[[10.48369,44.07531],[10.48328,44.07595]]},"properties":{}},{"type":"Feature","geometry":{"type":"LineString","coordinates":[[10.48203,44.07581],[10.48192,44.07584],[10.48154,44.07628]]},"properties":{}},{"type":"Feature","geometry":{"type":"LineString","coordinates":[[10.31271,44.17483],[10.31295,44.17493],[10.31307,44.1751],[10.31361,44.17527],[10.31385,44.17544],[10.31402,44.17563]]},"properties":{}}]}