{"type":"FeatureCollection","features":[{"type":"Feature","geometry":{"type":"LineString","coordinates":[[10.29847,45.02211],[10.29944,45.02033]]},"properties":{}},{"type":"Feature","geometry":{"type":"LineString","coordinates":[[10.26116,45.05582],[10.26119,45.05585]]},"properties":{}},{"type":"Feature","geometry":{"type":"LineString","coordinates":[[10.26075,45.05604],[10.26078,45.05607]]},"properties":{}},{"type":"Feature","geometry":{"type":"LineString","coordinates":[[10.25921,45.05682],[10.25925,45.05688]]},"properties":{}},{"type":"Feature","geometry":{"type":"LineString","coordinates":[[10.25881,45.05706],[10.25885,45.05709]]},"properties":{}},{"type":"Feature","geometry":{"type":"LineString","coordinates":[[10.26127,45.05576],[10.25926,45.05682],[10.25899,45.05683],[10.25887,45.05687],[10.25881,45.05706],[10.25642,45.05834],[10.25611,45.05841]]},"properties":{}},{"type":"Feature","geometry":{"type":"LineString","coordinates":[[10.2775,45.08398],[10.28047,45.08389]]},"properties":{}},{"type":"Feature","geometry":{"type":"LineString","coordinates":[[10.31397,45.06341],[10.31397,45.06339],[10.31388,45.06336]]},"properties":{}},{"type":"Feature","geometry":{"type":"LineString","coordinates":[[10.31398,45.0635],[10.31397,45.06341]]},"properties":{}},{"type":"Feature","geometry":{"type":"LineString","coordinates":[[10.31413,45.06565],[10.31398,45.0635]]},"properties":{}},{"type":"Feature","geometry":{"type":"LineString","coordinates":[[10.31406,45.06565],[10.3139,45.06357]]},"properties":{}},{"type":"Feature","geometry":{"type":"LineString","coordinates":[[10.31417,45.06596],[10.31416,45.06565]]},"properties":{}},{"type":"Feature","geometry":{"type":"LineString","coordinates":[[10.31407,45.06605],[10.31416,45.06621]]},"properties":{}},{"type":"Feature","geometry":{"type":"LineString","coordinates":[[10.31416,45.06621],[10.31423,45.06618]]},"properties":{}},{"type":"Feature","geometry":{"type":"LineString","coordinates":[[10.31416,45.06621],[10.31437,45.06667]]},"properties":{}},{"type":"Feature","geometry":{"type":"LineString","coordinates":[[10.31404,45.06667],[10.31418,45.06663],[10.31437,45.06667]]},"properties":{}},{"type":"Feature","geometry":{"type":"LineString","coordinates":[[10.31437,45.06667],[10.31443,45.06683]]},"properties":{}},{"type":"Feature","geometry":{"type":"LineString","coordinates":[[10.41462,45.00049],[10.41439,45.00034],[10.41408,45.0]]},"properties":{}},{"type":"Feature","geometry":{"type":"LineString","coordinates":[[10.471,45.01905],[10.47117,45.01858]]},"properties":{}},{"type":"Feature","geometry":{"type":"LineString","coordinates":[[10.471,45.01905],[10.47133,45.01904]]},"properties":{}},{"type":"Feature","geometry":{"type":"LineString","coordinates":[[10.47133,45.01904],[10.47109,45.01925],[10.47095,45.01948]]},"properties":{}},{"type":"Feature","geometry":{"type":"LineString","coordinates":[[10.47148,45.0195],[10.47132,45.01942],[10.47112,45.01942],[10.47095,45.01948]]},"properties":{}},{"type":"Feature","geometry":{"type":"LineString","coordinates":[[10.4708,45.02011],[10.47081,45.01958],[10.471,45.01905]]},"properties":{}},{"type":"Feature","geometry":{"type":"LineString","coordinates":[[10.5,45.06387],[10.49964,45.06414],[10.49917,45.06436],[10.4933,45.06557],[10.4932,45.06554]]},"properties":{}},{"type":"Feature","geometry":{"type":"LineString","coordinates":[[10.48823,45.06701],[10.48821,45.06696]]},"properties":{}},{"type":"Feature","geometry":{"type":"LineString","coordinates":[[10.42786,45.07009],[10.42796,45.07039]]},"properties":{}},{"type":"Feature","geometry":{"type":"LineString","coordinates":[[10.42796,45.07039],[10.42741,45.07047]]},"properties":{}},{"type":"Feature","geometry":{"type":"LineString","coordinates":[[10.41462,45.00049],[10.41469,45.00051]]},"properties":{}},{"type":"Feature","geometry":{"type":"LineString","coordinates":[[10.37113,45.00362],[10.37119,45.00357]]},"properties":{}},{"type":"Feature","geometry":{"type":"LineString","coordinates":[[10.35492,45.00893],[10.35488,45.00823],[10.35492,45.00815],[10.35497,45.0081],[10.35542,45.00809],[10.35542,45.008],[10.3555,45.00797],[10.35583,45.00797],[10.35781,45.00821],[10.35848,45.00819],[10.35856,45.00825]]},"properties":{}},{"type":"Feature","geometry":{"type":"LineString","coordinates":[[10.37484,45.00815],[10.37407,45.00833],[10.36775,45.00959],[10.36683,45.00972],[10.36538,45.00986],[10.36532,45.00987],[10.36525,45.00982]]},"properties":{}},{"type":"Feature","geometry":{"type":"LineString","coordinates":[[10.35817,45.01016],[10.35817,45.00974],[10.3584,45.00921],[10.35856,45.00815]]},"properties":{}},{"type":"Feature","geometry":{"type":"LineString","coordinates":[[10.35089,45.00947],[10.35251,45.0092]]},"properties":{}},{"type":"Feature","geometry":{"type":"LineString","coordinates":[[10.35888,45.01019],[10.36087,45.01007],[10.36468,45.00994],[10.36488,45.00997],[10.36495,45.00994]]},"properties":{}},{"type":"Feature","geometry":{"type":"LineString","coordinates":[[10.41517,45.07246],[10.41036,45.07316]]},"properties":{}},{"type":"Feature","geometry":{"type":"LineString","coordinates":[[10.37558,45.07404],[10.37552,45.07395],[10.37558,45.07362]]},"properties":{}},{"type":"Feature","geometry":{"type":"LineString","coordinates":[[10.35683,45.07863],[10.35686,45.07882],[10.3568,45.07939]]},"properties":{}},{"type":"Feature","geometry":{"type":"LineString","coordinates":[[10.42892,45.07404],[10.42888,45.07313],[10.42864,45.07227],[10.42822,45.07113]]},"properties":{}},{"type":"Feature","geometry":{"type":"LineString","coordinates":[[10.42894,45.0744],[10.42887,45.0744],[10.4288,45.07307],[10.4286,45.07239],[10.42816,45.07114]]},"properties":{}},{"type":"Feature","geometry":{"type":"LineString","coordinates":[[10.42894,45.0744],[10.42892,45.07404]]},"properties":{}},{"type":"Feature","geometry":{"type":"LineString","coordinates":[[10.49013,45.10221],[10.49044,45.10197]]},"properties":{}},{"type":"Feature","geometry":{"type":"LineString","coordinates":[[10.49044,45.10197],[10.49026,45.10227]]},"properties":{}},{"type":"Feature","geometry":{"type":"LineString","coordinates":[[10.45615,45.10214],[10.45632,45.10289],[10.45662,45.10292],[10.45851,45.10283],[10.46162,45.10281],[10.46193,45.10282],[10.46258,45.10292]]},"properties":{}},{"type":"Feature","geometry":{"type":"LineString","coordinates":[[10.4899,45.10261],[10.49001,45.10264]]},"properties":{}},{"type":"Feature","geometry":{"type":"LineString","coordinates":[[10.49066,45.10238],[10.49064,45.1024],[10.49047,45.10236],[10.49031,45.10251],[10.49004,45.10261],[10.48942,45.10332]]},"properties":{}},{"type":"Feature","geometry":{"type":"LineString","coordinates":[[10.46258,45.10292],[10.46268,45.10294]]},"properties":{}},{"type":"Feature","geometry":{"type":"LineString","coordinates":[[10.46268,45.10294],[10.46278,45.10297]]},"properties":{}},{"type":"Feature","geometry":{"type":"LineString","coordinates":[[10.35363,45.08165],[10.3519,45.0817]]},"properties":{}},{"type":"Feature","geometry":{"type":"LineString","coordinates":[[10.34884,45.08179],[10.3488,45.08174],[10.34878,45.08158]]},"properties":{}},{"type":"Feature","geometry":{"type":"LineString","coordinates":[[10.3519,45.0817],[10.35172,45.08171]]},"properties":{}},{"type":"Feature","geometry":{"type":"LineString","coordinates":[[10.35172,45.08171],[10.34941,45.08177]]},"properties":{}},{"type":"Feature","geometry":{"type":"LineString","coordinates":[[10.34941,45.08177],[10.34884,45.08179],[10.34798,45.08172]]},"properties":{}},{"type":"Feature","geometry":{"type":"LineString","coordinates":[[10.35368,45.08169],[10.34942,45.08183]]},"properties":{}},{"type":"Feature","geometry":{"type":"LineString","coordinates":[[10.35735,45.0826],[10.35716,45.08207],[10.35731,45.08203]]},"properties":{}},{"type":"Feature","geometry":{"type":"LineString","coordinates":[[10.35399,45.08314],[10.3539,45.0828],[10.35391,45.08272],[10.35464,45.08262],[10.35471,45.08266],[10.35481,45.08305],[10.35514,45.08304]]},"properties":{}},{"type":"Feature","geometry":{"type":"LineString","coordinates":[[10.35516,45.08303],[10.35478,45.08306],[10.35467,45.0827],[10.35466,45.08267],[10.35456,45.08266],[10.35397,45.08274],[10.35394,45.0828],[10.35401,45.08309],[10.35399,45.08314]]},"properties":{}},{"type":"Feature","geometry":{"type":"LineString","coordinates":[[10.3873,45.12628],[10.38721,45.12634],[10.38687,45.12643],[10.38659,45.12657],[10.38631,45.12677]]},"properties":{}},{"type":"Feature","geometry":{"type":"LineString","coordinates":[[10.49028,45.10253],[10.49049,45.10269],[10.49061,45.10285],[10.4903,45.1035]]},"properties":{}},{"type":"Feature","geometry":{"type":"LineString","coordinates":[[10.45343,45.10672],[10.45347,45.10668],[10.4537,45.10595],[10.4538,45.10511],[10.45377,45.10487],[10.45357,45.10434],[10.4535,45.10397],[10.45341,45.1039],[10.45341,45.10356],[10.45338,45.10333],[10.45338,45.10308],[10.45342,45.10302]]},"properties":{}},{"type":"Feature","geometry":{"type":"LineString","coordinates":[[10.48977,45.10535],[10.48987,45.1054],[10.49007,45.10541],[10.49006,45.10549],[10.49009,45.10555]]},"properties":{}},{"type":"Feature","geometry":{"type":"LineString","coordinates":[[10.48981,45.10513],[10.4898,45.10534],[10.48918,45.10558],[10.48898,45.10581],[10.48886,45.10631],[10.48888,45.1064],[10.48907,45.10653],[10.48909,45.10691],[10.489,45.10701],[10.48847,45.10712],[10.48831,45.10686],[10.48816,45.10675],[10.48737,45.10661],[10.48488,45.10736],[10.48465,45.10738]]},"properties":{}},{"type":"Feature","geometry":{"type":"LineString","coordinates":[[10.4534,45.10681],[10.45343,45.10672]]},"properties":{}},{"type":"Feature","geometry":{"type":"LineString","coordinates":[[10.45343,45.10686],[10.4534,45.10681]]},"properties":{}},{"type":"Feature","geometry":{"type":"LineString","coordinates":[[10.4727,45.10882],[10.47275,45.10956]]},"properties":{}},{"type":"Feature","geometry":{"type":"LineString","coordinates":[[10.47205,45.10982],[10.4723,45.10977],[10.47248,45.10968],[10.47261,45.10955],[10.47268,45.10925],[10.47266,45.10911],[10.47263,45.10899],[10.47253,45.10884]]},"properties":{}},{"type":"Feature","geometry":{"type":"LineString","coordinates":[[10.47275,45.10956],[10.47281,45.10967],[10.47294,45.10977],[10.47313,45.10985]]},"properties":{}},{"type":"Feature","geometry":{"type":"LineString","coordinates":[[10.45443,45.11674],[10.45458,45.11679],[10.45483,45.11676]]},"properties":{}},{"type":"Feature","geometry":{"type":"LineString","coordinates":[[10.45443,45.11674],[10.45446,45.11696]]},"properties":{}},{"type":"Feature","geometry":{"type":"LineString","coordinates":[[10.45446,45.11696],[10.45429,45.1169],[10.45416,45.11682]]},"properties":{}},{"type":"Feature","geometry":{"type":"LineString","coordinates":[[10.49311,45.11712],[10.4931,45.11697]]},"properties":{}},{"type":"Feature","geometry":{"type":"LineString","coordinates":[[10.45376,45.11734],[10.45416,45.11702],[10.4542,45.11693],[10.45416,45.11682]]},"properties":{}},{"type":"Feature","geometry":{"type":"LineString","coordinates":[[10.4931,45.11697],[10.49335,45.11739]]},"properties":{}},{"type":"Feature","geometry":{"type":"LineString","coordinates":[[10.49255,45.11732],[10.49291,45.11731],[10.49301,45.11727],[10.49311,45.11712]]},"properties":{}},{"type":"Feature","geometry":{"type":"LineString","coordinates":[[10.49314,45.11758],[10.49316,45.11725],[10.49311,45.11712]]},"properties":{}},{"type":"Feature","geometry":{"type":"LineString","coordinates":[[10.49335,45.11739],[10.49329,45.1175],[10.49314,45.11758]]},"properties":{}},{"type":"Feature","geometry":{"type":"LineString","coordinates":[[10.49335,45.11739],[10.49356,45.11765],[10.49385,45.11789]]},"properties":{}},{"type":"Feature","geometry":{"type":"LineString","coordinates":[[10.44426,45.12151],[10.4441,45.12165],[10.44401,45.12179]]},"properties":{}},{"type":"Feature","geometry":{"type":"LineString","coordinates":[[10.38341,45.12658],[10.38364,45.12653]]},"properties":{}},{"type":"Feature","geometry":{"type":"LineString","coordinates":[[10.38364,45.12653],[10.38409,45.12646],[10.38429,45.12646],[10.3849,45.1266],[10.38535,45.12666],[10.38591,45.12659]]},"properties":{}},{"type":"Feature","geometry":{"type":"LineString","coordinates":[[10.38402,45.12655],[10.38341,45.12658]]},"properties":{}},{"type":"Feature","geometry":{"type":"LineString","coordinates":[[10.38488,45.1267],[10.38436,45.12656],[10.38402,45.12655]]},"properties":{}},{"type":"Feature","geometry":{"type":"LineString","coordinates":[[10.38631,45.12677],[10.38601,45.12691],[10.38571,45.12694],[10.38549,45.1269],[10.38488,45.1267]]},"properties":{}},{"type":"Feature","geometry":{"type":"LineString","coordinates":[[10.36714,45.12737],[10.36708,45.12723],[10.36715,45.12714],[10.36704,45.12672],[10.36686,45.12672]]},"properties":{}},{"type":"Feature","geometry":{"type":"LineString","coordinates":[[10.36714,45.12737],[10.36738,45.12737]]},"properties":{}},{"type":"Feature","geometry":{"type":"LineString","coordinates":[[10.36708,45.1274],[10.36714,45.12737]]},"properties":{}},{"type":"Feature","geometry":{"type":"LineString","coordinates":[[10.36738,45.12737],[10.36716,45.12744]]},"properties":{}},{"type":"Feature","geometry":{"type":"LineString","coordinates":[[10.36691,45.1275],[10.36708,45.1274]]},"properties":{}},{"type":"Feature","geometry":{"type":"LineString","coordinates":[[10.36716,45.12744],[10.36691,45.1275]]},"properties":{}},{"type":"Feature","geometry":{"type":"LineString","coordinates":[[10.37442,45.12736],[10.37416,45.12735],[10.37301,45.12768],[10.37295,45.12773]]},"properties":{}},{"type":"Feature","geometry":{"type":"LineString","coordinates":[[10.36744,45.12767],[10.36726,45.12748],[10.36716,45.12744]]},"properties":{}},{"type":"Feature","geometry":{"type":"LineString","coordinates":[[10.37473,45.128],[10.37465,45.12782],[10.37453,45.12771],[10.37448,45.12745],[10.37442,45.12736]]},"properties":{}},{"type":"Feature","geometry":{"type":"LineString","coordinates":[[10.37128,45.12877],[10.37131,45.12883],[10.37955,45.12701],[10.37971,45.12689]]},"properties":{}},{"type":"Feature","geometry":{"type":"LineString","coordinates":[[10.36691,45.1275],[10.3664,45.12789],[10.36627,45.12807],[10.36623,45.12826]]},"properties":{}},{"type":"Feature","geometry":{"type":"LineString","coordinates":[[10.37029,45.12816],[10.3729,45.12771],[10.37295,45.12773],[10.37318,45.12833]]},"properties":{}},{"type":"Feature","geometry":{"type":"LineString","coordinates":[[10.36623,45.12826],[10.36632,45.12856]]},"properties":{}},{"type":"Feature","geometry":{"type":"LineString","coordinates":[[10.36767,45.12882],[10.36785,45.12879]]},"properties":{}},{"type":"Feature","geometry":{"type":"LineString","coordinates":[[10.36646,45.12908],[10.36632,45.12856]]},"properties":{}},{"type":"Feature","geometry":{"type":"LineString","coordinates":[[10.36989,45.12916],[10.36989,45.12905],[10.36959,45.12865],[10.36939,45.12856],[10.36889,45.12866],[10.36785,45.12879]]},"properties":{}},{"type":"Feature","geometry":{"type":"LineString","coordinates":[[10.36766,45.1288],[10.36767,45.12882],[10.36747,45.12887],[10.36742,45.12893],[10.36702,45.12906],[10.36621,45.12928]]},"properties":{}},{"type":"Feature","geometry":{"type":"LineString","coordinates":[[10.36618,45.12922],[10.36617,45.1292]]},"properties":{}},{"type":"Feature","geometry":{"type":"LineString","coordinates":[[10.36788,45.12878],[10.36837,45.12965],[10.36846,45.1297]]},"properties":{}},{"type":"Feature","geometry":{"type":"LineString","coordinates":[[10.36618,45.12922],[10.36621,45.12928]]},"properties":{}},{"type":"Feature","geometry":{"type":"LineString","coordinates":[[10.36526,45.12951],[10.3664,45.12915],[10.36646,45.12908]]},"properties":{}},{"type":"Feature","geometry":{"type":"LineString","coordinates":[[10.36621,45.12928],[10.36529,45.12955]]},"properties":{}},{"type":"Feature","geometry":{"type":"LineString","coordinates":[[10.36529,45.12955],[10.36525,45.12949]]},"properties":{}},{"type":"Feature","geometry":{"type":"LineString","coordinates":[[10.36504,45.12957],[10.36526,45.12951]]},"properties":{}},{"type":"Feature","geometry":{"type":"LineString","coordinates":[[10.36529,45.12955],[10.36395,45.12998],[10.36381,45.13009],[10.36378,45.13018],[10.3638,45.13029],[10.36376,45.1303]]},"properties":{}},{"type":"Feature","geometry":{"type":"LineString","coordinates":[[10.44379,45.12165],[10.44396,45.12173],[10.44401,45.12179]]},"properties":{}},{"type":"Feature","geometry":{"type":"LineString","coordinates":[[10.44379,45.12187],[10.44379,45.12165]]},"properties":{}},{"type":"Feature","geometry":{"type":"LineString","coordinates":[[10.44379,45.12187],[10.44365,45.1218],[10.44337,45.12176]]},"properties":{}},{"type":"Feature","geometry":{"type":"LineString","coordinates":[[10.44401,45.12179],[10.444,45.12215]]},"properties":{}},{"type":"Feature","geometry":{"type":"LineString","coordinates":[[10.444,45.12215],[10.44379,45.12187]]},"properties":{}},{"type":"Feature","geometry":{"type":"LineString","coordinates":[[10.43491,45.122],[10.4349,45.12233],[10.43486,45.12249]]},"properties":{}},{"type":"Feature","geometry":{"type":"LineString","coordinates":[[10.43465,45.12251],[10.43491,45.122]]},"properties":{}},{"type":"Feature","geometry":{"type":"LineString","coordinates":[[10.4349,45.12233],[10.43503,45.12244],[10.43516,45.12247]]},"properties":{}},{"type":"Feature","geometry":{"type":"LineString","coordinates":[[10.44085,45.15571],[10.44076,45.15578],[10.44063,45.15603],[10.44056,45.15608]]},"properties":{}},{"type":"Feature","geometry":{"type":"LineString","coordinates":[[10.43983,45.1563],[10.43998,45.15617],[10.44079,45.15562]]},"properties":{}},{"type":"Feature","geometry":{"type":"LineString","coordinates":[[10.44028,45.15599],[10.44041,45.15598],[10.44051,45.15602],[10.44056,45.15608]]},"properties":{}},{"type":"Feature","geometry":{"type":"LineString","coordinates":[[10.44056,45.15608],[10.43998,45.15623],[10.43983,45.1563]]},"properties":{}},{"type":"Feature","geometry":{"type":"LineString","coordinates":[[10.44056,45.15608],[10.44057,45.15616],[10.44048,45.15644],[10.4405,45.15651]]},"properties":{}},{"type":"Feature","geometry":{"type":"LineString","coordinates":[[10.44035,45.15732],[10.44034,45.15691],[10.4404,45.15649],[10.44066,45.15585],[10.44092,45.15545],[10.44104,45.15535]]},"properties":{}},{"type":"Feature","geometry":{"type":"LineString","coordinates":[[10.44104,45.15535],[10.44075,45.15588],[10.44057,45.15632],[10.44045,45.15672],[10.44035,45.15732]]},"properties":{}},{"type":"Feature","geometry":{"type":"LineString","coordinates":[[10.4404,45.15649],[10.44037,45.15637],[10.44031,45.15628],[10.44023,45.15623],[10.43998,45.15623]]},"properties":{}},{"type":"Feature","geometry":{"type":"LineString","coordinates":[[10.42914,45.16225],[10.42651,45.16096]]},"properties":{}},{"type":"Feature","geometry":{"type":"LineString","coordinates":[[10.43155,45.16249],[10.43156,45.16252],[10.43312,45.16239],[10.43411,45.16202]]},"properties":{}},{"type":"Feature","geometry":{"type":"LineString","coordinates":[[10.44032,45.16269],[10.44045,45.16265],[10.44053,45.16255]]},"properties":{}},{"type":"Feature","geometry":{"type":"LineString","coordinates":[[10.44002,45.16256],[10.44032,45.16269]]},"properties":{}},{"type":"Feature","geometry":{"type":"LineString","coordinates":[[10.44026,45.1628],[10.44002,45.16256]]},"properties":{}},{"type":"Feature","geometry":{"type":"LineString","coordinates":[[10.44032,45.16269],[10.44054,45.16278]]},"properties":{}},{"type":"Feature","geometry":{"type":"LineString","coordinates":[[10.44054,45.16278],[10.44038,45.16282],[10.44026,45.1628]]},"properties":{}},{"type":"Feature","geometry":{"type":"LineString","coordinates":[[10.44054,45.16278],[10.44084,45.16298]]},"properties":{}},{"type":"Feature","geometry":{"type":"LineString","coordinates":[[10.44055,45.16303],[10.44045,45.16299],[10.44026,45.1628]]},"properties":{}},{"type":"Feature","geometry":{"type":"LineString","coordinates":[[10.44084,45.16298],[10.44126,45.16309]]},"properties":{}},{"type":"Feature","geometry":{"type":"LineString","coordinates":[[10.44094,45.16308],[10.44055,45.16303]]},"properties":{}},{"type":"Feature","geometry":{"type":"LineString","coordinates":[[10.44126,45.16309],[10.44094,45.16308]]},"properties":{}},{"type":"Feature","geometry":{"type":"LineString","coordinates":[[10.44094,45.16308],[10.44065,45.16315],[10.44058,45.16326]]},"properties":{}},{"type":"Feature","geometry":{"type":"LineString","coordinates":[[10.43496,45.16213],[10.43503,45.16235],[10.43509,45.1628],[10.43514,45.1629],[10.43512,45.16327],[10.43502,45.16355],[10.43509,45.16356],[10.43502,45.16386],[10.43476,45.16436],[10.4344,45.16518],[10.43404,45.1664],[10.43408,45.16649]]},"properties":{}},{"type":"Feature","geometry":{"type":"LineString","coordinates":[[10.3568,45.07939],[10.35661,45.07871]]},"properties":{}},{"type":"Feature","geometry":{"type":"LineString","coordinates":[[10.36411,45.08051],[10.36737,45.07999],[10.3687,45.07974],[10.36901,45.07963],[10.36929,45.07949],[10.36962,45.07925],[10.37037,45.07846],[10.37071,45.07828],[10.37112,45.07815],[10.37334,45.07791],[10.37339,45.07785]]},"properties":{}},{"type":"Feature","geometry":{"type":"LineString","coordinates":[[10.35139,45.08036],[10.35172,45.08073]]},"properties":{}},{"type":"Feature","geometry":{"type":"LineString","coordinates":[[10.35153,45.08081],[10.35139,45.08036]]},"properties":{}},{"type":"Feature","geometry":{"type":"LineString","coordinates":[[10.36405,45.08046],[10.36178,45.08081],[10.3588,45.08116]]},"properties":{}},{"type":"Feature","geometry":{"type":"LineString","coordinates":[[10.35881,45.08119],[10.36177,45.08086],[10.36185,45.08088],[10.36411,45.08051]]},"properties":{}},{"type":"Feature","geometry":{"type":"LineString","coordinates":[[10.35172,45.08073],[10.3518,45.0813]]},"properties":{}},{"type":"Feature","geometry":{"type":"LineString","coordinates":[[10.3518,45.0813],[10.35153,45.08081]]},"properties":{}},{"type":"Feature","geometry":{"type":"LineString","coordinates":[[10.3493,45.08147],[10.3492,45.08157],[10.3492,45.08165],[10.34925,45.08172]]},"properties":{}},{"type":"Feature","geometry":{"type":"LineString","coordinates":[[10.34878,45.08158],[10.34941,45.08177]]},"properties":{}},{"type":"Feature","geometry":{"type":"LineString","coordinates":[[10.26997,45.08419],[10.27305,45.08413]]},"properties":{}},{"type":"Feature","geometry":{"type":"LineString","coordinates":[[10.26603,45.08428],[10.26997,45.08419]]},"properties":{}},{"type":"Feature","geometry":{"type":"LineString","coordinates":[[10.25861,45.08565],[10.26356,45.08439],[10.26395,45.08432],[10.26603,45.08428]]},"properties":{}},{"type":"Feature","geometry":{"type":"LineString","coordinates":[[10.25499,45.08651],[10.25501,45.08656]]},"properties":{}},{"type":"Feature","geometry":{"type":"LineString","coordinates":[[10.27545,45.08645],[10.27554,45.08647],[10.27571,45.08669]]},"properties":{}},{"type":"Feature","geometry":{"type":"LineString","coordinates":[[10.27571,45.08669],[10.27568,45.08692]]},"properties":{}},{"type":"Feature","geometry":{"type":"LineString","coordinates":[[10.27568,45.08692],[10.27538,45.08724]]},"properties":{}},{"type":"Feature","geometry":{"type":"LineString","coordinates":[[10.27644,45.11762],[10.27577,45.11565]]},"properties":{}},{"type":"Feature","geometry":{"type":"LineString","coordinates":[[10.30246,45.14372],[10.30245,45.14367],[10.30208,45.14356],[10.30114,45.14357],[10.30106,45.14364],[10.30042,45.1437],[10.29894,45.14411],[10.29862,45.14418],[10.29544,45.14451],[10.2952,45.14446]]},"properties":{}},{"type":"Feature","geometry":{"type":"LineString","coordinates":[[10.28723,45.14668],[10.28718,45.14624],[10.28719,45.14576]]},"properties":{}},{"type":"Feature","geometry":{"type":"LineString","coordinates":[[10.27924,45.1473],[10.27926,45.14735]]},"properties":{}},{"type":"Feature","geometry":{"type":"LineString","coordinates":[[10.27926,45.14735],[10.27932,45.14738],[10.28005,45.14728],[10.28069,45.14754],[10.28107,45.1476],[10.28172,45.14752],[10.28225,45.1473],[10.28284,45.14719]]},"properties":{}},{"type":"Feature","geometry":{"type":"LineString","coordinates":[[10.27792,45.14752],[10.27793,45.14757]]},"properties":{}},{"type":"Feature","geometry":{"type":"LineString","coordinates":[[10.27494,45.14754],[10.27525,45.14769]]},"properties":{}},{"type":"Feature","geometry":{"type":"LineString","coordinates":[[10.31443,45.06683],[10.31431,45.06675],[10.31404,45.06674]]},"properties":{}},{"type":"Feature","geometry":{"type":"LineString","coordinates":[[10.31461,45.06952],[10.31473,45.06806],[10.3146,45.06729],[10.31443,45.06683]]},"properties":{}},{"type":"Feature","geometry":{"type":"LineString","coordinates":[[10.31504,45.07045],[10.31507,45.07043],[10.31484,45.07007],[10.31467,45.06963],[10.31481,45.06815],[10.31477,45.06775],[10.31448,45.06677],[10.31416,45.06602],[10.31417,45.06596]]},"properties":{}},{"type":"Feature","geometry":{"type":"LineString","coordinates":[[10.34316,45.13561],[10.34163,45.13596]]},"properties":{}},{"type":"Feature","geometry":{"type":"LineString","coordinates":[[10.34086,45.13632],[10.34066,45.13631],[10.34032,45.13636]]},"properties":{}},{"type":"Feature","geometry":{"type":"LineString","coordinates":[[10.33649,45.13706],[10.3394,45.13643],[10.33945,45.13637]]},"properties":{}},{"type":"Feature","geometry":{"type":"LineString","coordinates":[[10.34382,45.13846],[10.34305,45.13804],[10.34193,45.13737],[10.34161,45.13708],[10.34138,45.13672]]},"properties":{}},{"type":"Feature","geometry":{"type":"LineString","coordinates":[[10.3096,45.17286],[10.30952,45.17254]]},"properties":{}},{"type":"Feature","geometry":{"type":"LineString","coordinates":[[10.33051,45.19112],[10.3302,45.19105],[10.32996,45.19103],[10.32977,45.19107],[10.32973,45.19118],[10.33021,45.19187],[10.33025,45.19205],[10.33026,45.19241]]},"properties":{}},{"type":"Feature","geometry":{"type":"LineString","coordinates":[[10.33026,45.19241],[10.33026,45.1926]]},"properties":{}},{"type":"Feature","geometry":{"type":"LineString","coordinates":[[10.36387,45.13096],[10.36368,45.1302],[10.36371,45.13009],[10.36377,45.13],[10.36392,45.12992],[10.36504,45.12957]]},"properties":{}},{"type":"Feature","geometry":{"type":"LineString","coordinates":[[10.36398,45.13092],[10.3638,45.13029]]},"properties":{}},{"type":"Feature","geometry":{"type":"LineString","coordinates":[[10.36156,45.13174],[10.36381,45.13124]]},"properties":{}},{"type":"Feature","geometry":{"type":"LineString","coordinates":[[10.36138,45.13177],[10.36156,45.13174]]},"properties":{}},{"type":"Feature","geometry":{"type":"LineString","coordinates":[[10.3562,45.13289],[10.36138,45.13177]]},"properties":{}},{"type":"Feature","geometry":{"type":"LineString","coordinates":[[10.35579,45.13248],[10.35425,45.13286],[10.35396,45.13279],[10.35363,45.13281]]},"properties":{}},{"type":"Feature","geometry":{"type":"LineString","coordinates":[[10.35363,45.13281],[10.35342,45.13284]]},"properties":{}},{"type":"Feature","geometry":{"type":"LineString","coordinates":[[10.35342,45.13284],[10.35336,45.13287],[10.35335,45.13292],[10.3534,45.13312],[10.35338,45.13323],[10.35324,45.13337],[10.35305,45.13345],[10.35265,45.13357],[10.34885,45.13441],[10.3486,45.13442],[10.34781,45.1346],[10.34776,45.13457]]},"properties":{}},{"type":"Feature","geometry":{"type":"LineString","coordinates":[[10.34316,45.13561],[10.34567,45.13506]]},"properties":{}},{"type":"Feature","geometry":{"type":"LineString","coordinates":[[10.35415,45.13878],[10.35423,45.13863],[10.355,45.13783],[10.35518,45.1376],[10.35603,45.13627],[10.3561,45.13595],[10.35658,45.13542],[10.35669,45.13523],[10.35672,45.13507],[10.35668,45.13451],[10.35607,45.13306],[10.35615,45.13304],[10.3562,45.13289]]},"properties":{}},{"type":"Feature","geometry":{"type":"LineString","coordinates":[[10.27525,45.14769],[10.27535,45.14772]]},"properties":{}},{"type":"Feature","geometry":{"type":"LineString","coordinates":[[10.27535,45.14772],[10.2754,45.14777]]},"properties":{}},{"type":"Feature","geometry":{"type":"LineString","coordinates":[[10.2754,45.14777],[10.27548,45.14779]]},"properties":{}},{"type":"Feature","geometry":{"type":"LineString","coordinates":[[10.27548,45.14779],[10.27673,45.14816],[10.27713,45.14834],[10.2774,45.1484],[10.27746,45.14836],[10.2775,45.14829],[10.27754,45.14762],[10.27834,45.14745],[10.27918,45.14721],[10.27924,45.1473]]},"properties":{}},{"type":"Feature","geometry":{"type":"LineString","coordinates":[[10.27576,45.14789],[10.27574,45.14792]]},"properties":{}},{"type":"Feature","geometry":{"type":"LineString","coordinates":[[10.28541,45.16427],[10.28549,45.16446],[10.2856,45.16457],[10.28585,45.16464],[10.28611,45.16462]]},"properties":{}},{"type":"Feature","geometry":{"type":"LineString","coordinates":[[10.28549,45.16446],[10.28572,45.16492]]},"properties":{}},{"type":"Feature","geometry":{"type":"LineString","coordinates":[[10.28528,45.16526],[10.28538,45.16474],[10.28541,45.16427]]},"properties":{}},{"type":"Feature","geometry":{"type":"LineString","coordinates":[[10.28572,45.16492],[10.28553,45.16488],[10.28543,45.16483],[10.28538,45.16474]]},"properties":{}},{"type":"Feature","geometry":{"type":"LineString","coordinates":[[10.26702,45.17871],[10.26797,45.17841]]},"properties":{}},{"type":"Feature","geometry":{"type":"LineString","coordinates":[[10.26797,45.17841],[10.26759,45.17858],[10.26711,45.17874],[10.26639,45.17891],[10.26565,45.17903]]},"properties":{}},{"type":"Feature","geometry":{"type":"LineString","coordinates":[[10.26612,45.17891],[10.26663,45.17882],[10.26702,45.17871]]},"properties":{}},{"type":"Feature","geometry":{"type":"LineString","coordinates":[[10.26332,45.17896],[10.26427,45.17902],[10.26479,45.17902],[10.26551,45.17898],[10.26612,45.17891]]},"properties":{}},{"type":"Feature","geometry":{"type":"LineString","coordinates":[[10.26565,45.17903],[10.26607,45.17894],[10.26612,45.17891]]},"properties":{}},{"type":"Feature","geometry":{"type":"LineString","coordinates":[[10.26414,45.17907],[10.26332,45.17896]]},"properties":{}},{"type":"Feature","geometry":{"type":"LineString","coordinates":[[10.26451,45.17902],[10.26465,45.17905],[10.26557,45.17901],[10.26565,45.17903]]},"properties":{}},{"type":"Feature","geometry":{"type":"LineString","coordinates":[[10.26565,45.17903],[10.26482,45.17908]]},"properties":{}},{"type":"Feature","geometry":{"type":"LineString","coordinates":[[10.26482,45.17908],[10.26414,45.17907]]},"properties":{}},{"type":"Feature","geometry":{"type":"LineString","coordinates":[[10.26568,45.17929],[10.26562,45.17915],[10.26565,45.17903]]},"properties":{}},{"type":"Feature","geometry":{"type":"LineString","coordinates":[[10.26565,45.17903],[10.26612,45.1793]]},"properties":{}},{"type":"Feature","geometry":{"type":"LineString","coordinates":[[10.26621,45.17895],[10.26609,45.17907],[10.26605,45.17914],[10.26608,45.17923],[10.26617,45.17933],[10.26641,45.17941]]},"properties":{}},{"type":"Feature","geometry":{"type":"LineString","coordinates":[[10.26641,45.17941],[10.26578,45.17932],[10.26525,45.17913],[10.26482,45.17908]]},"properties":{}},{"type":"Feature","geometry":{"type":"LineString","coordinates":[[10.29606,45.18161],[10.29604,45.18147],[10.29606,45.18145],[10.29649,45.18139],[10.29685,45.18141],[10.29889,45.18112],[10.29891,45.18109],[10.29888,45.18091],[10.2989,45.18085],[10.29898,45.18081]]},"properties":{}},{"type":"Feature","geometry":{"type":"LineString","coordinates":[[10.25605,45.2193],[10.25555,45.21935],[10.25543,45.21932],[10.2549,45.21935],[10.25466,45.21941],[10.25463,45.21937],[10.25456,45.21936],[10.25342,45.21949]]},"properties":{}},{"type":"Feature","geometry":{"type":"LineString","coordinates":[[10.25418,45.2193],[10.25541,45.21922],[10.25652,45.21922],[10.25778,45.21934],[10.25824,45.21943],[10.25928,45.21976],[10.26034,45.2201],[10.26133,45.22049],[10.26184,45.22061]]},"properties":{}},{"type":"Feature","geometry":{"type":"LineString","coordinates":[[10.33026,45.1926],[10.33045,45.19307],[10.33042,45.19324],[10.33044,45.19343],[10.33035,45.19395],[10.33039,45.194]]},"properties":{}},{"type":"Feature","geometry":{"type":"LineString","coordinates":[[10.34116,45.22925],[10.34125,45.22924]]},"properties":{}},{"type":"Feature","geometry":{"type":"LineString","coordinates":[[10.33246,45.22999],[10.33578,45.22948],[10.33633,45.22945],[10.33989,45.22941],[10.34071,45.22933],[10.34116,45.22925]]},"properties":{}},{"type":"Feature","geometry":{"type":"LineString","coordinates":[[10.32788,45.23042],[10.32787,45.23039],[10.33122,45.23004],[10.3324,45.22988],[10.33245,45.22988],[10.3325,45.22992]]},"properties":{}},{"type":"Feature","geometry":{"type":"LineString","coordinates":[[10.32961,45.23032],[10.33121,45.23016]]},"properties":{}},{"type":"Feature","geometry":{"type":"LineString","coordinates":[[10.34163,45.13596],[10.34142,45.136],[10.34151,45.1362],[10.34138,45.13634],[10.34136,45.13649],[10.34153,45.13684],[10.34181,45.13718],[10.34211,45.13741],[10.34298,45.13794],[10.34411,45.13858],[10.34503,45.13922],[10.34694,45.14066],[10.34743,45.14114]]},"properties":{}},{"type":"Feature","geometry":{"type":"LineString","coordinates":[[10.34688,45.14066],[10.3461,45.1401],[10.34506,45.1393],[10.34382,45.13846]]},"properties":{}},{"type":"Feature","geometry":{"type":"LineString","coordinates":[[10.37654,45.14994],[10.37677,45.15117],[10.37685,45.15192],[10.37683,45.15203]]},"properties":{}},{"type":"Feature","geometry":{"type":"LineString","coordinates":[[10.42011,45.21704],[10.42004,45.21694],[10.42001,45.21677],[10.41991,45.21283],[10.41986,45.21258],[10.41981,45.21032],[10.41978,45.21002],[10.41971,45.21]]},"properties":{}},{"type":"Feature","geometry":{"type":"LineString","coordinates":[[10.41966,45.21521],[10.41997,45.2152]]},"properties":{}},{"type":"Feature","geometry":{"type":"LineString","coordinates":[[10.41673,45.22419],[10.41727,45.22414],[10.41743,45.22408],[10.41848,45.224],[10.4185,45.22409]]},"properties":{}},{"type":"Feature","geometry":{"type":"LineString","coordinates":[[10.4197,45.2245],[10.41981,45.22456],[10.41991,45.22472],[10.42106,45.22506],[10.42141,45.22511],[10.42202,45.22514],[10.42255,45.22507]]},"properties":{}},{"type":"Feature","geometry":{"type":"LineString","coordinates":[[10.35447,45.23026],[10.3549,45.22936],[10.35549,45.22792],[10.35561,45.22726],[10.35597,45.22425],[10.35606,45.22395],[10.3564,45.22338],[10.35666,45.22313]]},"properties":{}},{"type":"Feature","geometry":{"type":"LineString","coordinates":[[10.34125,45.22924],[10.34242,45.22905],[10.34298,45.22901],[10.34345,45.22903],[10.34955,45.22985],[10.35344,45.2302],[10.35355,45.23016]]},"properties":{}},{"type":"Feature","geometry":{"type":"LineString","coordinates":[[10.42079,45.2299],[10.42079,45.22971],[10.42074,45.22952],[10.42075,45.22945],[10.4207,45.22944]]},"properties":{}},{"type":"Feature","geometry":{"type":"LineString","coordinates":[[10.48035,45.19273],[10.48058,45.19252]]},"properties":{}},{"type":"Feature","geometry":{"type":"LineString","coordinates":[[10.48058,45.19252],[10.48043,45.19281]]},"properties":{}},{"type":"Feature","geometry":{"type":"LineString","coordinates":[[10.47992,45.19271],[10.48016,45.19276],[10.48035,45.19273]]},"properties":{}},{"type":"Feature","geometry":{"type":"LineString","coordinates":[[10.48043,45.19281],[10.48042,45.19293],[10.48048,45.19308]]},"properties":{}},{"type":"Feature","geometry":{"type":"LineString","coordinates":[[10.42079,45.23001],[10.42079,45.2299]]},"properties":{}},{"type":"Feature","geometry":{"type":"LineString","coordinates":[[10.42056,45.23046],[10.4206,45.23046],[10.42079,45.23001]]},"properties":{}},{"type":"Feature","geometry":{"type":"LineString","coordinates":[[10.25904,45.21969],[10.25893,45.22021],[10.2588,45.22043],[10.25796,45.22113],[10.25729,45.22187],[10.25515,45.22328]]},"properties":{}},{"type":"Feature","geometry":{"type":"LineString","coordinates":[[10.25338,45.21946],[10.25347,45.21957],[10.25345,45.21983],[10.25395,45.2216],[10.25397,45.22175],[10.25392,45.22199],[10.25397,45.22249],[10.25414,45.22296],[10.25411,45.22306],[10.25405,45.22312],[10.25429,45.22353],[10.25421,45.22355]]},"properties":{}},{"type":"Feature","geometry":{"type":"LineString","coordinates":[[10.25396,45.2218],[10.25448,45.22178]]},"properties":{}}]}