{"type":"FeatureCollection","features":[{"type":"Feature","geometry":{"type":"LineString","coordinates":[[10.52972,43.0],[10.52984,43.00002]]},"properties":{}},{"type":"Feature","geometry":{"type":"LineString","coordinates":[[10.52984,43.00002],[10.52945,43.00001]]},"properties":{}},{"type":"Feature","geometry":{"type":"LineString","coordinates":[[10.52269,43.01803],[10.52289,43.01954],[10.52309,43.02008],[10.52322,43.02031]]},"properties":{}},{"type":"Feature","geometry":{"type":"LineString","coordinates":[[10.52322,43.02031],[10.52564,43.02464],[10.52766,43.0284]]},"properties":{}},{"type":"Feature","geometry":{"type":"LineString","coordinates":[[10.52766,43.0284],[10.52777,43.0286]]},"properties":{}},{"type":"Feature","geometry":{"type":"LineString","coordinates":[[10.52766,43.0284],[10.52774,43.02838],[10.52783,43.02852],[10.52809,43.02862],[10.53187,43.02874]]},"properties":{}},{"type":"Feature","geometry":{"type":"LineString","coordinates":[[10.53382,43.02873],[10.53389,43.02861],[10.53399,43.02856]]},"properties":{}},{"type":"Feature","geometry":{"type":"LineString","coordinates":[[10.52782,43.02875],[10.52775,43.02875],[10.52769,43.02869],[10.5277,43.02863],[10.52777,43.0286]]},"properties":{}},{"type":"Feature","geometry":{"type":"LineString","coordinates":[[10.53187,43.02874],[10.53207,43.02874]]},"properties":{}},{"type":"Feature","geometry":{"type":"LineString","coordinates":[[10.53367,43.02878],[10.53382,43.02873]]},"properties":{}},{"type":"Feature","geometry":{"type":"LineString","coordinates":[[10.53207,43.02874],[10.53367,43.02878]]},"properties":{}},{"type":"Feature","geometry":{"type":"LineString","coordinates":[[10.52782,43.02875],[10.52809,43.02958]]},"properties":{}},{"type":"Feature","geometry":{"type":"LineString","coordinates":[[10.52809,43.02958],[10.52913,43.03289]]},"properties":{}},{"type":"Feature","geometry":{"type":"LineString","coordinates":[[10.52913,43.03289],[10.53441,43.0498]]},"properties":{}},{"type":"Feature","geometry":{"type":"LineString","coordinates":[[10.53441,43.0498],[10.53443,43.04987]]},"properties":{}},{"type":"Feature","geometry":{"type":"LineString","coordinates":[[10.53443,43.04987],[10.53446,43.04997]]},"properties":{}},{"type":"Feature","geometry":{"type":"LineString","coordinates":[[10.53446,43.04997],[10.53451,43.05015]]},"properties":{}},{"type":"Feature","geometry":{"type":"LineString","coordinates":[[10.53451,43.05015],[10.53485,43.05152],[10.53613,43.06037]]},"properties":{}},{"type":"Feature","geometry":{"type":"LineString","coordinates":[[10.53613,43.06037],[10.53651,43.06293]]},"properties":{}},{"type":"Feature","geometry":{"type":"LineString","coordinates":[[10.53651,43.06293],[10.53656,43.06332]]},"properties":{}},{"type":"Feature","geometry":{"type":"LineString","coordinates":[[10.53656,43.06332],[10.53661,43.06368]]},"properties":{}},{"type":"Feature","geometry":{"type":"LineString","coordinates":[[10.53661,43.06368],[10.53685,43.06553]]},"properties":{}},{"type":"Feature","geometry":{"type":"LineString","coordinates":[[10.53685,43.06553],[10.53805,43.07405],[10.539,43.081]]},"properties":{}},{"type":"Feature","geometry":{"type":"LineString","coordinates":[[10.539,43.081],[10.53902,43.08116]]},"properties":{}},{"type":"Feature","geometry":{"type":"LineString","coordinates":[[10.55096,43.08096],[10.55098,43.08112],[10.55112,43.08121]]},"properties":{}},{"type":"Feature","geometry":{"type":"LineString","coordinates":[[10.5508,43.0812],[10.55112,43.08121]]},"properties":{}},{"type":"Feature","geometry":{"type":"LineString","coordinates":[[10.55112,43.08121],[10.55137,43.08124]]},"properties":{}},{"type":"Feature","geometry":{"type":"LineString","coordinates":[[10.53902,43.08116],[10.53904,43.08131]]},"properties":{}},{"type":"Feature","geometry":{"type":"LineString","coordinates":[[10.55108,43.08127],[10.55095,43.08128],[10.5508,43.0812]]},"properties":{}},{"type":"Feature","geometry":{"type":"LineString","coordinates":[[10.55137,43.08124],[10.55108,43.08127]]},"properties":{}},{"type":"Feature","geometry":{"type":"LineString","coordinates":[[10.53904,43.08131],[10.53905,43.08139]]},"properties":{}},{"type":"Feature","geometry":{"type":"LineString","coordinates":[[10.55108,43.08127],[10.55076,43.08138],[10.55061,43.08149]]},"properties":{}},{"type":"Feature","geometry":{"type":"LineString","coordinates":[[10.53905,43.08139],[10.53917,43.08226]]},"properties":{}},{"type":"Feature","geometry":{"type":"LineString","coordinates":[[10.53917,43.08226],[10.53926,43.08291]]},"properties":{}},{"type":"Feature","geometry":{"type":"LineString","coordinates":[[10.54876,43.08419],[10.54883,43.08437]]},"properties":{}},{"type":"Feature","geometry":{"type":"LineString","coordinates":[[10.54866,43.08434],[10.54883,43.08437]]},"properties":{}},{"type":"Feature","geometry":{"type":"LineString","coordinates":[[10.54879,43.08445],[10.54866,43.08434]]},"properties":{}},{"type":"Feature","geometry":{"type":"LineString","coordinates":[[10.54883,43.08437],[10.54902,43.08447]]},"properties":{}},{"type":"Feature","geometry":{"type":"LineString","coordinates":[[10.54902,43.08447],[10.54879,43.08445]]},"properties":{}},{"type":"Feature","geometry":{"type":"LineString","coordinates":[[10.54879,43.08445],[10.54853,43.08453]]},"properties":{}},{"type":"Feature","geometry":{"type":"LineString","coordinates":[[10.53926,43.08291],[10.53991,43.08758]]},"properties":{}},{"type":"Feature","geometry":{"type":"LineString","coordinates":[[10.54775,43.08578],[10.54765,43.08573],[10.54765,43.08564],[10.54771,43.0856],[10.54783,43.0856],[10.54788,43.08565],[10.54789,43.0857],[10.54785,43.08575],[10.54775,43.08578]]},"properties":{}},{"type":"Feature","geometry":{"type":"LineString","coordinates":[[10.54785,43.08575],[10.54558,43.0891],[10.5455,43.08907]]},"properties":{}},{"type":"Feature","geometry":{"type":"LineString","coordinates":[[10.54544,43.08916],[10.54771,43.08577]]},"properties":{}},{"type":"Feature","geometry":{"type":"LineString","coordinates":[[10.53991,43.08758],[10.53994,43.08806]]},"properties":{}},{"type":"Feature","geometry":{"type":"LineString","coordinates":[[10.53994,43.08806],[10.53996,43.08832]]},"properties":{}},{"type":"Feature","geometry":{"type":"LineString","coordinates":[[10.54531,43.08937],[10.54523,43.08928],[10.54526,43.0892],[10.54539,43.08915],[10.54552,43.08921],[10.54554,43.08928],[10.54551,43.08934],[10.54542,43.08938],[10.54531,43.08937]]},"properties":{}},{"type":"Feature","geometry":{"type":"LineString","coordinates":[[10.53951,43.09305],[10.5399,43.08945],[10.53996,43.08832]]},"properties":{}},{"type":"Feature","geometry":{"type":"LineString","coordinates":[[10.54515,43.09295],[10.54684,43.09048]]},"properties":{}},{"type":"Feature","geometry":{"type":"LineString","coordinates":[[10.53951,43.09305],[10.5395,43.09327],[10.53958,43.09346]]},"properties":{}},{"type":"Feature","geometry":{"type":"LineString","coordinates":[[10.53943,43.09352],[10.53951,43.09305]]},"properties":{}},{"type":"Feature","geometry":{"type":"LineString","coordinates":[[10.54461,43.09372],[10.54515,43.09295]]},"properties":{}},{"type":"Feature","geometry":{"type":"LineString","coordinates":[[10.54236,43.09359],[10.5426,43.09342]]},"properties":{}},{"type":"Feature","geometry":{"type":"LineString","coordinates":[[10.5426,43.09342],[10.54247,43.09368]]},"properties":{}},{"type":"Feature","geometry":{"type":"LineString","coordinates":[[10.54229,43.09361],[10.54236,43.09359]]},"properties":{}},{"type":"Feature","geometry":{"type":"LineString","coordinates":[[10.54236,43.09359],[10.54245,43.09363],[10.54247,43.09368]]},"properties":{}},{"type":"Feature","geometry":{"type":"LineString","coordinates":[[10.59365,43.01539],[10.59356,43.01548],[10.59357,43.01555],[10.5938,43.01576]]},"properties":{}},{"type":"Feature","geometry":{"type":"LineString","coordinates":[[10.5938,43.01576],[10.59404,43.01596]]},"properties":{}},{"type":"Feature","geometry":{"type":"LineString","coordinates":[[10.59404,43.01596],[10.59434,43.01623],[10.59445,43.01624]]},"properties":{}},{"type":"Feature","geometry":{"type":"LineString","coordinates":[[10.60714,43.02375],[10.60745,43.02389]]},"properties":{}},{"type":"Feature","geometry":{"type":"LineString","coordinates":[[10.60739,43.02396],[10.60714,43.02375]]},"properties":{}},{"type":"Feature","geometry":{"type":"LineString","coordinates":[[10.60745,43.02389],[10.60772,43.02389],[10.60799,43.02381]]},"properties":{}},{"type":"Feature","geometry":{"type":"LineString","coordinates":[[10.60745,43.02389],[10.6076,43.02396],[10.60768,43.02407]]},"properties":{}},{"type":"Feature","geometry":{"type":"LineString","coordinates":[[10.60768,43.02407],[10.60739,43.02396]]},"properties":{}},{"type":"Feature","geometry":{"type":"LineString","coordinates":[[10.60736,43.02432],[10.60742,43.02413],[10.60739,43.02396]]},"properties":{}},{"type":"Feature","geometry":{"type":"LineString","coordinates":[[10.60708,43.02452],[10.60699,43.02469],[10.60698,43.02483]]},"properties":{}},{"type":"Feature","geometry":{"type":"LineString","coordinates":[[10.60678,43.02477],[10.60698,43.02483]]},"properties":{}},{"type":"Feature","geometry":{"type":"LineString","coordinates":[[10.60694,43.02494],[10.60678,43.02477]]},"properties":{}},{"type":"Feature","geometry":{"type":"LineString","coordinates":[[10.60694,43.02494],[10.60674,43.02493],[10.60649,43.02502]]},"properties":{}},{"type":"Feature","geometry":{"type":"LineString","coordinates":[[10.60698,43.02483],[10.60765,43.02537]]},"properties":{}},{"type":"Feature","geometry":{"type":"LineString","coordinates":[[10.60765,43.02537],[10.60694,43.02494]]},"properties":{}},{"type":"Feature","geometry":{"type":"LineString","coordinates":[[10.5952,43.02353],[10.60024,43.02747],[10.60023,43.02755]]},"properties":{}},{"type":"Feature","geometry":{"type":"LineString","coordinates":[[10.59506,43.02362],[10.6001,43.02755],[10.60023,43.02755]]},"properties":{}},{"type":"Feature","geometry":{"type":"LineString","coordinates":[[10.60825,43.02581],[10.60855,43.02598]]},"properties":{}},{"type":"Feature","geometry":{"type":"LineString","coordinates":[[10.60861,43.02627],[10.60855,43.0261],[10.60825,43.02581]]},"properties":{}},{"type":"Feature","geometry":{"type":"LineString","coordinates":[[10.60855,43.02598],[10.60885,43.02621]]},"properties":{}},{"type":"Feature","geometry":{"type":"LineString","coordinates":[[10.60885,43.02621],[10.6089,43.02624]]},"properties":{}},{"type":"Feature","geometry":{"type":"LineString","coordinates":[[10.60862,43.02636],[10.6086,43.0263],[10.60866,43.02621],[10.60877,43.02619],[10.60885,43.02621]]},"properties":{}},{"type":"Feature","geometry":{"type":"LineString","coordinates":[[10.6089,43.02624],[10.60905,43.02634]]},"properties":{}},{"type":"Feature","geometry":{"type":"LineString","coordinates":[[10.6089,43.02624],[10.60892,43.02632],[10.60889,43.02638]]},"properties":{}},{"type":"Feature","geometry":{"type":"LineString","coordinates":[[10.60905,43.02634],[10.60889,43.02638]]},"properties":{}},{"type":"Feature","geometry":{"type":"LineString","coordinates":[[10.6088,43.02642],[10.60869,43.02642],[10.60862,43.02636]]},"properties":{}},{"type":"Feature","geometry":{"type":"LineString","coordinates":[[10.60889,43.02638],[10.6088,43.02642]]},"properties":{}},{"type":"Feature","geometry":{"type":"LineString","coordinates":[[10.59986,43.02797],[10.60142,43.029],[10.60147,43.02911]]},"properties":{}},{"type":"Feature","geometry":{"type":"LineString","coordinates":[[10.59922,43.03077],[10.59935,43.03076],[10.5994,43.03085],[10.59934,43.0309],[10.59924,43.0309],[10.59918,43.03084],[10.59922,43.03077]]},"properties":{}},{"type":"Feature","geometry":{"type":"LineString","coordinates":[[10.59809,43.0318],[10.5982,43.03172]]},"properties":{}},{"type":"Feature","geometry":{"type":"LineString","coordinates":[[10.5982,43.03172],[10.59814,43.03192]]},"properties":{}},{"type":"Feature","geometry":{"type":"LineString","coordinates":[[10.59801,43.03189],[10.59809,43.0318]]},"properties":{}},{"type":"Feature","geometry":{"type":"LineString","coordinates":[[10.59801,43.03189],[10.59814,43.03192]]},"properties":{}},{"type":"Feature","geometry":{"type":"LineString","coordinates":[[10.59795,43.03206],[10.59791,43.03197],[10.59801,43.03189]]},"properties":{}},{"type":"Feature","geometry":{"type":"LineString","coordinates":[[10.59814,43.03192],[10.59818,43.03199],[10.59814,43.03206],[10.59805,43.03209],[10.59795,43.03206]]},"properties":{}},{"type":"Feature","geometry":{"type":"LineString","coordinates":[[10.59766,43.03218],[10.59774,43.03208],[10.59791,43.03197]]},"properties":{}},{"type":"Feature","geometry":{"type":"LineString","coordinates":[[10.59817,43.03203],[10.59826,43.03214]]},"properties":{}},{"type":"Feature","geometry":{"type":"LineString","coordinates":[[10.59826,43.03214],[10.5981,43.03208]]},"properties":{}},{"type":"Feature","geometry":{"type":"LineString","coordinates":[[10.59795,43.03206],[10.59782,43.03208],[10.59766,43.03218]]},"properties":{}},{"type":"Feature","geometry":{"type":"LineString","coordinates":[[10.60467,43.03408],[10.60479,43.03435]]},"properties":{}},{"type":"Feature","geometry":{"type":"LineString","coordinates":[[10.60462,43.03435],[10.60467,43.03408]]},"properties":{}},{"type":"Feature","geometry":{"type":"LineString","coordinates":[[10.60424,43.03445],[10.60455,43.0344]]},"properties":{}},{"type":"Feature","geometry":{"type":"LineString","coordinates":[[10.60458,43.03454],[10.60454,43.03443],[10.60462,43.03435],[10.60475,43.03434],[10.60487,43.03442],[10.60486,43.03452],[10.60478,43.03457],[10.60467,43.03458],[10.60458,43.03454]]},"properties":{}},{"type":"Feature","geometry":{"type":"LineString","coordinates":[[10.60455,43.03451],[10.60424,43.03445]]},"properties":{}},{"type":"Feature","geometry":{"type":"LineString","coordinates":[[10.60454,43.03477],[10.60458,43.03454]]},"properties":{}},{"type":"Feature","geometry":{"type":"LineString","coordinates":[[10.60471,43.03458],[10.60454,43.03477]]},"properties":{}},{"type":"Feature","geometry":{"type":"LineString","coordinates":[[10.59379,43.03532],[10.59399,43.03518]]},"properties":{}},{"type":"Feature","geometry":{"type":"LineString","coordinates":[[10.59399,43.03518],[10.59392,43.03537]]},"properties":{}},{"type":"Feature","geometry":{"type":"LineString","coordinates":[[10.59361,43.03548],[10.59373,43.03539]]},"properties":{}},{"type":"Feature","geometry":{"type":"LineString","coordinates":[[10.5938,43.03546],[10.59361,43.03548]]},"properties":{}},{"type":"Feature","geometry":{"type":"LineString","coordinates":[[10.61673,43.23393],[10.61679,43.23362],[10.61688,43.23335],[10.617,43.23326],[10.61763,43.23308],[10.61814,43.23286],[10.61833,43.23291],[10.61889,43.23289],[10.61925,43.23286],[10.61973,43.23276],[10.61977,43.23279],[10.61976,43.23284],[10.61914,43.23368],[10.61914,43.23388]]},"properties":{}},{"type":"Feature","geometry":{"type":"LineString","coordinates":[[10.5674,43.17815],[10.5672,43.17791]]},"properties":{}},{"type":"Feature","geometry":{"type":"LineString","coordinates":[[10.56729,43.17895],[10.56741,43.17911],[10.5677,43.17924]]},"properties":{}},{"type":"Feature","geometry":{"type":"LineString","coordinates":[[10.5677,43.17924],[10.56797,43.17924]]},"properties":{}},{"type":"Feature","geometry":{"type":"LineString","coordinates":[[10.56723,43.17934],[10.56748,43.17925],[10.5677,43.17924]]},"properties":{}},{"type":"Feature","geometry":{"type":"LineString","coordinates":[[10.56797,43.17924],[10.56778,43.17936]]},"properties":{}},{"type":"Feature","geometry":{"type":"LineString","coordinates":[[10.56778,43.17936],[10.56737,43.17941],[10.5673,43.1794],[10.56723,43.17934]]},"properties":{}},{"type":"Feature","geometry":{"type":"LineString","coordinates":[[10.56778,43.17936],[10.5672,43.17972]]},"properties":{}},{"type":"Feature","geometry":{"type":"LineString","coordinates":[[10.61091,43.19203],[10.61092,43.19227]]},"properties":{}},{"type":"Feature","geometry":{"type":"LineString","coordinates":[[10.61084,43.19227],[10.61091,43.19203]]},"properties":{}},{"type":"Feature","geometry":{"type":"LineString","coordinates":[[10.61092,43.19227],[10.61095,43.19273]]},"properties":{}},{"type":"Feature","geometry":{"type":"LineString","coordinates":[[10.54234,43.09375],[10.54225,43.09368],[10.54229,43.09361]]},"properties":{}},{"type":"Feature","geometry":{"type":"LineString","coordinates":[[10.54247,43.09368],[10.54242,43.09374],[10.54234,43.09375]]},"properties":{}},{"type":"Feature","geometry":{"type":"LineString","coordinates":[[10.53939,43.09398],[10.53942,43.09362]]},"properties":{}},{"type":"Feature","geometry":{"type":"LineString","coordinates":[[10.54461,43.09372],[10.54529,43.09392]]},"properties":{}},{"type":"Feature","geometry":{"type":"LineString","coordinates":[[10.53959,43.09369],[10.5395,43.09378],[10.53939,43.09398]]},"properties":{}},{"type":"Feature","geometry":{"type":"LineString","coordinates":[[10.53939,43.09398],[10.53935,43.09431]]},"properties":{}},{"type":"Feature","geometry":{"type":"LineString","coordinates":[[10.54645,43.09444],[10.54526,43.0941],[10.54523,43.09404],[10.54529,43.09392]]},"properties":{}},{"type":"Feature","geometry":{"type":"LineString","coordinates":[[10.53935,43.09431],[10.53933,43.0945]]},"properties":{}},{"type":"Feature","geometry":{"type":"LineString","coordinates":[[10.53933,43.0945],[10.53933,43.09453]]},"properties":{}},{"type":"Feature","geometry":{"type":"LineString","coordinates":[[10.54345,43.09566],[10.54461,43.09372]]},"properties":{}},{"type":"Feature","geometry":{"type":"LineString","coordinates":[[10.58896,43.03921],[10.5923,43.0365],[10.59361,43.03548]]},"properties":{}},{"type":"Feature","geometry":{"type":"LineString","coordinates":[[10.58904,43.03925],[10.59365,43.03553]]},"properties":{}},{"type":"Feature","geometry":{"type":"LineString","coordinates":[[10.58336,43.04376],[10.58327,43.04394],[10.58329,43.04415],[10.58345,43.04427]]},"properties":{}},{"type":"Feature","geometry":{"type":"LineString","coordinates":[[10.58297,43.04406],[10.58329,43.04415]]},"properties":{}},{"type":"Feature","geometry":{"type":"LineString","coordinates":[[10.58309,43.04425],[10.58297,43.04406]]},"properties":{}},{"type":"Feature","geometry":{"type":"LineString","coordinates":[[10.58345,43.04427],[10.58309,43.04425],[10.58283,43.0443],[10.58254,43.04441]]},"properties":{}},{"type":"Feature","geometry":{"type":"LineString","coordinates":[[10.5589,43.15435],[10.5593,43.15416],[10.55941,43.15399],[10.55942,43.15376]]},"properties":{}},{"type":"Feature","geometry":{"type":"LineString","coordinates":[[10.5593,43.15416],[10.55962,43.15416]]},"properties":{}},{"type":"Feature","geometry":{"type":"LineString","coordinates":[[10.55962,43.15416],[10.55948,43.15431],[10.55933,43.15438]]},"properties":{}},{"type":"Feature","geometry":{"type":"LineString","coordinates":[[10.55991,43.15465],[10.55947,43.15442],[10.55925,43.15437],[10.5589,43.15435]]},"properties":{}},{"type":"Feature","geometry":{"type":"LineString","coordinates":[[10.53933,43.09453],[10.53909,43.09656]]},"properties":{}},{"type":"Feature","geometry":{"type":"LineString","coordinates":[[10.54068,43.09638],[10.54055,43.09668],[10.54045,43.09706],[10.54043,43.09723],[10.54047,43.09735]]},"properties":{}},{"type":"Feature","geometry":{"type":"LineString","coordinates":[[10.54028,43.09744],[10.54032,43.09738],[10.54043,43.09734],[10.54054,43.09739],[10.54056,43.09745],[10.54051,43.09753],[10.5404,43.09755],[10.54032,43.09752],[10.54028,43.09744]]},"properties":{}},{"type":"Feature","geometry":{"type":"LineString","coordinates":[[10.53884,43.09877],[10.53909,43.09656]]},"properties":{}},{"type":"Feature","geometry":{"type":"LineString","coordinates":[[10.54065,43.10031],[10.54049,43.10012],[10.5403,43.0985],[10.54028,43.098],[10.54023,43.09759],[10.54028,43.09746]]},"properties":{}},{"type":"Feature","geometry":{"type":"LineString","coordinates":[[10.54049,43.09754],[10.54043,43.09766],[10.54041,43.09784],[10.54065,43.10031]]},"properties":{}},{"type":"Feature","geometry":{"type":"LineString","coordinates":[[10.53857,43.09943],[10.53878,43.09909],[10.53884,43.09877]]},"properties":{}},{"type":"Feature","geometry":{"type":"LineString","coordinates":[[10.53836,43.1013],[10.53827,43.10093],[10.53821,43.10039],[10.53832,43.09988],[10.53857,43.09943]]},"properties":{}},{"type":"Feature","geometry":{"type":"LineString","coordinates":[[10.53944,43.10098],[10.53946,43.10114],[10.53954,43.10135]]},"properties":{}},{"type":"Feature","geometry":{"type":"LineString","coordinates":[[10.54158,43.10346],[10.54166,43.10362]]},"properties":{}},{"type":"Feature","geometry":{"type":"LineString","coordinates":[[10.54152,43.10365],[10.54158,43.10346]]},"properties":{}},{"type":"Feature","geometry":{"type":"LineString","coordinates":[[10.54142,43.10409],[10.54148,43.10385]]},"properties":{}},{"type":"Feature","geometry":{"type":"LineString","coordinates":[[10.54158,43.10391],[10.54142,43.10409]]},"properties":{}},{"type":"Feature","geometry":{"type":"LineString","coordinates":[[10.54109,43.10504],[10.541,43.10504],[10.54092,43.105],[10.54093,43.1049],[10.5411,43.10476],[10.54117,43.10473],[10.54129,43.10477],[10.54129,43.10485],[10.54124,43.10493],[10.54109,43.10504]]},"properties":{}},{"type":"Feature","geometry":{"type":"LineString","coordinates":[[10.54097,43.10516],[10.54109,43.1052]]},"properties":{}},{"type":"Feature","geometry":{"type":"LineString","coordinates":[[10.54097,43.10516],[10.54084,43.10538],[10.54079,43.10552],[10.54067,43.10638],[10.54085,43.1072],[10.54101,43.10739]]},"properties":{}},{"type":"Feature","geometry":{"type":"LineString","coordinates":[[10.54113,43.10737],[10.54105,43.10739]]},"properties":{}},{"type":"Feature","geometry":{"type":"LineString","coordinates":[[10.54101,43.10739],[10.54105,43.10739]]},"properties":{}},{"type":"Feature","geometry":{"type":"LineString","coordinates":[[10.5628,43.1695],[10.54937,43.17151]]},"properties":{}},{"type":"Feature","geometry":{"type":"LineString","coordinates":[[10.54492,43.17809],[10.54506,43.17776],[10.54522,43.17716],[10.54555,43.17477],[10.54536,43.17444],[10.54523,43.17446]]},"properties":{}},{"type":"Feature","geometry":{"type":"LineString","coordinates":[[10.55985,43.15456],[10.56002,43.15466],[10.56015,43.1547]]},"properties":{}},{"type":"Feature","geometry":{"type":"LineString","coordinates":[[10.56015,43.1547],[10.56058,43.15472]]},"properties":{}},{"type":"Feature","geometry":{"type":"LineString","coordinates":[[10.55998,43.15478],[10.56015,43.1547]]},"properties":{}},{"type":"Feature","geometry":{"type":"LineString","coordinates":[[10.56058,43.15472],[10.56018,43.1548]]},"properties":{}},{"type":"Feature","geometry":{"type":"LineString","coordinates":[[10.56018,43.1548],[10.55998,43.15478]]},"properties":{}},{"type":"Feature","geometry":{"type":"LineString","coordinates":[[10.56018,43.1548],[10.56012,43.15486],[10.56009,43.15496]]},"properties":{}},{"type":"Feature","geometry":{"type":"LineString","coordinates":[[10.56503,43.162],[10.5653,43.1635]]},"properties":{}},{"type":"Feature","geometry":{"type":"LineString","coordinates":[[10.5992,43.16438],[10.59942,43.16442]]},"properties":{}},{"type":"Feature","geometry":{"type":"LineString","coordinates":[[10.59961,43.16457],[10.59931,43.16453],[10.59923,43.16446],[10.5992,43.16438]]},"properties":{}},{"type":"Feature","geometry":{"type":"LineString","coordinates":[[10.59931,43.16453],[10.59895,43.16457]]},"properties":{}},{"type":"Feature","geometry":{"type":"LineString","coordinates":[[10.5653,43.1635],[10.56614,43.16777]]},"properties":{}},{"type":"Feature","geometry":{"type":"LineString","coordinates":[[10.56626,43.16776],[10.56614,43.16777]]},"properties":{}},{"type":"Feature","geometry":{"type":"LineString","coordinates":[[10.56626,43.16776],[10.56637,43.16831]]},"properties":{}},{"type":"Feature","geometry":{"type":"LineString","coordinates":[[10.56372,43.16828],[10.56402,43.16824],[10.56407,43.16827]]},"properties":{}},{"type":"Feature","geometry":{"type":"LineString","coordinates":[[10.56372,43.16828],[10.56354,43.16831]]},"properties":{}},{"type":"Feature","geometry":{"type":"LineString","coordinates":[[10.56624,43.16833],[10.56637,43.16831]]},"properties":{}},{"type":"Feature","geometry":{"type":"LineString","coordinates":[[10.56407,43.16827],[10.56416,43.16856]]},"properties":{}},{"type":"Feature","geometry":{"type":"LineString","coordinates":[[10.56354,43.16831],[10.56343,43.16835],[10.56339,43.16844],[10.56354,43.16875]]},"properties":{}},{"type":"Feature","geometry":{"type":"LineString","coordinates":[[10.56624,43.16833],[10.56641,43.16925]]},"properties":{}},{"type":"Feature","geometry":{"type":"LineString","coordinates":[[10.56354,43.16875],[10.56373,43.16913],[10.56377,43.16932],[10.56372,43.16936],[10.5631,43.16945]]},"properties":{}},{"type":"Feature","geometry":{"type":"LineString","coordinates":[[10.5631,43.16945],[10.5628,43.1695]]},"properties":{}},{"type":"Feature","geometry":{"type":"LineString","coordinates":[[10.56641,43.16925],[10.56649,43.16976]]},"properties":{}},{"type":"Feature","geometry":{"type":"LineString","coordinates":[[10.56658,43.17015],[10.56649,43.16976]]},"properties":{}},{"type":"Feature","geometry":{"type":"LineString","coordinates":[[10.56813,43.1707],[10.56833,43.17124],[10.56864,43.17137],[10.56954,43.17115]]},"properties":{}},{"type":"Feature","geometry":{"type":"LineString","coordinates":[[10.56732,43.17282],[10.56719,43.17239],[10.56714,43.17159],[10.56689,43.17087],[10.56658,43.17015]]},"properties":{}},{"type":"Feature","geometry":{"type":"LineString","coordinates":[[10.56722,43.17777],[10.56745,43.1776]]},"properties":{}},{"type":"Feature","geometry":{"type":"LineString","coordinates":[[10.56673,43.17782],[10.56722,43.17777]]},"properties":{}},{"type":"Feature","geometry":{"type":"LineString","coordinates":[[10.56722,43.17777],[10.56744,43.17787]]},"properties":{}},{"type":"Feature","geometry":{"type":"LineString","coordinates":[[10.5672,43.17791],[10.56673,43.17782]]},"properties":{}},{"type":"Feature","geometry":{"type":"LineString","coordinates":[[10.56744,43.17787],[10.5672,43.17791]]},"properties":{}},{"type":"Feature","geometry":{"type":"LineString","coordinates":[[10.5415,43.17698],[10.54231,43.17755],[10.54261,43.17767],[10.54336,43.17784]]},"properties":{}},{"type":"Feature","geometry":{"type":"LineString","coordinates":[[10.53985,43.17887],[10.53942,43.17885]]},"properties":{}},{"type":"Feature","geometry":{"type":"LineString","coordinates":[[10.54057,43.1789],[10.53985,43.17887]]},"properties":{}},{"type":"Feature","geometry":{"type":"LineString","coordinates":[[10.54057,43.1789],[10.5409,43.17893],[10.54139,43.17913],[10.5417,43.17914]]},"properties":{}},{"type":"Feature","geometry":{"type":"LineString","coordinates":[[10.54508,43.17832],[10.54667,43.17918],[10.54932,43.18007],[10.54974,43.18017]]},"properties":{}},{"type":"Feature","geometry":{"type":"LineString","coordinates":[[10.5426,43.17923],[10.54249,43.17918],[10.54222,43.17926],[10.54196,43.17942],[10.54175,43.17932],[10.5417,43.17914]]},"properties":{}},{"type":"Feature","geometry":{"type":"LineString","coordinates":[[10.55038,43.18008],[10.55017,43.18015],[10.54974,43.18017]]},"properties":{}},{"type":"Feature","geometry":{"type":"LineString","coordinates":[[10.5507,43.1803],[10.55066,43.18063]]},"properties":{}},{"type":"Feature","geometry":{"type":"LineString","coordinates":[[10.55061,43.18088],[10.55055,43.18119],[10.55059,43.18135],[10.55088,43.18159],[10.55246,43.18312]]},"properties":{}},{"type":"Feature","geometry":{"type":"LineString","coordinates":[[10.55107,43.18244],[10.5503,43.18215]]},"properties":{}},{"type":"Feature","geometry":{"type":"LineString","coordinates":[[10.55078,43.18284],[10.55012,43.18259]]},"properties":{}},{"type":"Feature","geometry":{"type":"LineString","coordinates":[[10.55048,43.18327],[10.55126,43.18218]]},"properties":{}},{"type":"Feature","geometry":{"type":"LineString","coordinates":[[10.55153,43.18296],[10.55197,43.18333]]},"properties":{}},{"type":"Feature","geometry":{"type":"LineString","coordinates":[[10.54871,43.18444],[10.5503,43.18215]]},"properties":{}},{"type":"Feature","geometry":{"type":"LineString","coordinates":[[10.55036,43.18356],[10.55031,43.18351],[10.55031,43.18341],[10.55019,43.18332],[10.55021,43.18319]]},"properties":{}},{"type":"Feature","geometry":{"type":"LineString","coordinates":[[10.55187,43.18275],[10.55148,43.18298],[10.55121,43.183],[10.54952,43.18412],[10.54939,43.18429],[10.54886,43.18434]]},"properties":{}},{"type":"Feature","geometry":{"type":"LineString","coordinates":[[10.54941,43.18362],[10.55025,43.18363]]},"properties":{}},{"type":"Feature","geometry":{"type":"LineString","coordinates":[[10.55091,43.18403],[10.55034,43.18357]]},"properties":{}},{"type":"Feature","geometry":{"type":"LineString","coordinates":[[10.54912,43.18404],[10.54955,43.18409]]},"properties":{}},{"type":"Feature","geometry":{"type":"LineString","coordinates":[[10.54991,43.18385],[10.55048,43.18432]]},"properties":{}},{"type":"Feature","geometry":{"type":"LineString","coordinates":[[10.55005,43.1846],[10.54949,43.18415]]},"properties":{}},{"type":"Feature","geometry":{"type":"LineString","coordinates":[[10.54886,43.18434],[10.54871,43.18444],[10.54804,43.1854]]},"properties":{}},{"type":"Feature","geometry":{"type":"LineString","coordinates":[[10.5485,43.18495],[10.54889,43.18495],[10.54917,43.18518]]},"properties":{}},{"type":"Feature","geometry":{"type":"LineString","coordinates":[[10.54764,43.1862],[10.54757,43.18613],[10.54755,43.18605],[10.548,43.18541],[10.54821,43.18537],[10.5484,43.18539],[10.54857,43.18545],[10.54866,43.18552]]},"properties":{}},{"type":"Feature","geometry":{"type":"LineString","coordinates":[[10.54624,43.18894],[10.54579,43.18855],[10.54842,43.18686]]},"properties":{}},{"type":"Feature","geometry":{"type":"LineString","coordinates":[[10.54593,43.18984],[10.54543,43.18938]]},"properties":{}},{"type":"Feature","geometry":{"type":"LineString","coordinates":[[10.53292,43.2452],[10.53301,43.24484]]},"properties":{}},{"type":"Feature","geometry":{"type":"LineString","coordinates":[[10.53292,43.2452],[10.53298,43.24515],[10.53313,43.24513]]},"properties":{}},{"type":"Feature","geometry":{"type":"LineString","coordinates":[[10.53313,43.24513],[10.53303,43.24525]]},"properties":{}},{"type":"Feature","geometry":{"type":"LineString","coordinates":[[10.53329,43.24524],[10.53303,43.24525]]},"properties":{}},{"type":"Feature","geometry":{"type":"LineString","coordinates":[[10.5327,43.24535],[10.53292,43.2452]]},"properties":{}},{"type":"Feature","geometry":{"type":"LineString","coordinates":[[10.53303,43.24525],[10.5327,43.24535]]},"properties":{}},{"type":"Feature","geometry":{"type":"LineString","coordinates":[[10.55055,43.24894],[10.55076,43.24864]]},"properties":{}},{"type":"Feature","geometry":{"type":"LineString","coordinates":[[10.55049,43.24897],[10.55055,43.24894]]},"properties":{}},{"type":"Feature","geometry":{"type":"LineString","coordinates":[[10.55055,43.24894],[10.55066,43.24894],[10.55078,43.24901]]},"properties":{}},{"type":"Feature","geometry":{"type":"LineString","coordinates":[[10.54992,43.24905],[10.55025,43.24905],[10.55049,43.24897]]},"properties":{}},{"type":"Feature","geometry":{"type":"LineString","coordinates":[[10.52809,43.25],[10.52827,43.24972],[10.52896,43.24899],[10.52927,43.2482],[10.52923,43.24769],[10.52924,43.24749],[10.52929,43.24735],[10.52961,43.24693],[10.5298,43.24677]]},"properties":{}},{"type":"Feature","geometry":{"type":"LineString","coordinates":[[10.5504,43.24925],[10.55039,43.24909],[10.55049,43.24897]]},"properties":{}},{"type":"Feature","geometry":{"type":"LineString","coordinates":[[10.55079,43.2491],[10.55114,43.24917]]},"properties":{}},{"type":"Feature","geometry":{"type":"LineString","coordinates":[[10.5504,43.24925],[10.5502,43.24913],[10.54992,43.24905]]},"properties":{}},{"type":"Feature","geometry":{"type":"LineString","coordinates":[[10.55078,43.24901],[10.55079,43.24914],[10.55068,43.24929],[10.55052,43.24932],[10.5504,43.24925]]},"properties":{}},{"type":"Feature","geometry":{"type":"LineString","coordinates":[[10.55114,43.24917],[10.55072,43.24926]]},"properties":{}},{"type":"Feature","geometry":{"type":"LineString","coordinates":[[10.5504,43.2497],[10.55042,43.24928]]},"properties":{}},{"type":"Feature","geometry":{"type":"LineString","coordinates":[[10.55063,43.24932],[10.5504,43.2497]]},"properties":{}},{"type":"Feature","geometry":{"type":"LineString","coordinates":[[10.61087,43.19273],[10.61084,43.19227]]},"properties":{}},{"type":"Feature","geometry":{"type":"LineString","coordinates":[[10.61095,43.19273],[10.61095,43.19303]]},"properties":{}},{"type":"Feature","geometry":{"type":"LineString","coordinates":[[10.61095,43.19303],[10.61087,43.19273]]},"properties":{}}]}