{"type":"FeatureCollection","features":[{"type":"Feature","geometry":{"type":"LineString","coordinates":[[10.74507,45.75191],[10.74519,45.75182],[10.7455,45.75145],[10.74608,45.75031]]},"properties":{}},{"type":"Feature","geometry":{"type":"LineString","coordinates":[[10.74651,45.75253],[10.74635,45.75219],[10.74621,45.75207],[10.74603,45.75197],[10.74561,45.75187],[10.74528,45.75187],[10.74507,45.75191]]},"properties":{}},{"type":"Feature","geometry":{"type":"LineString","coordinates":[[10.74968,45.7563],[10.74989,45.75606],[10.74995,45.75591]]},"properties":{}},{"type":"Feature","geometry":{"type":"LineString","coordinates":[[10.75,45.756],[10.74973,45.75632]]},"properties":{}},{"type":"Feature","geometry":{"type":"LineString","coordinates":[[10.74753,45.7557],[10.74779,45.75595],[10.74821,45.75625],[10.74852,45.75642],[10.74892,45.75659],[10.74914,45.75661],[10.74933,45.75657],[10.74944,45.75651],[10.74968,45.7563]]},"properties":{}},{"type":"Feature","geometry":{"type":"LineString","coordinates":[[10.74973,45.75632],[10.74959,45.75666],[10.74922,45.75717],[10.74915,45.75742],[10.74916,45.75782],[10.7492,45.75812],[10.74932,45.75853],[10.74948,45.75887]]},"properties":{}},{"type":"Feature","geometry":{"type":"LineString","coordinates":[[10.73171,45.88264],[10.73058,45.88313],[10.72998,45.88318]]},"properties":{}},{"type":"Feature","geometry":{"type":"LineString","coordinates":[[10.72998,45.88318],[10.72983,45.88323]]},"properties":{}},{"type":"Feature","geometry":{"type":"LineString","coordinates":[[10.72983,45.88323],[10.72971,45.88331]]},"properties":{}},{"type":"Feature","geometry":{"type":"LineString","coordinates":[[10.73515,45.88564],[10.73529,45.88544],[10.73591,45.88522]]},"properties":{}},{"type":"Feature","geometry":{"type":"LineString","coordinates":[[10.73206,45.88564],[10.7325,45.88557],[10.73312,45.88531],[10.73341,45.88524],[10.73404,45.88522],[10.73426,45.88526]]},"properties":{}},{"type":"Feature","geometry":{"type":"LineString","coordinates":[[10.73332,45.88571],[10.73426,45.88526],[10.73478,45.88516]]},"properties":{}},{"type":"Feature","geometry":{"type":"LineString","coordinates":[[10.7342,45.88529],[10.73435,45.88532],[10.73472,45.88549],[10.73489,45.88563]]},"properties":{}},{"type":"Feature","geometry":{"type":"LineString","coordinates":[[10.73478,45.88516],[10.73552,45.88504],[10.73569,45.88506],[10.73579,45.88511],[10.73594,45.88525],[10.73628,45.88576],[10.73625,45.8858],[10.73598,45.88594]]},"properties":{}},{"type":"Feature","geometry":{"type":"LineString","coordinates":[[10.7311,45.88598],[10.73186,45.88568],[10.73206,45.88564]]},"properties":{}},{"type":"Feature","geometry":{"type":"LineString","coordinates":[[10.73106,45.886],[10.7311,45.88598]]},"properties":{}},{"type":"Feature","geometry":{"type":"LineString","coordinates":[[10.73536,45.88607],[10.73598,45.88594],[10.736,45.88604],[10.73624,45.88633]]},"properties":{}},{"type":"Feature","geometry":{"type":"LineString","coordinates":[[10.70805,45.89305],[10.70793,45.89299]]},"properties":{}},{"type":"Feature","geometry":{"type":"LineString","coordinates":[[10.7081,45.89307],[10.70805,45.89305]]},"properties":{}},{"type":"Feature","geometry":{"type":"LineString","coordinates":[[10.72882,45.89177],[10.72845,45.89203],[10.72792,45.89264],[10.7271,45.89308],[10.72674,45.89339],[10.72668,45.89351],[10.72665,45.89374],[10.72664,45.8952]]},"properties":{}},{"type":"Feature","geometry":{"type":"LineString","coordinates":[[10.72837,45.90857],[10.72804,45.90829]]},"properties":{}},{"type":"Feature","geometry":{"type":"LineString","coordinates":[[10.62029,45.91191],[10.62013,45.91188],[10.61976,45.91155],[10.61972,45.91146],[10.61967,45.91118],[10.61977,45.911],[10.61946,45.91072],[10.61913,45.91054],[10.61832,45.9102],[10.61779,45.91012],[10.61726,45.9101],[10.61709,45.91007],[10.61644,45.90954]]},"properties":{}},{"type":"Feature","geometry":{"type":"LineString","coordinates":[[10.62176,45.91155],[10.62139,45.91136],[10.62132,45.91127],[10.62124,45.91104],[10.62113,45.91101],[10.6211,45.91104],[10.62129,45.91168],[10.62127,45.91173],[10.62112,45.91178]]},"properties":{}},{"type":"Feature","geometry":{"type":"LineString","coordinates":[[10.62112,45.91178],[10.62029,45.91191]]},"properties":{}},{"type":"Feature","geometry":{"type":"LineString","coordinates":[[10.62539,45.91698],[10.62529,45.91696],[10.62383,45.91467],[10.62339,45.91429],[10.62341,45.91413]]},"properties":{}},{"type":"Feature","geometry":{"type":"LineString","coordinates":[[10.62549,45.91698],[10.62539,45.91698]]},"properties":{}},{"type":"Feature","geometry":{"type":"LineString","coordinates":[[10.65688,45.87276],[10.65688,45.87271]]},"properties":{}},{"type":"Feature","geometry":{"type":"LineString","coordinates":[[10.65825,45.87434],[10.65832,45.87382],[10.65806,45.87355],[10.65782,45.87336],[10.6573,45.87312],[10.65708,45.87299],[10.65689,45.87282],[10.65688,45.87276]]},"properties":{}},{"type":"Feature","geometry":{"type":"LineString","coordinates":[[10.65814,45.87462],[10.65825,45.87434]]},"properties":{}},{"type":"Feature","geometry":{"type":"LineString","coordinates":[[10.66096,45.87521],[10.65992,45.87512],[10.65926,45.87502],[10.65902,45.87489],[10.65814,45.87462]]},"properties":{}},{"type":"Feature","geometry":{"type":"LineString","coordinates":[[10.59268,45.87393],[10.59242,45.87383],[10.59208,45.8736],[10.59179,45.87315],[10.59169,45.87303],[10.59154,45.87295],[10.59052,45.87259],[10.58957,45.87213],[10.58883,45.87189],[10.5882,45.87158],[10.5873,45.87125],[10.58714,45.87114],[10.58703,45.87091],[10.58686,45.87069],[10.58652,45.86995],[10.58624,45.86957],[10.5861,45.86899],[10.58588,45.86855],[10.58485,45.8678],[10.58389,45.86724],[10.58335,45.86678],[10.58296,45.86648],[10.58259,45.86582],[10.58233,45.86544],[10.5818,45.86401],[10.5815,45.8637],[10.58016,45.86299]]},"properties":{}},{"type":"Feature","geometry":{"type":"LineString","coordinates":[[10.59273,45.874],[10.59268,45.87393]]},"properties":{}},{"type":"Feature","geometry":{"type":"LineString","coordinates":[[10.59484,45.87704],[10.59494,45.87692],[10.59504,45.87672],[10.59503,45.87661],[10.59495,45.87645],[10.59405,45.87566],[10.59369,45.87495],[10.59315,45.8745],[10.59278,45.8743],[10.59269,45.87421],[10.59277,45.87404],[10.59273,45.874]]},"properties":{}},{"type":"Feature","geometry":{"type":"LineString","coordinates":[[10.59448,45.87739],[10.59484,45.87704]]},"properties":{}},{"type":"Feature","geometry":{"type":"LineString","coordinates":[[10.59405,45.87765],[10.59448,45.87739]]},"properties":{}},{"type":"Feature","geometry":{"type":"LineString","coordinates":[[10.60707,45.89593],[10.60704,45.89585],[10.60707,45.89578],[10.6074,45.89539],[10.60757,45.89515],[10.60759,45.89506],[10.6068,45.8943],[10.6065,45.89409],[10.6063,45.89386],[10.60624,45.89385]]},"properties":{}},{"type":"Feature","geometry":{"type":"LineString","coordinates":[[10.6073,45.89607],[10.60707,45.89593]]},"properties":{}},{"type":"Feature","geometry":{"type":"LineString","coordinates":[[10.6075,45.89615],[10.6073,45.89607]]},"properties":{}},{"type":"Feature","geometry":{"type":"LineString","coordinates":[[10.60862,45.90374],[10.60859,45.90356],[10.60868,45.90332],[10.60878,45.9029],[10.60882,45.90249],[10.60874,45.90188],[10.60857,45.90134],[10.60856,45.90105],[10.60869,45.90082],[10.6088,45.90071],[10.60928,45.90038],[10.60954,45.9001],[10.60959,45.9],[10.60966,45.89962],[10.60994,45.89869],[10.60996,45.89852],[10.60994,45.89824],[10.60984,45.89797],[10.60962,45.89766],[10.60948,45.89729],[10.60931,45.89705],[10.60872,45.89637],[10.60832,45.89606],[10.60803,45.89596],[10.60788,45.89598],[10.60714,45.89634]]},"properties":{}},{"type":"Feature","geometry":{"type":"LineString","coordinates":[[10.60793,45.90339],[10.60802,45.90337],[10.60836,45.90377],[10.60849,45.90385],[10.60856,45.90385]]},"properties":{}},{"type":"Feature","geometry":{"type":"LineString","coordinates":[[10.72428,45.89024],[10.72422,45.88981],[10.72442,45.88937],[10.7246,45.88917],[10.72511,45.88881],[10.72569,45.8886],[10.72691,45.88796],[10.72866,45.88712],[10.73106,45.886]]},"properties":{}},{"type":"Feature","geometry":{"type":"LineString","coordinates":[[10.6984,45.88983],[10.69861,45.88983],[10.69874,45.88986]]},"properties":{}},{"type":"Feature","geometry":{"type":"LineString","coordinates":[[10.69826,45.88985],[10.6984,45.88983]]},"properties":{}},{"type":"Feature","geometry":{"type":"LineString","coordinates":[[10.69807,45.88987],[10.69826,45.88985]]},"properties":{}},{"type":"Feature","geometry":{"type":"LineString","coordinates":[[10.69793,45.88989],[10.69807,45.88987]]},"properties":{}},{"type":"Feature","geometry":{"type":"LineString","coordinates":[[10.69786,45.89032],[10.69788,45.8902],[10.69781,45.88998],[10.69782,45.88993],[10.69793,45.88989]]},"properties":{}},{"type":"Feature","geometry":{"type":"LineString","coordinates":[[10.69164,45.88985],[10.6923,45.89004],[10.69265,45.89004],[10.69327,45.89034],[10.69375,45.89043],[10.6942,45.89039],[10.69438,45.89033],[10.69461,45.89018],[10.69514,45.89004],[10.69541,45.89005],[10.69598,45.89017],[10.69624,45.89016],[10.69664,45.89024],[10.69721,45.89026]]},"properties":{}},{"type":"Feature","geometry":{"type":"LineString","coordinates":[[10.706,45.89286],[10.70596,45.89283],[10.70589,45.89282]]},"properties":{}},{"type":"Feature","geometry":{"type":"LineString","coordinates":[[10.70604,45.89292],[10.706,45.89286]]},"properties":{}},{"type":"Feature","geometry":{"type":"LineString","coordinates":[[10.70793,45.89299],[10.70705,45.89287],[10.70658,45.89286],[10.70621,45.89297],[10.70611,45.89297],[10.70604,45.89292]]},"properties":{}},{"type":"Feature","geometry":{"type":"LineString","coordinates":[[10.59824,45.76208],[10.59832,45.7621],[10.59839,45.76217],[10.59839,45.76223],[10.59831,45.76228],[10.59817,45.76228],[10.59809,45.76221],[10.59812,45.76212],[10.59824,45.76208]]},"properties":{}},{"type":"Feature","geometry":{"type":"LineString","coordinates":[[10.56393,45.83609],[10.55797,45.83025],[10.55734,45.82958],[10.55695,45.82907],[10.55651,45.82841],[10.55444,45.82477],[10.55364,45.82344],[10.55234,45.82147],[10.55172,45.82066],[10.5514,45.82037],[10.55099,45.82011],[10.55036,45.81983]]},"properties":{}},{"type":"Feature","geometry":{"type":"LineString","coordinates":[[10.56522,45.83779],[10.56515,45.83763],[10.56517,45.83737]]},"properties":{}},{"type":"Feature","geometry":{"type":"LineString","coordinates":[[10.56532,45.83778],[10.56522,45.83779]]},"properties":{}},{"type":"Feature","geometry":{"type":"LineString","coordinates":[[10.56983,45.84319],[10.5695,45.84296],[10.56839,45.84207],[10.56781,45.84159],[10.56759,45.84136],[10.56732,45.84103],[10.56713,45.84075],[10.5668,45.83983],[10.56662,45.83946],[10.56637,45.83907],[10.56561,45.83796],[10.56545,45.83782],[10.56532,45.83778]]},"properties":{}},{"type":"Feature","geometry":{"type":"LineString","coordinates":[[10.55215,45.83172],[10.55219,45.83238],[10.55229,45.833],[10.55267,45.83429],[10.55296,45.83513],[10.55453,45.83951],[10.55466,45.83999],[10.55502,45.84181],[10.55515,45.8428],[10.55538,45.84355],[10.55547,45.84375],[10.55573,45.84412],[10.55735,45.84609],[10.55797,45.84677],[10.55846,45.84718],[10.55935,45.84773],[10.56084,45.84841],[10.56223,45.84916],[10.56429,45.84996],[10.56555,45.85071],[10.56657,45.8515],[10.56696,45.85202],[10.56727,45.85255],[10.56757,45.85316],[10.56892,45.85424],[10.56903,45.85428]]},"properties":{}},{"type":"Feature","geometry":{"type":"LineString","coordinates":[[10.5843,45.84231],[10.58207,45.84238],[10.581,45.84257],[10.57968,45.84266],[10.57812,45.84293],[10.5769,45.84319],[10.57478,45.84355],[10.57335,45.84396],[10.57193,45.84401],[10.57091,45.84366],[10.56983,45.84319]]},"properties":{}},{"type":"Feature","geometry":{"type":"LineString","coordinates":[[10.56057,45.84788],[10.56037,45.84803],[10.56006,45.84805]]},"properties":{}},{"type":"Feature","geometry":{"type":"LineString","coordinates":[[10.56026,45.84818],[10.56028,45.84816]]},"properties":{}},{"type":"Feature","geometry":{"type":"LineString","coordinates":[[10.5,45.77132],[10.50034,45.77149],[10.50049,45.77174],[10.50094,45.77194],[10.50131,45.77223]]},"properties":{}},{"type":"Feature","geometry":{"type":"LineString","coordinates":[[10.50266,45.77345],[10.50239,45.77324]]},"properties":{}},{"type":"Feature","geometry":{"type":"LineString","coordinates":[[10.50266,45.77345],[10.50267,45.77348]]},"properties":{}},{"type":"Feature","geometry":{"type":"LineString","coordinates":[[10.50267,45.77348],[10.50275,45.77447],[10.50279,45.77469],[10.50333,45.77556],[10.50369,45.77589],[10.50404,45.77638],[10.50403,45.77653],[10.50387,45.77681],[10.50373,45.77715]]},"properties":{}},{"type":"Feature","geometry":{"type":"LineString","coordinates":[[10.50373,45.77715],[10.5037,45.77723]]},"properties":{}},{"type":"Feature","geometry":{"type":"LineString","coordinates":[[10.51073,45.75],[10.5116,45.75004],[10.51226,45.75023],[10.51351,45.75066],[10.51388,45.75072],[10.51428,45.7507],[10.51438,45.75075],[10.51439,45.75081],[10.51436,45.75087],[10.51428,45.75091],[10.51353,45.75089],[10.51344,45.75091],[10.5134,45.75097],[10.5134,45.75101],[10.51346,45.75106],[10.51378,45.75107],[10.51421,45.75114],[10.51447,45.75109],[10.51488,45.75079],[10.51506,45.75071],[10.51661,45.75051],[10.51708,45.75042],[10.51802,45.75043],[10.51862,45.75053],[10.519,45.75063],[10.51928,45.75065],[10.51949,45.75056],[10.51969,45.75027],[10.51982,45.75017],[10.5204,45.75]]},"properties":{}},{"type":"Feature","geometry":{"type":"LineString","coordinates":[[10.54094,45.75],[10.54148,45.75025],[10.54158,45.75034],[10.54161,45.75049],[10.5413,45.75126],[10.54115,45.75192],[10.54082,45.75238],[10.54084,45.75268],[10.54088,45.7528]]},"properties":{}},{"type":"Feature","geometry":{"type":"LineString","coordinates":[[10.50581,45.79946],[10.50565,45.79908],[10.50521,45.79839],[10.50511,45.79809],[10.50503,45.79797],[10.50486,45.79784],[10.50481,45.79776],[10.50474,45.79761],[10.50468,45.79722],[10.50448,45.79682]]},"properties":{}},{"type":"Feature","geometry":{"type":"LineString","coordinates":[[10.50588,45.79952],[10.50581,45.79946]]},"properties":{}},{"type":"Feature","geometry":{"type":"LineString","coordinates":[[10.5061,45.7997],[10.50588,45.79952]]},"properties":{}},{"type":"Feature","geometry":{"type":"LineString","coordinates":[[10.50695,45.80143],[10.50667,45.80071],[10.50634,45.80026],[10.5063,45.80008],[10.50624,45.80007]]},"properties":{}},{"type":"Feature","geometry":{"type":"LineString","coordinates":[[10.50734,45.80251],[10.50723,45.80226],[10.50698,45.80151]]},"properties":{}},{"type":"Feature","geometry":{"type":"LineString","coordinates":[[10.50754,45.80275],[10.50734,45.80251]]},"properties":{}},{"type":"Feature","geometry":{"type":"LineString","coordinates":[[10.50901,45.80647],[10.50883,45.80624],[10.50859,45.80613],[10.50823,45.80543],[10.50815,45.8049],[10.50791,45.80407],[10.50784,45.80325],[10.50771,45.80296],[10.50754,45.80275]]},"properties":{}},{"type":"Feature","geometry":{"type":"LineString","coordinates":[[10.52759,45.80718],[10.52757,45.80711],[10.5276,45.80694],[10.52688,45.80632],[10.52685,45.80625],[10.52685,45.80612],[10.52692,45.80602],[10.52709,45.80591],[10.5273,45.80582],[10.52753,45.80577],[10.52771,45.80567],[10.52816,45.80519],[10.52848,45.80507]]},"properties":{}},{"type":"Feature","geometry":{"type":"LineString","coordinates":[[10.50916,45.80663],[10.50903,45.80647]]},"properties":{}},{"type":"Feature","geometry":{"type":"LineString","coordinates":[[10.5276,45.80694],[10.52771,45.80678],[10.52788,45.8067],[10.5282,45.80675],[10.52892,45.80656],[10.5292,45.80659],[10.52934,45.80655]]},"properties":{}},{"type":"Feature","geometry":{"type":"LineString","coordinates":[[10.52771,45.80678],[10.52759,45.80679],[10.5274,45.80674]]},"properties":{}},{"type":"Feature","geometry":{"type":"LineString","coordinates":[[10.52803,45.80709],[10.52759,45.80718]]},"properties":{}},{"type":"Feature","geometry":{"type":"LineString","coordinates":[[10.52876,45.80834],[10.5288,45.80831]]},"properties":{}},{"type":"Feature","geometry":{"type":"LineString","coordinates":[[10.51548,45.81063],[10.51491,45.81032],[10.51408,45.81001],[10.51394,45.80994],[10.51382,45.80983],[10.51316,45.80947],[10.51263,45.80932],[10.51232,45.80919],[10.51205,45.80902],[10.51189,45.80888],[10.51156,45.80847],[10.51096,45.80811],[10.51071,45.80788],[10.5097,45.80714],[10.50917,45.80665]]},"properties":{}},{"type":"Feature","geometry":{"type":"LineString","coordinates":[[10.53194,45.80927],[10.53139,45.80924],[10.53005,45.80899],[10.52933,45.80854],[10.52876,45.80834]]},"properties":{}},{"type":"Feature","geometry":{"type":"LineString","coordinates":[[10.53329,45.80911],[10.53194,45.80927]]},"properties":{}},{"type":"Feature","geometry":{"type":"LineString","coordinates":[[10.53194,45.80928],[10.53194,45.80927]]},"properties":{}},{"type":"Feature","geometry":{"type":"LineString","coordinates":[[10.52778,45.80947],[10.52846,45.80946],[10.5297,45.80952],[10.53017,45.80961]]},"properties":{}},{"type":"Feature","geometry":{"type":"LineString","coordinates":[[10.52582,45.80963],[10.52744,45.80947],[10.52778,45.80947]]},"properties":{}},{"type":"Feature","geometry":{"type":"LineString","coordinates":[[10.52578,45.80965],[10.52582,45.80963]]},"properties":{}},{"type":"Feature","geometry":{"type":"LineString","coordinates":[[10.52423,45.81024],[10.52439,45.81022],[10.52578,45.80965]]},"properties":{}},{"type":"Feature","geometry":{"type":"LineString","coordinates":[[10.5333,45.81068],[10.53332,45.81067],[10.53176,45.80979],[10.53178,45.80972],[10.53204,45.80965]]},"properties":{}},{"type":"Feature","geometry":{"type":"LineString","coordinates":[[10.53022,45.80965],[10.53049,45.80964],[10.53088,45.80972],[10.53165,45.81016],[10.53269,45.8107]]},"properties":{}},{"type":"Feature","geometry":{"type":"LineString","coordinates":[[10.52423,45.81024],[10.52406,45.81027],[10.52392,45.81033]]},"properties":{}},{"type":"Feature","geometry":{"type":"LineString","coordinates":[[10.52392,45.81033],[10.52278,45.8109]]},"properties":{}},{"type":"Feature","geometry":{"type":"LineString","coordinates":[[10.5331,45.81084],[10.5333,45.81068]]},"properties":{}},{"type":"Feature","geometry":{"type":"LineString","coordinates":[[10.53305,45.81088],[10.5331,45.81084]]},"properties":{}},{"type":"Feature","geometry":{"type":"LineString","coordinates":[[10.53452,45.81111],[10.53332,45.81067]]},"properties":{}},{"type":"Feature","geometry":{"type":"LineString","coordinates":[[10.52025,45.81221],[10.51998,45.81223],[10.51974,45.81217],[10.51957,45.81201],[10.51946,45.8118],[10.51902,45.81143],[10.5189,45.81141],[10.51875,45.81148],[10.51814,45.81146],[10.51771,45.81142],[10.51704,45.81129],[10.51577,45.81085],[10.51548,45.81063]]},"properties":{}},{"type":"Feature","geometry":{"type":"LineString","coordinates":[[10.5203,45.8122],[10.52047,45.81214],[10.52278,45.8109]]},"properties":{}},{"type":"Feature","geometry":{"type":"LineString","coordinates":[[10.54584,45.81146],[10.54622,45.81207],[10.54659,45.8123],[10.54665,45.8124],[10.54665,45.81253],[10.54679,45.81271]]},"properties":{}},{"type":"Feature","geometry":{"type":"LineString","coordinates":[[10.51693,45.81363],[10.51669,45.81342],[10.51634,45.8129]]},"properties":{}},{"type":"Feature","geometry":{"type":"LineString","coordinates":[[10.54508,45.817],[10.54488,45.81685],[10.54456,45.81649],[10.54403,45.81554],[10.54352,45.81495],[10.54282,45.8144],[10.5419,45.81396],[10.53993,45.81317],[10.53918,45.81278],[10.5385,45.81232],[10.53778,45.81164],[10.53744,45.8112],[10.53681,45.81021],[10.53656,45.80997]]},"properties":{}},{"type":"Feature","geometry":{"type":"LineString","coordinates":[[10.51689,45.81366],[10.51693,45.81363]]},"properties":{}},{"type":"Feature","geometry":{"type":"LineString","coordinates":[[10.51693,45.81363],[10.51716,45.81379],[10.51815,45.81468],[10.51873,45.81496]]},"properties":{}},{"type":"Feature","geometry":{"type":"LineString","coordinates":[[10.51883,45.81501],[10.51898,45.81516]]},"properties":{}},{"type":"Feature","geometry":{"type":"LineString","coordinates":[[10.51898,45.81516],[10.51913,45.81531],[10.5195,45.81543],[10.51956,45.81578],[10.51975,45.81609],[10.51998,45.81631],[10.52063,45.81664],[10.5208,45.81664],[10.52101,45.81657]]},"properties":{}},{"type":"Feature","geometry":{"type":"LineString","coordinates":[[10.53428,45.81148],[10.53467,45.81169],[10.53516,45.81203],[10.53562,45.81253],[10.53577,45.8128],[10.53586,45.81307],[10.53588,45.8136],[10.53582,45.81388],[10.53568,45.81418],[10.5344,45.81629],[10.5335,45.81816],[10.53331,45.81876],[10.53308,45.81986],[10.53301,45.82053],[10.533,45.82186],[10.53292,45.82239],[10.53247,45.82331],[10.53225,45.82361],[10.53127,45.82444],[10.53104,45.82463],[10.53094,45.82465]]},"properties":{}},{"type":"Feature","geometry":{"type":"LineString","coordinates":[[10.54985,45.81927],[10.54934,45.81889],[10.54888,45.81861],[10.54808,45.81834],[10.54611,45.81759],[10.54566,45.81738],[10.54539,45.81718]]},"properties":{}},{"type":"Feature","geometry":{"type":"LineString","coordinates":[[10.54994,45.81934],[10.54985,45.81927]]},"properties":{}},{"type":"Feature","geometry":{"type":"LineString","coordinates":[[10.55114,45.81926],[10.55069,45.81945],[10.55053,45.81958]]},"properties":{}},{"type":"Feature","geometry":{"type":"LineString","coordinates":[[10.55053,45.81958],[10.5503,45.81956],[10.54994,45.81934]]},"properties":{}},{"type":"Feature","geometry":{"type":"LineString","coordinates":[[10.55051,45.8197],[10.55053,45.81958]]},"properties":{}},{"type":"Feature","geometry":{"type":"LineString","coordinates":[[10.55038,45.81981],[10.55051,45.8197]]},"properties":{}},{"type":"Feature","geometry":{"type":"LineString","coordinates":[[10.55036,45.81983],[10.55038,45.81981]]},"properties":{}},{"type":"Feature","geometry":{"type":"LineString","coordinates":[[10.55036,45.81983],[10.55033,45.81984]]},"properties":{}},{"type":"Feature","geometry":{"type":"LineString","coordinates":[[10.55033,45.81984],[10.55021,45.81991]]},"properties":{}},{"type":"Feature","geometry":{"type":"LineString","coordinates":[[10.55021,45.81991],[10.55015,45.81997],[10.5505,45.82053],[10.55136,45.82239],[10.5515,45.82273],[10.55171,45.82352],[10.5518,45.82406],[10.55188,45.82483],[10.55211,45.83038]]},"properties":{}},{"type":"Feature","geometry":{"type":"LineString","coordinates":[[10.55211,45.83038],[10.55233,45.83078],[10.55237,45.83099]]},"properties":{}},{"type":"Feature","geometry":{"type":"LineString","coordinates":[[10.55237,45.83099],[10.55237,45.83109]]},"properties":{}},{"type":"Feature","geometry":{"type":"LineString","coordinates":[[10.55211,45.83038],[10.55216,45.83107],[10.55215,45.83172]]},"properties":{}},{"type":"Feature","geometry":{"type":"LineString","coordinates":[[10.55237,45.83109],[10.55237,45.83123],[10.55215,45.83172]]},"properties":{}},{"type":"Feature","geometry":{"type":"LineString","coordinates":[[10.55478,45.8406],[10.55495,45.84089]]},"properties":{}},{"type":"Feature","geometry":{"type":"LineString","coordinates":[[10.55975,45.84867],[10.56026,45.84818]]},"properties":{}},{"type":"Feature","geometry":{"type":"LineString","coordinates":[[10.55975,45.84867],[10.55971,45.84871]]},"properties":{}},{"type":"Feature","geometry":{"type":"LineString","coordinates":[[10.56903,45.85428],[10.56902,45.85433]]},"properties":{}},{"type":"Feature","geometry":{"type":"LineString","coordinates":[[10.56902,45.85433],[10.56914,45.8544]]},"properties":{}},{"type":"Feature","geometry":{"type":"LineString","coordinates":[[10.56865,45.85438],[10.56905,45.85439]]},"properties":{}},{"type":"Feature","geometry":{"type":"LineString","coordinates":[[10.56905,45.85439],[10.56914,45.8544]]},"properties":{}},{"type":"Feature","geometry":{"type":"LineString","coordinates":[[10.56919,45.8544],[10.56914,45.8544]]},"properties":{}},{"type":"Feature","geometry":{"type":"LineString","coordinates":[[10.56865,45.85438],[10.56801,45.85437],[10.56804,45.85501],[10.56809,45.85537],[10.56838,45.85606],[10.56852,45.85656],[10.56868,45.85675],[10.56998,45.85773],[10.57039,45.85803],[10.57108,45.85841],[10.57169,45.85868],[10.5735,45.85939],[10.57443,45.85987],[10.57474,45.86006],[10.57515,45.86042],[10.5754,45.86072],[10.57601,45.86156],[10.5764,45.86183],[10.57803,45.86223],[10.57954,45.86277],[10.57975,45.86278],[10.57992,45.8627]]},"properties":{}},{"type":"Feature","geometry":{"type":"LineString","coordinates":[[10.57992,45.8627],[10.58,45.86274]]},"properties":{}},{"type":"Feature","geometry":{"type":"LineString","coordinates":[[10.58,45.86274],[10.58002,45.86286],[10.58016,45.86299]]},"properties":{}},{"type":"Feature","geometry":{"type":"LineString","coordinates":[[10.5037,45.77723],[10.50357,45.77753],[10.50352,45.77777],[10.50351,45.77817],[10.5036,45.77837],[10.50386,45.77876],[10.50398,45.77911],[10.50403,45.77933],[10.50405,45.77977],[10.5041,45.77998],[10.50414,45.78099],[10.50397,45.78159],[10.50378,45.78217],[10.50336,45.78285],[10.50301,45.78319]]},"properties":{}},{"type":"Feature","geometry":{"type":"LineString","coordinates":[[10.50296,45.78324],[10.50238,45.78386],[10.50227,45.78405],[10.50221,45.7843],[10.50261,45.78551],[10.50262,45.78574],[10.50259,45.78604],[10.50249,45.78659],[10.50252,45.78678],[10.50222,45.78763],[10.50223,45.78782],[10.50204,45.78828],[10.50199,45.78888],[10.5019,45.78918],[10.50195,45.78945],[10.50212,45.78945],[10.50222,45.78937],[10.50246,45.7893],[10.50273,45.78939],[10.50285,45.78946],[10.50311,45.78964],[10.50332,45.78985]]},"properties":{}},{"type":"Feature","geometry":{"type":"LineString","coordinates":[[10.50337,45.78989],[10.50351,45.78994],[10.50397,45.79084],[10.50379,45.79158],[10.50372,45.79166],[10.50374,45.79168],[10.50363,45.79186]]},"properties":{}},{"type":"Feature","geometry":{"type":"LineString","coordinates":[[10.50325,45.79245],[10.50354,45.79209],[10.50368,45.79167],[10.50364,45.79155],[10.5034,45.79151]]},"properties":{}},{"type":"Feature","geometry":{"type":"LineString","coordinates":[[10.50325,45.79245],[10.50304,45.79271],[10.50263,45.79339]]},"properties":{}},{"type":"Feature","geometry":{"type":"LineString","coordinates":[[10.50313,45.79541],[10.50279,45.79455],[10.50283,45.79418],[10.50258,45.79361],[10.50263,45.79339]]},"properties":{}},{"type":"Feature","geometry":{"type":"LineString","coordinates":[[10.50314,45.79549],[10.50313,45.79541]]},"properties":{}},{"type":"Feature","geometry":{"type":"LineString","coordinates":[[10.50325,45.79598],[10.50317,45.79582],[10.50314,45.79549]]},"properties":{}},{"type":"Feature","geometry":{"type":"LineString","coordinates":[[10.50448,45.79682],[10.50421,45.79663],[10.50391,45.7965],[10.50379,45.79635],[10.50367,45.79632],[10.50336,45.79603],[10.50325,45.79598]]},"properties":{}},{"type":"Feature","geometry":{"type":"LineString","coordinates":[[10.55486,45.8411],[10.55493,45.84087]]},"properties":{}},{"type":"Feature","geometry":{"type":"LineString","coordinates":[[10.60856,45.90385],[10.60863,45.90382],[10.60862,45.90374]]},"properties":{}},{"type":"Feature","geometry":{"type":"LineString","coordinates":[[10.66864,45.88176],[10.66846,45.88158],[10.66824,45.88152],[10.66785,45.88111],[10.66776,45.88108],[10.66689,45.88123],[10.66633,45.88128]]},"properties":{}},{"type":"Feature","geometry":{"type":"LineString","coordinates":[[10.68327,45.89316],[10.68284,45.89314],[10.68248,45.89287],[10.68224,45.89279],[10.68141,45.89281]]},"properties":{}},{"type":"Feature","geometry":{"type":"LineString","coordinates":[[10.68388,45.89304],[10.68353,45.89313]]},"properties":{}},{"type":"Feature","geometry":{"type":"LineString","coordinates":[[10.68353,45.89313],[10.68327,45.89316]]},"properties":{}},{"type":"Feature","geometry":{"type":"LineString","coordinates":[[10.6401,45.93771],[10.64091,45.93792]]},"properties":{}},{"type":"Feature","geometry":{"type":"LineString","coordinates":[[10.64091,45.93792],[10.64104,45.93799]]},"properties":{}},{"type":"Feature","geometry":{"type":"LineString","coordinates":[[10.64104,45.93799],[10.64129,45.93813],[10.64175,45.93862],[10.64193,45.93894],[10.64236,45.93946],[10.64271,45.93997],[10.64312,45.94049],[10.64348,45.94074],[10.64347,45.94093],[10.64351,45.94105],[10.64368,45.94129],[10.64408,45.94233],[10.64415,45.94283],[10.64412,45.94313],[10.64417,45.94338],[10.64429,45.94342],[10.64424,45.94363],[10.64424,45.94375],[10.64438,45.94427],[10.64444,45.94438],[10.64478,45.9448],[10.64515,45.94535],[10.64526,45.94565]]},"properties":{}},{"type":"Feature","geometry":{"type":"LineString","coordinates":[[10.665,45.9692],[10.6651,45.96925],[10.66522,45.96941],[10.66531,45.96985],[10.66543,45.97018],[10.66572,45.97052],[10.66598,45.97076],[10.66644,45.97098],[10.667,45.9716],[10.66708,45.97189],[10.66709,45.97216],[10.66724,45.97251],[10.66725,45.97272],[10.66713,45.97293],[10.66709,45.97321],[10.66709,45.97359],[10.66704,45.97389],[10.6671,45.97411],[10.66712,45.97436],[10.66731,45.97474],[10.66747,45.97491],[10.66807,45.97527],[10.66837,45.97616],[10.66849,45.97637],[10.66854,45.97652],[10.66853,45.97662],[10.66847,45.97676],[10.66852,45.97691],[10.66892,45.97749],[10.6691,45.97822],[10.66918,45.97831],[10.66956,45.97852],[10.66968,45.97863],[10.66977,45.97878],[10.6702,45.97912],[10.67043,45.97923],[10.67055,45.97936],[10.67058,45.97955],[10.6709,45.97985],[10.67108,45.98013],[10.67135,45.98039],[10.67163,45.98079],[10.67178,45.98094],[10.67246,45.9813],[10.67297,45.98176],[10.67435,45.98314]]},"properties":{}},{"type":"Feature","geometry":{"type":"LineString","coordinates":[[10.68223,45.98977],[10.68193,45.98954],[10.6816,45.989],[10.6814,45.98876],[10.68132,45.98876],[10.68086,45.98891],[10.68063,45.98895],[10.68058,45.98892],[10.68057,45.9888],[10.68051,45.98871],[10.68023,45.98848],[10.67989,45.98811],[10.67945,45.98749],[10.67848,45.98681],[10.67818,45.98666],[10.67752,45.98641],[10.67718,45.98618],[10.67678,45.98583],[10.67619,45.9856],[10.67588,45.98557],[10.67542,45.98548],[10.67504,45.98552],[10.67463,45.98546],[10.67457,45.98544],[10.67446,45.98529],[10.6743,45.98523]]},"properties":{}},{"type":"Feature","geometry":{"type":"LineString","coordinates":[[10.69065,45.99577],[10.69038,45.99526],[10.69008,45.99491],[10.68918,45.99431],[10.68888,45.99403],[10.68876,45.99382],[10.68849,45.99311],[10.68767,45.99182],[10.68754,45.99163],[10.68737,45.99146],[10.68695,45.99125],[10.68585,45.99087],[10.68278,45.99013],[10.68262,45.99006]]},"properties":{}},{"type":"Feature","geometry":{"type":"LineString","coordinates":[[10.6361,45.92862],[10.63577,45.92813],[10.63591,45.92805],[10.63593,45.928],[10.63567,45.9278],[10.63549,45.92785],[10.63541,45.92784],[10.63502,45.92757],[10.63458,45.92702],[10.63425,45.9265],[10.63384,45.92574],[10.63292,45.92449],[10.6322,45.92374],[10.63169,45.9231],[10.63158,45.92282],[10.6315,45.92272],[10.6302,45.92198],[10.62905,45.92161],[10.62836,45.92143],[10.62809,45.92132],[10.6279,45.9212],[10.62783,45.92107],[10.62787,45.92077],[10.62767,45.92039],[10.62793,45.91998],[10.62787,45.91969],[10.62789,45.91895],[10.62776,45.9187],[10.62781,45.91847],[10.62776,45.91832],[10.62737,45.91749],[10.62715,45.91731],[10.62657,45.91707],[10.62597,45.91696],[10.6258,45.917],[10.62549,45.91698]]},"properties":{}},{"type":"Feature","geometry":{"type":"LineString","coordinates":[[10.63158,45.92314],[10.63169,45.9231]]},"properties":{}},{"type":"Feature","geometry":{"type":"LineString","coordinates":[[10.63894,45.93318],[10.639,45.93268],[10.63894,45.9324],[10.63882,45.93217],[10.63821,45.93166],[10.63799,45.93156],[10.63775,45.9315],[10.63759,45.9313]]},"properties":{}}]}