{"type":"FeatureCollection","features":[{"type":"Feature","geometry":{"type":"LineString","coordinates":[[10.52242,42.92366],[10.52241,42.92359]]},"properties":{}},{"type":"Feature","geometry":{"type":"LineString","coordinates":[[10.52,42.92567],[10.52078,42.92604],[10.52122,42.92558],[10.52281,42.92535],[10.52283,42.92532],[10.52242,42.92366]]},"properties":{}},{"type":"Feature","geometry":{"type":"LineString","coordinates":[[10.51977,42.92569],[10.51989,42.92564],[10.52,42.92567]]},"properties":{}},{"type":"Feature","geometry":{"type":"LineString","coordinates":[[10.51974,42.92572],[10.51977,42.92569]]},"properties":{}},{"type":"Feature","geometry":{"type":"LineString","coordinates":[[10.51796,42.92785],[10.51816,42.92749],[10.51974,42.92572]]},"properties":{}},{"type":"Feature","geometry":{"type":"LineString","coordinates":[[10.51793,42.92791],[10.51796,42.92785]]},"properties":{}},{"type":"Feature","geometry":{"type":"LineString","coordinates":[[10.51751,42.92884],[10.51793,42.92791]]},"properties":{}},{"type":"Feature","geometry":{"type":"LineString","coordinates":[[10.52606,42.92943],[10.52579,42.92975],[10.52569,42.93011]]},"properties":{}},{"type":"Feature","geometry":{"type":"LineString","coordinates":[[10.52583,42.9304],[10.52936,42.93632],[10.52951,42.93646]]},"properties":{}},{"type":"Feature","geometry":{"type":"LineString","coordinates":[[10.51969,42.93456],[10.51981,42.9346],[10.51981,42.93467],[10.51978,42.9347],[10.51968,42.93472],[10.5196,42.93467],[10.51961,42.93461],[10.51969,42.93456]]},"properties":{}},{"type":"Feature","geometry":{"type":"LineString","coordinates":[[10.52939,42.93726],[10.5293,42.9372],[10.52924,42.9371],[10.5293,42.93684],[10.52922,42.93657],[10.5293,42.93649],[10.52946,42.93645],[10.52962,42.93655],[10.52965,42.9368],[10.5298,42.93702],[10.52981,42.93712],[10.52976,42.93721],[10.52966,42.93726],[10.52952,42.93728],[10.52939,42.93726]]},"properties":{}},{"type":"Feature","geometry":{"type":"LineString","coordinates":[[10.52041,42.93763],[10.52067,42.93632]]},"properties":{}},{"type":"Feature","geometry":{"type":"LineString","coordinates":[[10.5298,42.93715],[10.53083,42.93805],[10.53331,42.93983]]},"properties":{}},{"type":"Feature","geometry":{"type":"LineString","coordinates":[[10.53609,42.94246],[10.53602,42.9423],[10.53591,42.94219],[10.53318,42.93982],[10.53078,42.93812],[10.53001,42.93747],[10.52966,42.93726]]},"properties":{}},{"type":"Feature","geometry":{"type":"LineString","coordinates":[[10.53656,42.94254],[10.53669,42.94274],[10.53718,42.94317]]},"properties":{}},{"type":"Feature","geometry":{"type":"LineString","coordinates":[[10.54079,42.94593],[10.54064,42.94547],[10.54038,42.94513],[10.54024,42.94503],[10.53994,42.94488],[10.53922,42.94468],[10.53862,42.94443],[10.53809,42.94406],[10.53661,42.9428],[10.53644,42.9427],[10.5363,42.94266]]},"properties":{}},{"type":"Feature","geometry":{"type":"LineString","coordinates":[[10.53718,42.94317],[10.53828,42.94409],[10.53871,42.94437],[10.53919,42.94457],[10.54025,42.94492],[10.54037,42.945],[10.54059,42.94519],[10.54083,42.94569],[10.541,42.94582]]},"properties":{}},{"type":"Feature","geometry":{"type":"LineString","coordinates":[[10.54085,42.94586],[10.541,42.94582],[10.54116,42.94586],[10.54125,42.94595],[10.54124,42.94607],[10.54107,42.94617],[10.54087,42.94614],[10.5408,42.94608],[10.54077,42.946],[10.54079,42.94593],[10.54085,42.94586]]},"properties":{}},{"type":"Feature","geometry":{"type":"LineString","coordinates":[[10.53895,42.9526],[10.53924,42.95224]]},"properties":{}},{"type":"Feature","geometry":{"type":"LineString","coordinates":[[10.53924,42.95224],[10.53918,42.95246],[10.53919,42.95266]]},"properties":{}},{"type":"Feature","geometry":{"type":"LineString","coordinates":[[10.53904,42.95296],[10.53889,42.95294],[10.53878,42.95287],[10.53874,42.95277],[10.53883,42.95263],[10.53902,42.95259],[10.53914,42.95263],[10.53922,42.9527],[10.53924,42.9528],[10.53922,42.95286],[10.53904,42.95296]]},"properties":{}},{"type":"Feature","geometry":{"type":"LineString","coordinates":[[10.53923,42.95273],[10.5393,42.95281],[10.53962,42.953]]},"properties":{}},{"type":"Feature","geometry":{"type":"LineString","coordinates":[[10.53962,42.953],[10.53917,42.95291]]},"properties":{}},{"type":"Feature","geometry":{"type":"LineString","coordinates":[[10.539,42.95335],[10.5389,42.95303],[10.53883,42.95291]]},"properties":{}},{"type":"Feature","geometry":{"type":"LineString","coordinates":[[10.53911,42.95294],[10.539,42.95335]]},"properties":{}},{"type":"Feature","geometry":{"type":"LineString","coordinates":[[10.5379,42.95735],[10.53796,42.95763],[10.53808,42.95776]]},"properties":{}},{"type":"Feature","geometry":{"type":"LineString","coordinates":[[10.53781,42.95778],[10.5379,42.95735]]},"properties":{}},{"type":"Feature","geometry":{"type":"LineString","coordinates":[[10.53794,42.95773],[10.53804,42.95774],[10.53814,42.95782],[10.53816,42.95792],[10.53807,42.95801],[10.53788,42.95802],[10.5378,42.95798],[10.53776,42.95791],[10.53776,42.95784],[10.53781,42.95778],[10.53794,42.95773]]},"properties":{}},{"type":"Feature","geometry":{"type":"LineString","coordinates":[[10.53775,42.95822],[10.53778,42.95795]]},"properties":{}},{"type":"Feature","geometry":{"type":"LineString","coordinates":[[10.53803,42.95802],[10.53786,42.95812],[10.53775,42.95822]]},"properties":{}},{"type":"Feature","geometry":{"type":"LineString","coordinates":[[10.537,42.96113],[10.5373,42.9599]]},"properties":{}},{"type":"Feature","geometry":{"type":"LineString","coordinates":[[10.5373,42.9599],[10.53727,42.96042],[10.5373,42.96075],[10.53753,42.96195]]},"properties":{}},{"type":"Feature","geometry":{"type":"LineString","coordinates":[[10.53685,42.96182],[10.537,42.96113]]},"properties":{}},{"type":"Feature","geometry":{"type":"LineString","coordinates":[[10.53757,42.96214],[10.5377,42.96284]]},"properties":{}},{"type":"Feature","geometry":{"type":"LineString","coordinates":[[10.53651,42.96348],[10.53665,42.96284]]},"properties":{}},{"type":"Feature","geometry":{"type":"LineString","coordinates":[[10.53646,42.96376],[10.53648,42.96362]]},"properties":{}},{"type":"Feature","geometry":{"type":"LineString","coordinates":[[10.5377,42.96284],[10.53798,42.96406],[10.53807,42.96424],[10.53824,42.96444],[10.53862,42.96475]]},"properties":{}},{"type":"Feature","geometry":{"type":"LineString","coordinates":[[10.53738,42.964],[10.53721,42.96457]]},"properties":{}},{"type":"Feature","geometry":{"type":"LineString","coordinates":[[10.55432,42.96794],[10.55447,42.96793],[10.55458,42.96787],[10.55492,42.96756]]},"properties":{}},{"type":"Feature","geometry":{"type":"LineString","coordinates":[[10.55439,42.96785],[10.55476,42.96768]]},"properties":{}},{"type":"Feature","geometry":{"type":"LineString","coordinates":[[10.55492,42.96756],[10.55466,42.96787],[10.55455,42.96811]]},"properties":{}},{"type":"Feature","geometry":{"type":"LineString","coordinates":[[10.55284,42.96783],[10.55383,42.96792],[10.55416,42.9679],[10.55439,42.96785]]},"properties":{}},{"type":"Feature","geometry":{"type":"LineString","coordinates":[[10.55403,42.9682],[10.55386,42.96807],[10.55344,42.96793],[10.55393,42.96802],[10.55415,42.96797]]},"properties":{}},{"type":"Feature","geometry":{"type":"LineString","coordinates":[[10.55402,42.96817],[10.55402,42.96809],[10.55407,42.96802],[10.55425,42.96794],[10.55445,42.96799],[10.55452,42.96805],[10.55455,42.96812],[10.55454,42.9682],[10.55448,42.96827],[10.55434,42.96833],[10.55413,42.9683],[10.55402,42.96817]]},"properties":{}},{"type":"Feature","geometry":{"type":"LineString","coordinates":[[10.52964,42.99986],[10.52972,43.0]]},"properties":{}},{"type":"Feature","geometry":{"type":"LineString","coordinates":[[10.71396,42.94062],[10.71401,42.94059]]},"properties":{}},{"type":"Feature","geometry":{"type":"LineString","coordinates":[[10.71394,42.94079],[10.71391,42.9407],[10.71396,42.94062]]},"properties":{}},{"type":"Feature","geometry":{"type":"LineString","coordinates":[[10.71429,42.94064],[10.71456,42.94077]]},"properties":{}},{"type":"Feature","geometry":{"type":"LineString","coordinates":[[10.71428,42.94063],[10.71431,42.94073],[10.71426,42.94081],[10.71415,42.94086],[10.71398,42.94082]]},"properties":{}},{"type":"Feature","geometry":{"type":"LineString","coordinates":[[10.71456,42.94077],[10.71426,42.94081]]},"properties":{}},{"type":"Feature","geometry":{"type":"LineString","coordinates":[[10.71398,42.94082],[10.71394,42.94079]]},"properties":{}},{"type":"Feature","geometry":{"type":"LineString","coordinates":[[10.71417,42.94108],[10.71398,42.94082]]},"properties":{}},{"type":"Feature","geometry":{"type":"LineString","coordinates":[[10.71421,42.94084],[10.71416,42.94097],[10.71417,42.94108]]},"properties":{}},{"type":"Feature","geometry":{"type":"LineString","coordinates":[[10.7157,42.9431],[10.71581,42.9432],[10.71596,42.94325]]},"properties":{}},{"type":"Feature","geometry":{"type":"LineString","coordinates":[[10.7157,42.94334],[10.7157,42.9431]]},"properties":{}},{"type":"Feature","geometry":{"type":"LineString","coordinates":[[10.71613,42.94328],[10.71657,42.94325]]},"properties":{}},{"type":"Feature","geometry":{"type":"LineString","coordinates":[[10.7157,42.94334],[10.71586,42.94326],[10.71596,42.94325]]},"properties":{}},{"type":"Feature","geometry":{"type":"LineString","coordinates":[[10.71657,42.94325],[10.71628,42.94347]]},"properties":{}},{"type":"Feature","geometry":{"type":"LineString","coordinates":[[10.71596,42.94325],[10.71613,42.94328],[10.71626,42.94339],[10.71628,42.94347],[10.71624,42.9436]]},"properties":{}},{"type":"Feature","geometry":{"type":"LineString","coordinates":[[10.71624,42.9436],[10.71609,42.9437],[10.71598,42.94371],[10.71578,42.94368],[10.71572,42.94363],[10.71564,42.94351],[10.71564,42.94345],[10.7157,42.94334]]},"properties":{}},{"type":"Feature","geometry":{"type":"LineString","coordinates":[[10.71531,42.94376],[10.71547,42.94365],[10.71564,42.94345]]},"properties":{}},{"type":"Feature","geometry":{"type":"LineString","coordinates":[[10.71578,42.94368],[10.71531,42.94376]]},"properties":{}},{"type":"Feature","geometry":{"type":"LineString","coordinates":[[10.69388,42.94693],[10.68622,42.95042]]},"properties":{}},{"type":"Feature","geometry":{"type":"LineString","coordinates":[[10.69649,42.95177],[10.69673,42.95183],[10.69695,42.95179]]},"properties":{}},{"type":"Feature","geometry":{"type":"LineString","coordinates":[[10.69633,42.95228],[10.69647,42.95203],[10.69649,42.95177]]},"properties":{}},{"type":"Feature","geometry":{"type":"LineString","coordinates":[[10.68622,42.95042],[10.68336,42.95174]]},"properties":{}},{"type":"Feature","geometry":{"type":"LineString","coordinates":[[10.68317,42.95169],[10.68326,42.95174],[10.68336,42.95174]]},"properties":{}},{"type":"Feature","geometry":{"type":"LineString","coordinates":[[10.67259,42.9713],[10.6729,42.97116],[10.6735,42.9707],[10.67383,42.97049]]},"properties":{}},{"type":"Feature","geometry":{"type":"LineString","coordinates":[[10.67383,42.97049],[10.6734,42.97091],[10.673,42.97124],[10.67286,42.97147]]},"properties":{}},{"type":"Feature","geometry":{"type":"LineString","coordinates":[[10.67201,42.97116],[10.67242,42.97132]]},"properties":{}},{"type":"Feature","geometry":{"type":"LineString","coordinates":[[10.67224,42.97145],[10.67201,42.97116]]},"properties":{}},{"type":"Feature","geometry":{"type":"LineString","coordinates":[[10.67277,42.97171],[10.67256,42.97177],[10.67234,42.97172],[10.67222,42.97158],[10.67224,42.97145],[10.67234,42.97135],[10.6725,42.9713],[10.67276,42.97136],[10.67286,42.97147],[10.67287,42.97154],[10.67286,42.97161],[10.67277,42.97171]]},"properties":{}},{"type":"Feature","geometry":{"type":"LineString","coordinates":[[10.67286,42.97161],[10.67301,42.97183],[10.67322,42.97202]]},"properties":{}},{"type":"Feature","geometry":{"type":"LineString","coordinates":[[10.67322,42.97202],[10.67291,42.97186],[10.67264,42.97177]]},"properties":{}},{"type":"Feature","geometry":{"type":"LineString","coordinates":[[10.67141,42.97244],[10.67157,42.97225],[10.67207,42.97183],[10.67222,42.97158]]},"properties":{}},{"type":"Feature","geometry":{"type":"LineString","coordinates":[[10.61332,42.96681],[10.61308,42.96688],[10.61298,42.96698]]},"properties":{}},{"type":"Feature","geometry":{"type":"LineString","coordinates":[[10.67248,42.97177],[10.67218,42.97191],[10.67164,42.97232],[10.67141,42.97244]]},"properties":{}},{"type":"Feature","geometry":{"type":"LineString","coordinates":[[10.75,42.8001],[10.74973,42.79983],[10.74941,42.7997],[10.74928,42.79955],[10.74939,42.79931],[10.74941,42.79921],[10.74944,42.79885],[10.7494,42.79859],[10.74944,42.79852],[10.74977,42.79824],[10.7498,42.79813],[10.74988,42.79806],[10.75,42.79786]]},"properties":{}},{"type":"Feature","geometry":{"type":"LineString","coordinates":[[10.73998,42.80405],[10.74027,42.804]]},"properties":{}},{"type":"Feature","geometry":{"type":"LineString","coordinates":[[10.74027,42.804],[10.74012,42.80422]]},"properties":{}},{"type":"Feature","geometry":{"type":"LineString","coordinates":[[10.74007,42.80412],[10.74012,42.80422],[10.74011,42.80438],[10.73999,42.80451],[10.73989,42.80455],[10.73976,42.80457],[10.73958,42.80455],[10.73942,42.80446],[10.73933,42.80433],[10.73935,42.80418],[10.7394,42.80411],[10.73962,42.804],[10.7399,42.80401],[10.74007,42.80412]]},"properties":{}},{"type":"Feature","geometry":{"type":"LineString","coordinates":[[10.73972,42.80481],[10.73958,42.80455]]},"properties":{}},{"type":"Feature","geometry":{"type":"LineString","coordinates":[[10.73985,42.80456],[10.73974,42.80469],[10.73972,42.80481]]},"properties":{}},{"type":"Feature","geometry":{"type":"LineString","coordinates":[[10.73854,42.80594],[10.73875,42.80612],[10.73899,42.80613]]},"properties":{}},{"type":"Feature","geometry":{"type":"LineString","coordinates":[[10.73899,42.80613],[10.73881,42.80618],[10.73866,42.80616],[10.73858,42.80607],[10.73854,42.80594]]},"properties":{}},{"type":"Feature","geometry":{"type":"LineString","coordinates":[[10.75,42.92437],[10.74977,42.92449]]},"properties":{}},{"type":"Feature","geometry":{"type":"LineString","coordinates":[[10.74977,42.92449],[10.7497,42.92452]]},"properties":{}},{"type":"Feature","geometry":{"type":"LineString","coordinates":[[10.7497,42.92452],[10.74923,42.92477]]},"properties":{}},{"type":"Feature","geometry":{"type":"LineString","coordinates":[[10.74923,42.92477],[10.74885,42.92497]]},"properties":{}},{"type":"Feature","geometry":{"type":"LineString","coordinates":[[10.74885,42.92497],[10.74829,42.92527]]},"properties":{}},{"type":"Feature","geometry":{"type":"LineString","coordinates":[[10.74829,42.92527],[10.7479,42.92548]]},"properties":{}},{"type":"Feature","geometry":{"type":"LineString","coordinates":[[10.7479,42.92548],[10.747,42.92596]]},"properties":{}},{"type":"Feature","geometry":{"type":"LineString","coordinates":[[10.747,42.92596],[10.74658,42.92618]]},"properties":{}},{"type":"Feature","geometry":{"type":"LineString","coordinates":[[10.74658,42.92618],[10.74589,42.92655]]},"properties":{}},{"type":"Feature","geometry":{"type":"LineString","coordinates":[[10.74589,42.92655],[10.7458,42.92659]]},"properties":{}},{"type":"Feature","geometry":{"type":"LineString","coordinates":[[10.74568,42.92665],[10.7458,42.92659]]},"properties":{}},{"type":"Feature","geometry":{"type":"LineString","coordinates":[[10.74545,42.92677],[10.74568,42.92665]]},"properties":{}},{"type":"Feature","geometry":{"type":"LineString","coordinates":[[10.74262,42.92794],[10.74481,42.92708],[10.74545,42.92677]]},"properties":{}},{"type":"Feature","geometry":{"type":"LineString","coordinates":[[10.74731,42.92755],[10.74745,42.92751]]},"properties":{}},{"type":"Feature","geometry":{"type":"LineString","coordinates":[[10.74728,42.92754],[10.74731,42.92755]]},"properties":{}},{"type":"Feature","geometry":{"type":"LineString","coordinates":[[10.74721,42.92758],[10.74728,42.92754]]},"properties":{}},{"type":"Feature","geometry":{"type":"LineString","coordinates":[[10.74745,42.92751],[10.74736,42.92761]]},"properties":{}},{"type":"Feature","geometry":{"type":"LineString","coordinates":[[10.74731,42.92755],[10.74736,42.92761]]},"properties":{}},{"type":"Feature","geometry":{"type":"LineString","coordinates":[[10.74722,42.92764],[10.74721,42.92758]]},"properties":{}},{"type":"Feature","geometry":{"type":"LineString","coordinates":[[10.74736,42.92761],[10.74735,42.92763]]},"properties":{}},{"type":"Feature","geometry":{"type":"LineString","coordinates":[[10.74723,42.92765],[10.74722,42.92764]]},"properties":{}},{"type":"Feature","geometry":{"type":"LineString","coordinates":[[10.74735,42.92763],[10.74723,42.92765]]},"properties":{}},{"type":"Feature","geometry":{"type":"LineString","coordinates":[[10.74735,42.92763],[10.7473,42.92774]]},"properties":{}},{"type":"Feature","geometry":{"type":"LineString","coordinates":[[10.7473,42.92774],[10.74723,42.92765]]},"properties":{}},{"type":"Feature","geometry":{"type":"LineString","coordinates":[[10.74618,42.92791],[10.74625,42.92802]]},"properties":{}},{"type":"Feature","geometry":{"type":"LineString","coordinates":[[10.74262,42.92794],[10.73959,42.92913]]},"properties":{}},{"type":"Feature","geometry":{"type":"LineString","coordinates":[[10.74673,42.92876],[10.74675,42.9288]]},"properties":{}},{"type":"Feature","geometry":{"type":"LineString","coordinates":[[10.74675,42.9288],[10.74676,42.92883]]},"properties":{}},{"type":"Feature","geometry":{"type":"LineString","coordinates":[[10.73642,42.93023],[10.73824,42.92962],[10.73959,42.92913]]},"properties":{}},{"type":"Feature","geometry":{"type":"LineString","coordinates":[[10.73828,42.93106],[10.73744,42.92989]]},"properties":{}},{"type":"Feature","geometry":{"type":"LineString","coordinates":[[10.73765,42.93143],[10.74046,42.93033]]},"properties":{}},{"type":"Feature","geometry":{"type":"LineString","coordinates":[[10.73125,42.93192],[10.73642,42.93023]]},"properties":{}},{"type":"Feature","geometry":{"type":"LineString","coordinates":[[10.73835,42.93116],[10.73828,42.93106]]},"properties":{}},{"type":"Feature","geometry":{"type":"LineString","coordinates":[[10.73898,42.93182],[10.73846,42.93111]]},"properties":{}},{"type":"Feature","geometry":{"type":"LineString","coordinates":[[10.73012,42.93229],[10.73125,42.93192]]},"properties":{}},{"type":"Feature","geometry":{"type":"LineString","coordinates":[[10.72706,42.93335],[10.73012,42.93229]]},"properties":{}},{"type":"Feature","geometry":{"type":"LineString","coordinates":[[10.72584,42.93402],[10.72644,42.93365],[10.72706,42.93335]]},"properties":{}},{"type":"Feature","geometry":{"type":"LineString","coordinates":[[10.71986,42.93759],[10.72024,42.93743],[10.72059,42.93722],[10.72394,42.93555],[10.72458,42.9351],[10.72584,42.93402]]},"properties":{}},{"type":"Feature","geometry":{"type":"LineString","coordinates":[[10.71401,42.94059],[10.71429,42.94041]]},"properties":{}},{"type":"Feature","geometry":{"type":"LineString","coordinates":[[10.71429,42.94041],[10.71428,42.94063]]},"properties":{}},{"type":"Feature","geometry":{"type":"LineString","coordinates":[[10.71401,42.94059],[10.71413,42.94057],[10.71428,42.94063]]},"properties":{}}]}