{"type":"FeatureCollection","features":[{"type":"Feature","geometry":{"type":"LineString","coordinates":[[10.96428,43.60292],[10.9653,43.60106],[10.9641,43.60071],[10.96429,43.60036]]},"properties":{}},{"type":"Feature","geometry":{"type":"LineString","coordinates":[[10.96136,43.60193],[10.96311,43.60254],[10.96586,43.60345],[10.96759,43.60408]]},"properties":{}},{"type":"Feature","geometry":{"type":"LineString","coordinates":[[10.96792,43.60385],[10.96805,43.60382],[10.96826,43.60354],[10.96854,43.6031],[10.96845,43.60307]]},"properties":{}},{"type":"Feature","geometry":{"type":"LineString","coordinates":[[10.91863,43.67263],[10.91823,43.67334],[10.91791,43.67417]]},"properties":{}},{"type":"Feature","geometry":{"type":"LineString","coordinates":[[10.91631,43.67816],[10.91657,43.67805],[10.91675,43.67788]]},"properties":{}},{"type":"Feature","geometry":{"type":"LineString","coordinates":[[10.91675,43.67788],[10.91668,43.6781],[10.91671,43.67833]]},"properties":{}},{"type":"Feature","geometry":{"type":"LineString","coordinates":[[10.93735,43.70995],[10.93763,43.71017],[10.93795,43.71033],[10.93831,43.71043],[10.93898,43.71046],[10.93919,43.71055],[10.93933,43.71056]]},"properties":{}},{"type":"Feature","geometry":{"type":"LineString","coordinates":[[10.94666,43.71077],[10.94679,43.71077],[10.94681,43.71074],[10.94714,43.71025],[10.94731,43.71023],[10.9474,43.71014],[10.94752,43.71011],[10.94767,43.71016],[10.94783,43.71042],[10.94789,43.71064],[10.94799,43.7107]]},"properties":{}},{"type":"Feature","geometry":{"type":"LineString","coordinates":[[10.92134,43.71258],[10.9217,43.71262]]},"properties":{}},{"type":"Feature","geometry":{"type":"LineString","coordinates":[[10.92179,43.71263],[10.9219,43.71267],[10.9222,43.71268]]},"properties":{}},{"type":"Feature","geometry":{"type":"LineString","coordinates":[[10.92153,43.71278],[10.92142,43.71263],[10.92134,43.71258]]},"properties":{}},{"type":"Feature","geometry":{"type":"LineString","coordinates":[[10.90877,43.70327],[10.90884,43.70316],[10.90886,43.70295]]},"properties":{}},{"type":"Feature","geometry":{"type":"LineString","coordinates":[[10.90877,43.70327],[10.90911,43.70319]]},"properties":{}},{"type":"Feature","geometry":{"type":"LineString","coordinates":[[10.90911,43.70319],[10.90911,43.70326],[10.90905,43.70334],[10.9089,43.7034]]},"properties":{}},{"type":"Feature","geometry":{"type":"LineString","coordinates":[[10.9085,43.70344],[10.90877,43.70327]]},"properties":{}},{"type":"Feature","geometry":{"type":"LineString","coordinates":[[10.9089,43.7034],[10.9085,43.70344]]},"properties":{}},{"type":"Feature","geometry":{"type":"LineString","coordinates":[[10.86286,43.6902],[10.86224,43.69021]]},"properties":{}},{"type":"Feature","geometry":{"type":"LineString","coordinates":[[10.85183,43.69275],[10.85205,43.69274],[10.85223,43.69265],[10.85247,43.69262],[10.85298,43.69259],[10.85336,43.6926],[10.85429,43.69254],[10.85442,43.6925],[10.85498,43.6925],[10.8566,43.6924],[10.85681,43.6925]]},"properties":{}},{"type":"Feature","geometry":{"type":"LineString","coordinates":[[10.90941,43.7035],[10.90917,43.70343],[10.9089,43.7034]]},"properties":{}},{"type":"Feature","geometry":{"type":"LineString","coordinates":[[10.89336,43.70541],[10.89518,43.70582]]},"properties":{}},{"type":"Feature","geometry":{"type":"LineString","coordinates":[[10.89661,43.70615],[10.89975,43.70686],[10.90061,43.70701],[10.90384,43.7073]]},"properties":{}},{"type":"Feature","geometry":{"type":"LineString","coordinates":[[10.87483,43.71142],[10.87454,43.71093]]},"properties":{}},{"type":"Feature","geometry":{"type":"LineString","coordinates":[[10.87476,43.71132],[10.87486,43.71119]]},"properties":{}},{"type":"Feature","geometry":{"type":"LineString","coordinates":[[10.87494,43.71122],[10.87484,43.71132],[10.87483,43.71142]]},"properties":{}},{"type":"Feature","geometry":{"type":"LineString","coordinates":[[10.883,43.71376],[10.88221,43.71382],[10.88209,43.71386],[10.8816,43.71444],[10.88136,43.71445],[10.88085,43.71436],[10.88077,43.71439],[10.88046,43.71501]]},"properties":{}},{"type":"Feature","geometry":{"type":"LineString","coordinates":[[10.87713,43.71424],[10.87701,43.7147],[10.87697,43.71478],[10.87684,43.71489]]},"properties":{}},{"type":"Feature","geometry":{"type":"LineString","coordinates":[[10.87871,43.71693],[10.87871,43.717],[10.87881,43.71721],[10.87881,43.71729],[10.87861,43.71822],[10.8786,43.71839],[10.87864,43.71854],[10.87871,43.71865],[10.87888,43.71878],[10.87914,43.71893],[10.88135,43.71972],[10.88243,43.72014]]},"properties":{}},{"type":"Feature","geometry":{"type":"LineString","coordinates":[[10.88424,43.72096],[10.88248,43.72016]]},"properties":{}},{"type":"Feature","geometry":{"type":"LineString","coordinates":[[10.9187,43.71272],[10.91883,43.71276],[10.91919,43.71276]]},"properties":{}},{"type":"Feature","geometry":{"type":"LineString","coordinates":[[10.92153,43.71271],[10.9216,43.71264],[10.92174,43.71262],[10.92186,43.71269],[10.92188,43.71277],[10.92181,43.71286],[10.92169,43.71288],[10.92154,43.71281],[10.92153,43.71271]]},"properties":{}},{"type":"Feature","geometry":{"type":"LineString","coordinates":[[10.91919,43.71276],[10.91951,43.71274]]},"properties":{}},{"type":"Feature","geometry":{"type":"LineString","coordinates":[[10.9222,43.71268],[10.92199,43.71274],[10.92183,43.71284]]},"properties":{}},{"type":"Feature","geometry":{"type":"LineString","coordinates":[[10.91903,43.71304],[10.91906,43.71288],[10.91919,43.71276]]},"properties":{}},{"type":"Feature","geometry":{"type":"LineString","coordinates":[[10.91951,43.71274],[10.9193,43.71283],[10.91917,43.71295],[10.91918,43.71309],[10.91932,43.71331]]},"properties":{}},{"type":"Feature","geometry":{"type":"LineString","coordinates":[[10.92573,43.71311],[10.92533,43.71307]]},"properties":{}},{"type":"Feature","geometry":{"type":"LineString","coordinates":[[10.92589,43.71312],[10.92622,43.71315]]},"properties":{}},{"type":"Feature","geometry":{"type":"LineString","coordinates":[[10.92533,43.71307],[10.92561,43.71325]]},"properties":{}},{"type":"Feature","geometry":{"type":"LineString","coordinates":[[10.92622,43.71315],[10.92596,43.71328]]},"properties":{}},{"type":"Feature","geometry":{"type":"LineString","coordinates":[[10.92562,43.71321],[10.92568,43.71313],[10.92584,43.71311],[10.92593,43.71315],[10.92597,43.71324],[10.92593,43.71331],[10.92579,43.71336],[10.92565,43.71332],[10.92562,43.71321]]},"properties":{}},{"type":"Feature","geometry":{"type":"LineString","coordinates":[[10.94067,43.71373],[10.94075,43.71369],[10.9417,43.71358],[10.94175,43.71355],[10.94311,43.7134],[10.94449,43.71353],[10.94772,43.7136],[10.94772,43.71364]]},"properties":{}},{"type":"Feature","geometry":{"type":"LineString","coordinates":[[10.9206,43.71427],[10.92078,43.71415],[10.92109,43.71374]]},"properties":{}},{"type":"Feature","geometry":{"type":"LineString","coordinates":[[10.92109,43.71374],[10.921,43.71402],[10.92098,43.71433]]},"properties":{}},{"type":"Feature","geometry":{"type":"LineString","coordinates":[[10.92016,43.71415],[10.92034,43.71423],[10.92055,43.71428]]},"properties":{}},{"type":"Feature","geometry":{"type":"LineString","coordinates":[[10.94774,43.71373],[10.94788,43.71374],[10.94787,43.71401],[10.94771,43.71482]]},"properties":{}},{"type":"Feature","geometry":{"type":"LineString","coordinates":[[10.92036,43.71446],[10.92016,43.71415]]},"properties":{}},{"type":"Feature","geometry":{"type":"LineString","coordinates":[[10.92622,43.71315],[10.92675,43.71322],[10.92697,43.7133],[10.92714,43.71342],[10.92723,43.71359],[10.92725,43.71372],[10.92719,43.71395],[10.92646,43.71547]]},"properties":{}},{"type":"Feature","geometry":{"type":"LineString","coordinates":[[10.94712,43.7151],[10.94713,43.71506],[10.94752,43.71509],[10.94774,43.71373],[10.94772,43.71364]]},"properties":{}},{"type":"Feature","geometry":{"type":"LineString","coordinates":[[10.92104,43.7144],[10.92108,43.71447],[10.92106,43.7146],[10.92099,43.71469],[10.92088,43.71475],[10.92074,43.71478],[10.9206,43.71476],[10.92048,43.71471],[10.92037,43.71458],[10.92036,43.71446],[10.9204,43.71438],[10.9206,43.71427],[10.9207,43.71425],[10.9209,43.71429],[10.92104,43.7144]]},"properties":{}},{"type":"Feature","geometry":{"type":"LineString","coordinates":[[10.92011,43.71482],[10.92028,43.71467],[10.92036,43.71453]]},"properties":{}},{"type":"Feature","geometry":{"type":"LineString","coordinates":[[10.93596,43.71451],[10.93902,43.71488]]},"properties":{}},{"type":"Feature","geometry":{"type":"LineString","coordinates":[[10.92053,43.71474],[10.92011,43.71482]]},"properties":{}},{"type":"Feature","geometry":{"type":"LineString","coordinates":[[10.94153,43.71473],[10.94161,43.7149]]},"properties":{}},{"type":"Feature","geometry":{"type":"LineString","coordinates":[[10.92105,43.71462],[10.92101,43.71487],[10.92105,43.71507]]},"properties":{}},{"type":"Feature","geometry":{"type":"LineString","coordinates":[[10.92482,43.7151],[10.92463,43.71497],[10.92429,43.71489],[10.92416,43.71478],[10.92411,43.71469],[10.92412,43.71463]]},"properties":{}},{"type":"Feature","geometry":{"type":"LineString","coordinates":[[10.94711,43.71515],[10.94144,43.71461]]},"properties":{}},{"type":"Feature","geometry":{"type":"LineString","coordinates":[[10.92245,43.71461],[10.92253,43.71471],[10.92263,43.71506],[10.92194,43.71517]]},"properties":{}},{"type":"Feature","geometry":{"type":"LineString","coordinates":[[10.92576,43.71562],[10.92585,43.71551],[10.92629,43.71561],[10.927,43.71416]]},"properties":{}},{"type":"Feature","geometry":{"type":"LineString","coordinates":[[10.92105,43.71507],[10.92082,43.71485],[10.9206,43.71476]]},"properties":{}},{"type":"Feature","geometry":{"type":"LineString","coordinates":[[10.93902,43.71488],[10.94062,43.71507]]},"properties":{}},{"type":"Feature","geometry":{"type":"LineString","coordinates":[[10.94711,43.71515],[10.94712,43.7151]]},"properties":{}},{"type":"Feature","geometry":{"type":"LineString","coordinates":[[10.94062,43.71507],[10.94183,43.71522]]},"properties":{}},{"type":"Feature","geometry":{"type":"LineString","coordinates":[[10.92132,43.7147],[10.92119,43.71481],[10.92118,43.71492],[10.92137,43.71498],[10.9217,43.71495],[10.92188,43.71503],[10.92192,43.71506],[10.92213,43.7157],[10.92222,43.71576],[10.92282,43.71569],[10.92398,43.71577],[10.92411,43.71568],[10.92425,43.71565],[10.92447,43.71571],[10.92456,43.71582],[10.92572,43.71592],[10.92583,43.71591],[10.92595,43.71586],[10.92598,43.71582],[10.92596,43.71574],[10.92512,43.71525],[10.92482,43.7151],[10.92452,43.71504],[10.92428,43.71504],[10.92349,43.71467],[10.92322,43.71459],[10.92282,43.71457],[10.92245,43.71461],[10.92207,43.71456],[10.92168,43.71459],[10.92132,43.7147]]},"properties":{}},{"type":"Feature","geometry":{"type":"LineString","coordinates":[[10.94183,43.71522],[10.9419,43.71522],[10.94206,43.71539]]},"properties":{}},{"type":"Feature","geometry":{"type":"LineString","coordinates":[[10.94373,43.71543],[10.9437,43.71558]]},"properties":{}},{"type":"Feature","geometry":{"type":"LineString","coordinates":[[10.94206,43.71539],[10.94233,43.71532],[10.94267,43.71535],[10.94283,43.71532],[10.94492,43.71558],[10.94607,43.71563],[10.94691,43.71578],[10.94687,43.71596]]},"properties":{}},{"type":"Feature","geometry":{"type":"LineString","coordinates":[[10.92598,43.71582],[10.9261,43.71585]]},"properties":{}},{"type":"Feature","geometry":{"type":"LineString","coordinates":[[10.9258,43.71599],[10.92609,43.71588]]},"properties":{}},{"type":"Feature","geometry":{"type":"LineString","coordinates":[[10.92614,43.71599],[10.9258,43.71599]]},"properties":{}},{"type":"Feature","geometry":{"type":"LineString","coordinates":[[10.95221,43.72738],[10.95177,43.72694]]},"properties":{}},{"type":"Feature","geometry":{"type":"LineString","coordinates":[[10.93852,43.72722],[10.93862,43.72742],[10.9386,43.72751]]},"properties":{}},{"type":"Feature","geometry":{"type":"LineString","coordinates":[[10.92202,43.72813],[10.92212,43.72815],[10.92334,43.7279],[10.92421,43.72761],[10.92502,43.72728],[10.92548,43.72699],[10.92617,43.72663],[10.9263,43.72659],[10.9265,43.72658]]},"properties":{}},{"type":"Feature","geometry":{"type":"LineString","coordinates":[[10.9387,43.72748],[10.9386,43.72751],[10.93853,43.72764]]},"properties":{}},{"type":"Feature","geometry":{"type":"LineString","coordinates":[[10.93767,43.72751],[10.93783,43.72779]]},"properties":{}},{"type":"Feature","geometry":{"type":"LineString","coordinates":[[10.93853,43.72764],[10.93844,43.72763],[10.93821,43.7277],[10.93811,43.72778]]},"properties":{}},{"type":"Feature","geometry":{"type":"LineString","coordinates":[[10.93811,43.72778],[10.93794,43.72775],[10.93783,43.72779]]},"properties":{}},{"type":"Feature","geometry":{"type":"LineString","coordinates":[[10.92202,43.72813],[10.92198,43.72806]]},"properties":{}},{"type":"Feature","geometry":{"type":"LineString","coordinates":[[10.92198,43.72806],[10.92177,43.72813],[10.92139,43.72819],[10.92053,43.72822],[10.92011,43.72819],[10.9192,43.72829],[10.91799,43.7285],[10.91679,43.7288],[10.91633,43.72888],[10.91594,43.72891],[10.91592,43.72894]]},"properties":{}},{"type":"Feature","geometry":{"type":"LineString","coordinates":[[10.92871,43.72922],[10.92846,43.72872],[10.92825,43.72838],[10.92794,43.72799],[10.92788,43.72803]]},"properties":{}},{"type":"Feature","geometry":{"type":"LineString","coordinates":[[10.92854,43.72928],[10.9281,43.7284],[10.92784,43.72805],[10.92788,43.72803]]},"properties":{}},{"type":"Feature","geometry":{"type":"LineString","coordinates":[[10.93783,43.72779],[10.93518,43.72858],[10.93513,43.72852],[10.93391,43.72885],[10.93385,43.72889],[10.93378,43.72888],[10.93325,43.72901],[10.93318,43.72906],[10.9331,43.72904],[10.93234,43.72924],[10.93204,43.72937],[10.93196,43.72946],[10.93191,43.72959],[10.93172,43.72959],[10.93165,43.72949],[10.9315,43.72942],[10.93096,43.72944],[10.92917,43.72981],[10.92728,43.73026]]},"properties":{}},{"type":"Feature","geometry":{"type":"LineString","coordinates":[[10.93078,43.72929],[10.93088,43.72926]]},"properties":{}},{"type":"Feature","geometry":{"type":"LineString","coordinates":[[10.92871,43.72922],[10.92883,43.72945]]},"properties":{}},{"type":"Feature","geometry":{"type":"LineString","coordinates":[[10.91592,43.72894],[10.91552,43.72906],[10.91471,43.72956],[10.91296,43.72978],[10.91279,43.72975],[10.91271,43.72964]]},"properties":{}},{"type":"Feature","geometry":{"type":"LineString","coordinates":[[10.92854,43.72928],[10.9286,43.72949]]},"properties":{}},{"type":"Feature","geometry":{"type":"LineString","coordinates":[[10.92883,43.72945],[10.9286,43.72949]]},"properties":{}},{"type":"Feature","geometry":{"type":"LineString","coordinates":[[10.92883,43.72945],[10.92898,43.72962],[10.92914,43.72967],[10.93039,43.72943],[10.93078,43.72929]]},"properties":{}},{"type":"Feature","geometry":{"type":"LineString","coordinates":[[10.9286,43.72949],[10.92858,43.72961],[10.92841,43.72982],[10.92822,43.7299],[10.92768,43.73002]]},"properties":{}},{"type":"Feature","geometry":{"type":"LineString","coordinates":[[10.9116,43.73007],[10.91243,43.73005],[10.91266,43.72997],[10.91275,43.7299]]},"properties":{}},{"type":"Feature","geometry":{"type":"LineString","coordinates":[[10.79849,43.68193],[10.79952,43.68176],[10.79962,43.68164],[10.79931,43.68072],[10.79874,43.68051],[10.79877,43.68047]]},"properties":{}},{"type":"Feature","geometry":{"type":"LineString","coordinates":[[10.80099,43.68148],[10.7999,43.68167],[10.79986,43.68163],[10.79975,43.68161],[10.79963,43.68118]]},"properties":{}},{"type":"Feature","geometry":{"type":"LineString","coordinates":[[10.79853,43.68206],[10.79825,43.68103]]},"properties":{}},{"type":"Feature","geometry":{"type":"LineString","coordinates":[[10.79878,43.683],[10.79853,43.68206],[10.79954,43.68188],[10.79966,43.68195],[10.79981,43.68195],[10.79994,43.68188],[10.79997,43.68181],[10.801,43.68161],[10.80098,43.68155]]},"properties":{}},{"type":"Feature","geometry":{"type":"LineString","coordinates":[[10.80786,43.68344],[10.80789,43.68351],[10.80811,43.68359],[10.80881,43.68379],[10.80968,43.68395],[10.80977,43.68402],[10.80969,43.68424],[10.80778,43.68773]]},"properties":{}},{"type":"Feature","geometry":{"type":"LineString","coordinates":[[10.7933,43.68632],[10.79361,43.68542]]},"properties":{}},{"type":"Feature","geometry":{"type":"LineString","coordinates":[[10.7933,43.68632],[10.79666,43.68696],[10.79899,43.68746]]},"properties":{}},{"type":"Feature","geometry":{"type":"LineString","coordinates":[[10.77409,43.60989],[10.77416,43.61004],[10.77418,43.61027],[10.77396,43.61107],[10.77388,43.6112],[10.77346,43.61136],[10.77338,43.61142],[10.7733,43.61164],[10.77327,43.61216],[10.77324,43.61224],[10.77314,43.61234],[10.77266,43.61257],[10.7718,43.6132],[10.77133,43.6134],[10.77068,43.61345],[10.77004,43.61366],[10.76975,43.61372],[10.76938,43.61372],[10.76748,43.6135],[10.76421,43.61359],[10.76388,43.61365],[10.7637,43.61375],[10.76306,43.61448],[10.76238,43.615],[10.76187,43.61575],[10.76126,43.61633],[10.76102,43.61661],[10.76052,43.61743],[10.76036,43.61751],[10.75983,43.61767]]},"properties":{}},{"type":"Feature","geometry":{"type":"LineString","coordinates":[[10.75983,43.61767],[10.75958,43.61781],[10.75945,43.61794],[10.75935,43.61815],[10.75922,43.61865],[10.75909,43.61881],[10.75882,43.61895],[10.75834,43.61906]]},"properties":{}},{"type":"Feature","geometry":{"type":"LineString","coordinates":[[10.75815,43.68652],[10.75836,43.68643],[10.75856,43.68624]]},"properties":{}},{"type":"Feature","geometry":{"type":"LineString","coordinates":[[10.75856,43.68624],[10.7585,43.68644],[10.7584,43.68657]]},"properties":{}},{"type":"Feature","geometry":{"type":"LineString","coordinates":[[10.7584,43.68657],[10.75838,43.68646],[10.75842,43.68638]]},"properties":{}},{"type":"Feature","geometry":{"type":"LineString","coordinates":[[10.75852,43.6864],[10.75853,43.6865],[10.7586,43.68659]]},"properties":{}},{"type":"Feature","geometry":{"type":"LineString","coordinates":[[10.76392,43.68982],[10.76391,43.68972],[10.76396,43.68962]]},"properties":{}},{"type":"Feature","geometry":{"type":"LineString","coordinates":[[10.76352,43.68967],[10.76415,43.68959],[10.76451,43.68961],[10.76496,43.68973],[10.76558,43.68997]]},"properties":{}},{"type":"Feature","geometry":{"type":"LineString","coordinates":[[10.76558,43.68997],[10.76463,43.69003],[10.76446,43.69001],[10.76417,43.68994],[10.76381,43.68976],[10.76352,43.68967]]},"properties":{}},{"type":"Feature","geometry":{"type":"LineString","coordinates":[[10.81501,43.64269],[10.81494,43.64265]]},"properties":{}},{"type":"Feature","geometry":{"type":"LineString","coordinates":[[10.81077,43.64643],[10.81088,43.64651]]},"properties":{}},{"type":"Feature","geometry":{"type":"LineString","coordinates":[[10.81064,43.64652],[10.81075,43.64657],[10.8109,43.6465],[10.81095,43.64651],[10.81109,43.64673],[10.81095,43.64681],[10.81094,43.64687],[10.81116,43.64704]]},"properties":{}},{"type":"Feature","geometry":{"type":"LineString","coordinates":[[10.81154,43.64825],[10.81132,43.64837]]},"properties":{}},{"type":"Feature","geometry":{"type":"LineString","coordinates":[[10.81166,43.6486],[10.81143,43.64836],[10.81132,43.64837],[10.81114,43.64846]]},"properties":{}},{"type":"Feature","geometry":{"type":"LineString","coordinates":[[10.83146,43.69256],[10.83129,43.69248],[10.8312,43.69238],[10.83118,43.69226],[10.83126,43.69213],[10.83144,43.69204],[10.83156,43.69202],[10.83175,43.69206],[10.83186,43.69213],[10.83192,43.69223],[10.83193,43.69232],[10.83184,43.69247],[10.83168,43.69255],[10.83146,43.69256]]},"properties":{}},{"type":"Feature","geometry":{"type":"LineString","coordinates":[[10.83928,43.69535],[10.83926,43.69515],[10.8409,43.69387],[10.84119,43.69351],[10.84116,43.69339]]},"properties":{}},{"type":"Feature","geometry":{"type":"LineString","coordinates":[[10.8324,43.70057],[10.83872,43.69557],[10.83884,43.6955],[10.83924,43.69543]]},"properties":{}},{"type":"Feature","geometry":{"type":"LineString","coordinates":[[10.81947,43.70998],[10.81952,43.71015],[10.81948,43.7103],[10.81922,43.71078],[10.81915,43.711],[10.81899,43.71207],[10.8188,43.71236]]},"properties":{}},{"type":"Feature","geometry":{"type":"LineString","coordinates":[[10.75834,43.61906],[10.75808,43.61911],[10.75773,43.61907],[10.75762,43.61897],[10.75723,43.61836],[10.75619,43.61789],[10.7558,43.61782],[10.7548,43.61797],[10.75329,43.61796],[10.75288,43.61799],[10.75232,43.61829],[10.75192,43.61846],[10.75047,43.61879],[10.75,43.61895]]},"properties":{}},{"type":"Feature","geometry":{"type":"LineString","coordinates":[[10.76523,43.68984],[10.76524,43.6899],[10.76518,43.69]]},"properties":{}},{"type":"Feature","geometry":{"type":"LineString","coordinates":[[10.76,43.69028],[10.75996,43.69023],[10.75967,43.69019],[10.75966,43.69011]]},"properties":{}},{"type":"Feature","geometry":{"type":"LineString","coordinates":[[10.76,43.69032],[10.76,43.69028]]},"properties":{}},{"type":"Feature","geometry":{"type":"LineString","coordinates":[[10.76,43.69032],[10.75995,43.69049],[10.75979,43.6907]]},"properties":{}},{"type":"Feature","geometry":{"type":"LineString","coordinates":[[10.7595,43.6912],[10.75979,43.6907]]},"properties":{}},{"type":"Feature","geometry":{"type":"LineString","coordinates":[[10.75947,43.69126],[10.7595,43.6912]]},"properties":{}},{"type":"Feature","geometry":{"type":"LineString","coordinates":[[10.76071,43.69126],[10.76116,43.69142],[10.76178,43.69142]]},"properties":{}},{"type":"Feature","geometry":{"type":"LineString","coordinates":[[10.75,43.69291],[10.75061,43.69286],[10.75101,43.69278],[10.75237,43.69273],[10.75284,43.69266],[10.75523,43.69209],[10.75733,43.69171],[10.75763,43.69162],[10.7581,43.69136],[10.75821,43.69133],[10.7591,43.69126],[10.76023,43.69125],[10.76027,43.6912]]},"properties":{}},{"type":"Feature","geometry":{"type":"LineString","coordinates":[[10.76484,43.6928],[10.76481,43.69287],[10.76486,43.69296],[10.76522,43.69331],[10.76606,43.69425],[10.76664,43.6949],[10.76665,43.69496],[10.76676,43.69507]]},"properties":{}},{"type":"Feature","geometry":{"type":"LineString","coordinates":[[10.76664,43.6949],[10.76676,43.69498],[10.76684,43.69498]]},"properties":{}},{"type":"Feature","geometry":{"type":"LineString","coordinates":[[10.96268,43.6004],[10.96252,43.60036],[10.96241,43.60042],[10.96228,43.60065],[10.96207,43.60082],[10.96198,43.60096],[10.96194,43.60121],[10.96177,43.60151],[10.9617,43.60161],[10.96136,43.60191],[10.96134,43.6021],[10.96112,43.60249],[10.96089,43.60348],[10.9609,43.60379],[10.96075,43.60401],[10.96073,43.60435],[10.96093,43.60496],[10.96093,43.60507],[10.9609,43.60523],[10.96065,43.60561],[10.96057,43.60581],[10.96066,43.6063],[10.96091,43.60662],[10.96098,43.60679],[10.96099,43.60699],[10.96089,43.60726],[10.96091,43.60735],[10.96104,43.60742]]},"properties":{}},{"type":"Feature","geometry":{"type":"LineString","coordinates":[[10.9658,43.60343],[10.96432,43.60597],[10.96099,43.60739]]},"properties":{}},{"type":"Feature","geometry":{"type":"LineString","coordinates":[[10.96426,43.61762],[10.96452,43.61752]]},"properties":{}},{"type":"Feature","geometry":{"type":"LineString","coordinates":[[10.96452,43.61752],[10.96441,43.61776]]},"properties":{}},{"type":"Feature","geometry":{"type":"LineString","coordinates":[[10.96403,43.61785],[10.964,43.61773],[10.96413,43.61763],[10.96426,43.61762],[10.9644,43.61772],[10.96441,43.61781],[10.9643,43.61791],[10.96418,43.61792],[10.96403,43.61785]]},"properties":{}},{"type":"Feature","geometry":{"type":"LineString","coordinates":[[10.96435,43.61788],[10.96408,43.6182]]},"properties":{}},{"type":"Feature","geometry":{"type":"LineString","coordinates":[[10.95621,43.67436],[10.95621,43.6742],[10.95577,43.67262]]},"properties":{}},{"type":"Feature","geometry":{"type":"LineString","coordinates":[[10.95621,43.67442],[10.95621,43.67436]]},"properties":{}},{"type":"Feature","geometry":{"type":"LineString","coordinates":[[10.98916,43.67557],[10.98904,43.6758]]},"properties":{}},{"type":"Feature","geometry":{"type":"LineString","coordinates":[[10.98904,43.6758],[10.98906,43.67583]]},"properties":{}},{"type":"Feature","geometry":{"type":"LineString","coordinates":[[11.0,43.66677],[10.99978,43.66707],[10.99732,43.66876],[10.99572,43.66963],[10.99549,43.66983],[10.99532,43.67005],[10.99472,43.67106],[10.99394,43.6717],[10.99397,43.67186],[10.99393,43.67191],[10.99383,43.67196],[10.99361,43.67192],[10.99297,43.6724],[10.99223,43.67325],[10.99174,43.6737],[10.99177,43.67372],[10.99175,43.67374],[10.99171,43.67377],[10.99164,43.67376],[10.99048,43.67454],[10.99038,43.67443],[10.99002,43.67468],[10.98996,43.67472],[10.99007,43.67486],[10.9895,43.67522],[10.98928,43.67542],[10.98916,43.67557]]},"properties":{}},{"type":"Feature","geometry":{"type":"LineString","coordinates":[[10.95474,43.67747],[10.95497,43.67739],[10.95541,43.67705],[10.95589,43.67681],[10.9559,43.67673],[10.95586,43.67662],[10.9556,43.6762],[10.95557,43.67609],[10.9556,43.67595],[10.95582,43.67549],[10.95597,43.67493],[10.95621,43.67442]]},"properties":{}},{"type":"Feature","geometry":{"type":"LineString","coordinates":[[10.96008,43.67738],[10.9595,43.6769],[10.95909,43.6767],[10.95798,43.67633],[10.95794,43.67623],[10.95777,43.67618],[10.95737,43.67625],[10.9572,43.6762],[10.95656,43.6759],[10.95582,43.67549]]},"properties":{}},{"type":"Feature","geometry":{"type":"LineString","coordinates":[[10.95458,43.67746],[10.95474,43.67747]]},"properties":{}},{"type":"Feature","geometry":{"type":"LineString","coordinates":[[10.95354,43.67985],[10.95291,43.67917],[10.95284,43.67877],[10.95284,43.67866],[10.9529,43.67843],[10.95322,43.6781],[10.95365,43.67782],[10.95439,43.67751],[10.95458,43.67746]]},"properties":{}},{"type":"Feature","geometry":{"type":"LineString","coordinates":[[10.95358,43.6799],[10.95354,43.67985]]},"properties":{}},{"type":"Feature","geometry":{"type":"LineString","coordinates":[[10.95915,43.68419],[10.9591,43.68391],[10.95892,43.6837],[10.95863,43.68345],[10.95837,43.68329],[10.95798,43.68286],[10.95771,43.68246],[10.9568,43.68162],[10.95637,43.68116],[10.95571,43.68063],[10.95537,43.68045],[10.95399,43.68012],[10.95371,43.67999],[10.95358,43.6799]]},"properties":{}},{"type":"Feature","geometry":{"type":"LineString","coordinates":[[10.95915,43.68425],[10.95915,43.68419]]},"properties":{}},{"type":"Feature","geometry":{"type":"LineString","coordinates":[[10.95808,43.68824],[10.95811,43.68761],[10.95815,43.68746],[10.95921,43.68543],[10.95922,43.68529],[10.95914,43.68478],[10.95915,43.68425]]},"properties":{}},{"type":"Feature","geometry":{"type":"LineString","coordinates":[[10.95808,43.68832],[10.95808,43.68824]]},"properties":{}},{"type":"Feature","geometry":{"type":"LineString","coordinates":[[10.95925,43.69097],[10.95918,43.69077],[10.95818,43.68877],[10.95808,43.68841],[10.95808,43.68832]]},"properties":{}},{"type":"Feature","geometry":{"type":"LineString","coordinates":[[10.95897,43.69279],[10.95918,43.69266],[10.95923,43.69257],[10.9594,43.69181],[10.95955,43.69141],[10.95963,43.69129],[10.96082,43.69015],[10.9614,43.68934],[10.9621,43.6886],[10.96224,43.68855],[10.96246,43.68853],[10.96279,43.68858],[10.96304,43.68866],[10.96347,43.6889]]},"properties":{}},{"type":"Feature","geometry":{"type":"LineString","coordinates":[[10.95476,43.71818],[10.95223,43.71804]]},"properties":{}},{"type":"Feature","geometry":{"type":"LineString","coordinates":[[10.95705,43.71842],[10.95579,43.71824],[10.95476,43.71818]]},"properties":{}},{"type":"Feature","geometry":{"type":"LineString","coordinates":[[10.95682,43.71917],[10.95729,43.71761]]},"properties":{}},{"type":"Feature","geometry":{"type":"LineString","coordinates":[[10.96016,43.71825],[10.9598,43.71835],[10.95949,43.71849],[10.95904,43.71855],[10.95775,43.71852],[10.95705,43.71842]]},"properties":{}},{"type":"Feature","geometry":{"type":"LineString","coordinates":[[10.95859,43.7191],[10.9586,43.71854]]},"properties":{}},{"type":"Feature","geometry":{"type":"LineString","coordinates":[[10.95859,43.7191],[10.95692,43.71885]]},"properties":{}},{"type":"Feature","geometry":{"type":"LineString","coordinates":[[10.95862,43.71969],[10.95859,43.7191]]},"properties":{}},{"type":"Feature","geometry":{"type":"LineString","coordinates":[[10.95845,43.72086],[10.95853,43.72081],[10.95876,43.71972]]},"properties":{}},{"type":"Feature","geometry":{"type":"LineString","coordinates":[[10.95301,43.72015],[10.9584,43.72085]]},"properties":{}},{"type":"Feature","geometry":{"type":"LineString","coordinates":[[10.94921,43.71621],[10.94932,43.7162],[10.94955,43.71607],[10.94974,43.71607]]},"properties":{}},{"type":"Feature","geometry":{"type":"LineString","coordinates":[[10.94795,43.71609],[10.94891,43.71623]]},"properties":{}},{"type":"Feature","geometry":{"type":"LineString","coordinates":[[10.9492,43.71623],[10.94921,43.71621]]},"properties":{}},{"type":"Feature","geometry":{"type":"LineString","coordinates":[[10.9492,43.71623],[10.94919,43.7163]]},"properties":{}},{"type":"Feature","geometry":{"type":"LineString","coordinates":[[10.94908,43.7168],[10.94913,43.71634],[10.94919,43.7163]]},"properties":{}},{"type":"Feature","geometry":{"type":"LineString","coordinates":[[10.94907,43.71684],[10.94908,43.7168]]},"properties":{}},{"type":"Feature","geometry":{"type":"LineString","coordinates":[[10.95223,43.71804],[10.95123,43.71798]]},"properties":{}},{"type":"Feature","geometry":{"type":"LineString","coordinates":[[10.94882,43.71963],[10.94907,43.71684]]},"properties":{}},{"type":"Feature","geometry":{"type":"LineString","coordinates":[[10.93627,43.71923],[10.93594,43.71923]]},"properties":{}},{"type":"Feature","geometry":{"type":"LineString","coordinates":[[10.93613,43.71923],[10.93612,43.71949],[10.93615,43.71952],[10.93625,43.71952]]},"properties":{}},{"type":"Feature","geometry":{"type":"LineString","coordinates":[[10.93654,43.7198],[10.93657,43.71916]]},"properties":{}},{"type":"Feature","geometry":{"type":"LineString","coordinates":[[10.93642,43.71916],[10.9364,43.71981]]},"properties":{}},{"type":"Feature","geometry":{"type":"LineString","coordinates":[[10.9367,43.71976],[10.93638,43.71981],[10.93628,43.71978],[10.93624,43.71973],[10.93628,43.71918]]},"properties":{}},{"type":"Feature","geometry":{"type":"LineString","coordinates":[[10.93604,43.71919],[10.93671,43.71918],[10.9367,43.7199]]},"properties":{}},{"type":"Feature","geometry":{"type":"LineString","coordinates":[[10.94882,43.71963],[10.94881,43.71965]]},"properties":{}},{"type":"Feature","geometry":{"type":"LineString","coordinates":[[10.94871,43.72017],[10.94879,43.72015],[10.94884,43.71968],[10.94881,43.71965]]},"properties":{}},{"type":"Feature","geometry":{"type":"LineString","coordinates":[[10.9427,43.71995],[10.94261,43.72002],[10.94261,43.72029],[10.94272,43.72036],[10.94307,43.72038],[10.94321,43.7203]]},"properties":{}},{"type":"Feature","geometry":{"type":"LineString","coordinates":[[10.9487,43.72021],[10.94871,43.72017]]},"properties":{}},{"type":"Feature","geometry":{"type":"LineString","coordinates":[[10.94879,43.72146],[10.94873,43.72144],[10.94879,43.72026],[10.9487,43.72024],[10.9487,43.72021]]},"properties":{}},{"type":"Feature","geometry":{"type":"LineString","coordinates":[[10.94135,43.72123],[10.94179,43.72116],[10.94234,43.72101],[10.94255,43.72101],[10.9436,43.72113]]},"properties":{}},{"type":"Feature","geometry":{"type":"LineString","coordinates":[[10.95851,43.72104],[10.95843,43.72108],[10.95829,43.72105],[10.95824,43.72099],[10.95824,43.72092],[10.95835,43.72086],[10.95849,43.72088],[10.95854,43.72094],[10.95851,43.72104]]},"properties":{}},{"type":"Feature","geometry":{"type":"LineString","coordinates":[[10.95849,43.72088],[10.95861,43.72092],[10.95893,43.72093],[10.95873,43.72096],[10.95847,43.72107]]},"properties":{}},{"type":"Feature","geometry":{"type":"LineString","coordinates":[[10.96518,43.72101],[10.96582,43.72102],[10.96609,43.72092]]},"properties":{}},{"type":"Feature","geometry":{"type":"LineString","coordinates":[[10.9662,43.72112],[10.96603,43.72107],[10.96563,43.72109],[10.96518,43.72101]]},"properties":{}},{"type":"Feature","geometry":{"type":"LineString","coordinates":[[10.95427,43.72032],[10.95412,43.72086],[10.95389,43.72196]]},"properties":{}},{"type":"Feature","geometry":{"type":"LineString","coordinates":[[10.95401,43.72136],[10.953,43.72124]]},"properties":{}},{"type":"Feature","geometry":{"type":"LineString","coordinates":[[10.9746,43.72143],[10.97488,43.72143],[10.97562,43.72132]]},"properties":{}},{"type":"Feature","geometry":{"type":"LineString","coordinates":[[10.97562,43.72132],[10.97495,43.72154],[10.97474,43.72166]]},"properties":{}},{"type":"Feature","geometry":{"type":"LineString","coordinates":[[10.9743,43.72169],[10.97426,43.7216],[10.97428,43.72154],[10.97437,43.72145],[10.97444,43.72143],[10.9746,43.72143],[10.97467,43.72146],[10.97475,43.72156],[10.97474,43.72166],[10.97463,43.72176],[10.97444,43.72177],[10.9743,43.72169]]},"properties":{}},{"type":"Feature","geometry":{"type":"LineString","coordinates":[[10.95758,43.72224],[10.95087,43.72168],[10.95087,43.7213],[10.95082,43.7213]]},"properties":{}},{"type":"Feature","geometry":{"type":"LineString","coordinates":[[10.95082,43.7213],[10.95075,43.72131],[10.95076,43.7216],[10.95072,43.72163],[10.94958,43.72151]]},"properties":{}},{"type":"Feature","geometry":{"type":"LineString","coordinates":[[10.94958,43.72151],[10.94879,43.72146]]},"properties":{}},{"type":"Feature","geometry":{"type":"LineString","coordinates":[[10.94873,43.72144],[10.94864,43.72145],[10.94862,43.72163],[10.94857,43.72168]]},"properties":{}},{"type":"Feature","geometry":{"type":"LineString","coordinates":[[10.94342,43.7216],[10.94341,43.72169],[10.94102,43.72157],[10.94097,43.72161],[10.94088,43.72177]]},"properties":{}},{"type":"Feature","geometry":{"type":"LineString","coordinates":[[10.94857,43.72168],[10.94869,43.72175]]},"properties":{}},{"type":"Feature","geometry":{"type":"LineString","coordinates":[[10.93918,43.72171],[10.93918,43.72185]]},"properties":{}},{"type":"Feature","geometry":{"type":"LineString","coordinates":[[10.93919,43.72194],[10.94009,43.72171]]},"properties":{}},{"type":"Feature","geometry":{"type":"LineString","coordinates":[[10.94803,43.72235],[10.94879,43.72177]]},"properties":{}},{"type":"Feature","geometry":{"type":"LineString","coordinates":[[10.94861,43.7219],[10.94911,43.72238]]},"properties":{}},{"type":"Feature","geometry":{"type":"LineString","coordinates":[[10.94333,43.72232],[10.94341,43.72208]]},"properties":{}},{"type":"Feature","geometry":{"type":"LineString","coordinates":[[10.93919,43.72194],[10.93823,43.72241],[10.93801,43.72248]]},"properties":{}},{"type":"Feature","geometry":{"type":"LineString","coordinates":[[10.94821,43.72216],[10.94865,43.72255]]},"properties":{}},{"type":"Feature","geometry":{"type":"LineString","coordinates":[[10.94865,43.72255],[10.94873,43.72261],[10.9493,43.72227]]},"properties":{}},{"type":"Feature","geometry":{"type":"LineString","coordinates":[[10.94957,43.72249],[10.94969,43.72245]]},"properties":{}},{"type":"Feature","geometry":{"type":"LineString","coordinates":[[10.93801,43.72248],[10.93729,43.72261],[10.93717,43.72259]]},"properties":{}},{"type":"Feature","geometry":{"type":"LineString","coordinates":[[10.94857,43.72168],[10.94782,43.72236],[10.94754,43.7224],[10.94744,43.72227],[10.94739,43.72227],[10.94733,43.72237],[10.94719,43.72246],[10.94719,43.72261],[10.94712,43.72273],[10.94631,43.72357]]},"properties":{}},{"type":"Feature","geometry":{"type":"LineString","coordinates":[[10.94439,43.72266],[10.94444,43.7226]]},"properties":{}},{"type":"Feature","geometry":{"type":"LineString","coordinates":[[10.9479,43.72229],[10.94803,43.72235],[10.94792,43.72247],[10.94795,43.72257],[10.94804,43.72264],[10.94777,43.7227],[10.94758,43.72286],[10.94763,43.72299]]},"properties":{}},{"type":"Feature","geometry":{"type":"LineString","coordinates":[[10.94009,43.72171],[10.94046,43.72169],[10.94075,43.72174],[10.94258,43.72212],[10.94376,43.72243],[10.94439,43.72266],[10.94623,43.72368]]},"properties":{}},{"type":"Feature","geometry":{"type":"LineString","coordinates":[[10.9358,43.72284],[10.93565,43.72285]]},"properties":{}},{"type":"Feature","geometry":{"type":"LineString","coordinates":[[10.95109,43.72418],[10.95102,43.72407],[10.95097,43.72406],[10.9507,43.72409],[10.95035,43.7236],[10.94995,43.7232],[10.95001,43.72289],[10.94974,43.72274],[10.94957,43.72249],[10.94938,43.72236],[10.94911,43.72203],[10.94897,43.72195],[10.94884,43.72179],[10.94869,43.72175]]},"properties":{}},{"type":"Feature","geometry":{"type":"LineString","coordinates":[[10.94502,43.72301],[10.94508,43.72297]]},"properties":{}},{"type":"Feature","geometry":{"type":"LineString","coordinates":[[10.92894,43.72317],[10.92887,43.72319],[10.92877,43.72318],[10.92873,43.72313],[10.92873,43.72307],[10.92882,43.72302],[10.92892,43.72303],[10.92897,43.72309],[10.92894,43.72317]]},"properties":{}},{"type":"Feature","geometry":{"type":"LineString","coordinates":[[10.94566,43.72337],[10.94571,43.72333]]},"properties":{}},{"type":"Feature","geometry":{"type":"LineString","coordinates":[[10.94763,43.72299],[10.94693,43.7237],[10.94692,43.72383]]},"properties":{}},{"type":"Feature","geometry":{"type":"LineString","coordinates":[[10.94662,43.72352],[10.94685,43.7234]]},"properties":{}},{"type":"Feature","geometry":{"type":"LineString","coordinates":[[10.94685,43.7234],[10.94679,43.7235],[10.94678,43.72359]]},"properties":{}},{"type":"Feature","geometry":{"type":"LineString","coordinates":[[10.94631,43.72357],[10.94623,43.72368]]},"properties":{}},{"type":"Feature","geometry":{"type":"LineString","coordinates":[[10.94675,43.72356],[10.9468,43.72365],[10.94673,43.72375],[10.94655,43.72376],[10.94645,43.72368],[10.94647,43.72358],[10.94656,43.72353],[10.94667,43.72352],[10.94675,43.72356]]},"properties":{}},{"type":"Feature","geometry":{"type":"LineString","coordinates":[[10.94639,43.72382],[10.94638,43.72375],[10.94623,43.72368]]},"properties":{}},{"type":"Feature","geometry":{"type":"LineString","coordinates":[[10.9466,43.72377],[10.94648,43.72386]]},"properties":{}},{"type":"Feature","geometry":{"type":"LineString","coordinates":[[10.94692,43.72383],[10.94679,43.72392]]},"properties":{}},{"type":"Feature","geometry":{"type":"LineString","coordinates":[[10.94679,43.72392],[10.94668,43.72387],[10.94657,43.7239]]},"properties":{}},{"type":"Feature","geometry":{"type":"LineString","coordinates":[[10.92867,43.72391],[10.92877,43.72394]]},"properties":{}},{"type":"Feature","geometry":{"type":"LineString","coordinates":[[10.92934,43.72506],[10.9296,43.7247],[10.9298,43.72465],[10.93008,43.72465],[10.9317,43.72402],[10.93321,43.72337],[10.93408,43.72306],[10.93476,43.72285],[10.93547,43.7228],[10.93565,43.72285]]},"properties":{}},{"type":"Feature","geometry":{"type":"LineString","coordinates":[[10.94559,43.72463],[10.94639,43.72382]]},"properties":{}},{"type":"Feature","geometry":{"type":"LineString","coordinates":[[10.92915,43.72514],[10.92898,43.72506],[10.92894,43.72499],[10.9289,43.72476],[10.92888,43.72414],[10.92877,43.724],[10.92877,43.72394],[10.92888,43.72355],[10.92891,43.72334],[10.92882,43.72334]]},"properties":{}},{"type":"Feature","geometry":{"type":"LineString","coordinates":[[10.94657,43.7239],[10.94576,43.72471]]},"properties":{}},{"type":"Feature","geometry":{"type":"LineString","coordinates":[[10.9449,43.72438],[10.94533,43.72461]]},"properties":{}},{"type":"Feature","geometry":{"type":"LineString","coordinates":[[10.94527,43.72464],[10.94535,43.72457]]},"properties":{}},{"type":"Feature","geometry":{"type":"LineString","coordinates":[[10.94535,43.72457],[10.94553,43.72466],[10.94559,43.72463]]},"properties":{}},{"type":"Feature","geometry":{"type":"LineString","coordinates":[[10.94533,43.72461],[10.94555,43.7247]]},"properties":{}},{"type":"Feature","geometry":{"type":"LineString","coordinates":[[10.94545,43.72475],[10.94533,43.72461]]},"properties":{}},{"type":"Feature","geometry":{"type":"LineString","coordinates":[[10.92628,43.72455],[10.92635,43.72477],[10.92649,43.72493]]},"properties":{}},{"type":"Feature","geometry":{"type":"LineString","coordinates":[[10.92616,43.72474],[10.92635,43.72477]]},"properties":{}},{"type":"Feature","geometry":{"type":"LineString","coordinates":[[10.94576,43.72471],[10.94574,43.72478],[10.94594,43.72488]]},"properties":{}},{"type":"Feature","geometry":{"type":"LineString","coordinates":[[10.92628,43.72486],[10.92616,43.72474]]},"properties":{}},{"type":"Feature","geometry":{"type":"LineString","coordinates":[[10.92627,43.72485],[10.92605,43.72489]]},"properties":{}},{"type":"Feature","geometry":{"type":"LineString","coordinates":[[10.92649,43.72493],[10.92628,43.72486]]},"properties":{}},{"type":"Feature","geometry":{"type":"LineString","coordinates":[[10.94594,43.72488],[10.94582,43.72497]]},"properties":{}},{"type":"Feature","geometry":{"type":"LineString","coordinates":[[10.93966,43.72505],[10.93961,43.72517],[10.93945,43.72521],[10.93932,43.72517],[10.93926,43.72509],[10.93929,43.72499],[10.9394,43.72493],[10.93954,43.72494],[10.9396,43.72497],[10.93966,43.72505]]},"properties":{}},{"type":"Feature","geometry":{"type":"LineString","coordinates":[[10.92917,43.72513],[10.92934,43.72506]]},"properties":{}},{"type":"Feature","geometry":{"type":"LineString","coordinates":[[10.94532,43.72517],[10.9451,43.72504]]},"properties":{}},{"type":"Feature","geometry":{"type":"LineString","coordinates":[[10.9291,43.72517],[10.92917,43.72513]]},"properties":{}},{"type":"Feature","geometry":{"type":"LineString","coordinates":[[10.92908,43.72519],[10.92912,43.72518]]},"properties":{}},{"type":"Feature","geometry":{"type":"LineString","coordinates":[[10.95109,43.72418],[10.95112,43.72423],[10.95129,43.72427],[10.95159,43.72456],[10.95178,43.72476],[10.95178,43.7248],[10.952,43.72507],[10.95169,43.72565],[10.95136,43.72645],[10.95135,43.72656]]},"properties":{}},{"type":"Feature","geometry":{"type":"LineString","coordinates":[[10.9446,43.72569],[10.94443,43.72545]]},"properties":{}},{"type":"Feature","geometry":{"type":"LineString","coordinates":[[10.92508,43.72562],[10.92522,43.7258]]},"properties":{}},{"type":"Feature","geometry":{"type":"LineString","coordinates":[[10.92509,43.72581],[10.92508,43.72562]]},"properties":{}},{"type":"Feature","geometry":{"type":"LineString","coordinates":[[10.92538,43.7255],[10.92522,43.7258],[10.92526,43.72596]]},"properties":{}},{"type":"Feature","geometry":{"type":"LineString","coordinates":[[10.95414,43.72415],[10.95436,43.7241]]},"properties":{}},{"type":"Feature","geometry":{"type":"LineString","coordinates":[[10.95431,43.72423],[10.95436,43.7241]]},"properties":{}},{"type":"Feature","geometry":{"type":"LineString","coordinates":[[10.96719,43.72429],[10.96706,43.7242]]},"properties":{}},{"type":"Feature","geometry":{"type":"LineString","coordinates":[[10.9706,43.72162],[10.97059,43.72166],[10.97077,43.72176],[10.97075,43.72193],[10.97059,43.72214],[10.97032,43.72232],[10.96983,43.7225],[10.96906,43.72267],[10.96872,43.72281],[10.96839,43.72299],[10.9682,43.72297],[10.96816,43.72304],[10.96824,43.72308],[10.96824,43.72311],[10.96809,43.72324],[10.96782,43.72358],[10.96741,43.72422],[10.96731,43.72432],[10.96719,43.72429],[10.96708,43.72436],[10.96711,43.7244],[10.96711,43.72446],[10.96705,43.72456],[10.96676,43.72476],[10.96635,43.72492],[10.96597,43.72502],[10.96523,43.72517],[10.96509,43.72512],[10.96495,43.72517],[10.96497,43.72521],[10.96494,43.72523],[10.9645,43.72538],[10.96424,43.72552],[10.96346,43.72612],[10.96338,43.72616],[10.96333,43.72613],[10.96323,43.72618],[10.96326,43.72622],[10.96324,43.72627],[10.96269,43.72654],[10.96212,43.72678],[10.96122,43.72689],[10.96112,43.72685],[10.96105,43.72675],[10.96098,43.72676]]},"properties":{}},{"type":"Feature","geometry":{"type":"LineString","coordinates":[[10.9611,43.72723],[10.96133,43.72716],[10.96138,43.72706],[10.96136,43.72699]]},"properties":{}},{"type":"Feature","geometry":{"type":"LineString","coordinates":[[10.95221,43.72738],[10.95242,43.72761]]},"properties":{}},{"type":"Feature","geometry":{"type":"LineString","coordinates":[[10.96126,43.7281],[10.96109,43.72713]]},"properties":{}},{"type":"Feature","geometry":{"type":"LineString","coordinates":[[10.96059,43.72868],[10.96073,43.72867],[10.96083,43.72862],[10.96098,43.72833],[10.96119,43.7282],[10.96126,43.7281]]},"properties":{}},{"type":"Feature","geometry":{"type":"LineString","coordinates":[[10.96075,43.73096],[10.96055,43.73074]]},"properties":{}},{"type":"Feature","geometry":{"type":"LineString","coordinates":[[10.95952,43.731],[10.95957,43.7309],[10.95967,43.7309],[10.96045,43.73097],[10.96051,43.73098],[10.96057,43.73104]]},"properties":{}},{"type":"Feature","geometry":{"type":"LineString","coordinates":[[10.92263,43.72634],[10.92244,43.7261],[10.92201,43.72529],[10.92166,43.72531],[10.92152,43.72514]]},"properties":{}},{"type":"Feature","geometry":{"type":"LineString","coordinates":[[10.92509,43.72581],[10.92493,43.72574],[10.92473,43.72572]]},"properties":{}},{"type":"Feature","geometry":{"type":"LineString","coordinates":[[10.92665,43.72653],[10.92685,43.72634],[10.927,43.72628],[10.92716,43.72627],[10.92734,43.72613],[10.92885,43.72536],[10.9291,43.72517]]},"properties":{}},{"type":"Feature","geometry":{"type":"LineString","coordinates":[[10.92526,43.72596],[10.92509,43.72581]]},"properties":{}},{"type":"Feature","geometry":{"type":"LineString","coordinates":[[10.94315,43.7261],[10.94319,43.72629]]},"properties":{}},{"type":"Feature","geometry":{"type":"LineString","coordinates":[[10.94582,43.72497],[10.94573,43.72492],[10.94555,43.72493],[10.94512,43.72537],[10.94485,43.72559],[10.94328,43.72613],[10.94322,43.72619],[10.94323,43.72629],[10.9432,43.72631],[10.94314,43.72631],[10.94299,43.72621],[10.94157,43.72665],[10.9415,43.72666],[10.94141,43.72661],[10.94083,43.72678],[10.94086,43.72685],[10.93931,43.72733],[10.9387,43.72748]]},"properties":{}},{"type":"Feature","geometry":{"type":"LineString","coordinates":[[10.94319,43.72629],[10.943,43.72614]]},"properties":{}},{"type":"Feature","geometry":{"type":"LineString","coordinates":[[10.9265,43.72658],[10.92665,43.72653]]},"properties":{}},{"type":"Feature","geometry":{"type":"LineString","coordinates":[[10.95135,43.72656],[10.95177,43.72694]]},"properties":{}},{"type":"Feature","geometry":{"type":"LineString","coordinates":[[10.93088,43.72926],[10.93094,43.72931],[10.93138,43.72924],[10.93145,43.72927],[10.93255,43.72902],[10.93265,43.72897],[10.93319,43.72888],[10.93427,43.72859],[10.93454,43.72847],[10.9364,43.72791],[10.93641,43.72785],[10.93746,43.72753],[10.93767,43.72751],[10.93785,43.72741],[10.93793,43.72733],[10.93817,43.72725],[10.93833,43.72727],[10.9429,43.72588],[10.94302,43.72587],[10.94462,43.72541],[10.94476,43.72536],[10.94499,43.72515],[10.94534,43.7248],[10.94533,43.72471],[10.94527,43.72464]]},"properties":{}},{"type":"Feature","geometry":{"type":"LineString","coordinates":[[10.99685,43.72593],[10.99703,43.72602],[11.0,43.72589]]},"properties":{}},{"type":"Feature","geometry":{"type":"LineString","coordinates":[[10.76676,43.69507],[10.76682,43.69515]]},"properties":{}},{"type":"Feature","geometry":{"type":"LineString","coordinates":[[10.76682,43.69515],[10.76708,43.69546],[10.76789,43.69656],[10.76806,43.69675]]},"properties":{}},{"type":"Feature","geometry":{"type":"LineString","coordinates":[[10.76806,43.69666],[10.76806,43.69675]]},"properties":{}},{"type":"Feature","geometry":{"type":"LineString","coordinates":[[10.76806,43.69675],[10.76825,43.69716],[10.76892,43.6983],[10.76925,43.69878],[10.76936,43.69886]]},"properties":{}},{"type":"Feature","geometry":{"type":"LineString","coordinates":[[10.76936,43.69886],[10.76953,43.69891]]},"properties":{}},{"type":"Feature","geometry":{"type":"LineString","coordinates":[[10.76936,43.69886],[10.76949,43.69902]]},"properties":{}},{"type":"Feature","geometry":{"type":"LineString","coordinates":[[10.76949,43.69902],[10.76954,43.6991]]},"properties":{}},{"type":"Feature","geometry":{"type":"LineString","coordinates":[[10.76954,43.6991],[10.76957,43.69918]]},"properties":{}},{"type":"Feature","geometry":{"type":"LineString","coordinates":[[10.76957,43.69918],[10.76949,43.69921]]},"properties":{}},{"type":"Feature","geometry":{"type":"LineString","coordinates":[[10.76949,43.69921],[10.77002,43.6999],[10.77027,43.70014],[10.77032,43.70013]]},"properties":{}},{"type":"Feature","geometry":{"type":"LineString","coordinates":[[10.78362,43.71091],[10.78373,43.71091],[10.78382,43.71095],[10.78386,43.71103],[10.78382,43.7111],[10.78368,43.71115],[10.78354,43.71109],[10.78352,43.71099],[10.78362,43.71091]]},"properties":{}},{"type":"Feature","geometry":{"type":"LineString","coordinates":[[10.78232,43.71276],[10.78098,43.71218],[10.78018,43.71157]]},"properties":{}},{"type":"Feature","geometry":{"type":"LineString","coordinates":[[10.78585,43.71438],[10.78379,43.71339],[10.7825,43.71283],[10.78242,43.71276],[10.78239,43.71266]]},"properties":{}},{"type":"Feature","geometry":{"type":"LineString","coordinates":[[10.78075,43.71489],[10.78388,43.71647]]},"properties":{}},{"type":"Feature","geometry":{"type":"LineString","coordinates":[[10.80443,43.72212],[10.80471,43.72232],[10.80498,43.72246],[10.80794,43.72323]]},"properties":{}},{"type":"Feature","geometry":{"type":"LineString","coordinates":[[10.80301,43.72357],[10.80307,43.72352],[10.80301,43.72348],[10.80301,43.72344],[10.8036,43.72288],[10.80373,43.72288],[10.80377,43.72283]]},"properties":{}},{"type":"Feature","geometry":{"type":"LineString","coordinates":[[10.79957,43.72542],[10.79878,43.72489],[10.79909,43.72417],[10.79931,43.72404],[10.79969,43.72371]]},"properties":{}},{"type":"Feature","geometry":{"type":"LineString","coordinates":[[10.80137,43.72651],[10.80023,43.72603],[10.80042,43.72581],[10.79957,43.72542]]},"properties":{}},{"type":"Feature","geometry":{"type":"LineString","coordinates":[[10.80603,43.72718],[10.80592,43.72718],[10.80413,43.72626],[10.8038,43.72612],[10.80234,43.72566],[10.80118,43.72706]]},"properties":{}},{"type":"Feature","geometry":{"type":"LineString","coordinates":[[10.80145,43.72655],[10.80137,43.72651]]},"properties":{}},{"type":"Feature","geometry":{"type":"LineString","coordinates":[[10.76885,43.70701],[10.76881,43.70699],[10.76902,43.7067],[10.76904,43.70653],[10.76921,43.70649],[10.76933,43.7065],[10.76977,43.70671],[10.7697,43.70678]]},"properties":{}},{"type":"Feature","geometry":{"type":"LineString","coordinates":[[10.77924,43.71125],[10.77872,43.71097],[10.77486,43.70915]]},"properties":{}},{"type":"Feature","geometry":{"type":"LineString","coordinates":[[10.77486,43.70915],[10.77292,43.70827],[10.77285,43.70829],[10.77235,43.70808],[10.7722,43.70797],[10.7697,43.70678],[10.76942,43.70707],[10.77027,43.70934],[10.77087,43.7107],[10.77098,43.71079],[10.77261,43.71158],[10.77379,43.71027],[10.77486,43.70915]]},"properties":{}},{"type":"Feature","geometry":{"type":"LineString","coordinates":[[10.77496,43.70916],[10.77305,43.71119],[10.77263,43.71166]]},"properties":{}},{"type":"Feature","geometry":{"type":"LineString","coordinates":[[10.76083,43.73327],[10.76073,43.73336]]},"properties":{}},{"type":"Feature","geometry":{"type":"LineString","coordinates":[[10.76073,43.73336],[10.75973,43.73413]]},"properties":{}},{"type":"Feature","geometry":{"type":"LineString","coordinates":[[10.75973,43.73413],[10.75917,43.73454]]},"properties":{}},{"type":"Feature","geometry":{"type":"LineString","coordinates":[[10.75917,43.73454],[10.75885,43.73476],[10.75865,43.735],[10.75808,43.73622],[10.75743,43.7375],[10.75733,43.73795],[10.75728,43.73838],[10.7573,43.73936],[10.7572,43.73972],[10.75708,43.73986],[10.75693,43.73993],[10.75672,43.73995],[10.7563,43.73994],[10.75612,43.74],[10.75605,43.74009],[10.75602,43.74018],[10.75606,43.74154],[10.75594,43.7417],[10.75557,43.74204],[10.75508,43.74242],[10.75385,43.74287],[10.75376,43.74295],[10.75375,43.74327],[10.75381,43.74358],[10.75398,43.7437],[10.7545,43.74384],[10.75457,43.74388],[10.75467,43.74402],[10.75468,43.74408],[10.75455,43.74445]]},"properties":{}},{"type":"Feature","geometry":{"type":"LineString","coordinates":[[10.76631,43.74163],[10.76688,43.74164],[10.76706,43.74167],[10.76725,43.74174],[10.7682,43.74222]]},"properties":{}},{"type":"Feature","geometry":{"type":"LineString","coordinates":[[10.76954,43.74441],[10.76936,43.74418],[10.76927,43.74396],[10.76905,43.74317],[10.7687,43.7427],[10.7682,43.74222]]},"properties":{}},{"type":"Feature","geometry":{"type":"LineString","coordinates":[[10.76963,43.74446],[10.76954,43.74441]]},"properties":{}},{"type":"Feature","geometry":{"type":"LineString","coordinates":[[10.80148,43.72657],[10.80145,43.72655]]},"properties":{}},{"type":"Feature","geometry":{"type":"LineString","coordinates":[[10.80152,43.7266],[10.80148,43.72657]]},"properties":{}},{"type":"Feature","geometry":{"type":"LineString","coordinates":[[10.80154,43.72662],[10.80152,43.7266]]},"properties":{}},{"type":"Feature","geometry":{"type":"LineString","coordinates":[[10.80216,43.73282],[10.80222,43.73294]]},"properties":{}},{"type":"Feature","geometry":{"type":"LineString","coordinates":[[10.80229,43.73306],[10.80204,43.73287]]},"properties":{}},{"type":"Feature","geometry":{"type":"LineString","coordinates":[[10.80222,43.73294],[10.80229,43.73306]]},"properties":{}},{"type":"Feature","geometry":{"type":"LineString","coordinates":[[10.79871,43.73399],[10.79877,43.73407]]},"properties":{}},{"type":"Feature","geometry":{"type":"LineString","coordinates":[[10.8067,43.73406],[10.80664,43.73411]]},"properties":{}},{"type":"Feature","geometry":{"type":"LineString","coordinates":[[10.80701,43.7342],[10.80693,43.73415]]},"properties":{}},{"type":"Feature","geometry":{"type":"LineString","coordinates":[[10.80691,43.73427],[10.80683,43.73427],[10.80664,43.73411]]},"properties":{}},{"type":"Feature","geometry":{"type":"LineString","coordinates":[[10.80029,43.73356],[10.79977,43.73374],[10.7997,43.73373],[10.79962,43.73379],[10.79901,43.73402],[10.79886,43.73404],[10.79855,43.73419],[10.79689,43.73477],[10.7965,43.73485]]},"properties":{}},{"type":"Feature","geometry":{"type":"LineString","coordinates":[[10.80704,43.73425],[10.80701,43.7342]]},"properties":{}},{"type":"Feature","geometry":{"type":"LineString","coordinates":[[10.807,43.73423],[10.80691,43.73427]]},"properties":{}},{"type":"Feature","geometry":{"type":"LineString","coordinates":[[10.80754,43.73466],[10.80704,43.73425]]},"properties":{}},{"type":"Feature","geometry":{"type":"LineString","coordinates":[[10.79646,43.73479],[10.79645,43.73476]]},"properties":{}},{"type":"Feature","geometry":{"type":"LineString","coordinates":[[10.7965,43.73485],[10.79646,43.73479]]},"properties":{}},{"type":"Feature","geometry":{"type":"LineString","coordinates":[[10.79573,43.73505],[10.79579,43.73499],[10.79585,43.73482]]},"properties":{}},{"type":"Feature","geometry":{"type":"LineString","coordinates":[[10.79565,43.73509],[10.79553,43.73513]]},"properties":{}},{"type":"Feature","geometry":{"type":"LineString","coordinates":[[10.79553,43.73513],[10.79534,43.73521]]},"properties":{}},{"type":"Feature","geometry":{"type":"LineString","coordinates":[[10.79534,43.73521],[10.79524,43.73525]]},"properties":{}},{"type":"Feature","geometry":{"type":"LineString","coordinates":[[10.8188,43.71236],[10.81869,43.7125]]},"properties":{}},{"type":"Feature","geometry":{"type":"LineString","coordinates":[[10.81869,43.7125],[10.81816,43.71328],[10.81788,43.71347]]},"properties":{}},{"type":"Feature","geometry":{"type":"LineString","coordinates":[[10.80867,43.73561],[10.80879,43.7356],[10.80887,43.73565],[10.81408,43.73976],[10.81716,43.74211],[10.81804,43.74283],[10.81836,43.74316],[10.81853,43.74338],[10.81849,43.74353]]},"properties":{}},{"type":"Feature","geometry":{"type":"LineString","coordinates":[[10.82061,43.75],[10.81907,43.74508],[10.81895,43.74455],[10.81849,43.74353],[10.81825,43.74323],[10.81775,43.74273],[10.80839,43.7354]]},"properties":{}},{"type":"Feature","geometry":{"type":"LineString","coordinates":[[10.79524,43.73525],[10.79099,43.73676]]},"properties":{}},{"type":"Feature","geometry":{"type":"LineString","coordinates":[[10.79099,43.73676],[10.79086,43.73681]]},"properties":{}},{"type":"Feature","geometry":{"type":"LineString","coordinates":[[10.79086,43.73681],[10.79027,43.73702]]},"properties":{}},{"type":"Feature","geometry":{"type":"LineString","coordinates":[[10.79027,43.73702],[10.79014,43.73707]]},"properties":{}},{"type":"Feature","geometry":{"type":"LineString","coordinates":[[10.79014,43.73707],[10.78698,43.7382]]},"properties":{}},{"type":"Feature","geometry":{"type":"LineString","coordinates":[[10.78698,43.7382],[10.78689,43.73823]]},"properties":{}},{"type":"Feature","geometry":{"type":"LineString","coordinates":[[10.78689,43.73823],[10.78562,43.73868]]},"properties":{}},{"type":"Feature","geometry":{"type":"LineString","coordinates":[[10.78562,43.73868],[10.78557,43.7387]]},"properties":{}},{"type":"Feature","geometry":{"type":"LineString","coordinates":[[10.99158,43.74565],[10.99172,43.7457],[10.99245,43.74566],[10.99291,43.74552],[10.9932,43.74534],[10.99878,43.73947],[10.99941,43.73908],[11.0,43.73883]]},"properties":{}},{"type":"Feature","geometry":{"type":"LineString","coordinates":[[10.95945,43.73099],[10.95952,43.731]]},"properties":{}},{"type":"Feature","geometry":{"type":"LineString","coordinates":[[10.96057,43.73104],[10.96075,43.73096]]},"properties":{}},{"type":"Feature","geometry":{"type":"LineString","coordinates":[[10.9582,43.73127],[10.95903,43.73086],[10.95942,43.73088],[10.95945,43.73099]]},"properties":{}},{"type":"Feature","geometry":{"type":"LineString","coordinates":[[10.9582,43.73127],[10.95804,43.73135],[10.95788,43.73136]]},"properties":{}},{"type":"Feature","geometry":{"type":"LineString","coordinates":[[10.96962,43.7364],[10.96887,43.73602],[10.96153,43.7331],[10.96119,43.73295],[10.96099,43.73281],[10.96059,43.73271],[10.95829,43.7316],[10.95788,43.73136],[10.95767,43.73132],[10.95656,43.73079],[10.95547,43.73022],[10.95491,43.72986],[10.95388,43.72911],[10.95359,43.72893],[10.95242,43.72761]]},"properties":{}},{"type":"Feature","geometry":{"type":"LineString","coordinates":[[10.98971,43.74225],[10.9909,43.74175]]},"properties":{}},{"type":"Feature","geometry":{"type":"LineString","coordinates":[[10.98675,43.74424],[10.98653,43.74415],[10.98631,43.74416]]},"properties":{}},{"type":"Feature","geometry":{"type":"LineString","coordinates":[[10.98708,43.74503],[10.98675,43.74424]]},"properties":{}},{"type":"Feature","geometry":{"type":"LineString","coordinates":[[10.92728,43.73026],[10.92695,43.73034]]},"properties":{}},{"type":"Feature","geometry":{"type":"LineString","coordinates":[[10.92695,43.73034],[10.92683,43.73037]]},"properties":{}},{"type":"Feature","geometry":{"type":"LineString","coordinates":[[10.92683,43.73037],[10.92669,43.73038],[10.92422,43.73094],[10.92411,43.73101],[10.92401,43.73099],[10.92309,43.7312],[10.92228,43.73134],[10.92162,43.73141],[10.91885,43.7315]]},"properties":{}},{"type":"Feature","geometry":{"type":"LineString","coordinates":[[10.91885,43.7315],[10.91552,43.73161],[10.91503,43.73164],[10.91479,43.73171]]},"properties":{}},{"type":"Feature","geometry":{"type":"LineString","coordinates":[[10.88435,43.72102],[10.88424,43.72096]]},"properties":{}},{"type":"Feature","geometry":{"type":"LineString","coordinates":[[10.88443,43.72137],[10.88434,43.72125],[10.88439,43.72107],[10.88435,43.72102]]},"properties":{}},{"type":"Feature","geometry":{"type":"LineString","coordinates":[[10.88443,43.72137],[10.88644,43.72271]]},"properties":{}},{"type":"Feature","geometry":{"type":"LineString","coordinates":[[10.88644,43.72271],[10.88674,43.72313],[10.88688,43.72326],[10.88723,43.72351],[10.88779,43.72383]]},"properties":{}},{"type":"Feature","geometry":{"type":"LineString","coordinates":[[10.88779,43.72383],[10.88834,43.72425],[10.88925,43.72502],[10.89075,43.72646],[10.89087,43.72666],[10.89099,43.72694],[10.89193,43.72848],[10.89286,43.72973],[10.89303,43.73005],[10.89394,43.73107],[10.8946,43.73168]]},"properties":{}},{"type":"Feature","geometry":{"type":"LineString","coordinates":[[10.8946,43.73168],[10.89471,43.73182]]},"properties":{}},{"type":"Feature","geometry":{"type":"LineString","coordinates":[[10.89471,43.73182],[10.89483,43.73195],[10.89505,43.73212]]},"properties":{}},{"type":"Feature","geometry":{"type":"LineString","coordinates":[[10.89505,43.73212],[10.89569,43.73281],[10.89606,43.73313],[10.89664,43.73354],[10.89711,43.73378],[10.89827,43.73425],[10.8987,43.73433],[10.89962,43.73439],[10.89993,43.73436],[10.90216,43.73361],[10.90451,43.73295],[10.9048,43.73279],[10.90582,43.73234],[10.90637,43.73212],[10.90955,43.73106],[10.91136,43.73012],[10.9116,43.73007]]},"properties":{}},{"type":"Feature","geometry":{"type":"LineString","coordinates":[[10.91479,43.73171],[10.91462,43.73172],[10.90976,43.73258],[10.90938,43.73268],[10.90879,43.73291],[10.90785,43.73341]]},"properties":{}}]}