{"type":"FeatureCollection","features":[{"type":"Feature","geometry":{"type":"LineString","coordinates":[[10.80015,46.3133],[10.80056,46.31331],[10.80064,46.31334],[10.80062,46.31349]]},"properties":{}},{"type":"Feature","geometry":{"type":"LineString","coordinates":[[10.80062,46.31349],[10.80076,46.31358],[10.80376,46.31388],[10.80441,46.31396],[10.80512,46.31412]]},"properties":{}},{"type":"Feature","geometry":{"type":"LineString","coordinates":[[10.80512,46.31412],[10.80533,46.31414]]},"properties":{}},{"type":"Feature","geometry":{"type":"LineString","coordinates":[[10.80533,46.31414],[10.80553,46.31417],[10.80588,46.31429]]},"properties":{}},{"type":"Feature","geometry":{"type":"LineString","coordinates":[[10.75,46.3063],[10.7503,46.30635],[10.75062,46.30647],[10.75219,46.30668],[10.7526,46.3068],[10.75354,46.30682],[10.75372,46.30686]]},"properties":{}},{"type":"Feature","geometry":{"type":"LineString","coordinates":[[10.75372,46.30686],[10.75382,46.30701],[10.75386,46.30742],[10.75391,46.30759]]},"properties":{}},{"type":"Feature","geometry":{"type":"LineString","coordinates":[[10.87712,46.32896],[10.87739,46.32903]]},"properties":{}},{"type":"Feature","geometry":{"type":"LineString","coordinates":[[10.87739,46.32903],[10.88401,46.33097],[10.88452,46.33109],[10.88803,46.33173],[10.88874,46.33181],[10.88896,46.33188]]},"properties":{}},{"type":"Feature","geometry":{"type":"LineString","coordinates":[[10.8793,46.33104],[10.87807,46.33083]]},"properties":{}},{"type":"Feature","geometry":{"type":"LineString","coordinates":[[10.88896,46.33188],[10.88925,46.3319]]},"properties":{}},{"type":"Feature","geometry":{"type":"LineString","coordinates":[[10.91328,46.34708],[10.91353,46.34747]]},"properties":{}},{"type":"Feature","geometry":{"type":"LineString","coordinates":[[10.85443,46.32112],[10.85472,46.32098]]},"properties":{}},{"type":"Feature","geometry":{"type":"LineString","coordinates":[[10.85433,46.32114],[10.85443,46.32112]]},"properties":{}},{"type":"Feature","geometry":{"type":"LineString","coordinates":[[10.85365,46.32158],[10.85367,46.32149],[10.85416,46.32128],[10.85428,46.32115],[10.85433,46.32114]]},"properties":{}},{"type":"Feature","geometry":{"type":"LineString","coordinates":[[10.85367,46.32186],[10.85365,46.32158]]},"properties":{}},{"type":"Feature","geometry":{"type":"LineString","coordinates":[[10.86083,46.32519],[10.86099,46.325],[10.86133,46.32512],[10.8615,46.32528],[10.86166,46.32531],[10.86181,46.32525],[10.8619,46.32519],[10.86194,46.32509],[10.8619,46.32498],[10.86178,46.32484],[10.86173,46.32464]]},"properties":{}},{"type":"Feature","geometry":{"type":"LineString","coordinates":[[10.86083,46.32519],[10.86105,46.32543]]},"properties":{}},{"type":"Feature","geometry":{"type":"LineString","coordinates":[[10.86154,46.32576],[10.86147,46.32582],[10.86147,46.32586],[10.86164,46.32598],[10.86164,46.32602],[10.86156,46.32605],[10.86145,46.32593],[10.86134,46.32591]]},"properties":{}},{"type":"Feature","geometry":{"type":"LineString","coordinates":[[10.86134,46.32591],[10.86122,46.326]]},"properties":{}},{"type":"Feature","geometry":{"type":"LineString","coordinates":[[10.86122,46.326],[10.8611,46.32611],[10.86114,46.32622],[10.86171,46.32662],[10.86201,46.32674],[10.86258,46.32682],[10.86311,46.327],[10.86332,46.3271],[10.86351,46.32724],[10.86402,46.32776],[10.86414,46.32782],[10.86475,46.32783],[10.8651,46.32777],[10.86599,46.32777],[10.86678,46.32783],[10.86722,46.32793],[10.86901,46.32812],[10.87002,46.32812],[10.87092,46.3283]]},"properties":{}},{"type":"Feature","geometry":{"type":"LineString","coordinates":[[10.87087,46.32863],[10.87092,46.3283]]},"properties":{}},{"type":"Feature","geometry":{"type":"LineString","coordinates":[[10.88801,46.33634],[10.88791,46.33636],[10.88776,46.33634]]},"properties":{}},{"type":"Feature","geometry":{"type":"LineString","coordinates":[[10.88925,46.3319],[10.89107,46.33215],[10.89161,46.33235],[10.89194,46.33242],[10.89357,46.33262],[10.89432,46.33262],[10.89512,46.33274],[10.89613,46.33307],[10.89736,46.33363],[10.89866,46.33453],[10.8988,46.33483],[10.89884,46.3352],[10.89883,46.3358],[10.89924,46.33647],[10.89966,46.33688],[10.90031,46.33734],[10.90041,46.33755],[10.9006,46.33765],[10.90093,46.33774],[10.90148,46.33799],[10.90232,46.33858],[10.90267,46.33879],[10.90281,46.33881],[10.90299,46.33873],[10.90309,46.33876],[10.9047,46.33998],[10.90602,46.34083],[10.9068,46.34126],[10.90724,46.3418]]},"properties":{}},{"type":"Feature","geometry":{"type":"LineString","coordinates":[[10.89791,46.34078],[10.89823,46.34092],[10.89854,46.34118],[10.89871,46.3414],[10.89917,46.34172],[10.90117,46.34287],[10.90138,46.34286]]},"properties":{}},{"type":"Feature","geometry":{"type":"LineString","coordinates":[[10.906,46.34763],[10.90558,46.34687],[10.90528,46.34654],[10.90464,46.34606],[10.90351,46.34487],[10.90313,46.34455],[10.90287,46.34425],[10.90245,46.34395],[10.9023,46.34377],[10.90192,46.34351],[10.90155,46.34313],[10.90016,46.34104],[10.89994,46.34074],[10.89945,46.34027]]},"properties":{}},{"type":"Feature","geometry":{"type":"LineString","coordinates":[[10.90794,46.3412],[10.90803,46.34126],[10.9081,46.34151],[10.90827,46.3429],[10.90837,46.34318],[10.90855,46.34343],[10.90881,46.34365],[10.90908,46.34381],[10.91033,46.34421],[10.91079,46.34446],[10.91112,46.34476],[10.91141,46.34519],[10.91205,46.3463],[10.91245,46.3466],[10.91328,46.34708]]},"properties":{}},{"type":"Feature","geometry":{"type":"LineString","coordinates":[[10.91109,46.34755],[10.91097,46.34756],[10.91088,46.34761]]},"properties":{}},{"type":"Feature","geometry":{"type":"LineString","coordinates":[[10.91053,46.34838],[10.90991,46.34801]]},"properties":{}},{"type":"Feature","geometry":{"type":"LineString","coordinates":[[10.90771,46.34908],[10.9071,46.34883],[10.90678,46.34867],[10.90646,46.34837],[10.90615,46.34796],[10.906,46.34763]]},"properties":{}},{"type":"Feature","geometry":{"type":"LineString","coordinates":[[10.91122,46.34884],[10.911,46.34868]]},"properties":{}},{"type":"Feature","geometry":{"type":"LineString","coordinates":[[10.91068,46.35093],[10.91017,46.35026],[10.90975,46.34989]]},"properties":{}},{"type":"Feature","geometry":{"type":"LineString","coordinates":[[10.9141,46.34757],[10.91353,46.34747]]},"properties":{}},{"type":"Feature","geometry":{"type":"LineString","coordinates":[[10.91277,46.34825],[10.91351,46.34883]]},"properties":{}},{"type":"Feature","geometry":{"type":"LineString","coordinates":[[10.91345,46.35088],[10.91351,46.35081],[10.9138,46.35068],[10.9138,46.35033]]},"properties":{}},{"type":"Feature","geometry":{"type":"LineString","coordinates":[[10.9127,46.35151],[10.91246,46.35121],[10.91273,46.35105]]},"properties":{}},{"type":"Feature","geometry":{"type":"LineString","coordinates":[[10.91328,46.34708],[10.9141,46.34757],[10.91525,46.34818],[10.91673,46.34932],[10.91765,46.34981],[10.91785,46.34988],[10.91832,46.34988],[10.91885,46.34992],[10.91931,46.35001],[10.91995,46.35021],[10.92048,46.3505],[10.92079,46.35086],[10.92132,46.35173],[10.92298,46.35344],[10.923,46.35362],[10.92296,46.35382],[10.92274,46.35416],[10.92271,46.3543],[10.92272,46.35444],[10.92283,46.35477],[10.92346,46.35517],[10.92446,46.35551],[10.92467,46.35548]]},"properties":{}},{"type":"Feature","geometry":{"type":"LineString","coordinates":[[10.9135,46.35265],[10.91335,46.35264],[10.91259,46.35288]]},"properties":{}},{"type":"Feature","geometry":{"type":"LineString","coordinates":[[10.92485,46.35515],[10.92577,46.3545],[10.92673,46.35416],[10.92849,46.35427]]},"properties":{}},{"type":"Feature","geometry":{"type":"LineString","coordinates":[[10.92467,46.35548],[10.92485,46.35515]]},"properties":{}},{"type":"Feature","geometry":{"type":"LineString","coordinates":[[10.93408,46.35798],[10.93604,46.35842],[10.93614,46.35861],[10.93696,46.35908],[10.93729,46.35935],[10.93812,46.35957],[10.9383,46.35957],[10.93844,46.35946],[10.93854,46.35886],[10.93856,46.35881],[10.93867,46.3588],[10.93902,46.35893],[10.93934,46.3591],[10.93972,46.35918],[10.94084,46.35933],[10.94162,46.35936],[10.94196,46.35945],[10.9423,46.35959],[10.94275,46.35998],[10.94298,46.36032],[10.94301,46.36044],[10.94342,46.36055],[10.94349,46.36052],[10.94361,46.36035],[10.94459,46.36053],[10.94489,46.36081],[10.94541,46.36099],[10.94578,46.36144],[10.94612,46.36165]]},"properties":{}},{"type":"Feature","geometry":{"type":"LineString","coordinates":[[10.94671,46.36188],[10.9469,46.36194],[10.94727,46.36213],[10.9476,46.36239]]},"properties":{}},{"type":"Feature","geometry":{"type":"LineString","coordinates":[[10.87355,46.32874],[10.87354,46.32864]]},"properties":{}},{"type":"Feature","geometry":{"type":"LineString","coordinates":[[10.87087,46.32863],[10.87121,46.32867],[10.87227,46.3287],[10.87459,46.3286],[10.87533,46.32859],[10.87603,46.32867],[10.87712,46.32896]]},"properties":{}},{"type":"Feature","geometry":{"type":"LineString","coordinates":[[10.87155,46.32895],[10.87169,46.32912],[10.87175,46.32913],[10.87297,46.32922],[10.87304,46.32917],[10.8731,46.32882],[10.87278,46.32868]]},"properties":{}},{"type":"Feature","geometry":{"type":"LineString","coordinates":[[10.95357,46.36721],[10.95364,46.36725]]},"properties":{}},{"type":"Feature","geometry":{"type":"LineString","coordinates":[[10.95357,46.36721],[10.9536,46.36746],[10.95368,46.36781],[10.95378,46.36803],[10.95396,46.36827],[10.95574,46.36909],[10.95649,46.36959],[10.95648,46.36967]]},"properties":{}},{"type":"Feature","geometry":{"type":"LineString","coordinates":[[10.95648,46.36967],[10.95648,46.3697]]},"properties":{}},{"type":"Feature","geometry":{"type":"LineString","coordinates":[[10.96211,46.37169],[10.96349,46.37204],[10.96444,46.37204],[10.96474,46.37213],[10.96599,46.37289],[10.96636,46.37325],[10.96666,46.37364],[10.96695,46.37431],[10.96738,46.37471],[10.96811,46.37532],[10.96936,46.37628],[10.96979,46.37651],[10.97112,46.37661],[10.97202,46.37676],[10.97264,46.37707],[10.97363,46.37807],[10.97491,46.37903],[10.97547,46.3792],[10.97737,46.37991],[10.978,46.38025],[10.97814,46.38042],[10.97833,46.38053],[10.97898,46.38073],[10.9796,46.38101],[10.9802,46.38154],[10.98059,46.382],[10.98111,46.38278],[10.98176,46.38336],[10.98212,46.3838],[10.98298,46.38417],[10.98481,46.38406],[10.98584,46.38416],[10.98665,46.38429],[10.9871,46.38442],[10.98747,46.38459],[10.98839,46.38519],[10.98997,46.38584],[10.99023,46.38588],[10.9919,46.38593],[10.99263,46.38603],[10.99321,46.38623],[10.99357,46.3863],[10.99397,46.38646],[10.99431,46.38652],[10.99458,46.38661],[10.99534,46.3867],[10.99561,46.38681],[10.9968,46.3871],[10.99786,46.38764],[10.99869,46.3882],[10.99948,46.38849],[10.9997,46.38847],[11.0,46.38854]]},"properties":{}},{"type":"Feature","geometry":{"type":"LineString","coordinates":[[10.81233,46.31582],[10.81251,46.3159],[10.81292,46.31595],[10.81375,46.31643],[10.81379,46.3165],[10.81371,46.3166],[10.81371,46.31667],[10.81383,46.31677],[10.81459,46.31716],[10.81478,46.31735],[10.81534,46.31828],[10.81561,46.3186],[10.8159,46.31883],[10.81623,46.31904],[10.81663,46.31923],[10.81686,46.31928],[10.81741,46.31929]]},"properties":{}},{"type":"Feature","geometry":{"type":"LineString","coordinates":[[10.82698,46.31795],[10.82802,46.31786],[10.82816,46.31789],[10.8284,46.31804],[10.82856,46.31808],[10.82912,46.31816],[10.83064,46.31848],[10.83205,46.31889],[10.83462,46.31941]]},"properties":{}},{"type":"Feature","geometry":{"type":"LineString","coordinates":[[10.83462,46.31941],[10.8347,46.31943]]},"properties":{}},{"type":"Feature","geometry":{"type":"LineString","coordinates":[[10.8347,46.31943],[10.83685,46.3199]]},"properties":{}},{"type":"Feature","geometry":{"type":"LineString","coordinates":[[10.8376,46.32006],[10.83719,46.31974],[10.83692,46.31965],[10.83683,46.31959]]},"properties":{}},{"type":"Feature","geometry":{"type":"LineString","coordinates":[[10.83685,46.3199],[10.8372,46.31996]]},"properties":{}},{"type":"Feature","geometry":{"type":"LineString","coordinates":[[10.82764,46.31904],[10.82792,46.31902],[10.82868,46.31907],[10.832,46.31957],[10.83279,46.31978],[10.83633,46.32093],[10.83667,46.32097]]},"properties":{}},{"type":"Feature","geometry":{"type":"LineString","coordinates":[[10.8372,46.31996],[10.83814,46.32017],[10.83892,46.32037]]},"properties":{}},{"type":"Feature","geometry":{"type":"LineString","coordinates":[[10.84086,46.32006],[10.8406,46.32017],[10.83972,46.32042],[10.83898,46.32026]]},"properties":{}},{"type":"Feature","geometry":{"type":"LineString","coordinates":[[10.83874,46.32032],[10.83882,46.3203],[10.83887,46.32026],[10.83898,46.32026]]},"properties":{}},{"type":"Feature","geometry":{"type":"LineString","coordinates":[[10.75391,46.30759],[10.75422,46.30776],[10.75475,46.30785],[10.75515,46.30821],[10.75523,46.30871]]},"properties":{}},{"type":"Feature","geometry":{"type":"LineString","coordinates":[[10.7696,46.30986],[10.76995,46.30985]]},"properties":{}},{"type":"Feature","geometry":{"type":"LineString","coordinates":[[10.76995,46.30985],[10.77007,46.30987]]},"properties":{}},{"type":"Feature","geometry":{"type":"LineString","coordinates":[[10.76512,46.31013],[10.7663,46.31017],[10.76699,46.31024],[10.76783,46.31014],[10.76863,46.31014],[10.7689,46.3101],[10.7696,46.30986]]},"properties":{}},{"type":"Feature","geometry":{"type":"LineString","coordinates":[[10.77007,46.30987],[10.77027,46.30989],[10.7707,46.31001],[10.77115,46.31027],[10.7722,46.31049],[10.77255,46.3105],[10.77374,46.3104],[10.77448,46.31046],[10.77494,46.31043],[10.77592,46.3102],[10.77653,46.31026],[10.77702,46.31026],[10.77778,46.31036],[10.77893,46.31038],[10.77912,46.31042]]},"properties":{}},{"type":"Feature","geometry":{"type":"LineString","coordinates":[[10.80588,46.31429],[10.80599,46.31432]]},"properties":{}},{"type":"Feature","geometry":{"type":"LineString","coordinates":[[10.80599,46.31432],[10.80642,46.3144],[10.80678,46.31442],[10.80716,46.31434]]},"properties":{}},{"type":"Feature","geometry":{"type":"LineString","coordinates":[[10.83886,46.32072],[10.83992,46.32072]]},"properties":{}},{"type":"Feature","geometry":{"type":"LineString","coordinates":[[10.83667,46.32097],[10.83809,46.32146],[10.83845,46.32148]]},"properties":{}},{"type":"Feature","geometry":{"type":"LineString","coordinates":[[10.83992,46.32072],[10.84051,46.3207],[10.84084,46.32073],[10.84104,46.32065],[10.84141,46.32061],[10.84356,46.32068],[10.84388,46.32073],[10.84544,46.32112],[10.84579,46.32125],[10.84821,46.32244],[10.84867,46.32259],[10.84935,46.32271],[10.85,46.32275],[10.85055,46.3227],[10.85108,46.32256],[10.85184,46.32214],[10.85209,46.32204],[10.85268,46.32193],[10.85364,46.3219],[10.85367,46.32186]]},"properties":{}},{"type":"Feature","geometry":{"type":"LineString","coordinates":[[10.91153,46.35098],[10.91075,46.35101]]},"properties":{}},{"type":"Feature","geometry":{"type":"LineString","coordinates":[[10.91125,46.35137],[10.91075,46.35101]]},"properties":{}},{"type":"Feature","geometry":{"type":"LineString","coordinates":[[10.91153,46.35098],[10.9113,46.3514]]},"properties":{}},{"type":"Feature","geometry":{"type":"LineString","coordinates":[[10.91057,46.35193],[10.91088,46.35167],[10.91138,46.35146]]},"properties":{}},{"type":"Feature","geometry":{"type":"LineString","coordinates":[[10.91239,46.35254],[10.91172,46.35284],[10.91152,46.35298]]},"properties":{}},{"type":"Feature","geometry":{"type":"LineString","coordinates":[[10.9113,46.35315],[10.91109,46.35301],[10.91089,46.35282],[10.91087,46.35275],[10.91101,46.35256]]},"properties":{}},{"type":"Feature","geometry":{"type":"LineString","coordinates":[[10.9476,46.36239],[10.94769,46.36247]]},"properties":{}},{"type":"Feature","geometry":{"type":"LineString","coordinates":[[10.94769,46.36247],[10.94772,46.36261],[10.94753,46.36289],[10.94732,46.36352]]},"properties":{}}]}