{"type":"FeatureCollection","features":[{"type":"Feature","geometry":{"type":"LineString","coordinates":[[10.85033,46.61406],[10.8497,46.61376]]},"properties":{}},{"type":"Feature","geometry":{"type":"LineString","coordinates":[[10.86573,46.62089],[10.86598,46.6209]]},"properties":{}},{"type":"Feature","geometry":{"type":"LineString","coordinates":[[10.84732,46.62104],[10.84755,46.62107]]},"properties":{}},{"type":"Feature","geometry":{"type":"LineString","coordinates":[[10.86315,46.62148],[10.86402,46.62102],[10.86462,46.62086],[10.8651,46.6208],[10.86573,46.62089]]},"properties":{}},{"type":"Feature","geometry":{"type":"LineString","coordinates":[[10.86682,46.62112],[10.86673,46.62122]]},"properties":{}},{"type":"Feature","geometry":{"type":"LineString","coordinates":[[10.84755,46.62107],[10.84857,46.62142]]},"properties":{}},{"type":"Feature","geometry":{"type":"LineString","coordinates":[[10.84857,46.62142],[10.8492,46.62154],[10.84974,46.62155]]},"properties":{}},{"type":"Feature","geometry":{"type":"LineString","coordinates":[[10.96071,46.53109],[10.96156,46.53135],[10.96299,46.53169],[10.96345,46.53187],[10.96387,46.5321],[10.96426,46.53238],[10.96458,46.53269],[10.96542,46.53382]]},"properties":{}},{"type":"Feature","geometry":{"type":"LineString","coordinates":[[10.96542,46.53382],[10.96554,46.53396]]},"properties":{}},{"type":"Feature","geometry":{"type":"LineString","coordinates":[[10.96554,46.53396],[10.96557,46.53399]]},"properties":{}},{"type":"Feature","geometry":{"type":"LineString","coordinates":[[10.95087,46.63994],[10.95883,46.6432],[10.96038,46.6438],[10.96147,46.64428],[10.96383,46.64523],[10.96443,46.64541],[10.96504,46.64552],[10.96536,46.64554]]},"properties":{}},{"type":"Feature","geometry":{"type":"LineString","coordinates":[[11.0,46.64632],[10.99298,46.64851],[10.99227,46.64861],[10.99211,46.64858]]},"properties":{}},{"type":"Feature","geometry":{"type":"LineString","coordinates":[[10.99602,46.65301],[10.99583,46.65296],[10.99547,46.65297],[10.99477,46.65271],[10.9946,46.65259],[10.99448,46.65245],[10.99429,46.65204],[10.99515,46.65126],[10.99527,46.65067]]},"properties":{}},{"type":"Feature","geometry":{"type":"LineString","coordinates":[[10.95499,46.64348],[10.95571,46.64368],[10.95617,46.64367]]},"properties":{}},{"type":"Feature","geometry":{"type":"LineString","coordinates":[[10.96626,46.64501],[10.96623,46.64467],[10.96609,46.64396]]},"properties":{}},{"type":"Feature","geometry":{"type":"LineString","coordinates":[[10.96616,46.64519],[10.96625,46.6451],[10.96626,46.64501]]},"properties":{}},{"type":"Feature","geometry":{"type":"LineString","coordinates":[[10.96755,46.64545],[10.96718,46.64543],[10.96628,46.64525],[10.96616,46.64519]]},"properties":{}},{"type":"Feature","geometry":{"type":"LineString","coordinates":[[10.96607,46.64535],[10.96607,46.64536]]},"properties":{}},{"type":"Feature","geometry":{"type":"LineString","coordinates":[[10.96607,46.64536],[10.96603,46.64557]]},"properties":{}},{"type":"Feature","geometry":{"type":"LineString","coordinates":[[10.96536,46.64554],[10.96592,46.64558]]},"properties":{}},{"type":"Feature","geometry":{"type":"LineString","coordinates":[[10.96603,46.64557],[10.96602,46.64559]]},"properties":{}},{"type":"Feature","geometry":{"type":"LineString","coordinates":[[10.96592,46.64558],[10.96597,46.64558]]},"properties":{}},{"type":"Feature","geometry":{"type":"LineString","coordinates":[[10.96597,46.64558],[10.96602,46.64559]]},"properties":{}},{"type":"Feature","geometry":{"type":"LineString","coordinates":[[10.96607,46.64535],[10.96699,46.64548],[10.96751,46.64561],[10.96813,46.64589],[10.96885,46.6463],[10.96948,46.64656],[10.96978,46.64663],[10.97132,46.64675]]},"properties":{}},{"type":"Feature","geometry":{"type":"LineString","coordinates":[[10.9902,46.64789],[10.98895,46.64769],[10.98884,46.64758],[10.98884,46.64706],[10.98872,46.64696],[10.98862,46.64693],[10.9868,46.64666],[10.98612,46.64662],[10.98571,46.64652],[10.98528,46.64649],[10.98435,46.6462],[10.98249,46.64611],[10.98196,46.64601],[10.9815,46.64596],[10.98099,46.64596],[10.97988,46.64605],[10.97972,46.64604],[10.97924,46.64594],[10.9787,46.64589],[10.97721,46.64551],[10.97677,46.64537],[10.97614,46.64507],[10.97583,46.64497],[10.97485,46.64483],[10.97466,46.64482],[10.97446,46.64487],[10.97418,46.64498],[10.97366,46.64512],[10.97302,46.64516],[10.9719,46.64509],[10.971,46.64491],[10.97089,46.64492],[10.96994,46.64514],[10.96883,46.64528],[10.9681,46.64534],[10.96755,46.64545]]},"properties":{}},{"type":"Feature","geometry":{"type":"LineString","coordinates":[[10.97132,46.64675],[10.97218,46.64675],[10.97265,46.64678],[10.974,46.64701],[10.97487,46.64707]]},"properties":{}},{"type":"Feature","geometry":{"type":"LineString","coordinates":[[10.97672,46.64705],[10.97678,46.64705]]},"properties":{}},{"type":"Feature","geometry":{"type":"LineString","coordinates":[[10.97487,46.64707],[10.97672,46.64705]]},"properties":{}},{"type":"Feature","geometry":{"type":"LineString","coordinates":[[10.97487,46.64707],[10.97487,46.64709]]},"properties":{}},{"type":"Feature","geometry":{"type":"LineString","coordinates":[[10.97108,46.64713],[10.97211,46.64713]]},"properties":{}},{"type":"Feature","geometry":{"type":"LineString","coordinates":[[10.97487,46.64709],[10.97484,46.6474]]},"properties":{}},{"type":"Feature","geometry":{"type":"LineString","coordinates":[[10.97211,46.64713],[10.9727,46.64713],[10.97437,46.6474]]},"properties":{}},{"type":"Feature","geometry":{"type":"LineString","coordinates":[[10.97484,46.6474],[10.97484,46.64742]]},"properties":{}},{"type":"Feature","geometry":{"type":"LineString","coordinates":[[10.97678,46.64705],[10.9794,46.64681],[10.97986,46.64681],[10.98035,46.64685],[10.98102,46.64703],[10.98262,46.64772],[10.98347,46.64797],[10.98392,46.64804],[10.98506,46.64801],[10.98735,46.6478],[10.98812,46.64777],[10.98898,46.64782],[10.99003,46.648]]},"properties":{}},{"type":"Feature","geometry":{"type":"LineString","coordinates":[[10.97437,46.6474],[10.97564,46.64757]]},"properties":{}},{"type":"Feature","geometry":{"type":"LineString","coordinates":[[10.99029,46.6479],[10.9902,46.64789]]},"properties":{}},{"type":"Feature","geometry":{"type":"LineString","coordinates":[[10.99204,46.64809],[10.99149,46.64808],[10.99029,46.6479]]},"properties":{}},{"type":"Feature","geometry":{"type":"LineString","coordinates":[[10.99003,46.648],[10.99013,46.64803]]},"properties":{}},{"type":"Feature","geometry":{"type":"LineString","coordinates":[[10.99013,46.64803],[10.99148,46.6482],[10.992,46.64822]]},"properties":{}},{"type":"Feature","geometry":{"type":"LineString","coordinates":[[10.99206,46.64821],[10.99204,46.64809]]},"properties":{}},{"type":"Feature","geometry":{"type":"LineString","coordinates":[[10.992,46.64822],[10.99206,46.64821]]},"properties":{}},{"type":"Feature","geometry":{"type":"LineString","coordinates":[[10.99205,46.64857],[10.992,46.64822]]},"properties":{}},{"type":"Feature","geometry":{"type":"LineString","coordinates":[[10.98542,46.6484],[10.98536,46.64849],[10.98536,46.64855],[10.98545,46.64863],[10.98562,46.64871]]},"properties":{}},{"type":"Feature","geometry":{"type":"LineString","coordinates":[[10.99205,46.64859],[10.99205,46.64857]]},"properties":{}},{"type":"Feature","geometry":{"type":"LineString","coordinates":[[10.99205,46.64859],[10.99211,46.64858]]},"properties":{}},{"type":"Feature","geometry":{"type":"LineString","coordinates":[[10.99205,46.64861],[10.99205,46.64859]]},"properties":{}},{"type":"Feature","geometry":{"type":"LineString","coordinates":[[10.76746,46.6198],[10.7676,46.61974],[10.76962,46.6196],[10.77041,46.6195],[10.77111,46.61913],[10.77227,46.61801],[10.7724,46.61796],[10.77265,46.61793],[10.77301,46.61784],[10.77348,46.61766],[10.77418,46.6173],[10.77487,46.61684],[10.77527,46.61666],[10.77552,46.61658],[10.77682,46.61628],[10.77758,46.61618],[10.77803,46.6162]]},"properties":{}},{"type":"Feature","geometry":{"type":"LineString","coordinates":[[10.76738,46.62001],[10.76746,46.6198]]},"properties":{}},{"type":"Feature","geometry":{"type":"LineString","coordinates":[[10.76382,46.62083],[10.76492,46.62072],[10.76567,46.62048],[10.76693,46.62013],[10.76728,46.62007],[10.76738,46.62001]]},"properties":{}},{"type":"Feature","geometry":{"type":"LineString","coordinates":[[10.77816,46.62547],[10.77829,46.62542],[10.7784,46.62545]]},"properties":{}},{"type":"Feature","geometry":{"type":"LineString","coordinates":[[10.7784,46.62545],[10.77842,46.62555]]},"properties":{}},{"type":"Feature","geometry":{"type":"LineString","coordinates":[[10.78779,46.61636],[10.7873,46.61628],[10.7865,46.61609],[10.78606,46.61604],[10.78506,46.61601],[10.78465,46.61602],[10.78346,46.61615]]},"properties":{}},{"type":"Feature","geometry":{"type":"LineString","coordinates":[[10.77803,46.6162],[10.77968,46.61626],[10.78181,46.61613],[10.78272,46.61611],[10.78346,46.61615]]},"properties":{}},{"type":"Feature","geometry":{"type":"LineString","coordinates":[[10.78779,46.61636],[10.78812,46.61644],[10.78886,46.61652],[10.78989,46.61654],[10.79029,46.61661],[10.79071,46.61664],[10.79159,46.61661]]},"properties":{}},{"type":"Feature","geometry":{"type":"LineString","coordinates":[[10.79159,46.61661],[10.79186,46.61665],[10.79454,46.61736],[10.7954,46.61749],[10.79689,46.61761],[10.79971,46.61794],[10.80147,46.61805],[10.80365,46.61826],[10.80671,46.61876],[10.80927,46.61892],[10.81065,46.61882],[10.81109,46.61883]]},"properties":{}},{"type":"Feature","geometry":{"type":"LineString","coordinates":[[10.80683,46.62297],[10.80686,46.62287],[10.80692,46.62282],[10.80711,46.6228]]},"properties":{}},{"type":"Feature","geometry":{"type":"LineString","coordinates":[[10.80711,46.6228],[10.80723,46.62286],[10.80726,46.62297]]},"properties":{}},{"type":"Feature","geometry":{"type":"LineString","coordinates":[[10.80726,46.62297],[10.80719,46.62306],[10.80706,46.62309]]},"properties":{}},{"type":"Feature","geometry":{"type":"LineString","coordinates":[[10.80706,46.62309],[10.80691,46.62306],[10.80683,46.62297]]},"properties":{}},{"type":"Feature","geometry":{"type":"LineString","coordinates":[[10.82279,46.60744],[10.82277,46.60736]]},"properties":{}},{"type":"Feature","geometry":{"type":"LineString","coordinates":[[10.8497,46.61376],[10.84939,46.61363],[10.8455,46.61258],[10.84512,46.61242],[10.84462,46.61195],[10.84408,46.61153],[10.84265,46.6108],[10.84122,46.61027],[10.8408,46.61002],[10.84012,46.60941],[10.83934,46.6091],[10.83769,46.60861],[10.83704,46.60832],[10.8363,46.60808]]},"properties":{}},{"type":"Feature","geometry":{"type":"LineString","coordinates":[[10.83982,46.61836],[10.83992,46.61833]]},"properties":{}},{"type":"Feature","geometry":{"type":"LineString","coordinates":[[10.83781,46.61906],[10.83886,46.61872],[10.83982,46.61836]]},"properties":{}},{"type":"Feature","geometry":{"type":"LineString","coordinates":[[10.81109,46.61883],[10.81126,46.61881],[10.81161,46.61884]]},"properties":{}},{"type":"Feature","geometry":{"type":"LineString","coordinates":[[10.83992,46.61833],[10.84025,46.61824],[10.84074,46.61832],[10.84127,46.61882],[10.8414,46.61903],[10.84159,46.61918],[10.8418,46.6193],[10.84218,46.61942]]},"properties":{}},{"type":"Feature","geometry":{"type":"LineString","coordinates":[[10.81161,46.61884],[10.81177,46.61888]]},"properties":{}},{"type":"Feature","geometry":{"type":"LineString","coordinates":[[10.81177,46.61888],[10.81212,46.61902]]},"properties":{}},{"type":"Feature","geometry":{"type":"LineString","coordinates":[[10.81165,46.61891],[10.81212,46.61902]]},"properties":{}},{"type":"Feature","geometry":{"type":"LineString","coordinates":[[10.83786,46.61912],[10.83781,46.61906]]},"properties":{}},{"type":"Feature","geometry":{"type":"LineString","coordinates":[[10.83781,46.61906],[10.83728,46.61925]]},"properties":{}},{"type":"Feature","geometry":{"type":"LineString","coordinates":[[10.8249,46.61923],[10.82477,46.61921],[10.82475,46.61913]]},"properties":{}},{"type":"Feature","geometry":{"type":"LineString","coordinates":[[10.84218,46.61942],[10.84258,46.61954]]},"properties":{}},{"type":"Feature","geometry":{"type":"LineString","coordinates":[[10.81212,46.61902],[10.81486,46.61964],[10.81652,46.61986],[10.81745,46.61983],[10.81868,46.61958],[10.8194,46.61953],[10.8205,46.61965],[10.823,46.62003],[10.82411,46.62014],[10.82443,46.62013],[10.82465,46.62003]]},"properties":{}},{"type":"Feature","geometry":{"type":"LineString","coordinates":[[10.83369,46.62016],[10.83375,46.62016],[10.83387,46.62021],[10.83403,46.62037],[10.83413,46.62042],[10.83424,46.62042],[10.83728,46.61925]]},"properties":{}},{"type":"Feature","geometry":{"type":"LineString","coordinates":[[10.82465,46.62003],[10.82471,46.61999]]},"properties":{}},{"type":"Feature","geometry":{"type":"LineString","coordinates":[[10.83355,46.61992],[10.83162,46.62044]]},"properties":{}},{"type":"Feature","geometry":{"type":"LineString","coordinates":[[10.77993,46.62613],[10.77996,46.62598]]},"properties":{}},{"type":"Feature","geometry":{"type":"LineString","coordinates":[[10.78031,46.62605],[10.78022,46.62611]]},"properties":{}},{"type":"Feature","geometry":{"type":"LineString","coordinates":[[10.78022,46.62611],[10.77993,46.62613]]},"properties":{}},{"type":"Feature","geometry":{"type":"LineString","coordinates":[[10.77818,46.62558],[10.77815,46.62553],[10.77816,46.62547]]},"properties":{}},{"type":"Feature","geometry":{"type":"LineString","coordinates":[[10.76972,46.62804],[10.76973,46.62837]]},"properties":{}},{"type":"Feature","geometry":{"type":"LineString","coordinates":[[10.76987,46.63052],[10.77029,46.63034],[10.77046,46.63016],[10.77048,46.63003],[10.77045,46.62992],[10.77019,46.62951]]},"properties":{}},{"type":"Feature","geometry":{"type":"LineString","coordinates":[[10.89946,46.6276],[10.89896,46.62746],[10.89841,46.62741],[10.8965,46.62745],[10.89601,46.62743],[10.89558,46.62735],[10.89504,46.62721],[10.89348,46.6267],[10.8929,46.62656],[10.89236,46.62625],[10.89093,46.62602],[10.89059,46.62605],[10.89007,46.62621],[10.88953,46.6263],[10.88876,46.6263],[10.88804,46.62621],[10.8875,46.62608],[10.88631,46.62565],[10.88569,46.62539],[10.88451,46.62479],[10.88427,46.6247],[10.88279,46.62434],[10.88115,46.62402],[10.88026,46.62397],[10.87972,46.62388],[10.87922,46.62369],[10.87868,46.62362],[10.87815,46.62361],[10.87497,46.62385],[10.87445,46.62371],[10.87399,46.62348],[10.87352,46.62334],[10.87221,46.62284],[10.87188,46.62283],[10.87118,46.62296],[10.87057,46.62296],[10.86985,46.62286],[10.86947,46.62274],[10.86941,46.62268]]},"properties":{}},{"type":"Feature","geometry":{"type":"LineString","coordinates":[[10.90282,46.6279],[10.90362,46.62783],[10.90509,46.62756],[10.90645,46.62713],[10.90886,46.62627],[10.90953,46.62608],[10.91068,46.62584],[10.91201,46.62568],[10.91312,46.62559],[10.91443,46.62563],[10.91498,46.62568],[10.91552,46.62578]]},"properties":{}},{"type":"Feature","geometry":{"type":"LineString","coordinates":[[10.89974,46.62766],[10.89985,46.62747]]},"properties":{}},{"type":"Feature","geometry":{"type":"LineString","coordinates":[[10.89973,46.62768],[10.89946,46.6276]]},"properties":{}},{"type":"Feature","geometry":{"type":"LineString","coordinates":[[10.91733,46.62625],[10.91644,46.62597],[10.91552,46.62578]]},"properties":{}},{"type":"Feature","geometry":{"type":"LineString","coordinates":[[10.91965,46.62718],[10.91833,46.62665]]},"properties":{}},{"type":"Feature","geometry":{"type":"LineString","coordinates":[[10.92503,46.62938],[10.9207,46.62761]]},"properties":{}},{"type":"Feature","geometry":{"type":"LineString","coordinates":[[10.9382,46.6348],[10.92874,46.6309]]},"properties":{}},{"type":"Feature","geometry":{"type":"LineString","coordinates":[[10.92334,46.63413],[10.92372,46.63432],[10.9252,46.63485],[10.9253,46.63493],[10.92533,46.63505]]},"properties":{}},{"type":"Feature","geometry":{"type":"LineString","coordinates":[[10.92533,46.63505],[10.92533,46.6352]]},"properties":{}},{"type":"Feature","geometry":{"type":"LineString","coordinates":[[10.92533,46.6352],[10.92543,46.6353],[10.9256,46.63537],[10.92575,46.63536],[10.92604,46.63522],[10.92618,46.63522],[10.92742,46.63545],[10.92794,46.63549]]},"properties":{}},{"type":"Feature","geometry":{"type":"LineString","coordinates":[[10.93972,46.63488],[10.94009,46.63503],[10.94067,46.63512],[10.94089,46.63519],[10.94151,46.63545],[10.94214,46.63564],[10.94254,46.63585],[10.94298,46.6362],[10.94318,46.63631],[10.95005,46.6391],[10.95117,46.63959]]},"properties":{}},{"type":"Feature","geometry":{"type":"LineString","coordinates":[[10.84258,46.61954],[10.844,46.61989],[10.84519,46.62035],[10.84685,46.62082],[10.84755,46.62107]]},"properties":{}},{"type":"Feature","geometry":{"type":"LineString","coordinates":[[10.8471,46.62107],[10.84732,46.62104]]},"properties":{}},{"type":"Feature","geometry":{"type":"LineString","coordinates":[[10.84712,46.62143],[10.84713,46.62135],[10.84674,46.62122],[10.84669,46.62116],[10.84675,46.62109],[10.84698,46.6211],[10.8471,46.62107]]},"properties":{}},{"type":"Feature","geometry":{"type":"LineString","coordinates":[[10.84974,46.62155],[10.85141,46.6216],[10.85195,46.62153],[10.85328,46.62128],[10.85385,46.62127],[10.85446,46.6213],[10.85501,46.62144],[10.85516,46.6215],[10.85536,46.62175]]},"properties":{}},{"type":"Feature","geometry":{"type":"LineString","coordinates":[[10.86962,46.62237],[10.86963,46.62229],[10.8694,46.62215],[10.86688,46.62111],[10.86679,46.62111],[10.86662,46.62098],[10.86625,46.62085],[10.86598,46.6209]]},"properties":{}},{"type":"Feature","geometry":{"type":"LineString","coordinates":[[10.86316,46.6215],[10.86327,46.62175]]},"properties":{}},{"type":"Feature","geometry":{"type":"LineString","coordinates":[[10.86761,46.62217],[10.86748,46.62194]]},"properties":{}},{"type":"Feature","geometry":{"type":"LineString","coordinates":[[10.85536,46.62175],[10.85633,46.62186],[10.85784,46.62226],[10.85946,46.62261],[10.86006,46.62267],[10.86059,46.62267],[10.86174,46.62252],[10.86222,46.62234],[10.86292,46.62198],[10.86323,46.6218],[10.86327,46.62175]]},"properties":{}},{"type":"Feature","geometry":{"type":"LineString","coordinates":[[10.86849,46.62247],[10.86868,46.62242]]},"properties":{}},{"type":"Feature","geometry":{"type":"LineString","coordinates":[[10.86846,46.62249],[10.86849,46.62247]]},"properties":{}},{"type":"Feature","geometry":{"type":"LineString","coordinates":[[10.86943,46.62264],[10.86962,46.62237]]},"properties":{}},{"type":"Feature","geometry":{"type":"LineString","coordinates":[[10.86868,46.62242],[10.86882,46.62248],[10.86888,46.62258]]},"properties":{}},{"type":"Feature","geometry":{"type":"LineString","coordinates":[[10.86874,46.62272],[10.86859,46.62273],[10.86849,46.62269],[10.86842,46.62259],[10.86846,46.62249]]},"properties":{}},{"type":"Feature","geometry":{"type":"LineString","coordinates":[[10.86888,46.62258],[10.86885,46.62266]]},"properties":{}},{"type":"Feature","geometry":{"type":"LineString","coordinates":[[10.86941,46.62268],[10.86943,46.62264]]},"properties":{}},{"type":"Feature","geometry":{"type":"LineString","coordinates":[[10.86885,46.62266],[10.86874,46.62272]]},"properties":{}},{"type":"Feature","geometry":{"type":"LineString","coordinates":[[10.89973,46.62768],[10.89974,46.62766]]},"properties":{}},{"type":"Feature","geometry":{"type":"LineString","coordinates":[[10.89973,46.62768],[10.89991,46.62774],[10.90092,46.62782]]},"properties":{}},{"type":"Feature","geometry":{"type":"LineString","coordinates":[[10.90092,46.62782],[10.9013,46.62791],[10.9013,46.62801],[10.90134,46.62804]]},"properties":{}},{"type":"Feature","geometry":{"type":"LineString","coordinates":[[10.95087,46.63994],[10.94039,46.63566]]},"properties":{}},{"type":"Feature","geometry":{"type":"LineString","coordinates":[[10.95117,46.63959],[10.95111,46.63966]]},"properties":{}},{"type":"Feature","geometry":{"type":"LineString","coordinates":[[10.95089,46.63992],[10.95087,46.63994]]},"properties":{}},{"type":"Feature","geometry":{"type":"LineString","coordinates":[[10.94397,46.69703],[10.94403,46.69694],[10.94403,46.69689],[10.94394,46.6968],[10.94326,46.69644],[10.94264,46.69623]]},"properties":{}},{"type":"Feature","geometry":{"type":"LineString","coordinates":[[10.94391,46.69706],[10.94397,46.69703]]},"properties":{}},{"type":"Feature","geometry":{"type":"LineString","coordinates":[[10.9391,46.69871],[10.93918,46.69866],[10.9392,46.6986],[10.93918,46.69831],[10.93923,46.69795],[10.93944,46.69779],[10.94015,46.6977],[10.94022,46.69765],[10.94041,46.69736],[10.94055,46.69724],[10.94069,46.69722],[10.94087,46.69725],[10.94118,46.69722],[10.94126,46.69719],[10.94136,46.69703],[10.94156,46.69695],[10.94197,46.69694],[10.94288,46.69703],[10.94334,46.69712],[10.94391,46.69706]]},"properties":{}},{"type":"Feature","geometry":{"type":"LineString","coordinates":[[10.93699,46.69711],[10.93712,46.69738],[10.93731,46.69762],[10.93738,46.69778],[10.93728,46.69789],[10.93719,46.69793],[10.93642,46.69792],[10.93588,46.69802],[10.93566,46.69815],[10.93493,46.69844],[10.93466,46.69861],[10.93439,46.69865],[10.93405,46.69886],[10.93367,46.69893],[10.93364,46.69896],[10.93372,46.69901],[10.93414,46.69894],[10.93447,46.69883],[10.93475,46.69881],[10.93585,46.69857],[10.93716,46.69874],[10.93747,46.69892],[10.93775,46.69892],[10.93797,46.69881],[10.93807,46.69879],[10.93838,46.69881],[10.9385,46.69879],[10.93869,46.69863],[10.93895,46.69848],[10.93912,46.69804],[10.93923,46.69795]]},"properties":{}},{"type":"Feature","geometry":{"type":"LineString","coordinates":[[10.93525,46.70085],[10.93487,46.70101],[10.9346,46.70096],[10.93428,46.70101],[10.93376,46.70092],[10.93308,46.70096],[10.93289,46.70101],[10.93275,46.70109],[10.93269,46.7011],[10.93263,46.70105],[10.93267,46.701],[10.933,46.70084],[10.9337,46.70062],[10.93402,46.70059],[10.93434,46.70061],[10.93442,46.70058],[10.93465,46.70032],[10.93463,46.70018],[10.93472,46.70012],[10.93529,46.69992],[10.93651,46.69968],[10.93696,46.69966],[10.93708,46.69962],[10.93758,46.69958],[10.93774,46.69947],[10.93824,46.69937],[10.93845,46.69921],[10.93871,46.69915],[10.93879,46.6991],[10.93902,46.69877],[10.9391,46.69871]]},"properties":{}},{"type":"Feature","geometry":{"type":"LineString","coordinates":[[10.91349,46.70628],[10.91363,46.70634],[10.91385,46.70639],[10.91464,46.70632],[10.91706,46.70582],[10.91786,46.70548],[10.9185,46.70539],[10.91909,46.70536],[10.91914,46.70542],[10.91907,46.70547],[10.91858,46.7055],[10.91829,46.7056],[10.91814,46.70569],[10.9176,46.70625],[10.91714,46.70645],[10.91709,46.70651],[10.91711,46.70654],[10.91721,46.70658],[10.91727,46.70656],[10.91837,46.70605],[10.91866,46.70602],[10.91888,46.70607],[10.91953,46.70647],[10.92015,46.70691],[10.92038,46.70713],[10.92081,46.70743],[10.92117,46.70781],[10.92149,46.70799],[10.92181,46.7083],[10.92191,46.70836],[10.92289,46.7087],[10.9234,46.70895],[10.92365,46.70925],[10.92421,46.70966],[10.92492,46.71026],[10.92544,46.71048],[10.92573,46.71089],[10.92608,46.71115],[10.92636,46.71176],[10.92682,46.71222],[10.92713,46.71271],[10.92726,46.71281],[10.92783,46.71311],[10.92799,46.71324],[10.92806,46.71336],[10.92813,46.7135],[10.92822,46.71379],[10.92848,46.71421],[10.92849,46.71437],[10.92833,46.71503],[10.92824,46.71518]]},"properties":{}},{"type":"Feature","geometry":{"type":"LineString","coordinates":[[10.92824,46.71518],[10.92812,46.71544],[10.92815,46.71578],[10.92812,46.71607]]},"properties":{}},{"type":"Feature","geometry":{"type":"LineString","coordinates":[[10.92812,46.71607],[10.92821,46.71636],[10.92845,46.71671],[10.92861,46.71705],[10.92866,46.71724],[10.92834,46.71785],[10.92823,46.71821],[10.92817,46.71878],[10.92819,46.7189],[10.92828,46.71903]]},"properties":{}},{"type":"Feature","geometry":{"type":"LineString","coordinates":[[10.92828,46.71903],[10.92842,46.71917],[10.92855,46.71924]]},"properties":{}},{"type":"Feature","geometry":{"type":"LineString","coordinates":[[10.92855,46.71924],[10.92888,46.71931],[10.92938,46.71923],[10.92947,46.71926],[10.9295,46.71932],[10.92946,46.71941],[10.92936,46.71949],[10.92898,46.71961],[10.92881,46.71976],[10.92879,46.71983],[10.92879,46.72037]]},"properties":{}},{"type":"Feature","geometry":{"type":"LineString","coordinates":[[10.92879,46.72037],[10.9288,46.72044]]},"properties":{}},{"type":"Feature","geometry":{"type":"LineString","coordinates":[[10.9288,46.72044],[10.92887,46.72059],[10.92916,46.72095],[10.92924,46.72109],[10.92925,46.72122],[10.92918,46.72169],[10.92928,46.72214],[10.92962,46.72249],[10.92991,46.72272],[10.93021,46.72293],[10.93047,46.72302],[10.93062,46.7231],[10.93074,46.72324],[10.93109,46.72397],[10.9311,46.72406],[10.93105,46.72428],[10.93088,46.72438]]},"properties":{}},{"type":"Feature","geometry":{"type":"LineString","coordinates":[[10.93088,46.72438],[10.9305,46.72439]]},"properties":{}},{"type":"Feature","geometry":{"type":"LineString","coordinates":[[10.9305,46.72439],[10.93006,46.72441],[10.92955,46.72461],[10.92938,46.7246],[10.92909,46.72437],[10.92903,46.72436],[10.92893,46.72442],[10.92895,46.72449],[10.92908,46.72466],[10.92935,46.72494],[10.9296,46.7251],[10.93007,46.72526],[10.93022,46.72548],[10.93025,46.72557],[10.93025,46.72571],[10.93021,46.7258],[10.92974,46.72605],[10.92941,46.72641],[10.92933,46.72655],[10.92932,46.72665],[10.92938,46.72692],[10.92925,46.72719],[10.92926,46.72725],[10.92957,46.7276]]},"properties":{}},{"type":"Feature","geometry":{"type":"LineString","coordinates":[[10.92957,46.7276],[10.92959,46.728]]},"properties":{}},{"type":"Feature","geometry":{"type":"LineString","coordinates":[[10.92959,46.728],[10.92981,46.72831],[10.92997,46.7287],[10.9301,46.72889],[10.9301,46.72897],[10.92975,46.72929],[10.92948,46.72935]]},"properties":{}},{"type":"Feature","geometry":{"type":"LineString","coordinates":[[10.92948,46.72935],[10.92936,46.72938],[10.92922,46.72948],[10.92917,46.72964]]},"properties":{}},{"type":"Feature","geometry":{"type":"LineString","coordinates":[[10.92917,46.72964],[10.92918,46.72979],[10.92916,46.72989],[10.929,46.73009],[10.92892,46.73055],[10.92879,46.73084],[10.92831,46.73123],[10.92825,46.73138],[10.92826,46.73156],[10.92819,46.73172],[10.92787,46.73204],[10.92765,46.73252],[10.92724,46.733],[10.92694,46.73348],[10.92684,46.73358],[10.9267,46.73366],[10.92643,46.73373]]},"properties":{}},{"type":"Feature","geometry":{"type":"LineString","coordinates":[[10.92643,46.73373],[10.9263,46.7338]]},"properties":{}},{"type":"Feature","geometry":{"type":"LineString","coordinates":[[10.9263,46.7338],[10.92626,46.73384],[10.92627,46.734]]},"properties":{}}]}