{"type":"FeatureCollection","features":[{"type":"Feature","geometry":{"type":"LineString","coordinates":[[10.85375,43.01013],[10.85397,43.01017],[10.85409,43.01016],[10.85418,43.01011],[10.8542,43.01001],[10.85417,43.0098]]},"properties":{}},{"type":"Feature","geometry":{"type":"LineString","coordinates":[[10.85417,43.0098],[10.85437,43.01021]]},"properties":{}},{"type":"Feature","geometry":{"type":"LineString","coordinates":[[10.85408,43.01043],[10.85418,43.01011]]},"properties":{}},{"type":"Feature","geometry":{"type":"LineString","coordinates":[[10.85437,43.01021],[10.85434,43.01034],[10.85427,43.0104],[10.85408,43.01043]]},"properties":{}},{"type":"Feature","geometry":{"type":"LineString","coordinates":[[10.85437,43.01021],[10.85476,43.01111]]},"properties":{}},{"type":"Feature","geometry":{"type":"LineString","coordinates":[[10.88512,43.03408],[10.88559,43.03436],[10.88572,43.03438]]},"properties":{}},{"type":"Feature","geometry":{"type":"LineString","coordinates":[[10.88547,43.0345],[10.88542,43.0344],[10.88512,43.03408]]},"properties":{}},{"type":"Feature","geometry":{"type":"LineString","coordinates":[[10.88571,43.03475],[10.88553,43.0347],[10.88545,43.03457],[10.88551,43.03445],[10.88572,43.03438],[10.88589,43.03443],[10.88595,43.0345],[10.88597,43.03459],[10.88588,43.0347],[10.88571,43.03475]]},"properties":{}},{"type":"Feature","geometry":{"type":"LineString","coordinates":[[10.88595,43.0345],[10.88627,43.03471]]},"properties":{}},{"type":"Feature","geometry":{"type":"LineString","coordinates":[[10.88523,43.03478],[10.88545,43.03457]]},"properties":{}},{"type":"Feature","geometry":{"type":"LineString","coordinates":[[10.88627,43.03471],[10.88592,43.03467]]},"properties":{}},{"type":"Feature","geometry":{"type":"LineString","coordinates":[[10.88553,43.0347],[10.88523,43.03478]]},"properties":{}},{"type":"Feature","geometry":{"type":"LineString","coordinates":[[10.88579,43.03503],[10.88572,43.03487],[10.88558,43.03473]]},"properties":{}},{"type":"Feature","geometry":{"type":"LineString","coordinates":[[10.88584,43.03473],[10.88578,43.0349],[10.88579,43.03503]]},"properties":{}},{"type":"Feature","geometry":{"type":"LineString","coordinates":[[10.88704,43.03517],[10.8873,43.03518],[10.88755,43.03508]]},"properties":{}},{"type":"Feature","geometry":{"type":"LineString","coordinates":[[10.88733,43.0353],[10.88749,43.03517]]},"properties":{}},{"type":"Feature","geometry":{"type":"LineString","coordinates":[[10.88749,43.03517],[10.88743,43.03534]]},"properties":{}},{"type":"Feature","geometry":{"type":"LineString","coordinates":[[10.88755,43.03508],[10.88755,43.03526],[10.88761,43.03534],[10.88778,43.03543]]},"properties":{}},{"type":"Feature","geometry":{"type":"LineString","coordinates":[[10.89106,43.04408],[10.89122,43.04412]]},"properties":{}},{"type":"Feature","geometry":{"type":"LineString","coordinates":[[10.89122,43.04412],[10.89108,43.04414],[10.89099,43.0442]]},"properties":{}},{"type":"Feature","geometry":{"type":"LineString","coordinates":[[10.8781,43.04731],[10.87813,43.0474]]},"properties":{}},{"type":"Feature","geometry":{"type":"LineString","coordinates":[[10.878,43.04768],[10.87796,43.0475],[10.87799,43.04727],[10.87804,43.04725],[10.8781,43.04731]]},"properties":{}},{"type":"Feature","geometry":{"type":"LineString","coordinates":[[10.87801,43.04737],[10.8782,43.04763]]},"properties":{}},{"type":"Feature","geometry":{"type":"LineString","coordinates":[[10.87842,43.0477],[10.87806,43.04774],[10.878,43.04768]]},"properties":{}},{"type":"Feature","geometry":{"type":"LineString","coordinates":[[10.878,43.04768],[10.87799,43.04746],[10.87802,43.04732],[10.8781,43.04731],[10.87824,43.04737],[10.87821,43.04768],[10.87805,43.04772],[10.878,43.04768]]},"properties":{}},{"type":"Feature","geometry":{"type":"LineString","coordinates":[[10.85862,43.01642],[10.85893,43.01678],[10.85904,43.01683],[10.85926,43.01685]]},"properties":{}},{"type":"Feature","geometry":{"type":"LineString","coordinates":[[10.85903,43.01707],[10.85917,43.0169],[10.85926,43.01685],[10.85963,43.01679]]},"properties":{}},{"type":"Feature","geometry":{"type":"LineString","coordinates":[[10.85944,43.017],[10.85933,43.01705],[10.85903,43.01707]]},"properties":{}},{"type":"Feature","geometry":{"type":"LineString","coordinates":[[10.85963,43.01679],[10.85944,43.017],[10.85936,43.01716],[10.85934,43.01738],[10.85943,43.01769]]},"properties":{}},{"type":"Feature","geometry":{"type":"LineString","coordinates":[[10.8782,43.04735],[10.87813,43.0474],[10.87808,43.04755],[10.87809,43.04772]]},"properties":{}},{"type":"Feature","geometry":{"type":"LineString","coordinates":[[10.878,43.04768],[10.87803,43.04756],[10.87824,43.0474]]},"properties":{}},{"type":"Feature","geometry":{"type":"LineString","coordinates":[[10.87821,43.04754],[10.87817,43.04757]]},"properties":{}},{"type":"Feature","geometry":{"type":"LineString","coordinates":[[10.87825,43.04755],[10.87823,43.04759],[10.87824,43.04762]]},"properties":{}},{"type":"Feature","geometry":{"type":"LineString","coordinates":[[10.87824,43.04766],[10.8783,43.04767],[10.87834,43.04763],[10.87833,43.04753],[10.87825,43.04755],[10.87824,43.04766]]},"properties":{}},{"type":"Feature","geometry":{"type":"LineString","coordinates":[[10.89918,43.0477],[10.89916,43.04763],[10.89922,43.04756],[10.89931,43.04755],[10.8994,43.04761],[10.89939,43.04768],[10.89932,43.04772],[10.89918,43.0477]]},"properties":{}},{"type":"Feature","geometry":{"type":"LineString","coordinates":[[10.8781,43.04767],[10.87816,43.04771]]},"properties":{}},{"type":"Feature","geometry":{"type":"LineString","coordinates":[[10.89347,43.05089],[10.89375,43.05092],[10.89392,43.05088]]},"properties":{}},{"type":"Feature","geometry":{"type":"LineString","coordinates":[[10.89356,43.05095],[10.89367,43.05098]]},"properties":{}},{"type":"Feature","geometry":{"type":"LineString","coordinates":[[10.98585,43.07944],[10.98578,43.07976],[10.98565,43.08007],[10.98551,43.08025]]},"properties":{}},{"type":"Feature","geometry":{"type":"LineString","coordinates":[[10.98537,43.07982],[10.9856,43.07996],[10.98565,43.08007]]},"properties":{}},{"type":"Feature","geometry":{"type":"LineString","coordinates":[[10.9854,43.08015],[10.98532,43.07985]]},"properties":{}},{"type":"Feature","geometry":{"type":"LineString","coordinates":[[10.98551,43.08025],[10.9854,43.08015],[10.98522,43.08009],[10.98507,43.08008],[10.98484,43.08013]]},"properties":{}},{"type":"Feature","geometry":{"type":"LineString","coordinates":[[10.84562,43.0],[10.84562,43.0001]]},"properties":{}}]}