{"type":"FeatureCollection","features":[{"type":"Feature","geometry":{"type":"LineString","coordinates":[[10.93978,45.52377],[10.93982,45.52349]]},"properties":{}},{"type":"Feature","geometry":{"type":"LineString","coordinates":[[10.93999,45.52354],[10.93987,45.52363],[10.93978,45.52377]]},"properties":{}},{"type":"Feature","geometry":{"type":"LineString","coordinates":[[10.93559,45.52679],[10.93423,45.52418]]},"properties":{}},{"type":"Feature","geometry":{"type":"LineString","coordinates":[[10.93559,45.52679],[10.93533,45.52686],[10.93488,45.52683]]},"properties":{}},{"type":"Feature","geometry":{"type":"LineString","coordinates":[[10.93656,45.53021],[10.93635,45.52984],[10.93591,45.52927],[10.93554,45.52839]]},"properties":{}},{"type":"Feature","geometry":{"type":"LineString","coordinates":[[10.94,45.52949],[10.9401,45.52942],[10.9402,45.52925]]},"properties":{}},{"type":"Feature","geometry":{"type":"LineString","coordinates":[[10.9402,45.52925],[10.9402,45.52954]]},"properties":{}},{"type":"Feature","geometry":{"type":"LineString","coordinates":[[10.94,45.52949],[10.9402,45.52954]]},"properties":{}},{"type":"Feature","geometry":{"type":"LineString","coordinates":[[10.9402,45.52954],[10.94026,45.52963],[10.94022,45.52974]]},"properties":{}},{"type":"Feature","geometry":{"type":"LineString","coordinates":[[10.94002,45.5298],[10.93986,45.52974],[10.93982,45.52964],[10.93987,45.52955],[10.94,45.52949]]},"properties":{}},{"type":"Feature","geometry":{"type":"LineString","coordinates":[[10.98115,45.74875],[10.98252,45.74769],[10.9826,45.74755],[10.98262,45.74735],[10.9826,45.7467],[10.98248,45.74586],[10.98236,45.7456],[10.98217,45.74533],[10.98184,45.74502],[10.98125,45.74466],[10.98044,45.74422],[10.98018,45.7442],[10.97963,45.74424],[10.97827,45.7446],[10.97795,45.74461],[10.97756,45.74457],[10.97708,45.74446],[10.97429,45.74341],[10.97398,45.74325],[10.97387,45.74325],[10.97207,45.74245],[10.97104,45.74194],[10.97065,45.74179],[10.96858,45.74072],[10.9684,45.74059],[10.96788,45.73998],[10.96702,45.73953],[10.96683,45.73928],[10.96555,45.73852],[10.96429,45.73794],[10.96274,45.73732],[10.96103,45.73674]]},"properties":{}},{"type":"Feature","geometry":{"type":"LineString","coordinates":[[10.98091,45.74897],[10.98115,45.74875]]},"properties":{}},{"type":"Feature","geometry":{"type":"LineString","coordinates":[[10.9808,45.74911],[10.98091,45.74897]]},"properties":{}},{"type":"Feature","geometry":{"type":"LineString","coordinates":[[10.98037,45.74951],[10.9808,45.74911]]},"properties":{}},{"type":"Feature","geometry":{"type":"LineString","coordinates":[[10.98231,45.75],[10.98212,45.7498],[10.9808,45.74911]]},"properties":{}},{"type":"Feature","geometry":{"type":"LineString","coordinates":[[10.8546,45.52168],[10.85412,45.52143]]},"properties":{}},{"type":"Feature","geometry":{"type":"LineString","coordinates":[[10.85451,45.52163],[10.85451,45.52151]]},"properties":{}},{"type":"Feature","geometry":{"type":"LineString","coordinates":[[10.8546,45.52153],[10.8546,45.52168]]},"properties":{}},{"type":"Feature","geometry":{"type":"LineString","coordinates":[[10.91375,45.51499],[10.91376,45.51105],[10.91395,45.50962],[10.91412,45.50887],[10.91428,45.5086],[10.91473,45.50835],[10.91506,45.508],[10.91569,45.50712],[10.91617,45.50657],[10.91715,45.50475],[10.91802,45.50416],[10.91856,45.5037]]},"properties":{}},{"type":"Feature","geometry":{"type":"LineString","coordinates":[[10.91156,45.51377],[10.91165,45.51397],[10.91178,45.51412],[10.91219,45.51437],[10.91272,45.5146],[10.9129,45.51473],[10.91315,45.51485],[10.91368,45.51493]]},"properties":{}},{"type":"Feature","geometry":{"type":"LineString","coordinates":[[10.94006,45.52276],[10.9402,45.52294]]},"properties":{}},{"type":"Feature","geometry":{"type":"LineString","coordinates":[[10.94002,45.52296],[10.94006,45.52276]]},"properties":{}},{"type":"Feature","geometry":{"type":"LineString","coordinates":[[10.94002,45.52296],[10.9402,45.52294]]},"properties":{}},{"type":"Feature","geometry":{"type":"LineString","coordinates":[[10.9402,45.52294],[10.94028,45.52299],[10.94029,45.52305]]},"properties":{}},{"type":"Feature","geometry":{"type":"LineString","coordinates":[[10.93985,45.52328],[10.94002,45.52296]]},"properties":{}},{"type":"Feature","geometry":{"type":"LineString","coordinates":[[10.94029,45.52305],[10.94014,45.52344],[10.94005,45.52353],[10.93999,45.52354]]},"properties":{}},{"type":"Feature","geometry":{"type":"LineString","coordinates":[[10.93982,45.52349],[10.93985,45.52328]]},"properties":{}},{"type":"Feature","geometry":{"type":"LineString","coordinates":[[10.93999,45.52354],[10.93982,45.52349]]},"properties":{}},{"type":"Feature","geometry":{"type":"LineString","coordinates":[[10.89373,45.5158],[10.89362,45.51597]]},"properties":{}},{"type":"Feature","geometry":{"type":"LineString","coordinates":[[10.89312,45.51613],[10.89308,45.51601],[10.89311,45.51595],[10.89326,45.51585],[10.89348,45.51586],[10.89362,45.51597],[10.89363,45.51605]]},"properties":{}},{"type":"Feature","geometry":{"type":"LineString","coordinates":[[10.89363,45.51605],[10.89391,45.51619]]},"properties":{}},{"type":"Feature","geometry":{"type":"LineString","coordinates":[[10.89363,45.51605],[10.89359,45.51613],[10.89351,45.51619]]},"properties":{}},{"type":"Feature","geometry":{"type":"LineString","coordinates":[[10.89337,45.51622],[10.89319,45.51618],[10.89312,45.51613]]},"properties":{}},{"type":"Feature","geometry":{"type":"LineString","coordinates":[[10.89391,45.51619],[10.89368,45.51617],[10.89351,45.51619]]},"properties":{}},{"type":"Feature","geometry":{"type":"LineString","coordinates":[[10.89351,45.51619],[10.89337,45.51622]]},"properties":{}},{"type":"Feature","geometry":{"type":"LineString","coordinates":[[10.89303,45.51636],[10.89309,45.51625],[10.89312,45.51613]]},"properties":{}},{"type":"Feature","geometry":{"type":"LineString","coordinates":[[10.89337,45.51622],[10.89303,45.51636]]},"properties":{}},{"type":"Feature","geometry":{"type":"LineString","coordinates":[[10.8922,45.51703],[10.89312,45.51636],[10.89347,45.51625],[10.89369,45.5162],[10.89489,45.51623],[10.90182,45.51677],[10.90318,45.51693],[10.90498,45.51738],[10.9074,45.51806]]},"properties":{}},{"type":"Feature","geometry":{"type":"LineString","coordinates":[[10.85564,45.52243],[10.85561,45.52238],[10.85563,45.52231],[10.85574,45.52225]]},"properties":{}},{"type":"Feature","geometry":{"type":"LineString","coordinates":[[10.85574,45.52225],[10.85587,45.52227],[10.85593,45.52233],[10.85593,45.5224],[10.85588,45.52245]]},"properties":{}},{"type":"Feature","geometry":{"type":"LineString","coordinates":[[10.85588,45.52245],[10.85576,45.52248],[10.85564,45.52243]]},"properties":{}},{"type":"Feature","geometry":{"type":"LineString","coordinates":[[10.85387,45.54812],[10.85356,45.54824],[10.85324,45.54849],[10.85287,45.54908]]},"properties":{}},{"type":"Feature","geometry":{"type":"LineString","coordinates":[[10.85217,45.59933],[10.85143,45.59932],[10.85042,45.59958],[10.85012,45.59969]]},"properties":{}},{"type":"Feature","geometry":{"type":"LineString","coordinates":[[10.85515,45.61527],[10.85463,45.61542],[10.85453,45.61534],[10.85443,45.61536],[10.85438,45.61559],[10.85438,45.61611],[10.85432,45.61617],[10.85425,45.61612],[10.85411,45.61486],[10.85411,45.61442],[10.85415,45.61397],[10.85411,45.61345],[10.85443,45.61233],[10.85476,45.6114],[10.85488,45.61116],[10.85515,45.61076],[10.85536,45.61059],[10.85554,45.61053],[10.85542,45.61048],[10.85509,45.61042],[10.85521,45.61009],[10.85565,45.60937],[10.85581,45.60901],[10.85605,45.60769],[10.8561,45.60766],[10.85634,45.60766]]},"properties":{}},{"type":"Feature","geometry":{"type":"LineString","coordinates":[[10.85228,45.6126],[10.85224,45.61258]]},"properties":{}},{"type":"Feature","geometry":{"type":"LineString","coordinates":[[10.85563,45.61504],[10.85515,45.61527]]},"properties":{}},{"type":"Feature","geometry":{"type":"LineString","coordinates":[[10.86075,45.61768],[10.86,45.61776],[10.85957,45.61786],[10.85921,45.61799],[10.85898,45.61811],[10.85879,45.61815],[10.85835,45.61776],[10.85811,45.61761],[10.85651,45.61586],[10.85579,45.61512],[10.85578,45.61505],[10.85589,45.61494],[10.8559,45.61488],[10.85563,45.61504]]},"properties":{}},{"type":"Feature","geometry":{"type":"LineString","coordinates":[[10.85182,45.61026],[10.85258,45.61132],[10.85265,45.61161],[10.85261,45.61185],[10.85319,45.61237],[10.85315,45.61268],[10.85317,45.61276],[10.85301,45.61287],[10.85284,45.6129],[10.85274,45.61288],[10.85228,45.6126],[10.85189,45.61352],[10.85181,45.61385],[10.85187,45.61448],[10.85217,45.61576],[10.8523,45.61679],[10.85283,45.61895],[10.85315,45.61956],[10.85371,45.62052],[10.85403,45.621],[10.85493,45.62185],[10.85539,45.62213],[10.85686,45.62288]]},"properties":{}},{"type":"Feature","geometry":{"type":"LineString","coordinates":[[10.88808,45.51995],[10.88819,45.51986]]},"properties":{}},{"type":"Feature","geometry":{"type":"LineString","coordinates":[[10.88022,45.5225],[10.8802,45.52246]]},"properties":{}},{"type":"Feature","geometry":{"type":"LineString","coordinates":[[10.88023,45.52252],[10.88022,45.5225]]},"properties":{}},{"type":"Feature","geometry":{"type":"LineString","coordinates":[[10.88028,45.52256],[10.88023,45.52252]]},"properties":{}},{"type":"Feature","geometry":{"type":"LineString","coordinates":[[10.88011,45.5228],[10.88023,45.52277]]},"properties":{}},{"type":"Feature","geometry":{"type":"LineString","coordinates":[[10.87765,45.52302],[10.87811,45.52303]]},"properties":{}},{"type":"Feature","geometry":{"type":"LineString","coordinates":[[10.87676,45.52336],[10.87714,45.52318]]},"properties":{}},{"type":"Feature","geometry":{"type":"LineString","coordinates":[[10.87887,45.64445],[10.87893,45.64444]]},"properties":{}},{"type":"Feature","geometry":{"type":"LineString","coordinates":[[10.87893,45.64444],[10.87949,45.64605],[10.87963,45.64631],[10.87975,45.64644],[10.87997,45.64663],[10.88033,45.64683],[10.88242,45.64784],[10.88293,45.64817],[10.88328,45.64847]]},"properties":{}},{"type":"Feature","geometry":{"type":"LineString","coordinates":[[10.88328,45.64847],[10.88324,45.64849]]},"properties":{}},{"type":"Feature","geometry":{"type":"LineString","coordinates":[[10.94022,45.52974],[10.94002,45.5298]]},"properties":{}},{"type":"Feature","geometry":{"type":"LineString","coordinates":[[10.94022,45.52974],[10.94016,45.52992],[10.93997,45.53008]]},"properties":{}},{"type":"Feature","geometry":{"type":"LineString","coordinates":[[10.94003,45.52997],[10.93992,45.5299],[10.93972,45.52992]]},"properties":{}},{"type":"Feature","geometry":{"type":"LineString","coordinates":[[10.93997,45.53008],[10.94005,45.52988],[10.94002,45.5298]]},"properties":{}},{"type":"Feature","geometry":{"type":"LineString","coordinates":[[10.93659,45.53054],[10.93656,45.53021]]},"properties":{}},{"type":"Feature","geometry":{"type":"LineString","coordinates":[[10.93666,45.53103],[10.93656,45.5309],[10.93653,45.53076],[10.93659,45.53054]]},"properties":{}},{"type":"Feature","geometry":{"type":"LineString","coordinates":[[10.91637,45.55665],[10.91596,45.55671]]},"properties":{}},{"type":"Feature","geometry":{"type":"LineString","coordinates":[[10.93715,45.6465],[10.93718,45.64648]]},"properties":{}},{"type":"Feature","geometry":{"type":"LineString","coordinates":[[10.93718,45.64648],[10.93726,45.64647],[10.93731,45.64652]]},"properties":{}},{"type":"Feature","geometry":{"type":"LineString","coordinates":[[10.93727,45.64658],[10.93717,45.64657],[10.93715,45.6465]]},"properties":{}},{"type":"Feature","geometry":{"type":"LineString","coordinates":[[10.88324,45.64849],[10.88313,45.64855]]},"properties":{}},{"type":"Feature","geometry":{"type":"LineString","coordinates":[[10.88313,45.64855],[10.88321,45.6486],[10.88336,45.64892],[10.88356,45.64914],[10.88371,45.64936],[10.88388,45.64975],[10.88424,45.65013],[10.88502,45.65066],[10.88562,45.65116],[10.886,45.65139],[10.88678,45.65173],[10.88708,45.65191],[10.88744,45.65217],[10.88793,45.6526],[10.88808,45.65277],[10.88839,45.65328],[10.88957,45.65487],[10.88997,45.65536]]},"properties":{}},{"type":"Feature","geometry":{"type":"LineString","coordinates":[[10.90143,45.65474],[10.90122,45.65458],[10.90104,45.65453]]},"properties":{}},{"type":"Feature","geometry":{"type":"LineString","coordinates":[[10.88997,45.65536],[10.89,45.65539]]},"properties":{}},{"type":"Feature","geometry":{"type":"LineString","coordinates":[[10.89,45.65539],[10.89002,45.65542]]},"properties":{}},{"type":"Feature","geometry":{"type":"LineString","coordinates":[[10.89002,45.65542],[10.89215,45.65831],[10.89227,45.65852],[10.8925,45.6591],[10.89286,45.66098]]},"properties":{}},{"type":"Feature","geometry":{"type":"LineString","coordinates":[[10.89286,45.66098],[10.89287,45.66102]]},"properties":{}},{"type":"Feature","geometry":{"type":"LineString","coordinates":[[10.89287,45.66102],[10.89302,45.66218],[10.893,45.66245],[10.89217,45.66559],[10.89207,45.66623],[10.89209,45.66659],[10.89257,45.66971],[10.89306,45.67114],[10.89317,45.67205],[10.89336,45.6725]]},"properties":{}},{"type":"Feature","geometry":{"type":"LineString","coordinates":[[10.89362,45.67116],[10.89457,45.66904],[10.89473,45.66856],[10.89512,45.66767],[10.89516,45.66751],[10.89522,45.66688],[10.89533,45.66645],[10.89541,45.66625],[10.89571,45.66577]]},"properties":{}},{"type":"Feature","geometry":{"type":"LineString","coordinates":[[10.89336,45.6725],[10.89338,45.67251]]},"properties":{}},{"type":"Feature","geometry":{"type":"LineString","coordinates":[[10.93731,45.64652],[10.93727,45.64658]]},"properties":{}},{"type":"Feature","geometry":{"type":"LineString","coordinates":[[10.91507,45.69746],[10.91278,45.69564],[10.91149,45.69487]]},"properties":{}},{"type":"Feature","geometry":{"type":"LineString","coordinates":[[10.91514,45.69752],[10.91507,45.69746]]},"properties":{}},{"type":"Feature","geometry":{"type":"LineString","coordinates":[[10.92393,45.69812],[10.92298,45.69851]]},"properties":{}},{"type":"Feature","geometry":{"type":"LineString","coordinates":[[10.92298,45.69851],[10.92291,45.69854]]},"properties":{}},{"type":"Feature","geometry":{"type":"LineString","coordinates":[[10.92291,45.69854],[10.92129,45.69923]]},"properties":{}},{"type":"Feature","geometry":{"type":"LineString","coordinates":[[10.91857,45.70107],[10.91776,45.70058],[10.91727,45.70016],[10.91697,45.69976],[10.91668,45.69913],[10.91634,45.69862],[10.91595,45.69821],[10.91514,45.69752]]},"properties":{}},{"type":"Feature","geometry":{"type":"LineString","coordinates":[[10.92129,45.69923],[10.92085,45.69939]]},"properties":{}},{"type":"Feature","geometry":{"type":"LineString","coordinates":[[10.92085,45.69939],[10.92009,45.69973],[10.91907,45.70041],[10.91897,45.70045],[10.91885,45.70045]]},"properties":{}},{"type":"Feature","geometry":{"type":"LineString","coordinates":[[10.91841,45.70027],[10.91835,45.70029],[10.91822,45.70023],[10.91797,45.70026]]},"properties":{}},{"type":"Feature","geometry":{"type":"LineString","coordinates":[[10.89338,45.67251],[10.89342,45.67252]]},"properties":{}},{"type":"Feature","geometry":{"type":"LineString","coordinates":[[10.89342,45.67252],[10.89347,45.67253]]},"properties":{}},{"type":"Feature","geometry":{"type":"LineString","coordinates":[[10.89347,45.67253],[10.89347,45.67253]]},"properties":{}},{"type":"Feature","geometry":{"type":"LineString","coordinates":[[10.89347,45.67253],[10.89348,45.67253]]},"properties":{}},{"type":"Feature","geometry":{"type":"LineString","coordinates":[[10.89348,45.67253],[10.89301,45.67341],[10.89289,45.67371],[10.89287,45.67398],[10.89288,45.67449],[10.89253,45.67559],[10.89256,45.67631],[10.89245,45.67686],[10.89249,45.67724],[10.89244,45.67728]]},"properties":{}},{"type":"Feature","geometry":{"type":"LineString","coordinates":[[10.89442,45.68112],[10.89433,45.68039],[10.89424,45.68008],[10.89413,45.67993],[10.89271,45.67836],[10.89254,45.67813],[10.89246,45.67777],[10.89237,45.67703],[10.8924,45.67671],[10.8925,45.6762],[10.89247,45.67552],[10.89283,45.67436],[10.89278,45.67391],[10.89281,45.67371],[10.89344,45.67248],[10.89347,45.67231],[10.89346,45.67164],[10.89352,45.67141],[10.89362,45.67116]]},"properties":{}},{"type":"Feature","geometry":{"type":"LineString","coordinates":[[10.89244,45.67728],[10.89236,45.67728]]},"properties":{}},{"type":"Feature","geometry":{"type":"LineString","coordinates":[[10.89236,45.67728],[10.89233,45.67729]]},"properties":{}},{"type":"Feature","geometry":{"type":"LineString","coordinates":[[10.89245,45.6792],[10.89299,45.68006],[10.89417,45.68171],[10.89468,45.68231],[10.89565,45.68316],[10.89616,45.68353],[10.89685,45.68387],[10.89742,45.68407],[10.89772,45.68413]]},"properties":{}},{"type":"Feature","geometry":{"type":"LineString","coordinates":[[10.91717,45.68836],[10.91559,45.68769],[10.91425,45.68716],[10.91013,45.68542],[10.90879,45.68467],[10.90851,45.68456],[10.90839,45.68447],[10.90651,45.68381],[10.90619,45.68346],[10.90605,45.68355],[10.90555,45.68334],[10.90532,45.68237]]},"properties":{}},{"type":"Feature","geometry":{"type":"LineString","coordinates":[[10.85994,45.6241],[10.85889,45.62388],[10.85864,45.6238],[10.85828,45.62364],[10.85534,45.62218],[10.85488,45.62187],[10.85399,45.62103],[10.8539,45.62091],[10.85286,45.61917],[10.85276,45.61895],[10.85266,45.61841],[10.85232,45.61715],[10.85222,45.61658],[10.85214,45.61581],[10.85182,45.6145],[10.85176,45.6138],[10.85179,45.61366],[10.85197,45.61316],[10.85239,45.61225]]},"properties":{}},{"type":"Feature","geometry":{"type":"LineString","coordinates":[[10.85686,45.62288],[10.85683,45.62295]]},"properties":{}},{"type":"Feature","geometry":{"type":"LineString","coordinates":[[10.85712,45.62319],[10.85707,45.62326],[10.8569,45.62325]]},"properties":{}},{"type":"Feature","geometry":{"type":"LineString","coordinates":[[10.85683,45.62295],[10.85689,45.62305],[10.85712,45.62319],[10.85812,45.62363],[10.85822,45.62372]]},"properties":{}},{"type":"Feature","geometry":{"type":"LineString","coordinates":[[10.85828,45.62364],[10.85822,45.62372]]},"properties":{}},{"type":"Feature","geometry":{"type":"LineString","coordinates":[[10.85822,45.62372],[10.85814,45.62392],[10.85815,45.62404],[10.85833,45.62435],[10.85851,45.6245],[10.8591,45.62487],[10.85937,45.62515]]},"properties":{}},{"type":"Feature","geometry":{"type":"LineString","coordinates":[[10.87819,45.64541],[10.8782,45.64533],[10.87837,45.64502],[10.87808,45.64464],[10.87805,45.64454],[10.87804,45.64407],[10.87798,45.64391],[10.87789,45.64371],[10.87768,45.64345],[10.87721,45.64308],[10.87707,45.64292],[10.87694,45.64264],[10.87692,45.64251],[10.87694,45.6423],[10.87717,45.64172],[10.8772,45.64138],[10.87717,45.64118],[10.87709,45.64096],[10.87662,45.64027],[10.87581,45.63938],[10.87526,45.63889],[10.87443,45.63823],[10.87182,45.63571],[10.87071,45.63469],[10.86914,45.63366],[10.86818,45.63286],[10.86659,45.63114],[10.86435,45.62878],[10.86385,45.62837],[10.86104,45.62663],[10.86099,45.62653],[10.861,45.62643],[10.86193,45.62593],[10.86184,45.62579]]},"properties":{}},{"type":"Feature","geometry":{"type":"LineString","coordinates":[[10.80211,45.56925],[10.80196,45.56935]]},"properties":{}},{"type":"Feature","geometry":{"type":"LineString","coordinates":[[10.80196,45.56935],[10.80217,45.56929]]},"properties":{}},{"type":"Feature","geometry":{"type":"LineString","coordinates":[[10.80412,45.57392],[10.80411,45.57369],[10.80405,45.57348],[10.80303,45.57115],[10.80232,45.56933],[10.80228,45.56925],[10.80221,45.56924]]},"properties":{}},{"type":"Feature","geometry":{"type":"LineString","coordinates":[[10.80402,45.574],[10.80404,45.57376],[10.80402,45.57362],[10.80293,45.57119],[10.80217,45.56929]]},"properties":{}},{"type":"Feature","geometry":{"type":"LineString","coordinates":[[10.80412,45.57392],[10.80395,45.57391]]},"properties":{}},{"type":"Feature","geometry":{"type":"LineString","coordinates":[[10.80432,45.57407],[10.80412,45.57392]]},"properties":{}},{"type":"Feature","geometry":{"type":"LineString","coordinates":[[10.79546,45.57647],[10.79513,45.57665]]},"properties":{}},{"type":"Feature","geometry":{"type":"LineString","coordinates":[[10.79508,45.5765],[10.79514,45.57657],[10.79513,45.57665]]},"properties":{}},{"type":"Feature","geometry":{"type":"LineString","coordinates":[[10.79496,45.57681],[10.79503,45.5765]]},"properties":{}},{"type":"Feature","geometry":{"type":"LineString","coordinates":[[10.79513,45.57665],[10.79496,45.57681]]},"properties":{}},{"type":"Feature","geometry":{"type":"LineString","coordinates":[[10.758,45.57355],[10.75764,45.57472]]},"properties":{}},{"type":"Feature","geometry":{"type":"LineString","coordinates":[[10.78175,45.5753],[10.78101,45.57561],[10.7808,45.57566],[10.78026,45.57569],[10.7799,45.57564],[10.7796,45.57554],[10.77942,45.57544],[10.77873,45.57501],[10.77823,45.57475],[10.77673,45.57412],[10.77582,45.57379],[10.77485,45.57351],[10.77375,45.57337]]},"properties":{}},{"type":"Feature","geometry":{"type":"LineString","coordinates":[[10.75764,45.57472],[10.75763,45.57476]]},"properties":{}},{"type":"Feature","geometry":{"type":"LineString","coordinates":[[10.75763,45.57476],[10.75762,45.5748]]},"properties":{}},{"type":"Feature","geometry":{"type":"LineString","coordinates":[[10.75765,45.5748],[10.75762,45.5748],[10.7576,45.57483]]},"properties":{}},{"type":"Feature","geometry":{"type":"LineString","coordinates":[[10.76775,45.57571],[10.76774,45.57563]]},"properties":{}},{"type":"Feature","geometry":{"type":"LineString","coordinates":[[10.7576,45.57483],[10.75691,45.57679]]},"properties":{}},{"type":"Feature","geometry":{"type":"LineString","coordinates":[[10.77002,45.57648],[10.76999,45.57642]]},"properties":{}},{"type":"Feature","geometry":{"type":"LineString","coordinates":[[10.75691,45.57679],[10.75688,45.57688],[10.75689,45.57699]]},"properties":{}},{"type":"Feature","geometry":{"type":"LineString","coordinates":[[10.75689,45.57699],[10.75648,45.57829],[10.75626,45.57879],[10.75602,45.57918],[10.75557,45.57968]]},"properties":{}},{"type":"Feature","geometry":{"type":"LineString","coordinates":[[10.75566,45.57973],[10.7553,45.57994],[10.75509,45.58027],[10.75484,45.58044],[10.75469,45.58059],[10.753,45.58244]]},"properties":{}},{"type":"Feature","geometry":{"type":"LineString","coordinates":[[10.75283,45.58237],[10.7528,45.58239]]},"properties":{}},{"type":"Feature","geometry":{"type":"LineString","coordinates":[[10.75289,45.58239],[10.75283,45.58237]]},"properties":{}},{"type":"Feature","geometry":{"type":"LineString","coordinates":[[10.753,45.58244],[10.75289,45.58239]]},"properties":{}},{"type":"Feature","geometry":{"type":"LineString","coordinates":[[10.77782,45.58327],[10.77809,45.58319],[10.77864,45.58312]]},"properties":{}},{"type":"Feature","geometry":{"type":"LineString","coordinates":[[10.77759,45.58332],[10.77767,45.58325]]},"properties":{}},{"type":"Feature","geometry":{"type":"LineString","coordinates":[[10.77774,45.58333],[10.77782,45.58327]]},"properties":{}},{"type":"Feature","geometry":{"type":"LineString","coordinates":[[10.77759,45.58332],[10.77774,45.58333]]},"properties":{}},{"type":"Feature","geometry":{"type":"LineString","coordinates":[[10.77698,45.58605],[10.77706,45.58563],[10.77693,45.58515],[10.77699,45.58489],[10.77695,45.58477],[10.77672,45.5845],[10.77669,45.58437],[10.77659,45.58423],[10.77624,45.58398],[10.77615,45.58387],[10.77621,45.58378]]},"properties":{}},{"type":"Feature","geometry":{"type":"LineString","coordinates":[[10.77983,45.59009],[10.77922,45.58959],[10.77906,45.58941],[10.77868,45.58862],[10.77856,45.58846],[10.77816,45.58825],[10.77807,45.58809],[10.77793,45.58761],[10.77757,45.58699],[10.77743,45.5868],[10.77705,45.58655],[10.7769,45.58629]]},"properties":{}},{"type":"Feature","geometry":{"type":"LineString","coordinates":[[10.80249,45.57482],[10.80289,45.57517],[10.8026,45.57588],[10.80251,45.57618],[10.80246,45.57653],[10.80237,45.57676],[10.80189,45.57722],[10.80118,45.57828],[10.80084,45.57887],[10.80047,45.57937],[10.8003,45.57975],[10.80021,45.58004],[10.79988,45.58019],[10.79927,45.58032],[10.79839,45.58044],[10.79734,45.58085],[10.79697,45.58097],[10.79674,45.581],[10.79655,45.58132],[10.79631,45.58154],[10.79621,45.58177]]},"properties":{}},{"type":"Feature","geometry":{"type":"LineString","coordinates":[[10.78834,45.57899],[10.78828,45.57912],[10.78833,45.57919]]},"properties":{}},{"type":"Feature","geometry":{"type":"LineString","coordinates":[[10.79202,45.58541],[10.79062,45.58632],[10.79009,45.58663]]},"properties":{}},{"type":"Feature","geometry":{"type":"LineString","coordinates":[[10.7826,45.58927],[10.78282,45.5893],[10.78306,45.58923]]},"properties":{}},{"type":"Feature","geometry":{"type":"LineString","coordinates":[[10.78296,45.58937],[10.78285,45.58943],[10.78272,45.58944],[10.78276,45.58935],[10.78282,45.5893]]},"properties":{}},{"type":"Feature","geometry":{"type":"LineString","coordinates":[[10.78306,45.58923],[10.78298,45.58934],[10.78293,45.58945],[10.78294,45.58977]]},"properties":{}},{"type":"Feature","geometry":{"type":"LineString","coordinates":[[10.79191,45.60004],[10.79192,45.59993]]},"properties":{}},{"type":"Feature","geometry":{"type":"LineString","coordinates":[[10.7919,45.60016],[10.79191,45.60004]]},"properties":{}},{"type":"Feature","geometry":{"type":"LineString","coordinates":[[10.79164,45.60045],[10.7919,45.60024],[10.7919,45.60016]]},"properties":{}},{"type":"Feature","geometry":{"type":"LineString","coordinates":[[10.79531,45.60257],[10.79535,45.60262],[10.79531,45.60269],[10.7952,45.60271],[10.79513,45.60265],[10.79518,45.60257],[10.79531,45.60257]]},"properties":{}},{"type":"Feature","geometry":{"type":"LineString","coordinates":[[10.83559,45.58097],[10.83543,45.58124]]},"properties":{}},{"type":"Feature","geometry":{"type":"LineString","coordinates":[[10.82997,45.58438],[10.82902,45.58396],[10.82787,45.58351],[10.82617,45.583],[10.82493,45.58273],[10.82473,45.58266],[10.82391,45.58222],[10.82366,45.582],[10.82307,45.58159],[10.82204,45.58049],[10.82175,45.58007],[10.82154,45.5799],[10.82101,45.5796]]},"properties":{}},{"type":"Feature","geometry":{"type":"LineString","coordinates":[[10.83007,45.58443],[10.82997,45.58438]]},"properties":{}},{"type":"Feature","geometry":{"type":"LineString","coordinates":[[10.84974,45.59982],[10.84962,45.5995],[10.84946,45.59938],[10.849,45.59919],[10.84858,45.59889],[10.8483,45.59855],[10.84804,45.59816],[10.84792,45.59787],[10.8476,45.5969],[10.84755,45.59658],[10.84751,45.59581],[10.84742,45.59523],[10.84717,45.5947],[10.84649,45.59348],[10.84628,45.59292],[10.84622,45.59215],[10.84628,45.59143],[10.84629,45.59072],[10.84634,45.59067],[10.8466,45.59062],[10.84534,45.58702],[10.84484,45.58624],[10.84418,45.58535],[10.84392,45.58518],[10.84339,45.58464],[10.84263,45.58406],[10.83956,45.58247],[10.83645,45.58151],[10.83543,45.58124],[10.835,45.58116],[10.83447,45.58109],[10.83227,45.58098],[10.83012,45.58113],[10.82979,45.58103],[10.82863,45.58047],[10.82854,45.58032],[10.82701,45.57929],[10.82555,45.57791],[10.82538,45.57773],[10.82533,45.57765],[10.82545,45.57749],[10.82559,45.57714],[10.82637,45.57592],[10.82637,45.57585],[10.82626,45.57571],[10.82523,45.57481],[10.82476,45.57427],[10.82465,45.57404],[10.82437,45.57301],[10.82441,45.57242],[10.82449,45.57201]]},"properties":{}},{"type":"Feature","geometry":{"type":"LineString","coordinates":[[10.82997,45.58438],[10.83019,45.58433],[10.83048,45.58429],[10.83083,45.5843],[10.83116,45.58436],[10.83155,45.58457],[10.83464,45.58743],[10.8351,45.58789],[10.83553,45.5884]]},"properties":{}},{"type":"Feature","geometry":{"type":"LineString","coordinates":[[10.83553,45.5884],[10.83545,45.58842]]},"properties":{}},{"type":"Feature","geometry":{"type":"LineString","coordinates":[[10.83553,45.5884],[10.83579,45.58839],[10.83594,45.58844],[10.83685,45.5889],[10.8371,45.589],[10.83846,45.58935],[10.83962,45.58989],[10.84123,45.59069],[10.84168,45.59109],[10.84202,45.59132],[10.84209,45.59146],[10.84203,45.59171],[10.84171,45.59226],[10.84168,45.5924],[10.84156,45.59257],[10.84147,45.5928],[10.84148,45.59301],[10.84137,45.59367],[10.84149,45.59452],[10.8417,45.59537],[10.84182,45.59637],[10.84176,45.59644],[10.84095,45.59678],[10.84229,45.59758],[10.84255,45.59782],[10.84379,45.59949],[10.84438,45.60034],[10.84528,45.60131],[10.84626,45.60257],[10.84856,45.60526],[10.84873,45.60518],[10.84896,45.60512],[10.84914,45.60517],[10.8493,45.60527],[10.8498,45.60534],[10.85069,45.60618],[10.85139,45.60668],[10.8514,45.60674],[10.85133,45.60681],[10.85134,45.60686],[10.85226,45.60776],[10.85261,45.60796],[10.85275,45.60829],[10.85288,45.60942],[10.85282,45.6095],[10.85258,45.6096],[10.8524,45.61013],[10.85233,45.61016],[10.85186,45.61016]]},"properties":{}},{"type":"Feature","geometry":{"type":"LineString","coordinates":[[10.7951,45.6029],[10.79515,45.60268]]},"properties":{}},{"type":"Feature","geometry":{"type":"LineString","coordinates":[[10.79523,45.60271],[10.7951,45.6029]]},"properties":{}},{"type":"Feature","geometry":{"type":"LineString","coordinates":[[10.79407,45.60539],[10.79439,45.60521]]},"properties":{}},{"type":"Feature","geometry":{"type":"LineString","coordinates":[[10.79439,45.60521],[10.79456,45.60542],[10.7948,45.60554]]},"properties":{}},{"type":"Feature","geometry":{"type":"LineString","coordinates":[[10.79487,45.60629],[10.79398,45.60597]]},"properties":{}},{"type":"Feature","geometry":{"type":"LineString","coordinates":[[10.78037,45.67791],[10.78056,45.67748],[10.78054,45.67656],[10.78061,45.67591],[10.78072,45.67537],[10.78067,45.67476],[10.7807,45.67456],[10.78107,45.67344],[10.78108,45.67292]]},"properties":{}},{"type":"Feature","geometry":{"type":"LineString","coordinates":[[10.78057,45.67946],[10.78047,45.67945],[10.78012,45.67897]]},"properties":{}},{"type":"Feature","geometry":{"type":"LineString","coordinates":[[10.79032,45.73501],[10.7908,45.73508],[10.79088,45.73504]]},"properties":{}},{"type":"Feature","geometry":{"type":"LineString","coordinates":[[10.7916,45.73602],[10.7915,45.73611]]},"properties":{}},{"type":"Feature","geometry":{"type":"LineString","coordinates":[[10.79475,45.739],[10.79472,45.73896]]},"properties":{}},{"type":"Feature","geometry":{"type":"LineString","coordinates":[[10.77773,45.59113],[10.77669,45.59048],[10.77633,45.59016],[10.77583,45.58966],[10.77568,45.58956],[10.77551,45.58946],[10.7749,45.5892],[10.77403,45.58888],[10.77384,45.58875],[10.77321,45.58813],[10.77277,45.58778],[10.77194,45.5873],[10.77175,45.58713],[10.77138,45.58692],[10.77128,45.58682],[10.77032,45.5864],[10.77018,45.58631],[10.77015,45.58621],[10.77038,45.58562]]},"properties":{}},{"type":"Feature","geometry":{"type":"LineString","coordinates":[[10.77792,45.59123],[10.77834,45.59107],[10.77887,45.59069],[10.77942,45.59037],[10.77983,45.59009]]},"properties":{}},{"type":"Feature","geometry":{"type":"LineString","coordinates":[[10.77792,45.59123],[10.77773,45.59113]]},"properties":{}},{"type":"Feature","geometry":{"type":"LineString","coordinates":[[10.77928,45.59234],[10.77792,45.59123]]},"properties":{}},{"type":"Feature","geometry":{"type":"LineString","coordinates":[[10.99809,45.64358],[10.99839,45.6435]]},"properties":{}},{"type":"Feature","geometry":{"type":"LineString","coordinates":[[10.99833,45.64382],[10.99815,45.64374],[10.99797,45.64353]]},"properties":{}},{"type":"Feature","geometry":{"type":"LineString","coordinates":[[10.94332,45.72959],[10.94319,45.72948]]},"properties":{}},{"type":"Feature","geometry":{"type":"LineString","coordinates":[[10.95695,45.73552],[10.95682,45.73543],[10.954,45.73466],[10.95269,45.73418],[10.94689,45.73178],[10.94586,45.73125],[10.94475,45.73061],[10.94332,45.72959]]},"properties":{}},{"type":"Feature","geometry":{"type":"LineString","coordinates":[[10.90094,45.68674],[10.901,45.68673]]},"properties":{}},{"type":"Feature","geometry":{"type":"LineString","coordinates":[[10.90051,45.68679],[10.90094,45.68674]]},"properties":{}},{"type":"Feature","geometry":{"type":"LineString","coordinates":[[10.90034,45.68681],[10.90051,45.68679]]},"properties":{}},{"type":"Feature","geometry":{"type":"LineString","coordinates":[[10.90057,45.68787],[10.90048,45.68785]]},"properties":{}},{"type":"Feature","geometry":{"type":"LineString","coordinates":[[10.90089,45.6879],[10.90057,45.68787]]},"properties":{}},{"type":"Feature","geometry":{"type":"LineString","coordinates":[[10.90098,45.6879],[10.90089,45.6879]]},"properties":{}},{"type":"Feature","geometry":{"type":"LineString","coordinates":[[10.90139,45.69089],[10.9013,45.69088],[10.90106,45.69076],[10.90057,45.69035],[10.90015,45.69022],[10.89996,45.69007],[10.89984,45.68992],[10.89976,45.68973],[10.89979,45.68959],[10.89988,45.68949],[10.90008,45.68942],[10.9003,45.68941],[10.90058,45.68928],[10.90071,45.68909],[10.90076,45.68896],[10.90071,45.68875]]},"properties":{}},{"type":"Feature","geometry":{"type":"LineString","coordinates":[[10.91129,45.69477],[10.90697,45.69291],[10.9058,45.69244],[10.9016,45.69066]]},"properties":{}},{"type":"Feature","geometry":{"type":"LineString","coordinates":[[10.91149,45.69487],[10.91129,45.69477]]},"properties":{}},{"type":"Feature","geometry":{"type":"LineString","coordinates":[[10.79824,45.74403],[10.79818,45.74404],[10.79811,45.74396]]},"properties":{}},{"type":"Feature","geometry":{"type":"LineString","coordinates":[[10.92166,45.50196],[10.92368,45.50201],[10.92486,45.50152],[10.92512,45.50146]]},"properties":{}},{"type":"Feature","geometry":{"type":"LineString","coordinates":[[10.92162,45.50229],[10.92166,45.50196]]},"properties":{}},{"type":"Feature","geometry":{"type":"LineString","coordinates":[[10.93459,45.50277],[10.93467,45.50264]]},"properties":{}},{"type":"Feature","geometry":{"type":"LineString","coordinates":[[10.93467,45.50264],[10.93472,45.50278]]},"properties":{}},{"type":"Feature","geometry":{"type":"LineString","coordinates":[[10.93476,45.5028],[10.93525,45.50278]]},"properties":{}},{"type":"Feature","geometry":{"type":"LineString","coordinates":[[10.93446,45.50282],[10.93459,45.50277],[10.93476,45.5028]]},"properties":{}},{"type":"Feature","geometry":{"type":"LineString","coordinates":[[10.90953,45.51143],[10.90982,45.51168],[10.90993,45.51186],[10.91005,45.51228],[10.9102,45.51334],[10.91034,45.51355],[10.91063,45.51371]]},"properties":{}},{"type":"Feature","geometry":{"type":"LineString","coordinates":[[10.89348,45.51586],[10.89373,45.5158]]},"properties":{}},{"type":"Feature","geometry":{"type":"LineString","coordinates":[[10.9341,45.50278],[10.93446,45.50282]]},"properties":{}},{"type":"Feature","geometry":{"type":"LineString","coordinates":[[10.93525,45.50278],[10.93485,45.50293]]},"properties":{}},{"type":"Feature","geometry":{"type":"LineString","coordinates":[[10.93441,45.50293],[10.93428,45.50285],[10.9341,45.50278]]},"properties":{}},{"type":"Feature","geometry":{"type":"LineString","coordinates":[[10.93476,45.5028],[10.93483,45.50286],[10.93485,45.50293]]},"properties":{}},{"type":"Feature","geometry":{"type":"LineString","coordinates":[[10.93441,45.50293],[10.93446,45.50282]]},"properties":{}},{"type":"Feature","geometry":{"type":"LineString","coordinates":[[10.93447,45.50304],[10.93441,45.50293]]},"properties":{}},{"type":"Feature","geometry":{"type":"LineString","coordinates":[[10.93485,45.50293],[10.93482,45.503],[10.93468,45.50308]]},"properties":{}},{"type":"Feature","geometry":{"type":"LineString","coordinates":[[10.93468,45.50308],[10.93447,45.50304]]},"properties":{}},{"type":"Feature","geometry":{"type":"LineString","coordinates":[[10.93453,45.50329],[10.93447,45.50304]]},"properties":{}},{"type":"Feature","geometry":{"type":"LineString","coordinates":[[10.93468,45.50308],[10.93453,45.50329]]},"properties":{}},{"type":"Feature","geometry":{"type":"LineString","coordinates":[[10.82041,45.50013],[10.82056,45.50001]]},"properties":{}},{"type":"Feature","geometry":{"type":"LineString","coordinates":[[10.82056,45.50001],[10.82054,45.50016]]},"properties":{}},{"type":"Feature","geometry":{"type":"LineString","coordinates":[[10.80811,45.5],[10.80719,45.50057],[10.8068,45.50075],[10.80584,45.50102],[10.80533,45.5011],[10.8048,45.50124],[10.80438,45.50139],[10.804,45.50157],[10.80312,45.50219],[10.80254,45.50276],[10.80232,45.5031],[10.80203,45.50341],[10.80143,45.50378],[10.80031,45.50483],[10.79953,45.50564],[10.79783,45.50771],[10.79759,45.50814]]},"properties":{}},{"type":"Feature","geometry":{"type":"LineString","coordinates":[[10.7953,45.50639],[10.7953,45.50651],[10.79535,45.50663]]},"properties":{}},{"type":"Feature","geometry":{"type":"LineString","coordinates":[[10.79507,45.50664],[10.7953,45.50639]]},"properties":{}},{"type":"Feature","geometry":{"type":"LineString","coordinates":[[10.79507,45.50664],[10.79521,45.50661],[10.79535,45.50663]]},"properties":{}},{"type":"Feature","geometry":{"type":"LineString","coordinates":[[10.79499,45.50675],[10.79507,45.50664]]},"properties":{}},{"type":"Feature","geometry":{"type":"LineString","coordinates":[[10.82044,45.50013],[10.82054,45.50016],[10.82058,45.50025],[10.82051,45.50032],[10.82038,45.50032],[10.82032,45.50028],[10.8203,45.50022],[10.82034,45.50016],[10.82044,45.50013]]},"properties":{}},{"type":"Feature","geometry":{"type":"LineString","coordinates":[[10.82038,45.5005],[10.82035,45.50031]]},"properties":{}},{"type":"Feature","geometry":{"type":"LineString","coordinates":[[10.82048,45.50033],[10.82038,45.5005]]},"properties":{}},{"type":"Feature","geometry":{"type":"LineString","coordinates":[[10.83817,45.5029],[10.83612,45.50412],[10.8355,45.50444]]},"properties":{}},{"type":"Feature","geometry":{"type":"LineString","coordinates":[[10.82812,45.50444],[10.82822,45.5045]]},"properties":{}},{"type":"Feature","geometry":{"type":"LineString","coordinates":[[10.82817,45.50453],[10.82812,45.50444]]},"properties":{}},{"type":"Feature","geometry":{"type":"LineString","coordinates":[[10.82841,45.50455],[10.82854,45.50452]]},"properties":{}},{"type":"Feature","geometry":{"type":"LineString","coordinates":[[10.82854,45.50452],[10.82844,45.50459]]},"properties":{}},{"type":"Feature","geometry":{"type":"LineString","coordinates":[[10.82828,45.50471],[10.8282,45.50469],[10.82813,45.50462],[10.82817,45.50453],[10.82822,45.5045],[10.82838,45.50452],[10.82844,45.50459],[10.82839,45.50468],[10.82828,45.50471]]},"properties":{}},{"type":"Feature","geometry":{"type":"LineString","coordinates":[[10.82808,45.50475],[10.82815,45.50466]]},"properties":{}},{"type":"Feature","geometry":{"type":"LineString","coordinates":[[10.75207,45.52239],[10.75263,45.52176]]},"properties":{}},{"type":"Feature","geometry":{"type":"LineString","coordinates":[[10.75193,45.5228],[10.75191,45.52274],[10.75194,45.52265],[10.75207,45.52239]]},"properties":{}},{"type":"Feature","geometry":{"type":"LineString","coordinates":[[10.75457,45.52342],[10.75409,45.52312],[10.75395,45.52308],[10.75205,45.52285],[10.75193,45.5228]]},"properties":{}},{"type":"Feature","geometry":{"type":"LineString","coordinates":[[10.79535,45.50663],[10.79545,45.50672],[10.79543,45.50686]]},"properties":{}},{"type":"Feature","geometry":{"type":"LineString","coordinates":[[10.79506,45.5069],[10.79499,45.5068],[10.79499,45.50675]]},"properties":{}},{"type":"Feature","geometry":{"type":"LineString","coordinates":[[10.79543,45.50686],[10.79531,45.50693],[10.79516,45.50694]]},"properties":{}},{"type":"Feature","geometry":{"type":"LineString","coordinates":[[10.79516,45.50694],[10.79506,45.5069]]},"properties":{}},{"type":"Feature","geometry":{"type":"LineString","coordinates":[[10.79536,45.50727],[10.79503,45.50701],[10.79489,45.507],[10.79458,45.50707]]},"properties":{}},{"type":"Feature","geometry":{"type":"LineString","coordinates":[[10.79543,45.50686],[10.79546,45.50742]]},"properties":{}},{"type":"Feature","geometry":{"type":"LineString","coordinates":[[10.79546,45.50742],[10.79536,45.50727],[10.79525,45.50704],[10.79516,45.50694]]},"properties":{}},{"type":"Feature","geometry":{"type":"LineString","coordinates":[[10.79759,45.50814],[10.79729,45.50872],[10.79722,45.50895]]},"properties":{}},{"type":"Feature","geometry":{"type":"LineString","coordinates":[[10.79759,45.50814],[10.79758,45.5083],[10.79726,45.50905],[10.79708,45.5097]]},"properties":{}},{"type":"Feature","geometry":{"type":"LineString","coordinates":[[10.79124,45.50952],[10.79075,45.5097],[10.79058,45.50982]]},"properties":{}},{"type":"Feature","geometry":{"type":"LineString","coordinates":[[10.8282,45.50469],[10.82808,45.50475]]},"properties":{}},{"type":"Feature","geometry":{"type":"LineString","coordinates":[[10.82843,45.50477],[10.82833,45.50471]]},"properties":{}},{"type":"Feature","geometry":{"type":"LineString","coordinates":[[10.8389,45.50797],[10.83912,45.50773]]},"properties":{}},{"type":"Feature","geometry":{"type":"LineString","coordinates":[[10.83877,45.50814],[10.83935,45.50802],[10.84196,45.50775],[10.84274,45.50777],[10.84394,45.50799]]},"properties":{}},{"type":"Feature","geometry":{"type":"LineString","coordinates":[[10.83877,45.50814],[10.83875,45.50809],[10.8389,45.50797]]},"properties":{}},{"type":"Feature","geometry":{"type":"LineString","coordinates":[[10.83585,45.51609],[10.83574,45.51607],[10.83569,45.51602],[10.83569,45.51593],[10.83576,45.51587],[10.83589,45.51586],[10.836,45.51595],[10.83598,45.51603],[10.83585,45.51609]]},"properties":{}},{"type":"Feature","geometry":{"type":"LineString","coordinates":[[10.83598,45.51603],[10.83662,45.51637],[10.83709,45.51675],[10.83725,45.51695]]},"properties":{}},{"type":"Feature","geometry":{"type":"LineString","coordinates":[[10.8116,45.51817],[10.81205,45.51819]]},"properties":{}},{"type":"Feature","geometry":{"type":"LineString","coordinates":[[10.81236,45.5182],[10.81275,45.51825]]},"properties":{}},{"type":"Feature","geometry":{"type":"LineString","coordinates":[[10.81197,45.51831],[10.8116,45.51817]]},"properties":{}},{"type":"Feature","geometry":{"type":"LineString","coordinates":[[10.79982,45.51514],[10.79997,45.51522],[10.80013,45.51526]]},"properties":{}},{"type":"Feature","geometry":{"type":"LineString","coordinates":[[10.79994,45.51539],[10.7999,45.51526],[10.79982,45.51514]]},"properties":{}},{"type":"Feature","geometry":{"type":"LineString","coordinates":[[10.79994,45.51539],[10.8,45.51529],[10.80013,45.51526]]},"properties":{}},{"type":"Feature","geometry":{"type":"LineString","coordinates":[[10.80013,45.51526],[10.80028,45.51531],[10.80032,45.51539]]},"properties":{}},{"type":"Feature","geometry":{"type":"LineString","coordinates":[[10.80032,45.51539],[10.80026,45.51548],[10.80013,45.51552]]},"properties":{}},{"type":"Feature","geometry":{"type":"LineString","coordinates":[[10.80013,45.51552],[10.79999,45.51548],[10.79994,45.51539]]},"properties":{}},{"type":"Feature","geometry":{"type":"LineString","coordinates":[[10.80032,45.51539],[10.80037,45.51556],[10.80048,45.51572]]},"properties":{}},{"type":"Feature","geometry":{"type":"LineString","coordinates":[[10.80004,45.51564],[10.80003,45.5155]]},"properties":{}},{"type":"Feature","geometry":{"type":"LineString","coordinates":[[10.80012,45.51552],[10.80004,45.51564]]},"properties":{}},{"type":"Feature","geometry":{"type":"LineString","coordinates":[[10.80048,45.51572],[10.80013,45.51552]]},"properties":{}},{"type":"Feature","geometry":{"type":"LineString","coordinates":[[10.81197,45.51831],[10.81205,45.51819],[10.81221,45.51816],[10.81236,45.5182],[10.81242,45.51833]]},"properties":{}},{"type":"Feature","geometry":{"type":"LineString","coordinates":[[10.81275,45.51825],[10.81242,45.51833]]},"properties":{}},{"type":"Feature","geometry":{"type":"LineString","coordinates":[[10.81242,45.51833],[10.81236,45.51842],[10.81216,45.51848],[10.81203,45.51843],[10.81197,45.51831]]},"properties":{}},{"type":"Feature","geometry":{"type":"LineString","coordinates":[[10.83094,45.51877],[10.83124,45.51859]]},"properties":{}},{"type":"Feature","geometry":{"type":"LineString","coordinates":[[10.81946,45.5188],[10.81971,45.51857]]},"properties":{}},{"type":"Feature","geometry":{"type":"LineString","coordinates":[[10.81971,45.51857],[10.81964,45.51882]]},"properties":{}},{"type":"Feature","geometry":{"type":"LineString","coordinates":[[10.83124,45.51859],[10.83113,45.51884]]},"properties":{}},{"type":"Feature","geometry":{"type":"LineString","coordinates":[[10.81946,45.5188],[10.81956,45.51878],[10.81964,45.51882]]},"properties":{}},{"type":"Feature","geometry":{"type":"LineString","coordinates":[[10.83094,45.51877],[10.83113,45.51884]]},"properties":{}},{"type":"Feature","geometry":{"type":"LineString","coordinates":[[10.83035,45.5188],[10.83065,45.51882],[10.83075,45.5188]]},"properties":{}},{"type":"Feature","geometry":{"type":"LineString","coordinates":[[10.78549,45.51782],[10.78554,45.51773],[10.78572,45.51768],[10.78587,45.51773],[10.78592,45.51781],[10.78586,45.51794],[10.78574,45.51798],[10.78557,45.51795],[10.78549,45.51782]]},"properties":{}},{"type":"Feature","geometry":{"type":"LineString","coordinates":[[10.79708,45.5097],[10.79701,45.50984],[10.79661,45.5115],[10.79658,45.51312],[10.79626,45.51445],[10.7962,45.51503],[10.7962,45.51568],[10.7965,45.51864],[10.79726,45.52235],[10.79737,45.52273],[10.79763,45.52429],[10.79795,45.52559],[10.79801,45.52609],[10.79793,45.52662],[10.79795,45.52694],[10.79804,45.52716],[10.79816,45.52732]]},"properties":{}},{"type":"Feature","geometry":{"type":"LineString","coordinates":[[10.80273,45.5225],[10.80293,45.52263]]},"properties":{}},{"type":"Feature","geometry":{"type":"LineString","coordinates":[[10.80273,45.52272],[10.80273,45.5225]]},"properties":{}},{"type":"Feature","geometry":{"type":"LineString","coordinates":[[10.80308,45.52267],[10.80357,45.52263]]},"properties":{}},{"type":"Feature","geometry":{"type":"LineString","coordinates":[[10.80293,45.52263],[10.80308,45.52267]]},"properties":{}},{"type":"Feature","geometry":{"type":"LineString","coordinates":[[10.80273,45.52272],[10.80278,45.52268],[10.80293,45.52263]]},"properties":{}},{"type":"Feature","geometry":{"type":"LineString","coordinates":[[10.80357,45.52263],[10.80317,45.52281]]},"properties":{}},{"type":"Feature","geometry":{"type":"LineString","coordinates":[[10.80308,45.52267],[10.80313,45.52271],[10.80317,45.52281]]},"properties":{}},{"type":"Feature","geometry":{"type":"LineString","coordinates":[[10.80317,45.52281],[10.8031,45.52291],[10.8029,45.52296],[10.80278,45.52291],[10.80272,45.52286],[10.80271,45.52279],[10.80273,45.52272]]},"properties":{}},{"type":"Feature","geometry":{"type":"LineString","coordinates":[[10.81964,45.51882],[10.81967,45.51885]]},"properties":{}},{"type":"Feature","geometry":{"type":"LineString","coordinates":[[10.81906,45.51887],[10.81939,45.51882]]},"properties":{}},{"type":"Feature","geometry":{"type":"LineString","coordinates":[[10.83064,45.51894],[10.83035,45.5188]]},"properties":{}},{"type":"Feature","geometry":{"type":"LineString","coordinates":[[10.81927,45.51895],[10.81929,45.51888],[10.81946,45.5188]]},"properties":{}},{"type":"Feature","geometry":{"type":"LineString","coordinates":[[10.81966,45.51884],[10.81994,45.51892]]},"properties":{}},{"type":"Feature","geometry":{"type":"LineString","coordinates":[[10.81927,45.51895],[10.81906,45.51887]]},"properties":{}},{"type":"Feature","geometry":{"type":"LineString","coordinates":[[10.83113,45.51884],[10.83118,45.51891],[10.83117,45.51902]]},"properties":{}},{"type":"Feature","geometry":{"type":"LineString","coordinates":[[10.81967,45.51885],[10.81963,45.51895],[10.81946,45.51903]]},"properties":{}},{"type":"Feature","geometry":{"type":"LineString","coordinates":[[10.81994,45.51892],[10.8196,45.51896]]},"properties":{}},{"type":"Feature","geometry":{"type":"LineString","coordinates":[[10.83098,45.51914],[10.83076,45.51912],[10.83069,45.51907],[10.83064,45.51894],[10.83066,45.51888],[10.83075,45.5188],[10.83094,45.51877]]},"properties":{}},{"type":"Feature","geometry":{"type":"LineString","coordinates":[[10.81928,45.51897],[10.81927,45.51895]]},"properties":{}},{"type":"Feature","geometry":{"type":"LineString","coordinates":[[10.81946,45.51903],[10.81936,45.51903],[10.81928,45.51897]]},"properties":{}},{"type":"Feature","geometry":{"type":"LineString","coordinates":[[10.83117,45.51902],[10.8311,45.5191],[10.83098,45.51914]]},"properties":{}},{"type":"Feature","geometry":{"type":"LineString","coordinates":[[10.81913,45.5193],[10.81928,45.51897]]},"properties":{}},{"type":"Feature","geometry":{"type":"LineString","coordinates":[[10.81946,45.51903],[10.81928,45.51914],[10.81913,45.5193]]},"properties":{}},{"type":"Feature","geometry":{"type":"LineString","coordinates":[[10.83117,45.51902],[10.83128,45.51946]]},"properties":{}},{"type":"Feature","geometry":{"type":"LineString","coordinates":[[10.83128,45.51946],[10.83098,45.51914]]},"properties":{}},{"type":"Feature","geometry":{"type":"LineString","coordinates":[[10.8379,45.52118],[10.83804,45.52131],[10.8382,45.52139]]},"properties":{}},{"type":"Feature","geometry":{"type":"LineString","coordinates":[[10.8384,45.52148],[10.83856,45.52158],[10.83877,45.52161]]},"properties":{}},{"type":"Feature","geometry":{"type":"LineString","coordinates":[[10.8343,45.52197],[10.83441,45.52193],[10.83455,45.52195]]},"properties":{}},{"type":"Feature","geometry":{"type":"LineString","coordinates":[[10.8338,45.52205],[10.83418,45.52201],[10.8343,45.52197]]},"properties":{}},{"type":"Feature","geometry":{"type":"LineString","coordinates":[[10.83455,45.52195],[10.83461,45.52201],[10.83459,45.52212]]},"properties":{}},{"type":"Feature","geometry":{"type":"LineString","coordinates":[[10.83432,45.52214],[10.83426,45.52206],[10.8343,45.52197]]},"properties":{}},{"type":"Feature","geometry":{"type":"LineString","coordinates":[[10.83432,45.52214],[10.83407,45.52207],[10.8338,45.52205]]},"properties":{}},{"type":"Feature","geometry":{"type":"LineString","coordinates":[[10.83459,45.52212],[10.83443,45.52218],[10.83432,45.52214]]},"properties":{}},{"type":"Feature","geometry":{"type":"LineString","coordinates":[[10.82176,45.52433],[10.82171,45.52445],[10.82154,45.52455],[10.82096,45.52477]]},"properties":{}},{"type":"Feature","geometry":{"type":"LineString","coordinates":[[10.82096,45.52477],[10.82063,45.52483]]},"properties":{}},{"type":"Feature","geometry":{"type":"LineString","coordinates":[[10.82063,45.52483],[10.81993,45.52489]]},"properties":{}},{"type":"Feature","geometry":{"type":"LineString","coordinates":[[10.81823,45.52673],[10.81833,45.5267],[10.81846,45.52672]]},"properties":{}},{"type":"Feature","geometry":{"type":"LineString","coordinates":[[10.81846,45.52672],[10.81853,45.52682]]},"properties":{}},{"type":"Feature","geometry":{"type":"LineString","coordinates":[[10.751,45.52923],[10.75239,45.52902],[10.753,45.52887],[10.75379,45.52874],[10.75447,45.52851]]},"properties":{}},{"type":"Feature","geometry":{"type":"LineString","coordinates":[[10.75325,45.53088],[10.753,45.53133],[10.7521,45.5323],[10.75193,45.53268],[10.75182,45.53305]]},"properties":{}},{"type":"Feature","geometry":{"type":"LineString","coordinates":[[10.76203,45.53392],[10.76107,45.53363],[10.7608,45.5336],[10.75996,45.5333],[10.75792,45.53247],[10.75588,45.53181],[10.75511,45.53142],[10.75404,45.53072],[10.75348,45.53055]]},"properties":{}},{"type":"Feature","geometry":{"type":"LineString","coordinates":[[10.7742,45.53748],[10.77466,45.53741]]},"properties":{}},{"type":"Feature","geometry":{"type":"LineString","coordinates":[[10.77481,45.53765],[10.77469,45.53765],[10.7746,45.5376],[10.77457,45.53752],[10.77461,45.53744],[10.77477,45.5374],[10.7749,45.53744],[10.77494,45.53751],[10.77493,45.53757],[10.77481,45.53765]]},"properties":{}},{"type":"Feature","geometry":{"type":"LineString","coordinates":[[10.77494,45.53751],[10.77517,45.53756]]},"properties":{}},{"type":"Feature","geometry":{"type":"LineString","coordinates":[[10.7746,45.5376],[10.7742,45.53748]]},"properties":{}},{"type":"Feature","geometry":{"type":"LineString","coordinates":[[10.77517,45.53756],[10.77493,45.53757]]},"properties":{}},{"type":"Feature","geometry":{"type":"LineString","coordinates":[[10.77491,45.5376],[10.77489,45.53795]]},"properties":{}},{"type":"Feature","geometry":{"type":"LineString","coordinates":[[10.77489,45.53795],[10.77477,45.53773],[10.77464,45.53763]]},"properties":{}},{"type":"Feature","geometry":{"type":"LineString","coordinates":[[10.80276,45.52315],[10.80278,45.52291]]},"properties":{}},{"type":"Feature","geometry":{"type":"LineString","coordinates":[[10.80296,45.52296],[10.80276,45.52315]]},"properties":{}},{"type":"Feature","geometry":{"type":"LineString","coordinates":[[10.79816,45.52732],[10.79887,45.52787],[10.79979,45.52849],[10.80022,45.52872]]},"properties":{}},{"type":"Feature","geometry":{"type":"LineString","coordinates":[[10.80022,45.52872],[10.80052,45.52894],[10.80087,45.52932],[10.8017,45.53062],[10.80178,45.53065],[10.80183,45.53073]]},"properties":{}},{"type":"Feature","geometry":{"type":"LineString","coordinates":[[10.80183,45.53073],[10.80212,45.53122],[10.80238,45.53135],[10.80277,45.53181]]},"properties":{}},{"type":"Feature","geometry":{"type":"LineString","coordinates":[[10.80277,45.53181],[10.80283,45.53193],[10.80283,45.53202]]},"properties":{}},{"type":"Feature","geometry":{"type":"LineString","coordinates":[[10.80283,45.53202],[10.80379,45.53365],[10.80466,45.53482],[10.80474,45.53499]]},"properties":{}},{"type":"Feature","geometry":{"type":"LineString","coordinates":[[10.80474,45.53499],[10.80521,45.53562]]},"properties":{}},{"type":"Feature","geometry":{"type":"LineString","coordinates":[[10.79149,45.551],[10.79164,45.55106],[10.79167,45.55118],[10.79161,45.55125],[10.79151,45.55128],[10.79134,45.55126],[10.79126,45.55115],[10.79129,45.55107],[10.79137,45.55101],[10.79149,45.551]]},"properties":{}},{"type":"Feature","geometry":{"type":"LineString","coordinates":[[10.77994,45.55317],[10.77991,45.55309],[10.77995,45.55296],[10.7801,45.55286],[10.78019,45.55284],[10.7803,45.55283],[10.78048,45.55288],[10.7806,45.55299],[10.78062,45.55308],[10.78054,45.55324],[10.78037,45.55332],[10.78016,45.55331],[10.78007,45.55328],[10.77994,45.55317]]},"properties":{}},{"type":"Feature","geometry":{"type":"LineString","coordinates":[[10.81823,45.52691],[10.81818,45.52683],[10.81823,45.52673]]},"properties":{}},{"type":"Feature","geometry":{"type":"LineString","coordinates":[[10.81853,45.52682],[10.81847,45.52691]]},"properties":{}},{"type":"Feature","geometry":{"type":"LineString","coordinates":[[10.81847,45.52691],[10.81836,45.52694],[10.81823,45.52691]]},"properties":{}},{"type":"Feature","geometry":{"type":"LineString","coordinates":[[10.82406,45.54882],[10.82409,45.5488]]},"properties":{}},{"type":"Feature","geometry":{"type":"LineString","coordinates":[[10.82395,45.54887],[10.82406,45.54882]]},"properties":{}},{"type":"Feature","geometry":{"type":"LineString","coordinates":[[10.825,45.55343],[10.82592,45.55284],[10.82628,45.55256]]},"properties":{}},{"type":"Feature","geometry":{"type":"LineString","coordinates":[[10.81288,45.56934],[10.81318,45.56904],[10.81351,45.56856],[10.81387,45.56828],[10.81404,45.5681],[10.81407,45.5679],[10.81404,45.56778],[10.81388,45.56747],[10.81372,45.5674]]},"properties":{}},{"type":"Feature","geometry":{"type":"LineString","coordinates":[[10.81106,45.5677],[10.81096,45.56774],[10.81075,45.56761],[10.81055,45.56756],[10.81034,45.56766],[10.81021,45.56788],[10.81022,45.56804],[10.81084,45.56904],[10.8108,45.56999],[10.81073,45.57014],[10.80997,45.57075],[10.80992,45.57072]]},"properties":{}},{"type":"Feature","geometry":{"type":"LineString","coordinates":[[10.82083,45.57951],[10.81912,45.57866],[10.81843,45.57861],[10.81781,45.57872],[10.81761,45.5787],[10.81754,45.57853],[10.81768,45.57808],[10.81767,45.57801],[10.81756,45.57797],[10.81744,45.57798],[10.81727,45.57809]]},"properties":{}},{"type":"Feature","geometry":{"type":"LineString","coordinates":[[10.82101,45.5796],[10.82083,45.57951]]},"properties":{}},{"type":"Feature","geometry":{"type":"LineString","coordinates":[[10.77636,45.55503],[10.77647,45.5551],[10.7757,45.55619],[10.77558,45.55629],[10.77492,45.5565]]},"properties":{}},{"type":"Feature","geometry":{"type":"LineString","coordinates":[[10.77444,45.55673],[10.77457,45.55665],[10.77491,45.55653],[10.77492,45.5565]]},"properties":{}},{"type":"Feature","geometry":{"type":"LineString","coordinates":[[10.77453,45.55687],[10.77444,45.55673]]},"properties":{}},{"type":"Feature","geometry":{"type":"LineString","coordinates":[[10.77704,45.5571],[10.77707,45.55705]]},"properties":{}},{"type":"Feature","geometry":{"type":"LineString","coordinates":[[10.77618,45.55791],[10.77611,45.55784],[10.77616,45.55751],[10.77609,45.55737],[10.77592,45.55721],[10.77537,45.55691],[10.77493,45.55688],[10.7746,45.55693],[10.77453,45.55687]]},"properties":{}},{"type":"Feature","geometry":{"type":"LineString","coordinates":[[10.77854,45.5576],[10.77807,45.55741],[10.77704,45.5571],[10.77691,45.55709],[10.77681,45.55722],[10.77645,45.55792],[10.77636,45.55796]]},"properties":{}},{"type":"Feature","geometry":{"type":"LineString","coordinates":[[10.77858,45.55756],[10.7786,45.55753]]},"properties":{}},{"type":"Feature","geometry":{"type":"LineString","coordinates":[[10.77858,45.55756],[10.77854,45.5576]]},"properties":{}},{"type":"Feature","geometry":{"type":"LineString","coordinates":[[10.77492,45.5565],[10.77471,45.55652],[10.77446,45.55661],[10.77419,45.55682],[10.7727,45.55734],[10.77221,45.55747],[10.77089,45.55793],[10.77043,45.55814],[10.76949,45.55871],[10.76937,45.5587],[10.76931,45.55866],[10.76931,45.55862],[10.76936,45.55855]]},"properties":{}},{"type":"Feature","geometry":{"type":"LineString","coordinates":[[10.77858,45.55756],[10.77894,45.55772]]},"properties":{}},{"type":"Feature","geometry":{"type":"LineString","coordinates":[[10.77986,45.55358],[10.78,45.55336],[10.77999,45.55323]]},"properties":{}},{"type":"Feature","geometry":{"type":"LineString","coordinates":[[10.78037,45.55332],[10.78008,45.55343],[10.77986,45.55358]]},"properties":{}},{"type":"Feature","geometry":{"type":"LineString","coordinates":[[10.78501,45.55868],[10.78512,45.55855],[10.78543,45.55847],[10.78557,45.55839],[10.78567,45.55803],[10.78555,45.55786]]},"properties":{}},{"type":"Feature","geometry":{"type":"LineString","coordinates":[[10.78459,45.55959],[10.78336,45.55868],[10.78301,45.55827],[10.78255,45.55789]]},"properties":{}},{"type":"Feature","geometry":{"type":"LineString","coordinates":[[10.78459,45.55959],[10.78505,45.55894],[10.78501,45.55868]]},"properties":{}},{"type":"Feature","geometry":{"type":"LineString","coordinates":[[10.79073,45.56374],[10.79043,45.56511]]},"properties":{}},{"type":"Feature","geometry":{"type":"LineString","coordinates":[[10.79043,45.56511],[10.78997,45.5662],[10.78935,45.56744],[10.7892,45.56762],[10.78893,45.5678],[10.78855,45.56787]]},"properties":{}},{"type":"Feature","geometry":{"type":"LineString","coordinates":[[10.79627,45.56701],[10.7981,45.56781],[10.79834,45.568],[10.79858,45.56827],[10.79885,45.56849],[10.79916,45.56868],[10.80079,45.56943],[10.80131,45.56952],[10.80196,45.56935]]},"properties":{}},{"type":"Feature","geometry":{"type":"LineString","coordinates":[[10.80774,45.56929],[10.80785,45.56903]]},"properties":{}},{"type":"Feature","geometry":{"type":"LineString","coordinates":[[10.80221,45.56924],[10.80211,45.56925]]},"properties":{}},{"type":"Feature","geometry":{"type":"LineString","coordinates":[[10.77894,45.55772],[10.77911,45.5578],[10.77948,45.55806]]},"properties":{}},{"type":"Feature","geometry":{"type":"LineString","coordinates":[[10.77636,45.55796],[10.77618,45.55791]]},"properties":{}},{"type":"Feature","geometry":{"type":"LineString","coordinates":[[10.76495,45.56146],[10.765,45.56139],[10.76519,45.5613],[10.76607,45.56075],[10.76626,45.56067],[10.76661,45.56059],[10.76697,45.56043],[10.76796,45.55979],[10.76838,45.55949],[10.76858,45.5593],[10.76925,45.55851]]},"properties":{}},{"type":"Feature","geometry":{"type":"LineString","coordinates":[[10.76317,45.56458],[10.76361,45.56363],[10.76429,45.56235],[10.76453,45.56198],[10.76495,45.56146]]},"properties":{}},{"type":"Feature","geometry":{"type":"LineString","coordinates":[[10.76315,45.56466],[10.76317,45.56458]]},"properties":{}},{"type":"Feature","geometry":{"type":"LineString","coordinates":[[10.76235,45.56704],[10.76225,45.567]]},"properties":{}},{"type":"Feature","geometry":{"type":"LineString","coordinates":[[10.7592,45.57091],[10.76259,45.56654],[10.76292,45.56583],[10.76315,45.56466]]},"properties":{}},{"type":"Feature","geometry":{"type":"LineString","coordinates":[[10.7587,45.57165],[10.76122,45.56846]]},"properties":{}},{"type":"Feature","geometry":{"type":"LineString","coordinates":[[10.77375,45.57337],[10.77242,45.57338],[10.7704,45.57363],[10.76847,45.57366]]},"properties":{}},{"type":"Feature","geometry":{"type":"LineString","coordinates":[[10.75741,45.57467],[10.75784,45.5733],[10.75793,45.5733]]},"properties":{}}]}