{"type":"FeatureCollection","features":[{"type":"Feature","geometry":{"type":"LineString","coordinates":[[11.06605,46.66511],[11.06003,46.6626],[11.05914,46.6623],[11.05768,46.66191],[11.05684,46.66176],[11.0551,46.66156],[11.05087,46.66147],[11.04888,46.66135],[11.04783,46.66122],[11.04706,46.66108],[11.04641,46.66094],[11.04547,46.66068],[11.04466,46.66041],[11.04358,46.65999],[11.03345,46.65582]]},"properties":{}},{"type":"Feature","geometry":{"type":"LineString","coordinates":[[11.06616,46.66516],[11.06605,46.66511]]},"properties":{}},{"type":"Feature","geometry":{"type":"LineString","coordinates":[[11.07847,46.67124],[11.07712,46.67018],[11.07619,46.66955],[11.0746,46.66869],[11.07037,46.66689],[11.06616,46.66516]]},"properties":{}},{"type":"Feature","geometry":{"type":"LineString","coordinates":[[11.06388,46.67914],[11.06426,46.67916],[11.06476,46.67914]]},"properties":{}},{"type":"Feature","geometry":{"type":"LineString","coordinates":[[11.00797,46.61187],[11.00804,46.6122],[11.00797,46.61227],[11.00789,46.61225],[11.00776,46.61201],[11.00764,46.61194],[11.00754,46.61197],[11.00757,46.61206],[11.00728,46.61213],[11.0073,46.61217],[11.0075,46.61223],[11.00701,46.61241],[11.00699,46.61248],[11.00718,46.61259],[11.0071,46.6127],[11.00722,46.61278],[11.00713,46.61283],[11.00725,46.61295],[11.00703,46.61306],[11.00715,46.61331],[11.00732,46.61335],[11.00737,46.61384],[11.00762,46.61401],[11.00754,46.61414],[11.0077,46.61428],[11.00792,46.6144],[11.00781,46.61455],[11.00795,46.61458],[11.00796,46.6147],[11.00813,46.6148],[11.00787,46.61487],[11.00775,46.61484],[11.00783,46.61498],[11.00765,46.61496],[11.00798,46.61537],[11.00805,46.61562],[11.008,46.6158],[11.00815,46.61596]]},"properties":{}},{"type":"Feature","geometry":{"type":"LineString","coordinates":[[11.00491,46.64557],[11.00356,46.6457],[11.00199,46.64592],[11.00073,46.64614],[11.0,46.64632]]},"properties":{}},{"type":"Feature","geometry":{"type":"LineString","coordinates":[[11.00843,46.65035],[11.00854,46.65029]]},"properties":{}},{"type":"Feature","geometry":{"type":"LineString","coordinates":[[11.00866,46.65037],[11.00861,46.65043],[11.00852,46.65044],[11.00844,46.6504],[11.00843,46.65035]]},"properties":{}},{"type":"Feature","geometry":{"type":"LineString","coordinates":[[11.03345,46.65582],[11.02305,46.65157],[11.02212,46.65117],[11.02087,46.65055],[11.01954,46.64981],[11.0173,46.64846],[11.01563,46.64752],[11.01466,46.64706],[11.01379,46.64673],[11.01209,46.64621],[11.0112,46.64601],[11.00939,46.64571],[11.00767,46.64558],[11.00608,46.64552],[11.00491,46.64555]]},"properties":{}},{"type":"Feature","geometry":{"type":"LineString","coordinates":[[11.01715,46.65312],[11.01721,46.65305],[11.01738,46.653]]},"properties":{}},{"type":"Feature","geometry":{"type":"LineString","coordinates":[[11.01738,46.653],[11.01759,46.65304],[11.01769,46.65312],[11.01771,46.65321]]},"properties":{}},{"type":"Feature","geometry":{"type":"LineString","coordinates":[[11.01714,46.65317],[11.01715,46.65312]]},"properties":{}},{"type":"Feature","geometry":{"type":"LineString","coordinates":[[11.01719,46.6533],[11.01714,46.65317]]},"properties":{}},{"type":"Feature","geometry":{"type":"LineString","coordinates":[[11.01771,46.65321],[11.01767,46.6533],[11.01755,46.65337],[11.01733,46.65338],[11.01719,46.6533]]},"properties":{}},{"type":"Feature","geometry":{"type":"LineString","coordinates":[[11.03208,46.65544],[11.03219,46.65531]]},"properties":{}},{"type":"Feature","geometry":{"type":"LineString","coordinates":[[11.03208,46.65544],[11.03181,46.65562]]},"properties":{}},{"type":"Feature","geometry":{"type":"LineString","coordinates":[[11.0786,46.67134],[11.07847,46.67124]]},"properties":{}},{"type":"Feature","geometry":{"type":"LineString","coordinates":[[11.16574,46.5593],[11.16654,46.55784],[11.16706,46.55662],[11.16732,46.55569],[11.16734,46.55551],[11.1672,46.55367],[11.16715,46.55357],[11.16702,46.55347],[11.16671,46.55339],[11.16522,46.55369],[11.16505,46.55368],[11.16486,46.55363],[11.16456,46.55341],[11.16445,46.55327],[11.16447,46.55305],[11.16476,46.55259],[11.16478,46.5524],[11.16475,46.55232],[11.16426,46.55196],[11.16409,46.55123],[11.16389,46.5511],[11.16365,46.55105],[11.1635,46.55107],[11.16337,46.55112],[11.1633,46.55118],[11.16304,46.5516],[11.16277,46.55184],[11.16236,46.55209],[11.16164,46.5524],[11.16114,46.55271],[11.16093,46.55275],[11.16081,46.55274],[11.16063,46.55263],[11.16058,46.55215],[11.16054,46.55202],[11.16045,46.55191],[11.16032,46.55181],[11.16016,46.55174],[11.15962,46.55158],[11.15944,46.55157],[11.1591,46.55165],[11.15728,46.55231],[11.1571,46.55246],[11.15685,46.55277],[11.15671,46.55286],[11.15643,46.55296],[11.15624,46.55297],[11.15559,46.5529],[11.15536,46.55285],[11.15332,46.55219],[11.15314,46.55217],[11.15284,46.55222],[11.1527,46.55231],[11.1523,46.55274],[11.15219,46.55281],[11.15193,46.55291],[11.15168,46.55289],[11.15094,46.55269],[11.15073,46.55257],[11.15068,46.55247],[11.15067,46.55235],[11.15073,46.55224],[11.15115,46.55175],[11.1512,46.55157],[11.1512,46.55146],[11.15112,46.55132],[11.15101,46.55122],[11.15067,46.55111],[11.14961,46.55105],[11.14931,46.55111],[11.1491,46.55123],[11.14842,46.55185]]},"properties":{}},{"type":"Feature","geometry":{"type":"LineString","coordinates":[[11.16446,46.57934],[11.16396,46.57993],[11.16357,46.58103],[11.1635,46.58114],[11.16315,46.58146],[11.16258,46.58222],[11.16217,46.58263],[11.16168,46.58362],[11.16137,46.58404],[11.16104,46.58463],[11.1602,46.58551],[11.16008,46.58569],[11.16002,46.58599],[11.16007,46.58732],[11.16017,46.58835]]},"properties":{}},{"type":"Feature","geometry":{"type":"LineString","coordinates":[[11.16022,46.58894],[11.16036,46.5903],[11.16021,46.59057],[11.15924,46.59185],[11.15903,46.59199],[11.15888,46.59205],[11.15839,46.5921],[11.15808,46.59202],[11.15764,46.5918],[11.15734,46.59174],[11.15699,46.59181],[11.15688,46.59188],[11.15676,46.59211]]},"properties":{}},{"type":"Feature","geometry":{"type":"LineString","coordinates":[[11.1608,46.60603],[11.16082,46.60598],[11.16086,46.60596],[11.16095,46.606],[11.16094,46.60605],[11.16089,46.60607],[11.1608,46.60603]]},"properties":{}},{"type":"Feature","geometry":{"type":"LineString","coordinates":[[11.16122,46.60609],[11.16178,46.60628]]},"properties":{}},{"type":"Feature","geometry":{"type":"LineString","coordinates":[[11.12882,46.67623],[11.12875,46.67625]]},"properties":{}},{"type":"Feature","geometry":{"type":"LineString","coordinates":[[11.12875,46.67625],[11.12799,46.67655]]},"properties":{}},{"type":"Feature","geometry":{"type":"LineString","coordinates":[[11.12386,46.6782],[11.12433,46.67798],[11.12512,46.67749],[11.12589,46.67713],[11.12655,46.67692],[11.12734,46.67674],[11.12799,46.67655]]},"properties":{}},{"type":"Feature","geometry":{"type":"LineString","coordinates":[[11.12509,46.67814],[11.12563,46.67804],[11.12609,46.6779]]},"properties":{}},{"type":"Feature","geometry":{"type":"LineString","coordinates":[[11.12387,46.67825],[11.12462,46.6782],[11.12509,46.67814]]},"properties":{}},{"type":"Feature","geometry":{"type":"LineString","coordinates":[[11.12323,46.67826],[11.12387,46.67825]]},"properties":{}},{"type":"Feature","geometry":{"type":"LineString","coordinates":[[11.16178,46.60628],[11.16235,46.60647]]},"properties":{}},{"type":"Feature","geometry":{"type":"LineString","coordinates":[[11.15974,46.60724],[11.15981,46.60705],[11.15992,46.6069],[11.16068,46.60614],[11.16082,46.60605]]},"properties":{}},{"type":"Feature","geometry":{"type":"LineString","coordinates":[[11.15972,46.60744],[11.15974,46.60724]]},"properties":{}},{"type":"Feature","geometry":{"type":"LineString","coordinates":[[11.1594,46.6081],[11.15972,46.60744]]},"properties":{}},{"type":"Feature","geometry":{"type":"LineString","coordinates":[[11.15628,46.61216],[11.15591,46.61167],[11.15588,46.61158],[11.15591,46.61145],[11.156,46.6113],[11.15656,46.6107],[11.1578,46.60984],[11.1589,46.60889],[11.15906,46.60869],[11.1594,46.6081]]},"properties":{}},{"type":"Feature","geometry":{"type":"LineString","coordinates":[[11.16261,46.61187],[11.16203,46.61223],[11.16124,46.61253]]},"properties":{}},{"type":"Feature","geometry":{"type":"LineString","coordinates":[[11.15399,46.6123],[11.15535,46.61256]]},"properties":{}},{"type":"Feature","geometry":{"type":"LineString","coordinates":[[11.16124,46.61253],[11.16063,46.61276],[11.15997,46.61319]]},"properties":{}},{"type":"Feature","geometry":{"type":"LineString","coordinates":[[11.15603,46.61323],[11.15637,46.61305]]},"properties":{}},{"type":"Feature","geometry":{"type":"LineString","coordinates":[[11.15997,46.61319],[11.15971,46.61336]]},"properties":{}},{"type":"Feature","geometry":{"type":"LineString","coordinates":[[11.15971,46.61336],[11.15942,46.61346],[11.15834,46.61352]]},"properties":{}},{"type":"Feature","geometry":{"type":"LineString","coordinates":[[11.15077,46.61319],[11.15082,46.61344],[11.15084,46.61396],[11.1508,46.61406],[11.15057,46.6143]]},"properties":{}},{"type":"Feature","geometry":{"type":"LineString","coordinates":[[11.14973,46.61578],[11.15001,46.61561],[11.15034,46.6153],[11.15057,46.6152],[11.15087,46.61514],[11.15137,46.61516],[11.15246,46.61483],[11.15378,46.61423],[11.15425,46.61389],[11.15603,46.61323]]},"properties":{}},{"type":"Feature","geometry":{"type":"LineString","coordinates":[[11.14372,46.61662],[11.14511,46.61646],[11.14544,46.61635],[11.1457,46.61614],[11.14603,46.61555]]},"properties":{}},{"type":"Feature","geometry":{"type":"LineString","coordinates":[[11.14289,46.61677],[11.14279,46.61679]]},"properties":{}},{"type":"Feature","geometry":{"type":"LineString","coordinates":[[11.14279,46.61679],[11.14266,46.61683]]},"properties":{}},{"type":"Feature","geometry":{"type":"LineString","coordinates":[[11.14266,46.61683],[11.1426,46.61687]]},"properties":{}},{"type":"Feature","geometry":{"type":"LineString","coordinates":[[11.1563,46.62558],[11.15608,46.62564]]},"properties":{}},{"type":"Feature","geometry":{"type":"LineString","coordinates":[[11.15682,46.62577],[11.1563,46.62558]]},"properties":{}},{"type":"Feature","geometry":{"type":"LineString","coordinates":[[11.15991,46.62688],[11.15798,46.62626],[11.15682,46.62577]]},"properties":{}},{"type":"Feature","geometry":{"type":"LineString","coordinates":[[11.14932,46.63064],[11.14703,46.63218]]},"properties":{}},{"type":"Feature","geometry":{"type":"LineString","coordinates":[[11.15085,46.63791],[11.15132,46.63848],[11.15138,46.63863],[11.15141,46.6388],[11.15131,46.63971],[11.15123,46.63997],[11.15089,46.64067],[11.15072,46.64088],[11.15004,46.64151],[11.14833,46.64378],[11.14702,46.64464],[11.14622,46.64538],[11.14568,46.64566],[11.14558,46.64578],[11.14554,46.6459],[11.14558,46.64671],[11.14575,46.64746],[11.14581,46.64813],[11.14587,46.64825],[11.14655,46.64892],[11.1468,46.64923],[11.14714,46.64986],[11.14716,46.65005],[11.1469,46.65078],[11.14693,46.65246],[11.14675,46.6534]]},"properties":{}},{"type":"Feature","geometry":{"type":"LineString","coordinates":[[11.14848,46.65385],[11.14877,46.65399],[11.1488,46.65402],[11.14878,46.6541],[11.14796,46.65469],[11.1477,46.65484]]},"properties":{}},{"type":"Feature","geometry":{"type":"LineString","coordinates":[[11.14843,46.65635],[11.14865,46.65628],[11.15107,46.65436],[11.15229,46.65343],[11.15238,46.65344]]},"properties":{}},{"type":"Feature","geometry":{"type":"LineString","coordinates":[[11.1477,46.65484],[11.14738,46.65515]]},"properties":{}},{"type":"Feature","geometry":{"type":"LineString","coordinates":[[11.14738,46.65515],[11.14726,46.6554],[11.14671,46.65605],[11.14614,46.65659],[11.14561,46.65702],[11.14548,46.65703],[11.14526,46.65698],[11.14519,46.65703]]},"properties":{}},{"type":"Feature","geometry":{"type":"LineString","coordinates":[[11.14512,46.65702],[11.1449,46.65748],[11.14488,46.65758],[11.1449,46.65778]]},"properties":{}},{"type":"Feature","geometry":{"type":"LineString","coordinates":[[11.14519,46.65703],[11.145,46.65741],[11.14496,46.65762],[11.14499,46.65779]]},"properties":{}},{"type":"Feature","geometry":{"type":"LineString","coordinates":[[11.1601,46.65804],[11.16214,46.65742],[11.16225,46.65734],[11.16225,46.65729],[11.16215,46.6571]]},"properties":{}},{"type":"Feature","geometry":{"type":"LineString","coordinates":[[11.1449,46.65778],[11.14493,46.65792]]},"properties":{}},{"type":"Feature","geometry":{"type":"LineString","coordinates":[[11.14493,46.65792],[11.14494,46.65794]]},"properties":{}},{"type":"Feature","geometry":{"type":"LineString","coordinates":[[11.14491,46.65797],[11.14493,46.65792]]},"properties":{}},{"type":"Feature","geometry":{"type":"LineString","coordinates":[[11.14666,46.6592],[11.14656,46.6591],[11.14655,46.65887],[11.14688,46.65846],[11.14693,46.65837],[11.14693,46.65823],[11.14718,46.65787],[11.1478,46.65727],[11.14811,46.65706],[11.14872,46.65673]]},"properties":{}},{"type":"Feature","geometry":{"type":"LineString","coordinates":[[11.14494,46.65794],[11.14501,46.65801],[11.14501,46.65811]]},"properties":{}},{"type":"Feature","geometry":{"type":"LineString","coordinates":[[11.14501,46.65811],[11.14493,46.65803],[11.14491,46.65797]]},"properties":{}},{"type":"Feature","geometry":{"type":"LineString","coordinates":[[11.15943,46.65825],[11.1601,46.65804]]},"properties":{}},{"type":"Feature","geometry":{"type":"LineString","coordinates":[[11.14499,46.65779],[11.14509,46.65809],[11.14527,46.65833],[11.14557,46.65858],[11.14578,46.6587]]},"properties":{}},{"type":"Feature","geometry":{"type":"LineString","coordinates":[[11.14501,46.65811],[11.1453,46.65846],[11.14569,46.65874]]},"properties":{}},{"type":"Feature","geometry":{"type":"LineString","coordinates":[[11.14578,46.6587],[11.14584,46.65872],[11.1461,46.65869]]},"properties":{}},{"type":"Feature","geometry":{"type":"LineString","coordinates":[[11.14569,46.65874],[11.14576,46.65875]]},"properties":{}},{"type":"Feature","geometry":{"type":"LineString","coordinates":[[11.24116,46.53055],[11.24129,46.53032]]},"properties":{}},{"type":"Feature","geometry":{"type":"LineString","coordinates":[[11.22238,46.5508],[11.22277,46.5505],[11.22333,46.54996],[11.22372,46.54946],[11.2242,46.54866],[11.22442,46.54813],[11.22461,46.54736],[11.22503,46.54526],[11.22526,46.54476],[11.22565,46.54426],[11.22624,46.54386],[11.2268,46.5436],[11.22849,46.54305],[11.2317,46.54172],[11.2325,46.54126],[11.23308,46.54082],[11.2335,46.54037],[11.23438,46.53932],[11.23464,46.53891],[11.23492,46.53825],[11.23505,46.53804],[11.23664,46.53588],[11.23748,46.535],[11.23877,46.53389],[11.23928,46.53336],[11.23981,46.53274],[11.24068,46.53152],[11.24071,46.53139],[11.2409,46.531],[11.24116,46.53055]]},"properties":{}},{"type":"Feature","geometry":{"type":"LineString","coordinates":[[11.20362,46.54293],[11.20347,46.54343],[11.20324,46.54384],[11.20311,46.54385]]},"properties":{}},{"type":"Feature","geometry":{"type":"LineString","coordinates":[[11.1889,46.58613],[11.18941,46.58499],[11.19037,46.58299],[11.19114,46.58182],[11.1916,46.58128],[11.19207,46.58078],[11.19288,46.58004],[11.19879,46.57479],[11.19929,46.57429],[11.19944,46.5742],[11.19993,46.57377],[11.20095,46.57301],[11.20203,46.57236],[11.20268,46.57203],[11.21028,46.56864],[11.2116,46.56791],[11.21215,46.56754],[11.21289,46.56695],[11.21765,46.56254],[11.21792,46.56225],[11.21834,46.56166],[11.21871,46.56085],[11.21869,46.56001],[11.21866,46.55967],[11.21845,46.55923],[11.21769,46.55793],[11.21759,46.55747],[11.21762,46.55713],[11.21776,46.55663],[11.21799,46.55627],[11.21853,46.55577]]},"properties":{}},{"type":"Feature","geometry":{"type":"LineString","coordinates":[[11.19934,46.5743],[11.19936,46.57425]]},"properties":{}},{"type":"Feature","geometry":{"type":"LineString","coordinates":[[11.19903,46.57457],[11.19934,46.5743]]},"properties":{}},{"type":"Feature","geometry":{"type":"LineString","coordinates":[[11.19923,46.57466],[11.19903,46.57457]]},"properties":{}},{"type":"Feature","geometry":{"type":"LineString","coordinates":[[11.19929,46.57469],[11.19923,46.57466]]},"properties":{}},{"type":"Feature","geometry":{"type":"LineString","coordinates":[[11.16341,46.57619],[11.16303,46.57599]]},"properties":{}},{"type":"Feature","geometry":{"type":"LineString","coordinates":[[11.16415,46.57661],[11.16357,46.57628]]},"properties":{}},{"type":"Feature","geometry":{"type":"LineString","coordinates":[[11.16586,46.57759],[11.1659,46.57773],[11.16586,46.57789],[11.16577,46.5781],[11.16564,46.57828],[11.16554,46.57838],[11.16514,46.57862],[11.16446,46.57934]]},"properties":{}},{"type":"Feature","geometry":{"type":"LineString","coordinates":[[11.24625,46.52214],[11.24658,46.52163],[11.24673,46.52147],[11.24689,46.52121],[11.247,46.52089],[11.24716,46.52057],[11.24748,46.52013],[11.24874,46.5189],[11.25,46.51802]]},"properties":{}},{"type":"Feature","geometry":{"type":"LineString","coordinates":[[11.24612,46.52236],[11.24625,46.52214]]},"properties":{}},{"type":"Feature","geometry":{"type":"LineString","coordinates":[[11.24604,46.52248],[11.24612,46.52236]]},"properties":{}},{"type":"Feature","geometry":{"type":"LineString","coordinates":[[11.24994,46.52607],[11.25,46.52603]]},"properties":{}},{"type":"Feature","geometry":{"type":"LineString","coordinates":[[11.24129,46.53032],[11.24182,46.52952],[11.24203,46.52929],[11.24559,46.52342],[11.24567,46.52317],[11.24604,46.52248]]},"properties":{}},{"type":"Feature","geometry":{"type":"LineString","coordinates":[[11.24738,46.52954],[11.24738,46.52946],[11.24792,46.5292],[11.24821,46.52903],[11.24835,46.52902]]},"properties":{}},{"type":"Feature","geometry":{"type":"LineString","coordinates":[[11.24405,46.53046],[11.24554,46.52996],[11.24558,46.53]]},"properties":{}},{"type":"Feature","geometry":{"type":"LineString","coordinates":[[11.24194,46.53128],[11.24368,46.53062],[11.24372,46.53057],[11.24397,46.53047],[11.24405,46.53046]]},"properties":{}},{"type":"Feature","geometry":{"type":"LineString","coordinates":[[11.2486,46.58721],[11.2489,46.58726],[11.25,46.58731]]},"properties":{}},{"type":"Feature","geometry":{"type":"LineString","coordinates":[[11.20161,46.58301],[11.20129,46.58097],[11.20114,46.58042],[11.20099,46.58018],[11.20066,46.57996]]},"properties":{}},{"type":"Feature","geometry":{"type":"LineString","coordinates":[[11.20179,46.58359],[11.20161,46.58301]]},"properties":{}},{"type":"Feature","geometry":{"type":"LineString","coordinates":[[11.18886,46.58624],[11.1889,46.58613]]},"properties":{}},{"type":"Feature","geometry":{"type":"LineString","coordinates":[[11.20061,46.58725],[11.20052,46.58734],[11.2003,46.58745],[11.20025,46.58752]]},"properties":{}},{"type":"Feature","geometry":{"type":"LineString","coordinates":[[11.20025,46.58752],[11.20022,46.58759],[11.20026,46.58764],[11.19995,46.58823],[11.19977,46.58872]]},"properties":{}},{"type":"Feature","geometry":{"type":"LineString","coordinates":[[11.18468,46.61983],[11.18481,46.61909],[11.18481,46.61851],[11.18461,46.6164],[11.18442,46.6157],[11.18395,46.6147],[11.18345,46.61398],[11.18278,46.61327],[11.18203,46.61264],[11.18156,46.61204],[11.1813,46.61147],[11.18122,46.61118],[11.18111,46.61042],[11.18131,46.60948],[11.18139,46.60931],[11.18433,46.60477],[11.18458,46.60426],[11.186,46.60002],[11.18694,46.59736],[11.18716,46.59647],[11.18738,46.59505],[11.18752,46.59365],[11.18756,46.592],[11.18794,46.58948],[11.18823,46.58813],[11.18858,46.58701],[11.18886,46.58624]]},"properties":{}},{"type":"Feature","geometry":{"type":"LineString","coordinates":[[11.16235,46.60647],[11.16372,46.60693]]},"properties":{}},{"type":"Feature","geometry":{"type":"LineString","coordinates":[[11.16372,46.60693],[11.16659,46.60794]]},"properties":{}},{"type":"Feature","geometry":{"type":"LineString","coordinates":[[11.16659,46.60794],[11.16762,46.60844]]},"properties":{}},{"type":"Feature","geometry":{"type":"LineString","coordinates":[[11.17222,46.60832],[11.17194,46.60835]]},"properties":{}},{"type":"Feature","geometry":{"type":"LineString","coordinates":[[11.17194,46.60835],[11.17193,46.6084],[11.17185,46.60844],[11.17175,46.60843],[11.1717,46.60837],[11.17174,46.60829],[11.17183,46.60827],[11.17191,46.6083],[11.17194,46.60835]]},"properties":{}},{"type":"Feature","geometry":{"type":"LineString","coordinates":[[11.1717,46.60837],[11.17105,46.60845]]},"properties":{}},{"type":"Feature","geometry":{"type":"LineString","coordinates":[[11.18173,46.60857],[11.18096,46.60832]]},"properties":{}},{"type":"Feature","geometry":{"type":"LineString","coordinates":[[11.17572,46.60885],[11.17271,46.60832],[11.17222,46.60832]]},"properties":{}},{"type":"Feature","geometry":{"type":"LineString","coordinates":[[11.16762,46.60844],[11.16817,46.60896],[11.16868,46.60925]]},"properties":{}},{"type":"Feature","geometry":{"type":"LineString","coordinates":[[11.17105,46.60845],[11.16995,46.60862],[11.16969,46.60872],[11.16868,46.60925]]},"properties":{}},{"type":"Feature","geometry":{"type":"LineString","coordinates":[[11.17637,46.60878],[11.17803,46.60916],[11.17801,46.60926]]},"properties":{}},{"type":"Feature","geometry":{"type":"LineString","coordinates":[[11.17781,46.60921],[11.17572,46.60885]]},"properties":{}},{"type":"Feature","geometry":{"type":"LineString","coordinates":[[11.16868,46.60925],[11.1685,46.60934]]},"properties":{}},{"type":"Feature","geometry":{"type":"LineString","coordinates":[[11.17869,46.60944],[11.17781,46.60921]]},"properties":{}},{"type":"Feature","geometry":{"type":"LineString","coordinates":[[11.17915,46.6095],[11.17869,46.60944]]},"properties":{}},{"type":"Feature","geometry":{"type":"LineString","coordinates":[[11.17929,46.60952],[11.17915,46.6095]]},"properties":{}},{"type":"Feature","geometry":{"type":"LineString","coordinates":[[11.17947,46.60954],[11.17929,46.60952]]},"properties":{}},{"type":"Feature","geometry":{"type":"LineString","coordinates":[[11.17956,46.60955],[11.17947,46.60954]]},"properties":{}},{"type":"Feature","geometry":{"type":"LineString","coordinates":[[11.17999,46.60961],[11.17956,46.60955]]},"properties":{}},{"type":"Feature","geometry":{"type":"LineString","coordinates":[[11.18007,46.60962],[11.17999,46.60961]]},"properties":{}},{"type":"Feature","geometry":{"type":"LineString","coordinates":[[11.18016,46.60963],[11.18007,46.60962]]},"properties":{}},{"type":"Feature","geometry":{"type":"LineString","coordinates":[[11.18374,46.60961],[11.18303,46.60967]]},"properties":{}},{"type":"Feature","geometry":{"type":"LineString","coordinates":[[11.19235,46.60974],[11.19184,46.60976],[11.18493,46.60958],[11.18374,46.60961]]},"properties":{}},{"type":"Feature","geometry":{"type":"LineString","coordinates":[[11.18237,46.60971],[11.18116,46.6097],[11.18016,46.60963]]},"properties":{}},{"type":"Feature","geometry":{"type":"LineString","coordinates":[[11.18303,46.60967],[11.18258,46.6097]]},"properties":{}},{"type":"Feature","geometry":{"type":"LineString","coordinates":[[11.18258,46.6097],[11.18237,46.60971]]},"properties":{}},{"type":"Feature","geometry":{"type":"LineString","coordinates":[[11.1685,46.60934],[11.16699,46.61014]]},"properties":{}},{"type":"Feature","geometry":{"type":"LineString","coordinates":[[11.18374,46.60961],[11.18371,46.60953],[11.18366,46.60951],[11.18258,46.60952],[11.18161,46.60948],[11.18153,46.60955],[11.18137,46.61042]]},"properties":{}},{"type":"Feature","geometry":{"type":"LineString","coordinates":[[11.16699,46.61014],[11.1662,46.61054],[11.16583,46.61061]]},"properties":{}},{"type":"Feature","geometry":{"type":"LineString","coordinates":[[11.1812,46.61042],[11.18111,46.61042]]},"properties":{}},{"type":"Feature","geometry":{"type":"LineString","coordinates":[[11.18137,46.61042],[11.1812,46.61042]]},"properties":{}},{"type":"Feature","geometry":{"type":"LineString","coordinates":[[11.16583,46.61061],[11.16511,46.61074]]},"properties":{}},{"type":"Feature","geometry":{"type":"LineString","coordinates":[[11.16511,46.61074],[11.16435,46.61101]]},"properties":{}},{"type":"Feature","geometry":{"type":"LineString","coordinates":[[11.16435,46.61101],[11.16371,46.61128]]},"properties":{}},{"type":"Feature","geometry":{"type":"LineString","coordinates":[[11.16371,46.61128],[11.16336,46.61143]]},"properties":{}},{"type":"Feature","geometry":{"type":"LineString","coordinates":[[11.16336,46.61143],[11.16303,46.61161]]},"properties":{}},{"type":"Feature","geometry":{"type":"LineString","coordinates":[[11.16303,46.61161],[11.16261,46.61187]]},"properties":{}},{"type":"Feature","geometry":{"type":"LineString","coordinates":[[11.18465,46.62001],[11.18468,46.61983]]},"properties":{}},{"type":"Feature","geometry":{"type":"LineString","coordinates":[[11.17895,46.62999],[11.17931,46.62958],[11.17974,46.62896],[11.184,46.62158],[11.18445,46.62069],[11.18465,46.62001]]},"properties":{}},{"type":"Feature","geometry":{"type":"LineString","coordinates":[[11.15991,46.62688],[11.16259,46.62755],[11.16453,46.62794],[11.16623,46.62819],[11.16652,46.62815],[11.16671,46.62824],[11.16713,46.62831],[11.16901,46.62841],[11.17199,46.62846],[11.17315,46.62858],[11.17312,46.62868],[11.17423,46.62893],[11.17522,46.62929],[11.17642,46.62947],[11.17649,46.62951],[11.17657,46.62963]]},"properties":{}},{"type":"Feature","geometry":{"type":"LineString","coordinates":[[11.17657,46.62963],[11.1766,46.62972]]},"properties":{}},{"type":"Feature","geometry":{"type":"LineString","coordinates":[[11.17673,46.62976],[11.17678,46.62971],[11.17699,46.62966],[11.17712,46.62967]]},"properties":{}},{"type":"Feature","geometry":{"type":"LineString","coordinates":[[11.1766,46.62972],[11.17673,46.62976]]},"properties":{}},{"type":"Feature","geometry":{"type":"LineString","coordinates":[[11.17712,46.62967],[11.17744,46.62984]]},"properties":{}},{"type":"Feature","geometry":{"type":"LineString","coordinates":[[11.17744,46.62984],[11.17749,46.63001],[11.17744,46.63008]]},"properties":{}},{"type":"Feature","geometry":{"type":"LineString","coordinates":[[11.17753,46.63013],[11.17766,46.63007],[11.17777,46.63009]]},"properties":{}},{"type":"Feature","geometry":{"type":"LineString","coordinates":[[11.17744,46.63008],[11.17753,46.63013]]},"properties":{}},{"type":"Feature","geometry":{"type":"LineString","coordinates":[[11.17777,46.63009],[11.17797,46.63023],[11.17821,46.63046],[11.17854,46.63101]]},"properties":{}},{"type":"Feature","geometry":{"type":"LineString","coordinates":[[11.17731,46.63131],[11.17822,46.63067],[11.17895,46.62999]]},"properties":{}},{"type":"Feature","geometry":{"type":"LineString","coordinates":[[11.17729,46.63148],[11.17731,46.63131]]},"properties":{}},{"type":"Feature","geometry":{"type":"LineString","coordinates":[[11.17854,46.63101],[11.17869,46.63131],[11.17883,46.63174],[11.17883,46.63191],[11.17875,46.63213]]},"properties":{}},{"type":"Feature","geometry":{"type":"LineString","coordinates":[[11.17695,46.63172],[11.17853,46.63222],[11.17866,46.63222],[11.17875,46.63213],[11.17884,46.63215]]},"properties":{}},{"type":"Feature","geometry":{"type":"LineString","coordinates":[[11.17434,46.63343],[11.1757,46.63252],[11.17679,46.63184],[11.17729,46.63148]]},"properties":{}},{"type":"Feature","geometry":{"type":"LineString","coordinates":[[11.17421,46.63353],[11.17434,46.63343]]},"properties":{}},{"type":"Feature","geometry":{"type":"LineString","coordinates":[[11.17649,46.63571],[11.17782,46.63368]]},"properties":{}},{"type":"Feature","geometry":{"type":"LineString","coordinates":[[11.17603,46.63676],[11.17613,46.63648]]},"properties":{}},{"type":"Feature","geometry":{"type":"LineString","coordinates":[[11.17591,46.63708],[11.17603,46.63676]]},"properties":{}},{"type":"Feature","geometry":{"type":"LineString","coordinates":[[11.17565,46.63838],[11.17561,46.63812],[11.17591,46.63708]]},"properties":{}},{"type":"Feature","geometry":{"type":"LineString","coordinates":[[11.17504,46.64534],[11.17504,46.64528],[11.17453,46.64475],[11.1731,46.64283],[11.17282,46.64236],[11.17259,46.64191],[11.17238,46.64135],[11.1722,46.64067],[11.1721,46.63996],[11.17212,46.63844],[11.17204,46.63822],[11.17205,46.63774],[11.17211,46.63752],[11.17233,46.63697],[11.173,46.63577],[11.17321,46.63547],[11.17322,46.63536],[11.17318,46.63526],[11.17293,46.63501],[11.17324,46.6345],[11.17353,46.63416],[11.17375,46.63393],[11.17421,46.63353]]},"properties":{}},{"type":"Feature","geometry":{"type":"LineString","coordinates":[[11.17696,46.64068],[11.1758,46.6387],[11.17565,46.63838]]},"properties":{}},{"type":"Feature","geometry":{"type":"LineString","coordinates":[[11.17696,46.64068],[11.17724,46.6412],[11.1774,46.64157],[11.17747,46.64181]]},"properties":{}},{"type":"Feature","geometry":{"type":"LineString","coordinates":[[11.17504,46.64542],[11.17504,46.64534]]},"properties":{}},{"type":"Feature","geometry":{"type":"LineString","coordinates":[[11.17678,46.64776],[11.17523,46.64577],[11.17507,46.64552],[11.17504,46.64542]]},"properties":{}},{"type":"Feature","geometry":{"type":"LineString","coordinates":[[11.17733,46.64782],[11.17741,46.64775],[11.17787,46.6475]]},"properties":{}},{"type":"Feature","geometry":{"type":"LineString","coordinates":[[11.17722,46.6474],[11.17721,46.64806]]},"properties":{}},{"type":"Feature","geometry":{"type":"LineString","coordinates":[[11.17678,46.64776],[11.17672,46.64775]]},"properties":{}},{"type":"Feature","geometry":{"type":"LineString","coordinates":[[11.17672,46.64775],[11.17657,46.64782]]},"properties":{}},{"type":"Feature","geometry":{"type":"LineString","coordinates":[[11.17709,46.648],[11.17698,46.64797],[11.17678,46.64776]]},"properties":{}},{"type":"Feature","geometry":{"type":"LineString","coordinates":[[11.17709,46.648],[11.17733,46.64782]]},"properties":{}},{"type":"Feature","geometry":{"type":"LineString","coordinates":[[11.17721,46.64806],[11.17727,46.64829],[11.17736,46.64836]]},"properties":{}},{"type":"Feature","geometry":{"type":"LineString","coordinates":[[11.17714,46.64836],[11.17721,46.64806]]},"properties":{}},{"type":"Feature","geometry":{"type":"LineString","coordinates":[[11.17657,46.64782],[11.17656,46.64786],[11.17659,46.64793],[11.17698,46.64832],[11.17696,46.6485],[11.17698,46.64869],[11.17679,46.64916],[11.17648,46.64963],[11.1762,46.64995],[11.17528,46.65082],[11.17517,46.65101],[11.17506,46.6515],[11.17498,46.65258],[11.17494,46.65269],[11.17485,46.6528],[11.17466,46.65293],[11.17405,46.65323],[11.17229,46.65376],[11.1718,46.65395],[11.17105,46.65439],[11.17051,46.65485],[11.17015,46.65511]]},"properties":{}},{"type":"Feature","geometry":{"type":"LineString","coordinates":[[11.17696,46.64902],[11.17683,46.64928],[11.17655,46.64967],[11.17629,46.64996],[11.17532,46.65089],[11.17521,46.65117],[11.17515,46.65151],[11.17507,46.65257],[11.17502,46.65271],[11.17493,46.65282],[11.17428,46.65321],[11.17402,46.65331],[11.17225,46.65384],[11.17185,46.65399],[11.17122,46.65435],[11.17021,46.65515]]},"properties":{}},{"type":"Feature","geometry":{"type":"LineString","coordinates":[[11.18504,46.65424],[11.18499,46.6543],[11.18487,46.65433],[11.18475,46.65429],[11.18472,46.65422],[11.18476,46.65415],[11.1849,46.65412],[11.18499,46.65415],[11.18504,46.65424]]},"properties":{}},{"type":"Feature","geometry":{"type":"LineString","coordinates":[[11.21299,46.55226],[11.21276,46.55218],[11.21255,46.55199],[11.21023,46.5491],[11.2101,46.54914],[11.20924,46.54796],[11.20812,46.54695],[11.20805,46.54681],[11.20802,46.54666],[11.20805,46.54518],[11.20802,46.54506],[11.20748,46.54402],[11.20734,46.54384],[11.20712,46.54374],[11.20654,46.5436],[11.20589,46.54324],[11.20495,46.54313],[11.20452,46.54301],[11.20371,46.54297],[11.20362,46.54293]]},"properties":{}},{"type":"Feature","geometry":{"type":"LineString","coordinates":[[11.22226,46.55089],[11.22238,46.5508]]},"properties":{}},{"type":"Feature","geometry":{"type":"LineString","coordinates":[[11.21896,46.55515],[11.21937,46.55433],[11.21976,46.55313],[11.21997,46.55272],[11.22018,46.55244],[11.22074,46.55186],[11.22112,46.55159],[11.22226,46.55089]]},"properties":{}},{"type":"Feature","geometry":{"type":"LineString","coordinates":[[11.21684,46.55503],[11.21545,46.5546],[11.21506,46.55444],[11.21448,46.5541],[11.21392,46.55366],[11.21322,46.55285],[11.21294,46.55245],[11.21296,46.55239],[11.21302,46.55236]]},"properties":{}},{"type":"Feature","geometry":{"type":"LineString","coordinates":[[11.2179,46.55512],[11.21804,46.55469],[11.21803,46.55464],[11.21798,46.55466],[11.21776,46.55508],[11.21773,46.55525],[11.21766,46.55527]]},"properties":{}},{"type":"Feature","geometry":{"type":"LineString","coordinates":[[11.21707,46.5551],[11.21703,46.55509]]},"properties":{}},{"type":"Feature","geometry":{"type":"LineString","coordinates":[[11.21746,46.55522],[11.21707,46.5551]]},"properties":{}},{"type":"Feature","geometry":{"type":"LineString","coordinates":[[11.2189,46.55524],[11.21896,46.55515]]},"properties":{}},{"type":"Feature","geometry":{"type":"LineString","coordinates":[[11.21872,46.55553],[11.2189,46.55524]]},"properties":{}},{"type":"Feature","geometry":{"type":"LineString","coordinates":[[11.16907,46.65477],[11.16977,46.65449]]},"properties":{}},{"type":"Feature","geometry":{"type":"LineString","coordinates":[[11.16215,46.6571],[11.16223,46.65703],[11.16292,46.65681],[11.16348,46.65661],[11.16359,46.65654],[11.16367,46.65643],[11.16369,46.65627],[11.16344,46.65575],[11.16351,46.65553],[11.1637,46.65539],[11.16499,46.65493]]},"properties":{}},{"type":"Feature","geometry":{"type":"LineString","coordinates":[[11.16328,46.65732],[11.16292,46.65681]]},"properties":{}},{"type":"Feature","geometry":{"type":"LineString","coordinates":[[11.18352,46.66076],[11.1836,46.66079],[11.1838,46.66101]]},"properties":{}},{"type":"Feature","geometry":{"type":"LineString","coordinates":[[11.16386,46.6622],[11.16365,46.66234],[11.16303,46.66263],[11.1629,46.66272]]},"properties":{}},{"type":"Feature","geometry":{"type":"LineString","coordinates":[[11.16458,46.66331],[11.16454,46.66318],[11.16437,46.66291],[11.16397,46.66241],[11.16391,46.6622]]},"properties":{}},{"type":"Feature","geometry":{"type":"LineString","coordinates":[[11.16673,46.66426],[11.16755,46.6639],[11.16781,46.66382]]},"properties":{}},{"type":"Feature","geometry":{"type":"LineString","coordinates":[[11.16439,46.66653],[11.16399,46.6661],[11.16321,46.66514]]},"properties":{}},{"type":"Feature","geometry":{"type":"LineString","coordinates":[[11.18486,46.66842],[11.18504,46.66855]]},"properties":{}},{"type":"Feature","geometry":{"type":"LineString","coordinates":[[11.18486,46.66855],[11.18486,46.66842]]},"properties":{}},{"type":"Feature","geometry":{"type":"LineString","coordinates":[[11.15984,46.66171],[11.16009,46.66169],[11.16038,46.66171],[11.16046,46.66175]]},"properties":{}},{"type":"Feature","geometry":{"type":"LineString","coordinates":[[11.1596,46.66177],[11.15964,46.66167]]},"properties":{}},{"type":"Feature","geometry":{"type":"LineString","coordinates":[[11.15981,46.66181],[11.15941,46.66165]]},"properties":{}},{"type":"Feature","geometry":{"type":"LineString","coordinates":[[11.15981,46.66181],[11.15981,46.66174],[11.15984,46.66171]]},"properties":{}},{"type":"Feature","geometry":{"type":"LineString","coordinates":[[11.16046,46.66175],[11.1608,46.66174],[11.16108,46.66181]]},"properties":{}},{"type":"Feature","geometry":{"type":"LineString","coordinates":[[11.15981,46.66188],[11.1596,46.66177]]},"properties":{}},{"type":"Feature","geometry":{"type":"LineString","coordinates":[[11.16108,46.66181],[11.16069,46.6618],[11.16045,46.66186]]},"properties":{}},{"type":"Feature","geometry":{"type":"LineString","coordinates":[[11.15985,46.66185],[11.15981,46.66181]]},"properties":{}},{"type":"Feature","geometry":{"type":"LineString","coordinates":[[11.16026,46.66202],[11.16012,46.66204],[11.16004,46.66202]]},"properties":{}},{"type":"Feature","geometry":{"type":"LineString","coordinates":[[11.16026,46.66202],[11.15997,46.66239]]},"properties":{}},{"type":"Feature","geometry":{"type":"LineString","coordinates":[[11.18504,46.66855],[11.1851,46.6686]]},"properties":{}},{"type":"Feature","geometry":{"type":"LineString","coordinates":[[11.1851,46.6686],[11.1851,46.66867],[11.18505,46.66872]]},"properties":{}},{"type":"Feature","geometry":{"type":"LineString","coordinates":[[11.18505,46.66872],[11.18496,46.66874]]},"properties":{}},{"type":"Feature","geometry":{"type":"LineString","coordinates":[[11.18505,46.66872],[11.18522,46.66884]]},"properties":{}},{"type":"Feature","geometry":{"type":"LineString","coordinates":[[11.1657,46.66884],[11.16654,46.66877]]},"properties":{}},{"type":"Feature","geometry":{"type":"LineString","coordinates":[[11.18527,46.6689],[11.18496,46.66874]]},"properties":{}},{"type":"Feature","geometry":{"type":"LineString","coordinates":[[11.16654,46.66877],[11.16683,46.66876],[11.16744,46.66886],[11.16752,46.6689]]},"properties":{}},{"type":"Feature","geometry":{"type":"LineString","coordinates":[[11.18522,46.66884],[11.18527,46.6689]]},"properties":{}},{"type":"Feature","geometry":{"type":"LineString","coordinates":[[11.16752,46.6689],[11.16779,46.66901]]},"properties":{}},{"type":"Feature","geometry":{"type":"LineString","coordinates":[[11.16511,46.66908],[11.16534,46.66905],[11.1657,46.66884]]},"properties":{}},{"type":"Feature","geometry":{"type":"LineString","coordinates":[[11.16403,46.6691],[11.16406,46.66922]]},"properties":{}},{"type":"Feature","geometry":{"type":"LineString","coordinates":[[11.16424,46.66927],[11.16429,46.66919],[11.16442,46.66915],[11.16455,46.66916],[11.16511,46.66908]]},"properties":{}},{"type":"Feature","geometry":{"type":"LineString","coordinates":[[11.16406,46.66922],[11.16398,46.66927],[11.16357,46.66935]]},"properties":{}},{"type":"Feature","geometry":{"type":"LineString","coordinates":[[11.16415,46.6693],[11.16424,46.66927]]},"properties":{}},{"type":"Feature","geometry":{"type":"LineString","coordinates":[[11.16406,46.66933],[11.16415,46.6693]]},"properties":{}},{"type":"Feature","geometry":{"type":"LineString","coordinates":[[11.16357,46.66935],[11.16308,46.66943]]},"properties":{}},{"type":"Feature","geometry":{"type":"LineString","coordinates":[[11.16405,46.66933],[11.16267,46.66952]]},"properties":{}},{"type":"Feature","geometry":{"type":"LineString","coordinates":[[11.16779,46.66901],[11.1682,46.66908],[11.16863,46.6695],[11.16878,46.66966],[11.16895,46.66993],[11.16911,46.67039],[11.16917,46.67046],[11.16947,46.67065],[11.16963,46.67094],[11.16969,46.67099]]},"properties":{}},{"type":"Feature","geometry":{"type":"LineString","coordinates":[[11.16942,46.67029],[11.16967,46.67]]},"properties":{}},{"type":"Feature","geometry":{"type":"LineString","coordinates":[[11.16943,46.67031],[11.16942,46.67029]]},"properties":{}},{"type":"Feature","geometry":{"type":"LineString","coordinates":[[11.16934,46.67035],[11.16943,46.67031]]},"properties":{}},{"type":"Feature","geometry":{"type":"LineString","coordinates":[[11.18897,46.67132],[11.18871,46.67115]]},"properties":{}},{"type":"Feature","geometry":{"type":"LineString","coordinates":[[11.18897,46.67132],[11.18902,46.67119]]},"properties":{}},{"type":"Feature","geometry":{"type":"LineString","coordinates":[[11.16969,46.67099],[11.16964,46.67125],[11.16967,46.67152],[11.16952,46.67155]]},"properties":{}},{"type":"Feature","geometry":{"type":"LineString","coordinates":[[11.18934,46.67119],[11.18917,46.6713],[11.18916,46.67139]]},"properties":{}},{"type":"Feature","geometry":{"type":"LineString","coordinates":[[11.18902,46.67119],[11.18911,46.67127],[11.18916,46.67139]]},"properties":{}},{"type":"Feature","geometry":{"type":"LineString","coordinates":[[11.16844,46.67116],[11.16855,46.6712],[11.16877,46.67144]]},"properties":{}},{"type":"Feature","geometry":{"type":"LineString","coordinates":[[11.1892,46.67146],[11.18897,46.67132]]},"properties":{}},{"type":"Feature","geometry":{"type":"LineString","coordinates":[[11.18916,46.67139],[11.1892,46.67146]]},"properties":{}},{"type":"Feature","geometry":{"type":"LineString","coordinates":[[11.16877,46.67144],[11.16894,46.67165]]},"properties":{}},{"type":"Feature","geometry":{"type":"LineString","coordinates":[[11.16952,46.67155],[11.16902,46.67164]]},"properties":{}},{"type":"Feature","geometry":{"type":"LineString","coordinates":[[11.16898,46.67165],[11.16902,46.67164]]},"properties":{}},{"type":"Feature","geometry":{"type":"LineString","coordinates":[[11.16894,46.67165],[11.16898,46.67165]]},"properties":{}},{"type":"Feature","geometry":{"type":"LineString","coordinates":[[11.17032,46.67159],[11.1704,46.67167],[11.17064,46.67172]]},"properties":{}},{"type":"Feature","geometry":{"type":"LineString","coordinates":[[11.17077,46.67177],[11.17064,46.67172]]},"properties":{}},{"type":"Feature","geometry":{"type":"LineString","coordinates":[[11.1713,46.67204],[11.17069,46.67167]]},"properties":{}},{"type":"Feature","geometry":{"type":"LineString","coordinates":[[11.17072,46.67181],[11.17077,46.67195],[11.17092,46.67211],[11.17239,46.67295]]},"properties":{}},{"type":"Feature","geometry":{"type":"LineString","coordinates":[[11.17746,46.68368],[11.17731,46.68311],[11.177,46.68233],[11.17588,46.68011],[11.17528,46.67943],[11.17468,46.67885],[11.17417,46.6783],[11.17423,46.6781],[11.17472,46.67782],[11.1753,46.67758],[11.1754,46.67752],[11.17542,46.67745],[11.17514,46.67709],[11.17479,46.67655],[11.17456,46.67597],[11.17431,46.6751],[11.17431,46.67492],[11.17437,46.67468],[11.17436,46.6746],[11.17428,46.67438],[11.17421,46.67402],[11.17411,46.67375],[11.17397,46.67352],[11.17375,46.67334],[11.17339,46.67317],[11.173,46.67313],[11.17298,46.67309],[11.17263,46.67299],[11.17106,46.67212],[11.17096,46.67203],[11.17088,46.67186],[11.17077,46.67177]]},"properties":{}},{"type":"Feature","geometry":{"type":"LineString","coordinates":[[11.17677,46.6837],[11.17746,46.68368]]},"properties":{}},{"type":"Feature","geometry":{"type":"LineString","coordinates":[[11.17175,46.71892],[11.17151,46.71867],[11.17139,46.71841],[11.17157,46.7181],[11.17195,46.71783],[11.17206,46.71768],[11.17208,46.71743],[11.17237,46.71634],[11.17236,46.7161],[11.17231,46.71599],[11.17162,46.71544],[11.17139,46.71519],[11.17135,46.71508]]},"properties":{}},{"type":"Feature","geometry":{"type":"LineString","coordinates":[[11.17202,46.71929],[11.172,46.71922],[11.17175,46.71892]]},"properties":{}},{"type":"Feature","geometry":{"type":"LineString","coordinates":[[11.17724,46.72164],[11.17653,46.72141],[11.17602,46.72129],[11.17529,46.72131],[11.17469,46.72141],[11.17455,46.72137],[11.1744,46.7213],[11.17389,46.72083],[11.17374,46.72078],[11.17335,46.72075],[11.17308,46.72063],[11.17296,46.72065]]},"properties":{}},{"type":"Feature","geometry":{"type":"LineString","coordinates":[[11.18058,46.72434],[11.18062,46.7243],[11.1806,46.72418],[11.18042,46.72378],[11.18008,46.72335],[11.17983,46.72296],[11.17977,46.72281],[11.17965,46.72227],[11.17949,46.72198],[11.1789,46.72127],[11.17844,46.72049],[11.17807,46.72001],[11.17797,46.71994],[11.17764,46.71979],[11.17726,46.7197],[11.17722,46.71965],[11.17734,46.71961],[11.17833,46.71965],[11.1786,46.71974],[11.17885,46.71997],[11.17894,46.72002],[11.17928,46.72011],[11.17949,46.72021],[11.17968,46.72036],[11.18,46.72075],[11.18124,46.72185],[11.1816,46.72203]]},"properties":{}},{"type":"Feature","geometry":{"type":"LineString","coordinates":[[11.18879,46.7257],[11.18868,46.7251],[11.18872,46.72465],[11.18838,46.72422],[11.18834,46.72413],[11.1883,46.72389],[11.18806,46.72357],[11.18778,46.72329],[11.18764,46.72281],[11.18705,46.72193],[11.18699,46.72128],[11.18702,46.72108],[11.18694,46.72039],[11.18699,46.72026],[11.18697,46.71985],[11.18679,46.71928],[11.18657,46.71897],[11.18664,46.71871],[11.18645,46.71853]]},"properties":{}},{"type":"Feature","geometry":{"type":"LineString","coordinates":[[11.1816,46.72203],[11.18199,46.72232]]},"properties":{}},{"type":"Feature","geometry":{"type":"LineString","coordinates":[[11.17724,46.72164],[11.17809,46.72229],[11.17838,46.72259],[11.1785,46.72267],[11.17891,46.72312],[11.17933,46.72332],[11.18012,46.72381],[11.18039,46.72408],[11.18048,46.7243],[11.18058,46.72434]]},"properties":{}},{"type":"Feature","geometry":{"type":"LineString","coordinates":[[11.18199,46.72232],[11.1821,46.72239],[11.18304,46.72325],[11.18368,46.72366],[11.18466,46.72447],[11.18546,46.7253],[11.18547,46.72537],[11.18559,46.72546]]},"properties":{}},{"type":"Feature","geometry":{"type":"LineString","coordinates":[[11.18527,46.72322],[11.18625,46.72408],[11.18694,46.72439],[11.18723,46.72456],[11.18762,46.72487],[11.18811,46.72512]]},"properties":{}},{"type":"Feature","geometry":{"type":"LineString","coordinates":[[11.18559,46.72546],[11.18609,46.72578],[11.18627,46.72578],[11.1863,46.72572],[11.18612,46.72563],[11.18587,46.72538],[11.18587,46.72526],[11.18535,46.72431],[11.18513,46.72382],[11.18486,46.72305],[11.18472,46.72286],[11.18472,46.72281],[11.18482,46.7228],[11.18492,46.72285],[11.18502,46.723],[11.18527,46.72322]]},"properties":{}},{"type":"Feature","geometry":{"type":"LineString","coordinates":[[11.18811,46.72512],[11.1883,46.72526],[11.18866,46.72587],[11.18874,46.72592],[11.18883,46.72588],[11.18879,46.7257]]},"properties":{}},{"type":"Feature","geometry":{"type":"LineString","coordinates":[[11.14576,46.65875],[11.14587,46.65876]]},"properties":{}},{"type":"Feature","geometry":{"type":"LineString","coordinates":[[11.14575,46.65879],[11.14569,46.65874]]},"properties":{}},{"type":"Feature","geometry":{"type":"LineString","coordinates":[[11.14581,46.65884],[11.14575,46.65879]]},"properties":{}},{"type":"Feature","geometry":{"type":"LineString","coordinates":[[11.14954,46.65702],[11.15785,46.66097]]},"properties":{}},{"type":"Feature","geometry":{"type":"LineString","coordinates":[[11.14666,46.6592],[11.1466,46.65923]]},"properties":{}},{"type":"Feature","geometry":{"type":"LineString","coordinates":[[11.1466,46.65923],[11.1464,46.65936]]},"properties":{}},{"type":"Feature","geometry":{"type":"LineString","coordinates":[[11.14629,46.65941],[11.1464,46.65936]]},"properties":{}},{"type":"Feature","geometry":{"type":"LineString","coordinates":[[11.1596,46.66177],[11.15909,46.66161],[11.14948,46.65707]]},"properties":{}},{"type":"Feature","geometry":{"type":"LineString","coordinates":[[11.14597,46.65954],[11.14598,46.65946],[11.14605,46.6594],[11.14629,46.65941]]},"properties":{}},{"type":"Feature","geometry":{"type":"LineString","coordinates":[[11.14522,46.66029],[11.14537,46.6598],[11.14563,46.65978]]},"properties":{}},{"type":"Feature","geometry":{"type":"LineString","coordinates":[[11.14515,46.66053],[11.14522,46.66029]]},"properties":{}},{"type":"Feature","geometry":{"type":"LineString","coordinates":[[11.15034,46.66201],[11.15018,46.66193],[11.14666,46.6592]]},"properties":{}},{"type":"Feature","geometry":{"type":"LineString","coordinates":[[11.14506,46.66077],[11.14515,46.66053]]},"properties":{}},{"type":"Feature","geometry":{"type":"LineString","coordinates":[[11.14499,46.66103],[11.14506,46.66077]]},"properties":{}},{"type":"Feature","geometry":{"type":"LineString","coordinates":[[11.14495,46.6612],[11.14499,46.66103]]},"properties":{}},{"type":"Feature","geometry":{"type":"LineString","coordinates":[[11.15785,46.66097],[11.15868,46.66136]]},"properties":{}},{"type":"Feature","geometry":{"type":"LineString","coordinates":[[11.15868,46.66136],[11.15874,46.66139]]},"properties":{}},{"type":"Feature","geometry":{"type":"LineString","coordinates":[[11.15874,46.66139],[11.15906,46.66154],[11.15941,46.66165]]},"properties":{}},{"type":"Feature","geometry":{"type":"LineString","coordinates":[[11.15989,46.66163],[11.15966,46.66162],[11.15964,46.66167]]},"properties":{}},{"type":"Feature","geometry":{"type":"LineString","coordinates":[[11.14462,46.6622],[11.1447,46.66212],[11.14495,46.6612]]},"properties":{}},{"type":"Feature","geometry":{"type":"LineString","coordinates":[[11.15997,46.66239],[11.16004,46.66202]]},"properties":{}},{"type":"Feature","geometry":{"type":"LineString","coordinates":[[11.14454,46.66252],[11.14462,46.6622]]},"properties":{}},{"type":"Feature","geometry":{"type":"LineString","coordinates":[[11.14438,46.66318],[11.14443,46.66322]]},"properties":{}},{"type":"Feature","geometry":{"type":"LineString","coordinates":[[11.15893,46.66245],[11.15888,46.66245],[11.15884,46.6625],[11.15865,46.66405],[11.15888,46.66409],[11.15896,46.66416]]},"properties":{}},{"type":"Feature","geometry":{"type":"LineString","coordinates":[[11.1444,46.66336],[11.14441,46.66331]]},"properties":{}},{"type":"Feature","geometry":{"type":"LineString","coordinates":[[11.15052,46.66333],[11.15074,46.66336]]},"properties":{}},{"type":"Feature","geometry":{"type":"LineString","coordinates":[[11.15074,46.66336],[11.15084,46.66341],[11.15082,46.66345]]},"properties":{}},{"type":"Feature","geometry":{"type":"LineString","coordinates":[[11.14693,46.66597],[11.14669,46.6657],[11.14622,46.66529],[11.14529,46.6644],[11.14433,46.66328],[11.14451,46.66281],[11.14454,46.66252]]},"properties":{}},{"type":"Feature","geometry":{"type":"LineString","coordinates":[[11.15674,46.66476],[11.15581,46.66453],[11.15472,46.66436],[11.1539,46.66445],[11.15351,46.66451],[11.15349,46.66455]]},"properties":{}},{"type":"Feature","geometry":{"type":"LineString","coordinates":[[11.15656,46.66473],[11.15548,46.66449],[11.15469,46.66439],[11.15439,46.6644],[11.15349,46.66455]]},"properties":{}},{"type":"Feature","geometry":{"type":"LineString","coordinates":[[11.16126,46.66477],[11.15967,46.66439]]},"properties":{}},{"type":"Feature","geometry":{"type":"LineString","coordinates":[[11.16126,46.66477],[11.16135,46.6648]]},"properties":{}},{"type":"Feature","geometry":{"type":"LineString","coordinates":[[11.15668,46.66486],[11.15656,46.66473]]},"properties":{}},{"type":"Feature","geometry":{"type":"LineString","coordinates":[[11.15674,46.66476],[11.15668,46.66486]]},"properties":{}},{"type":"Feature","geometry":{"type":"LineString","coordinates":[[11.15665,46.66491],[11.15656,46.66473]]},"properties":{}},{"type":"Feature","geometry":{"type":"LineString","coordinates":[[11.16135,46.6648],[11.16181,46.66489],[11.16321,46.66503]]},"properties":{}},{"type":"Feature","geometry":{"type":"LineString","coordinates":[[11.15811,46.66508],[11.15795,46.66514],[11.15781,46.66513],[11.15725,46.6649],[11.15674,46.66476]]},"properties":{}},{"type":"Feature","geometry":{"type":"LineString","coordinates":[[11.15798,46.66525],[11.15735,46.66496],[11.15656,46.66473]]},"properties":{}},{"type":"Feature","geometry":{"type":"LineString","coordinates":[[11.14287,46.66536],[11.14266,46.66524]]},"properties":{}},{"type":"Feature","geometry":{"type":"LineString","coordinates":[[11.14305,46.66546],[11.14287,46.66536]]},"properties":{}},{"type":"Feature","geometry":{"type":"LineString","coordinates":[[11.15652,46.66666],[11.15671,46.66553],[11.15672,46.66529],[11.15665,46.66491]]},"properties":{}},{"type":"Feature","geometry":{"type":"LineString","coordinates":[[11.15668,46.66486],[11.15676,46.6653],[11.15676,46.6655],[11.15657,46.66664],[11.15652,46.66676]]},"properties":{}},{"type":"Feature","geometry":{"type":"LineString","coordinates":[[11.14339,46.66547],[11.14366,46.66546],[11.14478,46.66568],[11.14565,46.66595],[11.1463,46.66622]]},"properties":{}},{"type":"Feature","geometry":{"type":"LineString","coordinates":[[11.14692,46.66598],[11.14693,46.66597]]},"properties":{}},{"type":"Feature","geometry":{"type":"LineString","coordinates":[[11.14634,46.66621],[11.14692,46.66598]]},"properties":{}},{"type":"Feature","geometry":{"type":"LineString","coordinates":[[11.1463,46.66622],[11.14634,46.66621]]},"properties":{}},{"type":"Feature","geometry":{"type":"LineString","coordinates":[[11.14694,46.66656],[11.1463,46.66622]]},"properties":{}},{"type":"Feature","geometry":{"type":"LineString","coordinates":[[11.16116,46.66637],[11.16015,46.66634],[11.15936,46.66645]]},"properties":{}},{"type":"Feature","geometry":{"type":"LineString","coordinates":[[11.15936,46.66645],[11.15864,46.66657]]},"properties":{}},{"type":"Feature","geometry":{"type":"LineString","coordinates":[[11.15638,46.66683],[11.15652,46.66666]]},"properties":{}},{"type":"Feature","geometry":{"type":"LineString","coordinates":[[11.15853,46.66695],[11.15843,46.66669]]},"properties":{}},{"type":"Feature","geometry":{"type":"LineString","coordinates":[[11.15857,46.66669],[11.15853,46.66695]]},"properties":{}},{"type":"Feature","geometry":{"type":"LineString","coordinates":[[11.15656,46.66676],[11.15655,46.66688]]},"properties":{}},{"type":"Feature","geometry":{"type":"LineString","coordinates":[[11.15652,46.66676],[11.15651,46.66688]]},"properties":{}},{"type":"Feature","geometry":{"type":"LineString","coordinates":[[11.15638,46.66683],[11.1564,46.66699]]},"properties":{}},{"type":"Feature","geometry":{"type":"LineString","coordinates":[[11.15651,46.66688],[11.15646,46.66693],[11.15645,46.66701]]},"properties":{}},{"type":"Feature","geometry":{"type":"LineString","coordinates":[[11.16203,46.66863],[11.16189,46.66863],[11.16175,46.66857],[11.16173,46.66852],[11.16116,46.66637]]},"properties":{}},{"type":"Feature","geometry":{"type":"LineString","coordinates":[[11.15015,46.66749],[11.15013,46.66753]]},"properties":{}},{"type":"Feature","geometry":{"type":"LineString","coordinates":[[11.14858,46.66736],[11.14875,46.6674],[11.14997,46.66789]]},"properties":{}},{"type":"Feature","geometry":{"type":"LineString","coordinates":[[11.15904,46.66833],[11.15853,46.66695]]},"properties":{}},{"type":"Feature","geometry":{"type":"LineString","coordinates":[[11.15013,46.66753],[11.14998,46.66786]]},"properties":{}},{"type":"Feature","geometry":{"type":"LineString","coordinates":[[11.14998,46.66786],[11.14997,46.66789]]},"properties":{}},{"type":"Feature","geometry":{"type":"LineString","coordinates":[[11.15617,46.66875],[11.1564,46.66699]]},"properties":{}},{"type":"Feature","geometry":{"type":"LineString","coordinates":[[11.14997,46.66789],[11.14987,46.66815],[11.14987,46.66828]]},"properties":{}},{"type":"Feature","geometry":{"type":"LineString","coordinates":[[11.15645,46.66701],[11.15615,46.66917]]},"properties":{}},{"type":"Feature","geometry":{"type":"LineString","coordinates":[[11.16317,46.6682],[11.16203,46.66863]]},"properties":{}},{"type":"Feature","geometry":{"type":"LineString","coordinates":[[11.15912,46.66855],[11.15904,46.66833]]},"properties":{}},{"type":"Feature","geometry":{"type":"LineString","coordinates":[[11.15944,46.66914],[11.15912,46.66855]]},"properties":{}},{"type":"Feature","geometry":{"type":"LineString","coordinates":[[11.15617,46.66875],[11.15609,46.66913]]},"properties":{}},{"type":"Feature","geometry":{"type":"LineString","coordinates":[[11.16269,46.66944],[11.16261,46.66916],[11.16253,46.66904],[11.1622,46.66885],[11.16203,46.66863]]},"properties":{}},{"type":"Feature","geometry":{"type":"LineString","coordinates":[[11.15615,46.66917],[11.15612,46.66949]]},"properties":{}},{"type":"Feature","geometry":{"type":"LineString","coordinates":[[11.15951,46.66955],[11.15952,46.66932],[11.15944,46.66914]]},"properties":{}},{"type":"Feature","geometry":{"type":"LineString","coordinates":[[11.15612,46.66949],[11.15611,46.66951]]},"properties":{}},{"type":"Feature","geometry":{"type":"LineString","coordinates":[[11.16308,46.66943],[11.16271,46.66949],[11.16155,46.66957]]},"properties":{}},{"type":"Feature","geometry":{"type":"LineString","coordinates":[[11.15973,46.66957],[11.15951,46.66955]]},"properties":{}},{"type":"Feature","geometry":{"type":"LineString","coordinates":[[11.1604,46.66957],[11.15973,46.66957]]},"properties":{}},{"type":"Feature","geometry":{"type":"LineString","coordinates":[[11.16155,46.66957],[11.16142,46.66957]]},"properties":{}},{"type":"Feature","geometry":{"type":"LineString","coordinates":[[11.16142,46.66957],[11.1604,46.66957]]},"properties":{}},{"type":"Feature","geometry":{"type":"LineString","coordinates":[[11.16178,46.66963],[11.16101,46.66967],[11.15964,46.66963],[11.15956,46.66966]]},"properties":{}},{"type":"Feature","geometry":{"type":"LineString","coordinates":[[11.15956,46.66966],[11.15948,46.66965]]},"properties":{}},{"type":"Feature","geometry":{"type":"LineString","coordinates":[[11.14987,46.66828],[11.15135,46.66951],[11.1514,46.66962],[11.15133,46.67027],[11.15137,46.67036],[11.15224,46.67099],[11.15238,46.67106]]},"properties":{}},{"type":"Feature","geometry":{"type":"LineString","coordinates":[[11.15611,46.66951],[11.15609,46.66955],[11.15614,46.67003]]},"properties":{}},{"type":"Feature","geometry":{"type":"LineString","coordinates":[[11.15939,46.67004],[11.15948,46.66965]]},"properties":{}},{"type":"Feature","geometry":{"type":"LineString","coordinates":[[11.15956,46.66966],[11.15946,46.67005]]},"properties":{}},{"type":"Feature","geometry":{"type":"LineString","coordinates":[[11.15139,46.66982],[11.15276,46.66997]]},"properties":{}},{"type":"Feature","geometry":{"type":"LineString","coordinates":[[11.15939,46.67004],[11.15938,46.67007]]},"properties":{}},{"type":"Feature","geometry":{"type":"LineString","coordinates":[[11.15946,46.67005],[11.15945,46.67008]]},"properties":{}},{"type":"Feature","geometry":{"type":"LineString","coordinates":[[11.15805,46.67013],[11.15731,46.67002],[11.15687,46.67],[11.15614,46.67003]]},"properties":{}},{"type":"Feature","geometry":{"type":"LineString","coordinates":[[11.15614,46.67003],[11.1547,46.67018],[11.15276,46.66997]]},"properties":{}},{"type":"Feature","geometry":{"type":"LineString","coordinates":[[11.15805,46.67013],[11.15847,46.67026]]},"properties":{}},{"type":"Feature","geometry":{"type":"LineString","coordinates":[[11.15938,46.67007],[11.15927,46.67046]]},"properties":{}},{"type":"Feature","geometry":{"type":"LineString","coordinates":[[11.15133,46.67027],[11.15081,46.67029]]},"properties":{}},{"type":"Feature","geometry":{"type":"LineString","coordinates":[[11.15129,46.67043],[11.1512,46.67036],[11.15104,46.67035],[11.15101,46.67028]]},"properties":{}},{"type":"Feature","geometry":{"type":"LineString","coordinates":[[11.15927,46.67046],[11.15847,46.67026]]},"properties":{}},{"type":"Feature","geometry":{"type":"LineString","coordinates":[[11.15945,46.67008],[11.15942,46.67012],[11.15932,46.67052],[11.15934,46.67059],[11.1594,46.67065],[11.15932,46.67071]]},"properties":{}},{"type":"Feature","geometry":{"type":"LineString","coordinates":[[11.15137,46.67036],[11.15129,46.67043]]},"properties":{}},{"type":"Feature","geometry":{"type":"LineString","coordinates":[[11.1563,46.67103],[11.15614,46.67003]]},"properties":{}},{"type":"Feature","geometry":{"type":"LineString","coordinates":[[11.15927,46.67046],[11.15925,46.67059],[11.15928,46.6707]]},"properties":{}},{"type":"Feature","geometry":{"type":"LineString","coordinates":[[11.15928,46.6707],[11.15933,46.67073]]},"properties":{}},{"type":"Feature","geometry":{"type":"LineString","coordinates":[[11.15925,46.67074],[11.15928,46.6707]]},"properties":{}},{"type":"Feature","geometry":{"type":"LineString","coordinates":[[11.14266,46.66524],[11.14257,46.66521],[11.14249,46.66523],[11.14209,46.66566],[11.14122,46.66626],[11.14007,46.66695],[11.13955,46.66734],[11.13921,46.66763],[11.13888,46.66798],[11.13825,46.66893],[11.13767,46.66956],[11.13698,46.67011],[11.13494,46.67136],[11.13424,46.67199],[11.1335,46.67284],[11.13282,46.67348],[11.13247,46.67373],[11.13092,46.67464],[11.12927,46.67594],[11.12882,46.67623]]},"properties":{}},{"type":"Feature","geometry":{"type":"LineString","coordinates":[[11.15933,46.67073],[11.15932,46.67075]]},"properties":{}},{"type":"Feature","geometry":{"type":"LineString","coordinates":[[11.15932,46.67075],[11.15925,46.67074]]},"properties":{}},{"type":"Feature","geometry":{"type":"LineString","coordinates":[[11.15217,46.67112],[11.15218,46.67102],[11.15129,46.67043]]},"properties":{}},{"type":"Feature","geometry":{"type":"LineString","coordinates":[[11.15932,46.67075],[11.15944,46.67082],[11.15946,46.67093]]},"properties":{}},{"type":"Feature","geometry":{"type":"LineString","coordinates":[[11.15213,46.67115],[11.15217,46.67112]]},"properties":{}},{"type":"Feature","geometry":{"type":"LineString","coordinates":[[11.15213,46.67115],[11.15209,46.67121]]},"properties":{}},{"type":"Feature","geometry":{"type":"LineString","coordinates":[[11.15225,46.67124],[11.15233,46.67114]]},"properties":{}},{"type":"Feature","geometry":{"type":"LineString","coordinates":[[11.15209,46.67121],[11.15201,46.67133]]},"properties":{}},{"type":"Feature","geometry":{"type":"LineString","coordinates":[[11.15228,46.67148],[11.15201,46.67133]]},"properties":{}},{"type":"Feature","geometry":{"type":"LineString","coordinates":[[11.15243,46.67136],[11.15228,46.67148]]},"properties":{}},{"type":"Feature","geometry":{"type":"LineString","coordinates":[[11.1563,46.67103],[11.15641,46.67183]]},"properties":{}},{"type":"Feature","geometry":{"type":"LineString","coordinates":[[11.15236,46.67153],[11.15228,46.67148]]},"properties":{}},{"type":"Feature","geometry":{"type":"LineString","coordinates":[[11.1547,46.67018],[11.15503,46.67294]]},"properties":{}},{"type":"Feature","geometry":{"type":"LineString","coordinates":[[11.15236,46.67153],[11.15212,46.67171]]},"properties":{}},{"type":"Feature","geometry":{"type":"LineString","coordinates":[[11.15179,46.67161],[11.15197,46.67172]]},"properties":{}},{"type":"Feature","geometry":{"type":"LineString","coordinates":[[11.15059,46.67253],[11.15225,46.67124]]},"properties":{}},{"type":"Feature","geometry":{"type":"LineString","coordinates":[[11.15201,46.67133],[11.15049,46.67252]]},"properties":{}},{"type":"Feature","geometry":{"type":"LineString","coordinates":[[11.15228,46.67148],[11.15104,46.67246]]},"properties":{}},{"type":"Feature","geometry":{"type":"LineString","coordinates":[[11.15212,46.67171],[11.14996,46.67337]]},"properties":{}},{"type":"Feature","geometry":{"type":"LineString","coordinates":[[11.15104,46.67246],[11.1508,46.67264]]},"properties":{}},{"type":"Feature","geometry":{"type":"LineString","coordinates":[[11.15042,46.67294],[11.15059,46.67253]]},"properties":{}},{"type":"Feature","geometry":{"type":"LineString","coordinates":[[11.1508,46.67264],[11.15042,46.67294]]},"properties":{}},{"type":"Feature","geometry":{"type":"LineString","coordinates":[[11.15411,46.67295],[11.15647,46.67281],[11.15653,46.67284]]},"properties":{}},{"type":"Feature","geometry":{"type":"LineString","coordinates":[[11.15653,46.67284],[11.15503,46.67294]]},"properties":{}},{"type":"Feature","geometry":{"type":"LineString","coordinates":[[11.15503,46.67294],[11.15416,46.673]]},"properties":{}},{"type":"Feature","geometry":{"type":"LineString","coordinates":[[11.15641,46.67183],[11.15671,46.67421]]},"properties":{}},{"type":"Feature","geometry":{"type":"LineString","coordinates":[[11.14989,46.67335],[11.15042,46.67294]]},"properties":{}},{"type":"Feature","geometry":{"type":"LineString","coordinates":[[11.1498,46.67341],[11.14989,46.67335]]},"properties":{}},{"type":"Feature","geometry":{"type":"LineString","coordinates":[[11.14968,46.67338],[11.1498,46.67341]]},"properties":{}},{"type":"Feature","geometry":{"type":"LineString","coordinates":[[11.14959,46.67344],[11.14968,46.67338]]},"properties":{}},{"type":"Feature","geometry":{"type":"LineString","coordinates":[[11.1498,46.67341],[11.14982,46.67344]]},"properties":{}},{"type":"Feature","geometry":{"type":"LineString","coordinates":[[11.14961,46.6735],[11.14959,46.67344]]},"properties":{}},{"type":"Feature","geometry":{"type":"LineString","coordinates":[[11.14968,46.67353],[11.14961,46.6735]]},"properties":{}},{"type":"Feature","geometry":{"type":"LineString","coordinates":[[11.14955,46.67362],[11.14961,46.6735]]},"properties":{}},{"type":"Feature","geometry":{"type":"LineString","coordinates":[[11.14968,46.67353],[11.14955,46.67362]]},"properties":{}},{"type":"Feature","geometry":{"type":"LineString","coordinates":[[11.14954,46.67363],[11.14955,46.67362]]},"properties":{}},{"type":"Feature","geometry":{"type":"LineString","coordinates":[[11.14996,46.67337],[11.15081,46.67389],[11.15092,46.67391]]},"properties":{}},{"type":"Feature","geometry":{"type":"LineString","coordinates":[[11.15947,46.67368],[11.15942,46.67372]]},"properties":{}},{"type":"Feature","geometry":{"type":"LineString","coordinates":[[11.14924,46.67387],[11.14954,46.67363]]},"properties":{}},{"type":"Feature","geometry":{"type":"LineString","coordinates":[[11.15942,46.67372],[11.15917,46.67394]]},"properties":{}},{"type":"Feature","geometry":{"type":"LineString","coordinates":[[11.14898,46.67406],[11.14924,46.67387]]},"properties":{}},{"type":"Feature","geometry":{"type":"LineString","coordinates":[[11.1487,46.67428],[11.14898,46.67406]]},"properties":{}},{"type":"Feature","geometry":{"type":"LineString","coordinates":[[11.14839,46.67427],[11.14844,46.67429]]},"properties":{}},{"type":"Feature","geometry":{"type":"LineString","coordinates":[[11.14844,46.67429],[11.1487,46.67428]]},"properties":{}},{"type":"Feature","geometry":{"type":"LineString","coordinates":[[11.14817,46.67438],[11.14824,46.67429],[11.14839,46.67427]]},"properties":{}},{"type":"Feature","geometry":{"type":"LineString","coordinates":[[11.1487,46.67428],[11.14853,46.67439]]},"properties":{}},{"type":"Feature","geometry":{"type":"LineString","coordinates":[[11.14844,46.67429],[11.14853,46.67439]]},"properties":{}},{"type":"Feature","geometry":{"type":"LineString","coordinates":[[11.15167,46.67464],[11.15077,46.67414],[11.15068,46.67405]]},"properties":{}},{"type":"Feature","geometry":{"type":"LineString","coordinates":[[11.14818,46.67445],[11.14817,46.67438]]},"properties":{}},{"type":"Feature","geometry":{"type":"LineString","coordinates":[[11.14853,46.67439],[11.14847,46.67449]]},"properties":{}},{"type":"Feature","geometry":{"type":"LineString","coordinates":[[11.14829,46.67451],[11.14818,46.67445]]},"properties":{}},{"type":"Feature","geometry":{"type":"LineString","coordinates":[[11.14847,46.67449],[11.14835,46.67452]]},"properties":{}},{"type":"Feature","geometry":{"type":"LineString","coordinates":[[11.14835,46.67452],[11.14829,46.67451]]},"properties":{}},{"type":"Feature","geometry":{"type":"LineString","coordinates":[[11.15068,46.67405],[11.15171,46.67463],[11.15301,46.67541]]},"properties":{}},{"type":"Feature","geometry":{"type":"LineString","coordinates":[[11.14674,46.67548],[11.14672,46.67546],[11.14791,46.67455],[11.14817,46.6743],[11.14814,46.67422]]},"properties":{}},{"type":"Feature","geometry":{"type":"LineString","coordinates":[[11.14674,46.67548],[11.14817,46.67438]]},"properties":{}},{"type":"Feature","geometry":{"type":"LineString","coordinates":[[11.15293,46.67541],[11.15167,46.67464]]},"properties":{}},{"type":"Feature","geometry":{"type":"LineString","coordinates":[[11.15348,46.67564],[11.15601,46.67508]]},"properties":{}},{"type":"Feature","geometry":{"type":"LineString","coordinates":[[11.15775,46.67603],[11.15738,46.67574],[11.15706,46.6754],[11.15679,46.67491]]},"properties":{}},{"type":"Feature","geometry":{"type":"LineString","coordinates":[[11.14674,46.67548],[11.14677,46.6755]]},"properties":{}},{"type":"Feature","geometry":{"type":"LineString","coordinates":[[11.14677,46.6755],[11.14694,46.6756]]},"properties":{}},{"type":"Feature","geometry":{"type":"LineString","coordinates":[[11.14694,46.6756],[11.147,46.67563]]},"properties":{}},{"type":"Feature","geometry":{"type":"LineString","coordinates":[[11.15297,46.67539],[11.15265,46.67566],[11.15248,46.67587]]},"properties":{}},{"type":"Feature","geometry":{"type":"LineString","coordinates":[[11.15348,46.67564],[11.15338,46.67566]]},"properties":{}},{"type":"Feature","geometry":{"type":"LineString","coordinates":[[11.15338,46.67566],[11.15328,46.67569]]},"properties":{}},{"type":"Feature","geometry":{"type":"LineString","coordinates":[[11.15328,46.67569],[11.15324,46.6757]]},"properties":{}},{"type":"Feature","geometry":{"type":"LineString","coordinates":[[11.15324,46.6757],[11.15313,46.67572]]},"properties":{}},{"type":"Feature","geometry":{"type":"LineString","coordinates":[[11.15313,46.67572],[11.15295,46.67576]]},"properties":{}},{"type":"Feature","geometry":{"type":"LineString","coordinates":[[11.14669,46.67583],[11.1464,46.67606]]},"properties":{}},{"type":"Feature","geometry":{"type":"LineString","coordinates":[[11.14896,46.67669],[11.14993,46.67643],[11.15295,46.67576]]},"properties":{}},{"type":"Feature","geometry":{"type":"LineString","coordinates":[[11.147,46.67563],[11.14702,46.67564],[11.14628,46.67622],[11.14418,46.67706],[11.14412,46.67714],[11.1442,46.67737]]},"properties":{}},{"type":"Feature","geometry":{"type":"LineString","coordinates":[[11.1464,46.67606],[11.14604,46.67629],[11.14433,46.67695],[11.14415,46.67697]]},"properties":{}},{"type":"Feature","geometry":{"type":"LineString","coordinates":[[11.14884,46.67667],[11.14896,46.67669]]},"properties":{}},{"type":"Feature","geometry":{"type":"LineString","coordinates":[[11.14405,46.67707],[11.1441,46.67701]]},"properties":{}},{"type":"Feature","geometry":{"type":"LineString","coordinates":[[11.14413,46.67738],[11.14403,46.67721],[11.14405,46.67707]]},"properties":{}},{"type":"Feature","geometry":{"type":"LineString","coordinates":[[11.1442,46.67737],[11.14457,46.67788],[11.14464,46.67791],[11.14476,46.6779]]},"properties":{}},{"type":"Feature","geometry":{"type":"LineString","coordinates":[[11.14457,46.67788],[11.14457,46.67792]]},"properties":{}},{"type":"Feature","geometry":{"type":"LineString","coordinates":[[11.1445,46.67792],[11.14457,46.67792],[11.14461,46.67795]]},"properties":{}},{"type":"Feature","geometry":{"type":"LineString","coordinates":[[11.14449,46.67799],[11.14447,46.67796],[11.1445,46.67792]]},"properties":{}},{"type":"Feature","geometry":{"type":"LineString","coordinates":[[11.08442,46.67726],[11.0845,46.67717],[11.08466,46.67715],[11.08476,46.67719],[11.0848,46.67729],[11.08471,46.67739],[11.08458,46.67741],[11.08447,46.67736],[11.08442,46.67726]]},"properties":{}},{"type":"Feature","geometry":{"type":"LineString","coordinates":[[11.0848,46.6773],[11.08483,46.67738],[11.08494,46.67746]]},"properties":{}},{"type":"Feature","geometry":{"type":"LineString","coordinates":[[11.08494,46.67746],[11.08465,46.67741]]},"properties":{}},{"type":"Feature","geometry":{"type":"LineString","coordinates":[[11.09033,46.67972],[11.09123,46.67997]]},"properties":{}},{"type":"Feature","geometry":{"type":"LineString","coordinates":[[11.09262,46.68037],[11.09238,46.68006]]},"properties":{}},{"type":"Feature","geometry":{"type":"LineString","coordinates":[[11.11656,46.68013],[11.11642,46.68003],[11.11615,46.68005],[11.11456,46.68032],[11.11348,46.68042],[11.11276,46.68045],[11.11152,46.68039],[11.11065,46.68048],[11.10983,46.68051],[11.10939,46.6805],[11.10891,46.68045],[11.10839,46.68033],[11.10757,46.68007],[11.10725,46.68001],[11.10684,46.67998],[11.10614,46.68],[11.10396,46.68016],[11.10376,46.68015],[11.10321,46.68023]]},"properties":{}},{"type":"Feature","geometry":{"type":"LineString","coordinates":[[11.10321,46.68023],[11.10312,46.68026]]},"properties":{}},{"type":"Feature","geometry":{"type":"LineString","coordinates":[[11.09232,46.68032],[11.09258,46.68042]]},"properties":{}},{"type":"Feature","geometry":{"type":"LineString","coordinates":[[11.09262,46.68053],[11.09262,46.68037]]},"properties":{}},{"type":"Feature","geometry":{"type":"LineString","coordinates":[[11.11023,46.68054],[11.11015,46.68067]]},"properties":{}},{"type":"Feature","geometry":{"type":"LineString","coordinates":[[11.12347,46.67837],[11.12386,46.6782]]},"properties":{}},{"type":"Feature","geometry":{"type":"LineString","coordinates":[[11.12215,46.67834],[11.1217,46.67833],[11.12103,46.67824]]},"properties":{}},{"type":"Feature","geometry":{"type":"LineString","coordinates":[[11.12274,46.67871],[11.12286,46.67862],[11.12347,46.67837]]},"properties":{}},{"type":"Feature","geometry":{"type":"LineString","coordinates":[[11.12266,46.67873],[11.12274,46.67871]]},"properties":{}},{"type":"Feature","geometry":{"type":"LineString","coordinates":[[11.11742,46.68046],[11.11839,46.68015],[11.11842,46.68008],[11.1183,46.67983],[11.11834,46.67978],[11.12088,46.67932],[11.12243,46.67884],[11.12266,46.67873]]},"properties":{}},{"type":"Feature","geometry":{"type":"LineString","coordinates":[[11.11874,46.68331],[11.11885,46.68334]]},"properties":{}},{"type":"Feature","geometry":{"type":"LineString","coordinates":[[11.11863,46.68334],[11.11874,46.68331]]},"properties":{}},{"type":"Feature","geometry":{"type":"LineString","coordinates":[[11.11885,46.68334],[11.11902,46.68339]]},"properties":{}},{"type":"Feature","geometry":{"type":"LineString","coordinates":[[11.11885,46.68334],[11.11888,46.68339],[11.11887,46.68344]]},"properties":{}},{"type":"Feature","geometry":{"type":"LineString","coordinates":[[11.1184,46.68348],[11.11863,46.68334]]},"properties":{}},{"type":"Feature","geometry":{"type":"LineString","coordinates":[[11.06476,46.67914],[11.06448,46.67921]]},"properties":{}},{"type":"Feature","geometry":{"type":"LineString","coordinates":[[11.06442,46.67921],[11.06413,46.67921],[11.06388,46.67914]]},"properties":{}},{"type":"Feature","geometry":{"type":"LineString","coordinates":[[11.07356,46.68373],[11.07387,46.68356],[11.07413,46.6835]]},"properties":{}},{"type":"Feature","geometry":{"type":"LineString","coordinates":[[11.09261,46.6807],[11.09263,46.68068],[11.09262,46.68053]]},"properties":{}},{"type":"Feature","geometry":{"type":"LineString","coordinates":[[11.11015,46.68067],[11.11012,46.68074],[11.10974,46.68072],[11.10975,46.68065],[11.10978,46.68061],[11.11006,46.6806],[11.1101,46.68063],[11.11006,46.68066],[11.10988,46.68065],[11.10985,46.68068],[11.10989,46.68071],[11.11015,46.68067]]},"properties":{}},{"type":"Feature","geometry":{"type":"LineString","coordinates":[[11.11006,46.68067],[11.11012,46.6807],[11.11007,46.68074]]},"properties":{}},{"type":"Feature","geometry":{"type":"LineString","coordinates":[[11.09205,46.68077],[11.09261,46.6807]]},"properties":{}},{"type":"Feature","geometry":{"type":"LineString","coordinates":[[11.09182,46.68013],[11.0918,46.68017],[11.09193,46.6807],[11.09208,46.68106],[11.09234,46.68139],[11.09259,46.68158],[11.09307,46.68169],[11.09428,46.68167],[11.09446,46.68169],[11.09466,46.68175],[11.09524,46.68211],[11.09532,46.68221]]},"properties":{}},{"type":"Feature","geometry":{"type":"LineString","coordinates":[[11.09526,46.68223],[11.09513,46.68211],[11.09453,46.68176],[11.09431,46.68171],[11.09302,46.68174],[11.09257,46.68162],[11.09242,46.68155],[11.09229,46.68142],[11.09203,46.6811]]},"properties":{}},{"type":"Feature","geometry":{"type":"LineString","coordinates":[[11.10312,46.68026],[11.10303,46.68032],[11.10287,46.68052],[11.10227,46.68073],[11.1015,46.68118],[11.10108,46.68123],[11.10101,46.68128],[11.10101,46.68135],[11.10106,46.68141],[11.10144,46.68151],[11.10173,46.68152],[11.10177,46.68156],[11.10174,46.68159],[11.10129,46.68165],[11.10063,46.68189],[11.1003,46.68183],[11.10004,46.68169],[11.09995,46.68171],[11.09992,46.68175],[11.10016,46.68211],[11.10024,46.68219],[11.10029,46.68219],[11.10055,46.68208],[11.10138,46.68186],[11.10178,46.68185],[11.10183,46.6819],[11.10182,46.68192],[11.10146,46.68193],[11.10074,46.68222],[11.10071,46.68226],[11.10076,46.6823],[11.10083,46.6823],[11.10088,46.68224],[11.10101,46.68217],[11.10166,46.68203],[11.10172,46.68208],[11.10173,46.68214],[11.1017,46.68225],[11.10165,46.68229],[11.10116,46.68245],[11.10045,46.68257],[11.09949,46.68286],[11.09815,46.68307]]},"properties":{}},{"type":"Feature","geometry":{"type":"LineString","coordinates":[[11.09529,46.68238],[11.09526,46.68223]]},"properties":{}},{"type":"Feature","geometry":{"type":"LineString","coordinates":[[11.09543,46.68305],[11.09495,46.68312],[11.09466,46.68307],[11.09461,46.68303],[11.09465,46.68268],[11.09471,46.68261],[11.09491,46.6825],[11.09524,46.68244],[11.09529,46.68238]]},"properties":{}},{"type":"Feature","geometry":{"type":"LineString","coordinates":[[11.09565,46.68315],[11.09543,46.68305]]},"properties":{}},{"type":"Feature","geometry":{"type":"LineString","coordinates":[[11.14461,46.67795],[11.14459,46.678],[11.14449,46.67799]]},"properties":{}},{"type":"Feature","geometry":{"type":"LineString","coordinates":[[11.1352,46.67956],[11.1358,46.67949],[11.13891,46.67896],[11.14415,46.67805],[11.14429,46.67806]]},"properties":{}},{"type":"Feature","geometry":{"type":"LineString","coordinates":[[11.14429,46.67806],[11.14422,46.67812],[11.14251,46.67844],[11.13522,46.67965]]},"properties":{}},{"type":"Feature","geometry":{"type":"LineString","coordinates":[[11.13584,46.7036],[11.13646,46.70391],[11.13658,46.70401],[11.13673,46.70424]]},"properties":{}},{"type":"Feature","geometry":{"type":"LineString","coordinates":[[11.13352,46.70397],[11.13383,46.70399],[11.13405,46.70412],[11.13462,46.70418],[11.13489,46.70424],[11.13507,46.70434],[11.13523,46.70439],[11.13551,46.70456],[11.13561,46.70465],[11.1358,46.70504],[11.13584,46.70506],[11.13587,46.70505],[11.13584,46.7045],[11.13576,46.70432],[11.13547,46.70396],[11.13502,46.70361],[11.13495,46.70358],[11.13463,46.70358],[11.13457,46.70356],[11.13456,46.70352],[11.1351,46.70342],[11.13584,46.7036]]},"properties":{}},{"type":"Feature","geometry":{"type":"LineString","coordinates":[[11.14273,46.70414],[11.14247,46.70415],[11.14235,46.70421],[11.14165,46.70468]]},"properties":{}},{"type":"Feature","geometry":{"type":"LineString","coordinates":[[11.13818,46.70565],[11.13815,46.70541],[11.13797,46.70524],[11.13785,46.70522],[11.13767,46.70526],[11.13757,46.70524],[11.13749,46.70516],[11.13744,46.70496],[11.13673,46.70468],[11.13676,46.70431],[11.13673,46.70424]]},"properties":{}},{"type":"Feature","geometry":{"type":"LineString","coordinates":[[11.14165,46.70468],[11.14122,46.70501],[11.1408,46.70519],[11.14047,46.70545],[11.14039,46.70562]]},"properties":{}},{"type":"Feature","geometry":{"type":"LineString","coordinates":[[11.13836,46.70574],[11.13818,46.70565]]},"properties":{}},{"type":"Feature","geometry":{"type":"LineString","coordinates":[[11.14039,46.70562],[11.14035,46.70575],[11.14019,46.70583],[11.13981,46.70588],[11.13936,46.70578],[11.13888,46.70576],[11.13865,46.70583],[11.13836,46.70574]]},"properties":{}},{"type":"Feature","geometry":{"type":"LineString","coordinates":[[11.09815,46.68307],[11.09776,46.68313],[11.09653,46.68316]]},"properties":{}},{"type":"Feature","geometry":{"type":"LineString","coordinates":[[11.09775,46.68317],[11.09814,46.68313]]},"properties":{}},{"type":"Feature","geometry":{"type":"LineString","coordinates":[[11.09653,46.68316],[11.09622,46.68317]]},"properties":{}},{"type":"Feature","geometry":{"type":"LineString","coordinates":[[11.09603,46.68325],[11.09591,46.68325],[11.09565,46.68315]]},"properties":{}},{"type":"Feature","geometry":{"type":"LineString","coordinates":[[11.09622,46.68317],[11.09603,46.68325]]},"properties":{}},{"type":"Feature","geometry":{"type":"LineString","coordinates":[[11.11902,46.68339],[11.11887,46.68344]]},"properties":{}},{"type":"Feature","geometry":{"type":"LineString","coordinates":[[11.11867,46.68348],[11.11862,46.68344],[11.11861,46.68339],[11.11863,46.68334]]},"properties":{}},{"type":"Feature","geometry":{"type":"LineString","coordinates":[[11.11887,46.68344],[11.11884,46.68347]]},"properties":{}},{"type":"Feature","geometry":{"type":"LineString","coordinates":[[11.11867,46.68348],[11.1184,46.68348]]},"properties":{}},{"type":"Feature","geometry":{"type":"LineString","coordinates":[[11.11884,46.68347],[11.11867,46.68348]]},"properties":{}},{"type":"Feature","geometry":{"type":"LineString","coordinates":[[11.19608,46.72924],[11.19611,46.72934],[11.19657,46.72989],[11.19683,46.73006],[11.19689,46.73016],[11.19669,46.73038],[11.19639,46.73087],[11.1961,46.73191],[11.19604,46.73195]]},"properties":{}},{"type":"Feature","geometry":{"type":"LineString","coordinates":[[11.19604,46.73195],[11.19594,46.73197],[11.19587,46.73192],[11.19589,46.73161],[11.19583,46.73149],[11.19556,46.73129],[11.19555,46.73121],[11.19583,46.73047],[11.19582,46.73042],[11.19577,46.73041],[11.19566,46.73048],[11.19554,46.73065],[11.19538,46.73076],[11.19521,46.73098],[11.19464,46.73128],[11.19462,46.73135],[11.19486,46.73153],[11.19488,46.73159],[11.19485,46.7317],[11.1947,46.73185],[11.19463,46.73207],[11.19437,46.73217],[11.19402,46.73224],[11.19396,46.73228],[11.19395,46.73237],[11.19403,46.73249],[11.19421,46.73257],[11.19433,46.73275],[11.19431,46.73295],[11.19425,46.7331],[11.19428,46.73314],[11.19453,46.73325],[11.19542,46.73382],[11.19562,46.73413],[11.19578,46.73451],[11.19575,46.73455],[11.19574,46.73468],[11.19586,46.73499],[11.19599,46.73559],[11.19612,46.73594],[11.19613,46.73604],[11.1961,46.73614],[11.19583,46.73634],[11.1957,46.73663],[11.19574,46.73691],[11.19567,46.7371],[11.19572,46.73733],[11.1957,46.73743],[11.1956,46.73743],[11.19556,46.73739],[11.1954,46.737],[11.19516,46.73667],[11.19512,46.73638],[11.19505,46.73635],[11.19506,46.73619],[11.19502,46.73607],[11.19485,46.73569],[11.19469,46.73552]]},"properties":{}},{"type":"Feature","geometry":{"type":"LineString","coordinates":[[11.19469,46.73552],[11.19406,46.73514]]},"properties":{}},{"type":"Feature","geometry":{"type":"LineString","coordinates":[[11.19406,46.73514],[11.1939,46.73502],[11.1937,46.73498],[11.19306,46.73415],[11.19295,46.73407],[11.19275,46.734],[11.19244,46.73373],[11.19237,46.7337],[11.1923,46.73375],[11.19233,46.73384],[11.1925,46.73402],[11.19248,46.73456],[11.19269,46.73542],[11.19277,46.73622],[11.19277,46.73641],[11.19263,46.73663],[11.19262,46.7368],[11.19266,46.73699]]},"properties":{}},{"type":"Feature","geometry":{"type":"LineString","coordinates":[[11.19084,46.74031],[11.19071,46.74034],[11.19064,46.74031],[11.19049,46.74001],[11.1903,46.73986],[11.18993,46.7397],[11.18982,46.73954],[11.1897,46.73917],[11.18972,46.73909],[11.18967,46.73881],[11.18932,46.73783],[11.18934,46.73746],[11.18928,46.73713],[11.18946,46.73667],[11.18938,46.73647],[11.18928,46.73632],[11.18918,46.73625],[11.18886,46.73622],[11.18866,46.73615],[11.18841,46.73594],[11.18723,46.73534],[11.18706,46.73523],[11.18694,46.73507],[11.18695,46.73484],[11.18649,46.7347],[11.18631,46.73461],[11.18597,46.73436],[11.18546,46.73407],[11.18526,46.73391],[11.1849,46.73388],[11.18457,46.7338]]},"properties":{}},{"type":"Feature","geometry":{"type":"LineString","coordinates":[[11.19255,46.73943],[11.19269,46.73884],[11.19259,46.73852],[11.19264,46.73823],[11.19257,46.73809],[11.19233,46.73782],[11.19218,46.73773],[11.19177,46.7376],[11.19149,46.73743],[11.19133,46.73724],[11.19113,46.73687],[11.19109,46.73686],[11.19104,46.73697],[11.19108,46.73752],[11.19113,46.73768],[11.19152,46.73802],[11.19163,46.73819],[11.19165,46.73828]]},"properties":{}},{"type":"Feature","geometry":{"type":"LineString","coordinates":[[11.19266,46.73699],[11.19277,46.73713],[11.19307,46.73741],[11.19315,46.73755],[11.19315,46.73765],[11.19321,46.73779],[11.19355,46.73816],[11.19367,46.73837],[11.19369,46.7385],[11.1936,46.73884],[11.19342,46.73911],[11.19287,46.73939],[11.19263,46.73971],[11.19251,46.73979],[11.19242,46.73974],[11.19253,46.73953],[11.19255,46.73943]]},"properties":{}},{"type":"Feature","geometry":{"type":"LineString","coordinates":[[11.19165,46.73828],[11.1916,46.73832],[11.19156,46.73842],[11.19133,46.73849],[11.19118,46.73862],[11.19098,46.7387],[11.19095,46.73886],[11.19086,46.73901],[11.19047,46.73915],[11.19036,46.73921],[11.19025,46.73936],[11.19027,46.73956],[11.19065,46.73986],[11.19068,46.7401],[11.19084,46.74031]]},"properties":{}},{"type":"Feature","geometry":{"type":"LineString","coordinates":[[11.20375,46.74029],[11.20213,46.73936],[11.20095,46.73861],[11.20082,46.73864]]},"properties":{}},{"type":"Feature","geometry":{"type":"LineString","coordinates":[[11.19216,46.74339],[11.19176,46.74305],[11.19157,46.74271],[11.19142,46.74185],[11.19134,46.74172],[11.19129,46.74134],[11.19098,46.74114],[11.19101,46.74104],[11.19122,46.7408],[11.19124,46.74071],[11.19084,46.74031]]},"properties":{}},{"type":"Feature","geometry":{"type":"LineString","coordinates":[[11.19124,46.74764],[11.19089,46.74749],[11.19047,46.74744],[11.1898,46.74748],[11.18971,46.74747],[11.18962,46.74738],[11.18964,46.74733],[11.18989,46.74718],[11.19012,46.7471],[11.19011,46.74678],[11.19015,46.74645],[11.19022,46.7464],[11.1905,46.74632],[11.19076,46.74616],[11.19085,46.74609],[11.19091,46.74585],[11.19104,46.74574],[11.19156,46.74558],[11.19192,46.74541],[11.19203,46.74534],[11.19226,46.74507],[11.19232,46.74495],[11.19227,46.74454],[11.1923,46.74402],[11.19223,46.74381],[11.19229,46.74355],[11.19216,46.74339]]},"properties":{}},{"type":"Feature","geometry":{"type":"LineString","coordinates":[[11.19057,46.74481],[11.1906,46.74488],[11.19053,46.74508],[11.19033,46.74534],[11.19033,46.74553],[11.19022,46.74571],[11.19016,46.74607],[11.18987,46.74641],[11.18984,46.74655],[11.18999,46.74681],[11.19006,46.74711]]},"properties":{}}]}