{"type":"FeatureCollection","features":[{"type":"Feature","geometry":{"type":"LineString","coordinates":[[11.07972,43.02761],[11.07966,43.02766],[11.07966,43.02772],[11.08001,43.02806],[11.08105,43.02898],[11.08113,43.02906],[11.08116,43.02922]]},"properties":{}},{"type":"Feature","geometry":{"type":"LineString","coordinates":[[11.16136,43.14817],[11.16144,43.1481]]},"properties":{}},{"type":"Feature","geometry":{"type":"LineString","coordinates":[[11.1612,43.14829],[11.16136,43.14817]]},"properties":{}},{"type":"Feature","geometry":{"type":"LineString","coordinates":[[11.01856,43.07849],[11.01878,43.07885],[11.01883,43.07902]]},"properties":{}}]}