{"type":"FeatureCollection","features":[{"type":"Feature","geometry":{"type":"LineString","coordinates":[[11.17578,43.54691],[11.17594,43.54697],[11.17638,43.54787],[11.17699,43.54861],[11.17718,43.54873],[11.17733,43.54873],[11.17747,43.54863],[11.17779,43.54873],[11.17783,43.54889],[11.17779,43.54901],[11.17764,43.5491],[11.17749,43.54912]]},"properties":{}},{"type":"Feature","geometry":{"type":"LineString","coordinates":[[11.17683,43.5486],[11.17714,43.54876],[11.17729,43.54879]]},"properties":{}},{"type":"Feature","geometry":{"type":"LineString","coordinates":[[11.17714,43.54895],[11.17683,43.5486]]},"properties":{}},{"type":"Feature","geometry":{"type":"LineString","coordinates":[[11.17745,43.54919],[11.1774,43.54929],[11.1765,43.55001],[11.1752,43.55094]]},"properties":{}},{"type":"Feature","geometry":{"type":"LineString","coordinates":[[11.1752,43.55094],[11.17459,43.55186],[11.17363,43.55346],[11.17346,43.55362]]},"properties":{}},{"type":"Feature","geometry":{"type":"LineString","coordinates":[[11.17346,43.55362],[11.17291,43.55447],[11.17263,43.55481],[11.1725,43.55505],[11.17194,43.55667],[11.17185,43.55719],[11.17192,43.55731]]},"properties":{}},{"type":"Feature","geometry":{"type":"LineString","coordinates":[[11.16615,43.55891],[11.1669,43.5586],[11.16727,43.55839],[11.16768,43.5581],[11.16803,43.55792],[11.17059,43.55691],[11.17179,43.55658]]},"properties":{}},{"type":"Feature","geometry":{"type":"LineString","coordinates":[[11.16831,43.55803],[11.16817,43.55786]]},"properties":{}},{"type":"Feature","geometry":{"type":"LineString","coordinates":[[11.16929,43.55913],[11.16831,43.55803]]},"properties":{}},{"type":"Feature","geometry":{"type":"LineString","coordinates":[[11.17197,43.55825],[11.16957,43.55918]]},"properties":{}},{"type":"Feature","geometry":{"type":"LineString","coordinates":[[11.16957,43.55918],[11.1694,43.55925]]},"properties":{}},{"type":"Feature","geometry":{"type":"LineString","coordinates":[[11.16952,43.55938],[11.16929,43.55913]]},"properties":{}},{"type":"Feature","geometry":{"type":"LineString","coordinates":[[11.16552,43.55938],[11.16569,43.55929]]},"properties":{}},{"type":"Feature","geometry":{"type":"LineString","coordinates":[[11.16514,43.55933],[11.1654,43.55939]]},"properties":{}},{"type":"Feature","geometry":{"type":"LineString","coordinates":[[11.16569,43.55929],[11.16563,43.55943]]},"properties":{}},{"type":"Feature","geometry":{"type":"LineString","coordinates":[[11.1653,43.55949],[11.16525,43.55939],[11.16514,43.55933]]},"properties":{}},{"type":"Feature","geometry":{"type":"LineString","coordinates":[[11.16537,43.55961],[11.1653,43.55951],[11.16537,43.5594],[11.16552,43.55938],[11.16565,43.55945],[11.16567,43.55954],[11.1656,43.55961],[11.16549,43.55964],[11.16537,43.55961]]},"properties":{}},{"type":"Feature","geometry":{"type":"LineString","coordinates":[[11.1694,43.55925],[11.16766,43.55991]]},"properties":{}},{"type":"Feature","geometry":{"type":"LineString","coordinates":[[11.16567,43.55954],[11.16579,43.55967]]},"properties":{}},{"type":"Feature","geometry":{"type":"LineString","coordinates":[[11.16579,43.55967],[11.16555,43.55964]]},"properties":{}},{"type":"Feature","geometry":{"type":"LineString","coordinates":[[11.16526,43.55974],[11.16533,43.55958]]},"properties":{}},{"type":"Feature","geometry":{"type":"LineString","coordinates":[[11.16549,43.55964],[11.16526,43.55974]]},"properties":{}},{"type":"Feature","geometry":{"type":"LineString","coordinates":[[11.17197,43.55825],[11.17204,43.55829],[11.17212,43.55863],[11.17219,43.55968],[11.17225,43.56],[11.17234,43.56021],[11.17286,43.56081],[11.1734,43.56129],[11.17357,43.56139],[11.17432,43.56172]]},"properties":{}},{"type":"Feature","geometry":{"type":"LineString","coordinates":[[11.16692,43.56015],[11.16709,43.56011]]},"properties":{}},{"type":"Feature","geometry":{"type":"LineString","coordinates":[[11.16656,43.56011],[11.16679,43.56016]]},"properties":{}},{"type":"Feature","geometry":{"type":"LineString","coordinates":[[11.16709,43.56011],[11.16701,43.56024]]},"properties":{}},{"type":"Feature","geometry":{"type":"LineString","coordinates":[[11.16671,43.56025],[11.16656,43.56011]]},"properties":{}},{"type":"Feature","geometry":{"type":"LineString","coordinates":[[11.17104,43.56107],[11.16952,43.55938]]},"properties":{}},{"type":"Feature","geometry":{"type":"LineString","coordinates":[[11.16693,43.56034],[11.16683,43.56035],[11.16675,43.56032],[11.16671,43.56025],[11.16673,43.5602],[11.16687,43.56014],[11.16698,43.56019],[11.167,43.56027],[11.16693,43.56034]]},"properties":{}},{"type":"Feature","geometry":{"type":"LineString","coordinates":[[11.16699,43.56029],[11.16702,43.56045]]},"properties":{}},{"type":"Feature","geometry":{"type":"LineString","coordinates":[[11.16702,43.56045],[11.16683,43.56035]]},"properties":{}},{"type":"Feature","geometry":{"type":"LineString","coordinates":[[11.17798,43.56179],[11.17923,43.56101],[11.1796,43.56056],[11.18023,43.55992]]},"properties":{}},{"type":"Feature","geometry":{"type":"LineString","coordinates":[[11.17199,43.56192],[11.17178,43.56186],[11.17114,43.56159],[11.17109,43.56151],[11.17107,43.56138],[11.17114,43.56121],[11.17104,43.56107]]},"properties":{}},{"type":"Feature","geometry":{"type":"LineString","coordinates":[[11.17432,43.56172],[11.17414,43.56186],[11.17249,43.5621],[11.17231,43.56209]]},"properties":{}},{"type":"Feature","geometry":{"type":"LineString","coordinates":[[11.17639,43.56223],[11.17707,43.56231],[11.17725,43.56226],[11.17742,43.56219],[11.17798,43.56179]]},"properties":{}},{"type":"Feature","geometry":{"type":"LineString","coordinates":[[11.17216,43.56209],[11.17222,43.56202],[11.17229,43.56204],[11.17231,43.56208],[11.17225,43.56213],[11.17216,43.56209]]},"properties":{}},{"type":"Feature","geometry":{"type":"LineString","coordinates":[[11.17791,43.56322],[11.17697,43.56251],[11.17622,43.56214],[11.17592,43.56201],[11.17432,43.56172]]},"properties":{}},{"type":"Feature","geometry":{"type":"LineString","coordinates":[[11.16979,43.5629],[11.17022,43.56279],[11.17217,43.56211]]},"properties":{}},{"type":"Feature","geometry":{"type":"LineString","coordinates":[[11.17227,43.56212],[11.17237,43.5625],[11.17255,43.56277],[11.17353,43.56348]]},"properties":{}},{"type":"Feature","geometry":{"type":"LineString","coordinates":[[11.16872,43.56286],[11.16888,43.563]]},"properties":{}},{"type":"Feature","geometry":{"type":"LineString","coordinates":[[11.16874,43.56303],[11.16872,43.56286]]},"properties":{}},{"type":"Feature","geometry":{"type":"LineString","coordinates":[[11.16892,43.56326],[11.16883,43.56327],[11.16872,43.56323],[11.16867,43.56315],[11.1687,43.56306],[11.16888,43.563],[11.16901,43.56305],[11.16904,43.5631],[11.16903,43.56319],[11.16892,43.56326]]},"properties":{}},{"type":"Feature","geometry":{"type":"LineString","coordinates":[[11.17791,43.56322],[11.17794,43.56317],[11.178,43.56313]]},"properties":{}},{"type":"Feature","geometry":{"type":"LineString","coordinates":[[11.178,43.56313],[11.17813,43.56314],[11.17818,43.56319],[11.17817,43.56328],[11.1781,43.56332]]},"properties":{}},{"type":"Feature","geometry":{"type":"LineString","coordinates":[[11.1781,43.56332],[11.17798,43.56332],[11.17791,43.56322]]},"properties":{}},{"type":"Feature","geometry":{"type":"LineString","coordinates":[[11.16899,43.56323],[11.16899,43.56341]]},"properties":{}},{"type":"Feature","geometry":{"type":"LineString","coordinates":[[11.16899,43.56341],[11.16883,43.56327]]},"properties":{}},{"type":"Feature","geometry":{"type":"LineString","coordinates":[[11.17353,43.56348],[11.17294,43.56413],[11.17215,43.56519],[11.17196,43.56531],[11.17125,43.56554],[11.17113,43.56569]]},"properties":{}},{"type":"Feature","geometry":{"type":"LineString","coordinates":[[11.179,43.56521],[11.17913,43.56515],[11.17922,43.56507]]},"properties":{}},{"type":"Feature","geometry":{"type":"LineString","coordinates":[[11.17874,43.56522],[11.1791,43.5652],[11.17917,43.56525]]},"properties":{}},{"type":"Feature","geometry":{"type":"LineString","coordinates":[[11.17917,43.56525],[11.17894,43.56528]]},"properties":{}},{"type":"Feature","geometry":{"type":"LineString","coordinates":[[11.17907,43.56556],[11.17907,43.5654],[11.179,43.56532],[11.17874,43.56522]]},"properties":{}},{"type":"Feature","geometry":{"type":"LineString","coordinates":[[11.17068,43.56545],[11.17093,43.5656]]},"properties":{}},{"type":"Feature","geometry":{"type":"LineString","coordinates":[[11.17079,43.56567],[11.17068,43.56545]]},"properties":{}},{"type":"Feature","geometry":{"type":"LineString","coordinates":[[11.17083,43.56563],[11.17093,43.5656],[11.17106,43.56562],[11.17113,43.56569],[11.17113,43.56578],[11.17105,43.56584],[11.17088,43.56585],[11.17077,43.56575],[11.17078,43.56569],[11.17083,43.56563]]},"properties":{}},{"type":"Feature","geometry":{"type":"LineString","coordinates":[[11.17059,43.56588],[11.17078,43.56569]]},"properties":{}},{"type":"Feature","geometry":{"type":"LineString","coordinates":[[11.17114,43.56573],[11.17131,43.56586]]},"properties":{}},{"type":"Feature","geometry":{"type":"LineString","coordinates":[[11.17131,43.56586],[11.17105,43.56584]]},"properties":{}},{"type":"Feature","geometry":{"type":"LineString","coordinates":[[11.17088,43.56585],[11.17059,43.56588]]},"properties":{}},{"type":"Feature","geometry":{"type":"LineString","coordinates":[[11.18146,43.57116],[11.18161,43.5713]]},"properties":{}},{"type":"Feature","geometry":{"type":"LineString","coordinates":[[11.18142,43.57135],[11.18146,43.57116]]},"properties":{}},{"type":"Feature","geometry":{"type":"LineString","coordinates":[[11.1815,43.5713],[11.18161,43.5713],[11.18172,43.57134],[11.18177,43.57143],[11.18172,43.57152],[11.18161,43.57157],[11.18143,43.57152],[11.18139,43.5714],[11.1815,43.5713]]},"properties":{}},{"type":"Feature","geometry":{"type":"LineString","coordinates":[[11.1812,43.57157],[11.1813,43.57151],[11.18139,43.5714]]},"properties":{}},{"type":"Feature","geometry":{"type":"LineString","coordinates":[[11.18148,43.57155],[11.1812,43.57157]]},"properties":{}},{"type":"Feature","geometry":{"type":"LineString","coordinates":[[11.18176,43.57148],[11.18176,43.57161],[11.18181,43.57171]]},"properties":{}},{"type":"Feature","geometry":{"type":"LineString","coordinates":[[11.18181,43.57171],[11.18154,43.57157]]},"properties":{}},{"type":"Feature","geometry":{"type":"LineString","coordinates":[[11.03254,43.55077],[11.03298,43.55043],[11.03328,43.55032],[11.03336,43.55025],[11.0334,43.55019],[11.03342,43.55],[11.03368,43.54972]]},"properties":{}},{"type":"Feature","geometry":{"type":"LineString","coordinates":[[11.03197,43.55126],[11.03254,43.55077]]},"properties":{}},{"type":"Feature","geometry":{"type":"LineString","coordinates":[[11.03216,43.55204],[11.03172,43.55182],[11.0316,43.55173],[11.03168,43.55153],[11.03197,43.55126]]},"properties":{}},{"type":"Feature","geometry":{"type":"LineString","coordinates":[[11.03229,43.55212],[11.03216,43.55204]]},"properties":{}},{"type":"Feature","geometry":{"type":"LineString","coordinates":[[11.03292,43.55235],[11.0328,43.5524],[11.03229,43.55212]]},"properties":{}},{"type":"Feature","geometry":{"type":"LineString","coordinates":[[11.03136,43.55354],[11.03141,43.55375],[11.03136,43.55402],[11.03124,43.55421],[11.03101,43.55446],[11.03076,43.55463],[11.03068,43.55473],[11.03054,43.55485],[11.02984,43.55524],[11.02872,43.55594],[11.02827,43.55627],[11.02812,43.55646],[11.02815,43.55706],[11.02823,43.55723],[11.02844,43.55745],[11.02882,43.55774],[11.02933,43.5579],[11.02943,43.55784]]},"properties":{}},{"type":"Feature","geometry":{"type":"LineString","coordinates":[[11.03121,43.5559],[11.03113,43.55599],[11.03098,43.55603],[11.03079,43.55595],[11.03076,43.55584],[11.03088,43.55571],[11.03102,43.5557],[11.03119,43.55579],[11.03121,43.5559]]},"properties":{}},{"type":"Feature","geometry":{"type":"LineString","coordinates":[[11.04024,43.53424],[11.04004,43.53432],[11.03982,43.53431],[11.03972,43.53427],[11.03955,43.53412],[11.03953,43.53397],[11.03956,43.5339],[11.03968,43.53378],[11.03989,43.53371],[11.04001,43.53371],[11.04022,43.53377],[11.04032,43.53386],[11.04038,43.53399],[11.04036,43.53411],[11.04024,43.53424]]},"properties":{}},{"type":"Feature","geometry":{"type":"LineString","coordinates":[[11.03524,43.54485],[11.03523,43.54474],[11.03534,43.54467],[11.03548,43.54469],[11.03554,43.54478],[11.0355,43.54487],[11.03541,43.54491],[11.03531,43.5449],[11.03524,43.54485]]},"properties":{}},{"type":"Feature","geometry":{"type":"LineString","coordinates":[[11.03554,43.54478],[11.03574,43.54485]]},"properties":{}},{"type":"Feature","geometry":{"type":"LineString","coordinates":[[11.03995,43.54503],[11.04019,43.54503]]},"properties":{}},{"type":"Feature","geometry":{"type":"LineString","coordinates":[[11.04008,43.54486],[11.04012,43.54497],[11.04019,43.54503],[11.04053,43.54517],[11.04013,43.5458]]},"properties":{}},{"type":"Feature","geometry":{"type":"LineString","coordinates":[[11.05407,43.5469],[11.05381,43.54669],[11.05217,43.54563],[11.0518,43.54542],[11.05142,43.54527],[11.05032,43.54492],[11.04928,43.54469],[11.04846,43.54442]]},"properties":{}},{"type":"Feature","geometry":{"type":"LineString","coordinates":[[11.03899,43.54662],[11.03955,43.54563],[11.03964,43.54555],[11.04008,43.54486]]},"properties":{}},{"type":"Feature","geometry":{"type":"LineString","coordinates":[[11.04013,43.5458],[11.03953,43.54675]]},"properties":{}},{"type":"Feature","geometry":{"type":"LineString","coordinates":[[11.04175,43.54638],[11.04171,43.54644]]},"properties":{}},{"type":"Feature","geometry":{"type":"LineString","coordinates":[[11.03953,43.54675],[11.03907,43.5466],[11.03903,43.54655]]},"properties":{}},{"type":"Feature","geometry":{"type":"LineString","coordinates":[[11.03761,43.54874],[11.03837,43.54763],[11.03899,43.54662]]},"properties":{}},{"type":"Feature","geometry":{"type":"LineString","coordinates":[[11.03753,43.54888],[11.03763,43.54881],[11.04037,43.54947]]},"properties":{}},{"type":"Feature","geometry":{"type":"LineString","coordinates":[[11.03523,43.55241],[11.0369,43.54989],[11.03761,43.54874]]},"properties":{}},{"type":"Feature","geometry":{"type":"LineString","coordinates":[[11.04037,43.54947],[11.03996,43.5497],[11.03947,43.54991],[11.03756,43.55084],[11.03742,43.55096],[11.03716,43.55128],[11.037,43.55168]]},"properties":{}},{"type":"Feature","geometry":{"type":"LineString","coordinates":[[11.037,43.55168],[11.03702,43.55278],[11.03693,43.55297]]},"properties":{}},{"type":"Feature","geometry":{"type":"LineString","coordinates":[[11.03595,43.56121],[11.03587,43.56118],[11.03584,43.56111],[11.03588,43.56105],[11.03601,43.56103]]},"properties":{}},{"type":"Feature","geometry":{"type":"LineString","coordinates":[[11.03028,43.55667],[11.03043,43.55674]]},"properties":{}},{"type":"Feature","geometry":{"type":"LineString","coordinates":[[11.03217,43.55709],[11.03222,43.55695],[11.03253,43.55646],[11.0326,43.55648]]},"properties":{}},{"type":"Feature","geometry":{"type":"LineString","coordinates":[[11.03216,43.55718],[11.03217,43.55709]]},"properties":{}},{"type":"Feature","geometry":{"type":"LineString","coordinates":[[11.03043,43.55674],[11.03045,43.55674],[11.03039,43.55689],[11.03188,43.55761],[11.032,43.55761],[11.03219,43.55732],[11.03216,43.55718]]},"properties":{}},{"type":"Feature","geometry":{"type":"LineString","coordinates":[[11.02941,43.55783],[11.02972,43.55749],[11.03028,43.55667]]},"properties":{}},{"type":"Feature","geometry":{"type":"LineString","coordinates":[[11.03241,43.55935],[11.03242,43.55916],[11.03288,43.55849],[11.03376,43.55756],[11.03453,43.55661],[11.03492,43.55621],[11.03511,43.55609]]},"properties":{}},{"type":"Feature","geometry":{"type":"LineString","coordinates":[[11.02943,43.55784],[11.02957,43.55791]]},"properties":{}},{"type":"Feature","geometry":{"type":"LineString","coordinates":[[11.02846,43.55792],[11.02899,43.55814]]},"properties":{}},{"type":"Feature","geometry":{"type":"LineString","coordinates":[[11.0287,43.5583],[11.02846,43.55792]]},"properties":{}},{"type":"Feature","geometry":{"type":"LineString","coordinates":[[11.02902,43.55852],[11.02885,43.55851],[11.02873,43.55842],[11.0287,43.5583],[11.02877,43.5582],[11.02891,43.55814],[11.02902,43.55814],[11.02913,43.55818],[11.02921,43.55825],[11.02924,43.55832],[11.02921,43.55842],[11.02912,43.55849],[11.02902,43.55852]]},"properties":{}},{"type":"Feature","geometry":{"type":"LineString","coordinates":[[11.02923,43.55827],[11.02959,43.55861]]},"properties":{}},{"type":"Feature","geometry":{"type":"LineString","coordinates":[[11.02959,43.55861],[11.02934,43.55851],[11.02912,43.55849]]},"properties":{}},{"type":"Feature","geometry":{"type":"LineString","coordinates":[[11.02957,43.55791],[11.02955,43.55797],[11.02949,43.55801],[11.02969,43.5582],[11.02978,43.55834],[11.02994,43.55847],[11.0316,43.55919],[11.03186,43.55924],[11.03211,43.55923],[11.03209,43.55927],[11.03213,43.55929]]},"properties":{}},{"type":"Feature","geometry":{"type":"LineString","coordinates":[[11.02824,43.55933],[11.02838,43.55912],[11.02871,43.5588],[11.02878,43.55869],[11.02878,43.55856],[11.0287,43.55837]]},"properties":{}},{"type":"Feature","geometry":{"type":"LineString","coordinates":[[11.0291,43.5585],[11.02876,43.5589],[11.02824,43.55933]]},"properties":{}},{"type":"Feature","geometry":{"type":"LineString","coordinates":[[11.03138,43.55934],[11.03176,43.55942],[11.03194,43.55942]]},"properties":{}},{"type":"Feature","geometry":{"type":"LineString","coordinates":[[11.0318,43.5596],[11.0317,43.5595],[11.03138,43.55934]]},"properties":{}},{"type":"Feature","geometry":{"type":"LineString","coordinates":[[11.03202,43.55978],[11.03194,43.55982]]},"properties":{}},{"type":"Feature","geometry":{"type":"LineString","coordinates":[[11.03174,43.55998],[11.03182,43.55982],[11.03181,43.55965]]},"properties":{}},{"type":"Feature","geometry":{"type":"LineString","coordinates":[[11.03224,43.55974],[11.03223,43.55988],[11.03228,43.55998]]},"properties":{}},{"type":"Feature","geometry":{"type":"LineString","coordinates":[[11.03228,43.55998],[11.03205,43.55979]]},"properties":{}},{"type":"Feature","geometry":{"type":"LineString","coordinates":[[11.03194,43.55982],[11.03174,43.55998]]},"properties":{}},{"type":"Feature","geometry":{"type":"LineString","coordinates":[[11.00392,43.66263],[11.00397,43.66267],[11.00388,43.66275],[11.0039,43.66284],[11.0038,43.6629],[11.0037,43.66287],[11.00359,43.66289],[11.00125,43.66464],[11.0009,43.66496],[11.00071,43.66521],[11.0,43.66677]]},"properties":{}},{"type":"Feature","geometry":{"type":"LineString","coordinates":[[11.03352,43.72015],[11.03401,43.72059],[11.03403,43.72074],[11.0343,43.72108],[11.03465,43.72171],[11.03481,43.72187],[11.03516,43.72206],[11.03532,43.72225],[11.03543,43.72247],[11.03536,43.72261],[11.03516,43.72278],[11.03401,43.72314],[11.03319,43.72324],[11.03206,43.72311],[11.02943,43.72267],[11.02884,43.72271],[11.02845,43.72283],[11.02801,43.72312],[11.02789,43.72325],[11.02774,43.72352],[11.02767,43.72373],[11.02771,43.72408],[11.02769,43.72413],[11.02745,43.72418],[11.02656,43.72417],[11.02648,43.72411],[11.02657,43.7237]]},"properties":{}},{"type":"Feature","geometry":{"type":"LineString","coordinates":[[11.02657,43.7237],[11.02843,43.72262],[11.02885,43.72244],[11.03008,43.72215],[11.03034,43.72205],[11.0307,43.72186],[11.03131,43.72147],[11.03221,43.72112],[11.03235,43.72115],[11.03259,43.72137],[11.03275,43.72138],[11.0339,43.72075],[11.03403,43.72074]]},"properties":{}},{"type":"Feature","geometry":{"type":"LineString","coordinates":[[11.02657,43.7237],[11.02652,43.72355]]},"properties":{}},{"type":"Feature","geometry":{"type":"LineString","coordinates":[[11.01024,43.72315],[11.01032,43.72342],[11.01049,43.72383],[11.01061,43.72401],[11.01099,43.72437],[11.01127,43.72453],[11.01139,43.72453]]},"properties":{}},{"type":"Feature","geometry":{"type":"LineString","coordinates":[[11.00429,43.72529],[11.00362,43.72424]]},"properties":{}},{"type":"Feature","geometry":{"type":"LineString","coordinates":[[11.00433,43.72536],[11.00429,43.72529]]},"properties":{}},{"type":"Feature","geometry":{"type":"LineString","coordinates":[[11.00534,43.72519],[11.00442,43.72548],[11.00433,43.72536]]},"properties":{}},{"type":"Feature","geometry":{"type":"LineString","coordinates":[[11.0,43.72589],[11.00071,43.72586],[11.00088,43.72577]]},"properties":{}},{"type":"Feature","geometry":{"type":"LineString","coordinates":[[11.02299,43.72771],[11.02296,43.72767],[11.02325,43.72738],[11.02435,43.72654],[11.0252,43.72665],[11.02526,43.72661],[11.0257,43.72538],[11.02577,43.72527],[11.026,43.72505]]},"properties":{}},{"type":"Feature","geometry":{"type":"LineString","coordinates":[[11.02657,43.7237],[11.02652,43.72373],[11.02636,43.72403],[11.02621,43.72443],[11.026,43.72505],[11.02594,43.72543],[11.02547,43.72686],[11.02529,43.72756],[11.02516,43.72786],[11.02514,43.72802],[11.02489,43.72836],[11.02463,43.72916],[11.02456,43.72968],[11.02443,43.7301],[11.02426,43.73053],[11.02414,43.73076],[11.02389,43.73104],[11.02344,43.73145],[11.02319,43.73157],[11.02298,43.73174]]},"properties":{}},{"type":"Feature","geometry":{"type":"LineString","coordinates":[[11.02296,43.72767],[11.02285,43.72768],[11.02247,43.72809]]},"properties":{}},{"type":"Feature","geometry":{"type":"LineString","coordinates":[[11.02151,43.72828],[11.02211,43.72788],[11.02238,43.72803]]},"properties":{}},{"type":"Feature","geometry":{"type":"LineString","coordinates":[[11.02257,43.72814],[11.02238,43.72803]]},"properties":{}},{"type":"Feature","geometry":{"type":"LineString","coordinates":[[11.01077,43.72831],[11.01079,43.72831]]},"properties":{}},{"type":"Feature","geometry":{"type":"LineString","coordinates":[[11.0124,43.72838],[11.0124,43.7283],[11.01245,43.72828]]},"properties":{}},{"type":"Feature","geometry":{"type":"LineString","coordinates":[[11.01061,43.7285],[11.01079,43.72842],[11.01078,43.72833],[11.01071,43.72816]]},"properties":{}},{"type":"Feature","geometry":{"type":"LineString","coordinates":[[11.02143,43.72839],[11.02151,43.72828]]},"properties":{}},{"type":"Feature","geometry":{"type":"LineString","coordinates":[[11.01187,43.72856],[11.0118,43.72851],[11.01129,43.72854],[11.01113,43.72855],[11.01096,43.72865],[11.01069,43.72859],[11.01007,43.72866],[11.01002,43.72872]]},"properties":{}},{"type":"Feature","geometry":{"type":"LineString","coordinates":[[11.00117,43.72824],[11.00118,43.72828],[11.00113,43.7283],[11.00111,43.72838],[11.00132,43.72844],[11.00146,43.72857],[11.0015,43.72873],[11.00145,43.72887],[11.00136,43.72892],[11.00067,43.72904],[11.0006,43.72901]]},"properties":{}},{"type":"Feature","geometry":{"type":"LineString","coordinates":[[11.01233,43.72953],[11.01193,43.72852],[11.01194,43.72848],[11.01367,43.72838],[11.01376,43.72835]]},"properties":{}},{"type":"Feature","geometry":{"type":"LineString","coordinates":[[11.00145,43.72887],[11.00208,43.72896],[11.00214,43.72901],[11.00262,43.72911],[11.00265,43.72905]]},"properties":{}},{"type":"Feature","geometry":{"type":"LineString","coordinates":[[11.01775,43.73017],[11.01839,43.73073],[11.01863,43.7308],[11.01876,43.73078],[11.01954,43.73025],[11.0196,43.73019],[11.01958,43.73013],[11.01964,43.73009],[11.01976,43.73009],[11.02015,43.72982],[11.02025,43.72967],[11.02046,43.7296],[11.02133,43.72897],[11.02134,43.72885],[11.02153,43.72866],[11.0214,43.72844],[11.02143,43.72839]]},"properties":{}},{"type":"Feature","geometry":{"type":"LineString","coordinates":[[11.01685,43.73179],[11.01644,43.73172],[11.01616,43.73171],[11.01533,43.73177],[11.01422,43.73197]]},"properties":{}},{"type":"Feature","geometry":{"type":"LineString","coordinates":[[11.01039,43.73188],[11.01112,43.73205],[11.01159,43.73202]]},"properties":{}},{"type":"Feature","geometry":{"type":"LineString","coordinates":[[11.01294,43.73198],[11.0138,43.73198]]},"properties":{}},{"type":"Feature","geometry":{"type":"LineString","coordinates":[[11.0138,43.73198],[11.01422,43.73197]]},"properties":{}},{"type":"Feature","geometry":{"type":"LineString","coordinates":[[11.01159,43.73202],[11.01294,43.73198]]},"properties":{}},{"type":"Feature","geometry":{"type":"LineString","coordinates":[[11.02261,43.73217],[11.02288,43.73184],[11.02286,43.73183]]},"properties":{}},{"type":"Feature","geometry":{"type":"LineString","coordinates":[[11.02058,43.73269],[11.02051,43.73255],[11.02037,43.73249],[11.01693,43.73162],[11.01685,43.73179]]},"properties":{}},{"type":"Feature","geometry":{"type":"LineString","coordinates":[[11.02261,43.73217],[11.02095,43.73259]]},"properties":{}},{"type":"Feature","geometry":{"type":"LineString","coordinates":[[11.02095,43.73259],[11.02058,43.73269]]},"properties":{}},{"type":"Feature","geometry":{"type":"LineString","coordinates":[[11.02065,43.73301],[11.02058,43.73269]]},"properties":{}},{"type":"Feature","geometry":{"type":"LineString","coordinates":[[11.02065,43.73302],[11.02074,43.73304]]},"properties":{}},{"type":"Feature","geometry":{"type":"LineString","coordinates":[[11.02065,43.73301],[11.02043,43.73306],[11.0199,43.73305],[11.01988,43.73314]]},"properties":{}},{"type":"Feature","geometry":{"type":"LineString","coordinates":[[11.02005,43.73305],[11.02004,43.73313]]},"properties":{}},{"type":"Feature","geometry":{"type":"LineString","coordinates":[[11.02024,43.73482],[11.01898,43.73518]]},"properties":{}},{"type":"Feature","geometry":{"type":"LineString","coordinates":[[11.01898,43.73518],[11.01844,43.73534]]},"properties":{}},{"type":"Feature","geometry":{"type":"LineString","coordinates":[[11.23689,43.53591],[11.23775,43.53612]]},"properties":{}},{"type":"Feature","geometry":{"type":"LineString","coordinates":[[11.23775,43.53612],[11.23834,43.53593]]},"properties":{}},{"type":"Feature","geometry":{"type":"LineString","coordinates":[[11.23834,43.53593],[11.23907,43.53622]]},"properties":{}},{"type":"Feature","geometry":{"type":"LineString","coordinates":[[11.2226,43.73016],[11.22252,43.73024],[11.22197,43.73052],[11.22195,43.73056],[11.2221,43.7308],[11.22208,43.73085],[11.22192,43.73098]]},"properties":{}},{"type":"Feature","geometry":{"type":"LineString","coordinates":[[11.17825,43.63496],[11.17852,43.63485],[11.17872,43.63458]]},"properties":{}},{"type":"Feature","geometry":{"type":"LineString","coordinates":[[11.17844,43.6349],[11.17858,43.63489],[11.17866,43.63493]]},"properties":{}},{"type":"Feature","geometry":{"type":"LineString","coordinates":[[11.17866,43.63493],[11.17854,43.63498],[11.17825,43.63496]]},"properties":{}},{"type":"Feature","geometry":{"type":"LineString","coordinates":[[11.17866,43.63513],[11.17856,43.63504],[11.17843,43.63497]]},"properties":{}},{"type":"Feature","geometry":{"type":"LineString","coordinates":[[11.1809,43.66385],[11.18087,43.66388]]},"properties":{}},{"type":"Feature","geometry":{"type":"LineString","coordinates":[[11.19039,43.66213],[11.19037,43.66206],[11.18999,43.66188],[11.1898,43.66183],[11.18953,43.6618],[11.18924,43.66184],[11.1891,43.6619],[11.18885,43.66205],[11.18876,43.66217],[11.18868,43.66235],[11.18851,43.66582],[11.18839,43.666],[11.1883,43.66607],[11.18809,43.66615],[11.18779,43.66617],[11.18764,43.66614],[11.18739,43.666],[11.18731,43.66589],[11.1867,43.66458],[11.186,43.66251],[11.18591,43.66238],[11.18561,43.66215],[11.18558,43.66208],[11.18541,43.66198],[11.18526,43.66195],[11.1842,43.66218],[11.18404,43.66224],[11.18391,43.66237],[11.18396,43.66252],[11.18404,43.66253],[11.18408,43.66276],[11.18443,43.66369],[11.18455,43.66411],[11.18452,43.66436],[11.18444,43.66448],[11.18432,43.6646],[11.18413,43.6647],[11.18392,43.66474],[11.18353,43.66472],[11.18146,43.66375],[11.1812,43.66375],[11.1809,43.66385]]},"properties":{}},{"type":"Feature","geometry":{"type":"LineString","coordinates":[[11.18087,43.66388],[11.18074,43.66404],[11.18073,43.66417],[11.18076,43.66432],[11.18083,43.66443]]},"properties":{}},{"type":"Feature","geometry":{"type":"LineString","coordinates":[[11.18083,43.66443],[11.18131,43.66539],[11.18139,43.66588],[11.18132,43.66608],[11.18121,43.66625],[11.18094,43.66646],[11.18101,43.6666]]},"properties":{}},{"type":"Feature","geometry":{"type":"LineString","coordinates":[[11.19318,43.68172],[11.19361,43.68081]]},"properties":{}},{"type":"Feature","geometry":{"type":"LineString","coordinates":[[11.19169,43.68594],[11.19186,43.68548],[11.19245,43.68415],[11.19297,43.68263],[11.19299,43.68224],[11.19304,43.682],[11.19318,43.68172]]},"properties":{}},{"type":"Feature","geometry":{"type":"LineString","coordinates":[[11.18586,43.68587],[11.18821,43.68617],[11.1909,43.68642],[11.19116,43.68639],[11.19141,43.68631],[11.19161,43.68608],[11.19169,43.68594]]},"properties":{}},{"type":"Feature","geometry":{"type":"LineString","coordinates":[[11.18122,43.68964],[11.18122,43.68956],[11.18152,43.68898],[11.18183,43.68874],[11.18262,43.68829],[11.18297,43.68817],[11.18331,43.68809],[11.18409,43.68798],[11.18439,43.68783],[11.1845,43.68771],[11.18462,43.68737],[11.18467,43.68697],[11.18468,43.68639],[11.18473,43.68626],[11.18481,43.68616],[11.185,43.68605],[11.18531,43.68591],[11.18556,43.68585],[11.18586,43.68587]]},"properties":{}},{"type":"Feature","geometry":{"type":"LineString","coordinates":[[11.18588,43.70193],[11.18515,43.70074],[11.18498,43.70038],[11.18485,43.69972],[11.18489,43.69948],[11.18508,43.69901],[11.18511,43.69886],[11.18505,43.69872],[11.18488,43.69858],[11.18459,43.69841],[11.18423,43.69803],[11.18411,43.69781],[11.184,43.69736],[11.18393,43.69691],[11.18401,43.69611],[11.18398,43.69565],[11.184,43.69537],[11.18432,43.69431],[11.18432,43.69412],[11.18415,43.69381],[11.18387,43.69353],[11.18345,43.69322],[11.1829,43.69265],[11.18235,43.69199],[11.18224,43.69173],[11.182,43.69142],[11.18164,43.69112],[11.18148,43.69095],[11.18144,43.69052],[11.18122,43.68964]]},"properties":{}},{"type":"Feature","geometry":{"type":"LineString","coordinates":[[11.17919,43.70025],[11.17901,43.70095],[11.17871,43.70177],[11.17875,43.70185]]},"properties":{}},{"type":"Feature","geometry":{"type":"LineString","coordinates":[[11.17875,43.70185],[11.17879,43.70189]]},"properties":{}},{"type":"Feature","geometry":{"type":"LineString","coordinates":[[11.17879,43.70189],[11.17894,43.70195],[11.17941,43.70193],[11.17966,43.70199],[11.17988,43.70221],[11.1804,43.7029],[11.18049,43.70299],[11.18066,43.70306],[11.1811,43.70316],[11.18256,43.70381],[11.18293,43.70388],[11.18314,43.70396],[11.18346,43.70416],[11.18368,43.70426],[11.18586,43.70488]]},"properties":{}},{"type":"Feature","geometry":{"type":"LineString","coordinates":[[11.18586,43.70488],[11.18609,43.70519],[11.18625,43.70554],[11.18629,43.70566],[11.18637,43.70622],[11.18645,43.70646],[11.18674,43.70685],[11.18685,43.70709],[11.18713,43.70836],[11.18724,43.7085],[11.18789,43.70914]]},"properties":{}},{"type":"Feature","geometry":{"type":"LineString","coordinates":[[11.18147,43.74352],[11.18158,43.74371]]},"properties":{}},{"type":"Feature","geometry":{"type":"LineString","coordinates":[[11.18158,43.74371],[11.18146,43.74363],[11.18136,43.74363]]},"properties":{}},{"type":"Feature","geometry":{"type":"LineString","coordinates":[[11.1802,43.74551],[11.18028,43.74525],[11.18064,43.74479],[11.18084,43.74414],[11.181,43.74382],[11.18115,43.7436],[11.1812,43.74358]]},"properties":{}},{"type":"Feature","geometry":{"type":"LineString","coordinates":[[11.22192,43.73098],[11.22162,43.73064]]},"properties":{}},{"type":"Feature","geometry":{"type":"LineString","coordinates":[[11.21962,43.74242],[11.22015,43.7425]]},"properties":{}},{"type":"Feature","geometry":{"type":"LineString","coordinates":[[11.21962,43.74242],[11.21973,43.74251],[11.21976,43.74263]]},"properties":{}},{"type":"Feature","geometry":{"type":"LineString","coordinates":[[11.22015,43.7425],[11.21993,43.74254],[11.21976,43.74263]]},"properties":{}},{"type":"Feature","geometry":{"type":"LineString","coordinates":[[11.21844,43.74265],[11.21885,43.7426],[11.21917,43.74248]]},"properties":{}},{"type":"Feature","geometry":{"type":"LineString","coordinates":[[11.21923,43.74279],[11.21912,43.74263],[11.21917,43.74248],[11.21934,43.74239],[11.21945,43.74238],[11.21962,43.74242]]},"properties":{}},{"type":"Feature","geometry":{"type":"LineString","coordinates":[[11.21918,43.74275],[11.2189,43.74266],[11.21844,43.74265]]},"properties":{}},{"type":"Feature","geometry":{"type":"LineString","coordinates":[[11.21975,43.74268],[11.21978,43.74276],[11.21988,43.7428]]},"properties":{}},{"type":"Feature","geometry":{"type":"LineString","coordinates":[[11.21988,43.7428],[11.21962,43.7428]]},"properties":{}},{"type":"Feature","geometry":{"type":"LineString","coordinates":[[11.21952,43.74284],[11.2194,43.74284],[11.21923,43.74279]]},"properties":{}},{"type":"Feature","geometry":{"type":"LineString","coordinates":[[11.18158,43.74371],[11.1818,43.74401],[11.1818,43.7442],[11.18169,43.7445],[11.18147,43.74494],[11.18093,43.74578]]},"properties":{}},{"type":"Feature","geometry":{"type":"LineString","coordinates":[[11.18028,43.74525],[11.18055,43.74549]]},"properties":{}},{"type":"Feature","geometry":{"type":"LineString","coordinates":[[11.1802,43.74551],[11.18037,43.74547],[11.18055,43.74549]]},"properties":{}},{"type":"Feature","geometry":{"type":"LineString","coordinates":[[11.18064,43.74555],[11.18091,43.74559],[11.18105,43.74553],[11.18118,43.74542]]},"properties":{}},{"type":"Feature","geometry":{"type":"LineString","coordinates":[[11.18055,43.74549],[11.18083,43.74569],[11.18087,43.74584]]},"properties":{}},{"type":"Feature","geometry":{"type":"LineString","coordinates":[[11.17987,43.74613],[11.18009,43.74561],[11.1802,43.74551]]},"properties":{}},{"type":"Feature","geometry":{"type":"LineString","coordinates":[[11.18093,43.74578],[11.18083,43.74588]]},"properties":{}},{"type":"Feature","geometry":{"type":"LineString","coordinates":[[11.18083,43.74588],[11.18031,43.74638]]},"properties":{}},{"type":"Feature","geometry":{"type":"LineString","coordinates":[[11.17132,43.74634],[11.17173,43.74642],[11.17242,43.74668]]},"properties":{}},{"type":"Feature","geometry":{"type":"LineString","coordinates":[[11.17242,43.74668],[11.17318,43.74699]]},"properties":{}},{"type":"Feature","geometry":{"type":"LineString","coordinates":[[11.17318,43.74699],[11.17336,43.7471]]},"properties":{}},{"type":"Feature","geometry":{"type":"LineString","coordinates":[[11.17336,43.7471],[11.17344,43.74721],[11.17343,43.74739],[11.17279,43.74802],[11.17271,43.74815],[11.17271,43.74822],[11.17287,43.74843],[11.1729,43.74855]]},"properties":{}},{"type":"Feature","geometry":{"type":"LineString","coordinates":[[11.18136,43.74843],[11.181,43.7481]]},"properties":{}},{"type":"Feature","geometry":{"type":"LineString","coordinates":[[11.18064,43.74886],[11.18136,43.74843]]},"properties":{}},{"type":"Feature","geometry":{"type":"LineString","coordinates":[[11.18655,43.74942],[11.18729,43.74882]]},"properties":{}},{"type":"Feature","geometry":{"type":"LineString","coordinates":[[11.1981,43.75],[11.19794,43.74989],[11.19722,43.74961],[11.19684,43.74932],[11.19652,43.74887],[11.19643,43.7486],[11.19609,43.74805],[11.19571,43.74773],[11.19553,43.74768],[11.19543,43.74769],[11.19483,43.74781]]},"properties":{}},{"type":"Feature","geometry":{"type":"LineString","coordinates":[[11.18729,43.74882],[11.18823,43.74946],[11.18752,43.75]]},"properties":{}},{"type":"Feature","geometry":{"type":"LineString","coordinates":[[11.18742,43.75],[11.18655,43.74942]]},"properties":{}},{"type":"Feature","geometry":{"type":"LineString","coordinates":[[11.1729,43.74855],[11.17242,43.75]]},"properties":{}},{"type":"Feature","geometry":{"type":"LineString","coordinates":[[11.19412,43.74891],[11.19362,43.74922],[11.19314,43.74958],[11.19266,43.75]]},"properties":{}},{"type":"Feature","geometry":{"type":"LineString","coordinates":[[11.21922,43.74298],[11.21925,43.74289],[11.21923,43.74279]]},"properties":{}},{"type":"Feature","geometry":{"type":"LineString","coordinates":[[11.21952,43.74284],[11.21922,43.74298]]},"properties":{}},{"type":"Feature","geometry":{"type":"LineString","coordinates":[[11.20966,43.74508],[11.21291,43.74393],[11.21368,43.74352],[11.21401,43.74329],[11.21421,43.74309],[11.2144,43.74301],[11.21545,43.74319],[11.21602,43.74317],[11.21716,43.74304],[11.2176,43.74303],[11.2188,43.74309],[11.21905,43.74306],[11.21922,43.74298]]},"properties":{}},{"type":"Feature","geometry":{"type":"LineString","coordinates":[[11.20803,43.74862],[11.20862,43.74631],[11.20872,43.74607],[11.20912,43.74546],[11.20936,43.74525],[11.20966,43.74508]]},"properties":{}},{"type":"Feature","geometry":{"type":"LineString","coordinates":[[11.09109,43.6543],[11.09203,43.65325],[11.09237,43.65271],[11.09369,43.65016],[11.09453,43.64894],[11.09529,43.64797],[11.096,43.64746],[11.09779,43.6465],[11.09824,43.6461],[11.09865,43.64557],[11.10117,43.64151],[11.10152,43.64107],[11.10204,43.64055],[11.11235,43.63257],[11.11636,43.62954],[11.11827,43.62821],[11.12052,43.62658],[11.12226,43.62538],[11.12544,43.6236],[11.12639,43.623],[11.12679,43.62261],[11.12698,43.62231],[11.12733,43.62158],[11.1281,43.62012],[11.1287,43.6195],[11.12943,43.61896],[11.13087,43.61817],[11.13133,43.61802],[11.13196,43.61794],[11.13281,43.61802]]},"properties":{}},{"type":"Feature","geometry":{"type":"LineString","coordinates":[[11.09103,43.65436],[11.09109,43.6543]]},"properties":{}},{"type":"Feature","geometry":{"type":"LineString","coordinates":[[11.08962,43.65586],[11.09103,43.65436]]},"properties":{}},{"type":"Feature","geometry":{"type":"LineString","coordinates":[[11.15164,43.56606],[11.14707,43.56375],[11.14708,43.56362],[11.14728,43.5634],[11.14759,43.5633],[11.14836,43.56325],[11.14841,43.56321],[11.14836,43.56314],[11.1479,43.56313],[11.14728,43.56299],[11.14639,43.56268],[11.14604,43.56268],[11.1459,43.56276],[11.14577,43.56293],[11.14564,43.56374],[11.14559,43.5638],[11.14546,43.56384],[11.14536,43.56382],[11.1453,43.56377],[11.14476,43.56139],[11.14389,43.56091],[11.14228,43.55941],[11.14046,43.55825],[11.14038,43.55813],[11.14035,43.55787]]},"properties":{}},{"type":"Feature","geometry":{"type":"LineString","coordinates":[[11.12818,43.68441],[11.12844,43.6843]]},"properties":{}},{"type":"Feature","geometry":{"type":"LineString","coordinates":[[11.12844,43.6843],[11.12825,43.68447]]},"properties":{}},{"type":"Feature","geometry":{"type":"LineString","coordinates":[[11.12813,43.68441],[11.1282,43.68441],[11.12825,43.68449]]},"properties":{}},{"type":"Feature","geometry":{"type":"LineString","coordinates":[[11.12825,43.68449],[11.12817,43.68453]]},"properties":{}},{"type":"Feature","geometry":{"type":"LineString","coordinates":[[11.12817,43.68453],[11.12808,43.6845]]},"properties":{}},{"type":"Feature","geometry":{"type":"LineString","coordinates":[[11.03601,43.56103],[11.03608,43.56107],[11.0361,43.56113],[11.03605,43.56119],[11.03595,43.56121]]},"properties":{}},{"type":"Feature","geometry":{"type":"LineString","coordinates":[[11.03608,43.56117],[11.03609,43.56137],[11.03594,43.56216],[11.03601,43.5623],[11.03626,43.56246]]},"properties":{}},{"type":"Feature","geometry":{"type":"LineString","coordinates":[[11.03626,43.56246],[11.0359,43.56236],[11.0358,43.56227],[11.03598,43.5615],[11.03599,43.5614],[11.03595,43.56121]]},"properties":{}},{"type":"Feature","geometry":{"type":"LineString","coordinates":[[11.04967,43.69618],[11.04975,43.69637]]},"properties":{}},{"type":"Feature","geometry":{"type":"LineString","coordinates":[[11.06578,43.70211],[11.06564,43.70217],[11.06589,43.70463]]},"properties":{}},{"type":"Feature","geometry":{"type":"LineString","coordinates":[[11.06589,43.70463],[11.06592,43.70485]]},"properties":{}},{"type":"Feature","geometry":{"type":"LineString","coordinates":[[11.06567,43.70503],[11.06555,43.70503],[11.06416,43.70456],[11.06388,43.70452],[11.06368,43.70463],[11.06312,43.70516]]},"properties":{}},{"type":"Feature","geometry":{"type":"LineString","coordinates":[[11.06592,43.70485],[11.0659,43.70495]]},"properties":{}},{"type":"Feature","geometry":{"type":"LineString","coordinates":[[11.06583,43.70849],[11.06593,43.70844],[11.06653,43.70857],[11.06686,43.70854],[11.06833,43.70862],[11.06876,43.70857],[11.069,43.70851],[11.07007,43.70813],[11.07035,43.70794],[11.07046,43.70783],[11.07051,43.70763],[11.07064,43.70738],[11.07065,43.70721],[11.0708,43.70701],[11.07106,43.70679],[11.07146,43.70669],[11.072,43.70623],[11.07268,43.70593],[11.07283,43.706],[11.0731,43.70628],[11.0732,43.70627],[11.07359,43.70611],[11.07424,43.7059],[11.07488,43.70573],[11.07535,43.70566],[11.07541,43.70562],[11.0754,43.70559],[11.07516,43.70537],[11.07512,43.7053],[11.07511,43.70522],[11.07516,43.70515],[11.07635,43.70472],[11.07652,43.70469],[11.07716,43.70483],[11.07745,43.70485],[11.07829,43.70474],[11.07879,43.70455],[11.07893,43.7044],[11.07913,43.70433],[11.07949,43.70428],[11.08016,43.70408],[11.08051,43.70405],[11.08099,43.70388],[11.08131,43.70385],[11.08161,43.70376],[11.08197,43.70371],[11.08221,43.70363],[11.08243,43.7036],[11.08267,43.70361],[11.08277,43.70367],[11.08242,43.70459],[11.08228,43.70483],[11.08204,43.70494],[11.0821,43.70531]]},"properties":{}},{"type":"Feature","geometry":{"type":"LineString","coordinates":[[11.06312,43.70516],[11.06293,43.70563],[11.06236,43.70618],[11.06235,43.7063],[11.06244,43.70642],[11.06283,43.70663],[11.06349,43.70726],[11.06371,43.70742],[11.06374,43.70751],[11.06372,43.70775],[11.06362,43.70788],[11.06203,43.70911],[11.06159,43.70933],[11.06032,43.70958],[11.05978,43.70964],[11.05853,43.70954],[11.05826,43.70948],[11.0572,43.70912],[11.05675,43.70903],[11.05622,43.70885]]},"properties":{}},{"type":"Feature","geometry":{"type":"LineString","coordinates":[[11.08957,43.65591],[11.08962,43.65586]]},"properties":{}},{"type":"Feature","geometry":{"type":"LineString","coordinates":[[11.08924,43.65626],[11.08957,43.65591]]},"properties":{}},{"type":"Feature","geometry":{"type":"LineString","coordinates":[[11.0892,43.65631],[11.08924,43.65626]]},"properties":{}},{"type":"Feature","geometry":{"type":"LineString","coordinates":[[11.08713,43.65848],[11.0892,43.65631]]},"properties":{}},{"type":"Feature","geometry":{"type":"LineString","coordinates":[[11.08709,43.65853],[11.08713,43.65848]]},"properties":{}},{"type":"Feature","geometry":{"type":"LineString","coordinates":[[11.08499,43.66073],[11.08709,43.65853]]},"properties":{}},{"type":"Feature","geometry":{"type":"LineString","coordinates":[[11.0884,43.66937],[11.08331,43.66862],[11.08222,43.66844],[11.08206,43.66837]]},"properties":{}},{"type":"Feature","geometry":{"type":"LineString","coordinates":[[11.09941,43.69747],[11.09965,43.69734]]},"properties":{}},{"type":"Feature","geometry":{"type":"LineString","coordinates":[[11.09934,43.6975],[11.09941,43.69747]]},"properties":{}},{"type":"Feature","geometry":{"type":"LineString","coordinates":[[11.09362,43.69894],[11.09415,43.69857],[11.09498,43.69822],[11.09535,43.69811],[11.09584,43.69802],[11.0982,43.69787],[11.0986,43.69779],[11.09904,43.69765],[11.09934,43.6975]]},"properties":{}},{"type":"Feature","geometry":{"type":"LineString","coordinates":[[11.09356,43.69898],[11.09362,43.69894]]},"properties":{}},{"type":"Feature","geometry":{"type":"LineString","coordinates":[[11.08846,43.7046],[11.08829,43.7044],[11.08817,43.70433],[11.08804,43.70427],[11.08777,43.70424],[11.08766,43.70416],[11.08765,43.70389],[11.08768,43.70358],[11.08787,43.70296],[11.08805,43.70265],[11.08824,43.70242],[11.08875,43.70194],[11.08915,43.70169],[11.09175,43.70033],[11.09235,43.69994],[11.09356,43.69898]]},"properties":{}},{"type":"Feature","geometry":{"type":"LineString","coordinates":[[11.05489,43.70854],[11.0548,43.70853]]},"properties":{}},{"type":"Feature","geometry":{"type":"LineString","coordinates":[[11.06576,43.70862],[11.06583,43.70849]]},"properties":{}},{"type":"Feature","geometry":{"type":"LineString","coordinates":[[11.05614,43.70882],[11.05587,43.70873],[11.05489,43.70854]]},"properties":{}},{"type":"Feature","geometry":{"type":"LineString","coordinates":[[11.05622,43.70885],[11.05614,43.70882]]},"properties":{}},{"type":"Feature","geometry":{"type":"LineString","coordinates":[[11.06206,43.71053],[11.06201,43.71039],[11.06196,43.71002],[11.06184,43.70981],[11.06191,43.70974],[11.06371,43.70914],[11.06382,43.70922],[11.06396,43.70943],[11.06401,43.70943],[11.06438,43.70928],[11.06574,43.70899],[11.06578,43.70891],[11.06576,43.70862]]},"properties":{}},{"type":"Feature","geometry":{"type":"LineString","coordinates":[[11.0548,43.70853],[11.05454,43.70851],[11.0544,43.70858],[11.0542,43.70883],[11.05417,43.70918],[11.05411,43.70935],[11.05391,43.70975],[11.05363,43.71002],[11.05327,43.71076],[11.05318,43.71084]]},"properties":{}},{"type":"Feature","geometry":{"type":"LineString","coordinates":[[11.05318,43.71084],[11.05317,43.71089]]},"properties":{}},{"type":"Feature","geometry":{"type":"LineString","coordinates":[[11.05317,43.71089],[11.0531,43.71111],[11.05299,43.71132],[11.05267,43.71159],[11.05223,43.71171],[11.05181,43.71193],[11.05128,43.71204],[11.05044,43.7125],[11.0503,43.71261],[11.04955,43.71299],[11.04847,43.7136],[11.04743,43.71386],[11.04715,43.7139],[11.04695,43.71385],[11.04667,43.7139],[11.04625,43.71384],[11.04535,43.71379],[11.04498,43.71374],[11.0447,43.71375],[11.04415,43.71388],[11.04333,43.71419],[11.04292,43.71442],[11.04279,43.71446],[11.0425,43.71445],[11.0421,43.71467],[11.04163,43.71507]]},"properties":{}},{"type":"Feature","geometry":{"type":"LineString","coordinates":[[11.01844,43.73534],[11.0184,43.73528]]},"properties":{}},{"type":"Feature","geometry":{"type":"LineString","coordinates":[[11.01846,43.7354],[11.01844,43.73534]]},"properties":{}},{"type":"Feature","geometry":{"type":"LineString","coordinates":[[11.02559,43.73988],[11.02525,43.73975],[11.02465,43.73943],[11.02351,43.7389],[11.02306,43.7388],[11.02167,43.73794],[11.02077,43.73744],[11.01963,43.73663],[11.01912,43.73612],[11.01846,43.7354]]},"properties":{}},{"type":"Feature","geometry":{"type":"LineString","coordinates":[[11.02568,43.73992],[11.02559,43.73988]]},"properties":{}},{"type":"Feature","geometry":{"type":"LineString","coordinates":[[11.0,43.73883],[11.00049,43.73865],[11.00126,43.73844],[11.00385,43.73759],[11.0047,43.73747],[11.0069,43.73748],[11.00695,43.73752]]},"properties":{}},{"type":"Feature","geometry":{"type":"LineString","coordinates":[[11.0326,43.74624],[11.03191,43.74561],[11.03177,43.7454],[11.03111,43.74463],[11.03069,43.74421],[11.02997,43.74325],[11.0294,43.7426],[11.02826,43.74172],[11.0275,43.74101],[11.02612,43.74014],[11.02568,43.73992]]},"properties":{}},{"type":"Feature","geometry":{"type":"LineString","coordinates":[[11.03297,43.75],[11.03301,43.74975],[11.03312,43.74939],[11.03322,43.74927],[11.03333,43.74901],[11.03344,43.74856],[11.03349,43.74832],[11.03348,43.74784],[11.03334,43.74718],[11.03322,43.74697],[11.03281,43.74643],[11.0326,43.74624]]},"properties":{}}]}