{"type":"FeatureCollection","features":[{"type":"Feature","geometry":{"type":"LineString","coordinates":[[11.14033,42.56444],[11.1404,42.5644]]},"properties":{}},{"type":"Feature","geometry":{"type":"LineString","coordinates":[[11.14021,42.56458],[11.14033,42.56444]]},"properties":{}},{"type":"Feature","geometry":{"type":"LineString","coordinates":[[11.13946,42.56506],[11.13971,42.56503],[11.13985,42.56496],[11.13977,42.56487],[11.14007,42.56471],[11.14021,42.56458]]},"properties":{}},{"type":"Feature","geometry":{"type":"LineString","coordinates":[[11.14459,42.71261],[11.14458,42.71316],[11.14448,42.71372]]},"properties":{}},{"type":"Feature","geometry":{"type":"LineString","coordinates":[[11.09449,42.6798],[11.10123,42.67233],[11.10364,42.6696],[11.10369,42.66956],[11.1038,42.66957]]},"properties":{}},{"type":"Feature","geometry":{"type":"LineString","coordinates":[[11.07697,42.68046],[11.07693,42.68056],[11.07698,42.68061],[11.07994,42.68142],[11.08034,42.68148],[11.08196,42.68192],[11.08202,42.6819],[11.0821,42.68176],[11.08242,42.68165],[11.08662,42.68073],[11.0867,42.68076],[11.08685,42.68096],[11.08702,42.68107],[11.08984,42.68188],[11.08991,42.68188],[11.09003,42.68182],[11.09038,42.68117],[11.09048,42.68107],[11.09093,42.68092],[11.094,42.68014],[11.09423,42.68003],[11.09449,42.6798]]},"properties":{}},{"type":"Feature","geometry":{"type":"LineString","coordinates":[[11.0821,42.69576],[11.08119,42.69564]]},"properties":{}},{"type":"Feature","geometry":{"type":"LineString","coordinates":[[11.08075,42.70805],[11.08505,42.71199]]},"properties":{}},{"type":"Feature","geometry":{"type":"LineString","coordinates":[[11.09765,42.72677],[11.09717,42.72658],[11.09671,42.72625],[11.0963,42.7259],[11.09529,42.72489],[11.09485,42.7243],[11.0946,42.72381],[11.09442,42.72323],[11.09403,42.7212],[11.09385,42.72068],[11.09362,42.72019],[11.0934,42.71987],[11.0931,42.71951],[11.08505,42.71199]]},"properties":{}},{"type":"Feature","geometry":{"type":"LineString","coordinates":[[11.09765,42.72677],[11.09826,42.7269],[11.0991,42.72697],[11.11159,42.72695]]},"properties":{}},{"type":"Feature","geometry":{"type":"LineString","coordinates":[[11.11377,42.72837],[11.11153,42.72821],[11.1115,42.72812],[11.11159,42.72695]]},"properties":{}},{"type":"Feature","geometry":{"type":"LineString","coordinates":[[11.1117,42.73954],[11.11168,42.73961],[11.11136,42.73968],[11.11134,42.73981],[11.11126,42.73985]]},"properties":{}},{"type":"Feature","geometry":{"type":"LineString","coordinates":[[11.11124,42.74006],[11.11117,42.73988]]},"properties":{}},{"type":"Feature","geometry":{"type":"LineString","coordinates":[[11.1114,42.74046],[11.11129,42.74034],[11.11122,42.74018],[11.11124,42.74006]]},"properties":{}},{"type":"Feature","geometry":{"type":"LineString","coordinates":[[11.11122,42.73986],[11.11224,42.74238],[11.11243,42.74255]]},"properties":{}},{"type":"Feature","geometry":{"type":"LineString","coordinates":[[11.11228,42.74263],[11.11207,42.7422],[11.1114,42.74046]]},"properties":{}},{"type":"Feature","geometry":{"type":"LineString","coordinates":[[11.1073,42.74445],[11.10733,42.74467],[11.10742,42.74481]]},"properties":{}},{"type":"Feature","geometry":{"type":"LineString","coordinates":[[11.10742,42.74481],[11.1072,42.74465],[11.10703,42.74457]]},"properties":{}},{"type":"Feature","geometry":{"type":"LineString","coordinates":[[11.09262,42.75],[11.09149,42.74995],[11.09066,42.74987],[11.08982,42.74972],[11.08905,42.74953],[11.08722,42.74907],[11.07436,42.74551],[11.06942,42.74409],[11.06331,42.74223],[11.0595,42.7401]]},"properties":{}},{"type":"Feature","geometry":{"type":"LineString","coordinates":[[11.11221,42.74875],[11.11258,42.74874],[11.11276,42.74865],[11.11288,42.74852],[11.1135,42.74684],[11.11356,42.74642],[11.11355,42.74607],[11.11344,42.74561],[11.11241,42.74304],[11.11237,42.74278],[11.11233,42.74272]]},"properties":{}},{"type":"Feature","geometry":{"type":"LineString","coordinates":[[11.11248,42.74272],[11.11245,42.74282],[11.11248,42.74299],[11.11351,42.74559],[11.11363,42.74607],[11.11364,42.74642],[11.11359,42.74684],[11.11294,42.74854],[11.11286,42.74865],[11.11268,42.74876],[11.11221,42.74883]]},"properties":{}},{"type":"Feature","geometry":{"type":"LineString","coordinates":[[11.11122,42.74789],[11.11139,42.7478]]},"properties":{}},{"type":"Feature","geometry":{"type":"LineString","coordinates":[[11.11139,42.7478],[11.11132,42.74792]]},"properties":{}},{"type":"Feature","geometry":{"type":"LineString","coordinates":[[11.11103,42.74791],[11.11122,42.74789]]},"properties":{}},{"type":"Feature","geometry":{"type":"LineString","coordinates":[[11.11116,42.748],[11.11122,42.74789]]},"properties":{}},{"type":"Feature","geometry":{"type":"LineString","coordinates":[[11.11132,42.74792],[11.11116,42.748]]},"properties":{}},{"type":"Feature","geometry":{"type":"LineString","coordinates":[[11.11132,42.74792],[11.11131,42.74803],[11.11136,42.74814]]},"properties":{}},{"type":"Feature","geometry":{"type":"LineString","coordinates":[[11.11201,42.74869],[11.11221,42.74875]]},"properties":{}},{"type":"Feature","geometry":{"type":"LineString","coordinates":[[11.11124,42.74895],[11.11146,42.74886],[11.11161,42.74875]]},"properties":{}},{"type":"Feature","geometry":{"type":"LineString","coordinates":[[11.1117,42.74891],[11.11124,42.74895]]},"properties":{}},{"type":"Feature","geometry":{"type":"LineString","coordinates":[[11.11211,42.749],[11.11215,42.74893],[11.11223,42.74889]]},"properties":{}},{"type":"Feature","geometry":{"type":"LineString","coordinates":[[11.07581,42.74641],[11.07602,42.74624],[11.07615,42.74618],[11.07642,42.7462],[11.0838,42.74824],[11.0839,42.74827],[11.08401,42.74837],[11.08416,42.74875],[11.08435,42.74885],[11.08455,42.74885],[11.08501,42.74863],[11.0852,42.74862],[11.08886,42.74959],[11.09024,42.74988],[11.09107,42.75]]},"properties":{}},{"type":"Feature","geometry":{"type":"LineString","coordinates":[[11.11181,42.7491],[11.1119,42.74976],[11.11046,42.74982],[11.11035,42.7499],[11.11034,42.75]]},"properties":{}},{"type":"Feature","geometry":{"type":"LineString","coordinates":[[11.20321,42.5],[11.2025,42.50048]]},"properties":{}},{"type":"Feature","geometry":{"type":"LineString","coordinates":[[11.2025,42.50048],[11.20243,42.50044],[11.20239,42.50045]]},"properties":{}},{"type":"Feature","geometry":{"type":"LineString","coordinates":[[11.20239,42.50045],[11.20162,42.50097],[11.20104,42.50131],[11.20046,42.5018],[11.19984,42.50206],[11.19846,42.50251]]},"properties":{}},{"type":"Feature","geometry":{"type":"LineString","coordinates":[[11.20431,42.50179],[11.2045,42.50174],[11.20468,42.50166]]},"properties":{}},{"type":"Feature","geometry":{"type":"LineString","coordinates":[[11.20017,42.50208],[11.20049,42.50198]]},"properties":{}},{"type":"Feature","geometry":{"type":"LineString","coordinates":[[11.20049,42.50198],[11.20037,42.50223]]},"properties":{}},{"type":"Feature","geometry":{"type":"LineString","coordinates":[[11.19967,42.50225],[11.2,42.50215]]},"properties":{}},{"type":"Feature","geometry":{"type":"LineString","coordinates":[[11.20423,42.50245],[11.20425,42.50225],[11.20416,42.50197]]},"properties":{}},{"type":"Feature","geometry":{"type":"LineString","coordinates":[[11.20002,42.50235],[11.19997,42.50229],[11.19996,42.50222],[11.2,42.50215],[11.20007,42.5021],[11.20026,42.50211],[11.20036,42.50219],[11.20036,42.50229],[11.20028,42.50236],[11.20015,42.50239],[11.20002,42.50235]]},"properties":{}},{"type":"Feature","geometry":{"type":"LineString","coordinates":[[11.19999,42.50232],[11.19988,42.50227],[11.19967,42.50225]]},"properties":{}},{"type":"Feature","geometry":{"type":"LineString","coordinates":[[11.19846,42.50251],[11.19849,42.50266]]},"properties":{}},{"type":"Feature","geometry":{"type":"LineString","coordinates":[[11.19849,42.50266],[11.19857,42.50274],[11.19867,42.50301]]},"properties":{}},{"type":"Feature","geometry":{"type":"LineString","coordinates":[[11.19867,42.50301],[11.19896,42.50315],[11.19898,42.50322],[11.19895,42.50334]]},"properties":{}},{"type":"Feature","geometry":{"type":"LineString","coordinates":[[11.19895,42.50334],[11.19915,42.50342]]},"properties":{}},{"type":"Feature","geometry":{"type":"LineString","coordinates":[[11.19915,42.50342],[11.19944,42.50363],[11.19948,42.50369],[11.19946,42.50383],[11.19992,42.50409],[11.2006,42.50443],[11.20064,42.5045],[11.20061,42.50459],[11.19929,42.50643]]},"properties":{}},{"type":"Feature","geometry":{"type":"LineString","coordinates":[[11.19679,42.50964],[11.19666,42.5099],[11.19638,42.51026],[11.19621,42.51059],[11.19587,42.51103],[11.19535,42.51185],[11.19485,42.51295],[11.19463,42.51335],[11.1944,42.51413],[11.19419,42.51511],[11.19401,42.51576],[11.19332,42.51795],[11.19291,42.51904],[11.19218,42.52067],[11.19187,42.52099],[11.19088,42.52156],[11.18966,42.52247],[11.18938,42.52273],[11.18927,42.52288],[11.18919,42.52308],[11.1892,42.52331],[11.18929,42.52353],[11.1896,42.52387],[11.18985,42.52425],[11.18993,42.52474],[11.18992,42.52493],[11.1893,42.5261],[11.18901,42.52655],[11.18889,42.5269],[11.18736,42.52985],[11.18717,42.53006],[11.18707,42.53031],[11.18599,42.53243],[11.18575,42.53281],[11.1857,42.53292],[11.18568,42.53313],[11.18466,42.53484],[11.18257,42.53784],[11.18191,42.53892],[11.18137,42.53964],[11.1802,42.54137],[11.1786,42.54361],[11.17793,42.54441],[11.17688,42.5455]]},"properties":{}},{"type":"Feature","geometry":{"type":"LineString","coordinates":[[11.17434,42.54957],[11.17365,42.55152]]},"properties":{}},{"type":"Feature","geometry":{"type":"LineString","coordinates":[[11.17356,42.55136],[11.17383,42.55059]]},"properties":{}},{"type":"Feature","geometry":{"type":"LineString","coordinates":[[11.17321,42.55225],[11.17346,42.55164]]},"properties":{}},{"type":"Feature","geometry":{"type":"LineString","coordinates":[[11.03846,42.65364],[11.03811,42.65347],[11.03702,42.65156]]},"properties":{}},{"type":"Feature","geometry":{"type":"LineString","coordinates":[[11.03851,42.65373],[11.03846,42.65364]]},"properties":{}},{"type":"Feature","geometry":{"type":"LineString","coordinates":[[11.04094,42.65794],[11.04074,42.65752],[11.04057,42.65724],[11.04044,42.65712],[11.04024,42.65678],[11.04013,42.65647],[11.03935,42.6552],[11.03929,42.65502],[11.03915,42.65489],[11.03888,42.65434],[11.03875,42.65418],[11.03866,42.65393],[11.03851,42.65373]]},"properties":{}},{"type":"Feature","geometry":{"type":"LineString","coordinates":[[11.04096,42.65799],[11.04094,42.65794]]},"properties":{}},{"type":"Feature","geometry":{"type":"LineString","coordinates":[[11.04341,42.66219],[11.04276,42.6611],[11.04254,42.66064],[11.0423,42.6603],[11.04218,42.66005],[11.04153,42.65901],[11.04125,42.65852],[11.04119,42.65835],[11.04103,42.65813],[11.04096,42.65799]]},"properties":{}},{"type":"Feature","geometry":{"type":"LineString","coordinates":[[11.04344,42.66224],[11.04341,42.66219]]},"properties":{}},{"type":"Feature","geometry":{"type":"LineString","coordinates":[[11.04596,42.66654],[11.0456,42.66589],[11.04521,42.66533],[11.04484,42.66469],[11.04474,42.66443],[11.04463,42.66429],[11.0445,42.66397],[11.0443,42.66371],[11.04344,42.66224]]},"properties":{}},{"type":"Feature","geometry":{"type":"LineString","coordinates":[[11.046,42.66661],[11.04596,42.66654]]},"properties":{}},{"type":"Feature","geometry":{"type":"LineString","coordinates":[[11.04789,42.67374],[11.04871,42.67246],[11.04876,42.67211],[11.04739,42.66977],[11.04716,42.66949],[11.04718,42.66941],[11.04739,42.66933],[11.04741,42.66926],[11.04719,42.66901],[11.046,42.66696],[11.04598,42.66689],[11.04604,42.66672],[11.046,42.66661]]},"properties":{}},{"type":"Feature","geometry":{"type":"LineString","coordinates":[[11.04774,42.67397],[11.04789,42.67374]]},"properties":{}},{"type":"Feature","geometry":{"type":"LineString","coordinates":[[11.0,42.6958],[11.00401,42.69817]]},"properties":{}},{"type":"Feature","geometry":{"type":"LineString","coordinates":[[11.00401,42.69817],[11.00415,42.6982]]},"properties":{}},{"type":"Feature","geometry":{"type":"LineString","coordinates":[[11.00409,42.69825],[11.00401,42.69817]]},"properties":{}},{"type":"Feature","geometry":{"type":"LineString","coordinates":[[11.07235,42.68138],[11.07224,42.68136],[11.07204,42.68109],[11.07149,42.68056],[11.07086,42.68006],[11.07046,42.67979],[11.06939,42.67918],[11.06855,42.67879],[11.06809,42.67862],[11.06,42.67642],[11.05316,42.67475],[11.05231,42.67464],[11.0507,42.67457],[11.04892,42.67443],[11.04822,42.67429],[11.04784,42.67411],[11.04774,42.67401],[11.04774,42.67397]]},"properties":{}},{"type":"Feature","geometry":{"type":"LineString","coordinates":[[11.0751,42.67994],[11.07471,42.67989],[11.07419,42.67976]]},"properties":{}},{"type":"Feature","geometry":{"type":"LineString","coordinates":[[11.07419,42.67976],[11.07396,42.67972],[11.07338,42.68076],[11.07322,42.68093],[11.07293,42.68108]]},"properties":{}},{"type":"Feature","geometry":{"type":"LineString","coordinates":[[11.07293,42.68108],[11.07235,42.68138]]},"properties":{}},{"type":"Feature","geometry":{"type":"LineString","coordinates":[[11.05597,42.73808],[11.05511,42.73761],[11.05393,42.73715],[11.05241,42.73662],[11.04838,42.73532],[11.03968,42.73277],[11.01992,42.7271],[11.01881,42.72672],[11.01714,42.72595],[11.01668,42.72582],[11.01629,42.72577]]},"properties":{}},{"type":"Feature","geometry":{"type":"LineString","coordinates":[[11.01911,42.72729],[11.04476,42.73469],[11.05126,42.73672],[11.05282,42.73725],[11.05524,42.73814]]},"properties":{}},{"type":"Feature","geometry":{"type":"LineString","coordinates":[[11.05524,42.73814],[11.05541,42.73822],[11.05563,42.73842],[11.05571,42.73868],[11.05561,42.74259],[11.05563,42.74268],[11.05573,42.74273]]},"properties":{}},{"type":"Feature","geometry":{"type":"LineString","coordinates":[[11.05573,42.74273],[11.05609,42.74272]]},"properties":{}},{"type":"Feature","geometry":{"type":"LineString","coordinates":[[11.05609,42.74272],[11.05997,42.7426],[11.06007,42.74258],[11.06018,42.74249],[11.06011,42.74175],[11.06012,42.74168],[11.06017,42.74162],[11.06029,42.74158],[11.06108,42.74157],[11.06153,42.74169],[11.06256,42.74227],[11.06358,42.74271],[11.06795,42.74403],[11.07305,42.74553],[11.07547,42.74641],[11.07563,42.74645]]},"properties":{}},{"type":"Feature","geometry":{"type":"LineString","coordinates":[[11.07563,42.74645],[11.07581,42.74641]]},"properties":{}},{"type":"Feature","geometry":{"type":"LineString","coordinates":[[11.00415,42.6982],[11.0043,42.69823],[11.00433,42.69832]]},"properties":{}},{"type":"Feature","geometry":{"type":"LineString","coordinates":[[11.0042,42.69836],[11.00412,42.69832],[11.00409,42.69825]]},"properties":{}},{"type":"Feature","geometry":{"type":"LineString","coordinates":[[11.0042,42.69836],[11.01745,42.7062]]},"properties":{}},{"type":"Feature","geometry":{"type":"LineString","coordinates":[[11.01745,42.7062],[11.01826,42.70674]]},"properties":{}},{"type":"Feature","geometry":{"type":"LineString","coordinates":[[11.015,42.71071],[11.01311,42.70944],[11.01308,42.70935],[11.01753,42.70614]]},"properties":{}},{"type":"Feature","geometry":{"type":"LineString","coordinates":[[11.015,42.72595],[11.01408,42.72616],[11.01328,42.72621],[11.00413,42.72623],[11.00355,42.7262],[11.00339,42.72617],[11.00308,42.72603],[11.0,42.72428]]},"properties":{}},{"type":"Feature","geometry":{"type":"LineString","coordinates":[[11.00348,42.72628],[11.00313,42.72616],[11.00287,42.72603],[11.0,42.72441]]},"properties":{}},{"type":"Feature","geometry":{"type":"LineString","coordinates":[[11.0158,42.72634],[11.01558,42.7263],[11.0153,42.72616],[11.01494,42.72606],[11.0136,42.72632],[11.0042,42.72634],[11.00348,42.72628]]},"properties":{}},{"type":"Feature","geometry":{"type":"LineString","coordinates":[[11.01595,42.72629],[11.0158,42.72634]]},"properties":{}},{"type":"Feature","geometry":{"type":"LineString","coordinates":[[11.01744,42.72677],[11.01615,42.72632],[11.01595,42.72629]]},"properties":{}},{"type":"Feature","geometry":{"type":"LineString","coordinates":[[11.01744,42.72677],[11.01763,42.72683]]},"properties":{}},{"type":"Feature","geometry":{"type":"LineString","coordinates":[[11.01763,42.72683],[11.01889,42.72723]]},"properties":{}},{"type":"Feature","geometry":{"type":"LineString","coordinates":[[11.01889,42.72723],[11.01911,42.72729]]},"properties":{}}]}