{"type":"FeatureCollection","features":[{"type":"Feature","geometry":{"type":"LineString","coordinates":[[11.07875,45.92605],[11.07932,45.92627],[11.07969,45.92633],[11.07995,45.92642]]},"properties":{}},{"type":"Feature","geometry":{"type":"LineString","coordinates":[[11.08025,45.92648],[11.07986,45.92632],[11.07875,45.92605]]},"properties":{}},{"type":"Feature","geometry":{"type":"LineString","coordinates":[[11.07995,45.92642],[11.08014,45.92654]]},"properties":{}},{"type":"Feature","geometry":{"type":"LineString","coordinates":[[11.081,45.92681],[11.08112,45.92673]]},"properties":{}},{"type":"Feature","geometry":{"type":"LineString","coordinates":[[11.08069,45.92678],[11.08083,45.92676],[11.08093,45.92683],[11.081,45.92681]]},"properties":{}},{"type":"Feature","geometry":{"type":"LineString","coordinates":[[11.08126,45.92713],[11.08126,45.92705],[11.08118,45.92698],[11.08084,45.92691],[11.08069,45.92678],[11.0803,45.92665],[11.08014,45.92654]]},"properties":{}},{"type":"Feature","geometry":{"type":"LineString","coordinates":[[11.08112,45.92673],[11.08124,45.92673],[11.08143,45.92689],[11.08164,45.92697]]},"properties":{}},{"type":"Feature","geometry":{"type":"LineString","coordinates":[[11.16602,45.88947],[11.16583,45.88941],[11.16575,45.88943],[11.16562,45.88926],[11.16551,45.88919],[11.16548,45.88923],[11.16546,45.88947],[11.16536,45.8896],[11.16526,45.88959],[11.16518,45.88961],[11.16513,45.8899],[11.1651,45.88994],[11.1645,45.89024],[11.16413,45.89035],[11.16379,45.8906],[11.16374,45.89056],[11.16395,45.89023],[11.16393,45.89018],[11.16346,45.89052],[11.16341,45.89051],[11.16344,45.89042],[11.16343,45.89038],[11.16339,45.89037],[11.16298,45.89038],[11.1626,45.89059],[11.16253,45.89058],[11.16249,45.89053],[11.16246,45.89056],[11.16249,45.89093],[11.16245,45.89125],[11.16225,45.89156],[11.16216,45.89182],[11.16217,45.8919],[11.16213,45.89195],[11.16206,45.89185],[11.16206,45.89172],[11.16207,45.89147],[11.16215,45.89126],[11.16214,45.8911],[11.16177,45.89053],[11.1616,45.89003],[11.1616,45.88986],[11.16164,45.88981],[11.16146,45.88947],[11.16127,45.88883],[11.1613,45.88824],[11.16127,45.88818],[11.16126,45.88792],[11.16133,45.88771],[11.1613,45.88765],[11.16124,45.88762],[11.16119,45.88766],[11.16102,45.88806],[11.16091,45.88824],[11.16078,45.88864],[11.1607,45.88863],[11.16067,45.88857],[11.16064,45.88825],[11.1606,45.88823],[11.16052,45.88828],[11.16046,45.88837],[11.16045,45.88857],[11.16037,45.88883],[11.16039,45.88894],[11.16031,45.88923],[11.16028,45.88952],[11.16022,45.88953],[11.16003,45.88923],[11.15997,45.88923],[11.15995,45.88926],[11.15995,45.88933],[11.16008,45.88954],[11.16006,45.88961],[11.15997,45.88963],[11.15991,45.88968],[11.15986,45.88993],[11.15987,45.8901],[11.15976,45.89021],[11.1597,45.89016],[11.15965,45.89079],[11.1596,45.89085],[11.15957,45.89093],[11.1595,45.89096],[11.15937,45.89045],[11.15917,45.89027],[11.1591,45.89029],[11.15909,45.89045],[11.15894,45.89034],[11.15891,45.89037],[11.15885,45.89034],[11.15883,45.89041],[11.15871,45.8906],[11.15868,45.89061],[11.15856,45.89046],[11.15838,45.89047],[11.15828,45.89063],[11.15823,45.89065],[11.15816,45.8906],[11.15763,45.89077]]},"properties":{}},{"type":"Feature","geometry":{"type":"LineString","coordinates":[[11.15377,45.8894],[11.15333,45.88988],[11.15356,45.89016],[11.15358,45.8902],[11.15353,45.89024]]},"properties":{}},{"type":"Feature","geometry":{"type":"LineString","coordinates":[[11.16226,45.8924],[11.1621,45.89194]]},"properties":{}},{"type":"Feature","geometry":{"type":"LineString","coordinates":[[11.1264,46.0],[11.12642,45.99965],[11.1264,45.99945],[11.12621,45.99891],[11.12609,45.99871],[11.12592,45.99854],[11.12424,45.99729]]},"properties":{}},{"type":"Feature","geometry":{"type":"LineString","coordinates":[[11.12265,46.0],[11.12249,45.99994]]},"properties":{}},{"type":"Feature","geometry":{"type":"LineString","coordinates":[[11.08117,45.92721],[11.08126,45.92713]]},"properties":{}},{"type":"Feature","geometry":{"type":"LineString","coordinates":[[11.07923,45.92733],[11.07924,45.9274],[11.07916,45.92756]]},"properties":{}},{"type":"Feature","geometry":{"type":"LineString","coordinates":[[11.08019,45.92796],[11.08011,45.92777],[11.07991,45.92764],[11.07844,45.92699]]},"properties":{}},{"type":"Feature","geometry":{"type":"LineString","coordinates":[[11.08028,45.92789],[11.08117,45.92721]]},"properties":{}},{"type":"Feature","geometry":{"type":"LineString","coordinates":[[11.08066,45.9282],[11.08022,45.928],[11.08019,45.92796],[11.08028,45.92789]]},"properties":{}},{"type":"Feature","geometry":{"type":"LineString","coordinates":[[11.08066,45.9282],[11.08017,45.92802]]},"properties":{}},{"type":"Feature","geometry":{"type":"LineString","coordinates":[[11.087,45.93237],[11.08694,45.9324],[11.08211,45.92782],[11.08165,45.92747],[11.08142,45.92734],[11.08126,45.92713]]},"properties":{}},{"type":"Feature","geometry":{"type":"LineString","coordinates":[[11.093,45.93003],[11.09304,45.92992],[11.09304,45.92977],[11.09309,45.92966]]},"properties":{}},{"type":"Feature","geometry":{"type":"LineString","coordinates":[[11.09311,45.93006],[11.09318,45.93006],[11.0932,45.93002]]},"properties":{}},{"type":"Feature","geometry":{"type":"LineString","coordinates":[[11.09322,45.93007],[11.09314,45.93011]]},"properties":{}},{"type":"Feature","geometry":{"type":"LineString","coordinates":[[11.09309,45.9303],[11.09305,45.93019]]},"properties":{}},{"type":"Feature","geometry":{"type":"LineString","coordinates":[[11.09317,45.93077],[11.09351,45.93068]]},"properties":{}},{"type":"Feature","geometry":{"type":"LineString","coordinates":[[11.09349,45.93221],[11.0933,45.93185]]},"properties":{}},{"type":"Feature","geometry":{"type":"LineString","coordinates":[[11.0936,45.93218],[11.09349,45.93221]]},"properties":{}},{"type":"Feature","geometry":{"type":"LineString","coordinates":[[11.09574,45.93355],[11.09592,45.93344]]},"properties":{}},{"type":"Feature","geometry":{"type":"LineString","coordinates":[[11.0974,45.94043],[11.09715,45.94019],[11.09666,45.93988],[11.09544,45.93929],[11.09063,45.93736],[11.09032,45.93717],[11.08976,45.93676],[11.08158,45.92886],[11.08109,45.92846],[11.08066,45.9282]]},"properties":{}},{"type":"Feature","geometry":{"type":"LineString","coordinates":[[11.0963,45.9361],[11.09656,45.93614]]},"properties":{}},{"type":"Feature","geometry":{"type":"LineString","coordinates":[[11.09769,45.94065],[11.0974,45.94043]]},"properties":{}},{"type":"Feature","geometry":{"type":"LineString","coordinates":[[11.10047,45.94562],[11.09897,45.94229],[11.09862,45.94171],[11.09825,45.94122],[11.09782,45.94075],[11.09769,45.94065]]},"properties":{}},{"type":"Feature","geometry":{"type":"LineString","coordinates":[[11.09356,45.96957],[11.09365,45.96976],[11.09391,45.97055],[11.09399,45.97095],[11.09395,45.97138],[11.09387,45.97181],[11.09375,45.97202],[11.0934,45.97338],[11.09341,45.97356],[11.09329,45.97419]]},"properties":{}},{"type":"Feature","geometry":{"type":"LineString","coordinates":[[11.09329,45.97419],[11.09336,45.97428]]},"properties":{}},{"type":"Feature","geometry":{"type":"LineString","coordinates":[[11.1225,46.0],[11.12211,45.99729],[11.12196,45.99656],[11.12173,45.99584],[11.12144,45.99517],[11.12117,45.99466],[11.11927,45.99153],[11.11893,45.991],[11.11844,45.99034],[11.11791,45.9897],[11.11384,45.98539],[11.11358,45.98499],[11.11336,45.98487],[11.11306,45.98458],[11.11169,45.98307],[11.111,45.98198],[11.11045,45.98069],[11.10981,45.97676],[11.10941,45.97368],[11.10872,45.96896],[11.10835,45.9662],[11.10835,45.96484],[11.10863,45.96347],[11.10898,45.96118],[11.10937,45.95992],[11.10954,45.95916],[11.10957,45.95861],[11.10946,45.95751],[11.1093,45.95676],[11.10908,45.9563],[11.10871,45.95565],[11.10834,45.9552],[11.10792,45.95474],[11.10523,45.95234],[11.10458,45.95163],[11.1043,45.95125],[11.10406,45.95076],[11.10196,45.94598],[11.10171,45.94544],[11.10162,45.94535]]},"properties":{}},{"type":"Feature","geometry":{"type":"LineString","coordinates":[[11.17651,45.88815],[11.1764,45.88838],[11.17639,45.88863],[11.17625,45.88865],[11.17606,45.88877],[11.17582,45.88879],[11.17577,45.88882],[11.17602,45.889],[11.17605,45.88909],[11.17573,45.88908],[11.17565,45.8891],[11.17577,45.88925],[11.17577,45.88929],[11.17568,45.88931],[11.1754,45.88928],[11.17535,45.88933],[11.17543,45.88943],[11.17544,45.88947],[11.17541,45.8895],[11.17507,45.88949],[11.17504,45.88961],[11.17509,45.88973],[11.17507,45.88979],[11.17479,45.88989],[11.17465,45.8901],[11.17448,45.89016],[11.17398,45.89007],[11.17392,45.8901],[11.17391,45.89017],[11.17395,45.89026],[11.17411,45.89039],[11.17419,45.8905],[11.17416,45.8906],[11.17402,45.89062],[11.17405,45.89071],[11.17389,45.89078],[11.17396,45.89084],[11.17385,45.89091],[11.17387,45.89102],[11.17386,45.89106],[11.17377,45.89108],[11.17333,45.89096],[11.17327,45.891],[11.17325,45.89096],[11.17309,45.8911],[11.17291,45.89119],[11.17266,45.89121],[11.17264,45.89125],[11.17257,45.89126],[11.17238,45.89124],[11.17226,45.8913],[11.17214,45.89132],[11.17203,45.89137],[11.17199,45.89147],[11.17194,45.8915],[11.17185,45.8915],[11.17181,45.89147],[11.17199,45.89133],[11.17197,45.89129],[11.17151,45.89138],[11.17139,45.89145],[11.17087,45.89152],[11.17066,45.89152],[11.17033,45.89159],[11.17007,45.89158],[11.17004,45.89153],[11.16998,45.89152],[11.16985,45.89157],[11.16975,45.89147],[11.16945,45.89143],[11.16888,45.89143],[11.16862,45.89148],[11.16855,45.89145],[11.16867,45.89133],[11.16881,45.89129],[11.16881,45.89126],[11.16876,45.89124],[11.16846,45.89125],[11.16804,45.89141],[11.16788,45.89142],[11.16783,45.89137],[11.16795,45.89123],[11.16809,45.8911],[11.16835,45.89099],[11.16868,45.89092],[11.16929,45.89086],[11.1693,45.89082],[11.16878,45.89077],[11.16901,45.89067],[11.16924,45.89063],[11.16928,45.89059],[11.16908,45.89056],[11.16877,45.89058],[11.16877,45.89054],[11.16892,45.89051],[11.16889,45.89049],[11.1687,45.89047],[11.16889,45.89042],[11.16891,45.89038],[11.16887,45.89035],[11.16862,45.89036],[11.16849,45.89031],[11.16839,45.89032],[11.16748,45.89021],[11.16749,45.89016],[11.16771,45.89014],[11.16775,45.89009],[11.16756,45.89003],[11.16721,45.89005],[11.16701,45.89001],[11.16679,45.88988],[11.16667,45.88988],[11.16662,45.88982],[11.16662,45.88976],[11.16653,45.88969],[11.16646,45.88958],[11.16633,45.88958],[11.16619,45.88949],[11.16602,45.88947]]},"properties":{}},{"type":"Feature","geometry":{"type":"LineString","coordinates":[[11.17359,45.89105],[11.17361,45.89165],[11.17336,45.89183],[11.17347,45.89188],[11.17345,45.89221],[11.17322,45.89222],[11.1732,45.89225],[11.17329,45.8926],[11.17291,45.89297],[11.17252,45.89307],[11.17254,45.89284],[11.17149,45.89311],[11.1702,45.89324],[11.16963,45.89348],[11.1699,45.89311],[11.16949,45.89314],[11.16903,45.89358],[11.16889,45.89342],[11.16853,45.89367],[11.16828,45.89345],[11.16618,45.89376],[11.16546,45.89416],[11.16549,45.89393],[11.16547,45.89368],[11.1652,45.89355],[11.16411,45.89397],[11.16369,45.89396],[11.16342,45.89382],[11.16285,45.89334],[11.16255,45.89295],[11.1626,45.8919],[11.16253,45.89174]]},"properties":{}},{"type":"Feature","geometry":{"type":"LineString","coordinates":[[11.17849,45.91238],[11.17847,45.9125],[11.1785,45.91258]]},"properties":{}},{"type":"Feature","geometry":{"type":"LineString","coordinates":[[11.17824,45.91261],[11.17849,45.91238]]},"properties":{}},{"type":"Feature","geometry":{"type":"LineString","coordinates":[[11.23639,45.97839],[11.23655,45.97849],[11.23657,45.97854]]},"properties":{}},{"type":"Feature","geometry":{"type":"LineString","coordinates":[[11.1805,45.91229],[11.18037,45.91249],[11.18036,45.91257],[11.18041,45.91263],[11.18071,45.91278]]},"properties":{}},{"type":"Feature","geometry":{"type":"LineString","coordinates":[[11.17881,45.91259],[11.17865,45.9127]]},"properties":{}},{"type":"Feature","geometry":{"type":"LineString","coordinates":[[11.17817,45.91277],[11.17817,45.9127],[11.17821,45.91264],[11.17837,45.91257],[11.17854,45.9126],[11.17865,45.9127],[11.17862,45.91282],[11.17848,45.9129],[11.17827,45.91287],[11.17817,45.91277]]},"properties":{}},{"type":"Feature","geometry":{"type":"LineString","coordinates":[[11.17865,45.91274],[11.17887,45.91278]]},"properties":{}},{"type":"Feature","geometry":{"type":"LineString","coordinates":[[11.17799,45.91287],[11.17817,45.9127]]},"properties":{}},{"type":"Feature","geometry":{"type":"LineString","coordinates":[[11.17887,45.91278],[11.17859,45.91285]]},"properties":{}},{"type":"Feature","geometry":{"type":"LineString","coordinates":[[11.17822,45.91284],[11.17799,45.91287]]},"properties":{}},{"type":"Feature","geometry":{"type":"LineString","coordinates":[[11.18851,45.91313],[11.18776,45.913],[11.18749,45.9129]]},"properties":{}},{"type":"Feature","geometry":{"type":"LineString","coordinates":[[11.18749,45.9129],[11.18705,45.91274],[11.18687,45.91271],[11.18658,45.91279],[11.18649,45.91286],[11.18645,45.91296],[11.18657,45.9137],[11.18676,45.91415],[11.18704,45.91452],[11.18745,45.91488],[11.1875,45.91495],[11.18748,45.91505]]},"properties":{}},{"type":"Feature","geometry":{"type":"LineString","coordinates":[[11.17703,45.91394],[11.17721,45.914],[11.18059,45.91426]]},"properties":{}},{"type":"Feature","geometry":{"type":"LineString","coordinates":[[11.18369,45.9141],[11.18409,45.91417]]},"properties":{}},{"type":"Feature","geometry":{"type":"LineString","coordinates":[[11.18393,45.91427],[11.18369,45.9141]]},"properties":{}},{"type":"Feature","geometry":{"type":"LineString","coordinates":[[11.18417,45.91438],[11.18407,45.91439],[11.18397,45.91436],[11.18393,45.91429],[11.18396,45.91422],[11.18409,45.91417],[11.18423,45.91422],[11.18425,45.91429],[11.18417,45.91438]]},"properties":{}},{"type":"Feature","geometry":{"type":"LineString","coordinates":[[11.18425,45.91429],[11.18436,45.9144],[11.1846,45.91453]]},"properties":{}},{"type":"Feature","geometry":{"type":"LineString","coordinates":[[11.1846,45.91453],[11.18412,45.91439]]},"properties":{}},{"type":"Feature","geometry":{"type":"LineString","coordinates":[[11.18726,45.91513],[11.18647,45.91499],[11.18634,45.91503],[11.18616,45.91521],[11.18601,45.91523],[11.18541,45.9148],[11.18471,45.91445],[11.18451,45.91424],[11.18441,45.91422],[11.18425,45.91428]]},"properties":{}},{"type":"Feature","geometry":{"type":"LineString","coordinates":[[11.2034,45.99996],[11.20325,45.99983]]},"properties":{}},{"type":"Feature","geometry":{"type":"LineString","coordinates":[[11.25,45.9981],[11.24873,45.99859]]},"properties":{}},{"type":"Feature","geometry":{"type":"LineString","coordinates":[[11.24873,45.99859],[11.24811,45.99886],[11.2477,45.9991],[11.24739,45.99934],[11.24704,45.99971]]},"properties":{}},{"type":"Feature","geometry":{"type":"LineString","coordinates":[[11.24704,45.99971],[11.24683,45.99998]]},"properties":{}},{"type":"Feature","geometry":{"type":"LineString","coordinates":[[11.23645,45.97854],[11.23639,45.97839]]},"properties":{}},{"type":"Feature","geometry":{"type":"LineString","coordinates":[[11.23663,45.9787],[11.23669,45.97894]]},"properties":{}},{"type":"Feature","geometry":{"type":"LineString","coordinates":[[11.23669,45.97894],[11.23657,45.97886],[11.23648,45.97873]]},"properties":{}},{"type":"Feature","geometry":{"type":"LineString","coordinates":[[11.0,45.75758],[11.00127,45.75865]]},"properties":{}},{"type":"Feature","geometry":{"type":"LineString","coordinates":[[11.00142,45.75867],[11.00198,45.75924]]},"properties":{}},{"type":"Feature","geometry":{"type":"LineString","coordinates":[[11.00127,45.75865],[11.00222,45.75956]]},"properties":{}},{"type":"Feature","geometry":{"type":"LineString","coordinates":[[11.00198,45.75924],[11.00208,45.75935]]},"properties":{}},{"type":"Feature","geometry":{"type":"LineString","coordinates":[[11.00273,45.76],[11.0035,45.7598],[11.0041,45.75976],[11.00476,45.75951],[11.00531,45.75922],[11.00542,45.7592],[11.00562,45.75909],[11.00588,45.75886],[11.00605,45.75877],[11.00637,45.75875],[11.00659,45.75879]]},"properties":{}},{"type":"Feature","geometry":{"type":"LineString","coordinates":[[11.06333,45.88027],[11.06328,45.88046]]},"properties":{}},{"type":"Feature","geometry":{"type":"LineString","coordinates":[[11.03313,45.87764],[11.03339,45.87786],[11.03345,45.87805],[11.0351,45.87956],[11.03566,45.88011],[11.03867,45.88209],[11.0389,45.88222],[11.03902,45.88223],[11.03908,45.88226],[11.03914,45.88242],[11.04084,45.88357],[11.04081,45.88359]]},"properties":{}},{"type":"Feature","geometry":{"type":"LineString","coordinates":[[11.06328,45.88046],[11.06311,45.88065],[11.06284,45.88086]]},"properties":{}},{"type":"Feature","geometry":{"type":"LineString","coordinates":[[11.06258,45.88108],[11.06262,45.8809],[11.06333,45.88027]]},"properties":{}},{"type":"Feature","geometry":{"type":"LineString","coordinates":[[11.06284,45.88086],[11.06258,45.88108]]},"properties":{}},{"type":"Feature","geometry":{"type":"LineString","coordinates":[[11.034,45.88345],[11.03561,45.88369],[11.03661,45.88388],[11.03868,45.8844],[11.03949,45.88469],[11.04079,45.88524],[11.04087,45.88533],[11.04158,45.88566],[11.04186,45.88586],[11.04267,45.88624],[11.043,45.88635],[11.04332,45.88639],[11.04365,45.88637],[11.04386,45.88633],[11.04387,45.88629]]},"properties":{}},{"type":"Feature","geometry":{"type":"LineString","coordinates":[[11.04094,45.88525],[11.04169,45.88564]]},"properties":{}},{"type":"Feature","geometry":{"type":"LineString","coordinates":[[11.04032,45.88601],[11.04035,45.88592],[11.0405,45.8857]]},"properties":{}},{"type":"Feature","geometry":{"type":"LineString","coordinates":[[11.04027,45.88659],[11.04026,45.88599],[11.04049,45.88568],[11.04056,45.88565]]},"properties":{}},{"type":"Feature","geometry":{"type":"LineString","coordinates":[[11.00208,45.75935],[11.00225,45.75954]]},"properties":{}},{"type":"Feature","geometry":{"type":"LineString","coordinates":[[11.00225,45.75954],[11.00273,45.76006]]},"properties":{}},{"type":"Feature","geometry":{"type":"LineString","coordinates":[[11.00222,45.75956],[11.00268,45.76005]]},"properties":{}},{"type":"Feature","geometry":{"type":"LineString","coordinates":[[11.00259,45.76007],[11.00273,45.76]]},"properties":{}},{"type":"Feature","geometry":{"type":"LineString","coordinates":[[11.0,45.76069],[11.00047,45.76061],[11.00234,45.76037],[11.00244,45.7603],[11.00259,45.76007]]},"properties":{}},{"type":"Feature","geometry":{"type":"LineString","coordinates":[[11.00273,45.76006],[11.00446,45.76182],[11.00452,45.76182],[11.00467,45.76198],[11.00489,45.76227]]},"properties":{}},{"type":"Feature","geometry":{"type":"LineString","coordinates":[[11.00268,45.76005],[11.00493,45.76236]]},"properties":{}},{"type":"Feature","geometry":{"type":"LineString","coordinates":[[11.00493,45.76236],[11.00508,45.76247]]},"properties":{}},{"type":"Feature","geometry":{"type":"LineString","coordinates":[[11.00498,45.76251],[11.00493,45.76236]]},"properties":{}},{"type":"Feature","geometry":{"type":"LineString","coordinates":[[11.00513,45.76247],[11.0052,45.7624]]},"properties":{}},{"type":"Feature","geometry":{"type":"LineString","coordinates":[[11.00518,45.76276],[11.00502,45.76275],[11.00495,45.7627],[11.00492,45.76264],[11.00492,45.76257],[11.00498,45.76251],[11.00513,45.76247],[11.00523,45.76249],[11.00533,45.76257],[11.00533,45.76268],[11.00518,45.76276]]},"properties":{}},{"type":"Feature","geometry":{"type":"LineString","coordinates":[[11.00533,45.76268],[11.00539,45.7628]]},"properties":{}},{"type":"Feature","geometry":{"type":"LineString","coordinates":[[11.00539,45.7628],[11.00524,45.76275]]},"properties":{}},{"type":"Feature","geometry":{"type":"LineString","coordinates":[[11.00492,45.76285],[11.00495,45.7627]]},"properties":{}},{"type":"Feature","geometry":{"type":"LineString","coordinates":[[11.00509,45.76276],[11.00492,45.76285]]},"properties":{}},{"type":"Feature","geometry":{"type":"LineString","coordinates":[[11.0009,45.76632],[11.00069,45.76622]]},"properties":{}},{"type":"Feature","geometry":{"type":"LineString","coordinates":[[11.00069,45.76622],[11.00058,45.76628],[11.0,45.7669]]},"properties":{}},{"type":"Feature","geometry":{"type":"LineString","coordinates":[[11.00169,45.768],[11.00171,45.76792],[11.00168,45.76776],[11.00151,45.76742],[11.00119,45.76714],[11.00047,45.76705],[11.00036,45.76702],[11.00028,45.76696],[11.00029,45.76688],[11.00037,45.76679],[11.00085,45.76642],[11.0009,45.76632]]},"properties":{}},{"type":"Feature","geometry":{"type":"LineString","coordinates":[[11.00086,45.76715],[11.00069,45.76727],[11.0,45.76743]]},"properties":{}},{"type":"Feature","geometry":{"type":"LineString","coordinates":[[11.00161,45.76805],[11.00169,45.768]]},"properties":{}},{"type":"Feature","geometry":{"type":"LineString","coordinates":[[11.00169,45.768],[11.00261,45.76758],[11.00275,45.76761],[11.00309,45.76784],[11.00471,45.76856],[11.00677,45.76974],[11.00795,45.77062],[11.0087,45.7713],[11.00924,45.77196],[11.00966,45.77265],[11.01015,45.77322],[11.01033,45.77384],[11.01078,45.77582],[11.01107,45.77676],[11.01107,45.77693],[11.011,45.77699],[11.01073,45.77717],[11.01027,45.7774],[11.01057,45.77769],[11.0108,45.77802],[11.01089,45.77839],[11.01168,45.77944],[11.01236,45.78011],[11.01263,45.78046],[11.01298,45.78114],[11.01325,45.78144],[11.01331,45.78158],[11.01328,45.78171],[11.01284,45.78203],[11.01272,45.78216],[11.01248,45.78245],[11.01241,45.78258],[11.01231,45.78266],[11.01231,45.78275],[11.01226,45.78284],[11.01302,45.78324],[11.01321,45.78327]]},"properties":{}},{"type":"Feature","geometry":{"type":"LineString","coordinates":[[11.01321,45.78327],[11.01338,45.78327],[11.01375,45.78319],[11.01386,45.78319],[11.01393,45.78324],[11.01409,45.78355],[11.01509,45.78488],[11.01526,45.78503],[11.01533,45.78516],[11.01537,45.78535],[11.01546,45.78543],[11.01563,45.78552],[11.01609,45.78625],[11.01664,45.78672],[11.01731,45.78747],[11.01741,45.78775],[11.01746,45.78806],[11.0174,45.78811],[11.01721,45.78815],[11.01736,45.7887],[11.01743,45.78881],[11.01747,45.7907],[11.01796,45.7907],[11.01797,45.79105],[11.01781,45.79245],[11.0178,45.79303],[11.01796,45.79349],[11.018,45.79408],[11.01799,45.79439],[11.01805,45.79455],[11.01806,45.79492],[11.01819,45.79508],[11.01816,45.79548],[11.01811,45.79569],[11.01814,45.79604],[11.01812,45.79655],[11.01804,45.79705],[11.01806,45.79725],[11.01749,45.79802],[11.01718,45.79848],[11.01701,45.79863],[11.0168,45.79873],[11.01646,45.79903],[11.01661,45.7993],[11.0167,45.79933],[11.01714,45.79931],[11.01719,45.79935],[11.01714,45.79943],[11.0125,45.80546]]},"properties":{}},{"type":"Feature","geometry":{"type":"LineString","coordinates":[[11.0125,45.80546],[11.01238,45.80579],[11.01218,45.80609],[11.01139,45.80674],[11.01122,45.80694],[11.01106,45.80725],[11.01099,45.80757],[11.01101,45.80796],[11.0112,45.80861],[11.01131,45.80869]]},"properties":{}},{"type":"Feature","geometry":{"type":"LineString","coordinates":[[11.01261,45.80867],[11.0126,45.80862]]},"properties":{}},{"type":"Feature","geometry":{"type":"LineString","coordinates":[[11.01254,45.80868],[11.01139,45.80875]]},"properties":{}},{"type":"Feature","geometry":{"type":"LineString","coordinates":[[11.01139,45.80875],[11.01131,45.80869]]},"properties":{}},{"type":"Feature","geometry":{"type":"LineString","coordinates":[[11.014,45.81041],[11.01419,45.80995],[11.01453,45.80954],[11.01447,45.80938]]},"properties":{}},{"type":"Feature","geometry":{"type":"LineString","coordinates":[[11.0115,45.81663],[11.01195,45.81533],[11.0125,45.81356],[11.0131,45.81188],[11.01326,45.81132],[11.01328,45.81115],[11.01323,45.81067],[11.01278,45.80957],[11.01261,45.80867],[11.01254,45.80868]]},"properties":{}},{"type":"Feature","geometry":{"type":"LineString","coordinates":[[11.00414,45.82555],[11.0042,45.82554],[11.00427,45.82548],[11.00425,45.82509],[11.00433,45.8249],[11.00498,45.8243],[11.0054,45.82366],[11.00546,45.82364],[11.00598,45.82383],[11.00619,45.82387],[11.00639,45.82385],[11.00646,45.82382],[11.00714,45.82265],[11.00768,45.82197],[11.00795,45.82183],[11.01004,45.81917],[11.01051,45.81851],[11.01098,45.81781],[11.01126,45.81728],[11.0115,45.81663]]},"properties":{}},{"type":"Feature","geometry":{"type":"LineString","coordinates":[[11.0038,45.82554],[11.00414,45.82555]]},"properties":{}},{"type":"Feature","geometry":{"type":"LineString","coordinates":[[11.00277,45.82999],[11.00284,45.82926],[11.00295,45.82864],[11.00344,45.8266],[11.00361,45.82555],[11.0038,45.82554]]},"properties":{}},{"type":"Feature","geometry":{"type":"LineString","coordinates":[[11.00135,45.83919],[11.0018,45.83835],[11.00192,45.83825],[11.00235,45.83812],[11.00247,45.83799],[11.0025,45.83784],[11.00277,45.82999]]},"properties":{}},{"type":"Feature","geometry":{"type":"LineString","coordinates":[[11.01086,45.83632],[11.01076,45.83607],[11.01041,45.834],[11.0104,45.83336]]},"properties":{}},{"type":"Feature","geometry":{"type":"LineString","coordinates":[[11.00958,45.84218],[11.00987,45.84215]]},"properties":{}},{"type":"Feature","geometry":{"type":"LineString","coordinates":[[11.00815,45.8422],[11.00859,45.84214],[11.00868,45.84217],[11.0093,45.84222],[11.00958,45.84218]]},"properties":{}},{"type":"Feature","geometry":{"type":"LineString","coordinates":[[11.00796,45.84247],[11.00803,45.84233],[11.00815,45.8422]]},"properties":{}},{"type":"Feature","geometry":{"type":"LineString","coordinates":[[11.00859,45.84214],[11.00871,45.84221],[11.00885,45.84271]]},"properties":{}},{"type":"Feature","geometry":{"type":"LineString","coordinates":[[11.00987,45.84215],[11.00985,45.84231],[11.00976,45.8424],[11.0094,45.8426],[11.00923,45.84265],[11.00772,45.84287]]},"properties":{}},{"type":"Feature","geometry":{"type":"LineString","coordinates":[[11.00767,45.84259],[11.00787,45.84258],[11.00796,45.84247],[11.00878,45.84246]]},"properties":{}},{"type":"Feature","geometry":{"type":"LineString","coordinates":[[11.00964,45.84528],[11.00922,45.84475],[11.00886,45.84437],[11.00809,45.84451]]},"properties":{}},{"type":"Feature","geometry":{"type":"LineString","coordinates":[[11.01053,45.84476],[11.01085,45.84537]]},"properties":{}},{"type":"Feature","geometry":{"type":"LineString","coordinates":[[11.00979,45.84539],[11.00964,45.84528]]},"properties":{}},{"type":"Feature","geometry":{"type":"LineString","coordinates":[[11.01085,45.84537],[11.00996,45.84539]]},"properties":{}},{"type":"Feature","geometry":{"type":"LineString","coordinates":[[11.00996,45.84539],[11.00979,45.84539]]},"properties":{}},{"type":"Feature","geometry":{"type":"LineString","coordinates":[[11.00725,45.8446],[11.00736,45.84513],[11.00705,45.84522],[11.00695,45.84558],[11.00686,45.84578],[11.00668,45.84602],[11.0063,45.84666],[11.00631,45.84683],[11.00625,45.84693],[11.00604,45.84717],[11.00556,45.84748],[11.00544,45.84751],[11.00521,45.8475],[11.00511,45.84746],[11.00483,45.84719],[11.00471,45.84715],[11.00466,45.84719]]},"properties":{}},{"type":"Feature","geometry":{"type":"LineString","coordinates":[[11.00968,45.84533],[11.0104,45.84625],[11.01058,45.8466],[11.01064,45.84681],[11.01076,45.84697],[11.01088,45.84709],[11.01138,45.84732]]},"properties":{}},{"type":"Feature","geometry":{"type":"LineString","coordinates":[[11.00466,45.84719],[11.0043,45.84742],[11.00424,45.84751],[11.00422,45.84767],[11.0035,45.84779]]},"properties":{}},{"type":"Feature","geometry":{"type":"LineString","coordinates":[[11.00361,45.84778],[11.00353,45.84833],[11.00344,45.84851],[11.00344,45.84855],[11.00355,45.8486]]},"properties":{}},{"type":"Feature","geometry":{"type":"LineString","coordinates":[[11.00355,45.8486],[11.00321,45.84901],[11.00298,45.84896]]},"properties":{}},{"type":"Feature","geometry":{"type":"LineString","coordinates":[[11.00245,45.8498],[11.00247,45.84925],[11.00226,45.84884],[11.00228,45.84872],[11.00247,45.84861],[11.00289,45.84859]]},"properties":{}},{"type":"Feature","geometry":{"type":"LineString","coordinates":[[11.00247,45.8504],[11.00254,45.84925],[11.00234,45.84882],[11.00243,45.84869],[11.00262,45.84863],[11.00262,45.84859]]},"properties":{}},{"type":"Feature","geometry":{"type":"LineString","coordinates":[[11.00253,45.84953],[11.00213,45.84959],[11.00197,45.84967]]},"properties":{}},{"type":"Feature","geometry":{"type":"LineString","coordinates":[[11.00242,45.85001],[11.00245,45.8498]]},"properties":{}},{"type":"Feature","geometry":{"type":"LineString","coordinates":[[11.00242,45.85001],[11.00233,45.85015],[11.0023,45.85031]]},"properties":{}},{"type":"Feature","geometry":{"type":"LineString","coordinates":[[11.00237,45.85008],[11.00244,45.85014],[11.00247,45.8504]]},"properties":{}},{"type":"Feature","geometry":{"type":"LineString","coordinates":[[11.0022,45.85073],[11.00199,45.85091],[11.00177,45.8514]]},"properties":{}},{"type":"Feature","geometry":{"type":"LineString","coordinates":[[11.00176,45.85278],[11.00176,45.85233],[11.00181,45.85201],[11.00179,45.85182],[11.00198,45.85105],[11.00246,45.85053]]},"properties":{}},{"type":"Feature","geometry":{"type":"LineString","coordinates":[[11.00149,45.85239],[11.00156,45.85279]]},"properties":{}},{"type":"Feature","geometry":{"type":"LineString","coordinates":[[11.00176,45.85278],[11.0018,45.85362],[11.00189,45.85415]]},"properties":{}},{"type":"Feature","geometry":{"type":"LineString","coordinates":[[11.0021,45.85543],[11.00212,45.8549],[11.00208,45.85448],[11.002,45.8543],[11.00189,45.85415]]},"properties":{}},{"type":"Feature","geometry":{"type":"LineString","coordinates":[[11.00229,45.85579],[11.00216,45.85558],[11.00214,45.8555],[11.00214,45.85458],[11.00217,45.85451]]},"properties":{}},{"type":"Feature","geometry":{"type":"LineString","coordinates":[[11.00094,45.85835],[11.00088,45.85824]]},"properties":{}},{"type":"Feature","geometry":{"type":"LineString","coordinates":[[11.00094,45.85835],[11.00096,45.85921],[11.00107,45.85971],[11.00128,45.86012],[11.00164,45.86063]]},"properties":{}},{"type":"Feature","geometry":{"type":"LineString","coordinates":[[11.00164,45.86063],[11.00184,45.86069],[11.00185,45.86089]]},"properties":{}},{"type":"Feature","geometry":{"type":"LineString","coordinates":[[11.00164,45.86063],[11.00177,45.86076],[11.0018,45.86086],[11.00193,45.86105]]},"properties":{}},{"type":"Feature","geometry":{"type":"LineString","coordinates":[[11.00162,45.86098],[11.00185,45.86089]]},"properties":{}},{"type":"Feature","geometry":{"type":"LineString","coordinates":[[11.0013,45.86119],[11.00162,45.86098]]},"properties":{}},{"type":"Feature","geometry":{"type":"LineString","coordinates":[[11.02764,45.86312],[11.02782,45.86318],[11.02788,45.86325],[11.02789,45.86331]]},"properties":{}},{"type":"Feature","geometry":{"type":"LineString","coordinates":[[11.00801,45.86678],[11.00639,45.86652],[11.00486,45.86647],[11.00417,45.86641],[11.00351,45.86627],[11.00286,45.86602],[11.00227,45.86564],[11.00184,45.86523],[11.0,45.86308]]},"properties":{}},{"type":"Feature","geometry":{"type":"LineString","coordinates":[[11.00904,45.86556],[11.00924,45.86553],[11.01142,45.86543],[11.01222,45.86531],[11.0128,45.8653],[11.01321,45.86518],[11.01346,45.86504],[11.01376,45.86496],[11.01429,45.86474],[11.01563,45.86434],[11.01629,45.86418],[11.01671,45.8642],[11.01713,45.86435],[11.0174,45.86454],[11.0179,45.86502],[11.01796,45.86517]]},"properties":{}},{"type":"Feature","geometry":{"type":"LineString","coordinates":[[11.02721,45.86366],[11.02731,45.86358],[11.02739,45.86356],[11.02765,45.86352],[11.02776,45.86353],[11.02817,45.86374],[11.02869,45.86406],[11.02913,45.86436],[11.02918,45.86447],[11.02958,45.8647],[11.02992,45.86496],[11.03003,45.86509],[11.03012,45.86527],[11.03046,45.86665],[11.03056,45.86673]]},"properties":{}},{"type":"Feature","geometry":{"type":"LineString","coordinates":[[11.01796,45.86517],[11.01801,45.86522]]},"properties":{}},{"type":"Feature","geometry":{"type":"LineString","coordinates":[[11.00846,45.86621],[11.00836,45.86607],[11.00838,45.86593],[11.00868,45.86571],[11.00904,45.86556]]},"properties":{}},{"type":"Feature","geometry":{"type":"LineString","coordinates":[[11.00843,45.86581],[11.00832,45.86592],[11.00828,45.86605]]},"properties":{}},{"type":"Feature","geometry":{"type":"LineString","coordinates":[[11.00745,45.86602],[11.00754,45.86595],[11.00776,45.86587],[11.00794,45.86587],[11.00815,45.86593]]},"properties":{}},{"type":"Feature","geometry":{"type":"LineString","coordinates":[[11.00815,45.86593],[11.00828,45.86605],[11.00832,45.86615]]},"properties":{}},{"type":"Feature","geometry":{"type":"LineString","coordinates":[[11.00851,45.86622],[11.00846,45.86621]]},"properties":{}},{"type":"Feature","geometry":{"type":"LineString","coordinates":[[11.00754,45.86641],[11.00741,45.86625],[11.00741,45.86609],[11.00745,45.86602]]},"properties":{}},{"type":"Feature","geometry":{"type":"LineString","coordinates":[[11.00832,45.86615],[11.0083,45.86627],[11.00824,45.86636]]},"properties":{}},{"type":"Feature","geometry":{"type":"LineString","coordinates":[[11.01801,45.86522],[11.01816,45.86527],[11.01863,45.86572],[11.01997,45.86703],[11.02043,45.86755]]},"properties":{}},{"type":"Feature","geometry":{"type":"LineString","coordinates":[[11.00832,45.86615],[11.0085,45.86627],[11.00883,45.86636],[11.00902,45.86644],[11.00943,45.86668]]},"properties":{}},{"type":"Feature","geometry":{"type":"LineString","coordinates":[[11.00949,45.86663],[11.00893,45.86633],[11.00851,45.86622]]},"properties":{}},{"type":"Feature","geometry":{"type":"LineString","coordinates":[[11.00824,45.86636],[11.00809,45.86645],[11.00791,45.8665],[11.00771,45.86648],[11.00754,45.86641]]},"properties":{}},{"type":"Feature","geometry":{"type":"LineString","coordinates":[[11.00914,45.86661],[11.00927,45.8665]]},"properties":{}},{"type":"Feature","geometry":{"type":"LineString","coordinates":[[11.00819,45.86682],[11.00801,45.86678]]},"properties":{}},{"type":"Feature","geometry":{"type":"LineString","coordinates":[[11.01034,45.86742],[11.01038,45.86738],[11.00956,45.86684],[11.00908,45.86658]]},"properties":{}},{"type":"Feature","geometry":{"type":"LineString","coordinates":[[11.01026,45.86749],[11.01034,45.86742]]},"properties":{}},{"type":"Feature","geometry":{"type":"LineString","coordinates":[[11.01017,45.86757],[11.01026,45.86749]]},"properties":{}},{"type":"Feature","geometry":{"type":"LineString","coordinates":[[11.03056,45.86673],[11.03077,45.86725],[11.03106,45.86839]]},"properties":{}},{"type":"Feature","geometry":{"type":"LineString","coordinates":[[11.02043,45.86755],[11.02068,45.86799],[11.02071,45.86818],[11.02067,45.86824]]},"properties":{}},{"type":"Feature","geometry":{"type":"LineString","coordinates":[[11.0207,45.86805],[11.02088,45.86802]]},"properties":{}},{"type":"Feature","geometry":{"type":"LineString","coordinates":[[11.02067,45.86824],[11.02066,45.86827]]},"properties":{}},{"type":"Feature","geometry":{"type":"LineString","coordinates":[[11.0129,45.86819],[11.01293,45.86831],[11.01285,45.86839],[11.01267,45.8684],[11.01254,45.86831],[11.01255,45.86823],[11.01263,45.86815],[11.01277,45.86813],[11.0129,45.86819]]},"properties":{}},{"type":"Feature","geometry":{"type":"LineString","coordinates":[[11.02066,45.86827],[11.02062,45.86836]]},"properties":{}},{"type":"Feature","geometry":{"type":"LineString","coordinates":[[11.02364,45.86844],[11.02364,45.86832]]},"properties":{}},{"type":"Feature","geometry":{"type":"LineString","coordinates":[[11.03104,45.86913],[11.03108,45.86871],[11.03106,45.86839]]},"properties":{}},{"type":"Feature","geometry":{"type":"LineString","coordinates":[[11.03103,45.86925],[11.03104,45.86913]]},"properties":{}},{"type":"Feature","geometry":{"type":"LineString","coordinates":[[11.02062,45.86836],[11.02077,45.86847],[11.02085,45.8686],[11.02076,45.8701]]},"properties":{}},{"type":"Feature","geometry":{"type":"LineString","coordinates":[[11.031,45.86987],[11.03103,45.86925]]},"properties":{}},{"type":"Feature","geometry":{"type":"LineString","coordinates":[[11.031,45.86997],[11.031,45.86987]]},"properties":{}},{"type":"Feature","geometry":{"type":"LineString","coordinates":[[11.02311,45.87219],[11.0231,45.87195],[11.02327,45.87193],[11.02336,45.86857],[11.02353,45.86857],[11.02353,45.8685],[11.02364,45.86844]]},"properties":{}},{"type":"Feature","geometry":{"type":"LineString","coordinates":[[11.031,45.86997],[11.03102,45.87081]]},"properties":{}},{"type":"Feature","geometry":{"type":"LineString","coordinates":[[11.03103,45.87099],[11.03102,45.87081]]},"properties":{}},{"type":"Feature","geometry":{"type":"LineString","coordinates":[[11.01909,45.87163],[11.01958,45.87191],[11.01972,45.8719],[11.01991,45.87201],[11.02021,45.87213],[11.02029,45.87212],[11.02045,45.87192],[11.02065,45.87192],[11.02076,45.8701]]},"properties":{}},{"type":"Feature","geometry":{"type":"LineString","coordinates":[[11.03103,45.87099],[11.03108,45.87149]]},"properties":{}},{"type":"Feature","geometry":{"type":"LineString","coordinates":[[11.03108,45.87149],[11.03124,45.87147]]},"properties":{}},{"type":"Feature","geometry":{"type":"LineString","coordinates":[[11.02074,45.87192],[11.02079,45.87175]]},"properties":{}},{"type":"Feature","geometry":{"type":"LineString","coordinates":[[11.02079,45.87175],[11.0208,45.87209],[11.02089,45.87223]]},"properties":{}},{"type":"Feature","geometry":{"type":"LineString","coordinates":[[11.02058,45.8722],[11.02069,45.87214],[11.02074,45.87192]]},"properties":{}},{"type":"Feature","geometry":{"type":"LineString","coordinates":[[11.01963,45.87201],[11.02022,45.87221],[11.02049,45.87224]]},"properties":{}},{"type":"Feature","geometry":{"type":"LineString","coordinates":[[11.02014,45.8721],[11.02003,45.87224]]},"properties":{}},{"type":"Feature","geometry":{"type":"LineString","coordinates":[[11.02038,45.87241],[11.02022,45.87227],[11.01963,45.87201]]},"properties":{}},{"type":"Feature","geometry":{"type":"LineString","coordinates":[[11.03173,45.87329],[11.03145,45.87274],[11.03124,45.87147]]},"properties":{}},{"type":"Feature","geometry":{"type":"LineString","coordinates":[[11.01976,45.87286],[11.02029,45.8725],[11.02027,45.87236],[11.02003,45.87224]]},"properties":{}},{"type":"Feature","geometry":{"type":"LineString","coordinates":[[11.0291,45.87268],[11.02885,45.8727],[11.02878,45.87267]]},"properties":{}},{"type":"Feature","geometry":{"type":"LineString","coordinates":[[11.02878,45.87267],[11.02871,45.87271]]},"properties":{}},{"type":"Feature","geometry":{"type":"LineString","coordinates":[[11.0237,45.87271],[11.02325,45.87271]]},"properties":{}},{"type":"Feature","geometry":{"type":"LineString","coordinates":[[11.02398,45.87272],[11.0237,45.87271]]},"properties":{}},{"type":"Feature","geometry":{"type":"LineString","coordinates":[[11.02449,45.87272],[11.02398,45.87272]]},"properties":{}},{"type":"Feature","geometry":{"type":"LineString","coordinates":[[11.02465,45.87272],[11.02449,45.87272]]},"properties":{}},{"type":"Feature","geometry":{"type":"LineString","coordinates":[[11.03135,45.87266],[11.03138,45.8728]]},"properties":{}},{"type":"Feature","geometry":{"type":"LineString","coordinates":[[11.0255,45.87274],[11.02465,45.87272]]},"properties":{}},{"type":"Feature","geometry":{"type":"LineString","coordinates":[[11.02591,45.87274],[11.0255,45.87274]]},"properties":{}},{"type":"Feature","geometry":{"type":"LineString","coordinates":[[11.02871,45.87271],[11.02871,45.87276],[11.02864,45.87279],[11.02591,45.87274]]},"properties":{}},{"type":"Feature","geometry":{"type":"LineString","coordinates":[[11.03051,45.87282],[11.02927,45.8728],[11.0291,45.87268]]},"properties":{}},{"type":"Feature","geometry":{"type":"LineString","coordinates":[[11.03144,45.87321],[11.03118,45.87301]]},"properties":{}},{"type":"Feature","geometry":{"type":"LineString","coordinates":[[11.03173,45.87329],[11.03156,45.87333]]},"properties":{}},{"type":"Feature","geometry":{"type":"LineString","coordinates":[[11.03149,45.8735],[11.03144,45.87321]]},"properties":{}},{"type":"Feature","geometry":{"type":"LineString","coordinates":[[11.03093,45.87295],[11.03124,45.87311],[11.03135,45.87324],[11.0314,45.87339],[11.03151,45.87408]]},"properties":{}},{"type":"Feature","geometry":{"type":"LineString","coordinates":[[11.03151,45.8736],[11.03149,45.8735]]},"properties":{}},{"type":"Feature","geometry":{"type":"LineString","coordinates":[[11.03154,45.8738],[11.03151,45.8736]]},"properties":{}},{"type":"Feature","geometry":{"type":"LineString","coordinates":[[11.02215,45.88077],[11.02137,45.88053],[11.0211,45.88041],[11.02007,45.87987],[11.01985,45.87964],[11.01814,45.8775],[11.0179,45.87714],[11.01787,45.87696],[11.01768,45.87672],[11.01608,45.87473],[11.01589,45.87465],[11.01576,45.87452],[11.01504,45.87344],[11.01411,45.87212],[11.01358,45.8713],[11.01331,45.87097],[11.01261,45.86972],[11.01234,45.86934],[11.01183,45.86876],[11.01106,45.86812],[11.01017,45.86757],[11.00951,45.86726],[11.00883,45.86701],[11.00819,45.86682]]},"properties":{}},{"type":"Feature","geometry":{"type":"LineString","coordinates":[[11.02971,45.87373],[11.02992,45.87405],[11.03007,45.87421]]},"properties":{}},{"type":"Feature","geometry":{"type":"LineString","coordinates":[[11.01798,45.87383],[11.01602,45.8747]]},"properties":{}},{"type":"Feature","geometry":{"type":"LineString","coordinates":[[11.03007,45.87421],[11.03025,45.87443]]},"properties":{}},{"type":"Feature","geometry":{"type":"LineString","coordinates":[[11.03196,45.87591],[11.03162,45.87389],[11.03156,45.87351],[11.03156,45.87333]]},"properties":{}},{"type":"Feature","geometry":{"type":"LineString","coordinates":[[11.03025,45.87443],[11.03078,45.87488]]},"properties":{}},{"type":"Feature","geometry":{"type":"LineString","coordinates":[[11.03078,45.87488],[11.0309,45.87499]]},"properties":{}},{"type":"Feature","geometry":{"type":"LineString","coordinates":[[11.0309,45.87499],[11.03117,45.87522]]},"properties":{}},{"type":"Feature","geometry":{"type":"LineString","coordinates":[[11.03199,45.87652],[11.03154,45.8738]]},"properties":{}},{"type":"Feature","geometry":{"type":"LineString","coordinates":[[11.03117,45.87522],[11.03127,45.8753]]},"properties":{}},{"type":"Feature","geometry":{"type":"LineString","coordinates":[[11.0292,45.87563],[11.02914,45.8754],[11.02896,45.87522],[11.02898,45.87517]]},"properties":{}},{"type":"Feature","geometry":{"type":"LineString","coordinates":[[11.03127,45.8753],[11.03146,45.87549],[11.03167,45.87585]]},"properties":{}},{"type":"Feature","geometry":{"type":"LineString","coordinates":[[11.02543,45.87686],[11.02568,45.87655],[11.02571,45.87642],[11.02564,45.87627],[11.02507,45.87592],[11.02364,45.87491],[11.02316,45.87454]]},"properties":{}},{"type":"Feature","geometry":{"type":"LineString","coordinates":[[11.01951,45.8732],[11.02019,45.87379],[11.02048,45.87419],[11.02058,45.87439],[11.02117,45.8761],[11.02123,45.87643],[11.02122,45.87661],[11.02116,45.87685],[11.0209,45.87735],[11.02093,45.87756],[11.02102,45.87768],[11.02133,45.87785],[11.02317,45.87871]]},"properties":{}},{"type":"Feature","geometry":{"type":"LineString","coordinates":[[11.03202,45.87671],[11.03199,45.87652]]},"properties":{}},{"type":"Feature","geometry":{"type":"LineString","coordinates":[[11.03202,45.87671],[11.03218,45.87694]]},"properties":{}},{"type":"Feature","geometry":{"type":"LineString","coordinates":[[11.03199,45.87699],[11.03202,45.87671]]},"properties":{}},{"type":"Feature","geometry":{"type":"LineString","coordinates":[[11.03226,45.87709],[11.03218,45.87714],[11.03208,45.87714],[11.032,45.8771],[11.03198,45.87701],[11.03206,45.87695],[11.03218,45.87694],[11.03227,45.87701],[11.03226,45.87709]]},"properties":{}},{"type":"Feature","geometry":{"type":"LineString","coordinates":[[11.03228,45.87703],[11.03244,45.87723]]},"properties":{}},{"type":"Feature","geometry":{"type":"LineString","coordinates":[[11.03244,45.87723],[11.03218,45.87714]]},"properties":{}},{"type":"Feature","geometry":{"type":"LineString","coordinates":[[11.03198,45.87734],[11.032,45.8771]]},"properties":{}},{"type":"Feature","geometry":{"type":"LineString","coordinates":[[11.03213,45.87715],[11.03198,45.87734]]},"properties":{}},{"type":"Feature","geometry":{"type":"LineString","coordinates":[[11.02927,45.87865],[11.0295,45.87804],[11.02959,45.87792],[11.02974,45.87784]]},"properties":{}},{"type":"Feature","geometry":{"type":"LineString","coordinates":[[11.02921,45.87879],[11.02927,45.87865]]},"properties":{}},{"type":"Feature","geometry":{"type":"LineString","coordinates":[[11.0292,45.87883],[11.02921,45.87879]]},"properties":{}},{"type":"Feature","geometry":{"type":"LineString","coordinates":[[11.02908,45.87912],[11.0292,45.87883]]},"properties":{}},{"type":"Feature","geometry":{"type":"LineString","coordinates":[[11.02847,45.88003],[11.0286,45.87992],[11.02882,45.87941],[11.02908,45.87912]]},"properties":{}},{"type":"Feature","geometry":{"type":"LineString","coordinates":[[11.02585,45.87973],[11.02588,45.87978],[11.02619,45.87994],[11.027,45.88018],[11.02725,45.88023],[11.02825,45.88036],[11.02857,45.88056]]},"properties":{}},{"type":"Feature","geometry":{"type":"LineString","coordinates":[[11.03152,45.88032],[11.03168,45.88025],[11.03179,45.88009]]},"properties":{}},{"type":"Feature","geometry":{"type":"LineString","coordinates":[[11.03179,45.88009],[11.03178,45.88024],[11.03181,45.88037]]},"properties":{}},{"type":"Feature","geometry":{"type":"LineString","coordinates":[[11.03119,45.8803],[11.03141,45.88036]]},"properties":{}},{"type":"Feature","geometry":{"type":"LineString","coordinates":[[11.03132,45.88045],[11.03119,45.8803]]},"properties":{}},{"type":"Feature","geometry":{"type":"LineString","coordinates":[[11.03162,45.88074],[11.03144,45.88071],[11.03131,45.88059],[11.03132,45.88045],[11.03141,45.88036],[11.03152,45.88032],[11.03169,45.88032],[11.03181,45.88037],[11.03188,45.88043],[11.03191,45.88055],[11.03188,45.88061],[11.03178,45.8807],[11.03162,45.88074]]},"properties":{}},{"type":"Feature","geometry":{"type":"LineString","coordinates":[[11.00854,45.88036],[11.00862,45.88055],[11.00873,45.88073]]},"properties":{}},{"type":"Feature","geometry":{"type":"LineString","coordinates":[[11.00854,45.88081],[11.00854,45.88036]]},"properties":{}},{"type":"Feature","geometry":{"type":"LineString","coordinates":[[11.02222,45.88076],[11.02215,45.88077]]},"properties":{}},{"type":"Feature","geometry":{"type":"LineString","coordinates":[[11.02232,45.8808],[11.02222,45.88076]]},"properties":{}},{"type":"Feature","geometry":{"type":"LineString","coordinates":[[11.02857,45.88056],[11.02881,45.88065],[11.03024,45.88101]]},"properties":{}},{"type":"Feature","geometry":{"type":"LineString","coordinates":[[11.0318,45.88068],[11.03176,45.88077],[11.03176,45.88093]]},"properties":{}},{"type":"Feature","geometry":{"type":"LineString","coordinates":[[11.02232,45.8808],[11.0223,45.88084]]},"properties":{}},{"type":"Feature","geometry":{"type":"LineString","coordinates":[[11.03176,45.88093],[11.03166,45.88081],[11.03154,45.88073]]},"properties":{}},{"type":"Feature","geometry":{"type":"LineString","coordinates":[[11.00887,45.8809],[11.00881,45.88095],[11.00866,45.88097],[11.00858,45.88094],[11.00853,45.88084],[11.00858,45.88077],[11.00873,45.88073],[11.00886,45.88079],[11.00887,45.8809]]},"properties":{}},{"type":"Feature","geometry":{"type":"LineString","coordinates":[[11.0223,45.88084],[11.02214,45.88108]]},"properties":{}},{"type":"Feature","geometry":{"type":"LineString","coordinates":[[11.02572,45.88187],[11.02577,45.88176],[11.0258,45.88154],[11.02654,45.88121],[11.02743,45.88021]]},"properties":{}},{"type":"Feature","geometry":{"type":"LineString","coordinates":[[11.00981,45.88064],[11.01019,45.88061],[11.01044,45.88068],[11.01061,45.8808],[11.01074,45.88107],[11.01075,45.88153]]},"properties":{}},{"type":"Feature","geometry":{"type":"LineString","coordinates":[[11.01944,45.88191],[11.01975,45.88158],[11.01994,45.88122],[11.02,45.88094],[11.01999,45.8807],[11.01988,45.88034],[11.01995,45.88027],[11.02009,45.88027],[11.02122,45.8808],[11.02181,45.881],[11.02196,45.88113]]},"properties":{}},{"type":"Feature","geometry":{"type":"LineString","coordinates":[[11.01075,45.88153],[11.01062,45.88099],[11.0105,45.88082],[11.01033,45.88072],[11.01018,45.88068],[11.00982,45.88069]]},"properties":{}},{"type":"Feature","geometry":{"type":"LineString","coordinates":[[11.02214,45.88108],[11.0221,45.88115]]},"properties":{}},{"type":"Feature","geometry":{"type":"LineString","coordinates":[[11.02196,45.88113],[11.0221,45.88115]]},"properties":{}},{"type":"Feature","geometry":{"type":"LineString","coordinates":[[11.00884,45.88138],[11.00855,45.88091]]},"properties":{}},{"type":"Feature","geometry":{"type":"LineString","coordinates":[[11.00884,45.88093],[11.00879,45.88114],[11.00884,45.88138]]},"properties":{}},{"type":"Feature","geometry":{"type":"LineString","coordinates":[[11.02572,45.88187],[11.02571,45.88189]]},"properties":{}},{"type":"Feature","geometry":{"type":"LineString","coordinates":[[11.02571,45.88189],[11.02557,45.88213]]},"properties":{}},{"type":"Feature","geometry":{"type":"LineString","coordinates":[[11.0093,45.88233],[11.00935,45.88225],[11.00921,45.88202],[11.0092,45.88191]]},"properties":{}},{"type":"Feature","geometry":{"type":"LineString","coordinates":[[11.02557,45.88213],[11.02556,45.88215]]},"properties":{}},{"type":"Feature","geometry":{"type":"LineString","coordinates":[[11.0221,45.88115],[11.02227,45.88115],[11.02279,45.8813],[11.02292,45.88136],[11.02306,45.88147],[11.02332,45.88155],[11.02374,45.88159],[11.02403,45.88168],[11.0244,45.88188],[11.0252,45.88211],[11.02556,45.88215],[11.02741,45.8827],[11.0279,45.88282],[11.02836,45.88292],[11.03206,45.8835]]},"properties":{}},{"type":"Feature","geometry":{"type":"LineString","coordinates":[[11.00908,45.88235],[11.0093,45.88233]]},"properties":{}},{"type":"Feature","geometry":{"type":"LineString","coordinates":[[11.00956,45.88229],[11.00948,45.88238],[11.00933,45.88241]]},"properties":{}},{"type":"Feature","geometry":{"type":"LineString","coordinates":[[11.00933,45.88241],[11.00908,45.88235]]},"properties":{}},{"type":"Feature","geometry":{"type":"LineString","coordinates":[[11.00979,45.88258],[11.0096,45.88247],[11.00933,45.88241]]},"properties":{}},{"type":"Feature","geometry":{"type":"LineString","coordinates":[[11.0241,45.88439],[11.02421,45.8843],[11.02556,45.88215]]},"properties":{}},{"type":"Feature","geometry":{"type":"LineString","coordinates":[[11.0184,45.88357],[11.01846,45.88332]]},"properties":{}},{"type":"Feature","geometry":{"type":"LineString","coordinates":[[11.03399,45.88346],[11.034,45.88345]]},"properties":{}},{"type":"Feature","geometry":{"type":"LineString","coordinates":[[11.02074,45.88318],[11.02103,45.8835],[11.02102,45.88357],[11.02083,45.88378]]},"properties":{}},{"type":"Feature","geometry":{"type":"LineString","coordinates":[[11.03206,45.8835],[11.03241,45.88352]]},"properties":{}},{"type":"Feature","geometry":{"type":"LineString","coordinates":[[11.03241,45.88352],[11.03247,45.88354],[11.03249,45.88364]]},"properties":{}},{"type":"Feature","geometry":{"type":"LineString","coordinates":[[11.03392,45.88371],[11.03399,45.88346]]},"properties":{}},{"type":"Feature","geometry":{"type":"LineString","coordinates":[[11.03249,45.88364],[11.0327,45.88363]]},"properties":{}},{"type":"Feature","geometry":{"type":"LineString","coordinates":[[11.0327,45.88363],[11.03309,45.88362],[11.03391,45.88373]]},"properties":{}},{"type":"Feature","geometry":{"type":"LineString","coordinates":[[11.03391,45.88373],[11.03392,45.88371]]},"properties":{}},{"type":"Feature","geometry":{"type":"LineString","coordinates":[[11.0308,45.8833],[11.03042,45.88435],[11.03009,45.88445]]},"properties":{}},{"type":"Feature","geometry":{"type":"LineString","coordinates":[[11.02505,45.88417],[11.02442,45.88397]]},"properties":{}},{"type":"Feature","geometry":{"type":"LineString","coordinates":[[11.02141,45.88413],[11.02147,45.88407]]},"properties":{}},{"type":"Feature","geometry":{"type":"LineString","coordinates":[[11.03241,45.88352],[11.03265,45.88479],[11.0327,45.88485]]},"properties":{}},{"type":"Feature","geometry":{"type":"LineString","coordinates":[[11.02147,45.88407],[11.02231,45.88445],[11.02273,45.88457],[11.02327,45.88465],[11.0239,45.88482]]},"properties":{}},{"type":"Feature","geometry":{"type":"LineString","coordinates":[[11.01745,45.88501],[11.01778,45.88465],[11.01783,45.88463]]},"properties":{}},{"type":"Feature","geometry":{"type":"LineString","coordinates":[[11.0239,45.88482],[11.02617,45.88545]]},"properties":{}},{"type":"Feature","geometry":{"type":"LineString","coordinates":[[11.0329,45.88559],[11.03304,45.88603]]},"properties":{}},{"type":"Feature","geometry":{"type":"LineString","coordinates":[[11.02636,45.88548],[11.02781,45.88587],[11.0293,45.88636]]},"properties":{}},{"type":"Feature","geometry":{"type":"LineString","coordinates":[[11.04032,45.8866],[11.04032,45.88601]]},"properties":{}},{"type":"Feature","geometry":{"type":"LineString","coordinates":[[11.04386,45.88633],[11.04397,45.8866]]},"properties":{}},{"type":"Feature","geometry":{"type":"LineString","coordinates":[[11.04055,45.88572],[11.0404,45.88591],[11.04037,45.88602],[11.04042,45.88728]]},"properties":{}},{"type":"Feature","geometry":{"type":"LineString","coordinates":[[11.04397,45.8866],[11.04401,45.88666]]},"properties":{}},{"type":"Feature","geometry":{"type":"LineString","coordinates":[[11.03498,45.88678],[11.03512,45.8868],[11.03524,45.88688]]},"properties":{}},{"type":"Feature","geometry":{"type":"LineString","coordinates":[[11.0351,45.88695],[11.03498,45.88678]]},"properties":{}},{"type":"Feature","geometry":{"type":"LineString","coordinates":[[11.04032,45.88727],[11.04027,45.88659]]},"properties":{}},{"type":"Feature","geometry":{"type":"LineString","coordinates":[[11.03541,45.88693],[11.0359,45.88705]]},"properties":{}},{"type":"Feature","geometry":{"type":"LineString","coordinates":[[11.03544,45.88707],[11.03533,45.88714],[11.03519,45.88714],[11.03511,45.88709],[11.03508,45.88698],[11.03518,45.8869],[11.03533,45.88689],[11.03544,45.88696],[11.03544,45.88707]]},"properties":{}},{"type":"Feature","geometry":{"type":"LineString","coordinates":[[11.0359,45.88705],[11.03544,45.88707]]},"properties":{}},{"type":"Feature","geometry":{"type":"LineString","coordinates":[[11.03304,45.88603],[11.03308,45.88631],[11.03316,45.88647]]},"properties":{}},{"type":"Feature","geometry":{"type":"LineString","coordinates":[[11.0293,45.88636],[11.0301,45.88653],[11.03025,45.88655],[11.03034,45.88652]]},"properties":{}},{"type":"Feature","geometry":{"type":"LineString","coordinates":[[11.03316,45.88647],[11.03326,45.88655]]},"properties":{}},{"type":"Feature","geometry":{"type":"LineString","coordinates":[[11.03034,45.88652],[11.03056,45.88656]]},"properties":{}},{"type":"Feature","geometry":{"type":"LineString","coordinates":[[11.0331,45.88657],[11.03326,45.88655],[11.03333,45.88659],[11.03334,45.88665],[11.03328,45.88672],[11.03317,45.88673],[11.03308,45.88667],[11.0331,45.88657]]},"properties":{}},{"type":"Feature","geometry":{"type":"LineString","coordinates":[[11.03362,45.88667],[11.0333,45.88671]]},"properties":{}},{"type":"Feature","geometry":{"type":"LineString","coordinates":[[11.0331,45.88676],[11.03308,45.88667]]},"properties":{}},{"type":"Feature","geometry":{"type":"LineString","coordinates":[[11.0331,45.88687],[11.0331,45.88676]]},"properties":{}},{"type":"Feature","geometry":{"type":"LineString","coordinates":[[11.03313,45.88689],[11.0331,45.88687]]},"properties":{}},{"type":"Feature","geometry":{"type":"LineString","coordinates":[[11.01617,45.8885],[11.01617,45.88831],[11.01607,45.88797],[11.01591,45.88763],[11.01592,45.8874],[11.01601,45.88697],[11.01629,45.88634],[11.01703,45.88547]]},"properties":{}},{"type":"Feature","geometry":{"type":"LineString","coordinates":[[11.03056,45.88656],[11.03059,45.88664],[11.03137,45.88715],[11.03212,45.88748],[11.03253,45.88748],[11.03254,45.88758]]},"properties":{}},{"type":"Feature","geometry":{"type":"LineString","coordinates":[[11.0336,45.88754],[11.03373,45.88745],[11.03494,45.88722]]},"properties":{}},{"type":"Feature","geometry":{"type":"LineString","coordinates":[[11.0326,45.88757],[11.03335,45.88751]]},"properties":{}},{"type":"Feature","geometry":{"type":"LineString","coordinates":[[11.0321,45.88781],[11.03205,45.88771],[11.03228,45.88769],[11.03243,45.8876],[11.0326,45.88757]]},"properties":{}},{"type":"Feature","geometry":{"type":"LineString","coordinates":[[11.03335,45.88751],[11.0336,45.88754],[11.03361,45.88761],[11.03372,45.88777],[11.03377,45.88791],[11.0339,45.88807]]},"properties":{}},{"type":"Feature","geometry":{"type":"LineString","coordinates":[[11.01594,45.8882],[11.01591,45.88763]]},"properties":{}},{"type":"Feature","geometry":{"type":"LineString","coordinates":[[11.03376,45.88796],[11.03385,45.88809],[11.03397,45.8882]]},"properties":{}},{"type":"Feature","geometry":{"type":"LineString","coordinates":[[11.0339,45.88807],[11.03402,45.88816],[11.03395,45.88821],[11.03386,45.88819],[11.0338,45.88825]]},"properties":{}},{"type":"Feature","geometry":{"type":"LineString","coordinates":[[11.03397,45.8882],[11.03558,45.88876]]},"properties":{}},{"type":"Feature","geometry":{"type":"LineString","coordinates":[[11.03236,45.88928],[11.0321,45.88781]]},"properties":{}},{"type":"Feature","geometry":{"type":"LineString","coordinates":[[11.03525,45.88715],[11.03479,45.88721]]},"properties":{}},{"type":"Feature","geometry":{"type":"LineString","coordinates":[[11.03579,45.89014],[11.0356,45.88924]]},"properties":{}},{"type":"Feature","geometry":{"type":"LineString","coordinates":[[11.0356,45.88924],[11.03568,45.8893],[11.03586,45.89013],[11.03555,45.89061],[11.03553,45.89095]]},"properties":{}},{"type":"Feature","geometry":{"type":"LineString","coordinates":[[11.03521,45.89087],[11.03539,45.89089]]},"properties":{}},{"type":"Feature","geometry":{"type":"LineString","coordinates":[[11.04317,45.89091],[11.04335,45.89086]]},"properties":{}},{"type":"Feature","geometry":{"type":"LineString","coordinates":[[11.03539,45.89089],[11.03553,45.89089]]},"properties":{}},{"type":"Feature","geometry":{"type":"LineString","coordinates":[[11.03496,45.89086],[11.03533,45.89095]]},"properties":{}},{"type":"Feature","geometry":{"type":"LineString","coordinates":[[11.04335,45.89086],[11.04343,45.8908],[11.04354,45.89079],[11.04364,45.89082],[11.0437,45.89093],[11.04363,45.89102],[11.04347,45.89105],[11.04334,45.89097],[11.04335,45.89086]]},"properties":{}},{"type":"Feature","geometry":{"type":"LineString","coordinates":[[11.04334,45.89097],[11.0433,45.89093],[11.04317,45.89091]]},"properties":{}},{"type":"Feature","geometry":{"type":"LineString","coordinates":[[11.03496,45.89086],[11.035,45.89096],[11.03495,45.89106]]},"properties":{}},{"type":"Feature","geometry":{"type":"LineString","coordinates":[[11.01617,45.88866],[11.01617,45.8885]]},"properties":{}},{"type":"Feature","geometry":{"type":"LineString","coordinates":[[11.01615,45.88898],[11.01603,45.88896],[11.01601,45.88889],[11.01605,45.88867],[11.01612,45.88861],[11.01683,45.8886],[11.02036,45.88819]]},"properties":{}},{"type":"Feature","geometry":{"type":"LineString","coordinates":[[11.01605,45.88867],[11.01606,45.88857]]},"properties":{}},{"type":"Feature","geometry":{"type":"LineString","coordinates":[[11.02044,45.88813],[11.02144,45.88981],[11.02167,45.89009]]},"properties":{}},{"type":"Feature","geometry":{"type":"LineString","coordinates":[[11.03268,45.89112],[11.03236,45.88928]]},"properties":{}},{"type":"Feature","geometry":{"type":"LineString","coordinates":[[11.03381,45.89032],[11.03426,45.89027]]},"properties":{}},{"type":"Feature","geometry":{"type":"LineString","coordinates":[[11.03426,45.89027],[11.03442,45.89059],[11.0345,45.89066],[11.0347,45.89067]]},"properties":{}},{"type":"Feature","geometry":{"type":"LineString","coordinates":[[11.0347,45.89067],[11.03483,45.89068],[11.03521,45.89087]]},"properties":{}},{"type":"Feature","geometry":{"type":"LineString","coordinates":[[11.03471,45.89077],[11.03486,45.89079],[11.03496,45.89086]]},"properties":{}},{"type":"Feature","geometry":{"type":"LineString","coordinates":[[11.03448,45.89087],[11.03457,45.8908],[11.03471,45.89077]]},"properties":{}},{"type":"Feature","geometry":{"type":"LineString","coordinates":[[11.03446,45.89094],[11.03448,45.89087]]},"properties":{}},{"type":"Feature","geometry":{"type":"LineString","coordinates":[[11.03446,45.89098],[11.03446,45.89094]]},"properties":{}},{"type":"Feature","geometry":{"type":"LineString","coordinates":[[11.0345,45.89106],[11.03446,45.89098]]},"properties":{}},{"type":"Feature","geometry":{"type":"LineString","coordinates":[[11.03473,45.89114],[11.03464,45.89113],[11.0345,45.89106]]},"properties":{}},{"type":"Feature","geometry":{"type":"LineString","coordinates":[[11.03495,45.89106],[11.03486,45.89112],[11.03473,45.89114]]},"properties":{}},{"type":"Feature","geometry":{"type":"LineString","coordinates":[[11.03431,45.89185],[11.03427,45.89152],[11.03429,45.8914],[11.0345,45.89106]]},"properties":{}},{"type":"Feature","geometry":{"type":"LineString","coordinates":[[11.03473,45.89114],[11.03445,45.89142],[11.03431,45.89185]]},"properties":{}},{"type":"Feature","geometry":{"type":"LineString","coordinates":[[11.02692,45.89208],[11.02802,45.89175]]},"properties":{}},{"type":"Feature","geometry":{"type":"LineString","coordinates":[[11.02167,45.89009],[11.02232,45.89112],[11.02304,45.89251],[11.02335,45.89333],[11.02376,45.89415],[11.02404,45.8945],[11.02461,45.89496],[11.02474,45.8951],[11.02526,45.89594]]},"properties":{}},{"type":"Feature","geometry":{"type":"LineString","coordinates":[[11.02958,45.8958],[11.02945,45.89584],[11.02905,45.89582],[11.02895,45.89575],[11.0288,45.89548],[11.02933,45.8953],[11.02949,45.89532],[11.02961,45.89575],[11.02958,45.8958]]},"properties":{}},{"type":"Feature","geometry":{"type":"LineString","coordinates":[[11.03533,45.89095],[11.03495,45.89106]]},"properties":{}},{"type":"Feature","geometry":{"type":"LineString","coordinates":[[11.04379,45.89103],[11.04379,45.89109]]},"properties":{}},{"type":"Feature","geometry":{"type":"LineString","coordinates":[[11.04352,45.89394],[11.04366,45.8932],[11.04382,45.89168],[11.04387,45.89164]]},"properties":{}},{"type":"Feature","geometry":{"type":"LineString","coordinates":[[11.04379,45.89141],[11.04398,45.89142],[11.04333,45.89602]]},"properties":{}},{"type":"Feature","geometry":{"type":"LineString","coordinates":[[11.04329,45.89557],[11.0433,45.89549]]},"properties":{}},{"type":"Feature","geometry":{"type":"LineString","coordinates":[[11.04324,45.89601],[11.04329,45.89573],[11.04328,45.89568]]},"properties":{}},{"type":"Feature","geometry":{"type":"LineString","coordinates":[[11.04337,45.89602],[11.04321,45.89601]]},"properties":{}},{"type":"Feature","geometry":{"type":"LineString","coordinates":[[11.04333,45.89602],[11.04331,45.89615]]},"properties":{}},{"type":"Feature","geometry":{"type":"LineString","coordinates":[[11.04331,45.89615],[11.04334,45.89622]]},"properties":{}},{"type":"Feature","geometry":{"type":"LineString","coordinates":[[11.0428,45.89782],[11.04291,45.89727],[11.04304,45.89702],[11.04309,45.89702],[11.04334,45.89631],[11.04334,45.89622]]},"properties":{}},{"type":"Feature","geometry":{"type":"LineString","coordinates":[[11.0428,45.89782],[11.04278,45.89789]]},"properties":{}},{"type":"Feature","geometry":{"type":"LineString","coordinates":[[11.03499,45.89757],[11.03546,45.89971]]},"properties":{}},{"type":"Feature","geometry":{"type":"LineString","coordinates":[[11.04278,45.89789],[11.04271,45.89792],[11.04215,45.89985],[11.04221,45.89991]]},"properties":{}},{"type":"Feature","geometry":{"type":"LineString","coordinates":[[11.03539,45.90019],[11.03534,45.89978],[11.03493,45.89774]]},"properties":{}},{"type":"Feature","geometry":{"type":"LineString","coordinates":[[11.03546,45.89971],[11.03551,45.89997]]},"properties":{}},{"type":"Feature","geometry":{"type":"LineString","coordinates":[[11.0375,45.89981],[11.03763,45.89986],[11.03763,45.8999],[11.03759,45.89996],[11.0375,45.89997],[11.0374,45.89992],[11.03742,45.89985],[11.0375,45.89981]]},"properties":{}},{"type":"Feature","geometry":{"type":"LineString","coordinates":[[11.04218,45.90001],[11.04221,45.89991]]},"properties":{}},{"type":"Feature","geometry":{"type":"LineString","coordinates":[[11.0421,45.90021],[11.04206,45.90018],[11.04211,45.90002],[11.04218,45.90001]]},"properties":{}},{"type":"Feature","geometry":{"type":"LineString","coordinates":[[11.0421,45.90021],[11.04205,45.90039]]},"properties":{}},{"type":"Feature","geometry":{"type":"LineString","coordinates":[[11.03551,45.89997],[11.03585,45.90063],[11.0359,45.90084],[11.03594,45.90128],[11.03603,45.9014]]},"properties":{}},{"type":"Feature","geometry":{"type":"LineString","coordinates":[[11.04182,45.90118],[11.04179,45.90114],[11.04195,45.90057],[11.042,45.9004],[11.04205,45.90039]]},"properties":{}},{"type":"Feature","geometry":{"type":"LineString","coordinates":[[11.04178,45.90132],[11.04182,45.90118]]},"properties":{}},{"type":"Feature","geometry":{"type":"LineString","coordinates":[[11.03612,45.90142],[11.0363,45.90133],[11.03631,45.90114]]},"properties":{}},{"type":"Feature","geometry":{"type":"LineString","coordinates":[[11.04174,45.90133],[11.04178,45.90132]]},"properties":{}},{"type":"Feature","geometry":{"type":"LineString","coordinates":[[11.03631,45.90114],[11.03639,45.90136],[11.03635,45.90154]]},"properties":{}},{"type":"Feature","geometry":{"type":"LineString","coordinates":[[11.04168,45.90154],[11.04174,45.90133]]},"properties":{}},{"type":"Feature","geometry":{"type":"LineString","coordinates":[[11.04168,45.90154],[11.04171,45.90156]]},"properties":{}},{"type":"Feature","geometry":{"type":"LineString","coordinates":[[11.04171,45.90156],[11.04169,45.90166]]},"properties":{}},{"type":"Feature","geometry":{"type":"LineString","coordinates":[[11.04162,45.90193],[11.04159,45.90188],[11.04164,45.90169],[11.04169,45.90166]]},"properties":{}},{"type":"Feature","geometry":{"type":"LineString","coordinates":[[11.04162,45.90193],[11.04171,45.90211]]},"properties":{}},{"type":"Feature","geometry":{"type":"LineString","coordinates":[[11.04171,45.90211],[11.04185,45.90244],[11.04195,45.90259]]},"properties":{}},{"type":"Feature","geometry":{"type":"LineString","coordinates":[[11.04195,45.90259],[11.04206,45.90265]]},"properties":{}},{"type":"Feature","geometry":{"type":"LineString","coordinates":[[11.03615,45.90201],[11.03613,45.90217],[11.03626,45.90246],[11.03634,45.90277],[11.03632,45.9037]]},"properties":{}},{"type":"Feature","geometry":{"type":"LineString","coordinates":[[11.0356,45.90373],[11.03519,45.90316],[11.03502,45.90285],[11.0349,45.90252],[11.03487,45.90219],[11.03476,45.90202]]},"properties":{}},{"type":"Feature","geometry":{"type":"LineString","coordinates":[[11.03632,45.9037],[11.03602,45.90314],[11.03592,45.90284],[11.03584,45.90218],[11.03578,45.90211],[11.03566,45.90206]]},"properties":{}},{"type":"Feature","geometry":{"type":"LineString","coordinates":[[11.03538,45.90209],[11.03523,45.9022],[11.03519,45.90235],[11.03545,45.90295],[11.0356,45.90373]]},"properties":{}},{"type":"Feature","geometry":{"type":"LineString","coordinates":[[11.04206,45.90265],[11.04247,45.90298],[11.04253,45.90306],[11.04284,45.90336],[11.04287,45.90356],[11.04292,45.90362]]},"properties":{}},{"type":"Feature","geometry":{"type":"LineString","coordinates":[[11.04299,45.90374],[11.04292,45.90362]]},"properties":{}},{"type":"Feature","geometry":{"type":"LineString","coordinates":[[11.04299,45.90374],[11.04372,45.90381]]},"properties":{}},{"type":"Feature","geometry":{"type":"LineString","coordinates":[[11.04372,45.90381],[11.04386,45.90384],[11.04413,45.90404]]},"properties":{}},{"type":"Feature","geometry":{"type":"LineString","coordinates":[[11.04413,45.90412],[11.04471,45.90412]]},"properties":{}},{"type":"Feature","geometry":{"type":"LineString","coordinates":[[11.03732,45.90494],[11.03659,45.90427],[11.03639,45.904]]},"properties":{}},{"type":"Feature","geometry":{"type":"LineString","coordinates":[[11.03728,45.90503],[11.03737,45.90489]]},"properties":{}},{"type":"Feature","geometry":{"type":"LineString","coordinates":[[11.03744,45.90495],[11.03728,45.90503]]},"properties":{}},{"type":"Feature","geometry":{"type":"LineString","coordinates":[[11.03827,45.91171],[11.03812,45.91165],[11.03807,45.9116],[11.03796,45.91138],[11.03777,45.91062],[11.03695,45.90959],[11.03657,45.90886],[11.03613,45.90863],[11.03502,45.90794],[11.03486,45.9078],[11.03482,45.90771],[11.03497,45.90605],[11.03487,45.90541],[11.03469,45.9047],[11.03434,45.90357],[11.03389,45.90245],[11.03369,45.90213]]},"properties":{}},{"type":"Feature","geometry":{"type":"LineString","coordinates":[[11.03925,45.9117],[11.03931,45.91157]]},"properties":{}},{"type":"Feature","geometry":{"type":"LineString","coordinates":[[11.0391,45.91204],[11.03925,45.9117]]},"properties":{}},{"type":"Feature","geometry":{"type":"LineString","coordinates":[[11.03863,45.91233],[11.0383,45.91207],[11.03818,45.91186],[11.0382,45.91177],[11.03827,45.91171]]},"properties":{}},{"type":"Feature","geometry":{"type":"LineString","coordinates":[[11.03896,45.91219],[11.0391,45.91204]]},"properties":{}},{"type":"Feature","geometry":{"type":"LineString","coordinates":[[11.03872,45.91237],[11.03888,45.91225]]},"properties":{}},{"type":"Feature","geometry":{"type":"LineString","coordinates":[[11.03369,45.90213],[11.03201,45.90255],[11.03181,45.90255],[11.03082,45.90238],[11.03076,45.90233],[11.03019,45.90133],[11.03003,45.90113],[11.02969,45.9008],[11.0294,45.90035],[11.02783,45.89886],[11.02766,45.89876],[11.02646,45.89829],[11.02522,45.89767],[11.02471,45.89744],[11.02448,45.89737],[11.02429,45.89726],[11.02258,45.89582],[11.02223,45.89572],[11.02078,45.8946],[11.01988,45.89385],[11.01906,45.89336],[11.01876,45.89322],[11.01848,45.89303],[11.0182,45.89278],[11.01774,45.89228],[11.01736,45.89181],[11.01696,45.89126],[11.01642,45.89037],[11.0163,45.88985],[11.01627,45.88936],[11.01615,45.88898],[11.01617,45.88866]]},"properties":{}},{"type":"Feature","geometry":{"type":"LineString","coordinates":[[11.02645,45.89577],[11.02645,45.89574]]},"properties":{}},{"type":"Feature","geometry":{"type":"LineString","coordinates":[[11.02693,45.8958],[11.02693,45.89576]]},"properties":{}},{"type":"Feature","geometry":{"type":"LineString","coordinates":[[11.02591,45.89592],[11.02645,45.89574],[11.02673,45.89572],[11.0269,45.89575],[11.02768,45.89604]]},"properties":{}},{"type":"Feature","geometry":{"type":"LineString","coordinates":[[11.02538,45.89609],[11.02544,45.89604],[11.02612,45.89579]]},"properties":{}},{"type":"Feature","geometry":{"type":"LineString","coordinates":[[11.02741,45.89599],[11.02741,45.89594]]},"properties":{}},{"type":"Feature","geometry":{"type":"LineString","coordinates":[[11.02538,45.89609],[11.02532,45.89605],[11.02526,45.89594]]},"properties":{}},{"type":"Feature","geometry":{"type":"LineString","coordinates":[[11.03047,45.91025],[11.03102,45.91047]]},"properties":{}},{"type":"Feature","geometry":{"type":"LineString","coordinates":[[11.00677,45.93144],[11.00695,45.9315],[11.00716,45.93143]]},"properties":{}},{"type":"Feature","geometry":{"type":"LineString","coordinates":[[11.00693,45.93161],[11.00677,45.93144]]},"properties":{}},{"type":"Feature","geometry":{"type":"LineString","coordinates":[[11.03862,45.91242],[11.03872,45.91237]]},"properties":{}},{"type":"Feature","geometry":{"type":"LineString","coordinates":[[11.03875,45.91253],[11.03878,45.91248],[11.03863,45.91233]]},"properties":{}},{"type":"Feature","geometry":{"type":"LineString","coordinates":[[11.03765,45.913],[11.03862,45.91242]]},"properties":{}},{"type":"Feature","geometry":{"type":"LineString","coordinates":[[11.04015,45.91392],[11.03978,45.91365],[11.03875,45.91253]]},"properties":{}},{"type":"Feature","geometry":{"type":"LineString","coordinates":[[11.03337,45.91488],[11.03425,45.91451],[11.03448,45.91436],[11.03454,45.91428],[11.03453,45.91414],[11.03456,45.91406],[11.03472,45.91393],[11.03499,45.91378],[11.03499,45.91366],[11.03486,45.91347],[11.03505,45.91338],[11.03538,45.91374],[11.03556,45.91386],[11.03696,45.91328],[11.03704,45.91329],[11.03765,45.913]]},"properties":{}},{"type":"Feature","geometry":{"type":"LineString","coordinates":[[11.04018,45.91402],[11.04015,45.91392]]},"properties":{}},{"type":"Feature","geometry":{"type":"LineString","coordinates":[[11.06038,45.91897],[11.06014,45.91854],[11.06003,45.91858],[11.05872,45.91879],[11.05855,45.9188],[11.05824,45.91872],[11.05813,45.91863],[11.0581,45.9185],[11.05805,45.9181],[11.05813,45.91791],[11.05812,45.91782],[11.05801,45.91756],[11.05789,45.91742]]},"properties":{}},{"type":"Feature","geometry":{"type":"LineString","coordinates":[[11.03486,45.91811],[11.03645,45.92106]]},"properties":{}},{"type":"Feature","geometry":{"type":"LineString","coordinates":[[11.07875,45.92605],[11.07752,45.9257],[11.07644,45.92548],[11.07469,45.92532],[11.07344,45.92534],[11.07212,45.92543],[11.07094,45.92558],[11.07042,45.92568],[11.06633,45.9267],[11.06556,45.92686],[11.06479,45.92697],[11.06336,45.92706],[11.06267,45.92705],[11.06143,45.92695],[11.06061,45.92679],[11.0597,45.92655],[11.05891,45.92623],[11.05746,45.92541],[11.05702,45.92511],[11.05661,45.92493],[11.0548,45.92388],[11.05306,45.92262],[11.05129,45.92109],[11.05061,45.92041],[11.05025,45.92019],[11.04934,45.9198],[11.04798,45.91896],[11.04403,45.91713],[11.04288,45.91641],[11.04233,45.91597],[11.04177,45.91547],[11.04064,45.91427],[11.0402,45.91407],[11.04018,45.91402]]},"properties":{}},{"type":"Feature","geometry":{"type":"LineString","coordinates":[[11.03832,45.92071],[11.03815,45.92077],[11.03798,45.92075],[11.03788,45.92069],[11.03787,45.92055],[11.03801,45.92043],[11.03822,45.92041],[11.0383,45.92044],[11.03839,45.92055],[11.03838,45.92064],[11.03832,45.92071]]},"properties":{}},{"type":"Feature","geometry":{"type":"LineString","coordinates":[[11.03762,45.92064],[11.03787,45.92055]]},"properties":{}},{"type":"Feature","geometry":{"type":"LineString","coordinates":[[11.03788,45.92069],[11.03762,45.92064]]},"properties":{}},{"type":"Feature","geometry":{"type":"LineString","coordinates":[[11.03826,45.92075],[11.03819,45.92102]]},"properties":{}},{"type":"Feature","geometry":{"type":"LineString","coordinates":[[11.03819,45.92102],[11.03805,45.92077]]},"properties":{}},{"type":"Feature","geometry":{"type":"LineString","coordinates":[[11.04595,45.92367],[11.04655,45.92353],[11.04676,45.92351]]},"properties":{}},{"type":"Feature","geometry":{"type":"LineString","coordinates":[[11.04676,45.92351],[11.04646,45.92362],[11.04635,45.92374],[11.0463,45.92385]]},"properties":{}},{"type":"Feature","geometry":{"type":"LineString","coordinates":[[11.04486,45.92375],[11.04551,45.92382],[11.0458,45.92375]]},"properties":{}},{"type":"Feature","geometry":{"type":"LineString","coordinates":[[11.04577,45.92379],[11.04589,45.92369],[11.04607,45.92367],[11.04618,45.9237],[11.04627,45.92376],[11.0463,45.92389],[11.04625,45.92397],[11.04616,45.92403],[11.04592,45.92404],[11.04579,45.92395],[11.04575,45.92387],[11.04577,45.92379]]},"properties":{}},{"type":"Feature","geometry":{"type":"LineString","coordinates":[[11.04582,45.92399],[11.04486,45.92375]]},"properties":{}},{"type":"Feature","geometry":{"type":"LineString","coordinates":[[11.04628,45.9258],[11.04636,45.92547]]},"properties":{}},{"type":"Feature","geometry":{"type":"LineString","coordinates":[[11.00695,45.9315],[11.00717,45.93159]]},"properties":{}},{"type":"Feature","geometry":{"type":"LineString","coordinates":[[11.00717,45.93164],[11.00693,45.93161]]},"properties":{}},{"type":"Feature","geometry":{"type":"LineString","coordinates":[[11.0072,45.93196],[11.00693,45.93161]]},"properties":{}}]}