{"type":"FeatureCollection","features":[{"type":"Feature","geometry":{"type":"LineString","coordinates":[[11.478,46.51238],[11.47776,46.51218],[11.47747,46.512],[11.47688,46.51172],[11.47641,46.51157],[11.47587,46.51148],[11.47486,46.51144],[11.47203,46.51166],[11.47129,46.51163],[11.47111,46.51159],[11.47067,46.51134],[11.47006,46.51063],[11.46876,46.50929],[11.46799,46.50856],[11.46724,46.50791],[11.46682,46.50764],[11.46629,46.50737],[11.46344,46.50618]]},"properties":{}},{"type":"Feature","geometry":{"type":"LineString","coordinates":[[11.33973,46.50001],[11.33973,46.5]]},"properties":{}},{"type":"Feature","geometry":{"type":"LineString","coordinates":[[11.36599,46.5],[11.36571,46.50017],[11.36527,46.50027],[11.36434,46.50018],[11.36389,46.50005]]},"properties":{}},{"type":"Feature","geometry":{"type":"LineString","coordinates":[[11.37515,46.5],[11.37517,46.50028],[11.37525,46.50046],[11.37523,46.50056],[11.37487,46.50091],[11.37448,46.50121],[11.37415,46.50142],[11.374,46.50149],[11.37375,46.50158],[11.37343,46.50164],[11.37328,46.5017],[11.37311,46.50198],[11.37246,46.5024],[11.37231,46.50239],[11.37225,46.50235],[11.37224,46.50219],[11.37217,46.50216],[11.37193,46.50221]]},"properties":{}},{"type":"Feature","geometry":{"type":"LineString","coordinates":[[11.33999,46.5],[11.33998,46.50052],[11.34001,46.50072],[11.34029,46.5015]]},"properties":{}},{"type":"Feature","geometry":{"type":"LineString","coordinates":[[11.3457,46.5],[11.34568,46.50004],[11.34562,46.50005],[11.34554,46.5]]},"properties":{}},{"type":"Feature","geometry":{"type":"LineString","coordinates":[[11.3455,46.5],[11.34536,46.50003],[11.34525,46.50012],[11.34364,46.50023],[11.3436,46.50025],[11.34359,46.5003]]},"properties":{}},{"type":"Feature","geometry":{"type":"LineString","coordinates":[[11.34554,46.50032],[11.34546,46.50015]]},"properties":{}},{"type":"Feature","geometry":{"type":"LineString","coordinates":[[11.33971,46.50047],[11.33973,46.50001]]},"properties":{}},{"type":"Feature","geometry":{"type":"LineString","coordinates":[[11.34554,46.50032],[11.34529,46.50021],[11.34501,46.50021]]},"properties":{}},{"type":"Feature","geometry":{"type":"LineString","coordinates":[[11.34571,46.50029],[11.34582,46.50031]]},"properties":{}},{"type":"Feature","geometry":{"type":"LineString","coordinates":[[11.34559,46.50037],[11.34571,46.50029]]},"properties":{}},{"type":"Feature","geometry":{"type":"LineString","coordinates":[[11.34559,46.50037],[11.34554,46.50032]]},"properties":{}},{"type":"Feature","geometry":{"type":"LineString","coordinates":[[11.34582,46.50031],[11.34588,46.50037],[11.34586,46.50045]]},"properties":{}},{"type":"Feature","geometry":{"type":"LineString","coordinates":[[11.34559,46.50044],[11.34559,46.50037]]},"properties":{}},{"type":"Feature","geometry":{"type":"LineString","coordinates":[[11.34586,46.50045],[11.34582,46.50048]]},"properties":{}},{"type":"Feature","geometry":{"type":"LineString","coordinates":[[11.34582,46.50048],[11.34572,46.5005],[11.34559,46.50044]]},"properties":{}},{"type":"Feature","geometry":{"type":"LineString","coordinates":[[11.33971,46.50047],[11.33998,46.50048]]},"properties":{}},{"type":"Feature","geometry":{"type":"LineString","coordinates":[[11.36052,46.5],[11.36046,46.50009]]},"properties":{}},{"type":"Feature","geometry":{"type":"LineString","coordinates":[[11.36013,46.5],[11.36062,46.50014]]},"properties":{}},{"type":"Feature","geometry":{"type":"LineString","coordinates":[[11.36062,46.50014],[11.3608,46.5002]]},"properties":{}},{"type":"Feature","geometry":{"type":"LineString","coordinates":[[11.3608,46.5002],[11.36089,46.50023]]},"properties":{}},{"type":"Feature","geometry":{"type":"LineString","coordinates":[[11.3631,46.50068],[11.36231,46.50063],[11.3613,46.5003],[11.36107,46.50026]]},"properties":{}},{"type":"Feature","geometry":{"type":"LineString","coordinates":[[11.3639,46.50068],[11.36348,46.50065],[11.3631,46.50068]]},"properties":{}},{"type":"Feature","geometry":{"type":"LineString","coordinates":[[11.35406,46.50131],[11.35509,46.50118]]},"properties":{}},{"type":"Feature","geometry":{"type":"LineString","coordinates":[[11.34359,46.5003],[11.34374,46.50089]]},"properties":{}},{"type":"Feature","geometry":{"type":"LineString","coordinates":[[11.34732,46.50102],[11.34826,46.50089],[11.34834,46.50085],[11.34816,46.50028]]},"properties":{}},{"type":"Feature","geometry":{"type":"LineString","coordinates":[[11.34515,46.50075],[11.34535,46.5007]]},"properties":{}},{"type":"Feature","geometry":{"type":"LineString","coordinates":[[11.34534,46.50077],[11.34515,46.50075]]},"properties":{}},{"type":"Feature","geometry":{"type":"LineString","coordinates":[[11.34416,46.50092],[11.34515,46.50075]]},"properties":{}},{"type":"Feature","geometry":{"type":"LineString","coordinates":[[11.34365,46.50092],[11.34374,46.50089]]},"properties":{}},{"type":"Feature","geometry":{"type":"LineString","coordinates":[[11.34386,46.50104],[11.34519,46.50082],[11.34543,46.50094]]},"properties":{}},{"type":"Feature","geometry":{"type":"LineString","coordinates":[[11.34318,46.501],[11.34365,46.50092]]},"properties":{}},{"type":"Feature","geometry":{"type":"LineString","coordinates":[[11.34367,46.50101],[11.34416,46.50092]]},"properties":{}},{"type":"Feature","geometry":{"type":"LineString","coordinates":[[11.34002,46.50154],[11.33966,46.50063],[11.33961,46.5006],[11.3396,46.50052],[11.33966,46.50051],[11.33971,46.50047]]},"properties":{}},{"type":"Feature","geometry":{"type":"LineString","coordinates":[[11.34648,46.50113],[11.34627,46.50095],[11.34615,46.50092]]},"properties":{}},{"type":"Feature","geometry":{"type":"LineString","coordinates":[[11.34543,46.50094],[11.34527,46.50113]]},"properties":{}},{"type":"Feature","geometry":{"type":"LineString","coordinates":[[11.34348,46.50111],[11.34386,46.50104]]},"properties":{}},{"type":"Feature","geometry":{"type":"LineString","coordinates":[[11.34285,46.50115],[11.34321,46.50109]]},"properties":{}},{"type":"Feature","geometry":{"type":"LineString","coordinates":[[11.34323,46.50115],[11.34348,46.50111]]},"properties":{}},{"type":"Feature","geometry":{"type":"LineString","coordinates":[[11.34527,46.50113],[11.34545,46.50121]]},"properties":{}},{"type":"Feature","geometry":{"type":"LineString","coordinates":[[11.34183,46.50133],[11.34285,46.50115]]},"properties":{}},{"type":"Feature","geometry":{"type":"LineString","coordinates":[[11.34323,46.50115],[11.34203,46.50137]]},"properties":{}},{"type":"Feature","geometry":{"type":"LineString","coordinates":[[11.341,46.50148],[11.34183,46.50133]]},"properties":{}},{"type":"Feature","geometry":{"type":"LineString","coordinates":[[11.34203,46.50137],[11.34112,46.50151]]},"properties":{}},{"type":"Feature","geometry":{"type":"LineString","coordinates":[[11.34968,46.50151],[11.34914,46.50156]]},"properties":{}},{"type":"Feature","geometry":{"type":"LineString","coordinates":[[11.34029,46.5015],[11.34033,46.50159]]},"properties":{}},{"type":"Feature","geometry":{"type":"LineString","coordinates":[[11.34021,46.50161],[11.341,46.50148]]},"properties":{}},{"type":"Feature","geometry":{"type":"LineString","coordinates":[[11.34112,46.50151],[11.34035,46.50165]]},"properties":{}},{"type":"Feature","geometry":{"type":"LineString","coordinates":[[11.34006,46.50164],[11.34002,46.50154]]},"properties":{}},{"type":"Feature","geometry":{"type":"LineString","coordinates":[[11.34033,46.50159],[11.34035,46.50165]]},"properties":{}},{"type":"Feature","geometry":{"type":"LineString","coordinates":[[11.34035,46.50165],[11.34025,46.50166]]},"properties":{}},{"type":"Feature","geometry":{"type":"LineString","coordinates":[[11.34899,46.50159],[11.349,46.50165],[11.34896,46.50165],[11.34895,46.50161],[11.34891,46.50162],[11.34892,46.50166],[11.34888,46.50167],[11.34886,46.50162],[11.34882,46.50163],[11.34883,46.50166],[11.34875,46.50164],[11.34878,46.50172],[11.34875,46.50172],[11.34871,46.50163]]},"properties":{}},{"type":"Feature","geometry":{"type":"LineString","coordinates":[[11.34007,46.50169],[11.34006,46.50164]]},"properties":{}},{"type":"Feature","geometry":{"type":"LineString","coordinates":[[11.34025,46.50166],[11.34007,46.50169]]},"properties":{}},{"type":"Feature","geometry":{"type":"LineString","coordinates":[[11.35974,46.50154],[11.35906,46.50171],[11.35873,46.50176],[11.35783,46.50176]]},"properties":{}},{"type":"Feature","geometry":{"type":"LineString","coordinates":[[11.35906,46.50174],[11.35906,46.50171]]},"properties":{}},{"type":"Feature","geometry":{"type":"LineString","coordinates":[[11.35631,46.50172],[11.35615,46.50179],[11.35594,46.50181],[11.3557,46.5018],[11.35537,46.50166],[11.35521,46.50167]]},"properties":{}},{"type":"Feature","geometry":{"type":"LineString","coordinates":[[11.35907,46.50176],[11.35906,46.50174]]},"properties":{}},{"type":"Feature","geometry":{"type":"LineString","coordinates":[[11.3578,46.50176],[11.35786,46.50176]]},"properties":{}},{"type":"Feature","geometry":{"type":"LineString","coordinates":[[11.35783,46.50176],[11.35744,46.50195],[11.3569,46.50214]]},"properties":{}},{"type":"Feature","geometry":{"type":"LineString","coordinates":[[11.3569,46.50211],[11.35742,46.50194],[11.35772,46.50178]]},"properties":{}},{"type":"Feature","geometry":{"type":"LineString","coordinates":[[11.35375,46.50269],[11.35413,46.50178],[11.35414,46.5017],[11.35406,46.50131]]},"properties":{}},{"type":"Feature","geometry":{"type":"LineString","coordinates":[[11.35953,46.50234],[11.35936,46.50229],[11.35928,46.50222],[11.35914,46.502],[11.35907,46.50176]]},"properties":{}},{"type":"Feature","geometry":{"type":"LineString","coordinates":[[11.35269,46.50528],[11.35263,46.50527],[11.35264,46.50513],[11.35284,46.50478],[11.35375,46.50269]]},"properties":{}},{"type":"Feature","geometry":{"type":"LineString","coordinates":[[11.45946,46.50263],[11.45917,46.50222],[11.45885,46.50187],[11.45822,46.50143],[11.45769,46.50118],[11.4572,46.50103],[11.45647,46.50091],[11.45458,46.50077],[11.45392,46.50068],[11.45348,46.50056],[11.45305,46.50039],[11.45236,46.5]]},"properties":{}},{"type":"Feature","geometry":{"type":"LineString","coordinates":[[11.45949,46.50268],[11.45946,46.50263]]},"properties":{}},{"type":"Feature","geometry":{"type":"LineString","coordinates":[[11.46216,46.50565],[11.46177,46.50546],[11.46136,46.50521],[11.46095,46.50486],[11.46045,46.50421],[11.45949,46.50268]]},"properties":{}},{"type":"Feature","geometry":{"type":"LineString","coordinates":[[11.46344,46.50618],[11.46216,46.50565]]},"properties":{}},{"type":"Feature","geometry":{"type":"LineString","coordinates":[[11.43527,46.52909],[11.43514,46.52907],[11.43504,46.529],[11.43506,46.52892]]},"properties":{}},{"type":"Feature","geometry":{"type":"LineString","coordinates":[[11.43534,46.52909],[11.43527,46.52909]]},"properties":{}},{"type":"Feature","geometry":{"type":"LineString","coordinates":[[11.47804,46.51242],[11.478,46.51238]]},"properties":{}},{"type":"Feature","geometry":{"type":"LineString","coordinates":[[11.47858,46.51353],[11.47867,46.51352]]},"properties":{}},{"type":"Feature","geometry":{"type":"LineString","coordinates":[[11.47766,46.51364],[11.47775,46.51364]]},"properties":{}},{"type":"Feature","geometry":{"type":"LineString","coordinates":[[11.48122,46.51815],[11.48085,46.51788],[11.48033,46.51738],[11.48004,46.51702],[11.47903,46.51557],[11.47894,46.51538],[11.47878,46.51487],[11.4787,46.51376],[11.47859,46.51325],[11.47845,46.51292],[11.47827,46.51266],[11.47804,46.51242]]},"properties":{}},{"type":"Feature","geometry":{"type":"LineString","coordinates":[[11.48159,46.5184],[11.48122,46.51815]]},"properties":{}},{"type":"Feature","geometry":{"type":"LineString","coordinates":[[11.48238,46.51899],[11.48159,46.5184]]},"properties":{}},{"type":"Feature","geometry":{"type":"LineString","coordinates":[[11.48287,46.5194],[11.48238,46.51899]]},"properties":{}},{"type":"Feature","geometry":{"type":"LineString","coordinates":[[11.48421,46.52091],[11.48384,46.52067],[11.48372,46.52056],[11.48357,46.52039],[11.48287,46.5194]]},"properties":{}},{"type":"Feature","geometry":{"type":"LineString","coordinates":[[11.48678,46.52205],[11.48485,46.52123],[11.48421,46.52091]]},"properties":{}},{"type":"Feature","geometry":{"type":"LineString","coordinates":[[11.48942,46.52449],[11.48798,46.52284],[11.48749,46.52245],[11.48678,46.52205]]},"properties":{}},{"type":"Feature","geometry":{"type":"LineString","coordinates":[[11.48948,46.52455],[11.48942,46.52449]]},"properties":{}},{"type":"Feature","geometry":{"type":"LineString","coordinates":[[11.48964,46.52473],[11.48948,46.52455]]},"properties":{}},{"type":"Feature","geometry":{"type":"LineString","coordinates":[[11.48994,46.52527],[11.48964,46.52473]]},"properties":{}},{"type":"Feature","geometry":{"type":"LineString","coordinates":[[11.49004,46.52638],[11.49008,46.52593],[11.49006,46.52571],[11.48994,46.52527]]},"properties":{}},{"type":"Feature","geometry":{"type":"LineString","coordinates":[[11.48979,46.52699],[11.49004,46.52638]]},"properties":{}},{"type":"Feature","geometry":{"type":"LineString","coordinates":[[11.48956,46.5275],[11.48979,46.52699]]},"properties":{}},{"type":"Feature","geometry":{"type":"LineString","coordinates":[[11.48888,46.52914],[11.48956,46.5275]]},"properties":{}},{"type":"Feature","geometry":{"type":"LineString","coordinates":[[11.48897,46.53101],[11.48886,46.53062],[11.48882,46.52954],[11.48888,46.52914]]},"properties":{}},{"type":"Feature","geometry":{"type":"LineString","coordinates":[[11.48985,46.53215],[11.48958,46.53191],[11.48935,46.53165],[11.48897,46.53101]]},"properties":{}},{"type":"Feature","geometry":{"type":"LineString","coordinates":[[11.48997,46.53223],[11.48985,46.53215]]},"properties":{}},{"type":"Feature","geometry":{"type":"LineString","coordinates":[[11.49057,46.53263],[11.48997,46.53223]]},"properties":{}},{"type":"Feature","geometry":{"type":"LineString","coordinates":[[11.49062,46.53267],[11.49035,46.53264]]},"properties":{}},{"type":"Feature","geometry":{"type":"LineString","coordinates":[[11.49035,46.53264],[11.49016,46.53272]]},"properties":{}},{"type":"Feature","geometry":{"type":"LineString","coordinates":[[11.48958,46.53313],[11.48952,46.53307],[11.4895,46.53299],[11.48957,46.53292],[11.49007,46.5328],[11.49016,46.53272]]},"properties":{}},{"type":"Feature","geometry":{"type":"LineString","coordinates":[[11.4916,46.53332],[11.49057,46.53263]]},"properties":{}},{"type":"Feature","geometry":{"type":"LineString","coordinates":[[11.49272,46.53408],[11.4916,46.53332]]},"properties":{}},{"type":"Feature","geometry":{"type":"LineString","coordinates":[[11.49295,46.53423],[11.49272,46.53408]]},"properties":{}},{"type":"Feature","geometry":{"type":"LineString","coordinates":[[11.49344,46.53455],[11.49295,46.53423]]},"properties":{}},{"type":"Feature","geometry":{"type":"LineString","coordinates":[[11.49936,46.53764],[11.49921,46.53748],[11.49897,46.53731],[11.49782,46.53669],[11.49763,46.5365],[11.49517,46.53533],[11.49414,46.53493],[11.49371,46.53472],[11.49344,46.53455]]},"properties":{}},{"type":"Feature","geometry":{"type":"LineString","coordinates":[[11.5,46.53824],[11.49962,46.53781],[11.49936,46.53764]]},"properties":{}},{"type":"Feature","geometry":{"type":"LineString","coordinates":[[11.33441,46.50318],[11.33444,46.50324]]},"properties":{}},{"type":"Feature","geometry":{"type":"LineString","coordinates":[[11.34634,46.50378],[11.34635,46.50366],[11.34718,46.50298]]},"properties":{}},{"type":"Feature","geometry":{"type":"LineString","coordinates":[[11.33454,46.50309],[11.33413,46.50371],[11.33391,46.5037]]},"properties":{}},{"type":"Feature","geometry":{"type":"LineString","coordinates":[[11.33413,46.50371],[11.33414,46.50394],[11.33418,46.50398]]},"properties":{}},{"type":"Feature","geometry":{"type":"LineString","coordinates":[[11.34634,46.50378],[11.34639,46.5038],[11.34641,46.5041]]},"properties":{}},{"type":"Feature","geometry":{"type":"LineString","coordinates":[[11.34641,46.5041],[11.34632,46.50413],[11.34644,46.50429],[11.34642,46.5043]]},"properties":{}},{"type":"Feature","geometry":{"type":"LineString","coordinates":[[11.34641,46.5],[11.34649,46.50069],[11.34648,46.50113],[11.34677,46.50204],[11.34695,46.5025],[11.34755,46.50365],[11.34821,46.50458],[11.34853,46.50513],[11.34877,46.50558],[11.34902,46.50622],[11.34914,46.5064],[11.34922,46.50659],[11.34943,46.50829],[11.34962,46.50935]]},"properties":{}},{"type":"Feature","geometry":{"type":"LineString","coordinates":[[11.33359,46.50396],[11.33318,46.50457]]},"properties":{}},{"type":"Feature","geometry":{"type":"LineString","coordinates":[[11.34642,46.5043],[11.34625,46.50437],[11.34634,46.50451]]},"properties":{}},{"type":"Feature","geometry":{"type":"LineString","coordinates":[[11.33861,46.50661],[11.34067,46.50468]]},"properties":{}},{"type":"Feature","geometry":{"type":"LineString","coordinates":[[11.34962,46.50566],[11.34893,46.5058]]},"properties":{}},{"type":"Feature","geometry":{"type":"LineString","coordinates":[[11.34893,46.5058],[11.34886,46.50581]]},"properties":{}},{"type":"Feature","geometry":{"type":"LineString","coordinates":[[11.34962,46.50935],[11.34963,46.5094]]},"properties":{}},{"type":"Feature","geometry":{"type":"LineString","coordinates":[[11.3539,46.50553],[11.35381,46.50548],[11.35269,46.50528]]},"properties":{}},{"type":"Feature","geometry":{"type":"LineString","coordinates":[[11.35027,46.506],[11.34994,46.50602],[11.34988,46.50598],[11.34971,46.50564],[11.34962,46.50566]]},"properties":{}},{"type":"Feature","geometry":{"type":"LineString","coordinates":[[11.35045,46.50598],[11.35027,46.506]]},"properties":{}},{"type":"Feature","geometry":{"type":"LineString","coordinates":[[11.35478,46.50548],[11.35455,46.50583],[11.35436,46.50667]]},"properties":{}},{"type":"Feature","geometry":{"type":"LineString","coordinates":[[11.35419,46.50677],[11.3538,46.50669],[11.35372,46.50664],[11.35369,46.50659],[11.35369,46.50651],[11.35385,46.50617],[11.35392,46.50584],[11.3539,46.50553]]},"properties":{}},{"type":"Feature","geometry":{"type":"LineString","coordinates":[[11.35436,46.50667],[11.35429,46.50673],[11.35419,46.50677]]},"properties":{}},{"type":"Feature","geometry":{"type":"LineString","coordinates":[[11.35436,46.50667],[11.35438,46.50688]]},"properties":{}},{"type":"Feature","geometry":{"type":"LineString","coordinates":[[11.35438,46.50688],[11.35419,46.50677]]},"properties":{}},{"type":"Feature","geometry":{"type":"LineString","coordinates":[[11.35262,46.5106],[11.35244,46.51038],[11.35243,46.51023],[11.35248,46.50999],[11.35274,46.50941],[11.35281,46.50928],[11.35294,46.50918],[11.35359,46.50886],[11.3538,46.50867],[11.35397,46.50827],[11.354,46.50797],[11.35447,46.50714],[11.35449,46.50706],[11.35438,46.50688]]},"properties":{}},{"type":"Feature","geometry":{"type":"LineString","coordinates":[[11.34963,46.5094],[11.34977,46.51],[11.35,46.51074],[11.35011,46.51101],[11.35036,46.51222]]},"properties":{}},{"type":"Feature","geometry":{"type":"LineString","coordinates":[[11.35282,46.51112],[11.35285,46.51104],[11.35285,46.51082],[11.35279,46.51073],[11.35262,46.5106]]},"properties":{}},{"type":"Feature","geometry":{"type":"LineString","coordinates":[[11.35276,46.51121],[11.35282,46.51112]]},"properties":{}},{"type":"Feature","geometry":{"type":"LineString","coordinates":[[11.35238,46.51153],[11.35276,46.51121]]},"properties":{}},{"type":"Feature","geometry":{"type":"LineString","coordinates":[[11.3514,46.51213],[11.35163,46.51205],[11.35194,46.51187],[11.35238,46.51153]]},"properties":{}},{"type":"Feature","geometry":{"type":"LineString","coordinates":[[11.35034,46.51259],[11.3514,46.51213]]},"properties":{}},{"type":"Feature","geometry":{"type":"LineString","coordinates":[[11.35036,46.51222],[11.35046,46.51247],[11.35083,46.51295]]},"properties":{}},{"type":"Feature","geometry":{"type":"LineString","coordinates":[[11.35024,46.51264],[11.35034,46.51259]]},"properties":{}},{"type":"Feature","geometry":{"type":"LineString","coordinates":[[11.35083,46.51295],[11.35088,46.51306],[11.35105,46.51326],[11.35128,46.51343],[11.35158,46.51358],[11.35212,46.51379]]},"properties":{}},{"type":"Feature","geometry":{"type":"LineString","coordinates":[[11.35212,46.51379],[11.3523,46.51382]]},"properties":{}},{"type":"Feature","geometry":{"type":"LineString","coordinates":[[11.3523,46.51382],[11.35241,46.51385]]},"properties":{}},{"type":"Feature","geometry":{"type":"LineString","coordinates":[[11.35241,46.51385],[11.35257,46.51395]]},"properties":{}},{"type":"Feature","geometry":{"type":"LineString","coordinates":[[11.35257,46.51395],[11.35271,46.5139]]},"properties":{}},{"type":"Feature","geometry":{"type":"LineString","coordinates":[[11.35271,46.5139],[11.35446,46.51404],[11.35619,46.51424],[11.35668,46.51435],[11.35698,46.51454],[11.3573,46.51494],[11.35735,46.5153],[11.35735,46.51556],[11.3574,46.51568],[11.35752,46.51569]]},"properties":{}},{"type":"Feature","geometry":{"type":"LineString","coordinates":[[11.35735,46.51556],[11.35728,46.51558]]},"properties":{}},{"type":"Feature","geometry":{"type":"LineString","coordinates":[[11.35752,46.51569],[11.35824,46.51563]]},"properties":{}},{"type":"Feature","geometry":{"type":"LineString","coordinates":[[11.35824,46.51563],[11.35837,46.51564],[11.35843,46.51572],[11.35841,46.51593],[11.3585,46.51594]]},"properties":{}},{"type":"Feature","geometry":{"type":"LineString","coordinates":[[11.36167,46.65931],[11.3616,46.65948],[11.36139,46.66042],[11.36136,46.6607],[11.36153,46.66105],[11.36234,46.66222],[11.36257,46.66279],[11.36265,46.66306],[11.36276,46.66326],[11.36279,46.66336],[11.36277,46.66368],[11.36265,46.66396],[11.36272,46.66452],[11.3628,46.66455],[11.36304,46.6645],[11.36325,46.66458],[11.36354,46.66456]]},"properties":{}},{"type":"Feature","geometry":{"type":"LineString","coordinates":[[11.35673,46.7447],[11.35676,46.74485],[11.35672,46.74519],[11.35679,46.74548],[11.35699,46.74569],[11.35714,46.74576],[11.35801,46.74601],[11.35814,46.74617],[11.3581,46.74687],[11.35819,46.74718],[11.35848,46.74741],[11.35878,46.74753],[11.35897,46.74773],[11.35919,46.74856],[11.35937,46.74876],[11.35944,46.74876]]},"properties":{}},{"type":"Feature","geometry":{"type":"LineString","coordinates":[[11.35944,46.74876],[11.35957,46.74868]]},"properties":{}},{"type":"Feature","geometry":{"type":"LineString","coordinates":[[11.35957,46.74868],[11.35963,46.74868],[11.35979,46.74874],[11.36057,46.74886],[11.3608,46.74897],[11.36105,46.74913],[11.36118,46.74931],[11.36135,46.74965],[11.36139,46.74969]]},"properties":{}},{"type":"Feature","geometry":{"type":"LineString","coordinates":[[11.37006,46.50217],[11.36945,46.50221],[11.36893,46.5021],[11.36851,46.50191],[11.36785,46.50174],[11.36743,46.50156],[11.3672,46.50143],[11.36624,46.50122],[11.36567,46.50113],[11.36518,46.50113],[11.36508,46.50111],[11.36503,46.50107]]},"properties":{}},{"type":"Feature","geometry":{"type":"LineString","coordinates":[[11.3707,46.50211],[11.37065,46.50211]]},"properties":{}},{"type":"Feature","geometry":{"type":"LineString","coordinates":[[11.37065,46.50211],[11.37023,46.50215]]},"properties":{}},{"type":"Feature","geometry":{"type":"LineString","coordinates":[[11.37193,46.50221],[11.37178,46.50217],[11.3715,46.50219],[11.37124,46.50216],[11.37099,46.5021],[11.3707,46.50211]]},"properties":{}},{"type":"Feature","geometry":{"type":"LineString","coordinates":[[11.36112,46.7498],[11.36135,46.75]]},"properties":{}},{"type":"Feature","geometry":{"type":"LineString","coordinates":[[11.31171,46.50068],[11.31151,46.50064],[11.31145,46.50045],[11.31127,46.50026],[11.31097,46.50015],[11.31039,46.5]]},"properties":{}},{"type":"Feature","geometry":{"type":"LineString","coordinates":[[11.31481,46.5],[11.31436,46.50075],[11.3139,46.50068],[11.31378,46.50079],[11.31333,46.50099],[11.31305,46.50099],[11.3118,46.50066]]},"properties":{}},{"type":"Feature","geometry":{"type":"LineString","coordinates":[[11.31071,46.5],[11.31114,46.50013],[11.31163,46.50035]]},"properties":{}},{"type":"Feature","geometry":{"type":"LineString","coordinates":[[11.31153,46.50046],[11.31138,46.5003],[11.31115,46.50017],[11.31063,46.5]]},"properties":{}},{"type":"Feature","geometry":{"type":"LineString","coordinates":[[11.3118,46.50066],[11.312,46.50048],[11.31195,46.5003],[11.31213,46.5]]},"properties":{}},{"type":"Feature","geometry":{"type":"LineString","coordinates":[[11.31153,46.50046],[11.31156,46.50038],[11.31163,46.50035]]},"properties":{}},{"type":"Feature","geometry":{"type":"LineString","coordinates":[[11.31154,46.50047],[11.31153,46.50046]]},"properties":{}},{"type":"Feature","geometry":{"type":"LineString","coordinates":[[11.34007,46.50169],[11.33658,46.50229]]},"properties":{}},{"type":"Feature","geometry":{"type":"LineString","coordinates":[[11.34201,46.50175],[11.3422,46.50184],[11.34326,46.50274]]},"properties":{}},{"type":"Feature","geometry":{"type":"LineString","coordinates":[[11.33658,46.50229],[11.33626,46.50234]]},"properties":{}},{"type":"Feature","geometry":{"type":"LineString","coordinates":[[11.33519,46.50226],[11.33527,46.50252]]},"properties":{}},{"type":"Feature","geometry":{"type":"LineString","coordinates":[[11.33666,46.50228],[11.33675,46.50234],[11.33751,46.5026],[11.33778,46.5026]]},"properties":{}},{"type":"Feature","geometry":{"type":"LineString","coordinates":[[11.33778,46.50264],[11.3375,46.50264],[11.33647,46.50225]]},"properties":{}},{"type":"Feature","geometry":{"type":"LineString","coordinates":[[11.33626,46.50234],[11.33508,46.50256],[11.33478,46.50274]]},"properties":{}},{"type":"Feature","geometry":{"type":"LineString","coordinates":[[11.33778,46.5026],[11.33789,46.50266]]},"properties":{}},{"type":"Feature","geometry":{"type":"LineString","coordinates":[[11.33146,46.50261],[11.33156,46.50267]]},"properties":{}},{"type":"Feature","geometry":{"type":"LineString","coordinates":[[11.33478,46.50274],[11.33469,46.50281],[11.33454,46.50309],[11.33444,46.5031]]},"properties":{}},{"type":"Feature","geometry":{"type":"LineString","coordinates":[[11.26462,46.50863],[11.26521,46.50756],[11.26567,46.50689],[11.26905,46.50094],[11.26942,46.50038],[11.26977,46.5]]},"properties":{}},{"type":"Feature","geometry":{"type":"LineString","coordinates":[[11.26458,46.50869],[11.26462,46.50863]]},"properties":{}},{"type":"Feature","geometry":{"type":"LineString","coordinates":[[11.2606,46.51184],[11.2609,46.51167],[11.26166,46.51134],[11.26228,46.51101],[11.26314,46.51042],[11.26359,46.51003],[11.26398,46.5096],[11.26431,46.50914],[11.26458,46.50869]]},"properties":{}},{"type":"Feature","geometry":{"type":"LineString","coordinates":[[11.26433,46.51146],[11.26461,46.51134]]},"properties":{}},{"type":"Feature","geometry":{"type":"LineString","coordinates":[[11.25,46.51802],[11.2514,46.51708],[11.25161,46.5169],[11.25202,46.51653],[11.25297,46.51551],[11.25348,46.51509],[11.25397,46.51482],[11.25636,46.51378],[11.2606,46.51184]]},"properties":{}},{"type":"Feature","geometry":{"type":"LineString","coordinates":[[11.25238,46.52491],[11.25224,46.52484],[11.25222,46.52473],[11.25225,46.52468],[11.25238,46.52461],[11.25247,46.52461],[11.25261,46.52467],[11.25266,46.52479],[11.25262,46.52485],[11.25256,46.5249],[11.25238,46.52491]]},"properties":{}},{"type":"Feature","geometry":{"type":"LineString","coordinates":[[11.25256,46.5249],[11.2526,46.52518]]},"properties":{}},{"type":"Feature","geometry":{"type":"LineString","coordinates":[[11.2526,46.52518],[11.25243,46.52493]]},"properties":{}},{"type":"Feature","geometry":{"type":"LineString","coordinates":[[11.25,46.52603],[11.25224,46.52484]]},"properties":{}},{"type":"Feature","geometry":{"type":"LineString","coordinates":[[11.2511,46.5291],[11.25108,46.52906],[11.25114,46.52898],[11.25127,46.52899],[11.2513,46.52903],[11.25131,46.52907],[11.25123,46.52913],[11.2511,46.5291]]},"properties":{}},{"type":"Feature","geometry":{"type":"LineString","coordinates":[[11.25,46.58731],[11.25069,46.5874]]},"properties":{}}]}