{"type":"FeatureCollection","features":[{"type":"Feature","geometry":{"type":"LineString","coordinates":[[11.28855,42.40724],[11.28842,42.40747],[11.28831,42.40754],[11.28768,42.40775],[11.28645,42.40836],[11.28621,42.40849],[11.28602,42.40869],[11.28593,42.40884],[11.28593,42.40891],[11.28601,42.40975],[11.28595,42.41001],[11.28587,42.41016],[11.28565,42.41037],[11.28559,42.41049]]},"properties":{}},{"type":"Feature","geometry":{"type":"LineString","coordinates":[[11.28559,42.41049],[11.28477,42.41125],[11.28439,42.41156],[11.28418,42.41178],[11.28391,42.41215],[11.28372,42.41293]]},"properties":{}},{"type":"Feature","geometry":{"type":"LineString","coordinates":[[11.28228,42.4209],[11.28145,42.42177],[11.28109,42.42231],[11.28082,42.42294],[11.28074,42.42331],[11.28058,42.42725],[11.28055,42.42735],[11.28044,42.42747],[11.2804,42.42756],[11.2803,42.4295],[11.28021,42.43064],[11.28014,42.43112],[11.28002,42.43141],[11.27983,42.43167],[11.27934,42.43287],[11.2789,42.43351],[11.27836,42.43421],[11.27805,42.43455],[11.27778,42.43479],[11.2761,42.43618],[11.27469,42.43691],[11.27341,42.43751],[11.27306,42.43774],[11.26557,42.44007]]},"properties":{}}]}