{"type":"FeatureCollection","features":[{"type":"Feature","geometry":{"type":"LineString","coordinates":[[11.62845,46.00923],[11.62848,46.00918],[11.62858,46.00917]]},"properties":{}},{"type":"Feature","geometry":{"type":"LineString","coordinates":[[11.62858,46.00917],[11.62862,46.00921],[11.62859,46.00926]]},"properties":{}},{"type":"Feature","geometry":{"type":"LineString","coordinates":[[11.62859,46.00926],[11.62851,46.00927],[11.62845,46.00923]]},"properties":{}},{"type":"Feature","geometry":{"type":"LineString","coordinates":[[11.63124,46.01078],[11.63579,46.00946],[11.63675,46.0093]]},"properties":{}},{"type":"Feature","geometry":{"type":"LineString","coordinates":[[11.63028,46.01111],[11.63124,46.01078]]},"properties":{}},{"type":"Feature","geometry":{"type":"LineString","coordinates":[[11.52085,46.04581],[11.52182,46.04576],[11.52492,46.04598],[11.52625,46.046],[11.52646,46.04592],[11.52711,46.04581],[11.52774,46.04566],[11.52927,46.04518],[11.53142,46.04438],[11.5345,46.04338],[11.53475,46.04327],[11.53502,46.04321],[11.53819,46.04199],[11.53895,46.04176],[11.53962,46.04165],[11.54137,46.04146],[11.54677,46.04046],[11.54841,46.04012]]},"properties":{}},{"type":"Feature","geometry":{"type":"LineString","coordinates":[[11.53269,46.04746],[11.53281,46.04728],[11.53302,46.04707],[11.53394,46.04671],[11.53469,46.0465],[11.53527,46.04622],[11.53679,46.04566],[11.53967,46.0445],[11.54046,46.04423],[11.5408,46.04406],[11.54182,46.04364],[11.54396,46.04281],[11.54525,46.04227],[11.54833,46.0411]]},"properties":{}},{"type":"Feature","geometry":{"type":"LineString","coordinates":[[11.51895,46.04739],[11.51952,46.04736]]},"properties":{}},{"type":"Feature","geometry":{"type":"LineString","coordinates":[[11.51887,46.04738],[11.5193,46.04886]]},"properties":{}},{"type":"Feature","geometry":{"type":"LineString","coordinates":[[11.5193,46.04886],[11.51931,46.04903],[11.51925,46.04909],[11.51851,46.04946],[11.51783,46.04986],[11.51774,46.04997]]},"properties":{}},{"type":"Feature","geometry":{"type":"LineString","coordinates":[[11.51787,46.05009],[11.5179,46.05012],[11.51799,46.05011],[11.51853,46.04975],[11.51922,46.04946],[11.51937,46.04952],[11.51945,46.04977]]},"properties":{}},{"type":"Feature","geometry":{"type":"LineString","coordinates":[[11.51774,46.04997],[11.51787,46.05009]]},"properties":{}},{"type":"Feature","geometry":{"type":"LineString","coordinates":[[11.51945,46.04977],[11.51949,46.04989],[11.51953,46.05029]]},"properties":{}},{"type":"Feature","geometry":{"type":"LineString","coordinates":[[11.5,46.04845],[11.50248,46.04814],[11.50316,46.04802],[11.5041,46.0478],[11.50576,46.04727],[11.50802,46.04648],[11.50896,46.04611],[11.50915,46.04606],[11.51003,46.04609],[11.51026,46.04607],[11.51084,46.04591],[11.51107,46.04589],[11.51162,46.04595],[11.51256,46.04594],[11.51272,46.04585],[11.51293,46.04565]]},"properties":{}},{"type":"Feature","geometry":{"type":"LineString","coordinates":[[11.51021,46.05269],[11.51023,46.05271]]},"properties":{}},{"type":"Feature","geometry":{"type":"LineString","coordinates":[[11.51953,46.05029],[11.51961,46.05049]]},"properties":{}},{"type":"Feature","geometry":{"type":"LineString","coordinates":[[11.51468,46.05131],[11.51533,46.05116],[11.51576,46.05111],[11.51702,46.05082],[11.51709,46.05075],[11.517,46.05059],[11.517,46.05054],[11.51794,46.05012]]},"properties":{}},{"type":"Feature","geometry":{"type":"LineString","coordinates":[[11.51518,46.05131],[11.51514,46.05121]]},"properties":{}},{"type":"Feature","geometry":{"type":"LineString","coordinates":[[11.51519,46.05132],[11.51518,46.05131]]},"properties":{}},{"type":"Feature","geometry":{"type":"LineString","coordinates":[[11.51523,46.05142],[11.51519,46.05132]]},"properties":{}},{"type":"Feature","geometry":{"type":"LineString","coordinates":[[11.51577,46.05134],[11.51528,46.05145],[11.51523,46.05142]]},"properties":{}},{"type":"Feature","geometry":{"type":"LineString","coordinates":[[11.52416,46.06088],[11.52391,46.05991],[11.52381,46.05914],[11.52376,46.05792],[11.5237,46.05763],[11.52336,46.05665],[11.52293,46.056],[11.52202,46.05483],[11.52146,46.05375],[11.52117,46.05297],[11.52075,46.05201],[11.52045,46.05143],[11.51998,46.05077],[11.5198,46.05061],[11.51961,46.05049]]},"properties":{}},{"type":"Feature","geometry":{"type":"LineString","coordinates":[[11.52416,46.06088],[11.52417,46.06092]]},"properties":{}},{"type":"Feature","geometry":{"type":"LineString","coordinates":[[11.52478,46.06208],[11.52493,46.06232]]},"properties":{}},{"type":"Feature","geometry":{"type":"LineString","coordinates":[[11.63848,46.00934],[11.63927,46.00837],[11.63983,46.00779],[11.64051,46.00716],[11.64112,46.00669],[11.64178,46.00624],[11.64424,46.00467],[11.64456,46.00449]]},"properties":{}},{"type":"Feature","geometry":{"type":"LineString","coordinates":[[11.63675,46.0093],[11.63711,46.00921],[11.63724,46.00922],[11.63728,46.00925],[11.63712,46.00971],[11.63712,46.00977],[11.63718,46.00982],[11.63732,46.00984]]},"properties":{}},{"type":"Feature","geometry":{"type":"LineString","coordinates":[[11.63789,46.00991],[11.63802,46.00987],[11.63814,46.00967],[11.63838,46.00939],[11.63848,46.00934]]},"properties":{}},{"type":"Feature","geometry":{"type":"LineString","coordinates":[[11.63732,46.00984],[11.63789,46.00991]]},"properties":{}},{"type":"Feature","geometry":{"type":"LineString","coordinates":[[11.6371,46.03116],[11.637,46.03114],[11.63697,46.03104],[11.63682,46.03095],[11.63675,46.03098],[11.63666,46.03098],[11.63639,46.03079],[11.63611,46.03078],[11.636,46.03083],[11.63583,46.03114]]},"properties":{}},{"type":"Feature","geometry":{"type":"LineString","coordinates":[[11.6388,46.03226],[11.63864,46.03216],[11.63859,46.03185],[11.63847,46.03167],[11.63799,46.03139],[11.63789,46.0313],[11.63786,46.03122],[11.63772,46.03109],[11.63762,46.03086],[11.63757,46.0306],[11.63747,46.03048],[11.63729,46.03052],[11.63719,46.03063],[11.63722,46.03084],[11.6371,46.03116]]},"properties":{}},{"type":"Feature","geometry":{"type":"LineString","coordinates":[[11.63045,46.0112],[11.63069,46.0111],[11.63124,46.01078]]},"properties":{}},{"type":"Feature","geometry":{"type":"LineString","coordinates":[[11.63026,46.01124],[11.63045,46.0112]]},"properties":{}},{"type":"Feature","geometry":{"type":"LineString","coordinates":[[11.62915,46.01138],[11.62999,46.01115],[11.63028,46.01111]]},"properties":{}},{"type":"Feature","geometry":{"type":"LineString","coordinates":[[11.62915,46.01138],[11.62985,46.01127],[11.63026,46.01124]]},"properties":{}},{"type":"Feature","geometry":{"type":"LineString","coordinates":[[11.6313,46.01247],[11.63138,46.01256],[11.63137,46.01259]]},"properties":{}},{"type":"Feature","geometry":{"type":"LineString","coordinates":[[11.63142,46.01285],[11.63128,46.01287],[11.63117,46.01282],[11.63112,46.01275],[11.63114,46.01266],[11.6313,46.01259],[11.63146,46.01263],[11.63151,46.01269],[11.63152,46.01275],[11.63142,46.01285]]},"properties":{}},{"type":"Feature","geometry":{"type":"LineString","coordinates":[[11.6308,46.01287],[11.63098,46.01285],[11.63112,46.01275]]},"properties":{}},{"type":"Feature","geometry":{"type":"LineString","coordinates":[[11.63128,46.01287],[11.6308,46.01287]]},"properties":{}},{"type":"Feature","geometry":{"type":"LineString","coordinates":[[11.63151,46.01276],[11.63158,46.01278],[11.63184,46.01315]]},"properties":{}},{"type":"Feature","geometry":{"type":"LineString","coordinates":[[11.63184,46.01315],[11.63164,46.01301],[11.63131,46.01287]]},"properties":{}},{"type":"Feature","geometry":{"type":"LineString","coordinates":[[11.56299,46.03105],[11.56324,46.03106]]},"properties":{}},{"type":"Feature","geometry":{"type":"LineString","coordinates":[[11.62025,46.07107],[11.62008,46.07097],[11.61979,46.07057],[11.61925,46.07021],[11.61835,46.06947],[11.61825,46.06933],[11.61822,46.0692],[11.61826,46.06899],[11.6185,46.06847],[11.61861,46.06833],[11.61899,46.06806],[11.61909,46.06794],[11.61909,46.06778],[11.61897,46.06747],[11.61918,46.06663],[11.61917,46.06652],[11.61903,46.06637],[11.61852,46.06604],[11.61787,46.06572],[11.61723,46.06487],[11.6171,46.06478],[11.61693,46.06473],[11.61676,46.06475],[11.6165,46.06489],[11.61622,46.0651]]},"properties":{}},{"type":"Feature","geometry":{"type":"LineString","coordinates":[[11.6229,46.06964],[11.62274,46.06975],[11.62261,46.06992],[11.6222,46.07053],[11.62177,46.07109],[11.6216,46.07121],[11.62122,46.07132],[11.62098,46.07132],[11.62062,46.07123]]},"properties":{}},{"type":"Feature","geometry":{"type":"LineString","coordinates":[[11.62062,46.07123],[11.62025,46.07107]]},"properties":{}},{"type":"Feature","geometry":{"type":"LineString","coordinates":[[11.67715,46.04205],[11.67705,46.04217],[11.67637,46.04265],[11.67616,46.04288]]},"properties":{}},{"type":"Feature","geometry":{"type":"LineString","coordinates":[[11.67616,46.04288],[11.67598,46.04317],[11.67593,46.04346],[11.6758,46.04443],[11.6758,46.04463],[11.67585,46.04481],[11.67582,46.04486],[11.67574,46.04486],[11.6757,46.0448],[11.67543,46.04381],[11.67542,46.04352],[11.67535,46.0435],[11.67529,46.04354],[11.67533,46.04406],[11.67529,46.04461],[11.67539,46.04513],[11.67538,46.04531],[11.6753,46.04555],[11.67522,46.0457],[11.67508,46.04582],[11.67493,46.0459]]},"properties":{}},{"type":"Feature","geometry":{"type":"LineString","coordinates":[[11.67493,46.0459],[11.67483,46.04593],[11.67433,46.04645],[11.674,46.04691],[11.67372,46.04739],[11.6737,46.04754],[11.67372,46.04791],[11.67368,46.04811]]},"properties":{}},{"type":"Feature","geometry":{"type":"LineString","coordinates":[[11.67368,46.04811],[11.67347,46.04842],[11.67335,46.04852],[11.67261,46.04882],[11.6722,46.04884],[11.67121,46.04876],[11.67099,46.04878],[11.67084,46.04884],[11.67041,46.04916],[11.67011,46.04923],[11.66947,46.04906],[11.66934,46.04909],[11.66921,46.04915],[11.66891,46.04951],[11.66887,46.0497],[11.66882,46.04976],[11.66798,46.04997],[11.66786,46.05004],[11.66753,46.05053],[11.66721,46.05075],[11.66731,46.05096],[11.6673,46.05106],[11.66709,46.05114],[11.66664,46.05108],[11.66639,46.05117],[11.6662,46.05118],[11.66537,46.05105],[11.6649,46.05088],[11.66477,46.05079],[11.66461,46.0506],[11.66451,46.05057],[11.66424,46.05063],[11.66328,46.05111],[11.66301,46.05127],[11.66275,46.05151],[11.66267,46.0515],[11.66226,46.05111],[11.66181,46.05099],[11.66133,46.05051],[11.66112,46.0504],[11.66089,46.05039],[11.66072,46.0504],[11.66044,46.05048],[11.65897,46.05099],[11.65817,46.05103],[11.65789,46.05109],[11.65719,46.05134],[11.6567,46.05136],[11.65591,46.05125],[11.65517,46.05122]]},"properties":{}},{"type":"Feature","geometry":{"type":"LineString","coordinates":[[11.72648,46.03349],[11.72647,46.03337],[11.72657,46.0332],[11.72655,46.03316],[11.72647,46.03313],[11.72641,46.03315],[11.72617,46.03343],[11.72602,46.03351],[11.72517,46.03376],[11.72494,46.03386],[11.72433,46.03431],[11.72389,46.03441],[11.72222,46.03458],[11.722,46.03464],[11.72176,46.03475],[11.72168,46.03473]]},"properties":{}},{"type":"Feature","geometry":{"type":"LineString","coordinates":[[11.72884,46.03394],[11.72883,46.03385],[11.72885,46.03383],[11.72893,46.03379],[11.72948,46.03373],[11.72951,46.0337],[11.7295,46.03366],[11.72937,46.03361],[11.72831,46.03347],[11.72822,46.03342],[11.72813,46.03326],[11.72802,46.03316],[11.72771,46.03294]]},"properties":{}},{"type":"Feature","geometry":{"type":"LineString","coordinates":[[11.72884,46.03394],[11.72783,46.03444],[11.7272,46.03447],[11.72637,46.03473],[11.72628,46.0347],[11.72631,46.03465],[11.72648,46.03459],[11.72695,46.03429],[11.72729,46.03413],[11.72729,46.03408],[11.72723,46.03406],[11.72625,46.03427],[11.72568,46.03453],[11.72532,46.03476],[11.72522,46.03475],[11.7252,46.03468],[11.72546,46.0345],[11.72564,46.03432],[11.72571,46.03419],[11.72575,46.03391],[11.72589,46.03383],[11.72646,46.03364],[11.7265,46.03357],[11.72648,46.03349]]},"properties":{}},{"type":"Feature","geometry":{"type":"LineString","coordinates":[[11.72753,46.03876],[11.72759,46.03874],[11.72795,46.03843],[11.72844,46.03816],[11.72872,46.03811],[11.72905,46.03817],[11.72915,46.03813],[11.72911,46.03807],[11.72887,46.03804],[11.72743,46.03792],[11.72728,46.03786],[11.72724,46.03779],[11.72728,46.03775],[11.72747,46.03769],[11.72847,46.03749],[11.72905,46.03724],[11.72935,46.03695],[11.72983,46.03681],[11.7299,46.03675],[11.72988,46.03671],[11.72979,46.03668],[11.72842,46.03675],[11.72794,46.03684],[11.72749,46.03699],[11.72739,46.03695],[11.72739,46.03686],[11.72767,46.03677],[11.72887,46.03622],[11.72943,46.036],[11.73005,46.0359],[11.7301,46.03588],[11.73013,46.03583],[11.73004,46.0358],[11.7298,46.0358],[11.72921,46.03586],[11.72801,46.03613],[11.72686,46.03648],[11.72674,46.03647],[11.72674,46.03641],[11.72685,46.03633],[11.72727,46.03622],[11.72765,46.03605],[11.72807,46.03578],[11.72877,46.0355],[11.72966,46.03528],[11.72999,46.03524],[11.73003,46.03521],[11.73003,46.03514],[11.7299,46.0351],[11.72931,46.03524],[11.72887,46.03525],[11.72831,46.03533],[11.72773,46.03552],[11.72737,46.03568],[11.72646,46.03589],[11.72638,46.03586],[11.72638,46.03577],[11.72644,46.03572],[11.72712,46.03562],[11.72876,46.03486],[11.72936,46.03472],[11.72984,46.03446],[11.73014,46.03422],[11.7303,46.03407],[11.73038,46.0339],[11.73062,46.0336],[11.73063,46.03352],[11.73053,46.03347],[11.73041,46.03353],[11.7304,46.03363],[11.73031,46.03378],[11.73005,46.03384],[11.72965,46.0339],[11.72884,46.03394]]},"properties":{}},{"type":"Feature","geometry":{"type":"LineString","coordinates":[[11.74372,46.0354],[11.74422,46.03549],[11.74434,46.03554],[11.74461,46.03579],[11.74478,46.03588],[11.74522,46.03598],[11.74552,46.036],[11.74568,46.03609],[11.7457,46.03619],[11.74556,46.03633],[11.74549,46.03651],[11.74564,46.03675],[11.74573,46.03682],[11.74583,46.03684],[11.74599,46.0368],[11.7461,46.03658],[11.74644,46.03632],[11.74666,46.03624],[11.74691,46.03624],[11.74725,46.03636],[11.74737,46.03636],[11.74757,46.03621],[11.74767,46.03595],[11.74832,46.03557],[11.74871,46.03546],[11.7492,46.0354],[11.74969,46.0354]]},"properties":{}},{"type":"Feature","geometry":{"type":"LineString","coordinates":[[11.74969,46.0354],[11.74976,46.03546],[11.75,46.03547]]},"properties":{}},{"type":"Feature","geometry":{"type":"LineString","coordinates":[[11.72725,46.03879],[11.72753,46.03876]]},"properties":{}},{"type":"Feature","geometry":{"type":"LineString","coordinates":[[11.73597,46.03841],[11.73661,46.03861],[11.73683,46.03872],[11.73707,46.03887],[11.73777,46.03949]]},"properties":{}},{"type":"Feature","geometry":{"type":"LineString","coordinates":[[11.72711,46.03932],[11.72705,46.03926],[11.72703,46.03913],[11.72714,46.03884],[11.72725,46.03879]]},"properties":{}},{"type":"Feature","geometry":{"type":"LineString","coordinates":[[11.74057,46.04023],[11.74042,46.04018],[11.73998,46.04018],[11.7398,46.04009],[11.7398,46.03999],[11.73999,46.0391],[11.74016,46.03869],[11.74016,46.03862],[11.74011,46.03859],[11.74004,46.0386],[11.73926,46.03912],[11.73887,46.03926],[11.73794,46.03949],[11.73744,46.03949],[11.73723,46.03952],[11.73626,46.03983],[11.73505,46.03968],[11.73484,46.03965],[11.73477,46.03961],[11.73476,46.03957],[11.7348,46.03951],[11.73528,46.03949],[11.73574,46.03907],[11.73573,46.03874],[11.73576,46.0386],[11.73597,46.03841]]},"properties":{}},{"type":"Feature","geometry":{"type":"LineString","coordinates":[[11.73777,46.03949],[11.73804,46.03978],[11.73817,46.03986],[11.73918,46.04009]]},"properties":{}},{"type":"Feature","geometry":{"type":"LineString","coordinates":[[11.74711,46.04],[11.74896,46.04025]]},"properties":{}},{"type":"Feature","geometry":{"type":"LineString","coordinates":[[11.73918,46.04009],[11.74002,46.04023],[11.74022,46.04023],[11.7403,46.04019]]},"properties":{}},{"type":"Feature","geometry":{"type":"LineString","coordinates":[[11.75,46.04235],[11.74969,46.04255],[11.74901,46.04292],[11.74871,46.04297],[11.74809,46.04297]]},"properties":{}},{"type":"Feature","geometry":{"type":"LineString","coordinates":[[11.7498,46.04083],[11.74879,46.04071]]},"properties":{}},{"type":"Feature","geometry":{"type":"LineString","coordinates":[[11.74161,46.04039],[11.7417,46.04042],[11.74223,46.04096],[11.74256,46.04151],[11.7427,46.04164]]},"properties":{}},{"type":"Feature","geometry":{"type":"LineString","coordinates":[[11.74845,46.04136],[11.74748,46.04125],[11.74739,46.04128]]},"properties":{}},{"type":"Feature","geometry":{"type":"LineString","coordinates":[[11.74739,46.04128],[11.74731,46.04134],[11.74723,46.04159]]},"properties":{}},{"type":"Feature","geometry":{"type":"LineString","coordinates":[[11.74662,46.0417],[11.74828,46.0419]]},"properties":{}},{"type":"Feature","geometry":{"type":"LineString","coordinates":[[11.74845,46.04136],[11.74931,46.04146],[11.74952,46.04155],[11.74958,46.04164],[11.7497,46.04211],[11.74966,46.04242],[11.74969,46.04255]]},"properties":{}},{"type":"Feature","geometry":{"type":"LineString","coordinates":[[11.74728,46.04261],[11.74734,46.04256],[11.74759,46.04259],[11.7478,46.04252]]},"properties":{}},{"type":"Feature","geometry":{"type":"LineString","coordinates":[[11.74545,46.04294],[11.74558,46.04273],[11.74575,46.0426],[11.74612,46.04246],[11.74675,46.04231]]},"properties":{}},{"type":"Feature","geometry":{"type":"LineString","coordinates":[[11.74675,46.04231],[11.74709,46.0423],[11.74745,46.04238],[11.7478,46.04252],[11.74802,46.04272],[11.74809,46.04297]]},"properties":{}},{"type":"Feature","geometry":{"type":"LineString","coordinates":[[11.74243,46.0434],[11.74226,46.04403]]},"properties":{}},{"type":"Feature","geometry":{"type":"LineString","coordinates":[[11.74386,46.04472],[11.74406,46.04484],[11.74439,46.04521],[11.74461,46.04524],[11.74485,46.04517],[11.74508,46.04473],[11.74522,46.04437],[11.7453,46.04374],[11.74528,46.04338],[11.74535,46.04316],[11.74545,46.04294]]},"properties":{}},{"type":"Feature","geometry":{"type":"LineString","coordinates":[[11.74226,46.04403],[11.74214,46.0443],[11.74217,46.04441],[11.74231,46.04454],[11.74264,46.0447],[11.74296,46.04474],[11.74386,46.04472]]},"properties":{}},{"type":"Feature","geometry":{"type":"LineString","coordinates":[[11.74829,46.0457],[11.74824,46.04566],[11.74814,46.04544],[11.74807,46.0454],[11.74798,46.04539],[11.74789,46.04528],[11.74776,46.0448],[11.74766,46.04418],[11.74743,46.0437],[11.74729,46.04354],[11.7471,46.04341],[11.74705,46.04345],[11.74728,46.04398],[11.74728,46.04443],[11.74721,46.0445],[11.74704,46.04456]]},"properties":{}},{"type":"Feature","geometry":{"type":"LineString","coordinates":[[11.7485,46.0468],[11.74843,46.04671],[11.74832,46.04629],[11.74826,46.04534],[11.74805,46.04485],[11.74803,46.04471],[11.7481,46.04424],[11.74804,46.04301],[11.74809,46.04297]]},"properties":{}},{"type":"Feature","geometry":{"type":"LineString","coordinates":[[11.7358,46.04356],[11.73554,46.04385],[11.73545,46.04405],[11.73538,46.04434],[11.73522,46.04463],[11.73525,46.04472],[11.73532,46.0448],[11.73562,46.04498],[11.73566,46.04511],[11.73566,46.04525],[11.73552,46.04571],[11.73546,46.04583],[11.73532,46.04596],[11.73525,46.0461],[11.73524,46.04623],[11.73538,46.04656],[11.73565,46.04703],[11.73578,46.0471]]},"properties":{}},{"type":"Feature","geometry":{"type":"LineString","coordinates":[[11.74958,46.04636],[11.74981,46.04584],[11.74979,46.04549],[11.74982,46.04537],[11.74956,46.04528],[11.74976,46.04493],[11.74981,46.04443]]},"properties":{}},{"type":"Feature","geometry":{"type":"LineString","coordinates":[[11.74916,46.0464],[11.74895,46.04637],[11.74888,46.04634],[11.74886,46.04626],[11.74894,46.04602],[11.74915,46.04554],[11.74933,46.04525],[11.74937,46.04523],[11.74956,46.04528]]},"properties":{}},{"type":"Feature","geometry":{"type":"LineString","coordinates":[[11.75,46.0454],[11.74982,46.04537]]},"properties":{}},{"type":"Feature","geometry":{"type":"LineString","coordinates":[[11.73083,46.04505],[11.73096,46.04505],[11.73126,46.04518],[11.73166,46.04556],[11.73187,46.04563],[11.73248,46.0457],[11.73286,46.04578],[11.73334,46.04581],[11.73384,46.046],[11.73422,46.04618],[11.73448,46.04641],[11.73492,46.04671],[11.73558,46.04704],[11.73578,46.0471]]},"properties":{}},{"type":"Feature","geometry":{"type":"LineString","coordinates":[[11.74832,46.04629],[11.74886,46.04626]]},"properties":{}},{"type":"Feature","geometry":{"type":"LineString","coordinates":[[11.74858,46.0469],[11.74888,46.04678],[11.74916,46.0464],[11.74958,46.04636],[11.74996,46.04648]]},"properties":{}},{"type":"Feature","geometry":{"type":"LineString","coordinates":[[11.74996,46.04648],[11.74969,46.04668],[11.7496,46.0468],[11.74912,46.04689],[11.74879,46.04688],[11.74879,46.04695],[11.74869,46.04699]]},"properties":{}},{"type":"Feature","geometry":{"type":"LineString","coordinates":[[11.74996,46.04648],[11.75,46.0465]]},"properties":{}},{"type":"Feature","geometry":{"type":"LineString","coordinates":[[11.74858,46.0469],[11.7485,46.0468]]},"properties":{}},{"type":"Feature","geometry":{"type":"LineString","coordinates":[[11.74869,46.04699],[11.74858,46.0469]]},"properties":{}},{"type":"Feature","geometry":{"type":"LineString","coordinates":[[11.74887,46.04718],[11.74869,46.04699]]},"properties":{}},{"type":"Feature","geometry":{"type":"LineString","coordinates":[[11.75,46.04705],[11.74976,46.04706],[11.74977,46.04719],[11.74886,46.04722]]},"properties":{}},{"type":"Feature","geometry":{"type":"LineString","coordinates":[[11.74782,46.04766],[11.74812,46.04733],[11.7482,46.04717],[11.74824,46.04713],[11.74847,46.0471],[11.74851,46.04695],[11.74858,46.0469]]},"properties":{}},{"type":"Feature","geometry":{"type":"LineString","coordinates":[[11.75,46.04815],[11.74883,46.04808]]},"properties":{}},{"type":"Feature","geometry":{"type":"LineString","coordinates":[[11.74764,46.04914],[11.74755,46.04895],[11.74724,46.04874],[11.74714,46.04863],[11.747,46.04838],[11.74695,46.04815],[11.74704,46.04754]]},"properties":{}},{"type":"Feature","geometry":{"type":"LineString","coordinates":[[11.74572,46.05],[11.74562,46.05001],[11.74521,46.05028],[11.74471,46.05047],[11.74435,46.05073]]},"properties":{}},{"type":"Feature","geometry":{"type":"LineString","coordinates":[[11.7452,46.0517],[11.74519,46.05162],[11.7453,46.05135],[11.74562,46.05072],[11.74579,46.05012],[11.74577,46.05002],[11.74572,46.05]]},"properties":{}},{"type":"Feature","geometry":{"type":"LineString","coordinates":[[11.74435,46.05073],[11.74341,46.0513]]},"properties":{}},{"type":"Feature","geometry":{"type":"LineString","coordinates":[[11.74341,46.0513],[11.74371,46.05142],[11.74449,46.05164],[11.74517,46.05173]]},"properties":{}},{"type":"Feature","geometry":{"type":"LineString","coordinates":[[11.74381,46.05442],[11.74378,46.05428],[11.74378,46.05395],[11.74384,46.05374],[11.74426,46.05282],[11.74442,46.05254],[11.74508,46.0519],[11.7452,46.0517]]},"properties":{}},{"type":"Feature","geometry":{"type":"LineString","coordinates":[[11.74746,46.0541],[11.74819,46.05435],[11.74831,46.05438],[11.7485,46.05436],[11.74867,46.05422],[11.74881,46.05402],[11.74939,46.05352],[11.75,46.05291]]},"properties":{}},{"type":"Feature","geometry":{"type":"LineString","coordinates":[[11.74928,46.05197],[11.74916,46.0522],[11.74886,46.0526],[11.74803,46.05343],[11.74668,46.05495]]},"properties":{}},{"type":"Feature","geometry":{"type":"LineString","coordinates":[[11.72168,46.03473],[11.72134,46.03486],[11.7202,46.0357],[11.71871,46.03628],[11.71771,46.03638],[11.71595,46.03726],[11.71562,46.03726],[11.71556,46.03749],[11.71506,46.03808],[11.7144,46.03826],[11.71304,46.03834],[11.71252,46.03855],[11.7122,46.03876],[11.71137,46.03878],[11.70955,46.03926],[11.70909,46.03929],[11.70886,46.03976],[11.70829,46.04002],[11.70747,46.04003],[11.70697,46.0399],[11.70666,46.04004],[11.70646,46.04],[11.70517,46.04024],[11.70498,46.04016],[11.70497,46.04],[11.70466,46.03993],[11.70436,46.04027],[11.70356,46.04024],[11.70275,46.04064],[11.70237,46.04072],[11.70157,46.04069],[11.70124,46.04077],[11.70064,46.04077],[11.70023,46.04059],[11.69979,46.0406],[11.69926,46.04069],[11.69877,46.0406],[11.69839,46.04071],[11.69773,46.04058],[11.69728,46.04056],[11.6971,46.04088],[11.69737,46.04142],[11.69724,46.04177],[11.69662,46.04185],[11.69602,46.04175],[11.69552,46.04178],[11.69507,46.04163],[11.69431,46.0415],[11.69431,46.04132],[11.69503,46.04114],[11.69512,46.04094],[11.69464,46.04071],[11.6947,46.04042],[11.69526,46.04004],[11.69616,46.03951],[11.69691,46.03926],[11.69735,46.03899],[11.69775,46.039],[11.69857,46.03869],[11.69907,46.03865],[11.70041,46.03816],[11.70081,46.03817],[11.70111,46.03801],[11.70171,46.03743],[11.70201,46.03739],[11.7026,46.03754],[11.7029,46.03744],[11.70358,46.03707],[11.70393,46.0371],[11.70426,46.03704],[11.70495,46.03704],[11.70537,46.03679],[11.70564,46.03679],[11.70722,46.03602],[11.70751,46.03581],[11.70777,46.03578],[11.70824,46.0356]]},"properties":{}},{"type":"Feature","geometry":{"type":"LineString","coordinates":[[11.70824,46.0356],[11.70791,46.03563],[11.70738,46.03557],[11.7066,46.03563],[11.70538,46.03558],[11.70528,46.03556],[11.70519,46.03549],[11.70522,46.03539],[11.70528,46.03535],[11.70602,46.03524],[11.70606,46.03521],[11.70601,46.03516],[11.70578,46.0352],[11.70523,46.03517],[11.70405,46.0354],[11.70372,46.0354],[11.70329,46.03534],[11.70276,46.0354],[11.70258,46.03545],[11.70227,46.03561],[11.7022,46.03561],[11.70216,46.03558],[11.70219,46.03551],[11.70248,46.03528],[11.70329,46.03483],[11.7037,46.03468],[11.70385,46.03459],[11.70382,46.03454],[11.70324,46.03469],[11.70239,46.03481],[11.70082,46.0349],[11.70015,46.035],[11.69957,46.03518],[11.69861,46.03535],[11.69718,46.03567],[11.69678,46.03587],[11.69522,46.03616],[11.6946,46.03616],[11.69431,46.03636],[11.69368,46.03646],[11.69322,46.03644],[11.69224,46.03655],[11.69199,46.03651],[11.69027,46.0367],[11.6896,46.03663],[11.6886,46.03641],[11.68835,46.03647],[11.68803,46.03662],[11.6876,46.03694],[11.68597,46.03739],[11.68517,46.03783],[11.68507,46.03801],[11.68457,46.03816],[11.68428,46.03816],[11.6829,46.03804],[11.68229,46.0381],[11.68191,46.03838],[11.68151,46.03886],[11.68107,46.03908],[11.68018,46.03933],[11.67875,46.03998],[11.67844,46.03999],[11.67813,46.04016],[11.67833,46.04084],[11.67821,46.04102],[11.67715,46.04205]]},"properties":{}},{"type":"Feature","geometry":{"type":"LineString","coordinates":[[11.70519,46.06396],[11.70517,46.06404],[11.70526,46.06411],[11.70536,46.06412],[11.7062,46.06405],[11.70656,46.06396],[11.70634,46.06433],[11.70633,46.06441],[11.70641,46.06444],[11.70648,46.06443],[11.7069,46.06407],[11.7071,46.06393],[11.70724,46.06396],[11.70712,46.06424],[11.70707,46.06466],[11.70697,46.06474],[11.70685,46.06478]]},"properties":{}},{"type":"Feature","geometry":{"type":"LineString","coordinates":[[11.70685,46.06478],[11.70651,46.06479],[11.70603,46.06505],[11.70547,46.06521],[11.7044,46.06532],[11.7043,46.06539],[11.70428,46.06546],[11.70438,46.06551],[11.70459,46.0655],[11.70529,46.06566],[11.7058,46.0657],[11.7068,46.06559],[11.70693,46.06556],[11.70708,46.06549],[11.70725,46.06547]]},"properties":{}},{"type":"Feature","geometry":{"type":"LineString","coordinates":[[11.70725,46.06547],[11.70737,46.06547],[11.70767,46.06557],[11.70842,46.06559]]},"properties":{}},{"type":"Feature","geometry":{"type":"LineString","coordinates":[[11.70842,46.06559],[11.70863,46.0656],[11.70865,46.06569],[11.70789,46.06593],[11.70773,46.06627],[11.70754,46.06646],[11.707,46.0667],[11.70668,46.06692],[11.70605,46.06712],[11.70581,46.06716],[11.70537,46.06734],[11.70517,46.06737],[11.70506,46.06743],[11.7051,46.0675],[11.70519,46.06753],[11.70577,46.06746],[11.70722,46.06744]]},"properties":{}},{"type":"Feature","geometry":{"type":"LineString","coordinates":[[11.70722,46.06744],[11.70734,46.06744]]},"properties":{}},{"type":"Feature","geometry":{"type":"LineString","coordinates":[[11.70734,46.06744],[11.708,46.06745],[11.70846,46.0674],[11.70886,46.06723],[11.70898,46.06723],[11.70901,46.06731],[11.70893,46.06741],[11.70866,46.0676],[11.70742,46.06811]]},"properties":{}},{"type":"Feature","geometry":{"type":"LineString","coordinates":[[11.70742,46.06811],[11.70729,46.06817]]},"properties":{}},{"type":"Feature","geometry":{"type":"LineString","coordinates":[[11.70729,46.06817],[11.7062,46.06861],[11.70584,46.06865],[11.70573,46.06872],[11.70575,46.0688],[11.70584,46.06886],[11.70617,46.06881],[11.70729,46.06883]]},"properties":{}},{"type":"Feature","geometry":{"type":"LineString","coordinates":[[11.7459,46.05377],[11.74582,46.05382],[11.74561,46.05431],[11.74549,46.05443],[11.74492,46.05466],[11.74471,46.05465],[11.74402,46.05445],[11.74381,46.05442]]},"properties":{}},{"type":"Feature","geometry":{"type":"LineString","coordinates":[[11.74381,46.05442],[11.74333,46.05431],[11.74283,46.05416],[11.74257,46.05405],[11.7422,46.05376],[11.74155,46.05351],[11.74093,46.05341],[11.74072,46.05341],[11.74051,46.05345],[11.74028,46.0536],[11.74028,46.05366],[11.74037,46.05368],[11.74059,46.05353],[11.74082,46.0535],[11.74114,46.05355],[11.74148,46.05369],[11.74164,46.05381],[11.74187,46.05436],[11.7419,46.05461],[11.74208,46.05471],[11.74237,46.05475],[11.74245,46.05483],[11.74262,46.05522],[11.74283,46.05548],[11.74288,46.05559],[11.74285,46.05568],[11.7426,46.0559],[11.74255,46.05598],[11.74248,46.05617],[11.74242,46.05647],[11.74233,46.05649],[11.74222,46.05647],[11.74215,46.0564],[11.74214,46.05597],[11.74206,46.05565],[11.74185,46.05527],[11.74176,46.05515]]},"properties":{}},{"type":"Feature","geometry":{"type":"LineString","coordinates":[[11.74668,46.05495],[11.74659,46.05504],[11.74619,46.05528],[11.74614,46.05535],[11.74617,46.05549],[11.74625,46.05559],[11.74627,46.05569],[11.74622,46.05581],[11.74603,46.05586],[11.74549,46.05593],[11.74535,46.05602],[11.74515,46.05622],[11.74503,46.05625],[11.74498,46.05623],[11.74496,46.05618],[11.74499,46.05613],[11.74543,46.0557],[11.74544,46.05563],[11.74533,46.05549],[11.74535,46.05532],[11.74578,46.05461],[11.74609,46.05383],[11.74607,46.05379],[11.7459,46.05377]]},"properties":{}},{"type":"Feature","geometry":{"type":"LineString","coordinates":[[11.74176,46.05515],[11.7417,46.05506],[11.74104,46.0546],[11.74092,46.0546],[11.74059,46.05481],[11.74039,46.05489],[11.74017,46.05495],[11.73969,46.05501],[11.73891,46.05494],[11.73822,46.05465],[11.73797,46.05468],[11.73797,46.05474],[11.73832,46.05479],[11.73898,46.05511],[11.73926,46.05519],[11.74013,46.05533],[11.7402,46.05541],[11.74024,46.05557],[11.74076,46.05598],[11.74088,46.05614],[11.74094,46.05639],[11.74093,46.05652],[11.74087,46.0566],[11.7405,46.05688],[11.74047,46.05696],[11.74049,46.05708],[11.74055,46.05714],[11.74086,46.05733],[11.74086,46.05742]]},"properties":{}},{"type":"Feature","geometry":{"type":"LineString","coordinates":[[11.74668,46.05495],[11.74672,46.055],[11.74665,46.05507],[11.74625,46.05532],[11.74625,46.05543],[11.74646,46.05558],[11.74649,46.05568],[11.74647,46.0558],[11.74638,46.05589],[11.74623,46.05598],[11.74573,46.05604],[11.7456,46.0561],[11.7455,46.05618],[11.74541,46.0564],[11.74515,46.05662],[11.74505,46.05676],[11.74472,46.05703],[11.74454,46.05711],[11.74447,46.05718],[11.74451,46.05725],[11.74474,46.05726],[11.74531,46.0571],[11.74562,46.05705]]},"properties":{}},{"type":"Feature","geometry":{"type":"LineString","coordinates":[[11.74562,46.05705],[11.74583,46.05702],[11.74606,46.05706],[11.74629,46.05719],[11.74653,46.05728],[11.74672,46.05724],[11.74684,46.05712],[11.74722,46.05695],[11.74749,46.05686],[11.74802,46.05675],[11.74869,46.05673],[11.75,46.05681]]},"properties":{}},{"type":"Feature","geometry":{"type":"LineString","coordinates":[[11.74997,46.06015],[11.75,46.06016]]},"properties":{}},{"type":"Feature","geometry":{"type":"LineString","coordinates":[[11.75,46.0583],[11.74933,46.05803],[11.74828,46.05822],[11.74758,46.05821],[11.7466,46.05814],[11.74584,46.058],[11.74566,46.05802],[11.74531,46.05815],[11.74468,46.05816],[11.74399,46.05828],[11.74375,46.0584],[11.74367,46.05838],[11.74369,46.05832],[11.74419,46.05807],[11.74516,46.05783],[11.74541,46.05772],[11.74553,46.05761],[11.74565,46.05756],[11.74686,46.05767],[11.74767,46.05746],[11.74772,46.05741],[11.74762,46.05737],[11.74698,46.05747],[11.74656,46.05746],[11.7458,46.05708],[11.74562,46.05705]]},"properties":{}},{"type":"Feature","geometry":{"type":"LineString","coordinates":[[11.74086,46.05742],[11.74076,46.05743],[11.74066,46.05737],[11.74036,46.05711],[11.74035,46.05692],[11.74048,46.05671],[11.74067,46.05652],[11.74069,46.05644],[11.74056,46.05628],[11.74017,46.056],[11.74,46.05592],[11.73912,46.05577],[11.73837,46.05561],[11.73782,46.05538],[11.73766,46.05536],[11.73725,46.05549],[11.73706,46.05551],[11.73698,46.05548],[11.73682,46.05531],[11.7367,46.05526],[11.73623,46.0553],[11.73615,46.05524],[11.73596,46.05492],[11.735,46.0543],[11.73479,46.05405],[11.73448,46.05392],[11.73344,46.05394],[11.73335,46.05391],[11.733,46.05362],[11.73254,46.05352],[11.73244,46.05347],[11.7324,46.0534],[11.73222,46.05295],[11.73181,46.05253],[11.73159,46.05222],[11.73134,46.05194],[11.73085,46.05154],[11.72948,46.05062],[11.72939,46.05061],[11.72936,46.05064],[11.72938,46.05073],[11.72981,46.051],[11.73024,46.05138],[11.73079,46.05202],[11.73113,46.0525],[11.73125,46.05288],[11.73125,46.05303],[11.73144,46.05338],[11.73135,46.05367],[11.73124,46.05373],[11.73123,46.05385],[11.73135,46.05394],[11.73154,46.05396],[11.73178,46.05414],[11.73218,46.05431],[11.73232,46.05447],[11.73246,46.05457],[11.73313,46.0548],[11.73347,46.05498],[11.73351,46.05514],[11.7334,46.05533],[11.73353,46.05543],[11.73386,46.05558],[11.73403,46.05585],[11.73448,46.0561],[11.73487,46.0564],[11.7353,46.05681],[11.73531,46.05702],[11.73556,46.05768],[11.73569,46.05774],[11.73607,46.0578],[11.73704,46.05805],[11.73744,46.05826],[11.73739,46.05834],[11.73727,46.05834],[11.73693,46.0582],[11.73558,46.05807],[11.73509,46.05793],[11.73491,46.05783],[11.73465,46.05751],[11.73407,46.05708],[11.73376,46.05692],[11.73329,46.05676],[11.73303,46.05655],[11.73251,46.05624],[11.73192,46.05605],[11.73161,46.05605],[11.73149,46.05599],[11.73142,46.05589],[11.7313,46.05579],[11.73089,46.05566],[11.73061,46.05554],[11.73012,46.05518],[11.72972,46.05481],[11.72913,46.05443],[11.72889,46.05432],[11.72857,46.05405],[11.72843,46.054],[11.72838,46.05411],[11.7289,46.05455],[11.72935,46.05512],[11.7296,46.05551],[11.73005,46.05591],[11.73019,46.05621],[11.73019,46.05674],[11.73028,46.05688],[11.73055,46.05701],[11.73104,46.05716],[11.73147,46.05745],[11.7319,46.05792],[11.73214,46.05828],[11.73229,46.05868],[11.73241,46.0589],[11.73278,46.05943],[11.73284,46.05961],[11.73286,46.0598],[11.73282,46.05998],[11.73259,46.06031],[11.7325,46.06052],[11.73121,46.06163],[11.73071,46.06188],[11.73042,46.06217],[11.72999,46.06311],[11.72979,46.06343],[11.72944,46.06386],[11.72898,46.06417],[11.72892,46.06428],[11.72896,46.06475],[11.72911,46.06503],[11.72922,46.06514],[11.72925,46.0653],[11.72924,46.06547],[11.72886,46.0662],[11.72872,46.06658],[11.72874,46.06688],[11.72888,46.06726],[11.72909,46.06756],[11.72931,46.06771],[11.72974,46.06787],[11.72995,46.06799],[11.73051,46.06843],[11.73089,46.06864],[11.73123,46.06871],[11.73154,46.06884],[11.73173,46.06898],[11.7319,46.06906],[11.7321,46.06912],[11.73253,46.06914],[11.73321,46.06912],[11.73414,46.06893],[11.73442,46.06891],[11.73446,46.06897]]},"properties":{}},{"type":"Feature","geometry":{"type":"LineString","coordinates":[[11.74086,46.05742],[11.7408,46.05753],[11.74066,46.05768],[11.74066,46.0578],[11.74074,46.05787],[11.74077,46.058],[11.74074,46.05815],[11.74062,46.05827],[11.7403,46.05837],[11.74004,46.05855],[11.74,46.05866],[11.74005,46.05886],[11.74025,46.05921],[11.74034,46.05946],[11.74035,46.05971],[11.74029,46.06012],[11.74001,46.06045],[11.73988,46.06055],[11.73896,46.06107],[11.73857,46.06139],[11.7384,46.06167],[11.73839,46.06195],[11.73815,46.06226],[11.73797,46.06236],[11.73762,46.06247],[11.73719,46.06269],[11.73706,46.0628],[11.73702,46.06292],[11.73708,46.06315],[11.73736,46.06336],[11.73756,46.06341]]},"properties":{}},{"type":"Feature","geometry":{"type":"LineString","coordinates":[[11.70729,46.06883],[11.70741,46.06883]]},"properties":{}},{"type":"Feature","geometry":{"type":"LineString","coordinates":[[11.70741,46.06883],[11.71031,46.06868],[11.71071,46.0687],[11.71099,46.06866],[11.71272,46.06865],[11.71298,46.06859],[11.71341,46.06839],[11.7135,46.06839],[11.71354,46.06845],[11.71352,46.06856],[11.71316,46.06883],[11.71257,46.0692],[11.71178,46.06952],[11.71126,46.06968],[11.71095,46.06973],[11.71081,46.06981],[11.71085,46.06987],[11.71102,46.06991],[11.71335,46.06993],[11.71415,46.0699],[11.71508,46.06971]]},"properties":{}},{"type":"Feature","geometry":{"type":"LineString","coordinates":[[11.71508,46.06971],[11.71514,46.0697]]},"properties":{}},{"type":"Feature","geometry":{"type":"LineString","coordinates":[[11.71698,46.06973],[11.71706,46.06971]]},"properties":{}},{"type":"Feature","geometry":{"type":"LineString","coordinates":[[11.71706,46.06971],[11.71735,46.06965],[11.71745,46.06967],[11.71751,46.06974],[11.71745,46.06984]]},"properties":{}},{"type":"Feature","geometry":{"type":"LineString","coordinates":[[11.71514,46.0697],[11.71559,46.06966],[11.71611,46.06968],[11.71649,46.06984],[11.71698,46.06973]]},"properties":{}},{"type":"Feature","geometry":{"type":"LineString","coordinates":[[11.71745,46.06984],[11.71735,46.06989]]},"properties":{}},{"type":"Feature","geometry":{"type":"LineString","coordinates":[[11.71735,46.06989],[11.71661,46.07015],[11.71631,46.07021],[11.7158,46.07025],[11.7154,46.0704]]},"properties":{}},{"type":"Feature","geometry":{"type":"LineString","coordinates":[[11.72323,46.07087],[11.72457,46.07066],[11.72467,46.07059],[11.72479,46.07043],[11.72496,46.07031],[11.7255,46.07009],[11.72595,46.06999],[11.72688,46.06962],[11.72703,46.06964]]},"properties":{}},{"type":"Feature","geometry":{"type":"LineString","coordinates":[[11.7154,46.0704],[11.71524,46.07046]]},"properties":{}},{"type":"Feature","geometry":{"type":"LineString","coordinates":[[11.72312,46.07091],[11.72323,46.07087]]},"properties":{}},{"type":"Feature","geometry":{"type":"LineString","coordinates":[[11.71524,46.07046],[11.71472,46.07066],[11.71398,46.07103],[11.71288,46.07139],[11.71236,46.07145],[11.71223,46.07149],[11.71224,46.07159],[11.71239,46.07162],[11.71309,46.07153],[11.71388,46.0715],[11.71511,46.07132],[11.71536,46.07132]]},"properties":{}},{"type":"Feature","geometry":{"type":"LineString","coordinates":[[11.7222,46.07121],[11.72312,46.07091]]},"properties":{}},{"type":"Feature","geometry":{"type":"LineString","coordinates":[[11.7221,46.07125],[11.7222,46.07121]]},"properties":{}},{"type":"Feature","geometry":{"type":"LineString","coordinates":[[11.71536,46.07132],[11.71549,46.07133]]},"properties":{}},{"type":"Feature","geometry":{"type":"LineString","coordinates":[[11.71899,46.07153],[11.72059,46.07157],[11.72131,46.07147],[11.72197,46.07131],[11.7221,46.07125]]},"properties":{}},{"type":"Feature","geometry":{"type":"LineString","coordinates":[[11.71549,46.07133],[11.7161,46.07137],[11.71778,46.07161],[11.71814,46.07162],[11.71854,46.07157]]},"properties":{}},{"type":"Feature","geometry":{"type":"LineString","coordinates":[[11.71854,46.07157],[11.71899,46.07153]]},"properties":{}},{"type":"Feature","geometry":{"type":"LineString","coordinates":[[11.72703,46.06964],[11.72718,46.06933],[11.72723,46.06903],[11.72721,46.06882],[11.72704,46.06847]]},"properties":{}},{"type":"Feature","geometry":{"type":"LineString","coordinates":[[11.73446,46.06897],[11.73433,46.06903],[11.73388,46.06915],[11.73315,46.06953],[11.73199,46.06993],[11.73175,46.06996],[11.7309,46.06996],[11.72982,46.06984],[11.72887,46.06967],[11.72753,46.06969],[11.72732,46.06972],[11.72719,46.06971],[11.72703,46.06964]]},"properties":{}}]}