{"type":"FeatureCollection","features":[{"type":"Feature","geometry":{"type":"LineString","coordinates":[[11.54833,46.28091],[11.54796,46.2809],[11.54744,46.28103],[11.54738,46.28101],[11.54734,46.28096],[11.54735,46.28085],[11.54741,46.28066],[11.5475,46.28055],[11.54765,46.28046],[11.54792,46.28039]]},"properties":{}},{"type":"Feature","geometry":{"type":"LineString","coordinates":[[11.54792,46.28039],[11.54851,46.28035],[11.54934,46.28041],[11.54984,46.28049],[11.5522,46.28058],[11.55302,46.28055],[11.55409,46.28066],[11.55434,46.28061],[11.5552,46.28074],[11.55572,46.28087],[11.55627,46.28106],[11.55725,46.28147]]},"properties":{}},{"type":"Feature","geometry":{"type":"LineString","coordinates":[[11.55725,46.28147],[11.55866,46.28203]]},"properties":{}},{"type":"Feature","geometry":{"type":"LineString","coordinates":[[11.56034,46.28274],[11.56061,46.28274],[11.5613,46.28293],[11.56165,46.28294],[11.56197,46.28314]]},"properties":{}},{"type":"Feature","geometry":{"type":"LineString","coordinates":[[11.56197,46.28314],[11.56217,46.28316]]},"properties":{}},{"type":"Feature","geometry":{"type":"LineString","coordinates":[[11.56365,46.28366],[11.56425,46.28383]]},"properties":{}},{"type":"Feature","geometry":{"type":"LineString","coordinates":[[11.56425,46.28383],[11.56442,46.28385]]},"properties":{}},{"type":"Feature","geometry":{"type":"LineString","coordinates":[[11.59604,46.29574],[11.59641,46.29565],[11.59689,46.29564],[11.59772,46.29555]]},"properties":{}},{"type":"Feature","geometry":{"type":"LineString","coordinates":[[11.59795,46.29597],[11.598,46.29601],[11.598,46.29616],[11.59786,46.29715],[11.59788,46.29736],[11.59783,46.29753],[11.59771,46.29773],[11.59768,46.29787],[11.59773,46.29796],[11.59837,46.29868],[11.59974,46.29949],[11.59998,46.2998],[11.60009,46.30008],[11.60021,46.30027],[11.60048,46.30045],[11.60076,46.30072],[11.60186,46.30142],[11.60199,46.30157],[11.60203,46.30168],[11.60197,46.30179],[11.60144,46.30221],[11.60121,46.30233],[11.60018,46.30271],[11.59968,46.30309],[11.59955,46.30315],[11.59915,46.30325],[11.5992,46.30346],[11.599,46.30401],[11.59888,46.3042],[11.59885,46.30433],[11.59887,46.30453],[11.59895,46.30472],[11.59906,46.30488],[11.59946,46.30535],[11.59959,46.30563],[11.59968,46.30607],[11.59975,46.30622]]},"properties":{}},{"type":"Feature","geometry":{"type":"LineString","coordinates":[[11.59668,46.3053],[11.59617,46.305],[11.59603,46.30485],[11.59596,46.30464],[11.59577,46.30457],[11.59552,46.30458],[11.59532,46.3045],[11.59242,46.30286],[11.59207,46.30262],[11.59196,46.30258],[11.59083,46.30178]]},"properties":{}},{"type":"Feature","geometry":{"type":"LineString","coordinates":[[11.59913,46.30666],[11.59668,46.3053]]},"properties":{}},{"type":"Feature","geometry":{"type":"LineString","coordinates":[[11.59923,46.30678],[11.59855,46.30747],[11.59841,46.30765],[11.59831,46.30787],[11.59831,46.30812],[11.59818,46.30831]]},"properties":{}},{"type":"Feature","geometry":{"type":"LineString","coordinates":[[11.59818,46.30831],[11.59818,46.30836]]},"properties":{}},{"type":"Feature","geometry":{"type":"LineString","coordinates":[[11.59823,46.30874],[11.59818,46.30836]]},"properties":{}},{"type":"Feature","geometry":{"type":"LineString","coordinates":[[11.64286,46.35871],[11.64285,46.35885],[11.64288,46.35894],[11.64355,46.35958],[11.64525,46.36147],[11.64622,46.3623],[11.64739,46.36316],[11.64778,46.36352],[11.64857,46.36443],[11.64889,46.36509],[11.64903,46.36548],[11.64911,46.36559],[11.64959,46.36591]]},"properties":{}},{"type":"Feature","geometry":{"type":"LineString","coordinates":[[11.64959,46.36591],[11.6495,46.36603],[11.64933,46.36612]]},"properties":{}},{"type":"Feature","geometry":{"type":"LineString","coordinates":[[11.64959,46.36591],[11.65047,46.36664],[11.6509,46.3671],[11.65127,46.36753],[11.65152,46.36795],[11.6518,46.36833],[11.65191,46.36842],[11.65201,46.36845],[11.65209,46.36842]]},"properties":{}},{"type":"Feature","geometry":{"type":"LineString","coordinates":[[11.6524,46.36827],[11.65251,46.36827],[11.65267,46.36833],[11.65303,46.36859],[11.65373,46.36918],[11.65454,46.37016],[11.65476,46.37055]]},"properties":{}},{"type":"Feature","geometry":{"type":"LineString","coordinates":[[11.65068,46.37018],[11.65056,46.3699],[11.64996,46.36952],[11.6497,46.36922],[11.64965,46.36906],[11.64966,46.36894],[11.64973,46.3688],[11.64988,46.36871],[11.65018,46.3687],[11.65115,46.3688]]},"properties":{}},{"type":"Feature","geometry":{"type":"LineString","coordinates":[[11.65496,46.37096],[11.6545,46.37195],[11.65456,46.37204]]},"properties":{}},{"type":"Feature","geometry":{"type":"LineString","coordinates":[[11.56442,46.28385],[11.56472,46.28386]]},"properties":{}},{"type":"Feature","geometry":{"type":"LineString","coordinates":[[11.56472,46.28386],[11.56494,46.28391]]},"properties":{}},{"type":"Feature","geometry":{"type":"LineString","coordinates":[[11.56494,46.28391],[11.56526,46.28398]]},"properties":{}},{"type":"Feature","geometry":{"type":"LineString","coordinates":[[11.56526,46.28398],[11.56602,46.28402],[11.56671,46.28422],[11.56763,46.28452],[11.56873,46.28506]]},"properties":{}},{"type":"Feature","geometry":{"type":"LineString","coordinates":[[11.56873,46.28506],[11.56883,46.2851]]},"properties":{}},{"type":"Feature","geometry":{"type":"LineString","coordinates":[[11.56229,46.28498],[11.56278,46.28489],[11.56501,46.28465],[11.5655,46.28465],[11.56598,46.28469],[11.56656,46.28482],[11.56712,46.28503],[11.56779,46.28542],[11.57064,46.28733]]},"properties":{}},{"type":"Feature","geometry":{"type":"LineString","coordinates":[[11.56883,46.2851],[11.56915,46.28524],[11.56997,46.28547],[11.57095,46.2857],[11.57117,46.28572],[11.57147,46.2857],[11.57342,46.28521],[11.57486,46.28519],[11.5752,46.28523],[11.57556,46.28533],[11.57601,46.28555],[11.57641,46.28588],[11.57684,46.28617],[11.57719,46.28634],[11.57806,46.28657],[11.57882,46.28688],[11.57907,46.28702],[11.58028,46.28795]]},"properties":{}},{"type":"Feature","geometry":{"type":"LineString","coordinates":[[11.58028,46.28795],[11.5803,46.28796]]},"properties":{}},{"type":"Feature","geometry":{"type":"LineString","coordinates":[[11.57421,46.28944],[11.57403,46.28925],[11.57306,46.28873],[11.57064,46.28733]]},"properties":{}},{"type":"Feature","geometry":{"type":"LineString","coordinates":[[11.5803,46.28796],[11.58114,46.28847],[11.58233,46.2894],[11.58326,46.29006],[11.58354,46.29055],[11.58366,46.2907],[11.58394,46.29093]]},"properties":{}},{"type":"Feature","geometry":{"type":"LineString","coordinates":[[11.60141,46.30857],[11.60127,46.30858]]},"properties":{}},{"type":"Feature","geometry":{"type":"LineString","coordinates":[[11.59823,46.30874],[11.59717,46.30867],[11.59553,46.3085]]},"properties":{}},{"type":"Feature","geometry":{"type":"LineString","coordinates":[[11.60127,46.30858],[11.59873,46.30875],[11.59823,46.30874]]},"properties":{}},{"type":"Feature","geometry":{"type":"LineString","coordinates":[[11.59608,46.31012],[11.5961,46.31016]]},"properties":{}},{"type":"Feature","geometry":{"type":"LineString","coordinates":[[11.5961,46.31016],[11.59608,46.31017]]},"properties":{}},{"type":"Feature","geometry":{"type":"LineString","coordinates":[[11.59608,46.31017],[11.5958,46.31027]]},"properties":{}},{"type":"Feature","geometry":{"type":"LineString","coordinates":[[11.60196,46.30979],[11.60216,46.31023],[11.60257,46.31095]]},"properties":{}},{"type":"Feature","geometry":{"type":"LineString","coordinates":[[11.60257,46.31095],[11.60256,46.31216],[11.60251,46.31226],[11.60237,46.31238]]},"properties":{}},{"type":"Feature","geometry":{"type":"LineString","coordinates":[[11.60237,46.31238],[11.6019,46.31257],[11.60085,46.31322]]},"properties":{}},{"type":"Feature","geometry":{"type":"LineString","coordinates":[[11.5958,46.31027],[11.59577,46.31034],[11.59579,46.31039],[11.59608,46.31087],[11.59614,46.3111],[11.59619,46.31146],[11.59617,46.31217],[11.59602,46.31401],[11.59567,46.31621],[11.59551,46.3169],[11.59542,46.31722],[11.59517,46.31783],[11.59507,46.31824]]},"properties":{}},{"type":"Feature","geometry":{"type":"LineString","coordinates":[[11.65456,46.37204],[11.6547,46.37215]]},"properties":{}},{"type":"Feature","geometry":{"type":"LineString","coordinates":[[11.65428,46.37513],[11.65396,46.37456],[11.65294,46.37335],[11.65292,46.3731],[11.65281,46.37282],[11.6526,46.37246],[11.65209,46.37185],[11.6517,46.37157],[11.65158,46.37137],[11.65146,46.371],[11.65128,46.37077],[11.65096,46.37054],[11.65068,46.37018]]},"properties":{}},{"type":"Feature","geometry":{"type":"LineString","coordinates":[[11.6547,46.37215],[11.6548,46.37223],[11.65513,46.37238],[11.65563,46.37267],[11.65781,46.37465],[11.65786,46.37463]]},"properties":{}},{"type":"Feature","geometry":{"type":"LineString","coordinates":[[11.66479,46.38878],[11.66482,46.38851],[11.66469,46.3882],[11.66465,46.38799],[11.66471,46.38789],[11.66499,46.38773],[11.665,46.38768],[11.66496,46.38753],[11.66468,46.38713],[11.6642,46.38669],[11.66389,46.38622],[11.66349,46.38589],[11.66339,46.38576],[11.66297,46.38484],[11.66296,46.38439],[11.66287,46.38397],[11.66299,46.38381],[11.66347,46.3837],[11.66354,46.38366],[11.66358,46.38359],[11.66358,46.38339],[11.66348,46.38298],[11.6635,46.38283],[11.66389,46.38232],[11.66394,46.38216],[11.66385,46.38186],[11.66382,46.38145],[11.66367,46.38122]]},"properties":{}},{"type":"Feature","geometry":{"type":"LineString","coordinates":[[11.66454,46.38902],[11.66474,46.38886],[11.66479,46.38878]]},"properties":{}},{"type":"Feature","geometry":{"type":"LineString","coordinates":[[11.66462,46.39064],[11.66449,46.38971],[11.66452,46.38952],[11.66479,46.38878]]},"properties":{}},{"type":"Feature","geometry":{"type":"LineString","coordinates":[[11.66462,46.39064],[11.66458,46.39073],[11.66455,46.39073]]},"properties":{}},{"type":"Feature","geometry":{"type":"LineString","coordinates":[[11.66632,46.39335],[11.66618,46.39302],[11.66557,46.3923],[11.66524,46.3918],[11.66521,46.39159],[11.66535,46.39115],[11.6653,46.39093],[11.66522,46.39083],[11.66484,46.39076],[11.66462,46.39064]]},"properties":{}},{"type":"Feature","geometry":{"type":"LineString","coordinates":[[11.66645,46.39363],[11.66632,46.39335]]},"properties":{}},{"type":"Feature","geometry":{"type":"LineString","coordinates":[[11.66671,46.39406],[11.66658,46.39403],[11.66662,46.39408],[11.66646,46.39413]]},"properties":{}},{"type":"Feature","geometry":{"type":"LineString","coordinates":[[11.57438,46.28949],[11.57421,46.28944]]},"properties":{}},{"type":"Feature","geometry":{"type":"LineString","coordinates":[[11.58394,46.29093],[11.58405,46.29099]]},"properties":{}},{"type":"Feature","geometry":{"type":"LineString","coordinates":[[11.58405,46.29099],[11.58492,46.29144],[11.58529,46.29159],[11.58552,46.29163],[11.58885,46.29129],[11.58977,46.291],[11.58999,46.29099],[11.59059,46.2912],[11.59116,46.29188],[11.5914,46.29203],[11.59259,46.29256],[11.59302,46.29285],[11.5939,46.2933],[11.59416,46.29361],[11.59449,46.2942],[11.59466,46.29435],[11.59511,46.29458],[11.59531,46.29472],[11.59563,46.29506],[11.59589,46.29541],[11.59604,46.29574]]},"properties":{}},{"type":"Feature","geometry":{"type":"LineString","coordinates":[[11.59032,46.30142],[11.59033,46.30141],[11.59003,46.3011],[11.5898,46.30092],[11.58952,46.30074],[11.58884,46.3002],[11.58853,46.29998],[11.58834,46.29989],[11.58817,46.29974],[11.58814,46.2995],[11.58805,46.29939],[11.58749,46.29899],[11.58725,46.29888],[11.58695,46.29868],[11.58657,46.2984],[11.58615,46.29797],[11.58601,46.29762],[11.58604,46.29737],[11.586,46.29727],[11.58588,46.29716],[11.58518,46.29664],[11.58419,46.29577],[11.58324,46.29506],[11.58314,46.29484],[11.583,46.2947],[11.58149,46.29343],[11.5804,46.29257],[11.57963,46.29215],[11.57699,46.29085],[11.57659,46.29066],[11.57615,46.29053],[11.57468,46.28961],[11.57445,46.28949],[11.57438,46.28949]]},"properties":{}},{"type":"Feature","geometry":{"type":"LineString","coordinates":[[11.59048,46.30152],[11.59033,46.30141]]},"properties":{}},{"type":"Feature","geometry":{"type":"LineString","coordinates":[[11.59083,46.30178],[11.59048,46.30152]]},"properties":{}},{"type":"Feature","geometry":{"type":"LineString","coordinates":[[11.58335,46.4451],[11.58312,46.44504],[11.58298,46.44505],[11.58283,46.445]]},"properties":{}},{"type":"Feature","geometry":{"type":"LineString","coordinates":[[11.58346,46.44513],[11.58335,46.4451]]},"properties":{}},{"type":"Feature","geometry":{"type":"LineString","coordinates":[[11.55979,46.47862],[11.55984,46.47854],[11.55993,46.47853],[11.56001,46.47855],[11.56005,46.47861],[11.56003,46.47867],[11.55992,46.47871],[11.55982,46.47868],[11.55979,46.47862]]},"properties":{}},{"type":"Feature","geometry":{"type":"LineString","coordinates":[[11.59507,46.31824],[11.59509,46.31833]]},"properties":{}},{"type":"Feature","geometry":{"type":"LineString","coordinates":[[11.59509,46.31833],[11.59518,46.31857],[11.59523,46.31882],[11.59562,46.31925]]},"properties":{}},{"type":"Feature","geometry":{"type":"LineString","coordinates":[[11.59567,46.31928],[11.59597,46.3189]]},"properties":{}},{"type":"Feature","geometry":{"type":"LineString","coordinates":[[11.59537,46.31896],[11.59535,46.31897],[11.59562,46.31929],[11.59567,46.31928]]},"properties":{}},{"type":"Feature","geometry":{"type":"LineString","coordinates":[[11.59562,46.31925],[11.5958,46.31946]]},"properties":{}},{"type":"Feature","geometry":{"type":"LineString","coordinates":[[11.5958,46.31946],[11.59642,46.32004],[11.59688,46.32022],[11.59706,46.32032],[11.59751,46.32081],[11.59767,46.32109],[11.59792,46.32197],[11.59866,46.32358],[11.59888,46.32379],[11.59896,46.32393],[11.59912,46.32477],[11.59923,46.32497],[11.59963,46.32549],[11.59984,46.32582],[11.60011,46.32638],[11.60024,46.32657],[11.60095,46.32712],[11.60116,46.32739],[11.60121,46.32765],[11.60118,46.32776],[11.60086,46.32843],[11.60071,46.32858]]},"properties":{}},{"type":"Feature","geometry":{"type":"LineString","coordinates":[[11.60526,46.33232],[11.6052,46.33245],[11.6049,46.33268],[11.60507,46.33366],[11.60582,46.33483],[11.60614,46.33513],[11.60638,46.33527],[11.60686,46.33542],[11.60735,46.33548],[11.60781,46.33543],[11.60823,46.33548],[11.60983,46.33576],[11.6101,46.33589],[11.61141,46.33693],[11.61179,46.33735],[11.61196,46.33835],[11.61221,46.33858],[11.61269,46.33915],[11.61276,46.33954],[11.6129,46.33978],[11.61292,46.34011],[11.61315,46.34044],[11.6133,46.34056],[11.61391,46.34092],[11.61432,46.34132],[11.61469,46.3415],[11.61549,46.34166],[11.61585,46.34182],[11.61637,46.34256],[11.61652,46.34283],[11.61679,46.34295],[11.61771,46.34304],[11.61803,46.34311],[11.6188,46.34343],[11.62045,46.34432],[11.62115,46.34479],[11.6214,46.34507],[11.62203,46.3455],[11.62293,46.34619],[11.62311,46.34627],[11.62369,46.34645],[11.62414,46.34678],[11.62419,46.34692]]},"properties":{}},{"type":"Feature","geometry":{"type":"LineString","coordinates":[[11.62426,46.34718],[11.6244,46.34718],[11.62547,46.34691],[11.62557,46.34692],[11.62564,46.34699],[11.62567,46.34721],[11.62577,46.34729],[11.62683,46.34751],[11.62719,46.34751],[11.62779,46.34769],[11.62783,46.34774]]},"properties":{}},{"type":"Feature","geometry":{"type":"LineString","coordinates":[[11.60101,46.40981],[11.60092,46.4098],[11.6014,46.40853],[11.60173,46.40824],[11.60264,46.40773],[11.60278,46.40763],[11.60278,46.4076]]},"properties":{}},{"type":"Feature","geometry":{"type":"LineString","coordinates":[[11.50597,46.28395],[11.50627,46.28365],[11.50657,46.28314],[11.50703,46.28278],[11.50751,46.28247],[11.50764,46.28231]]},"properties":{}},{"type":"Feature","geometry":{"type":"LineString","coordinates":[[11.50454,46.28466],[11.50362,46.28484],[11.50286,46.28478],[11.50228,46.28465],[11.50163,46.28457],[11.50104,46.2844],[11.50043,46.28402],[11.5,46.28378]]},"properties":{}},{"type":"Feature","geometry":{"type":"LineString","coordinates":[[11.50554,46.28421],[11.50597,46.28395]]},"properties":{}},{"type":"Feature","geometry":{"type":"LineString","coordinates":[[11.5114,46.28416],[11.51142,46.28427]]},"properties":{}},{"type":"Feature","geometry":{"type":"LineString","coordinates":[[11.50533,46.28425],[11.50554,46.28421]]},"properties":{}},{"type":"Feature","geometry":{"type":"LineString","coordinates":[[11.51581,46.28158],[11.51643,46.28164],[11.51682,46.28164],[11.51719,46.2816],[11.5186,46.28137],[11.51923,46.28131]]},"properties":{}},{"type":"Feature","geometry":{"type":"LineString","coordinates":[[11.51529,46.28161],[11.51581,46.28158]]},"properties":{}},{"type":"Feature","geometry":{"type":"LineString","coordinates":[[11.5133,46.28175],[11.51398,46.28175],[11.51529,46.28161]]},"properties":{}},{"type":"Feature","geometry":{"type":"LineString","coordinates":[[11.52074,46.28159],[11.52202,46.28215]]},"properties":{}},{"type":"Feature","geometry":{"type":"LineString","coordinates":[[11.52614,46.28248],[11.52646,46.28246]]},"properties":{}},{"type":"Feature","geometry":{"type":"LineString","coordinates":[[11.52202,46.28215],[11.52254,46.28223],[11.52451,46.28283],[11.5249,46.28284],[11.52509,46.28281]]},"properties":{}},{"type":"Feature","geometry":{"type":"LineString","coordinates":[[11.52509,46.28281],[11.52552,46.28272],[11.52614,46.28248]]},"properties":{}},{"type":"Feature","geometry":{"type":"LineString","coordinates":[[11.5243,46.38577],[11.52454,46.38551],[11.52479,46.38487],[11.5249,46.38469],[11.52504,46.38458],[11.52536,46.3844],[11.52597,46.38416],[11.5261,46.38405],[11.52622,46.38378],[11.52622,46.38361],[11.52615,46.3834],[11.52603,46.38326],[11.52586,46.38316],[11.52556,46.38309],[11.52532,46.38308],[11.52479,46.38322]]},"properties":{}},{"type":"Feature","geometry":{"type":"LineString","coordinates":[[11.5245,46.38624],[11.52489,46.38626],[11.52555,46.38618],[11.52694,46.38573],[11.5273,46.38568],[11.52817,46.38568],[11.5286,46.38588],[11.52891,46.38592],[11.53024,46.38573],[11.53082,46.38575],[11.53105,46.38565]]},"properties":{}},{"type":"Feature","geometry":{"type":"LineString","coordinates":[[11.53128,46.39494],[11.5312,46.39427],[11.53096,46.39386],[11.53078,46.3936],[11.52991,46.39273],[11.52978,46.3925],[11.52978,46.39238],[11.52997,46.39201],[11.52997,46.39184],[11.52991,46.39161],[11.52982,46.39146],[11.52929,46.39111],[11.52894,46.39081],[11.52823,46.38983],[11.52749,46.38953],[11.52729,46.38934],[11.52712,46.38912],[11.52708,46.389],[11.52709,46.38883],[11.52727,46.38857],[11.52763,46.3882],[11.52772,46.38802],[11.52767,46.38794],[11.52729,46.38777],[11.52717,46.38767],[11.52711,46.38752],[11.52706,46.38716],[11.52699,46.387],[11.52666,46.38673],[11.52646,46.38665],[11.52586,46.38662],[11.52519,46.38666],[11.52455,46.38653]]},"properties":{}},{"type":"Feature","geometry":{"type":"LineString","coordinates":[[11.51505,46.28444],[11.51157,46.28411],[11.51139,46.28411],[11.5114,46.28416]]},"properties":{}},{"type":"Feature","geometry":{"type":"LineString","coordinates":[[11.51142,46.28427],[11.51147,46.28432],[11.51158,46.28435],[11.51165,46.28462]]},"properties":{}},{"type":"Feature","geometry":{"type":"LineString","coordinates":[[11.50454,46.28466],[11.50494,46.2845],[11.50533,46.28425]]},"properties":{}},{"type":"Feature","geometry":{"type":"LineString","coordinates":[[11.50134,46.28939],[11.50132,46.28934],[11.50122,46.28934],[11.50088,46.28947],[11.50056,46.28953],[11.5,46.28948]]},"properties":{}},{"type":"Feature","geometry":{"type":"LineString","coordinates":[[11.5486,46.46989],[11.54775,46.47005],[11.54689,46.47003],[11.54635,46.46996],[11.54504,46.4697],[11.54467,46.46967],[11.54441,46.46969]]},"properties":{}},{"type":"Feature","geometry":{"type":"LineString","coordinates":[[11.68936,46.43356],[11.69326,46.43534],[11.69382,46.43568],[11.69405,46.43588],[11.69434,46.43624],[11.69477,46.43717],[11.6955,46.43851],[11.69647,46.44004],[11.69708,46.44144]]},"properties":{}},{"type":"Feature","geometry":{"type":"LineString","coordinates":[[11.69708,46.44144],[11.69713,46.44158],[11.69709,46.44168],[11.69702,46.44175],[11.69679,46.44183],[11.69624,46.44191],[11.6962,46.44196]]},"properties":{}},{"type":"Feature","geometry":{"type":"LineString","coordinates":[[11.73332,46.46989],[11.73341,46.46985]]},"properties":{}},{"type":"Feature","geometry":{"type":"LineString","coordinates":[[11.73542,46.47073],[11.73596,46.47083],[11.73691,46.47109],[11.73767,46.47136],[11.73799,46.47149],[11.7381,46.47157]]},"properties":{}},{"type":"Feature","geometry":{"type":"LineString","coordinates":[[11.7381,46.47157],[11.73826,46.47172],[11.73857,46.47233],[11.7387,46.47244],[11.73915,46.47257],[11.73992,46.47259],[11.74036,46.47256],[11.74076,46.47262],[11.74095,46.4727],[11.74109,46.47283],[11.74127,46.47305],[11.7413,46.47331],[11.74137,46.47334]]},"properties":{}},{"type":"Feature","geometry":{"type":"LineString","coordinates":[[11.7442,46.47433],[11.74396,46.47387]]},"properties":{}},{"type":"Feature","geometry":{"type":"LineString","coordinates":[[11.66711,46.39454],[11.66676,46.39413],[11.66645,46.39363]]},"properties":{}},{"type":"Feature","geometry":{"type":"LineString","coordinates":[[11.66976,46.39559],[11.66953,46.39563],[11.66934,46.39543],[11.66909,46.39533],[11.66829,46.39523],[11.66798,46.39516],[11.66743,46.39479],[11.66711,46.39454]]},"properties":{}},{"type":"Feature","geometry":{"type":"LineString","coordinates":[[11.67121,46.39638],[11.67103,46.39575],[11.67061,46.39512],[11.66964,46.39473],[11.66962,46.39464],[11.66962,46.39434]]},"properties":{}},{"type":"Feature","geometry":{"type":"LineString","coordinates":[[11.66998,46.3955],[11.66976,46.39559]]},"properties":{}},{"type":"Feature","geometry":{"type":"LineString","coordinates":[[11.67121,46.39638],[11.67082,46.39621],[11.67069,46.39612],[11.67011,46.3955],[11.66998,46.3955]]},"properties":{}},{"type":"Feature","geometry":{"type":"LineString","coordinates":[[11.67213,46.39804],[11.67205,46.39789],[11.67192,46.39752],[11.67133,46.39652],[11.67121,46.39638]]},"properties":{}},{"type":"Feature","geometry":{"type":"LineString","coordinates":[[11.67236,46.39838],[11.67213,46.39804]]},"properties":{}},{"type":"Feature","geometry":{"type":"LineString","coordinates":[[11.67213,46.39804],[11.67244,46.39808],[11.67262,46.39819],[11.67287,46.39849],[11.67319,46.39932],[11.6732,46.40002],[11.67323,46.40012],[11.67331,46.40023],[11.67362,46.40041],[11.67439,46.40124]]},"properties":{}},{"type":"Feature","geometry":{"type":"LineString","coordinates":[[11.67439,46.40124],[11.67398,46.40099]]},"properties":{}},{"type":"Feature","geometry":{"type":"LineString","coordinates":[[11.68436,46.42011],[11.68347,46.41975],[11.68339,46.41966],[11.68333,46.41916],[11.68322,46.41863],[11.68315,46.41842],[11.68294,46.41803],[11.68263,46.41761],[11.68251,46.41731],[11.68255,46.41701],[11.68278,46.41656],[11.68285,46.41623],[11.68274,46.416],[11.68223,46.41536],[11.68209,46.41504],[11.68198,46.41433],[11.68192,46.41414],[11.68137,46.41296],[11.68095,46.41224],[11.68073,46.41192],[11.68027,46.41156],[11.68005,46.4111],[11.67966,46.41047],[11.6795,46.41014],[11.67916,46.40963],[11.67867,46.40921],[11.67813,46.40888],[11.67794,46.4087],[11.67776,46.40847],[11.67762,46.40818],[11.67756,46.40796],[11.67751,46.40735],[11.6772,46.40664],[11.67675,46.40505],[11.67659,46.40437],[11.67627,46.40353],[11.67534,46.40226],[11.6753,46.40207],[11.67522,46.40193],[11.67484,46.40165],[11.67439,46.40124]]},"properties":{}},{"type":"Feature","geometry":{"type":"LineString","coordinates":[[11.67465,46.41786],[11.67491,46.41787]]},"properties":{}},{"type":"Feature","geometry":{"type":"LineString","coordinates":[[11.6744,46.41792],[11.67451,46.41785],[11.67465,46.41786]]},"properties":{}},{"type":"Feature","geometry":{"type":"LineString","coordinates":[[11.67465,46.41786],[11.67471,46.41791],[11.67473,46.41797]]},"properties":{}},{"type":"Feature","geometry":{"type":"LineString","coordinates":[[11.67441,46.41802],[11.6744,46.41792]]},"properties":{}},{"type":"Feature","geometry":{"type":"LineString","coordinates":[[11.67452,46.41808],[11.67441,46.41802]]},"properties":{}},{"type":"Feature","geometry":{"type":"LineString","coordinates":[[11.67467,46.41805],[11.67452,46.41808]]},"properties":{}},{"type":"Feature","geometry":{"type":"LineString","coordinates":[[11.68033,46.41907],[11.68047,46.41906],[11.68055,46.41909]]},"properties":{}},{"type":"Feature","geometry":{"type":"LineString","coordinates":[[11.6803,46.41909],[11.68033,46.41907]]},"properties":{}},{"type":"Feature","geometry":{"type":"LineString","coordinates":[[11.68055,46.41909],[11.68059,46.41915]]},"properties":{}},{"type":"Feature","geometry":{"type":"LineString","coordinates":[[11.68025,46.41921],[11.68025,46.41914],[11.6803,46.41909]]},"properties":{}},{"type":"Feature","geometry":{"type":"LineString","coordinates":[[11.68059,46.41915],[11.68058,46.41922],[11.68053,46.41927],[11.68039,46.41929]]},"properties":{}},{"type":"Feature","geometry":{"type":"LineString","coordinates":[[11.6803,46.41926],[11.68025,46.41921]]},"properties":{}},{"type":"Feature","geometry":{"type":"LineString","coordinates":[[11.68039,46.41929],[11.6803,46.41926]]},"properties":{}},{"type":"Feature","geometry":{"type":"LineString","coordinates":[[11.67435,46.42054],[11.67437,46.42051]]},"properties":{}},{"type":"Feature","geometry":{"type":"LineString","coordinates":[[11.68633,46.42152],[11.68585,46.42083],[11.6855,46.42053],[11.68531,46.42043],[11.68508,46.42039],[11.68465,46.42017],[11.6845,46.42012],[11.68436,46.42011]]},"properties":{}},{"type":"Feature","geometry":{"type":"LineString","coordinates":[[11.68622,46.4273],[11.68694,46.42665],[11.68708,46.42644],[11.68717,46.42622],[11.68721,46.42597],[11.68719,46.42571],[11.68709,46.42543],[11.68664,46.42447],[11.68608,46.42433],[11.68599,46.42425],[11.68585,46.42399],[11.68579,46.42373],[11.68578,46.42316],[11.68559,46.42274],[11.68527,46.42221],[11.68495,46.42179],[11.68459,46.42115],[11.68403,46.42029],[11.68403,46.42022]]},"properties":{}},{"type":"Feature","geometry":{"type":"LineString","coordinates":[[11.68655,46.42737],[11.68648,46.42763],[11.68654,46.42823],[11.68651,46.42868],[11.68655,46.42871]]},"properties":{}},{"type":"Feature","geometry":{"type":"LineString","coordinates":[[11.68622,46.4273],[11.68617,46.42768],[11.68621,46.42823],[11.68619,46.42862],[11.68591,46.42958]]},"properties":{}},{"type":"Feature","geometry":{"type":"LineString","coordinates":[[11.68579,46.42979],[11.68578,46.42999]]},"properties":{}},{"type":"Feature","geometry":{"type":"LineString","coordinates":[[11.68578,46.42999],[11.68577,46.43007],[11.68582,46.4302]]},"properties":{}},{"type":"Feature","geometry":{"type":"LineString","coordinates":[[11.68573,46.43019],[11.68582,46.4302]]},"properties":{}},{"type":"Feature","geometry":{"type":"LineString","coordinates":[[11.68568,46.4302],[11.68573,46.43019]]},"properties":{}},{"type":"Feature","geometry":{"type":"LineString","coordinates":[[11.68582,46.4302],[11.68586,46.43022]]},"properties":{}},{"type":"Feature","geometry":{"type":"LineString","coordinates":[[11.68586,46.43022],[11.68588,46.43023]]},"properties":{}},{"type":"Feature","geometry":{"type":"LineString","coordinates":[[11.68566,46.43029],[11.68568,46.4302]]},"properties":{}},{"type":"Feature","geometry":{"type":"LineString","coordinates":[[11.68588,46.43023],[11.68615,46.43031]]},"properties":{}},{"type":"Feature","geometry":{"type":"LineString","coordinates":[[11.68586,46.43022],[11.68588,46.43027],[11.68584,46.43032]]},"properties":{}},{"type":"Feature","geometry":{"type":"LineString","coordinates":[[11.68615,46.43031],[11.68587,46.43032]]},"properties":{}},{"type":"Feature","geometry":{"type":"LineString","coordinates":[[11.6858,46.43034],[11.68573,46.43034],[11.68566,46.43029]]},"properties":{}},{"type":"Feature","geometry":{"type":"LineString","coordinates":[[11.68587,46.43032],[11.68584,46.43032]]},"properties":{}},{"type":"Feature","geometry":{"type":"LineString","coordinates":[[11.68584,46.43032],[11.6858,46.43034]]},"properties":{}},{"type":"Feature","geometry":{"type":"LineString","coordinates":[[11.6862,46.43035],[11.68622,46.43033]]},"properties":{}},{"type":"Feature","geometry":{"type":"LineString","coordinates":[[11.6858,46.43034],[11.68568,46.4305]]},"properties":{}},{"type":"Feature","geometry":{"type":"LineString","coordinates":[[11.68659,46.43199],[11.68586,46.43091],[11.68578,46.43078],[11.68568,46.4305]]},"properties":{}},{"type":"Feature","geometry":{"type":"LineString","coordinates":[[11.68659,46.43199],[11.68665,46.43197]]},"properties":{}},{"type":"Feature","geometry":{"type":"LineString","coordinates":[[11.68689,46.43209],[11.68684,46.43212]]},"properties":{}},{"type":"Feature","geometry":{"type":"LineString","coordinates":[[11.68665,46.43197],[11.68713,46.43236],[11.68767,46.43272],[11.68936,46.43356]]},"properties":{}},{"type":"Feature","geometry":{"type":"LineString","coordinates":[[11.6962,46.44196],[11.69624,46.44223]]},"properties":{}},{"type":"Feature","geometry":{"type":"LineString","coordinates":[[11.69624,46.44223],[11.6963,46.44227],[11.69686,46.44228],[11.697,46.44234],[11.69705,46.44241]]},"properties":{}},{"type":"Feature","geometry":{"type":"LineString","coordinates":[[11.69705,46.44241],[11.69706,46.44287],[11.6971,46.44309],[11.69761,46.44482],[11.69762,46.4451],[11.69729,46.44683],[11.69723,46.44735],[11.69731,46.44796],[11.69767,46.44905],[11.69792,46.45018],[11.69805,46.45053],[11.69851,46.45139],[11.6987,46.45159],[11.699,46.4518],[11.69921,46.45201],[11.69934,46.45221],[11.69935,46.45233],[11.69922,46.45299],[11.69923,46.4531],[11.69956,46.45483],[11.69969,46.45524],[11.69982,46.4554],[11.69992,46.45547],[11.70017,46.45558],[11.7006,46.45569],[11.70093,46.45592]]},"properties":{}},{"type":"Feature","geometry":{"type":"LineString","coordinates":[[11.70093,46.45592],[11.70107,46.45596]]},"properties":{}},{"type":"Feature","geometry":{"type":"LineString","coordinates":[[11.71499,46.46139],[11.71524,46.4615],[11.71614,46.46209]]},"properties":{}},{"type":"Feature","geometry":{"type":"LineString","coordinates":[[11.71791,46.46336],[11.719,46.46393],[11.71968,46.46414],[11.72097,46.4644],[11.72259,46.46465],[11.72321,46.4648],[11.72486,46.46568],[11.72522,46.46605],[11.72553,46.46625],[11.72648,46.46673],[11.7272,46.46693],[11.72784,46.46718],[11.72817,46.46739],[11.72838,46.46748]]},"properties":{}},{"type":"Feature","geometry":{"type":"LineString","coordinates":[[11.74459,46.4748],[11.74529,46.47557]]},"properties":{}},{"type":"Feature","geometry":{"type":"LineString","coordinates":[[11.74943,46.47805],[11.74772,46.47734],[11.74628,46.47667]]},"properties":{}},{"type":"Feature","geometry":{"type":"LineString","coordinates":[[11.75,46.499],[11.74936,46.49918],[11.74897,46.49939],[11.7485,46.49975]]},"properties":{}},{"type":"Feature","geometry":{"type":"LineString","coordinates":[[11.74861,46.49985],[11.74857,46.49992],[11.7486,46.5]]},"properties":{}}]}