{"type":"FeatureCollection","features":[{"type":"Feature","geometry":{"type":"LineString","coordinates":[[11.7443,43.00619],[11.74606,43.00337],[11.7476,43.00103],[11.74838,43.0]]},"properties":{}},{"type":"Feature","geometry":{"type":"LineString","coordinates":[[11.7443,43.00619],[11.74437,43.00633],[11.74456,43.00656]]},"properties":{}},{"type":"Feature","geometry":{"type":"LineString","coordinates":[[11.74408,43.00655],[11.7443,43.00649],[11.74456,43.00656]]},"properties":{}},{"type":"Feature","geometry":{"type":"LineString","coordinates":[[11.74359,43.00686],[11.744,43.00666]]},"properties":{}},{"type":"Feature","geometry":{"type":"LineString","coordinates":[[11.74359,43.00686],[11.74374,43.00688],[11.74382,43.00697]]},"properties":{}},{"type":"Feature","geometry":{"type":"LineString","coordinates":[[11.74456,43.00656],[11.74476,43.007],[11.74485,43.00712],[11.74499,43.00721],[11.74523,43.00727]]},"properties":{}},{"type":"Feature","geometry":{"type":"LineString","coordinates":[[11.74201,43.0073],[11.74359,43.00686]]},"properties":{}},{"type":"Feature","geometry":{"type":"LineString","coordinates":[[11.74337,43.00776],[11.74316,43.00767],[11.74259,43.00729]]},"properties":{}},{"type":"Feature","geometry":{"type":"LineString","coordinates":[[11.74523,43.00727],[11.7449,43.00741],[11.74481,43.00751],[11.74468,43.00776],[11.74457,43.00786],[11.7444,43.00792],[11.74409,43.00793]]},"properties":{}},{"type":"Feature","geometry":{"type":"LineString","coordinates":[[11.74368,43.00764],[11.74357,43.00776],[11.74337,43.00776]]},"properties":{}},{"type":"Feature","geometry":{"type":"LineString","coordinates":[[11.74409,43.00793],[11.74393,43.00791],[11.74379,43.00783],[11.74368,43.00764]]},"properties":{}},{"type":"Feature","geometry":{"type":"LineString","coordinates":[[11.74369,43.00792],[11.74337,43.00776]]},"properties":{}},{"type":"Feature","geometry":{"type":"LineString","coordinates":[[11.74409,43.00793],[11.74391,43.00796],[11.74369,43.00816]]},"properties":{}},{"type":"Feature","geometry":{"type":"LineString","coordinates":[[11.55644,43.23587],[11.55606,43.23584]]},"properties":{}},{"type":"Feature","geometry":{"type":"LineString","coordinates":[[11.55477,43.23873],[11.55493,43.23878]]},"properties":{}},{"type":"Feature","geometry":{"type":"LineString","coordinates":[[11.55493,43.23878],[11.55499,43.2389]]},"properties":{}},{"type":"Feature","geometry":{"type":"LineString","coordinates":[[11.55461,43.23897],[11.55457,43.23889],[11.55458,43.23884],[11.55466,43.23876],[11.55477,43.23873]]},"properties":{}},{"type":"Feature","geometry":{"type":"LineString","coordinates":[[11.55499,43.2389],[11.55492,43.239],[11.55479,43.23903]]},"properties":{}},{"type":"Feature","geometry":{"type":"LineString","coordinates":[[11.55479,43.23903],[11.55461,43.23897]]},"properties":{}},{"type":"Feature","geometry":{"type":"LineString","coordinates":[[11.6707,43.08263],[11.67103,43.08242]]},"properties":{}},{"type":"Feature","geometry":{"type":"LineString","coordinates":[[11.64585,43.1545],[11.6458,43.15465]]},"properties":{}},{"type":"Feature","geometry":{"type":"LineString","coordinates":[[11.6458,43.15465],[11.64582,43.15485],[11.64588,43.15501],[11.64616,43.15525],[11.64625,43.15538],[11.64659,43.15555],[11.64747,43.15577]]},"properties":{}}]}