{"type":"FeatureCollection","features":[{"type":"Feature","geometry":{"type":"LineString","coordinates":[[11.86893,43.4468],[11.86957,43.44686],[11.87055,43.44688],[11.87088,43.44699],[11.87097,43.44706],[11.87106,43.44722]]},"properties":{}},{"type":"Feature","geometry":{"type":"LineString","coordinates":[[11.87149,43.45078],[11.87165,43.45072],[11.87179,43.45075],[11.87235,43.45155],[11.87294,43.45214]]},"properties":{}},{"type":"Feature","geometry":{"type":"LineString","coordinates":[[11.88185,43.45198],[11.88188,43.45199],[11.88247,43.45123],[11.88245,43.4512]]},"properties":{}},{"type":"Feature","geometry":{"type":"LineString","coordinates":[[11.86761,43.45244],[11.86824,43.45219],[11.87013,43.45136],[11.87046,43.45127]]},"properties":{}},{"type":"Feature","geometry":{"type":"LineString","coordinates":[[11.88592,43.45284],[11.88584,43.45239],[11.88652,43.4517],[11.88665,43.45141],[11.88686,43.45115]]},"properties":{}},{"type":"Feature","geometry":{"type":"LineString","coordinates":[[11.8818,43.45205],[11.88185,43.45198]]},"properties":{}},{"type":"Feature","geometry":{"type":"LineString","coordinates":[[11.86733,43.4519],[11.86737,43.45198],[11.8673,43.45219],[11.8677,43.4525]]},"properties":{}},{"type":"Feature","geometry":{"type":"LineString","coordinates":[[11.8818,43.45205],[11.88179,43.45213],[11.88187,43.45229],[11.88202,43.45238]]},"properties":{}},{"type":"Feature","geometry":{"type":"LineString","coordinates":[[11.83876,43.25],[11.83891,43.25307],[11.83897,43.25504],[11.83925,43.25998],[11.83925,43.26053],[11.83932,43.2613],[11.83923,43.26141]]},"properties":{}},{"type":"Feature","geometry":{"type":"LineString","coordinates":[[11.81785,43.25027],[11.81801,43.25091],[11.81801,43.25111]]},"properties":{}},{"type":"Feature","geometry":{"type":"LineString","coordinates":[[11.81854,43.25766],[11.81856,43.25748],[11.81848,43.25726],[11.81766,43.25583],[11.81663,43.2547],[11.81601,43.25397]]},"properties":{}},{"type":"Feature","geometry":{"type":"LineString","coordinates":[[11.81856,43.25748],[11.81868,43.25764]]},"properties":{}},{"type":"Feature","geometry":{"type":"LineString","coordinates":[[11.81871,43.25764],[11.81884,43.25761],[11.81892,43.25754]]},"properties":{}},{"type":"Feature","geometry":{"type":"LineString","coordinates":[[11.81892,43.25754],[11.81884,43.25774]]},"properties":{}},{"type":"Feature","geometry":{"type":"LineString","coordinates":[[11.81878,43.25788],[11.81869,43.25791],[11.81857,43.25789],[11.81849,43.25783],[11.81848,43.25774],[11.81859,43.25765],[11.81877,43.25766],[11.81885,43.25777],[11.81878,43.25788]]},"properties":{}},{"type":"Feature","geometry":{"type":"LineString","coordinates":[[11.81882,43.25785],[11.8188,43.25795],[11.81885,43.25807]]},"properties":{}},{"type":"Feature","geometry":{"type":"LineString","coordinates":[[11.81885,43.25807],[11.81869,43.25791]]},"properties":{}},{"type":"Feature","geometry":{"type":"LineString","coordinates":[[11.88867,43.27073],[11.88849,43.27069],[11.88785,43.27044],[11.88613,43.26926],[11.88532,43.26879],[11.88501,43.26866],[11.87724,43.26618],[11.87707,43.26603],[11.87456,43.26523],[11.86232,43.26246],[11.86199,43.26235],[11.86124,43.2619],[11.85827,43.26002],[11.85732,43.25938],[11.85722,43.25941],[11.85604,43.25905],[11.85525,43.25896],[11.85481,43.25898],[11.85421,43.25904],[11.85357,43.2592],[11.85305,43.2594],[11.85285,43.25951],[11.85239,43.25981],[11.85161,43.26042],[11.85153,43.26045],[11.84988,43.25942],[11.84885,43.25894],[11.84841,43.25888],[11.84775,43.2589],[11.84568,43.25923],[11.84335,43.25967],[11.84216,43.25981],[11.84112,43.26001],[11.84067,43.26019],[11.84046,43.26033],[11.84027,43.26048],[11.84008,43.26072],[11.83998,43.26093],[11.84004,43.26142]]},"properties":{}},{"type":"Feature","geometry":{"type":"LineString","coordinates":[[11.82205,43.26573],[11.82223,43.2658]]},"properties":{}},{"type":"Feature","geometry":{"type":"LineString","coordinates":[[11.82214,43.26586],[11.82205,43.26573]]},"properties":{}},{"type":"Feature","geometry":{"type":"LineString","coordinates":[[11.82241,43.26583],[11.82271,43.2658]]},"properties":{}},{"type":"Feature","geometry":{"type":"LineString","coordinates":[[11.82271,43.2658],[11.82246,43.26592]]},"properties":{}},{"type":"Feature","geometry":{"type":"LineString","coordinates":[[11.82245,43.26588],[11.82244,43.26598],[11.8224,43.26601],[11.82228,43.26605],[11.82216,43.26601],[11.82211,43.26592],[11.82214,43.26586],[11.82223,43.2658],[11.82235,43.26581],[11.82245,43.26588]]},"properties":{}},{"type":"Feature","geometry":{"type":"LineString","coordinates":[[11.82218,43.26625],[11.8222,43.26603]]},"properties":{}},{"type":"Feature","geometry":{"type":"LineString","coordinates":[[11.82235,43.26604],[11.82218,43.26625]]},"properties":{}},{"type":"Feature","geometry":{"type":"LineString","coordinates":[[11.82632,43.28089],[11.82648,43.28105],[11.82667,43.28112]]},"properties":{}},{"type":"Feature","geometry":{"type":"LineString","coordinates":[[11.82667,43.28112],[11.82646,43.2812],[11.82636,43.28131]]},"properties":{}},{"type":"Feature","geometry":{"type":"LineString","coordinates":[[11.84004,43.26142],[11.84002,43.26161],[11.84017,43.26334],[11.84023,43.26516],[11.84041,43.2688],[11.84052,43.27047],[11.84062,43.27298],[11.84106,43.281],[11.84101,43.28111],[11.8411,43.28132],[11.84116,43.28304],[11.84122,43.28407],[11.84127,43.28444],[11.84148,43.28877],[11.84155,43.28944],[11.84174,43.29298],[11.84084,43.29798],[11.84071,43.29854],[11.83901,43.30808],[11.83769,43.31511],[11.83774,43.31516],[11.8378,43.31516],[11.83788,43.31513],[11.83855,43.31458],[11.83931,43.31408],[11.83938,43.31405],[11.8395,43.31412]]},"properties":{}},{"type":"Feature","geometry":{"type":"LineString","coordinates":[[11.8395,43.31412],[11.83974,43.31436]]},"properties":{}},{"type":"Feature","geometry":{"type":"LineString","coordinates":[[11.83974,43.31436],[11.83984,43.31444],[11.83916,43.31486],[11.8385,43.31544],[11.838,43.316],[11.83775,43.31643],[11.8374,43.31718],[11.83721,43.31774],[11.83685,43.31946],[11.83668,43.31995],[11.83644,43.32047]]},"properties":{}},{"type":"Feature","geometry":{"type":"LineString","coordinates":[[11.81181,43.32462],[11.81196,43.3245],[11.81206,43.32433]]},"properties":{}},{"type":"Feature","geometry":{"type":"LineString","coordinates":[[11.81206,43.32433],[11.81216,43.32462]]},"properties":{}},{"type":"Feature","geometry":{"type":"LineString","coordinates":[[11.81216,43.32462],[11.81227,43.32471],[11.81231,43.32481],[11.81224,43.32496],[11.81215,43.32502],[11.81198,43.32506],[11.8118,43.32502],[11.81167,43.3249],[11.81167,43.32475],[11.81181,43.32462],[11.81203,43.32459],[11.81216,43.32462]]},"properties":{}},{"type":"Feature","geometry":{"type":"LineString","coordinates":[[11.81209,43.32504],[11.81188,43.32533]]},"properties":{}},{"type":"Feature","geometry":{"type":"LineString","coordinates":[[11.83564,43.32025],[11.83547,43.32072],[11.83532,43.32104],[11.83277,43.3263],[11.83089,43.33163],[11.82809,43.33943],[11.82663,43.34359],[11.82652,43.34405],[11.82646,43.3445],[11.8264,43.34611],[11.82644,43.35201],[11.82639,43.35221],[11.82644,43.35252],[11.82646,43.35319],[11.8265,43.35353],[11.82668,43.35786],[11.82582,43.36817],[11.82433,43.37618],[11.82405,43.37791],[11.8237,43.37939],[11.82354,43.38035],[11.82328,43.38114],[11.82313,43.38239],[11.82196,43.38798]]},"properties":{}},{"type":"Feature","geometry":{"type":"LineString","coordinates":[[11.82196,43.38798],[11.82194,43.3881]]},"properties":{}},{"type":"Feature","geometry":{"type":"LineString","coordinates":[[11.92045,43.26554],[11.92026,43.26547],[11.91637,43.26449],[11.91544,43.26442],[11.91516,43.26444],[11.91462,43.26453],[11.91423,43.26467]]},"properties":{}},{"type":"Feature","geometry":{"type":"LineString","coordinates":[[11.88854,43.27101],[11.88884,43.27108],[11.88941,43.27112],[11.89151,43.27093],[11.89284,43.27061],[11.89355,43.27038],[11.905,43.26498],[11.90573,43.26472],[11.90647,43.26458],[11.90754,43.26451],[11.91186,43.26482],[11.91292,43.26485],[11.91423,43.26467]]},"properties":{}},{"type":"Feature","geometry":{"type":"LineString","coordinates":[[11.89474,43.45229],[11.89475,43.45242],[11.89456,43.45322],[11.89412,43.45475],[11.89416,43.45479]]},"properties":{}},{"type":"Feature","geometry":{"type":"LineString","coordinates":[[11.89574,43.45395],[11.89569,43.45393],[11.89505,43.45431],[11.89495,43.45432],[11.89486,43.45425]]},"properties":{}},{"type":"Feature","geometry":{"type":"LineString","coordinates":[[11.89486,43.45425],[11.89477,43.45431]]},"properties":{}},{"type":"Feature","geometry":{"type":"LineString","coordinates":[[11.89477,43.45431],[11.89483,43.4544],[11.89478,43.45445],[11.89416,43.45479]]},"properties":{}},{"type":"Feature","geometry":{"type":"LineString","coordinates":[[11.89416,43.45479],[11.89409,43.45483],[11.89415,43.45488]]},"properties":{}},{"type":"Feature","geometry":{"type":"LineString","coordinates":[[11.89415,43.45488],[11.89397,43.45499]]},"properties":{}},{"type":"Feature","geometry":{"type":"LineString","coordinates":[[11.89397,43.45499],[11.89455,43.45607],[11.89457,43.45617]]},"properties":{}},{"type":"Feature","geometry":{"type":"LineString","coordinates":[[11.89981,43.45677],[11.90048,43.45664],[11.90056,43.45653],[11.90108,43.45646],[11.9017,43.45646],[11.90216,43.45653],[11.90222,43.45663],[11.90332,43.45674],[11.9035,43.45662]]},"properties":{}},{"type":"Feature","geometry":{"type":"LineString","coordinates":[[11.82194,43.3881],[11.82088,43.39301],[11.82065,43.39426],[11.82002,43.39679],[11.81895,43.40138],[11.8188,43.4017],[11.81878,43.40211],[11.81861,43.40278],[11.81839,43.40314],[11.81837,43.40325],[11.81841,43.4037],[11.81789,43.40589]]},"properties":{}},{"type":"Feature","geometry":{"type":"LineString","coordinates":[[11.81789,43.40589],[11.81786,43.406]]},"properties":{}},{"type":"Feature","geometry":{"type":"LineString","coordinates":[[11.81786,43.406],[11.81668,43.41101]]},"properties":{}},{"type":"Feature","geometry":{"type":"LineString","coordinates":[[11.83237,43.42634],[11.83265,43.42638],[11.83286,43.42634]]},"properties":{}},{"type":"Feature","geometry":{"type":"LineString","coordinates":[[11.83314,43.42609],[11.83301,43.42631],[11.83299,43.42647],[11.83309,43.42663],[11.8334,43.42684]]},"properties":{}},{"type":"Feature","geometry":{"type":"LineString","coordinates":[[11.85849,43.45026],[11.85844,43.44999],[11.85837,43.44994],[11.85825,43.44992],[11.85737,43.45],[11.85634,43.45014],[11.85498,43.45047],[11.8549,43.45058]]},"properties":{}},{"type":"Feature","geometry":{"type":"LineString","coordinates":[[11.8585,43.45036],[11.85849,43.45026]]},"properties":{}},{"type":"Feature","geometry":{"type":"LineString","coordinates":[[11.85851,43.45039],[11.8585,43.45036]]},"properties":{}},{"type":"Feature","geometry":{"type":"LineString","coordinates":[[11.85869,43.45037],[11.85851,43.45039]]},"properties":{}},{"type":"Feature","geometry":{"type":"LineString","coordinates":[[11.85921,43.45125],[11.85883,43.45087],[11.85874,43.45067],[11.85869,43.45037]]},"properties":{}},{"type":"Feature","geometry":{"type":"LineString","coordinates":[[11.86652,43.4517],[11.86679,43.45178],[11.86714,43.45174]]},"properties":{}},{"type":"Feature","geometry":{"type":"LineString","coordinates":[[11.86714,43.45174],[11.86733,43.4519]]},"properties":{}},{"type":"Feature","geometry":{"type":"LineString","coordinates":[[11.86087,43.45264],[11.86081,43.45252],[11.85929,43.45127],[11.85921,43.45125]]},"properties":{}},{"type":"Feature","geometry":{"type":"LineString","coordinates":[[11.86096,43.45274],[11.86087,43.45264]]},"properties":{}},{"type":"Feature","geometry":{"type":"LineString","coordinates":[[11.86445,43.45281],[11.86509,43.45303],[11.86524,43.45304]]},"properties":{}},{"type":"Feature","geometry":{"type":"LineString","coordinates":[[11.86068,43.45414],[11.86066,43.45405],[11.86082,43.45359],[11.86094,43.45349],[11.86103,43.45307],[11.86103,43.45292],[11.86096,43.45274]]},"properties":{}},{"type":"Feature","geometry":{"type":"LineString","coordinates":[[11.86066,43.45421],[11.86068,43.45414]]},"properties":{}},{"type":"Feature","geometry":{"type":"LineString","coordinates":[[11.86674,43.45442],[11.86683,43.45448]]},"properties":{}},{"type":"Feature","geometry":{"type":"LineString","coordinates":[[11.86683,43.45448],[11.86693,43.45447],[11.86756,43.45495]]},"properties":{}},{"type":"Feature","geometry":{"type":"LineString","coordinates":[[11.86585,43.45519],[11.86666,43.45441],[11.86674,43.45442]]},"properties":{}},{"type":"Feature","geometry":{"type":"LineString","coordinates":[[11.87392,43.45238],[11.87395,43.45241],[11.87396,43.45263],[11.87455,43.45313],[11.87449,43.45324]]},"properties":{}},{"type":"Feature","geometry":{"type":"LineString","coordinates":[[11.88592,43.45284],[11.886,43.4536],[11.88597,43.45362],[11.88535,43.45351],[11.88531,43.45347],[11.8849,43.45342],[11.88439,43.45327],[11.88378,43.45305],[11.88209,43.45236],[11.88202,43.45238]]},"properties":{}},{"type":"Feature","geometry":{"type":"LineString","coordinates":[[11.88624,43.45402],[11.88621,43.45396],[11.88526,43.45383],[11.88453,43.45356],[11.88424,43.45341],[11.88297,43.45288]]},"properties":{}},{"type":"Feature","geometry":{"type":"LineString","coordinates":[[11.88621,43.45371],[11.88619,43.45353]]},"properties":{}},{"type":"Feature","geometry":{"type":"LineString","coordinates":[[11.88623,43.45387],[11.88621,43.45371]]},"properties":{}},{"type":"Feature","geometry":{"type":"LineString","coordinates":[[11.88624,43.45399],[11.88623,43.45387]]},"properties":{}},{"type":"Feature","geometry":{"type":"LineString","coordinates":[[11.88628,43.45397],[11.88628,43.45402],[11.88624,43.45402],[11.88624,43.45399]]},"properties":{}},{"type":"Feature","geometry":{"type":"LineString","coordinates":[[11.88951,43.45386],[11.88944,43.454],[11.88928,43.45407],[11.88923,43.45426]]},"properties":{}},{"type":"Feature","geometry":{"type":"LineString","coordinates":[[11.88927,43.45447],[11.8893,43.45432],[11.88919,43.45424],[11.88628,43.45397]]},"properties":{}},{"type":"Feature","geometry":{"type":"LineString","coordinates":[[11.87958,43.45532],[11.87913,43.45373],[11.87909,43.45356],[11.87916,43.45322],[11.87909,43.45321]]},"properties":{}},{"type":"Feature","geometry":{"type":"LineString","coordinates":[[11.87638,43.45445],[11.87646,43.45444],[11.87651,43.45436]]},"properties":{}},{"type":"Feature","geometry":{"type":"LineString","coordinates":[[11.88994,43.45439],[11.88982,43.45444],[11.88972,43.45453],[11.88927,43.45447]]},"properties":{}},{"type":"Feature","geometry":{"type":"LineString","coordinates":[[11.88582,43.45494],[11.88579,43.45476],[11.88595,43.45457],[11.88596,43.45451],[11.88594,43.454]]},"properties":{}},{"type":"Feature","geometry":{"type":"LineString","coordinates":[[11.87942,43.45538],[11.87893,43.4536]]},"properties":{}},{"type":"Feature","geometry":{"type":"LineString","coordinates":[[11.86768,43.45487],[11.86756,43.45478],[11.86752,43.45466],[11.86769,43.45448],[11.86764,43.45444]]},"properties":{}},{"type":"Feature","geometry":{"type":"LineString","coordinates":[[11.87564,43.4553],[11.87638,43.45445]]},"properties":{}},{"type":"Feature","geometry":{"type":"LineString","coordinates":[[11.86756,43.45495],[11.86768,43.45487]]},"properties":{}},{"type":"Feature","geometry":{"type":"LineString","coordinates":[[11.89409,43.45483],[11.89398,43.45483],[11.89331,43.45522]]},"properties":{}},{"type":"Feature","geometry":{"type":"LineString","coordinates":[[11.88927,43.45447],[11.88899,43.45557]]},"properties":{}},{"type":"Feature","geometry":{"type":"LineString","coordinates":[[11.89213,43.45595],[11.89069,43.45469],[11.89034,43.4545],[11.88994,43.45439]]},"properties":{}},{"type":"Feature","geometry":{"type":"LineString","coordinates":[[11.76795,43.40955],[11.76834,43.40948],[11.76859,43.40935]]},"properties":{}},{"type":"Feature","geometry":{"type":"LineString","coordinates":[[11.76913,43.40965],[11.76891,43.40972],[11.76871,43.40968],[11.76859,43.40959],[11.76856,43.40951],[11.76859,43.40935],[11.76866,43.40929],[11.76885,43.40922],[11.76896,43.40922],[11.76913,43.40928],[11.76919,43.40934],[11.76924,43.40947],[11.7692,43.40959],[11.76913,43.40965]]},"properties":{}},{"type":"Feature","geometry":{"type":"LineString","coordinates":[[11.76923,43.4094],[11.76955,43.40955]]},"properties":{}},{"type":"Feature","geometry":{"type":"LineString","coordinates":[[11.81188,43.32533],[11.81187,43.32516],[11.8118,43.32502]]},"properties":{}},{"type":"Feature","geometry":{"type":"LineString","coordinates":[[11.79165,43.40627],[11.78213,43.40143]]},"properties":{}},{"type":"Feature","geometry":{"type":"LineString","coordinates":[[11.79613,43.40461],[11.79159,43.40629]]},"properties":{}},{"type":"Feature","geometry":{"type":"LineString","coordinates":[[11.79613,43.40636],[11.79697,43.40618]]},"properties":{}},{"type":"Feature","geometry":{"type":"LineString","coordinates":[[11.79774,43.40959],[11.79783,43.40956],[11.798,43.40955]]},"properties":{}},{"type":"Feature","geometry":{"type":"LineString","coordinates":[[11.79925,43.48248],[11.79907,43.48255],[11.79909,43.4826],[11.79942,43.48269]]},"properties":{}},{"type":"Feature","geometry":{"type":"LineString","coordinates":[[11.79942,43.48269],[11.79987,43.48279]]},"properties":{}},{"type":"Feature","geometry":{"type":"LineString","coordinates":[[11.79987,43.48279],[11.80003,43.48296],[11.80008,43.48298],[11.80032,43.48291]]},"properties":{}},{"type":"Feature","geometry":{"type":"LineString","coordinates":[[11.76859,43.40959],[11.76795,43.40955]]},"properties":{}},{"type":"Feature","geometry":{"type":"LineString","coordinates":[[11.76955,43.40955],[11.7692,43.40959]]},"properties":{}},{"type":"Feature","geometry":{"type":"LineString","coordinates":[[11.89331,43.45522],[11.89323,43.45526]]},"properties":{}},{"type":"Feature","geometry":{"type":"LineString","coordinates":[[11.87544,43.45549],[11.87564,43.4553]]},"properties":{}},{"type":"Feature","geometry":{"type":"LineString","coordinates":[[11.87366,43.45525],[11.87395,43.45544],[11.87424,43.45559]]},"properties":{}},{"type":"Feature","geometry":{"type":"LineString","coordinates":[[11.87651,43.45436],[11.87692,43.45445],[11.87707,43.45452],[11.87719,43.45463],[11.87772,43.45612],[11.87774,43.4565]]},"properties":{}},{"type":"Feature","geometry":{"type":"LineString","coordinates":[[11.88065,43.4556],[11.88068,43.45546],[11.88065,43.45543],[11.87958,43.45532]]},"properties":{}},{"type":"Feature","geometry":{"type":"LineString","coordinates":[[11.87424,43.45559],[11.87434,43.45562],[11.87468,43.45562],[11.87544,43.45549]]},"properties":{}},{"type":"Feature","geometry":{"type":"LineString","coordinates":[[11.89323,43.45526],[11.89244,43.45572],[11.89224,43.45577],[11.89206,43.45588]]},"properties":{}},{"type":"Feature","geometry":{"type":"LineString","coordinates":[[11.87953,43.45578],[11.87942,43.45538]]},"properties":{}},{"type":"Feature","geometry":{"type":"LineString","coordinates":[[11.88085,43.45637],[11.88061,43.45635],[11.88065,43.45605],[11.88054,43.45598],[11.88065,43.4556]]},"properties":{}},{"type":"Feature","geometry":{"type":"LineString","coordinates":[[11.89225,43.45606],[11.89213,43.45595]]},"properties":{}},{"type":"Feature","geometry":{"type":"LineString","coordinates":[[11.86523,43.45537],[11.86585,43.45519]]},"properties":{}},{"type":"Feature","geometry":{"type":"LineString","coordinates":[[11.86426,43.45614],[11.86422,43.45608],[11.86483,43.45538],[11.86503,43.45542],[11.86523,43.45537]]},"properties":{}},{"type":"Feature","geometry":{"type":"LineString","coordinates":[[11.86436,43.45619],[11.86426,43.45614]]},"properties":{}},{"type":"Feature","geometry":{"type":"LineString","coordinates":[[11.85925,43.45855],[11.85922,43.4585],[11.8593,43.45814],[11.86018,43.45563],[11.86017,43.45552],[11.86059,43.45428],[11.86066,43.45421]]},"properties":{}},{"type":"Feature","geometry":{"type":"LineString","coordinates":[[11.8632,43.45808],[11.86349,43.45779],[11.86342,43.45755],[11.86326,43.45746],[11.86383,43.45682],[11.8639,43.45681],[11.86397,43.45672],[11.86396,43.45665],[11.86436,43.45619]]},"properties":{}},{"type":"Feature","geometry":{"type":"LineString","coordinates":[[11.85532,43.45849],[11.85528,43.45826]]},"properties":{}},{"type":"Feature","geometry":{"type":"LineString","coordinates":[[11.85533,43.45854],[11.85532,43.45849]]},"properties":{}},{"type":"Feature","geometry":{"type":"LineString","coordinates":[[11.86321,43.45898],[11.8633,43.45887],[11.86332,43.45878],[11.86359,43.45847],[11.86362,43.45837],[11.86356,43.45828],[11.86319,43.4581],[11.8632,43.45808]]},"properties":{}},{"type":"Feature","geometry":{"type":"LineString","coordinates":[[11.85925,43.45855],[11.8594,43.45875],[11.85964,43.45884]]},"properties":{}},{"type":"Feature","geometry":{"type":"LineString","coordinates":[[11.85542,43.45898],[11.85533,43.45854]]},"properties":{}},{"type":"Feature","geometry":{"type":"LineString","coordinates":[[11.87424,43.45559],[11.87423,43.45561],[11.87431,43.45571],[11.87431,43.45581],[11.87395,43.45618],[11.8739,43.45626],[11.87385,43.4568]]},"properties":{}},{"type":"Feature","geometry":{"type":"LineString","coordinates":[[11.88075,43.45626],[11.88001,43.4562],[11.87993,43.45622]]},"properties":{}},{"type":"Feature","geometry":{"type":"LineString","coordinates":[[11.88899,43.45557],[11.88898,43.45562],[11.8891,43.45566],[11.88903,43.45587],[11.88887,43.45612],[11.88856,43.45646],[11.88817,43.45675],[11.88694,43.45752]]},"properties":{}},{"type":"Feature","geometry":{"type":"LineString","coordinates":[[11.8936,43.45767],[11.89354,43.45743],[11.89225,43.45606]]},"properties":{}},{"type":"Feature","geometry":{"type":"LineString","coordinates":[[11.88055,43.45767],[11.88069,43.45708],[11.88073,43.45706],[11.88075,43.45697],[11.88072,43.45692],[11.88085,43.45637]]},"properties":{}},{"type":"Feature","geometry":{"type":"LineString","coordinates":[[11.88694,43.45752],[11.88685,43.45745],[11.88683,43.45746]]},"properties":{}},{"type":"Feature","geometry":{"type":"LineString","coordinates":[[11.88683,43.45746],[11.88667,43.45757]]},"properties":{}},{"type":"Feature","geometry":{"type":"LineString","coordinates":[[11.87888,43.45767],[11.87845,43.45764]]},"properties":{}},{"type":"Feature","geometry":{"type":"LineString","coordinates":[[11.88031,43.45766],[11.88055,43.45767]]},"properties":{}},{"type":"Feature","geometry":{"type":"LineString","coordinates":[[11.88667,43.45757],[11.88667,43.45769],[11.8865,43.45782]]},"properties":{}},{"type":"Feature","geometry":{"type":"LineString","coordinates":[[11.87957,43.45774],[11.87888,43.45767]]},"properties":{}},{"type":"Feature","geometry":{"type":"LineString","coordinates":[[11.88028,43.45777],[11.88031,43.45766]]},"properties":{}},{"type":"Feature","geometry":{"type":"LineString","coordinates":[[11.87999,43.45778],[11.87957,43.45774]]},"properties":{}},{"type":"Feature","geometry":{"type":"LineString","coordinates":[[11.88034,43.45781],[11.87999,43.45778]]},"properties":{}},{"type":"Feature","geometry":{"type":"LineString","coordinates":[[11.88026,43.45783],[11.88028,43.45777]]},"properties":{}},{"type":"Feature","geometry":{"type":"LineString","coordinates":[[11.88024,43.45794],[11.88026,43.45783]]},"properties":{}},{"type":"Feature","geometry":{"type":"LineString","coordinates":[[11.89367,43.45829],[11.8937,43.45823],[11.89366,43.45814],[11.8934,43.45786],[11.89339,43.45781],[11.89345,43.45774],[11.89369,43.4576],[11.89374,43.4575]]},"properties":{}},{"type":"Feature","geometry":{"type":"LineString","coordinates":[[11.88042,43.45796],[11.88024,43.45794]]},"properties":{}},{"type":"Feature","geometry":{"type":"LineString","coordinates":[[11.88021,43.45855],[11.88034,43.45781]]},"properties":{}},{"type":"Feature","geometry":{"type":"LineString","coordinates":[[11.88042,43.45796],[11.88046,43.4579],[11.88056,43.45788],[11.88164,43.45801],[11.88176,43.45805],[11.8818,43.45813],[11.88164,43.45901]]},"properties":{}},{"type":"Feature","geometry":{"type":"LineString","coordinates":[[11.86107,43.45949],[11.86094,43.45954],[11.8609,43.45952],[11.86059,43.45922],[11.85937,43.45894],[11.85904,43.45901],[11.85893,43.4591],[11.85888,43.45923],[11.85869,43.45917],[11.85875,43.45905],[11.85874,43.45899],[11.8586,43.45881],[11.85582,43.45827],[11.85553,43.45825],[11.85528,43.45826],[11.85488,43.45833],[11.85329,43.45895]]},"properties":{}},{"type":"Feature","geometry":{"type":"LineString","coordinates":[[11.86198,43.45893],[11.86217,43.45882],[11.8623,43.45882],[11.86269,43.45896],[11.86314,43.45896],[11.86321,43.45898]]},"properties":{}},{"type":"Feature","geometry":{"type":"LineString","coordinates":[[11.85957,43.45899],[11.85964,43.45884]]},"properties":{}},{"type":"Feature","geometry":{"type":"LineString","coordinates":[[11.86456,43.4589],[11.86453,43.45885],[11.86428,43.45893],[11.86406,43.45895],[11.86322,43.459]]},"properties":{}},{"type":"Feature","geometry":{"type":"LineString","coordinates":[[11.86456,43.4589],[11.86463,43.45898]]},"properties":{}},{"type":"Feature","geometry":{"type":"LineString","coordinates":[[11.86186,43.45902],[11.86198,43.45893]]},"properties":{}},{"type":"Feature","geometry":{"type":"LineString","coordinates":[[11.85543,43.45903],[11.85542,43.45898]]},"properties":{}},{"type":"Feature","geometry":{"type":"LineString","coordinates":[[11.86321,43.45898],[11.86322,43.45905]]},"properties":{}},{"type":"Feature","geometry":{"type":"LineString","coordinates":[[11.85869,43.45924],[11.85865,43.45922],[11.85869,43.45917]]},"properties":{}},{"type":"Feature","geometry":{"type":"LineString","coordinates":[[11.86121,43.45943],[11.86127,43.45938],[11.8613,43.45922],[11.86135,43.45915],[11.86145,43.45909],[11.86186,43.45902]]},"properties":{}},{"type":"Feature","geometry":{"type":"LineString","coordinates":[[11.88254,43.45855],[11.8819,43.4585],[11.88185,43.45854],[11.88173,43.45853]]},"properties":{}},{"type":"Feature","geometry":{"type":"LineString","coordinates":[[11.87999,43.45885],[11.88021,43.45855]]},"properties":{}},{"type":"Feature","geometry":{"type":"LineString","coordinates":[[11.88038,43.45881],[11.88016,43.4588],[11.87999,43.45885]]},"properties":{}},{"type":"Feature","geometry":{"type":"LineString","coordinates":[[11.88164,43.45901],[11.88159,43.45907],[11.88146,43.45909],[11.88104,43.45899]]},"properties":{}},{"type":"Feature","geometry":{"type":"LineString","coordinates":[[11.88901,43.46003],[11.88967,43.45971],[11.89085,43.45937],[11.89267,43.45862],[11.89367,43.45829]]},"properties":{}},{"type":"Feature","geometry":{"type":"LineString","coordinates":[[11.88104,43.45899],[11.88085,43.45935]]},"properties":{}},{"type":"Feature","geometry":{"type":"LineString","coordinates":[[11.88085,43.45935],[11.88056,43.45974]]},"properties":{}},{"type":"Feature","geometry":{"type":"LineString","coordinates":[[11.88174,43.45968],[11.88162,43.45958],[11.88161,43.4595],[11.88168,43.45945],[11.88178,43.45944],[11.88188,43.45947],[11.88193,43.45953],[11.88192,43.45963],[11.88188,43.45971]]},"properties":{}},{"type":"Feature","geometry":{"type":"LineString","coordinates":[[11.88056,43.45974],[11.87995,43.45963],[11.87967,43.45965]]},"properties":{}},{"type":"Feature","geometry":{"type":"LineString","coordinates":[[11.88062,43.45967],[11.88171,43.45992],[11.88267,43.46006],[11.88269,43.46011],[11.88266,43.46016]]},"properties":{}},{"type":"Feature","geometry":{"type":"LineString","coordinates":[[11.85554,43.45969],[11.85543,43.45903]]},"properties":{}},{"type":"Feature","geometry":{"type":"LineString","coordinates":[[11.86463,43.45898],[11.8644,43.45909],[11.86439,43.45916],[11.86477,43.45989]]},"properties":{}},{"type":"Feature","geometry":{"type":"LineString","coordinates":[[11.86107,43.45949],[11.86121,43.45943]]},"properties":{}},{"type":"Feature","geometry":{"type":"LineString","coordinates":[[11.85888,43.45923],[11.85872,43.45974],[11.8586,43.45989]]},"properties":{}},{"type":"Feature","geometry":{"type":"LineString","coordinates":[[11.85555,43.45976],[11.85554,43.45969]]},"properties":{}},{"type":"Feature","geometry":{"type":"LineString","coordinates":[[11.8586,43.45989],[11.85848,43.45982]]},"properties":{}},{"type":"Feature","geometry":{"type":"LineString","coordinates":[[11.86463,43.45989],[11.86471,43.45992],[11.86498,43.45991]]},"properties":{}},{"type":"Feature","geometry":{"type":"LineString","coordinates":[[11.85329,43.45895],[11.85235,43.45932],[11.85193,43.45957],[11.85173,43.45974],[11.85155,43.45996],[11.85144,43.46015],[11.8513,43.46065],[11.85125,43.46069],[11.85109,43.46072],[11.85106,43.46086],[11.85092,43.46089]]},"properties":{}},{"type":"Feature","geometry":{"type":"LineString","coordinates":[[11.85562,43.46015],[11.85555,43.45976]]},"properties":{}},{"type":"Feature","geometry":{"type":"LineString","coordinates":[[11.85848,43.45982],[11.85835,43.45993],[11.85819,43.46001],[11.85789,43.46009],[11.85777,43.46017],[11.85774,43.46023]]},"properties":{}},{"type":"Feature","geometry":{"type":"LineString","coordinates":[[11.87967,43.45965],[11.87885,43.46021]]},"properties":{}},{"type":"Feature","geometry":{"type":"LineString","coordinates":[[11.88266,43.46016],[11.88262,43.46022],[11.88273,43.46031],[11.88302,43.4603],[11.88536,43.46081],[11.88552,43.46047],[11.88559,43.46044],[11.88617,43.46051],[11.88621,43.4606],[11.88698,43.46069]]},"properties":{}},{"type":"Feature","geometry":{"type":"LineString","coordinates":[[11.87885,43.46021],[11.87824,43.46063],[11.87815,43.46062],[11.87798,43.46073],[11.87788,43.4607],[11.87776,43.46077]]},"properties":{}},{"type":"Feature","geometry":{"type":"LineString","coordinates":[[11.88705,43.4608],[11.88671,43.46028]]},"properties":{}},{"type":"Feature","geometry":{"type":"LineString","coordinates":[[11.88671,43.46028],[11.88679,43.46028],[11.88696,43.46045],[11.88706,43.46068],[11.88705,43.4608]]},"properties":{}},{"type":"Feature","geometry":{"type":"LineString","coordinates":[[11.89373,43.46049],[11.89361,43.46068]]},"properties":{}},{"type":"Feature","geometry":{"type":"LineString","coordinates":[[11.89361,43.46068],[11.89349,43.46054]]},"properties":{}},{"type":"Feature","geometry":{"type":"LineString","coordinates":[[11.87763,43.46067],[11.87608,43.46158]]},"properties":{}},{"type":"Feature","geometry":{"type":"LineString","coordinates":[[11.87654,43.46151],[11.87663,43.46145],[11.87662,43.46137],[11.87667,43.46133],[11.87756,43.46082],[11.87766,43.46083],[11.87776,43.46077]]},"properties":{}},{"type":"Feature","geometry":{"type":"LineString","coordinates":[[11.87467,43.46099],[11.87412,43.46134]]},"properties":{}},{"type":"Feature","geometry":{"type":"LineString","coordinates":[[11.82492,43.46069],[11.82391,43.46044],[11.82304,43.46011],[11.82275,43.46007],[11.82237,43.46009]]},"properties":{}},{"type":"Feature","geometry":{"type":"LineString","coordinates":[[11.85774,43.46023],[11.85698,43.46024],[11.85623,43.46048],[11.85579,43.46052],[11.85534,43.46062],[11.855,43.46065],[11.85495,43.46069]]},"properties":{}},{"type":"Feature","geometry":{"type":"LineString","coordinates":[[11.82188,43.46025],[11.82177,43.46037],[11.82181,43.46045],[11.82198,43.46049],[11.82214,43.46061],[11.82234,43.46069]]},"properties":{}},{"type":"Feature","geometry":{"type":"LineString","coordinates":[[11.86484,43.46005],[11.86487,43.4602],[11.86508,43.46061],[11.86546,43.46109]]},"properties":{}},{"type":"Feature","geometry":{"type":"LineString","coordinates":[[11.82505,43.46049],[11.82496,43.46057],[11.82492,43.46069]]},"properties":{}},{"type":"Feature","geometry":{"type":"LineString","coordinates":[[11.82234,43.46069],[11.8223,43.46076],[11.82232,43.46085]]},"properties":{}},{"type":"Feature","geometry":{"type":"LineString","coordinates":[[11.85755,43.46144],[11.85756,43.4614],[11.85767,43.46134],[11.85766,43.46118],[11.85773,43.46101],[11.85773,43.46098],[11.85758,43.46091],[11.85768,43.46083],[11.85776,43.4606],[11.85758,43.46048],[11.85766,43.46024]]},"properties":{}},{"type":"Feature","geometry":{"type":"LineString","coordinates":[[11.83245,43.46141],[11.83054,43.46122],[11.83036,43.46113],[11.83021,43.46112],[11.83001,43.46117],[11.82989,43.46116],[11.82978,43.46109],[11.82948,43.46106],[11.82932,43.46109],[11.82795,43.46097],[11.82787,43.46092],[11.82715,43.46084],[11.82705,43.46076],[11.82671,43.46071],[11.82664,43.46076],[11.82584,43.46067],[11.82528,43.46058],[11.82505,43.46049]]},"properties":{}},{"type":"Feature","geometry":{"type":"LineString","coordinates":[[11.82232,43.46085],[11.82232,43.46091],[11.82211,43.46106],[11.82204,43.46118],[11.82203,43.46126],[11.822,43.46127]]},"properties":{}},{"type":"Feature","geometry":{"type":"LineString","coordinates":[[11.85084,43.46102],[11.85086,43.46114],[11.85082,43.46129]]},"properties":{}},{"type":"Feature","geometry":{"type":"LineString","coordinates":[[11.88706,43.46162],[11.88705,43.4608]]},"properties":{}},{"type":"Feature","geometry":{"type":"LineString","coordinates":[[11.87966,43.46223],[11.88282,43.46023]]},"properties":{}},{"type":"Feature","geometry":{"type":"LineString","coordinates":[[11.87626,43.46141],[11.87598,43.46117]]},"properties":{}},{"type":"Feature","geometry":{"type":"LineString","coordinates":[[11.88273,43.46031],[11.8797,43.46227]]},"properties":{}},{"type":"Feature","geometry":{"type":"LineString","coordinates":[[11.874,43.46131],[11.8741,43.46136],[11.87412,43.46134]]},"properties":{}},{"type":"Feature","geometry":{"type":"LineString","coordinates":[[11.874,43.46131],[11.87326,43.46122],[11.87321,43.46123],[11.87304,43.46181]]},"properties":{}},{"type":"Feature","geometry":{"type":"LineString","coordinates":[[11.89058,43.46206],[11.89059,43.46197],[11.89029,43.46108]]},"properties":{}},{"type":"Feature","geometry":{"type":"LineString","coordinates":[[11.87306,43.46181],[11.87306,43.46185],[11.87301,43.46184],[11.87306,43.46181]]},"properties":{}},{"type":"Feature","geometry":{"type":"LineString","coordinates":[[11.87305,43.46185],[11.87317,43.46196]]},"properties":{}},{"type":"Feature","geometry":{"type":"LineString","coordinates":[[11.87301,43.46184],[11.87281,43.46197],[11.8708,43.46207],[11.87067,43.46218]]},"properties":{}},{"type":"Feature","geometry":{"type":"LineString","coordinates":[[11.822,43.46127],[11.82184,43.46132]]},"properties":{}},{"type":"Feature","geometry":{"type":"LineString","coordinates":[[11.85082,43.46129],[11.85079,43.4614]]},"properties":{}},{"type":"Feature","geometry":{"type":"LineString","coordinates":[[11.86546,43.46109],[11.86566,43.4612],[11.86569,43.46134],[11.86562,43.46145],[11.86538,43.46151],[11.86528,43.46165],[11.86512,43.46181],[11.86512,43.46193]]},"properties":{}},{"type":"Feature","geometry":{"type":"LineString","coordinates":[[11.83611,43.46155],[11.83589,43.46153]]},"properties":{}},{"type":"Feature","geometry":{"type":"LineString","coordinates":[[11.83589,43.46153],[11.83576,43.46166],[11.83563,43.46169],[11.83245,43.46141]]},"properties":{}},{"type":"Feature","geometry":{"type":"LineString","coordinates":[[11.85079,43.4614],[11.85072,43.46154],[11.85067,43.46157],[11.84931,43.46188]]},"properties":{}},{"type":"Feature","geometry":{"type":"LineString","coordinates":[[11.86505,43.46175],[11.865,43.46188],[11.86499,43.46202]]},"properties":{}},{"type":"Feature","geometry":{"type":"LineString","coordinates":[[11.86499,43.46202],[11.86489,43.46191],[11.86472,43.46183]]},"properties":{}},{"type":"Feature","geometry":{"type":"LineString","coordinates":[[11.84894,43.46198],[11.84931,43.46188]]},"properties":{}},{"type":"Feature","geometry":{"type":"LineString","coordinates":[[11.84931,43.46188],[11.84918,43.46196],[11.84894,43.46198]]},"properties":{}},{"type":"Feature","geometry":{"type":"LineString","coordinates":[[11.88893,43.46242],[11.8877,43.4621],[11.88738,43.46193],[11.88711,43.46171],[11.88706,43.46162]]},"properties":{}},{"type":"Feature","geometry":{"type":"LineString","coordinates":[[11.87407,43.46281],[11.87446,43.46258],[11.87492,43.46254],[11.87623,43.46181]]},"properties":{}},{"type":"Feature","geometry":{"type":"LineString","coordinates":[[11.87067,43.46218],[11.87058,43.46228],[11.87074,43.46266]]},"properties":{}},{"type":"Feature","geometry":{"type":"LineString","coordinates":[[11.87046,43.46368],[11.87398,43.46141]]},"properties":{}},{"type":"Feature","geometry":{"type":"LineString","coordinates":[[11.8797,43.46227],[11.87873,43.46289]]},"properties":{}},{"type":"Feature","geometry":{"type":"LineString","coordinates":[[11.87399,43.4629],[11.87407,43.46281]]},"properties":{}},{"type":"Feature","geometry":{"type":"LineString","coordinates":[[11.8786,43.46298],[11.87873,43.46289]]},"properties":{}},{"type":"Feature","geometry":{"type":"LineString","coordinates":[[11.8936,43.46243],[11.89369,43.46245],[11.89304,43.46351],[11.89309,43.46377],[11.89307,43.46378]]},"properties":{}},{"type":"Feature","geometry":{"type":"LineString","coordinates":[[11.87787,43.46345],[11.87813,43.46327],[11.87822,43.46327],[11.87834,43.46319],[11.87834,43.46313],[11.8786,43.46298]]},"properties":{}},{"type":"Feature","geometry":{"type":"LineString","coordinates":[[11.87074,43.46266],[11.87072,43.46277],[11.87077,43.46293],[11.87074,43.46298],[11.86752,43.46385]]},"properties":{}},{"type":"Feature","geometry":{"type":"LineString","coordinates":[[11.84706,43.46279],[11.84208,43.46234],[11.83903,43.46199],[11.8389,43.46201],[11.83637,43.46177],[11.83617,43.4617],[11.83611,43.46155]]},"properties":{}},{"type":"Feature","geometry":{"type":"LineString","coordinates":[[11.85963,43.46319],[11.85964,43.46241],[11.85958,43.46227],[11.85755,43.46144]]},"properties":{}},{"type":"Feature","geometry":{"type":"LineString","coordinates":[[11.84894,43.46198],[11.84723,43.46264],[11.84706,43.46279]]},"properties":{}},{"type":"Feature","geometry":{"type":"LineString","coordinates":[[11.86499,43.46202],[11.86565,43.46369]]},"properties":{}},{"type":"Feature","geometry":{"type":"LineString","coordinates":[[11.86349,43.46312],[11.86533,43.4627]]},"properties":{}},{"type":"Feature","geometry":{"type":"LineString","coordinates":[[11.86512,43.46193],[11.86505,43.462],[11.8657,43.4636],[11.86579,43.46363],[11.86588,43.46362],[11.86698,43.46341],[11.86722,43.46344],[11.86731,43.46351],[11.86792,43.46449]]},"properties":{}},{"type":"Feature","geometry":{"type":"LineString","coordinates":[[11.85032,43.46384],[11.8503,43.46384],[11.85027,43.46359],[11.85022,43.46351],[11.84998,43.46332],[11.84968,43.46323],[11.84924,43.4632],[11.84891,43.46309]]},"properties":{}},{"type":"Feature","geometry":{"type":"LineString","coordinates":[[11.85963,43.46319],[11.85954,43.46335],[11.85955,43.46353],[11.85961,43.46374]]},"properties":{}},{"type":"Feature","geometry":{"type":"LineString","coordinates":[[11.82082,43.46066],[11.82124,43.46077],[11.82163,43.46118],[11.82184,43.46132],[11.82228,43.46208],[11.82236,43.46232],[11.82248,43.46244],[11.82378,43.4649],[11.82455,43.46624],[11.82469,43.46629]]},"properties":{}},{"type":"Feature","geometry":{"type":"LineString","coordinates":[[11.85052,43.46359],[11.85027,43.46359]]},"properties":{}},{"type":"Feature","geometry":{"type":"LineString","coordinates":[[11.87612,43.46357],[11.87605,43.46375],[11.87599,43.46381],[11.87483,43.46418]]},"properties":{}},{"type":"Feature","geometry":{"type":"LineString","coordinates":[[11.87495,43.4649],[11.87453,43.46493],[11.87445,43.46425],[11.87398,43.46323],[11.87394,43.46306],[11.87399,43.4629]]},"properties":{}},{"type":"Feature","geometry":{"type":"LineString","coordinates":[[11.86896,43.46436],[11.87046,43.46368]]},"properties":{}},{"type":"Feature","geometry":{"type":"LineString","coordinates":[[11.86996,43.46418],[11.86975,43.46416],[11.86948,43.46428]]},"properties":{}},{"type":"Feature","geometry":{"type":"LineString","coordinates":[[11.87023,43.46443],[11.86996,43.46418]]},"properties":{}},{"type":"Feature","geometry":{"type":"LineString","coordinates":[[11.86948,43.46428],[11.86944,43.46434]]},"properties":{}},{"type":"Feature","geometry":{"type":"LineString","coordinates":[[11.86967,43.4643],[11.86993,43.46452]]},"properties":{}},{"type":"Feature","geometry":{"type":"LineString","coordinates":[[11.86775,43.46451],[11.86896,43.46436]]},"properties":{}},{"type":"Feature","geometry":{"type":"LineString","coordinates":[[11.87038,43.46472],[11.87033,43.46452],[11.87023,43.46443]]},"properties":{}},{"type":"Feature","geometry":{"type":"LineString","coordinates":[[11.8702,43.46485],[11.86993,43.46452]]},"properties":{}},{"type":"Feature","geometry":{"type":"LineString","coordinates":[[11.85043,43.46384],[11.85046,43.46384],[11.85052,43.46359],[11.85071,43.46342],[11.85091,43.46336],[11.85138,43.46339],[11.85177,43.46335]]},"properties":{}},{"type":"Feature","geometry":{"type":"LineString","coordinates":[[11.86775,43.46451],[11.86751,43.4641],[11.86713,43.46351],[11.86707,43.46347],[11.86565,43.46369]]},"properties":{}},{"type":"Feature","geometry":{"type":"LineString","coordinates":[[11.85889,43.46585],[11.85869,43.46584],[11.85869,43.46587],[11.85889,43.46588],[11.85888,43.4659]]},"properties":{}},{"type":"Feature","geometry":{"type":"LineString","coordinates":[[11.84433,43.46619],[11.8445,43.466],[11.84478,43.46583],[11.84508,43.46574],[11.8454,43.46571]]},"properties":{}},{"type":"Feature","geometry":{"type":"LineString","coordinates":[[11.85888,43.4659],[11.85893,43.46601]]},"properties":{}},{"type":"Feature","geometry":{"type":"LineString","coordinates":[[11.85893,43.46601],[11.859,43.4663]]},"properties":{}},{"type":"Feature","geometry":{"type":"LineString","coordinates":[[11.85009,43.46721],[11.85002,43.46702],[11.8499,43.46621],[11.84985,43.46607]]},"properties":{}},{"type":"Feature","geometry":{"type":"LineString","coordinates":[[11.84249,43.46696],[11.84177,43.46692],[11.84151,43.46635]]},"properties":{}},{"type":"Feature","geometry":{"type":"LineString","coordinates":[[11.86558,43.46685],[11.86549,43.46657]]},"properties":{}},{"type":"Feature","geometry":{"type":"LineString","coordinates":[[11.86381,43.46655],[11.86381,43.46669],[11.86419,43.46692]]},"properties":{}},{"type":"Feature","geometry":{"type":"LineString","coordinates":[[11.87495,43.4649],[11.875,43.4649],[11.87503,43.46506],[11.87512,43.46505],[11.87519,43.46501],[11.87528,43.46509],[11.87523,43.46515],[11.87523,43.46522],[11.8753,43.46535],[11.87536,43.46539],[11.87532,43.46545],[11.87539,43.46548]]},"properties":{}},{"type":"Feature","geometry":{"type":"LineString","coordinates":[[11.87009,43.46527],[11.87038,43.46519]]},"properties":{}},{"type":"Feature","geometry":{"type":"LineString","coordinates":[[11.87536,43.46539],[11.8755,43.46543],[11.87841,43.4657]]},"properties":{}},{"type":"Feature","geometry":{"type":"LineString","coordinates":[[11.87301,43.46555],[11.87326,43.46555]]},"properties":{}},{"type":"Feature","geometry":{"type":"LineString","coordinates":[[11.87539,43.46548],[11.87537,43.46566]]},"properties":{}},{"type":"Feature","geometry":{"type":"LineString","coordinates":[[11.87326,43.46555],[11.8738,43.46558],[11.87387,43.4656],[11.87406,43.46573],[11.87426,43.46577],[11.87437,43.46574]]},"properties":{}},{"type":"Feature","geometry":{"type":"LineString","coordinates":[[11.87456,43.46569],[11.87437,43.46574]]},"properties":{}},{"type":"Feature","geometry":{"type":"LineString","coordinates":[[11.87465,43.46597],[11.87456,43.46569]]},"properties":{}},{"type":"Feature","geometry":{"type":"LineString","coordinates":[[11.87489,43.46588],[11.8754,43.46585]]},"properties":{}},{"type":"Feature","geometry":{"type":"LineString","coordinates":[[11.87415,43.46575],[11.87372,43.46595],[11.87327,43.46608]]},"properties":{}},{"type":"Feature","geometry":{"type":"LineString","coordinates":[[11.87489,43.46588],[11.87465,43.46597],[11.87466,43.46601],[11.8746,43.46603]]},"properties":{}},{"type":"Feature","geometry":{"type":"LineString","coordinates":[[11.87009,43.46527],[11.86829,43.46626],[11.86824,43.46638],[11.86831,43.46674],[11.86823,43.46679]]},"properties":{}},{"type":"Feature","geometry":{"type":"LineString","coordinates":[[11.87537,43.46566],[11.87556,43.46688]]},"properties":{}},{"type":"Feature","geometry":{"type":"LineString","coordinates":[[11.8746,43.46603],[11.87494,43.46685],[11.87499,43.46711],[11.87495,43.46723]]},"properties":{}},{"type":"Feature","geometry":{"type":"LineString","coordinates":[[11.86823,43.46679],[11.86811,43.4668]]},"properties":{}},{"type":"Feature","geometry":{"type":"LineString","coordinates":[[11.87231,43.46792],[11.87392,43.4679],[11.87422,43.46786],[11.87452,43.46771],[11.87495,43.46723]]},"properties":{}},{"type":"Feature","geometry":{"type":"LineString","coordinates":[[11.87215,43.46807],[11.87201,43.46807],[11.87191,43.46801],[11.87187,43.46792],[11.87191,43.46783],[11.87208,43.46776],[11.87226,43.46783],[11.8723,43.46787],[11.8723,43.46797],[11.87215,43.46807]]},"properties":{}},{"type":"Feature","geometry":{"type":"LineString","coordinates":[[11.88329,43.47133],[11.88332,43.47138],[11.8833,43.47148],[11.88313,43.47159],[11.88293,43.47155],[11.88284,43.47143],[11.88289,43.47131],[11.88301,43.47125],[11.88318,43.47126],[11.88329,43.47133]]},"properties":{}},{"type":"Feature","geometry":{"type":"LineString","coordinates":[[11.87213,43.47139],[11.87215,43.47184]]},"properties":{}},{"type":"Feature","geometry":{"type":"LineString","coordinates":[[11.87584,43.47164],[11.87587,43.47165]]},"properties":{}},{"type":"Feature","geometry":{"type":"LineString","coordinates":[[11.84247,43.46703],[11.84249,43.46696],[11.84288,43.46698],[11.84327,43.46707],[11.84353,43.46704],[11.8437,43.46694],[11.84388,43.46673],[11.84392,43.46646]]},"properties":{}},{"type":"Feature","geometry":{"type":"LineString","coordinates":[[11.859,43.4663],[11.85901,43.46764]]},"properties":{}},{"type":"Feature","geometry":{"type":"LineString","coordinates":[[11.84247,43.46717],[11.84247,43.46703]]},"properties":{}},{"type":"Feature","geometry":{"type":"LineString","coordinates":[[11.86811,43.4668],[11.86804,43.46677],[11.86799,43.46655],[11.86793,43.46646],[11.86782,43.46638],[11.86764,43.46632],[11.86742,43.46633],[11.86638,43.46648],[11.86618,43.46647],[11.86461,43.46671],[11.86444,43.46677],[11.86416,43.46694],[11.86338,43.46772],[11.86336,43.46785],[11.86339,43.46801]]},"properties":{}},{"type":"Feature","geometry":{"type":"LineString","coordinates":[[11.84239,43.46762],[11.84246,43.4675],[11.84247,43.46717]]},"properties":{}},{"type":"Feature","geometry":{"type":"LineString","coordinates":[[11.84214,43.46786],[11.84239,43.46762]]},"properties":{}},{"type":"Feature","geometry":{"type":"LineString","coordinates":[[11.84295,43.46837],[11.84284,43.46833],[11.84269,43.46842],[11.84256,43.46836],[11.84259,43.46829],[11.84205,43.46802],[11.84203,43.46797],[11.84214,43.46786]]},"properties":{}},{"type":"Feature","geometry":{"type":"LineString","coordinates":[[11.84915,43.46932],[11.85004,43.46961]]},"properties":{}},{"type":"Feature","geometry":{"type":"LineString","coordinates":[[11.86186,43.47254],[11.86212,43.47251],[11.86221,43.4726],[11.8622,43.47267],[11.86213,43.47273]]},"properties":{}},{"type":"Feature","geometry":{"type":"LineString","coordinates":[[11.8449,43.47382],[11.84556,43.47354]]},"properties":{}},{"type":"Feature","geometry":{"type":"LineString","coordinates":[[11.8758,43.47205],[11.87583,43.47167],[11.87596,43.47158],[11.87621,43.4715],[11.87626,43.47129]]},"properties":{}},{"type":"Feature","geometry":{"type":"LineString","coordinates":[[11.88309,43.47161],[11.88306,43.47166],[11.88336,43.47215]]},"properties":{}},{"type":"Feature","geometry":{"type":"LineString","coordinates":[[11.87942,43.47208],[11.87975,43.47205]]},"properties":{}},{"type":"Feature","geometry":{"type":"LineString","coordinates":[[11.87975,43.47205],[11.87961,43.4721],[11.87951,43.47218]]},"properties":{}},{"type":"Feature","geometry":{"type":"LineString","coordinates":[[11.87584,43.47223],[11.87585,43.47216],[11.8758,43.47205]]},"properties":{}},{"type":"Feature","geometry":{"type":"LineString","coordinates":[[11.87919,43.47222],[11.8792,43.47213],[11.87932,43.47207],[11.87946,43.4721],[11.87951,43.47218],[11.87949,43.47225],[11.87936,43.4723],[11.87926,43.47229],[11.87919,43.47222]]},"properties":{}},{"type":"Feature","geometry":{"type":"LineString","coordinates":[[11.87894,43.47228],[11.87918,43.47216]]},"properties":{}},{"type":"Feature","geometry":{"type":"LineString","coordinates":[[11.87728,43.47227],[11.8777,43.47225]]},"properties":{}},{"type":"Feature","geometry":{"type":"LineString","coordinates":[[11.8792,43.47225],[11.87894,43.47228]]},"properties":{}},{"type":"Feature","geometry":{"type":"LineString","coordinates":[[11.8783,43.47227],[11.87859,43.47234],[11.87873,43.47232]]},"properties":{}},{"type":"Feature","geometry":{"type":"LineString","coordinates":[[11.8776,43.47239],[11.87728,43.47227]]},"properties":{}},{"type":"Feature","geometry":{"type":"LineString","coordinates":[[11.87921,43.47245],[11.87922,43.47227]]},"properties":{}},{"type":"Feature","geometry":{"type":"LineString","coordinates":[[11.87921,43.47245],[11.87917,43.47237],[11.87911,43.47232],[11.87894,43.47228]]},"properties":{}},{"type":"Feature","geometry":{"type":"LineString","coordinates":[[11.87779,43.47256],[11.87766,43.4725],[11.87759,43.47242],[11.87763,43.47231],[11.8777,43.47225],[11.87788,43.47218],[11.87813,43.47217],[11.8783,43.47227],[11.8783,43.47242],[11.8782,43.4725],[11.87802,43.47256],[11.87779,43.47256]]},"properties":{}},{"type":"Feature","geometry":{"type":"LineString","coordinates":[[11.87936,43.4723],[11.87921,43.47245]]},"properties":{}},{"type":"Feature","geometry":{"type":"LineString","coordinates":[[11.87873,43.47232],[11.87825,43.47247]]},"properties":{}},{"type":"Feature","geometry":{"type":"LineString","coordinates":[[11.87746,43.47291],[11.87754,43.47278],[11.87755,43.47253],[11.87759,43.47242]]},"properties":{}},{"type":"Feature","geometry":{"type":"LineString","coordinates":[[11.87802,43.47256],[11.87791,43.47267],[11.87746,43.47291]]},"properties":{}},{"type":"Feature","geometry":{"type":"LineString","coordinates":[[11.87254,43.47525],[11.87259,43.47534],[11.87268,43.47536]]},"properties":{}},{"type":"Feature","geometry":{"type":"LineString","coordinates":[[11.873,43.47455],[11.87296,43.47454],[11.87251,43.47524],[11.87226,43.4755],[11.87195,43.47569],[11.8707,43.47632],[11.87076,43.47638]]},"properties":{}},{"type":"Feature","geometry":{"type":"LineString","coordinates":[[11.84502,43.47377],[11.84514,43.47389],[11.84521,43.47392],[11.84564,43.47398],[11.84568,43.47401],[11.84568,43.47411]]},"properties":{}},{"type":"Feature","geometry":{"type":"LineString","coordinates":[[11.8643,43.47446],[11.86697,43.47786]]},"properties":{}},{"type":"Feature","geometry":{"type":"LineString","coordinates":[[11.86564,43.47692],[11.8646,43.47555]]},"properties":{}},{"type":"Feature","geometry":{"type":"LineString","coordinates":[[11.86674,43.47795],[11.8641,43.47453]]},"properties":{}},{"type":"Feature","geometry":{"type":"LineString","coordinates":[[11.86626,43.47734],[11.86564,43.47692]]},"properties":{}},{"type":"Feature","geometry":{"type":"LineString","coordinates":[[11.82426,43.47788],[11.82539,43.47765],[11.82722,43.47745]]},"properties":{}},{"type":"Feature","geometry":{"type":"LineString","coordinates":[[11.86759,43.47839],[11.86738,43.47856],[11.86723,43.47861],[11.867,43.47861],[11.86681,43.47855],[11.86666,43.47844],[11.86661,43.47837],[11.86658,43.4782],[11.86663,43.47806],[11.86685,43.47789],[11.86705,43.47785],[11.86727,43.47786],[11.86746,43.47794],[11.8676,43.47809],[11.86764,43.47822],[11.86759,43.47839]]},"properties":{}},{"type":"Feature","geometry":{"type":"LineString","coordinates":[[11.86646,43.47856],[11.86657,43.47848],[11.86661,43.47837]]},"properties":{}},{"type":"Feature","geometry":{"type":"LineString","coordinates":[[11.86074,43.48105],[11.861,43.48113]]},"properties":{}},{"type":"Feature","geometry":{"type":"LineString","coordinates":[[11.86085,43.48121],[11.86074,43.48105]]},"properties":{}},{"type":"Feature","geometry":{"type":"LineString","coordinates":[[11.87218,43.47566],[11.86851,43.47756]]},"properties":{}},{"type":"Feature","geometry":{"type":"LineString","coordinates":[[11.86933,43.47707],[11.86965,43.47687],[11.87,43.47671]]},"properties":{}},{"type":"Feature","geometry":{"type":"LineString","coordinates":[[11.86741,43.47791],[11.86764,43.47792],[11.86778,43.47788]]},"properties":{}},{"type":"Feature","geometry":{"type":"LineString","coordinates":[[11.86778,43.47788],[11.8677,43.47795],[11.86762,43.47813]]},"properties":{}},{"type":"Feature","geometry":{"type":"LineString","coordinates":[[11.86745,43.47853],[11.86745,43.47869],[11.8675,43.47884],[11.86813,43.47968],[11.87103,43.48348],[11.8716,43.48414]]},"properties":{}},{"type":"Feature","geometry":{"type":"LineString","coordinates":[[11.8716,43.48414],[11.87119,43.4838],[11.87082,43.48339],[11.86715,43.47862]]},"properties":{}},{"type":"Feature","geometry":{"type":"LineString","coordinates":[[11.87618,43.48563],[11.87631,43.48552],[11.87638,43.48541]]},"properties":{}},{"type":"Feature","geometry":{"type":"LineString","coordinates":[[11.87638,43.48541],[11.87641,43.48556],[11.87648,43.48566]]},"properties":{}},{"type":"Feature","geometry":{"type":"LineString","coordinates":[[11.87519,43.48581],[11.87561,43.48582],[11.87591,43.48577]]},"properties":{}},{"type":"Feature","geometry":{"type":"LineString","coordinates":[[11.87587,43.48605],[11.87519,43.48581]]},"properties":{}},{"type":"Feature","geometry":{"type":"LineString","coordinates":[[11.861,43.48113],[11.8614,43.48114]]},"properties":{}},{"type":"Feature","geometry":{"type":"LineString","coordinates":[[11.861,43.48113],[11.86107,43.48131]]},"properties":{}},{"type":"Feature","geometry":{"type":"LineString","coordinates":[[11.86107,43.48131],[11.86085,43.48121]]},"properties":{}},{"type":"Feature","geometry":{"type":"LineString","coordinates":[[11.86081,43.48144],[11.86085,43.48121]]},"properties":{}},{"type":"Feature","geometry":{"type":"LineString","coordinates":[[11.8355,43.49426],[11.83124,43.49643]]},"properties":{}},{"type":"Feature","geometry":{"type":"LineString","coordinates":[[11.82994,43.49716],[11.83698,43.49355]]},"properties":{}},{"type":"Feature","geometry":{"type":"LineString","coordinates":[[11.87641,43.48563],[11.87657,43.4857],[11.87668,43.48581],[11.87672,43.48594],[11.87665,43.48611],[11.8765,43.48621],[11.87631,43.48626],[11.87613,43.48624],[11.87594,43.48613],[11.87585,43.48598],[11.87585,43.48591],[11.87591,43.48577],[11.87609,43.48565],[11.87641,43.48563]]},"properties":{}},{"type":"Feature","geometry":{"type":"LineString","coordinates":[[11.87709,43.48602],[11.87669,43.48606]]},"properties":{}},{"type":"Feature","geometry":{"type":"LineString","coordinates":[[11.87611,43.48665],[11.87611,43.48646],[11.87605,43.48621]]},"properties":{}},{"type":"Feature","geometry":{"type":"LineString","coordinates":[[11.87641,43.48624],[11.87622,43.48645],[11.87611,43.48665]]},"properties":{}},{"type":"Feature","geometry":{"type":"LineString","coordinates":[[11.97332,43.25466],[11.97344,43.25472],[11.97353,43.25485]]},"properties":{}},{"type":"Feature","geometry":{"type":"LineString","coordinates":[[11.97353,43.25485],[11.97332,43.25483]]},"properties":{}},{"type":"Feature","geometry":{"type":"LineString","coordinates":[[11.98036,43.25733],[11.98058,43.25718]]},"properties":{}},{"type":"Feature","geometry":{"type":"LineString","coordinates":[[11.98058,43.25718],[11.98056,43.2574]]},"properties":{}},{"type":"Feature","geometry":{"type":"LineString","coordinates":[[11.9803,43.25755],[11.98023,43.25745],[11.9803,43.25735],[11.98046,43.25733],[11.98056,43.2574],[11.98057,43.25747],[11.98052,43.25754],[11.98041,43.25757],[11.9803,43.25755]]},"properties":{}},{"type":"Feature","geometry":{"type":"LineString","coordinates":[[11.98022,43.25772],[11.98025,43.25759],[11.98024,43.25748]]},"properties":{}},{"type":"Feature","geometry":{"type":"LineString","coordinates":[[11.98047,43.25756],[11.98022,43.25772]]},"properties":{}},{"type":"Feature","geometry":{"type":"LineString","coordinates":[[11.97265,43.25866],[11.97289,43.25887]]},"properties":{}},{"type":"Feature","geometry":{"type":"LineString","coordinates":[[11.97289,43.25887],[11.97308,43.25892]]},"properties":{}},{"type":"Feature","geometry":{"type":"LineString","coordinates":[[11.97308,43.25892],[11.97313,43.25894],[11.97312,43.25907]]},"properties":{}},{"type":"Feature","geometry":{"type":"LineString","coordinates":[[11.97878,43.25948],[11.97897,43.25942],[11.97906,43.25936]]},"properties":{}},{"type":"Feature","geometry":{"type":"LineString","coordinates":[[11.97838,43.25945],[11.97862,43.25949]]},"properties":{}},{"type":"Feature","geometry":{"type":"LineString","coordinates":[[11.97906,43.25936],[11.97896,43.25946],[11.97891,43.25959]]},"properties":{}},{"type":"Feature","geometry":{"type":"LineString","coordinates":[[11.97854,43.2596],[11.97838,43.25945]]},"properties":{}},{"type":"Feature","geometry":{"type":"LineString","coordinates":[[11.97858,43.25969],[11.97854,43.2596],[11.97862,43.25949],[11.97878,43.25948],[11.97887,43.25952],[11.97891,43.25959],[11.97888,43.25968],[11.97879,43.25973],[11.97867,43.25974],[11.97858,43.25969]]},"properties":{}},{"type":"Feature","geometry":{"type":"LineString","coordinates":[[11.94894,43.26096],[11.949,43.26093],[11.94904,43.26081],[11.94919,43.26073],[11.94994,43.2607],[11.95106,43.26058],[11.95872,43.25968],[11.96359,43.25904],[11.96947,43.2584]]},"properties":{}},{"type":"Feature","geometry":{"type":"LineString","coordinates":[[11.97891,43.25963],[11.97903,43.25977]]},"properties":{}},{"type":"Feature","geometry":{"type":"LineString","coordinates":[[11.97843,43.2598],[11.97855,43.25965]]},"properties":{}},{"type":"Feature","geometry":{"type":"LineString","coordinates":[[11.97903,43.25977],[11.97879,43.25973]]},"properties":{}},{"type":"Feature","geometry":{"type":"LineString","coordinates":[[11.97867,43.25974],[11.97843,43.2598]]},"properties":{}},{"type":"Feature","geometry":{"type":"LineString","coordinates":[[11.97627,43.26167],[11.97617,43.26166],[11.97615,43.2616],[11.97619,43.26157],[11.97627,43.26157],[11.97631,43.26162],[11.97627,43.26167]]},"properties":{}},{"type":"Feature","geometry":{"type":"LineString","coordinates":[[11.97456,43.26158],[11.97508,43.26221],[11.97556,43.26263]]},"properties":{}},{"type":"Feature","geometry":{"type":"LineString","coordinates":[[11.97382,43.26521],[11.97383,43.26506],[11.97389,43.26503],[11.97495,43.26508]]},"properties":{}},{"type":"Feature","geometry":{"type":"LineString","coordinates":[[11.97494,43.26522],[11.97382,43.26521]]},"properties":{}},{"type":"Feature","geometry":{"type":"LineString","coordinates":[[11.94894,43.26096],[11.94889,43.26095],[11.94883,43.26082],[11.94876,43.26077],[11.94853,43.26074],[11.93222,43.26038],[11.93072,43.26038],[11.92976,43.26055],[11.92608,43.26151],[11.91642,43.26411],[11.91634,43.26417],[11.91645,43.26424],[11.91927,43.26493],[11.92057,43.26529]]},"properties":{}},{"type":"Feature","geometry":{"type":"LineString","coordinates":[[11.92057,43.26529],[11.92084,43.26533],[11.92296,43.26592],[11.92493,43.26637],[11.92946,43.26751],[11.92987,43.26765],[11.9306,43.26797],[11.93096,43.26818],[11.93156,43.26862],[11.93537,43.27144],[11.93981,43.27483],[11.9425,43.27679]]},"properties":{}},{"type":"Feature","geometry":{"type":"LineString","coordinates":[[11.95451,43.281],[11.95155,43.28151],[11.95106,43.28154],[11.95042,43.28152],[11.94985,43.28147],[11.94925,43.28134],[11.94857,43.28113],[11.94804,43.28089],[11.94735,43.28043],[11.94268,43.27697],[11.9425,43.27679]]},"properties":{}},{"type":"Feature","geometry":{"type":"LineString","coordinates":[[11.8995,43.45641],[11.89981,43.45677],[11.89985,43.45685]]},"properties":{}},{"type":"Feature","geometry":{"type":"LineString","coordinates":[[11.90365,43.45661],[11.90391,43.45683],[11.90962,43.45742],[11.90973,43.45746],[11.90975,43.45751]]},"properties":{}},{"type":"Feature","geometry":{"type":"LineString","coordinates":[[11.89802,43.45712],[11.89822,43.45716],[11.89838,43.45715]]},"properties":{}},{"type":"Feature","geometry":{"type":"LineString","coordinates":[[11.89838,43.45715],[11.89821,43.45725],[11.89814,43.45734]]},"properties":{}},{"type":"Feature","geometry":{"type":"LineString","coordinates":[[11.89374,43.4575],[11.89396,43.45742]]},"properties":{}},{"type":"Feature","geometry":{"type":"LineString","coordinates":[[11.89472,43.45794],[11.8962,43.45735]]},"properties":{}},{"type":"Feature","geometry":{"type":"LineString","coordinates":[[11.89396,43.45742],[11.89402,43.45761],[11.8942,43.45775],[11.89445,43.45787],[11.89472,43.45794]]},"properties":{}},{"type":"Feature","geometry":{"type":"LineString","coordinates":[[11.89546,43.46026],[11.89483,43.46031]]},"properties":{}},{"type":"Feature","geometry":{"type":"LineString","coordinates":[[11.89384,43.46053],[11.89376,43.4606],[11.89371,43.46074],[11.89381,43.46174]]},"properties":{}}]}