{"type":"FeatureCollection","features":[{"type":"Feature","geometry":{"type":"LineString","coordinates":[[11.81397,42.5],[11.81289,42.49955],[11.8118,42.49877],[11.80969,42.49714],[11.80855,42.49617],[11.80758,42.49582],[11.80655,42.49526],[11.80621,42.49495],[11.80563,42.49394],[11.80467,42.49296],[11.80301,42.49114],[11.80268,42.49083],[11.80219,42.49045],[11.80001,42.48907],[11.79943,42.48857],[11.7989,42.48791],[11.79771,42.48677],[11.79638,42.48538],[11.7949,42.4836],[11.79404,42.48236],[11.79373,42.48177],[11.7936,42.4816],[11.7928,42.48078],[11.79244,42.48049],[11.79192,42.48016],[11.7917,42.47961],[11.79148,42.47923],[11.79124,42.47893]]},"properties":{}},{"type":"Feature","geometry":{"type":"LineString","coordinates":[[11.75679,42.25016],[11.75634,42.25031]]},"properties":{}},{"type":"Feature","geometry":{"type":"LineString","coordinates":[[11.75489,42.25262],[11.75509,42.25277],[11.75531,42.25303],[11.75531,42.2531],[11.75516,42.25337]]},"properties":{}},{"type":"Feature","geometry":{"type":"LineString","coordinates":[[11.75485,42.25354],[11.75486,42.25346],[11.75479,42.25326]]},"properties":{}}]}