{"type":"FeatureCollection","features":[{"type":"Feature","geometry":{"type":"LineString","coordinates":[[11.79332,46.01187],[11.79352,46.01159],[11.7936,46.01165],[11.79358,46.01173],[11.79362,46.01179]]},"properties":{}},{"type":"Feature","geometry":{"type":"LineString","coordinates":[[11.79362,46.01179],[11.79429,46.01223]]},"properties":{}},{"type":"Feature","geometry":{"type":"LineString","coordinates":[[11.80075,46.01671],[11.80058,46.01652],[11.79996,46.01616],[11.79977,46.01602],[11.79965,46.01585],[11.79947,46.0157],[11.79828,46.01546],[11.79727,46.01529],[11.79711,46.01528],[11.79693,46.01533],[11.79675,46.01532]]},"properties":{}},{"type":"Feature","geometry":{"type":"LineString","coordinates":[[11.75733,46.03502],[11.75613,46.03466],[11.75541,46.03435]]},"properties":{}},{"type":"Feature","geometry":{"type":"LineString","coordinates":[[11.75,46.03547],[11.75047,46.03557],[11.75256,46.03651],[11.75328,46.03693],[11.75336,46.03704],[11.7534,46.03717],[11.75337,46.0373],[11.75328,46.03742],[11.75304,46.03763],[11.75293,46.03778],[11.75272,46.03828]]},"properties":{}},{"type":"Feature","geometry":{"type":"LineString","coordinates":[[11.75441,46.03576],[11.75417,46.03602],[11.7542,46.0361],[11.75446,46.03637],[11.75447,46.03645],[11.7543,46.03685],[11.75433,46.03696],[11.75445,46.03712],[11.75444,46.0375],[11.75468,46.0379],[11.75482,46.03798],[11.75551,46.03811],[11.75618,46.03804],[11.75676,46.03804],[11.75736,46.03799],[11.75744,46.03807],[11.75742,46.03814],[11.75728,46.03828]]},"properties":{}},{"type":"Feature","geometry":{"type":"LineString","coordinates":[[11.75272,46.03828],[11.75245,46.03893]]},"properties":{}},{"type":"Feature","geometry":{"type":"LineString","coordinates":[[11.75728,46.03828],[11.75726,46.03834],[11.75731,46.03843],[11.75742,46.03847],[11.75784,46.03852],[11.75797,46.03856],[11.75805,46.0386],[11.75807,46.03878],[11.75844,46.03886],[11.75909,46.03916],[11.75928,46.03918],[11.75942,46.03914],[11.75958,46.03902],[11.75965,46.03899],[11.76019,46.03912],[11.76064,46.03914],[11.76099,46.03922],[11.7611,46.0392]]},"properties":{}},{"type":"Feature","geometry":{"type":"LineString","coordinates":[[11.75272,46.03828],[11.75286,46.03842],[11.75286,46.0385],[11.75269,46.0388],[11.75268,46.039],[11.75292,46.03929],[11.75299,46.03941],[11.75302,46.03953],[11.75298,46.03981],[11.75287,46.04013],[11.75259,46.04065]]},"properties":{}},{"type":"Feature","geometry":{"type":"LineString","coordinates":[[11.75245,46.03893],[11.7524,46.03936],[11.7523,46.03941],[11.7522,46.03939],[11.75203,46.03922],[11.75198,46.03902],[11.75192,46.03835],[11.752,46.03809],[11.75211,46.03789],[11.75205,46.03783],[11.75195,46.03783],[11.75167,46.03821],[11.75154,46.03846],[11.75132,46.039],[11.75121,46.03934],[11.75119,46.03953],[11.75128,46.04033],[11.75123,46.04056],[11.75117,46.04068],[11.75082,46.04105],[11.75077,46.04118],[11.75075,46.04162],[11.75063,46.04188],[11.75031,46.04216],[11.75,46.04235]]},"properties":{}},{"type":"Feature","geometry":{"type":"LineString","coordinates":[[11.75259,46.04065],[11.75252,46.04079],[11.75253,46.04099],[11.75264,46.04141],[11.75267,46.0417],[11.75255,46.04206],[11.75253,46.04253],[11.75275,46.0431],[11.75274,46.04324],[11.75261,46.04344],[11.7522,46.04391],[11.75214,46.0441],[11.75198,46.04542],[11.7515,46.0467],[11.75137,46.04688],[11.75117,46.047]]},"properties":{}},{"type":"Feature","geometry":{"type":"LineString","coordinates":[[11.75697,46.04644],[11.75718,46.04628],[11.75725,46.04616],[11.75763,46.04501],[11.75769,46.04466],[11.75797,46.04399],[11.75799,46.04351],[11.75794,46.04342],[11.75774,46.04329],[11.75772,46.04305]]},"properties":{}},{"type":"Feature","geometry":{"type":"LineString","coordinates":[[11.75057,46.04671],[11.75069,46.04651],[11.75068,46.0464],[11.75057,46.04597],[11.75054,46.04561],[11.75,46.0454]]},"properties":{}},{"type":"Feature","geometry":{"type":"LineString","coordinates":[[11.95999,46.03125],[11.96008,46.03116]]},"properties":{}},{"type":"Feature","geometry":{"type":"LineString","coordinates":[[11.96008,46.03116],[11.96009,46.03126]]},"properties":{}},{"type":"Feature","geometry":{"type":"LineString","coordinates":[[11.95986,46.03132],[11.95994,46.03126],[11.96009,46.03126]]},"properties":{}},{"type":"Feature","geometry":{"type":"LineString","coordinates":[[11.96009,46.03126],[11.96017,46.03131]]},"properties":{}},{"type":"Feature","geometry":{"type":"LineString","coordinates":[[11.92084,46.02262],[11.92103,46.02238]]},"properties":{}},{"type":"Feature","geometry":{"type":"LineString","coordinates":[[11.92118,46.02281],[11.92109,46.02242]]},"properties":{}},{"type":"Feature","geometry":{"type":"LineString","coordinates":[[11.92109,46.02242],[11.92154,46.02284]]},"properties":{}},{"type":"Feature","geometry":{"type":"LineString","coordinates":[[11.92117,46.02274],[11.92106,46.02265],[11.92084,46.02262]]},"properties":{}},{"type":"Feature","geometry":{"type":"LineString","coordinates":[[11.92118,46.02281],[11.92137,46.02278],[11.92154,46.02284]]},"properties":{}},{"type":"Feature","geometry":{"type":"LineString","coordinates":[[11.92105,46.02293],[11.92118,46.02281]]},"properties":{}},{"type":"Feature","geometry":{"type":"LineString","coordinates":[[11.92154,46.02284],[11.9216,46.02293]]},"properties":{}},{"type":"Feature","geometry":{"type":"LineString","coordinates":[[11.92075,46.02302],[11.92105,46.02293]]},"properties":{}},{"type":"Feature","geometry":{"type":"LineString","coordinates":[[11.92109,46.02309],[11.92105,46.02301],[11.92105,46.02293]]},"properties":{}},{"type":"Feature","geometry":{"type":"LineString","coordinates":[[11.90934,46.01283],[11.90947,46.01274],[11.90961,46.01275]]},"properties":{}},{"type":"Feature","geometry":{"type":"LineString","coordinates":[[11.90961,46.01275],[11.90968,46.0128],[11.9097,46.01286]]},"properties":{}},{"type":"Feature","geometry":{"type":"LineString","coordinates":[[11.90943,46.01297],[11.90936,46.01292],[11.90934,46.01283]]},"properties":{}},{"type":"Feature","geometry":{"type":"LineString","coordinates":[[11.87063,46.01295],[11.88627,46.01835]]},"properties":{}},{"type":"Feature","geometry":{"type":"LineString","coordinates":[[11.89269,46.01785],[11.89319,46.01693]]},"properties":{}},{"type":"Feature","geometry":{"type":"LineString","coordinates":[[11.88627,46.01835],[11.88638,46.01839]]},"properties":{}},{"type":"Feature","geometry":{"type":"LineString","coordinates":[[11.88638,46.01839],[11.88652,46.01844]]},"properties":{}},{"type":"Feature","geometry":{"type":"LineString","coordinates":[[11.89222,46.01889],[11.89229,46.01858],[11.89262,46.01796]]},"properties":{}},{"type":"Feature","geometry":{"type":"LineString","coordinates":[[11.89244,46.01913],[11.89354,46.01927]]},"properties":{}},{"type":"Feature","geometry":{"type":"LineString","coordinates":[[11.82978,46.01107],[11.83068,46.01069]]},"properties":{}},{"type":"Feature","geometry":{"type":"LineString","coordinates":[[11.82348,46.01226],[11.82455,46.0122],[11.82505,46.01197],[11.82516,46.01195],[11.82676,46.01136],[11.82756,46.01116],[11.82796,46.0111],[11.82809,46.01118],[11.82844,46.01127],[11.82877,46.0113],[11.82909,46.01128],[11.82953,46.01118],[11.82978,46.01107]]},"properties":{}},{"type":"Feature","geometry":{"type":"LineString","coordinates":[[11.82148,46.01222],[11.82225,46.01227],[11.82348,46.01226]]},"properties":{}},{"type":"Feature","geometry":{"type":"LineString","coordinates":[[11.81323,46.15285],[11.81358,46.15289]]},"properties":{}},{"type":"Feature","geometry":{"type":"LineString","coordinates":[[11.81323,46.15285],[11.81321,46.15294]]},"properties":{}},{"type":"Feature","geometry":{"type":"LineString","coordinates":[[11.81321,46.15294],[11.81321,46.15301]]},"properties":{}},{"type":"Feature","geometry":{"type":"LineString","coordinates":[[11.9097,46.01286],[11.90963,46.01296]]},"properties":{}},{"type":"Feature","geometry":{"type":"LineString","coordinates":[[11.90891,46.01311],[11.90903,46.01301],[11.90925,46.01291],[11.90934,46.01283]]},"properties":{}},{"type":"Feature","geometry":{"type":"LineString","coordinates":[[11.90963,46.01296],[11.90953,46.01299],[11.90943,46.01297]]},"properties":{}},{"type":"Feature","geometry":{"type":"LineString","coordinates":[[11.9097,46.01286],[11.90991,46.01295],[11.91064,46.01313]]},"properties":{}},{"type":"Feature","geometry":{"type":"LineString","coordinates":[[11.90943,46.01297],[11.90921,46.013],[11.90891,46.01311]]},"properties":{}},{"type":"Feature","geometry":{"type":"LineString","coordinates":[[11.90963,46.01308],[11.90973,46.01304],[11.91024,46.01314]]},"properties":{}},{"type":"Feature","geometry":{"type":"LineString","coordinates":[[11.91064,46.01313],[11.91074,46.01315]]},"properties":{}},{"type":"Feature","geometry":{"type":"LineString","coordinates":[[11.91195,46.01349],[11.90963,46.01296]]},"properties":{}},{"type":"Feature","geometry":{"type":"LineString","coordinates":[[11.91074,46.01315],[11.91172,46.01339],[11.91195,46.01349]]},"properties":{}},{"type":"Feature","geometry":{"type":"LineString","coordinates":[[11.90854,46.01343],[11.90855,46.01344]]},"properties":{}},{"type":"Feature","geometry":{"type":"LineString","coordinates":[[11.91209,46.01354],[11.91255,46.01362]]},"properties":{}},{"type":"Feature","geometry":{"type":"LineString","coordinates":[[11.91243,46.01371],[11.91209,46.01354]]},"properties":{}},{"type":"Feature","geometry":{"type":"LineString","coordinates":[[11.91255,46.01362],[11.91271,46.01364]]},"properties":{}},{"type":"Feature","geometry":{"type":"LineString","coordinates":[[11.91243,46.01371],[11.91255,46.01362]]},"properties":{}},{"type":"Feature","geometry":{"type":"LineString","coordinates":[[11.91271,46.01364],[11.91307,46.01373]]},"properties":{}},{"type":"Feature","geometry":{"type":"LineString","coordinates":[[11.91271,46.01364],[11.91276,46.0137],[11.91276,46.01376]]},"properties":{}},{"type":"Feature","geometry":{"type":"LineString","coordinates":[[11.90718,46.01442],[11.90895,46.01317],[11.90935,46.01305],[11.90945,46.01308]]},"properties":{}},{"type":"Feature","geometry":{"type":"LineString","coordinates":[[11.91244,46.01376],[11.91243,46.01371]]},"properties":{}},{"type":"Feature","geometry":{"type":"LineString","coordinates":[[11.91307,46.01373],[11.91276,46.01376]]},"properties":{}},{"type":"Feature","geometry":{"type":"LineString","coordinates":[[11.91251,46.01383],[11.91244,46.01376]]},"properties":{}},{"type":"Feature","geometry":{"type":"LineString","coordinates":[[11.91276,46.01376],[11.91271,46.01382],[11.91261,46.01385]]},"properties":{}},{"type":"Feature","geometry":{"type":"LineString","coordinates":[[11.91227,46.01388],[11.91244,46.01376]]},"properties":{}},{"type":"Feature","geometry":{"type":"LineString","coordinates":[[11.91261,46.01385],[11.91251,46.01383]]},"properties":{}},{"type":"Feature","geometry":{"type":"LineString","coordinates":[[11.91251,46.01383],[11.91227,46.01388]]},"properties":{}},{"type":"Feature","geometry":{"type":"LineString","coordinates":[[11.91039,46.0146],[11.91106,46.01348],[11.91108,46.0134],[11.91102,46.01329]]},"properties":{}},{"type":"Feature","geometry":{"type":"LineString","coordinates":[[11.90782,46.01395],[11.90783,46.01396]]},"properties":{}},{"type":"Feature","geometry":{"type":"LineString","coordinates":[[11.90917,46.01406],[11.90962,46.01426],[11.91,46.01452]]},"properties":{}},{"type":"Feature","geometry":{"type":"LineString","coordinates":[[11.90733,46.01429],[11.90735,46.0143]]},"properties":{}},{"type":"Feature","geometry":{"type":"LineString","coordinates":[[11.91034,46.01465],[11.91035,46.01461],[11.91044,46.01462]]},"properties":{}},{"type":"Feature","geometry":{"type":"LineString","coordinates":[[11.91044,46.01462],[11.91041,46.01467]]},"properties":{}},{"type":"Feature","geometry":{"type":"LineString","coordinates":[[11.91041,46.01467],[11.91034,46.01465]]},"properties":{}},{"type":"Feature","geometry":{"type":"LineString","coordinates":[[11.90203,46.01575],[11.90197,46.01576]]},"properties":{}},{"type":"Feature","geometry":{"type":"LineString","coordinates":[[11.90502,46.0165],[11.90571,46.01652]]},"properties":{}},{"type":"Feature","geometry":{"type":"LineString","coordinates":[[11.90498,46.0165],[11.90502,46.0165]]},"properties":{}},{"type":"Feature","geometry":{"type":"LineString","coordinates":[[11.90492,46.01651],[11.90498,46.0165]]},"properties":{}},{"type":"Feature","geometry":{"type":"LineString","coordinates":[[11.90636,46.01635],[11.90631,46.01663],[11.90632,46.01671]]},"properties":{}},{"type":"Feature","geometry":{"type":"LineString","coordinates":[[11.90465,46.01655],[11.90492,46.01651]]},"properties":{}},{"type":"Feature","geometry":{"type":"LineString","coordinates":[[11.90197,46.01576],[11.90167,46.01586],[11.9014,46.01615],[11.90097,46.01701],[11.90072,46.01737]]},"properties":{}},{"type":"Feature","geometry":{"type":"LineString","coordinates":[[11.90446,46.01667],[11.90465,46.01655]]},"properties":{}},{"type":"Feature","geometry":{"type":"LineString","coordinates":[[11.90632,46.01671],[11.90601,46.01665]]},"properties":{}},{"type":"Feature","geometry":{"type":"LineString","coordinates":[[11.90632,46.01671],[11.90642,46.01676]]},"properties":{}},{"type":"Feature","geometry":{"type":"LineString","coordinates":[[11.90418,46.0174],[11.90433,46.01692],[11.90446,46.01667]]},"properties":{}},{"type":"Feature","geometry":{"type":"LineString","coordinates":[[11.90055,46.01732],[11.90064,46.01731],[11.90072,46.01737]]},"properties":{}},{"type":"Feature","geometry":{"type":"LineString","coordinates":[[11.90059,46.01745],[11.90051,46.01739],[11.90055,46.01732]]},"properties":{}},{"type":"Feature","geometry":{"type":"LineString","coordinates":[[11.90418,46.0174],[11.904,46.01742]]},"properties":{}},{"type":"Feature","geometry":{"type":"LineString","coordinates":[[11.90072,46.01737],[11.90065,46.01745]]},"properties":{}},{"type":"Feature","geometry":{"type":"LineString","coordinates":[[11.90065,46.01745],[11.90059,46.01745]]},"properties":{}},{"type":"Feature","geometry":{"type":"LineString","coordinates":[[11.90065,46.01745],[11.90064,46.01765]]},"properties":{}},{"type":"Feature","geometry":{"type":"LineString","coordinates":[[11.90053,46.01774],[11.90058,46.01764],[11.90059,46.01745]]},"properties":{}},{"type":"Feature","geometry":{"type":"LineString","coordinates":[[11.90064,46.01765],[11.90053,46.01774]]},"properties":{}},{"type":"Feature","geometry":{"type":"LineString","coordinates":[[11.90064,46.01765],[11.90075,46.01773],[11.90101,46.01785]]},"properties":{}},{"type":"Feature","geometry":{"type":"LineString","coordinates":[[11.90042,46.01785],[11.90101,46.01785]]},"properties":{}},{"type":"Feature","geometry":{"type":"LineString","coordinates":[[11.90101,46.01785],[11.9019,46.01793],[11.90273,46.01795]]},"properties":{}},{"type":"Feature","geometry":{"type":"LineString","coordinates":[[11.90012,46.01821],[11.90016,46.01814],[11.9005,46.01794],[11.90101,46.01785]]},"properties":{}},{"type":"Feature","geometry":{"type":"LineString","coordinates":[[11.90012,46.01821],[11.89992,46.01812]]},"properties":{}},{"type":"Feature","geometry":{"type":"LineString","coordinates":[[11.90998,46.01829],[11.91002,46.01805]]},"properties":{}},{"type":"Feature","geometry":{"type":"LineString","coordinates":[[11.90162,46.0189],[11.90012,46.01821]]},"properties":{}},{"type":"Feature","geometry":{"type":"LineString","coordinates":[[11.90361,46.02085],[11.9038,46.0201]]},"properties":{}},{"type":"Feature","geometry":{"type":"LineString","coordinates":[[11.90757,46.02185],[11.90796,46.0211],[11.90842,46.02009]]},"properties":{}},{"type":"Feature","geometry":{"type":"LineString","coordinates":[[11.90344,46.02121],[11.90361,46.02085]]},"properties":{}},{"type":"Feature","geometry":{"type":"LineString","coordinates":[[11.90331,46.02148],[11.90344,46.02121]]},"properties":{}},{"type":"Feature","geometry":{"type":"LineString","coordinates":[[11.91335,46.02143],[11.91336,46.02141]]},"properties":{}},{"type":"Feature","geometry":{"type":"LineString","coordinates":[[11.90499,46.02152],[11.90511,46.0215]]},"properties":{}},{"type":"Feature","geometry":{"type":"LineString","coordinates":[[11.90511,46.0215],[11.90521,46.02155]]},"properties":{}},{"type":"Feature","geometry":{"type":"LineString","coordinates":[[11.90318,46.02164],[11.9032,46.02155],[11.90318,46.02148]]},"properties":{}},{"type":"Feature","geometry":{"type":"LineString","coordinates":[[11.90342,46.02149],[11.90318,46.02164]]},"properties":{}},{"type":"Feature","geometry":{"type":"LineString","coordinates":[[11.90495,46.02163],[11.90494,46.02157],[11.90499,46.02152]]},"properties":{}},{"type":"Feature","geometry":{"type":"LineString","coordinates":[[11.90521,46.02155],[11.90522,46.02161],[11.9052,46.02165]]},"properties":{}},{"type":"Feature","geometry":{"type":"LineString","coordinates":[[11.9033,46.0216],[11.90329,46.0216]]},"properties":{}},{"type":"Feature","geometry":{"type":"LineString","coordinates":[[11.90347,46.02152],[11.90345,46.02156],[11.9033,46.0216],[11.90317,46.02176]]},"properties":{}},{"type":"Feature","geometry":{"type":"LineString","coordinates":[[11.95962,46.03135],[11.95986,46.03132]]},"properties":{}},{"type":"Feature","geometry":{"type":"LineString","coordinates":[[11.96017,46.03131],[11.9604,46.03142]]},"properties":{}},{"type":"Feature","geometry":{"type":"LineString","coordinates":[[11.96017,46.03131],[11.96019,46.03137],[11.96016,46.03143]]},"properties":{}},{"type":"Feature","geometry":{"type":"LineString","coordinates":[[11.95988,46.03144],[11.95985,46.03138],[11.95986,46.03132]]},"properties":{}},{"type":"Feature","geometry":{"type":"LineString","coordinates":[[11.95988,46.03144],[11.95962,46.03135]]},"properties":{}},{"type":"Feature","geometry":{"type":"LineString","coordinates":[[11.9604,46.03142],[11.96016,46.03143]]},"properties":{}},{"type":"Feature","geometry":{"type":"LineString","coordinates":[[11.96016,46.03143],[11.96002,46.03149],[11.95988,46.03144]]},"properties":{}},{"type":"Feature","geometry":{"type":"LineString","coordinates":[[11.96144,46.03152],[11.96219,46.03162],[11.96238,46.03168]]},"properties":{}},{"type":"Feature","geometry":{"type":"LineString","coordinates":[[11.96238,46.03168],[11.96277,46.03184],[11.96431,46.03274],[11.96484,46.03296],[11.96512,46.03305]]},"properties":{}},{"type":"Feature","geometry":{"type":"LineString","coordinates":[[11.96512,46.03305],[11.96588,46.03328]]},"properties":{}},{"type":"Feature","geometry":{"type":"LineString","coordinates":[[11.96588,46.03328],[11.966,46.03332]]},"properties":{}},{"type":"Feature","geometry":{"type":"LineString","coordinates":[[11.966,46.03332],[11.96649,46.03345]]},"properties":{}},{"type":"Feature","geometry":{"type":"LineString","coordinates":[[11.98139,46.03806],[11.98204,46.03832]]},"properties":{}},{"type":"Feature","geometry":{"type":"LineString","coordinates":[[11.98389,46.03867],[11.9836,46.03855],[11.98358,46.03852],[11.98363,46.03845]]},"properties":{}},{"type":"Feature","geometry":{"type":"LineString","coordinates":[[11.98405,46.03879],[11.98389,46.03867]]},"properties":{}},{"type":"Feature","geometry":{"type":"LineString","coordinates":[[11.98284,46.03891],[11.98277,46.03884],[11.98274,46.03875]]},"properties":{}},{"type":"Feature","geometry":{"type":"LineString","coordinates":[[11.98418,46.03891],[11.98405,46.03879]]},"properties":{}},{"type":"Feature","geometry":{"type":"LineString","coordinates":[[11.98752,46.04306],[11.98747,46.04314],[11.98752,46.04326],[11.98776,46.04355],[11.98975,46.04541],[11.99147,46.04639],[11.99169,46.04657],[11.99178,46.04674],[11.99179,46.04687],[11.99142,46.04713],[11.9913,46.04766]]},"properties":{}},{"type":"Feature","geometry":{"type":"LineString","coordinates":[[11.9913,46.04766],[11.99145,46.04866],[11.99147,46.04898],[11.99145,46.05063]]},"properties":{}},{"type":"Feature","geometry":{"type":"LineString","coordinates":[[11.99145,46.05063],[11.99143,46.05087],[11.99136,46.05096],[11.99126,46.05099]]},"properties":{}},{"type":"Feature","geometry":{"type":"LineString","coordinates":[[11.9216,46.02293],[11.92159,46.02305],[11.92148,46.02314]]},"properties":{}},{"type":"Feature","geometry":{"type":"LineString","coordinates":[[11.9216,46.02293],[11.92202,46.02316]]},"properties":{}},{"type":"Feature","geometry":{"type":"LineString","coordinates":[[11.92109,46.02309],[11.92075,46.02302]]},"properties":{}},{"type":"Feature","geometry":{"type":"LineString","coordinates":[[11.92148,46.02314],[11.92128,46.02317],[11.92109,46.02309]]},"properties":{}},{"type":"Feature","geometry":{"type":"LineString","coordinates":[[11.92202,46.02316],[11.92148,46.02314]]},"properties":{}},{"type":"Feature","geometry":{"type":"LineString","coordinates":[[11.92687,46.05581],[11.92691,46.05579],[11.92753,46.05609]]},"properties":{}},{"type":"Feature","geometry":{"type":"LineString","coordinates":[[11.94111,46.06378],[11.94071,46.06344],[11.94018,46.06318],[11.93967,46.06308],[11.93928,46.06307],[11.93892,46.0631]]},"properties":{}},{"type":"Feature","geometry":{"type":"LineString","coordinates":[[11.93892,46.0631],[11.93852,46.0632],[11.93695,46.06383],[11.93659,46.06395],[11.93458,46.06435]]},"properties":{}},{"type":"Feature","geometry":{"type":"LineString","coordinates":[[11.94158,46.06646],[11.94133,46.0643],[11.94126,46.06405],[11.94111,46.06378]]},"properties":{}},{"type":"Feature","geometry":{"type":"LineString","coordinates":[[11.94378,46.07009],[11.94325,46.06967],[11.94299,46.06941],[11.94247,46.06871],[11.94198,46.06771],[11.94175,46.06714],[11.94162,46.06677],[11.94158,46.06646]]},"properties":{}},{"type":"Feature","geometry":{"type":"LineString","coordinates":[[11.99097,46.05106],[11.99091,46.0511],[11.99091,46.05115],[11.99137,46.052],[11.99159,46.05238],[11.99194,46.05273],[11.99197,46.05283],[11.99195,46.05292],[11.99186,46.05308],[11.99156,46.05322],[11.99134,46.05342],[11.99116,46.05378],[11.99114,46.05392]]},"properties":{}},{"type":"Feature","geometry":{"type":"LineString","coordinates":[[11.99126,46.05099],[11.99171,46.05206],[11.99185,46.0523],[11.99215,46.05265],[11.9927,46.05307],[11.99329,46.05339],[11.9941,46.05368],[11.99427,46.05369],[11.99508,46.05355],[11.9956,46.05352],[11.99591,46.05358],[11.9965,46.05376],[11.99677,46.05396],[11.99842,46.05569]]},"properties":{}},{"type":"Feature","geometry":{"type":"LineString","coordinates":[[11.99001,46.05658],[11.99012,46.0565],[11.99023,46.05628],[11.99023,46.0562],[11.99017,46.0561],[11.98986,46.05578],[11.98982,46.05567],[11.99047,46.05511],[11.99056,46.0549],[11.99061,46.0545],[11.99102,46.05398],[11.99114,46.05392]]},"properties":{}},{"type":"Feature","geometry":{"type":"LineString","coordinates":[[11.99842,46.05569],[11.99855,46.05578]]},"properties":{}},{"type":"Feature","geometry":{"type":"LineString","coordinates":[[11.99863,46.0558],[11.9988,46.05578],[11.99894,46.05568]]},"properties":{}},{"type":"Feature","geometry":{"type":"LineString","coordinates":[[11.99855,46.05578],[11.99863,46.0558]]},"properties":{}},{"type":"Feature","geometry":{"type":"LineString","coordinates":[[11.99886,46.05585],[11.99863,46.0558]]},"properties":{}},{"type":"Feature","geometry":{"type":"LineString","coordinates":[[11.99915,46.05592],[11.99886,46.05585]]},"properties":{}},{"type":"Feature","geometry":{"type":"LineString","coordinates":[[11.99114,46.05392],[11.99279,46.0567],[11.99285,46.05685],[11.99286,46.05701],[11.99282,46.05719],[11.99271,46.05739],[11.99255,46.05755],[11.99237,46.05767],[11.99074,46.05826]]},"properties":{}},{"type":"Feature","geometry":{"type":"LineString","coordinates":[[11.98934,46.05671],[11.99001,46.05658]]},"properties":{}},{"type":"Feature","geometry":{"type":"LineString","coordinates":[[11.99074,46.05826],[11.99057,46.05835]]},"properties":{}},{"type":"Feature","geometry":{"type":"LineString","coordinates":[[11.99057,46.05835],[11.99004,46.0591]]},"properties":{}},{"type":"Feature","geometry":{"type":"LineString","coordinates":[[11.98847,46.06156],[11.98822,46.06064],[11.98829,46.05996],[11.98875,46.05879],[11.98887,46.05816],[11.98886,46.05746],[11.9889,46.05727],[11.98909,46.05696],[11.98934,46.05671]]},"properties":{}},{"type":"Feature","geometry":{"type":"LineString","coordinates":[[11.99004,46.0591],[11.9896,46.05976],[11.98872,46.06117],[11.98859,46.06153],[11.98856,46.06181]]},"properties":{}},{"type":"Feature","geometry":{"type":"LineString","coordinates":[[11.98847,46.06156],[11.98858,46.0616]]},"properties":{}},{"type":"Feature","geometry":{"type":"LineString","coordinates":[[11.98856,46.06181],[11.98896,46.06337],[11.98895,46.06349],[11.98875,46.06398],[11.98868,46.06406],[11.98854,46.06413],[11.98678,46.06491]]},"properties":{}},{"type":"Feature","geometry":{"type":"LineString","coordinates":[[11.98678,46.06491],[11.98588,46.06494],[11.98569,46.065]]},"properties":{}},{"type":"Feature","geometry":{"type":"LineString","coordinates":[[11.98569,46.065],[11.98551,46.06537],[11.98552,46.06547],[11.98557,46.06554]]},"properties":{}},{"type":"Feature","geometry":{"type":"LineString","coordinates":[[11.98557,46.06554],[11.98657,46.06594],[11.98674,46.06603],[11.98685,46.06616],[11.98689,46.06631],[11.98686,46.06652],[11.98679,46.06664],[11.98662,46.06675],[11.98646,46.0668],[11.98512,46.06692],[11.98482,46.06691],[11.98443,46.06683],[11.98425,46.06683],[11.98412,46.0669],[11.98408,46.067],[11.9841,46.06708],[11.98425,46.06718]]},"properties":{}},{"type":"Feature","geometry":{"type":"LineString","coordinates":[[11.99731,46.07021],[11.99655,46.07005],[11.99543,46.06951],[11.9947,46.06926],[11.99443,46.06913],[11.99433,46.069],[11.99408,46.06852],[11.9937,46.06822],[11.99325,46.06797],[11.99081,46.06688],[11.98785,46.06502],[11.98764,46.06494],[11.98678,46.06491]]},"properties":{}},{"type":"Feature","geometry":{"type":"LineString","coordinates":[[11.98425,46.06718],[11.98657,46.06817],[11.98673,46.06828],[11.98678,46.06834],[11.98684,46.06859],[11.98683,46.06888],[11.98618,46.07056],[11.98616,46.07079],[11.9862,46.07097],[11.98631,46.07115],[11.98691,46.07182]]},"properties":{}},{"type":"Feature","geometry":{"type":"LineString","coordinates":[[11.9984,46.06938],[11.99823,46.06958],[11.99801,46.06974],[11.99731,46.07021]]},"properties":{}},{"type":"Feature","geometry":{"type":"LineString","coordinates":[[11.98691,46.07182],[11.98705,46.07197],[11.98715,46.07215],[11.98744,46.07355],[11.98767,46.07416]]},"properties":{}},{"type":"Feature","geometry":{"type":"LineString","coordinates":[[11.98767,46.07416],[11.9888,46.0761],[11.98886,46.07627],[11.98892,46.07673],[11.98888,46.0773],[11.98879,46.07765],[11.9887,46.07781],[11.98847,46.07812],[11.98782,46.07874]]},"properties":{}},{"type":"Feature","geometry":{"type":"LineString","coordinates":[[11.96657,46.07912],[11.96607,46.07913]]},"properties":{}},{"type":"Feature","geometry":{"type":"LineString","coordinates":[[11.98782,46.07874],[11.98739,46.07916],[11.98701,46.07977]]},"properties":{}},{"type":"Feature","geometry":{"type":"LineString","coordinates":[[11.96607,46.07913],[11.96567,46.07917],[11.96507,46.0794],[11.96396,46.07965],[11.96353,46.07972],[11.96286,46.07975]]},"properties":{}},{"type":"Feature","geometry":{"type":"LineString","coordinates":[[11.96286,46.07975],[11.96223,46.07972],[11.96168,46.07963],[11.96109,46.07946],[11.96065,46.07928]]},"properties":{}},{"type":"Feature","geometry":{"type":"LineString","coordinates":[[11.97492,46.08088],[11.97134,46.08004],[11.96952,46.07943],[11.969,46.07928],[11.96781,46.07911],[11.96657,46.07912]]},"properties":{}},{"type":"Feature","geometry":{"type":"LineString","coordinates":[[11.98701,46.07977],[11.98641,46.08079]]},"properties":{}},{"type":"Feature","geometry":{"type":"LineString","coordinates":[[11.9802,46.08342],[11.97936,46.08296],[11.97798,46.08228],[11.97697,46.08161],[11.97652,46.08134],[11.97603,46.08116],[11.97492,46.08088]]},"properties":{}},{"type":"Feature","geometry":{"type":"LineString","coordinates":[[11.98641,46.08079],[11.98632,46.08099],[11.98623,46.08135],[11.986,46.0824],[11.98596,46.08299],[11.98586,46.08377]]},"properties":{}},{"type":"Feature","geometry":{"type":"LineString","coordinates":[[11.98031,46.0835],[11.9802,46.08342]]},"properties":{}},{"type":"Feature","geometry":{"type":"LineString","coordinates":[[11.98048,46.08363],[11.98031,46.0835]]},"properties":{}},{"type":"Feature","geometry":{"type":"LineString","coordinates":[[12.0,46.08412],[11.99953,46.08402],[11.99925,46.08399],[11.99881,46.08401],[11.99849,46.08409],[11.99828,46.08416],[11.99787,46.08436],[11.99658,46.08505],[11.99565,46.08534]]},"properties":{}},{"type":"Feature","geometry":{"type":"LineString","coordinates":[[11.98644,46.08612],[11.98596,46.08599],[11.9851,46.08564],[11.98414,46.08516],[11.98275,46.08439],[11.98225,46.08419],[11.98159,46.08398],[11.9807,46.08376],[11.98048,46.08363]]},"properties":{}},{"type":"Feature","geometry":{"type":"LineString","coordinates":[[11.98586,46.08377],[11.98603,46.0847],[11.98609,46.08483],[11.98641,46.08513],[11.98695,46.08546],[11.98716,46.08564],[11.98764,46.08627],[11.98765,46.08636]]},"properties":{}},{"type":"Feature","geometry":{"type":"LineString","coordinates":[[11.99565,46.08534],[11.99545,46.08542],[11.99521,46.08559]]},"properties":{}},{"type":"Feature","geometry":{"type":"LineString","coordinates":[[11.99561,46.08559],[11.9955,46.08564]]},"properties":{}},{"type":"Feature","geometry":{"type":"LineString","coordinates":[[11.9955,46.08564],[11.99533,46.08567],[11.99521,46.08559]]},"properties":{}},{"type":"Feature","geometry":{"type":"LineString","coordinates":[[11.99407,46.08628],[11.99394,46.08622],[11.99377,46.08604],[11.99354,46.08558],[11.99345,46.08548],[11.99323,46.08535],[11.99289,46.08526],[11.9926,46.08526],[11.99213,46.08536],[11.98973,46.08595]]},"properties":{}},{"type":"Feature","geometry":{"type":"LineString","coordinates":[[11.99521,46.08559],[11.99484,46.08602]]},"properties":{}},{"type":"Feature","geometry":{"type":"LineString","coordinates":[[11.99484,46.08602],[11.99463,46.08621],[11.99451,46.08627]]},"properties":{}},{"type":"Feature","geometry":{"type":"LineString","coordinates":[[11.98973,46.08595],[11.98779,46.08641]]},"properties":{}},{"type":"Feature","geometry":{"type":"LineString","coordinates":[[11.98757,46.08638],[11.98745,46.08631],[11.98719,46.08623],[11.98644,46.08612]]},"properties":{}},{"type":"Feature","geometry":{"type":"LineString","coordinates":[[11.99451,46.08627],[11.99433,46.08631],[11.99407,46.08628]]},"properties":{}},{"type":"Feature","geometry":{"type":"LineString","coordinates":[[11.98757,46.08638],[11.98765,46.08636]]},"properties":{}},{"type":"Feature","geometry":{"type":"LineString","coordinates":[[11.98765,46.08636],[11.98779,46.08641]]},"properties":{}},{"type":"Feature","geometry":{"type":"LineString","coordinates":[[11.98777,46.08652],[11.98766,46.08655],[11.98756,46.08652],[11.98752,46.08646],[11.98757,46.08638]]},"properties":{}},{"type":"Feature","geometry":{"type":"LineString","coordinates":[[11.98779,46.08641],[11.9878,46.08647],[11.98777,46.08652]]},"properties":{}},{"type":"Feature","geometry":{"type":"LineString","coordinates":[[11.99561,46.08559],[11.99625,46.08532],[11.9965,46.08526],[11.99715,46.0852],[11.99777,46.08526],[11.99821,46.08537],[11.99861,46.08554],[11.99918,46.08594],[11.99939,46.08622],[11.99959,46.0866],[11.9999,46.08779]]},"properties":{}},{"type":"Feature","geometry":{"type":"LineString","coordinates":[[11.98823,46.08692],[11.98777,46.08652]]},"properties":{}},{"type":"Feature","geometry":{"type":"LineString","coordinates":[[11.98865,46.08744],[11.98852,46.08722],[11.98823,46.08692]]},"properties":{}},{"type":"Feature","geometry":{"type":"LineString","coordinates":[[11.98852,46.08819],[11.98864,46.08807],[11.98867,46.08794],[11.98865,46.08744]]},"properties":{}},{"type":"Feature","geometry":{"type":"LineString","coordinates":[[11.98788,46.08848],[11.9881,46.08835],[11.98852,46.08819]]},"properties":{}},{"type":"Feature","geometry":{"type":"LineString","coordinates":[[11.97402,46.08568],[11.97432,46.08574],[11.97445,46.0858],[11.97497,46.0862],[11.97523,46.08635],[11.97534,46.08648],[11.97547,46.08677],[11.97599,46.08698],[11.97695,46.08746],[11.97725,46.08752],[11.97735,46.0876],[11.97736,46.08779],[11.97769,46.08784],[11.97795,46.08796],[11.97825,46.08817],[11.97844,46.08852],[11.98075,46.0896],[11.98163,46.08982],[11.983,46.08986],[11.98355,46.08997],[11.98437,46.09028],[11.98467,46.09047],[11.98497,46.09072],[11.98541,46.09086],[11.9857,46.09105],[11.98628,46.09123],[11.98646,46.09123],[11.98654,46.09121],[11.98662,46.09115],[11.98704,46.09056]]},"properties":{}},{"type":"Feature","geometry":{"type":"LineString","coordinates":[[11.98715,46.08934],[11.9873,46.08911],[11.98788,46.08848]]},"properties":{}},{"type":"Feature","geometry":{"type":"LineString","coordinates":[[11.9999,46.08779],[12.0,46.08822]]},"properties":{}},{"type":"Feature","geometry":{"type":"LineString","coordinates":[[11.98666,46.08991],[11.98684,46.08978],[11.98715,46.08934]]},"properties":{}},{"type":"Feature","geometry":{"type":"LineString","coordinates":[[11.90506,46.02169],[11.90495,46.02163]]},"properties":{}},{"type":"Feature","geometry":{"type":"LineString","coordinates":[[11.9052,46.02165],[11.90506,46.02169]]},"properties":{}},{"type":"Feature","geometry":{"type":"LineString","coordinates":[[11.90317,46.02176],[11.90306,46.02174]]},"properties":{}},{"type":"Feature","geometry":{"type":"LineString","coordinates":[[11.90738,46.02207],[11.90618,46.0217],[11.90541,46.02163]]},"properties":{}},{"type":"Feature","geometry":{"type":"LineString","coordinates":[[11.90306,46.02174],[11.90293,46.02197],[11.90284,46.02197]]},"properties":{}},{"type":"Feature","geometry":{"type":"LineString","coordinates":[[11.91238,46.02109],[11.91486,46.02196],[11.91648,46.02274]]},"properties":{}},{"type":"Feature","geometry":{"type":"LineString","coordinates":[[11.90284,46.02197],[11.90249,46.02189]]},"properties":{}},{"type":"Feature","geometry":{"type":"LineString","coordinates":[[11.90772,46.02194],[11.90772,46.02193]]},"properties":{}},{"type":"Feature","geometry":{"type":"LineString","coordinates":[[11.91514,46.02209],[11.91516,46.02207]]},"properties":{}},{"type":"Feature","geometry":{"type":"LineString","coordinates":[[11.9093,46.0223],[11.90772,46.02194],[11.90763,46.02194],[11.90758,46.02205]]},"properties":{}},{"type":"Feature","geometry":{"type":"LineString","coordinates":[[11.91122,46.02186],[11.9112,46.02191],[11.91054,46.02245]]},"properties":{}},{"type":"Feature","geometry":{"type":"LineString","coordinates":[[11.91015,46.02253],[11.9101,46.02248],[11.90943,46.02233]]},"properties":{}},{"type":"Feature","geometry":{"type":"LineString","coordinates":[[11.90997,46.02245],[11.90998,46.02242]]},"properties":{}},{"type":"Feature","geometry":{"type":"LineString","coordinates":[[11.91625,46.02259],[11.91622,46.02261]]},"properties":{}},{"type":"Feature","geometry":{"type":"LineString","coordinates":[[11.91154,46.02283],[11.91145,46.0228],[11.9114,46.02268],[11.91041,46.02255],[11.91018,46.02258]]},"properties":{}},{"type":"Feature","geometry":{"type":"LineString","coordinates":[[11.9155,46.02283],[11.91568,46.02283]]},"properties":{}},{"type":"Feature","geometry":{"type":"LineString","coordinates":[[11.91166,46.02285],[11.91154,46.02283]]},"properties":{}},{"type":"Feature","geometry":{"type":"LineString","coordinates":[[11.91444,46.02291],[11.91482,46.02285],[11.91518,46.02295],[11.9155,46.02283]]},"properties":{}},{"type":"Feature","geometry":{"type":"LineString","coordinates":[[11.91568,46.02283],[11.92012,46.02302]]},"properties":{}},{"type":"Feature","geometry":{"type":"LineString","coordinates":[[11.90249,46.02189],[11.90243,46.02191],[11.90203,46.02245],[11.90118,46.02324],[11.90102,46.02343],[11.90029,46.02482]]},"properties":{}},{"type":"Feature","geometry":{"type":"LineString","coordinates":[[11.90814,46.02548],[11.90831,46.0254],[11.91082,46.0248],[11.91102,46.02472],[11.91113,46.02462],[11.91118,46.02452],[11.91118,46.02396],[11.91125,46.02353],[11.91138,46.02325],[11.91163,46.02297],[11.91166,46.02285]]},"properties":{}},{"type":"Feature","geometry":{"type":"LineString","coordinates":[[11.90181,46.0251],[11.90189,46.02507]]},"properties":{}},{"type":"Feature","geometry":{"type":"LineString","coordinates":[[11.90189,46.02507],[11.90194,46.02512],[11.90186,46.02516]]},"properties":{}},{"type":"Feature","geometry":{"type":"LineString","coordinates":[[11.90186,46.02516],[11.90181,46.0251]]},"properties":{}},{"type":"Feature","geometry":{"type":"LineString","coordinates":[[11.90208,46.02516],[11.90261,46.02524],[11.90267,46.02528]]},"properties":{}},{"type":"Feature","geometry":{"type":"LineString","coordinates":[[11.89829,46.02574],[11.89853,46.02555],[11.89877,46.02499],[11.89916,46.02477]]},"properties":{}},{"type":"Feature","geometry":{"type":"LineString","coordinates":[[11.90267,46.02528],[11.90278,46.0253]]},"properties":{}},{"type":"Feature","geometry":{"type":"LineString","coordinates":[[11.90278,46.0253],[11.90367,46.02541]]},"properties":{}},{"type":"Feature","geometry":{"type":"LineString","coordinates":[[11.90367,46.02541],[11.90377,46.02542]]},"properties":{}},{"type":"Feature","geometry":{"type":"LineString","coordinates":[[11.9046,46.02544],[11.90456,46.0255],[11.90444,46.02552],[11.90436,46.02549],[11.90432,46.0254],[11.90437,46.02535],[11.90449,46.02533],[11.90457,46.02536],[11.9046,46.02544]]},"properties":{}},{"type":"Feature","geometry":{"type":"LineString","coordinates":[[11.89209,46.01908],[11.89214,46.01913],[11.89399,46.01939],[11.89451,46.0195]]},"properties":{}},{"type":"Feature","geometry":{"type":"LineString","coordinates":[[11.87405,46.02838],[11.87481,46.02785],[11.87508,46.02736],[11.87508,46.02711],[11.87487,46.02607],[11.87399,46.02504],[11.87308,46.02443],[11.87275,46.0241],[11.87264,46.02383],[11.87273,46.02329],[11.87279,46.02305],[11.87297,46.02289],[11.87321,46.02247],[11.87352,46.02234],[11.87401,46.02185],[11.87416,46.02196],[11.87454,46.02172],[11.8749,46.02136],[11.875,46.02108],[11.87511,46.02096],[11.87531,46.02084],[11.87553,46.02054],[11.87557,46.02043],[11.87577,46.0202],[11.87612,46.01995]]},"properties":{}},{"type":"Feature","geometry":{"type":"LineString","coordinates":[[11.87922,46.02844],[11.87923,46.02819],[11.87905,46.02761],[11.87906,46.02744],[11.87918,46.02733],[11.87973,46.02724],[11.87974,46.0272],[11.87943,46.02699]]},"properties":{}},{"type":"Feature","geometry":{"type":"LineString","coordinates":[[11.88218,46.0293],[11.88243,46.02925],[11.88266,46.02924],[11.88282,46.02932],[11.88293,46.02949],[11.88311,46.02917],[11.88334,46.02888],[11.88358,46.02867],[11.88361,46.02842],[11.88365,46.02834],[11.88376,46.0283],[11.88439,46.02823],[11.88441,46.02818],[11.88439,46.02755],[11.88449,46.02704],[11.88465,46.02695]]},"properties":{}},{"type":"Feature","geometry":{"type":"LineString","coordinates":[[11.87901,46.02886],[11.87922,46.02844]]},"properties":{}},{"type":"Feature","geometry":{"type":"LineString","coordinates":[[11.88188,46.02922],[11.88181,46.02906],[11.88167,46.02893],[11.88141,46.02885],[11.87981,46.02871],[11.87934,46.02857],[11.87925,46.0285],[11.87922,46.02844]]},"properties":{}},{"type":"Feature","geometry":{"type":"LineString","coordinates":[[11.88718,46.03344],[11.88879,46.03293],[11.89163,46.03263]]},"properties":{}},{"type":"Feature","geometry":{"type":"LineString","coordinates":[[11.88133,46.03942],[11.88123,46.03934],[11.88122,46.03929],[11.88188,46.03821],[11.8821,46.03803],[11.88232,46.03778],[11.88283,46.03692],[11.88327,46.03634],[11.88352,46.03594],[11.88369,46.03589]]},"properties":{}},{"type":"Feature","geometry":{"type":"LineString","coordinates":[[11.88163,46.03808],[11.88153,46.03805]]},"properties":{}},{"type":"Feature","geometry":{"type":"LineString","coordinates":[[11.88163,46.03808],[11.88189,46.03816]]},"properties":{}},{"type":"Feature","geometry":{"type":"LineString","coordinates":[[11.90455,46.02561],[11.90459,46.02554],[11.90469,46.02548]]},"properties":{}},{"type":"Feature","geometry":{"type":"LineString","coordinates":[[11.90377,46.02542],[11.90411,46.02548],[11.90436,46.02567],[11.90442,46.02564]]},"properties":{}},{"type":"Feature","geometry":{"type":"LineString","coordinates":[[11.90469,46.02549],[11.90672,46.02568],[11.90721,46.02564],[11.90785,46.0255],[11.90809,46.0255]]},"properties":{}},{"type":"Feature","geometry":{"type":"LineString","coordinates":[[11.90449,46.02561],[11.90455,46.02561]]},"properties":{}},{"type":"Feature","geometry":{"type":"LineString","coordinates":[[11.90446,46.02562],[11.90449,46.02561]]},"properties":{}},{"type":"Feature","geometry":{"type":"LineString","coordinates":[[11.90442,46.02564],[11.90446,46.02562]]},"properties":{}},{"type":"Feature","geometry":{"type":"LineString","coordinates":[[11.90068,46.02496],[11.89995,46.02664],[11.89967,46.02748],[11.89926,46.02839],[11.89886,46.02896],[11.89863,46.0295],[11.89832,46.0301],[11.898,46.0306],[11.89777,46.03087],[11.8975,46.03109],[11.89664,46.0315],[11.89572,46.03191],[11.89489,46.03223],[11.89479,46.0323],[11.89464,46.03252],[11.89447,46.03263],[11.89424,46.03265],[11.89405,46.03263],[11.89354,46.0324],[11.89345,46.03239],[11.89211,46.03252],[11.89163,46.03263]]},"properties":{}},{"type":"Feature","geometry":{"type":"LineString","coordinates":[[11.91233,46.03499],[11.91234,46.03745]]},"properties":{}},{"type":"Feature","geometry":{"type":"LineString","coordinates":[[11.91107,46.03868],[11.91162,46.03912]]},"properties":{}},{"type":"Feature","geometry":{"type":"LineString","coordinates":[[11.90916,46.03988],[11.91089,46.03876],[11.91096,46.03875]]},"properties":{}},{"type":"Feature","geometry":{"type":"LineString","coordinates":[[11.90977,46.04004],[11.90993,46.03988]]},"properties":{}},{"type":"Feature","geometry":{"type":"LineString","coordinates":[[11.90993,46.03988],[11.90992,46.04007]]},"properties":{}},{"type":"Feature","geometry":{"type":"LineString","coordinates":[[11.9093,46.03999],[11.90944,46.04004],[11.90965,46.04008]]},"properties":{}},{"type":"Feature","geometry":{"type":"LineString","coordinates":[[11.90944,46.04009],[11.9093,46.03999]]},"properties":{}},{"type":"Feature","geometry":{"type":"LineString","coordinates":[[11.90977,46.04004],[11.90992,46.04007]]},"properties":{}},{"type":"Feature","geometry":{"type":"LineString","coordinates":[[11.90965,46.04008],[11.90977,46.04004]]},"properties":{}},{"type":"Feature","geometry":{"type":"LineString","coordinates":[[11.90959,46.04019],[11.90965,46.04008]]},"properties":{}},{"type":"Feature","geometry":{"type":"LineString","coordinates":[[11.90959,46.04019],[11.90944,46.04009]]},"properties":{}},{"type":"Feature","geometry":{"type":"LineString","coordinates":[[11.90992,46.04007],[11.90998,46.04012],[11.91,46.04021],[11.90993,46.04028],[11.90985,46.04031]]},"properties":{}},{"type":"Feature","geometry":{"type":"LineString","coordinates":[[11.90971,46.04031],[11.90961,46.04024],[11.90959,46.04019]]},"properties":{}},{"type":"Feature","geometry":{"type":"LineString","coordinates":[[11.79261,46.14393],[11.79268,46.14398]]},"properties":{}},{"type":"Feature","geometry":{"type":"LineString","coordinates":[[11.79268,46.14398],[11.79275,46.14412],[11.79356,46.14467]]},"properties":{}},{"type":"Feature","geometry":{"type":"LineString","coordinates":[[11.79636,46.14609],[11.79582,46.14576],[11.79509,46.14553],[11.79431,46.14511],[11.79356,46.14467]]},"properties":{}},{"type":"Feature","geometry":{"type":"LineString","coordinates":[[11.79696,46.14708],[11.79673,46.14697],[11.79655,46.14693],[11.79646,46.14698],[11.79647,46.14708],[11.79644,46.14712]]},"properties":{}},{"type":"Feature","geometry":{"type":"LineString","coordinates":[[11.79644,46.14712],[11.79637,46.1472]]},"properties":{}},{"type":"Feature","geometry":{"type":"LineString","coordinates":[[11.79637,46.1472],[11.79636,46.14722]]},"properties":{}},{"type":"Feature","geometry":{"type":"LineString","coordinates":[[11.79911,46.1474],[11.79696,46.14708]]},"properties":{}},{"type":"Feature","geometry":{"type":"LineString","coordinates":[[11.79636,46.14722],[11.79616,46.14747]]},"properties":{}},{"type":"Feature","geometry":{"type":"LineString","coordinates":[[11.79636,46.14722],[11.79637,46.14731],[11.79666,46.14756],[11.79661,46.14766]]},"properties":{}},{"type":"Feature","geometry":{"type":"LineString","coordinates":[[11.8078,46.14925],[11.80744,46.14917],[11.807,46.149],[11.80377,46.14788],[11.80284,46.14762],[11.80216,46.14745],[11.79923,46.14705]]},"properties":{}},{"type":"Feature","geometry":{"type":"LineString","coordinates":[[11.81499,46.15588],[11.81497,46.15589]]},"properties":{}},{"type":"Feature","geometry":{"type":"LineString","coordinates":[[11.81497,46.15589],[11.81465,46.15609]]},"properties":{}},{"type":"Feature","geometry":{"type":"LineString","coordinates":[[11.81465,46.15609],[11.81465,46.15615],[11.81471,46.15619],[11.81489,46.15625],[11.81513,46.1564],[11.81509,46.15645]]},"properties":{}},{"type":"Feature","geometry":{"type":"LineString","coordinates":[[11.81321,46.15301],[11.81324,46.15319],[11.81373,46.15386],[11.81391,46.15421],[11.81408,46.15462],[11.81438,46.15501],[11.81477,46.15566],[11.81488,46.15578],[11.81499,46.15588],[11.81532,46.15605],[11.81775,46.15708],[11.81892,46.15771],[11.8197,46.15824],[11.81977,46.1583],[11.81972,46.15839],[11.81973,46.15847],[11.82022,46.15898],[11.82075,46.1596],[11.82121,46.1602],[11.82137,46.16045],[11.82146,46.16066]]},"properties":{}},{"type":"Feature","geometry":{"type":"LineString","coordinates":[[11.81622,46.15381],[11.81635,46.15403],[11.81633,46.1542],[11.81636,46.1543],[11.81661,46.15457],[11.81668,46.15473],[11.81666,46.15483],[11.81667,46.15524],[11.81663,46.15535],[11.81666,46.15575],[11.81662,46.15583],[11.81666,46.15604],[11.817,46.15644],[11.81715,46.15654],[11.81783,46.15674],[11.81796,46.15683],[11.81826,46.15688],[11.81874,46.1573],[11.81938,46.15763],[11.81957,46.1578],[11.82053,46.15818],[11.82108,46.15834],[11.82141,46.15854],[11.82182,46.15865],[11.82239,46.15915],[11.82266,46.15933],[11.82336,46.15958],[11.82353,46.15969],[11.82377,46.1599],[11.82381,46.16014],[11.824,46.16044],[11.82472,46.16094],[11.82491,46.16102],[11.82509,46.16123],[11.8251,46.16131],[11.82506,46.16135],[11.82469,46.16138],[11.8246,46.16144],[11.82463,46.16149],[11.82527,46.16172]]},"properties":{}},{"type":"Feature","geometry":{"type":"LineString","coordinates":[[11.82108,46.16101],[11.82091,46.16083],[11.82071,46.16045],[11.82041,46.16053],[11.8203,46.16052],[11.81969,46.15982],[11.8196,46.15978]]},"properties":{}},{"type":"Feature","geometry":{"type":"LineString","coordinates":[[11.81192,46.15821],[11.81567,46.15984],[11.81612,46.16008],[11.81656,46.16039],[11.81691,46.16071],[11.81743,46.16127],[11.81895,46.16305],[11.81918,46.16345],[11.81924,46.16366],[11.81927,46.16395]]},"properties":{}},{"type":"Feature","geometry":{"type":"LineString","coordinates":[[11.82527,46.16172],[11.82551,46.16193],[11.82595,46.16219],[11.82604,46.16233],[11.82598,46.16244],[11.82613,46.16258],[11.82622,46.16261],[11.82646,46.16253],[11.8266,46.16261],[11.8268,46.16286],[11.82664,46.16303],[11.82648,46.16338],[11.82635,46.16357],[11.82604,46.16386],[11.82579,46.16415],[11.82534,46.16452],[11.82487,46.16472],[11.82372,46.16555],[11.82369,46.16565],[11.82373,46.16572],[11.82373,46.16585]]},"properties":{}},{"type":"Feature","geometry":{"type":"LineString","coordinates":[[11.81927,46.16395],[11.81928,46.16408]]},"properties":{}},{"type":"Feature","geometry":{"type":"LineString","coordinates":[[11.81928,46.16408],[11.81937,46.16484],[11.81936,46.16507],[11.81928,46.16509]]},"properties":{}},{"type":"Feature","geometry":{"type":"LineString","coordinates":[[11.82146,46.16066],[11.82159,46.16113],[11.82164,46.16201],[11.82161,46.16246],[11.82169,46.16313],[11.82171,46.16412],[11.82177,46.16456],[11.822,46.16533],[11.82187,46.16624],[11.82217,46.16676],[11.82247,46.16765],[11.82275,46.16893],[11.82304,46.16938],[11.82372,46.16997],[11.8243,46.17022],[11.82542,46.17055],[11.82593,46.17074],[11.82685,46.17119],[11.8272,46.17131]]},"properties":{}},{"type":"Feature","geometry":{"type":"LineString","coordinates":[[11.8389,46.16928],[11.83903,46.16944]]},"properties":{}},{"type":"Feature","geometry":{"type":"LineString","coordinates":[[11.83903,46.16944],[11.83904,46.16953],[11.83897,46.1697],[11.83899,46.16976],[11.83928,46.16994],[11.83946,46.17015],[11.83996,46.17046],[11.8406,46.17072],[11.84096,46.17094],[11.84112,46.17098],[11.84178,46.17103],[11.84214,46.17094],[11.84222,46.17098]]},"properties":{}},{"type":"Feature","geometry":{"type":"LineString","coordinates":[[11.84222,46.17098],[11.84224,46.17099]]},"properties":{}},{"type":"Feature","geometry":{"type":"LineString","coordinates":[[11.84224,46.17099],[11.84247,46.17107],[11.84299,46.17144],[11.84319,46.17173],[11.84335,46.17184],[11.8437,46.17196],[11.84412,46.17209],[11.84535,46.1723],[11.84576,46.17246],[11.84621,46.17256],[11.84666,46.17258],[11.84786,46.17252],[11.84791,46.17255],[11.84793,46.17262],[11.84791,46.17278]]},"properties":{}},{"type":"Feature","geometry":{"type":"LineString","coordinates":[[11.82733,46.17145],[11.82738,46.17142],[11.82754,46.17161],[11.82868,46.17262],[11.82883,46.17268],[11.8294,46.17318]]},"properties":{}},{"type":"Feature","geometry":{"type":"LineString","coordinates":[[11.84791,46.17278],[11.84793,46.17288]]},"properties":{}},{"type":"Feature","geometry":{"type":"LineString","coordinates":[[11.84793,46.17288],[11.84801,46.17307]]},"properties":{}},{"type":"Feature","geometry":{"type":"LineString","coordinates":[[11.82944,46.1732],[11.82957,46.17316]]},"properties":{}},{"type":"Feature","geometry":{"type":"LineString","coordinates":[[11.82957,46.17316],[11.8296,46.1732]]},"properties":{}},{"type":"Feature","geometry":{"type":"LineString","coordinates":[[11.88189,46.03816],[11.88193,46.03817]]},"properties":{}},{"type":"Feature","geometry":{"type":"LineString","coordinates":[[11.88123,46.03934],[11.88083,46.03983]]},"properties":{}},{"type":"Feature","geometry":{"type":"LineString","coordinates":[[11.87944,46.04082],[11.87924,46.04075]]},"properties":{}},{"type":"Feature","geometry":{"type":"LineString","coordinates":[[11.75473,46.04865],[11.75508,46.04733],[11.75583,46.04391]]},"properties":{}},{"type":"Feature","geometry":{"type":"LineString","coordinates":[[11.75529,46.04636],[11.75593,46.04644],[11.75697,46.04644]]},"properties":{}},{"type":"Feature","geometry":{"type":"LineString","coordinates":[[11.7512,46.04707],[11.75131,46.04709],[11.75152,46.04706],[11.7516,46.04699],[11.75205,46.04639],[11.75218,46.0463],[11.75257,46.04613],[11.75283,46.04609],[11.75379,46.04611],[11.75529,46.04636]]},"properties":{}},{"type":"Feature","geometry":{"type":"LineString","coordinates":[[11.75215,46.04676],[11.75183,46.04668]]},"properties":{}},{"type":"Feature","geometry":{"type":"LineString","coordinates":[[11.75,46.0465],[11.7504,46.04661],[11.75057,46.04671],[11.75081,46.04693],[11.751,46.04704]]},"properties":{}},{"type":"Feature","geometry":{"type":"LineString","coordinates":[[11.75226,46.04707],[11.75209,46.04691],[11.75215,46.04676],[11.75261,46.04659],[11.75332,46.04658],[11.75505,46.04677]]},"properties":{}},{"type":"Feature","geometry":{"type":"LineString","coordinates":[[11.75017,46.04704],[11.75,46.04705]]},"properties":{}},{"type":"Feature","geometry":{"type":"LineString","coordinates":[[11.75109,46.04712],[11.75112,46.04722],[11.75159,46.04768],[11.75181,46.04824]]},"properties":{}},{"type":"Feature","geometry":{"type":"LineString","coordinates":[[11.75181,46.04824],[11.75,46.04815]]},"properties":{}},{"type":"Feature","geometry":{"type":"LineString","coordinates":[[11.75181,46.04824],[11.75251,46.04841],[11.75473,46.04865]]},"properties":{}},{"type":"Feature","geometry":{"type":"LineString","coordinates":[[11.75394,46.04931],[11.75432,46.0486]]},"properties":{}},{"type":"Feature","geometry":{"type":"LineString","coordinates":[[11.75417,46.04949],[11.75473,46.04865]]},"properties":{}},{"type":"Feature","geometry":{"type":"LineString","coordinates":[[11.75193,46.04868],[11.75204,46.0487],[11.7523,46.04886],[11.75274,46.04899],[11.75359,46.04914],[11.7538,46.04922],[11.75417,46.04949],[11.75416,46.04959],[11.75432,46.05003],[11.75442,46.0505],[11.75437,46.05123],[11.75428,46.05151],[11.75421,46.05163],[11.7539,46.05188],[11.75371,46.05194],[11.75283,46.05186],[11.75114,46.05158]]},"properties":{}},{"type":"Feature","geometry":{"type":"LineString","coordinates":[[11.75181,46.04824],[11.75193,46.04868],[11.75193,46.04912],[11.75149,46.05101],[11.75091,46.05196],[11.75059,46.05244],[11.75054,46.05247]]},"properties":{}},{"type":"Feature","geometry":{"type":"LineString","coordinates":[[11.75421,46.05163],[11.7514,46.0512]]},"properties":{}},{"type":"Feature","geometry":{"type":"LineString","coordinates":[[11.75578,46.05174],[11.75421,46.05163]]},"properties":{}},{"type":"Feature","geometry":{"type":"LineString","coordinates":[[11.75,46.05291],[11.75054,46.05247]]},"properties":{}},{"type":"Feature","geometry":{"type":"LineString","coordinates":[[11.75,46.05681],[11.7513,46.05688],[11.75189,46.05701],[11.75246,46.05709],[11.75339,46.05743],[11.7539,46.05766],[11.75439,46.05784],[11.75525,46.05812],[11.7556,46.05832],[11.75572,46.05846],[11.75573,46.05855],[11.75561,46.05868],[11.75516,46.05887],[11.75451,46.05892]]},"properties":{}},{"type":"Feature","geometry":{"type":"LineString","coordinates":[[11.75,46.06016],[11.75145,46.06078],[11.75151,46.06085],[11.75153,46.06095],[11.75144,46.06124],[11.75151,46.06148],[11.75168,46.06166],[11.75185,46.06174],[11.75197,46.06184],[11.75191,46.06197],[11.75145,46.06238],[11.75141,46.06246],[11.75144,46.06252],[11.75163,46.06248],[11.75175,46.06233],[11.75214,46.06207],[11.75223,46.06194],[11.75225,46.06183],[11.75212,46.0617],[11.75202,46.06151],[11.75201,46.06128],[11.75212,46.06107],[11.75221,46.06098],[11.75218,46.0608],[11.75142,46.06035],[11.75133,46.06007],[11.75134,46.05991],[11.75122,46.05968],[11.75058,46.05881],[11.75051,46.05862],[11.75043,46.05851],[11.75,46.0583]]},"properties":{}},{"type":"Feature","geometry":{"type":"LineString","coordinates":[[11.75451,46.05892],[11.75434,46.05897],[11.75429,46.05907],[11.75437,46.05921],[11.75469,46.05946],[11.75474,46.0596],[11.75488,46.0598],[11.7558,46.06051],[11.75678,46.06119],[11.75682,46.06132],[11.75677,46.06144],[11.75656,46.06162],[11.75656,46.06172],[11.75662,46.0618],[11.75662,46.06189]]},"properties":{}},{"type":"Feature","geometry":{"type":"LineString","coordinates":[[11.79831,46.01694],[11.79781,46.01721],[11.79733,46.01755]]},"properties":{}},{"type":"Feature","geometry":{"type":"LineString","coordinates":[[11.79951,46.01783],[11.79936,46.01762],[11.79913,46.01738],[11.79831,46.01694]]},"properties":{}},{"type":"Feature","geometry":{"type":"LineString","coordinates":[[11.79733,46.01755],[11.79703,46.01744],[11.79689,46.01733]]},"properties":{}},{"type":"Feature","geometry":{"type":"LineString","coordinates":[[11.79733,46.01755],[11.79753,46.01797],[11.79777,46.01832]]},"properties":{}},{"type":"Feature","geometry":{"type":"LineString","coordinates":[[11.79777,46.01832],[11.79789,46.01832],[11.79861,46.01813],[11.79951,46.01783]]},"properties":{}},{"type":"Feature","geometry":{"type":"LineString","coordinates":[[11.79757,46.01837],[11.79777,46.01832]]},"properties":{}},{"type":"Feature","geometry":{"type":"LineString","coordinates":[[11.79721,46.01846],[11.79757,46.01837]]},"properties":{}},{"type":"Feature","geometry":{"type":"LineString","coordinates":[[11.78716,46.0202],[11.78629,46.01962],[11.78569,46.01905],[11.78525,46.01852]]},"properties":{}},{"type":"Feature","geometry":{"type":"LineString","coordinates":[[11.7699,46.1372],[11.77033,46.13735],[11.77078,46.13739],[11.77177,46.13777],[11.77343,46.13845],[11.77453,46.13898],[11.77555,46.13953],[11.77705,46.14011],[11.77802,46.14035],[11.77905,46.1404],[11.78046,46.14061],[11.78117,46.14068],[11.78205,46.14068],[11.78343,46.14086],[11.78418,46.141],[11.78489,46.14117],[11.78655,46.1417],[11.78745,46.14192],[11.78854,46.14228],[11.78975,46.14257]]},"properties":{}},{"type":"Feature","geometry":{"type":"LineString","coordinates":[[11.78975,46.14257],[11.79032,46.14283],[11.79104,46.14325],[11.79261,46.14393]]},"properties":{}},{"type":"Feature","geometry":{"type":"LineString","coordinates":[[11.76148,46.09279],[11.76144,46.09326],[11.76146,46.09347],[11.76139,46.09378],[11.76129,46.09399],[11.76083,46.09457],[11.7606,46.09495],[11.76045,46.09561],[11.76047,46.09571],[11.76061,46.096],[11.76102,46.0966],[11.76122,46.0967],[11.76231,46.09691],[11.76269,46.09711],[11.76307,46.09711],[11.76341,46.09703],[11.76375,46.09689],[11.76405,46.09687],[11.76452,46.09698],[11.76514,46.09725],[11.76529,46.09736],[11.76562,46.09781],[11.76593,46.09806],[11.76615,46.09829],[11.7662,46.09844],[11.76617,46.09873],[11.76621,46.09879],[11.76708,46.09913],[11.76739,46.09933],[11.76783,46.09969],[11.7681,46.09996],[11.76841,46.10042],[11.7687,46.10073],[11.76926,46.10125],[11.76933,46.10139],[11.76981,46.10162],[11.77018,46.10194],[11.77055,46.10206],[11.77133,46.10255],[11.77161,46.10264],[11.77191,46.10268]]},"properties":{}},{"type":"Feature","geometry":{"type":"LineString","coordinates":[[11.7686,46.14258],[11.76845,46.14274],[11.76828,46.14319],[11.76809,46.14339],[11.76812,46.14343],[11.76831,46.14345],[11.76835,46.14352],[11.76827,46.14366],[11.7681,46.14382],[11.76799,46.14429],[11.76794,46.14436],[11.76766,46.14455],[11.76748,46.14479],[11.76731,46.1449],[11.7672,46.14506],[11.76718,46.14535],[11.76728,46.14555],[11.76733,46.14574],[11.76731,46.14583],[11.76721,46.14599],[11.76709,46.14598],[11.76678,46.14587],[11.76654,46.14582],[11.76627,46.14572],[11.76589,46.1457],[11.76572,46.14565],[11.76519,46.14559],[11.76458,46.14557],[11.76391,46.14563],[11.76379,46.14567],[11.76282,46.14577],[11.76253,46.14583],[11.76183,46.14585],[11.76156,46.1459],[11.76053,46.14595],[11.75979,46.14615],[11.75915,46.14639]]},"properties":{}},{"type":"Feature","geometry":{"type":"LineString","coordinates":[[11.7542,46.15278],[11.75389,46.15267],[11.75311,46.15214],[11.75268,46.1516],[11.75265,46.15133],[11.75267,46.15118],[11.75289,46.151],[11.75327,46.15077],[11.75339,46.15063],[11.75362,46.15048],[11.75416,46.14992],[11.75455,46.14969],[11.75526,46.14915],[11.75582,46.1489],[11.75633,46.1487],[11.75646,46.14868],[11.75663,46.14847],[11.75709,46.14836],[11.75725,46.14813],[11.75738,46.14802]]},"properties":{}},{"type":"Feature","geometry":{"type":"LineString","coordinates":[[11.80808,46.14935],[11.8078,46.14925]]},"properties":{}},{"type":"Feature","geometry":{"type":"LineString","coordinates":[[11.80794,46.14941],[11.80798,46.14935],[11.8085,46.14953]]},"properties":{}},{"type":"Feature","geometry":{"type":"LineString","coordinates":[[11.80783,46.14957],[11.80794,46.14941]]},"properties":{}},{"type":"Feature","geometry":{"type":"LineString","coordinates":[[11.80706,46.15062],[11.80721,46.15032],[11.80741,46.15007],[11.80793,46.14993],[11.80792,46.14984],[11.80796,46.14977],[11.80783,46.14966],[11.80783,46.14957]]},"properties":{}},{"type":"Feature","geometry":{"type":"LineString","coordinates":[[11.81323,46.15285],[11.81304,46.15281],[11.81288,46.15257],[11.81234,46.15189],[11.8117,46.15126],[11.811,46.15066],[11.8105,46.15033],[11.80962,46.14989],[11.8085,46.14953],[11.80808,46.14935]]},"properties":{}},{"type":"Feature","geometry":{"type":"LineString","coordinates":[[11.77639,46.24028],[11.77613,46.24029],[11.77609,46.24054],[11.77574,46.24058],[11.77558,46.24045],[11.77544,46.2405],[11.77557,46.24073],[11.77572,46.24077],[11.77568,46.24084],[11.77557,46.24086],[11.7752,46.24063],[11.77506,46.24078],[11.77423,46.2404],[11.77409,46.24053],[11.77394,46.24043],[11.77374,46.24068],[11.77358,46.24071],[11.77335,46.24104],[11.77322,46.24108],[11.77289,46.2409],[11.77282,46.24094],[11.77282,46.24125],[11.77275,46.24129],[11.77248,46.24125],[11.77247,46.24131],[11.77268,46.24155],[11.77264,46.24162],[11.77217,46.24148],[11.77209,46.24154],[11.77219,46.2417],[11.77197,46.24205],[11.77185,46.24206],[11.77163,46.24199],[11.77188,46.24226],[11.77171,46.24277],[11.77192,46.24293],[11.77209,46.24297],[11.77203,46.24304],[11.77081,46.24298],[11.77087,46.24305],[11.77127,46.24315],[11.7713,46.24327],[11.7712,46.24365],[11.77088,46.24382],[11.77088,46.24389],[11.77122,46.24396],[11.7712,46.24399],[11.7709,46.244],[11.7707,46.24392],[11.77067,46.24398],[11.77124,46.24434],[11.77146,46.24439],[11.77148,46.24443],[11.77145,46.24447],[11.77136,46.24449],[11.77116,46.24441],[11.77108,46.24441],[11.77109,46.24448],[11.77135,46.24474],[11.77227,46.24497],[11.77258,46.24494],[11.77278,46.24498],[11.77334,46.24487],[11.77332,46.24492],[11.77314,46.24501],[11.77386,46.24516],[11.77401,46.24528],[11.7742,46.24559],[11.7742,46.24576],[11.77413,46.24584],[11.77395,46.24591],[11.7741,46.24609],[11.7743,46.24611],[11.77401,46.24632],[11.77401,46.24668],[11.7747,46.24643],[11.77476,46.24648],[11.77496,46.24644],[11.77474,46.24668],[11.77466,46.24682],[11.77429,46.2471],[11.77471,46.24697],[11.77458,46.2472],[11.77516,46.24698],[11.77494,46.24732],[11.77549,46.24712],[11.77594,46.24726],[11.77558,46.24744],[11.77558,46.24759],[11.77583,46.24759],[11.77566,46.24774],[11.77604,46.24784],[11.77576,46.24794],[11.77603,46.24804],[11.77559,46.2483],[11.77639,46.24835],[11.77674,46.2484],[11.77697,46.24836],[11.77737,46.24846],[11.77699,46.24845],[11.77727,46.24856],[11.77765,46.24862],[11.77742,46.24868],[11.77768,46.24874],[11.77743,46.24877],[11.77781,46.249],[11.77823,46.24906],[11.77817,46.2491],[11.77775,46.24903],[11.77771,46.24924],[11.77667,46.24948],[11.7779,46.24972],[11.77815,46.24993],[11.77819,46.25]]},"properties":{}},{"type":"Feature","geometry":{"type":"LineString","coordinates":[[11.78615,46.24778],[11.78645,46.24797],[11.78647,46.24815],[11.78639,46.24844],[11.78641,46.24855],[11.78656,46.24855],[11.7867,46.24863],[11.78677,46.24862],[11.78688,46.24858],[11.78724,46.24828],[11.78755,46.24817],[11.7878,46.24826],[11.78816,46.24819],[11.78836,46.24823],[11.78864,46.24846],[11.78892,46.24854],[11.78897,46.24859],[11.78896,46.24886],[11.78887,46.24909],[11.78879,46.24949],[11.78859,46.2497],[11.78865,46.24981],[11.78879,46.24984],[11.78886,46.24994],[11.78906,46.25]]},"properties":{}},{"type":"Feature","geometry":{"type":"LineString","coordinates":[[11.8294,46.17318],[11.82944,46.1732]]},"properties":{}},{"type":"Feature","geometry":{"type":"LineString","coordinates":[[11.8296,46.1732],[11.82997,46.17381],[11.83016,46.17405],[11.83029,46.17414],[11.83074,46.17431],[11.83103,46.17451],[11.83106,46.17457]]},"properties":{}},{"type":"Feature","geometry":{"type":"LineString","coordinates":[[11.83291,46.17447],[11.83286,46.17447],[11.83286,46.17442],[11.83293,46.17443],[11.83291,46.17447]]},"properties":{}},{"type":"Feature","geometry":{"type":"LineString","coordinates":[[11.83086,46.17453],[11.83102,46.17454],[11.8313,46.17472],[11.83153,46.17493],[11.83171,46.17524]]},"properties":{}},{"type":"Feature","geometry":{"type":"LineString","coordinates":[[11.84935,46.17327],[11.84937,46.17344],[11.84927,46.17364],[11.84918,46.17375],[11.84893,46.17387],[11.84864,46.1739],[11.84829,46.17405],[11.84786,46.17413],[11.84731,46.17429],[11.84644,46.17432],[11.84608,46.1744],[11.84553,46.17431],[11.84506,46.1745],[11.84496,46.17461],[11.845,46.17471],[11.8451,46.17483],[11.84515,46.17497],[11.8451,46.17507],[11.84493,46.17518],[11.84469,46.17551],[11.84442,46.17567],[11.84417,46.17575],[11.8441,46.17582],[11.84404,46.17594],[11.84395,46.17599],[11.84387,46.17613],[11.84386,46.17631],[11.84376,46.17651],[11.84333,46.17683],[11.84301,46.1772]]},"properties":{}},{"type":"Feature","geometry":{"type":"LineString","coordinates":[[11.83091,46.17881],[11.83133,46.17875]]},"properties":{}},{"type":"Feature","geometry":{"type":"LineString","coordinates":[[11.83012,46.18143],[11.83083,46.18],[11.83097,46.17966],[11.83097,46.17937]]},"properties":{}},{"type":"Feature","geometry":{"type":"LineString","coordinates":[[11.83012,46.18143],[11.83013,46.18152]]},"properties":{}},{"type":"Feature","geometry":{"type":"LineString","coordinates":[[11.85013,46.18509],[11.84989,46.185],[11.84962,46.18496],[11.84934,46.18502],[11.84892,46.18499],[11.84857,46.18487],[11.84736,46.18445],[11.84681,46.18419],[11.84577,46.18377],[11.84471,46.18322]]},"properties":{}},{"type":"Feature","geometry":{"type":"LineString","coordinates":[[11.82898,46.1875],[11.8296,46.18585],[11.82978,46.18515],[11.82997,46.18384],[11.83002,46.18295],[11.82996,46.18233],[11.83013,46.18152]]},"properties":{}},{"type":"Feature","geometry":{"type":"LineString","coordinates":[[11.84245,46.18546],[11.84248,46.18548],[11.84254,46.18546],[11.84266,46.18517],[11.84268,46.185],[11.84264,46.18492],[11.84241,46.18481],[11.84218,46.18436],[11.8422,46.18432],[11.84235,46.18433]]},"properties":{}},{"type":"Feature","geometry":{"type":"LineString","coordinates":[[11.85013,46.18509],[11.85012,46.1853],[11.8503,46.18534],[11.85052,46.1855]]},"properties":{}},{"type":"Feature","geometry":{"type":"LineString","coordinates":[[11.85109,46.18585],[11.85099,46.18582],[11.85052,46.1855]]},"properties":{}},{"type":"Feature","geometry":{"type":"LineString","coordinates":[[11.85156,46.18638],[11.85158,46.18632],[11.85154,46.18625],[11.85109,46.18585]]},"properties":{}},{"type":"Feature","geometry":{"type":"LineString","coordinates":[[11.85134,46.18655],[11.85156,46.18638]]},"properties":{}},{"type":"Feature","geometry":{"type":"LineString","coordinates":[[11.85057,46.18657],[11.85102,46.18662],[11.85134,46.18655]]},"properties":{}},{"type":"Feature","geometry":{"type":"LineString","coordinates":[[11.85021,46.18817],[11.85018,46.18825],[11.8501,46.18826],[11.84997,46.18838],[11.84962,46.18827],[11.84946,46.18814],[11.84933,46.18793],[11.84928,46.18779],[11.84915,46.18765],[11.84875,46.18753],[11.84837,46.18745],[11.84818,46.18736],[11.84802,46.18723],[11.84755,46.1871],[11.84738,46.18688],[11.84719,46.18676],[11.84711,46.1866],[11.84685,46.18662],[11.84667,46.18659],[11.84641,46.18642],[11.84614,46.18637],[11.84599,46.18641],[11.8458,46.18654],[11.84555,46.18658],[11.84547,46.18656],[11.84501,46.18609],[11.84477,46.18609],[11.8447,46.18607],[11.84452,46.18592],[11.84412,46.18582],[11.84401,46.18577],[11.8437,46.18542],[11.84353,46.18527],[11.84344,46.18524],[11.84333,46.18527],[11.84321,46.18524]]},"properties":{}},{"type":"Feature","geometry":{"type":"LineString","coordinates":[[11.82931,46.18756],[11.82898,46.1875]]},"properties":{}},{"type":"Feature","geometry":{"type":"LineString","coordinates":[[11.82876,46.18901],[11.82884,46.18901]]},"properties":{}},{"type":"Feature","geometry":{"type":"LineString","coordinates":[[11.85775,46.18906],[11.85759,46.18915],[11.85746,46.18933],[11.85732,46.18966],[11.8572,46.1897],[11.85714,46.18966],[11.85701,46.18945],[11.85705,46.18928],[11.85682,46.18935],[11.85678,46.1893],[11.85681,46.18919],[11.85679,46.18913],[11.85654,46.18924],[11.85651,46.18923],[11.85649,46.18907],[11.85624,46.18851],[11.85599,46.18836],[11.85584,46.18838],[11.85578,46.18883],[11.85576,46.18885],[11.85559,46.1888],[11.85557,46.18882],[11.85559,46.18905]]},"properties":{}},{"type":"Feature","geometry":{"type":"LineString","coordinates":[[11.90985,46.04031],[11.90971,46.04031]]},"properties":{}},{"type":"Feature","geometry":{"type":"LineString","coordinates":[[11.90982,46.04047],[11.90971,46.04031]]},"properties":{}},{"type":"Feature","geometry":{"type":"LineString","coordinates":[[11.90985,46.04031],[11.90982,46.04047]]},"properties":{}},{"type":"Feature","geometry":{"type":"LineString","coordinates":[[11.85559,46.18905],[11.85553,46.18916],[11.85539,46.18925]]},"properties":{}},{"type":"Feature","geometry":{"type":"LineString","coordinates":[[11.82931,46.18756],[11.82913,46.18795],[11.82905,46.18827],[11.8284,46.19],[11.82817,46.19048],[11.8281,46.1907],[11.8281,46.19079],[11.82815,46.19086],[11.82824,46.19082],[11.82832,46.19072],[11.82842,46.19072]]},"properties":{}},{"type":"Feature","geometry":{"type":"LineString","coordinates":[[11.85539,46.18925],[11.85524,46.18927]]},"properties":{}},{"type":"Feature","geometry":{"type":"LineString","coordinates":[[11.85775,46.18906],[11.85775,46.18928],[11.85792,46.18965],[11.85797,46.18964],[11.85808,46.18936],[11.85814,46.18932],[11.85824,46.18941],[11.85838,46.1897],[11.85853,46.18964],[11.85857,46.18952],[11.85861,46.1895],[11.85866,46.18964],[11.85869,46.18967],[11.85875,46.18968],[11.85885,46.18945],[11.85899,46.18947],[11.85903,46.1894],[11.8593,46.18941],[11.85957,46.1895]]},"properties":{}},{"type":"Feature","geometry":{"type":"LineString","coordinates":[[11.82809,46.19143],[11.82822,46.19138],[11.82858,46.19114],[11.82877,46.19114],[11.82885,46.1911],[11.82898,46.19092],[11.82941,46.19059],[11.82996,46.19045],[11.83012,46.19046],[11.83025,46.19042],[11.83029,46.19037]]},"properties":{}},{"type":"Feature","geometry":{"type":"LineString","coordinates":[[11.86061,46.1891],[11.86071,46.18932],[11.86077,46.18968],[11.8609,46.18977],[11.86127,46.19028],[11.86153,46.19046],[11.86198,46.191],[11.862,46.19105],[11.86197,46.1911],[11.86173,46.19131],[11.86178,46.19143],[11.86191,46.19152],[11.86223,46.19166],[11.86245,46.19171],[11.86246,46.19181],[11.86254,46.19187],[11.8631,46.19191],[11.86372,46.19182],[11.86409,46.19193],[11.86423,46.19213],[11.86428,46.19231],[11.86448,46.19246],[11.86459,46.19259],[11.86466,46.19276],[11.86498,46.1927],[11.86552,46.19268]]},"properties":{}},{"type":"Feature","geometry":{"type":"LineString","coordinates":[[11.86552,46.19268],[11.86561,46.19271],[11.86566,46.19282],[11.86559,46.1929],[11.86543,46.19295],[11.86541,46.193],[11.86545,46.19323],[11.86549,46.1933],[11.8658,46.19347],[11.86585,46.19355],[11.86587,46.19381],[11.86595,46.19392],[11.86618,46.19404],[11.8664,46.19408],[11.86654,46.19407]]},"properties":{}},{"type":"Feature","geometry":{"type":"LineString","coordinates":[[11.82342,46.19734],[11.82334,46.19731],[11.82315,46.19734],[11.82306,46.19746],[11.82291,46.19755],[11.82279,46.19777],[11.8228,46.19796],[11.8227,46.19817],[11.82256,46.19816],[11.8225,46.19823],[11.82244,46.19823],[11.82187,46.19741],[11.82173,46.19703],[11.82164,46.19699],[11.82112,46.19704],[11.82107,46.197],[11.82105,46.19689],[11.82096,46.19687]]},"properties":{}},{"type":"Feature","geometry":{"type":"LineString","coordinates":[[11.81763,46.21599],[11.81762,46.21587],[11.81769,46.21561],[11.81768,46.21551]]},"properties":{}},{"type":"Feature","geometry":{"type":"LineString","coordinates":[[11.81311,46.22952],[11.81316,46.22951],[11.81291,46.2295],[11.81278,46.22955],[11.81277,46.2295],[11.81281,46.22942],[11.81278,46.2294],[11.81264,46.22945],[11.81258,46.22952],[11.81256,46.22942],[11.81252,46.22942],[11.81242,46.22954],[11.81235,46.22956],[11.81229,46.2295],[11.81239,46.22935],[11.81262,46.22918],[11.81274,46.22892],[11.81284,46.22878],[11.81331,46.22828],[11.81334,46.22821],[11.81316,46.22807],[11.81299,46.22788],[11.81311,46.22755],[11.81361,46.2271],[11.81376,46.22699],[11.81394,46.22694],[11.81408,46.22686],[11.81423,46.22665],[11.81418,46.22645],[11.81421,46.22596],[11.81417,46.22526],[11.81421,46.22483],[11.81404,46.22456],[11.81411,46.22442],[11.8141,46.22428],[11.81417,46.22411],[11.81413,46.2238],[11.81419,46.22321],[11.81435,46.22305],[11.81445,46.22287],[11.81455,46.22251],[11.81457,46.22174],[11.81464,46.22156],[11.81467,46.22135],[11.81502,46.22061],[11.81515,46.22021],[11.81526,46.22002],[11.81539,46.21988],[11.81562,46.21929],[11.81595,46.21895],[11.81633,46.21828],[11.81649,46.21808],[11.81703,46.21719],[11.81733,46.21682],[11.81751,46.21642],[11.81763,46.21599]]},"properties":{}},{"type":"Feature","geometry":{"type":"LineString","coordinates":[[11.81308,46.23006],[11.81311,46.22952]]},"properties":{}},{"type":"Feature","geometry":{"type":"LineString","coordinates":[[11.81308,46.23006],[11.81283,46.23021],[11.81307,46.23022],[11.81273,46.23047],[11.81248,46.23082],[11.81233,46.23126],[11.8121,46.23157],[11.81213,46.2316],[11.81227,46.2315],[11.81216,46.23169],[11.8122,46.2317],[11.81232,46.23161],[11.81234,46.23166],[11.81217,46.23179],[11.81175,46.23176],[11.81167,46.23181],[11.81143,46.23229],[11.81128,46.2324],[11.81098,46.23245],[11.81073,46.23278],[11.8106,46.23323]]},"properties":{}},{"type":"Feature","geometry":{"type":"LineString","coordinates":[[11.98704,46.09056],[11.98701,46.09048]]},"properties":{}},{"type":"Feature","geometry":{"type":"LineString","coordinates":[[11.94763,46.07221],[11.94743,46.07177],[11.94723,46.07156],[11.94709,46.07148],[11.94502,46.07075],[11.94438,46.07044],[11.94378,46.07009]]},"properties":{}},{"type":"Feature","geometry":{"type":"LineString","coordinates":[[11.94992,46.07398],[11.94858,46.07363],[11.94839,46.07357],[11.94817,46.07344],[11.94799,46.07328],[11.94787,46.07306],[11.94763,46.07221]]},"properties":{}},{"type":"Feature","geometry":{"type":"LineString","coordinates":[[11.9517,46.07449],[11.94992,46.07398]]},"properties":{}},{"type":"Feature","geometry":{"type":"LineString","coordinates":[[11.95563,46.0761],[11.95358,46.07517],[11.95276,46.07483],[11.9517,46.07449]]},"properties":{}},{"type":"Feature","geometry":{"type":"LineString","coordinates":[[11.96065,46.07928],[11.96022,46.07906],[11.95977,46.07872],[11.95954,46.0785],[11.95909,46.07795],[11.95882,46.07768],[11.95847,46.07741],[11.95804,46.07718],[11.95563,46.0761]]},"properties":{}}]}