{"type":"FeatureCollection","features":[{"type":"Feature","geometry":{"type":"LineString","coordinates":[[11.92039,43.07071],[11.92008,43.07062]]},"properties":{}},{"type":"Feature","geometry":{"type":"LineString","coordinates":[[11.82276,43.05189],[11.8229,43.05184],[11.82299,43.05188],[11.82296,43.05199],[11.82281,43.0521]]},"properties":{}},{"type":"Feature","geometry":{"type":"LineString","coordinates":[[11.82169,43.05126],[11.82183,43.05142],[11.82231,43.0516],[11.82271,43.05183],[11.82277,43.0519],[11.82285,43.05225],[11.82294,43.05241],[11.82354,43.05322],[11.82384,43.05372],[11.8241,43.05396],[11.82422,43.05402],[11.82427,43.05411],[11.82426,43.05435],[11.82436,43.05465],[11.8243,43.05484],[11.82421,43.05491],[11.824,43.05496],[11.82389,43.05502],[11.82374,43.05518]]},"properties":{}},{"type":"Feature","geometry":{"type":"LineString","coordinates":[[11.82449,43.05416],[11.82435,43.05416],[11.82428,43.05423]]},"properties":{}},{"type":"Feature","geometry":{"type":"LineString","coordinates":[[11.82422,43.05402],[11.82471,43.05428],[11.82479,43.0544],[11.82448,43.0548],[11.82408,43.05516]]},"properties":{}},{"type":"Feature","geometry":{"type":"LineString","coordinates":[[11.82374,43.05518],[11.82359,43.0554],[11.82358,43.05544],[11.82366,43.05549],[11.82385,43.05538],[11.82408,43.05516],[11.82415,43.05516]]},"properties":{}},{"type":"Feature","geometry":{"type":"LineString","coordinates":[[11.82263,43.05534],[11.82251,43.05568]]},"properties":{}},{"type":"Feature","geometry":{"type":"LineString","coordinates":[[11.82214,43.05594],[11.82255,43.05541],[11.82263,43.05534]]},"properties":{}},{"type":"Feature","geometry":{"type":"LineString","coordinates":[[11.82251,43.05568],[11.82248,43.0558]]},"properties":{}},{"type":"Feature","geometry":{"type":"LineString","coordinates":[[11.82248,43.0558],[11.82246,43.05593]]},"properties":{}},{"type":"Feature","geometry":{"type":"LineString","coordinates":[[11.96114,43.01159],[11.96122,43.01156],[11.95798,43.007],[11.95792,43.0069],[11.95792,43.00683]]},"properties":{}},{"type":"Feature","geometry":{"type":"LineString","coordinates":[[11.96092,43.01166],[11.96114,43.01159]]},"properties":{}},{"type":"Feature","geometry":{"type":"LineString","coordinates":[[11.96382,43.01529],[11.96368,43.01529],[11.96356,43.01522],[11.96325,43.01462],[11.96287,43.01432],[11.96257,43.014],[11.96092,43.01166]]},"properties":{}},{"type":"Feature","geometry":{"type":"LineString","coordinates":[[11.96397,43.01525],[11.96382,43.01529]]},"properties":{}},{"type":"Feature","geometry":{"type":"LineString","coordinates":[[11.96739,43.02799],[11.96552,43.02174],[11.96491,43.01617],[11.96476,43.01579],[11.96451,43.01548],[11.96422,43.01523],[11.96415,43.01522],[11.96397,43.01525]]},"properties":{}},{"type":"Feature","geometry":{"type":"LineString","coordinates":[[11.96739,43.02799],[11.96821,43.03049],[11.96819,43.03058],[11.96794,43.03061],[11.96481,43.03214],[11.96453,43.03233]]},"properties":{}},{"type":"Feature","geometry":{"type":"LineString","coordinates":[[11.96453,43.03233],[11.96437,43.03232]]},"properties":{}},{"type":"Feature","geometry":{"type":"LineString","coordinates":[[11.96437,43.03232],[11.96433,43.03258],[11.96356,43.03433],[11.96341,43.03476],[11.96333,43.03508],[11.96321,43.03619],[11.96314,43.03624],[11.96305,43.03625],[11.96191,43.03604],[11.9618,43.03605],[11.96174,43.03611],[11.96131,43.03974],[11.96133,43.03985]]},"properties":{}},{"type":"Feature","geometry":{"type":"LineString","coordinates":[[11.9538,43.00245],[11.95424,43.00267],[11.95557,43.00282]]},"properties":{}},{"type":"Feature","geometry":{"type":"LineString","coordinates":[[11.95659,43.05116],[11.95656,43.05123],[11.95648,43.05127],[11.95553,43.05156],[11.95516,43.05176],[11.95461,43.05187],[11.95413,43.05207],[11.95369,43.05215],[11.95364,43.05222],[11.95373,43.05237]]},"properties":{}},{"type":"Feature","geometry":{"type":"LineString","coordinates":[[11.95373,43.05237],[11.95368,43.05242]]},"properties":{}},{"type":"Feature","geometry":{"type":"LineString","coordinates":[[11.95368,43.05242],[11.95319,43.05236],[11.95284,43.05227],[11.95242,43.0524],[11.95184,43.05253],[11.95143,43.05251],[11.95114,43.05254],[11.95051,43.05246],[11.94986,43.05267],[11.94855,43.05295],[11.94782,43.05289],[11.94138,43.05258],[11.94086,43.0526],[11.94017,43.05272],[11.93962,43.05297],[11.93903,43.05338],[11.93857,43.05389],[11.93847,43.05396]]},"properties":{}},{"type":"Feature","geometry":{"type":"LineString","coordinates":[[11.93834,43.05418],[11.93837,43.05421]]},"properties":{}},{"type":"Feature","geometry":{"type":"LineString","coordinates":[[11.93837,43.05421],[11.93862,43.05429]]},"properties":{}},{"type":"Feature","geometry":{"type":"LineString","coordinates":[[11.93862,43.05429],[11.93874,43.05433],[11.93884,43.05431]]},"properties":{}},{"type":"Feature","geometry":{"type":"LineString","coordinates":[[11.94399,43.06297],[11.94426,43.06271],[11.94481,43.06201],[11.94554,43.06088],[11.9461,43.06074],[11.94681,43.06028],[11.95086,43.05795]]},"properties":{}},{"type":"Feature","geometry":{"type":"LineString","coordinates":[[11.93862,43.05429],[11.93848,43.05447],[11.93843,43.05457],[11.93827,43.05525],[11.93822,43.05536],[11.9381,43.05549],[11.93789,43.05561],[11.93702,43.05595],[11.93654,43.05617],[11.93628,43.05634],[11.93611,43.05653],[11.93113,43.06442],[11.93079,43.06502],[11.93046,43.06551],[11.92815,43.06919],[11.92704,43.07052],[11.92456,43.07327]]},"properties":{}},{"type":"Feature","geometry":{"type":"LineString","coordinates":[[11.9243,43.07315],[11.92261,43.07517],[11.92255,43.07519],[11.91906,43.07364],[11.91902,43.07356],[11.91912,43.07333],[11.92039,43.07085]]},"properties":{}},{"type":"Feature","geometry":{"type":"LineString","coordinates":[[11.96133,43.03985],[11.96141,43.03992]]},"properties":{}},{"type":"Feature","geometry":{"type":"LineString","coordinates":[[11.96141,43.03992],[11.96152,43.03999],[11.96412,43.04042],[11.96426,43.04046],[11.96434,43.04059],[11.9643,43.04072],[11.96353,43.0419],[11.96156,43.04517],[11.96152,43.04533],[11.96154,43.04561]]},"properties":{}},{"type":"Feature","geometry":{"type":"LineString","coordinates":[[11.96154,43.04561],[11.96135,43.04563]]},"properties":{}},{"type":"Feature","geometry":{"type":"LineString","coordinates":[[11.96135,43.04563],[11.96128,43.04571],[11.96126,43.04604],[11.96089,43.04644],[11.96015,43.04709],[11.95967,43.04738],[11.95877,43.048]]},"properties":{}},{"type":"Feature","geometry":{"type":"LineString","coordinates":[[11.97056,43.06517],[11.96893,43.06303]]},"properties":{}},{"type":"Feature","geometry":{"type":"LineString","coordinates":[[11.75985,43.00881],[11.75994,43.00868]]},"properties":{}},{"type":"Feature","geometry":{"type":"LineString","coordinates":[[11.75994,43.00868],[11.75992,43.00888]]},"properties":{}},{"type":"Feature","geometry":{"type":"LineString","coordinates":[[11.75951,43.00884],[11.75972,43.00886],[11.75985,43.00881]]},"properties":{}},{"type":"Feature","geometry":{"type":"LineString","coordinates":[[11.75978,43.00902],[11.75985,43.00881]]},"properties":{}},{"type":"Feature","geometry":{"type":"LineString","coordinates":[[11.75992,43.00888],[11.75984,43.00899],[11.75978,43.00902]]},"properties":{}},{"type":"Feature","geometry":{"type":"LineString","coordinates":[[11.7761,43.08736],[11.77602,43.08761]]},"properties":{}},{"type":"Feature","geometry":{"type":"LineString","coordinates":[[11.77602,43.08761],[11.77596,43.08776],[11.77585,43.0878]]},"properties":{}},{"type":"Feature","geometry":{"type":"LineString","coordinates":[[11.79451,43.12771],[11.7944,43.12805],[11.79399,43.12883],[11.79393,43.12918]]},"properties":{}},{"type":"Feature","geometry":{"type":"LineString","coordinates":[[11.79393,43.12918],[11.79389,43.12896],[11.79393,43.12878],[11.79451,43.12771]]},"properties":{}},{"type":"Feature","geometry":{"type":"LineString","coordinates":[[11.79266,43.14073],[11.79332,43.14005],[11.79445,43.13895],[11.79483,43.13836],[11.79489,43.13816],[11.79488,43.13798],[11.79475,43.13778],[11.79312,43.13605],[11.79307,43.13595],[11.79307,43.13583],[11.79313,43.1357],[11.79384,43.13475],[11.79464,43.13397],[11.79478,43.13378],[11.79484,43.13357],[11.79481,43.13322],[11.79452,43.13245],[11.79445,43.13218],[11.79393,43.12918]]},"properties":{}},{"type":"Feature","geometry":{"type":"LineString","coordinates":[[11.77713,43.15355],[11.77725,43.15334]]},"properties":{}},{"type":"Feature","geometry":{"type":"LineString","coordinates":[[11.77713,43.15355],[11.77722,43.1535],[11.77728,43.1535]]},"properties":{}},{"type":"Feature","geometry":{"type":"LineString","coordinates":[[11.77728,43.1535],[11.77709,43.15364]]},"properties":{}},{"type":"Feature","geometry":{"type":"LineString","coordinates":[[11.77709,43.15364],[11.77713,43.15355]]},"properties":{}},{"type":"Feature","geometry":{"type":"LineString","coordinates":[[11.77736,43.15367],[11.77724,43.15364],[11.77709,43.15364]]},"properties":{}},{"type":"Feature","geometry":{"type":"LineString","coordinates":[[11.77351,43.1599],[11.77367,43.15937],[11.77397,43.1588],[11.77414,43.15857],[11.7747,43.15795],[11.77517,43.15718],[11.77578,43.15657],[11.7763,43.15568],[11.77646,43.15522],[11.77662,43.15493],[11.77677,43.15474],[11.77691,43.15462],[11.77721,43.15452],[11.77753,43.15447],[11.77767,43.15438],[11.77771,43.15427],[11.77768,43.15423],[11.77731,43.15411],[11.77714,43.15397],[11.77703,43.15377],[11.77703,43.15369],[11.77709,43.15364]]},"properties":{}},{"type":"Feature","geometry":{"type":"LineString","coordinates":[[11.77856,43.16941],[11.77874,43.16931]]},"properties":{}},{"type":"Feature","geometry":{"type":"LineString","coordinates":[[11.77874,43.16931],[11.77868,43.16942],[11.77872,43.16954]]},"properties":{}},{"type":"Feature","geometry":{"type":"LineString","coordinates":[[11.77831,43.1695],[11.77856,43.16941]]},"properties":{}},{"type":"Feature","geometry":{"type":"LineString","coordinates":[[11.77856,43.16953],[11.77856,43.16941]]},"properties":{}},{"type":"Feature","geometry":{"type":"LineString","coordinates":[[11.7796,43.16976],[11.77973,43.16979],[11.77991,43.16991]]},"properties":{}},{"type":"Feature","geometry":{"type":"LineString","coordinates":[[11.77979,43.16999],[11.77975,43.16987],[11.7796,43.16976]]},"properties":{}},{"type":"Feature","geometry":{"type":"LineString","coordinates":[[11.77991,43.16991],[11.78,43.16995]]},"properties":{}},{"type":"Feature","geometry":{"type":"LineString","coordinates":[[11.78,43.16995],[11.78032,43.17003]]},"properties":{}},{"type":"Feature","geometry":{"type":"LineString","coordinates":[[11.78,43.16995],[11.78002,43.17],[11.77999,43.17005],[11.77991,43.17008],[11.77984,43.17006],[11.7798,43.17002],[11.7798,43.16996],[11.77991,43.16991]]},"properties":{}},{"type":"Feature","geometry":{"type":"LineString","coordinates":[[11.78032,43.17003],[11.78011,43.17002],[11.77996,43.17007]]},"properties":{}},{"type":"Feature","geometry":{"type":"LineString","coordinates":[[11.78191,43.17032],[11.78225,43.17047]]},"properties":{}},{"type":"Feature","geometry":{"type":"LineString","coordinates":[[11.78219,43.17053],[11.78191,43.17032]]},"properties":{}},{"type":"Feature","geometry":{"type":"LineString","coordinates":[[11.7823,43.17047],[11.78254,43.17043]]},"properties":{}},{"type":"Feature","geometry":{"type":"LineString","coordinates":[[11.78225,43.17047],[11.7823,43.17047]]},"properties":{}},{"type":"Feature","geometry":{"type":"LineString","coordinates":[[11.78254,43.17043],[11.78234,43.17054]]},"properties":{}},{"type":"Feature","geometry":{"type":"LineString","coordinates":[[11.7823,43.17047],[11.78234,43.17054],[11.78228,43.17058],[11.78219,43.17053],[11.78225,43.17047]]},"properties":{}},{"type":"Feature","geometry":{"type":"LineString","coordinates":[[11.78236,43.1706],[11.78236,43.17066],[11.78254,43.17085]]},"properties":{}},{"type":"Feature","geometry":{"type":"LineString","coordinates":[[11.78254,43.17085],[11.78259,43.17091]]},"properties":{}},{"type":"Feature","geometry":{"type":"LineString","coordinates":[[11.78259,43.17091],[11.78312,43.17141]]},"properties":{}},{"type":"Feature","geometry":{"type":"LineString","coordinates":[[11.78312,43.17141],[11.78317,43.17145]]},"properties":{}},{"type":"Feature","geometry":{"type":"LineString","coordinates":[[11.78317,43.17145],[11.78346,43.17168]]},"properties":{}},{"type":"Feature","geometry":{"type":"LineString","coordinates":[[11.82203,43.05606],[11.82214,43.05594]]},"properties":{}},{"type":"Feature","geometry":{"type":"LineString","coordinates":[[11.82246,43.05593],[11.82241,43.05629]]},"properties":{}},{"type":"Feature","geometry":{"type":"LineString","coordinates":[[11.82209,43.05641],[11.82201,43.05634],[11.82196,43.05623],[11.82203,43.05606]]},"properties":{}},{"type":"Feature","geometry":{"type":"LineString","coordinates":[[11.82241,43.05629],[11.82226,43.05641],[11.82209,43.05641]]},"properties":{}},{"type":"Feature","geometry":{"type":"LineString","coordinates":[[11.82241,43.05629],[11.82244,43.05649],[11.82256,43.05659]]},"properties":{}},{"type":"Feature","geometry":{"type":"LineString","coordinates":[[11.82256,43.05659],[11.82209,43.05641]]},"properties":{}},{"type":"Feature","geometry":{"type":"LineString","coordinates":[[11.82484,43.0576],[11.82494,43.05765],[11.82513,43.05783],[11.82519,43.05795],[11.8252,43.05803]]},"properties":{}},{"type":"Feature","geometry":{"type":"LineString","coordinates":[[11.82502,43.05811],[11.82507,43.05804],[11.82504,43.05785],[11.82484,43.0576]]},"properties":{}},{"type":"Feature","geometry":{"type":"LineString","coordinates":[[11.8252,43.05803],[11.82515,43.05812]]},"properties":{}},{"type":"Feature","geometry":{"type":"LineString","coordinates":[[11.8252,43.05803],[11.82531,43.05815],[11.82564,43.05822]]},"properties":{}},{"type":"Feature","geometry":{"type":"LineString","coordinates":[[11.82505,43.05815],[11.82502,43.05811]]},"properties":{}},{"type":"Feature","geometry":{"type":"LineString","coordinates":[[11.82505,43.05815],[11.82515,43.05812]]},"properties":{}},{"type":"Feature","geometry":{"type":"LineString","coordinates":[[11.82515,43.05812],[11.82508,43.05818]]},"properties":{}},{"type":"Feature","geometry":{"type":"LineString","coordinates":[[11.82508,43.05818],[11.82505,43.05815]]},"properties":{}},{"type":"Feature","geometry":{"type":"LineString","coordinates":[[11.82515,43.05812],[11.82531,43.05815],[11.82533,43.05821],[11.8253,43.05824]]},"properties":{}},{"type":"Feature","geometry":{"type":"LineString","coordinates":[[11.82451,43.05826],[11.82486,43.05819],[11.82502,43.05811]]},"properties":{}},{"type":"Feature","geometry":{"type":"LineString","coordinates":[[11.82459,43.05827],[11.82505,43.05815]]},"properties":{}},{"type":"Feature","geometry":{"type":"LineString","coordinates":[[11.8253,43.05824],[11.82515,43.05822],[11.82508,43.05818]]},"properties":{}},{"type":"Feature","geometry":{"type":"LineString","coordinates":[[11.82508,43.05818],[11.82492,43.05825]]},"properties":{}},{"type":"Feature","geometry":{"type":"LineString","coordinates":[[11.82564,43.05822],[11.8253,43.05824]]},"properties":{}},{"type":"Feature","geometry":{"type":"LineString","coordinates":[[11.8253,43.05824],[11.82492,43.05825]]},"properties":{}},{"type":"Feature","geometry":{"type":"LineString","coordinates":[[11.82492,43.05825],[11.82451,43.05826]]},"properties":{}},{"type":"Feature","geometry":{"type":"LineString","coordinates":[[11.82846,43.05832],[11.8282,43.05821],[11.82854,43.05821],[11.82862,43.05826],[11.82858,43.05833],[11.82846,43.05832]]},"properties":{}},{"type":"Feature","geometry":{"type":"LineString","coordinates":[[11.82357,43.12093],[11.82405,43.1208],[11.82425,43.1207],[11.82441,43.12056],[11.82459,43.12032],[11.8246,43.12019],[11.82432,43.11933],[11.82429,43.11915],[11.82434,43.11904],[11.82545,43.11761],[11.8256,43.11751],[11.82586,43.11743],[11.82625,43.11743],[11.82648,43.1175],[11.82678,43.11768],[11.82687,43.11777],[11.82694,43.11794],[11.82699,43.1182],[11.8269,43.11861],[11.8268,43.11884],[11.82662,43.11914],[11.8263,43.11949],[11.82599,43.11971],[11.82526,43.12005],[11.82456,43.12065],[11.82405,43.12096],[11.82396,43.1211]]},"properties":{}},{"type":"Feature","geometry":{"type":"LineString","coordinates":[[11.82441,43.12074],[11.82429,43.12068]]},"properties":{}},{"type":"Feature","geometry":{"type":"LineString","coordinates":[[11.82234,43.12074],[11.8225,43.12075],[11.82341,43.12104]]},"properties":{}},{"type":"Feature","geometry":{"type":"LineString","coordinates":[[11.82341,43.12104],[11.82344,43.12096],[11.82357,43.12093]]},"properties":{}},{"type":"Feature","geometry":{"type":"LineString","coordinates":[[11.82387,43.12125],[11.82234,43.12074]]},"properties":{}},{"type":"Feature","geometry":{"type":"LineString","coordinates":[[11.82357,43.12093],[11.82378,43.12097],[11.82396,43.1211]]},"properties":{}},{"type":"Feature","geometry":{"type":"LineString","coordinates":[[11.82341,43.12104],[11.8239,43.1212]]},"properties":{}},{"type":"Feature","geometry":{"type":"LineString","coordinates":[[11.92039,43.07085],[11.92042,43.07075],[11.92039,43.07071]]},"properties":{}},{"type":"Feature","geometry":{"type":"LineString","coordinates":[[11.92008,43.07062],[11.91935,43.0722],[11.91867,43.07355],[11.91857,43.07357],[11.91842,43.07352],[11.91726,43.07298],[11.91696,43.07299],[11.91656,43.07285],[11.91645,43.0729],[11.91553,43.07415],[11.91453,43.07562],[11.91313,43.07761],[11.91258,43.07833],[11.90948,43.08278],[11.90939,43.08286],[11.90852,43.08415],[11.90843,43.08432],[11.90784,43.08414],[11.90745,43.08407],[11.90697,43.08405],[11.90651,43.08408],[11.9062,43.08414],[11.9055,43.08442],[11.90522,43.08459],[11.90448,43.08527],[11.90445,43.08534]]},"properties":{}},{"type":"Feature","geometry":{"type":"LineString","coordinates":[[11.90445,43.08534],[11.90433,43.08551],[11.90357,43.08631],[11.90357,43.08636]]},"properties":{}},{"type":"Feature","geometry":{"type":"LineString","coordinates":[[11.90357,43.08636],[11.90375,43.08644]]},"properties":{}},{"type":"Feature","geometry":{"type":"LineString","coordinates":[[11.90375,43.08644],[11.90392,43.08628],[11.90412,43.08616],[11.90426,43.08616],[11.90429,43.08629],[11.90439,43.08646],[11.90507,43.08682],[11.90574,43.08726],[11.90604,43.08752],[11.90693,43.08857],[11.91118,43.09391],[11.91158,43.09427],[11.91204,43.09458],[11.91588,43.09661],[11.91618,43.09682],[11.91699,43.09777],[11.91711,43.09794]]},"properties":{}},{"type":"Feature","geometry":{"type":"LineString","coordinates":[[11.91696,43.09801],[11.91711,43.09794]]},"properties":{}},{"type":"Feature","geometry":{"type":"LineString","coordinates":[[11.91715,43.09906],[11.91726,43.0985],[11.91723,43.0984],[11.91696,43.09801]]},"properties":{}},{"type":"Feature","geometry":{"type":"LineString","coordinates":[[11.91715,43.09906],[11.91687,43.0997],[11.91676,43.10007],[11.91672,43.10046],[11.91674,43.10509]]},"properties":{}},{"type":"Feature","geometry":{"type":"LineString","coordinates":[[11.91674,43.10509],[11.91683,43.11454],[11.91688,43.11574],[11.91684,43.11597],[11.91675,43.11615],[11.90536,43.12657],[11.90331,43.12837],[11.90308,43.12865],[11.90297,43.12886]]},"properties":{}},{"type":"Feature","geometry":{"type":"LineString","coordinates":[[11.90297,43.12886],[11.9027,43.12945],[11.89618,43.14174],[11.89499,43.14405],[11.89475,43.14432]]},"properties":{}},{"type":"Feature","geometry":{"type":"LineString","coordinates":[[11.82387,43.12125],[11.82345,43.12108],[11.82341,43.12104]]},"properties":{}},{"type":"Feature","geometry":{"type":"LineString","coordinates":[[11.82396,43.1211],[11.8239,43.1212]]},"properties":{}},{"type":"Feature","geometry":{"type":"LineString","coordinates":[[11.82396,43.1211],[11.82403,43.12124]]},"properties":{}},{"type":"Feature","geometry":{"type":"LineString","coordinates":[[11.8239,43.1212],[11.82387,43.12125]]},"properties":{}},{"type":"Feature","geometry":{"type":"LineString","coordinates":[[11.8239,43.1212],[11.8242,43.1213]]},"properties":{}},{"type":"Feature","geometry":{"type":"LineString","coordinates":[[11.82413,43.12136],[11.82387,43.12125]]},"properties":{}},{"type":"Feature","geometry":{"type":"LineString","coordinates":[[11.8242,43.1213],[11.82463,43.12152]]},"properties":{}},{"type":"Feature","geometry":{"type":"LineString","coordinates":[[11.82445,43.12166],[11.82413,43.12136]]},"properties":{}},{"type":"Feature","geometry":{"type":"LineString","coordinates":[[11.85427,43.13772],[11.85429,43.13767],[11.85424,43.13765],[11.85425,43.1376],[11.85546,43.13625],[11.85556,43.13619],[11.85562,43.13607],[11.85644,43.13531]]},"properties":{}},{"type":"Feature","geometry":{"type":"LineString","coordinates":[[11.86452,43.17351],[11.86446,43.17355]]},"properties":{}},{"type":"Feature","geometry":{"type":"LineString","coordinates":[[11.86446,43.17355],[11.86375,43.17406]]},"properties":{}},{"type":"Feature","geometry":{"type":"LineString","coordinates":[[11.86375,43.17406],[11.86365,43.17412]]},"properties":{}},{"type":"Feature","geometry":{"type":"LineString","coordinates":[[11.86365,43.17412],[11.85821,43.17794],[11.85776,43.17832],[11.85706,43.17905],[11.85681,43.17937],[11.85609,43.18054],[11.85439,43.18359],[11.85418,43.1838],[11.85405,43.18387],[11.85109,43.18672],[11.85056,43.18718]]},"properties":{}},{"type":"Feature","geometry":{"type":"LineString","coordinates":[[11.85056,43.18718],[11.85045,43.18728]]},"properties":{}},{"type":"Feature","geometry":{"type":"LineString","coordinates":[[11.85045,43.18728],[11.85021,43.18749],[11.84844,43.18882],[11.84817,43.18919],[11.84735,43.19075],[11.84723,43.19107],[11.84711,43.19252],[11.84707,43.19268],[11.84682,43.19303],[11.84619,43.19372],[11.84599,43.19406],[11.84564,43.19541],[11.84551,43.19623],[11.8441,43.19835],[11.84189,43.20057],[11.84181,43.20069]]},"properties":{}},{"type":"Feature","geometry":{"type":"LineString","coordinates":[[11.84181,43.20069],[11.84124,43.20164]]},"properties":{}},{"type":"Feature","geometry":{"type":"LineString","coordinates":[[11.84124,43.20164],[11.84119,43.20175]]},"properties":{}},{"type":"Feature","geometry":{"type":"LineString","coordinates":[[11.84119,43.20175],[11.83987,43.20346],[11.83878,43.20519],[11.83869,43.20549],[11.83843,43.20721],[11.83682,43.21363],[11.83659,43.21397],[11.83519,43.21852],[11.83403,43.22247],[11.83395,43.22309],[11.83396,43.22329],[11.83416,43.22401],[11.83412,43.22409],[11.83394,43.22419]]},"properties":{}},{"type":"Feature","geometry":{"type":"LineString","coordinates":[[11.83394,43.22419],[11.83358,43.2243]]},"properties":{}},{"type":"Feature","geometry":{"type":"LineString","coordinates":[[11.83358,43.2243],[11.83321,43.2243],[11.83127,43.2249],[11.82829,43.22574],[11.82799,43.22586],[11.82769,43.22604],[11.82725,43.22643],[11.82724,43.22651]]},"properties":{}},{"type":"Feature","geometry":{"type":"LineString","coordinates":[[11.80542,43.2113],[11.80565,43.21162]]},"properties":{}},{"type":"Feature","geometry":{"type":"LineString","coordinates":[[11.8053,43.21165],[11.80543,43.21161],[11.80565,43.21162]]},"properties":{}},{"type":"Feature","geometry":{"type":"LineString","coordinates":[[11.80565,43.21162],[11.80571,43.21164]]},"properties":{}},{"type":"Feature","geometry":{"type":"LineString","coordinates":[[11.80571,43.21164],[11.80585,43.21174],[11.8059,43.21188]]},"properties":{}},{"type":"Feature","geometry":{"type":"LineString","coordinates":[[11.80523,43.21205],[11.80515,43.21193],[11.80514,43.21184],[11.80521,43.21171],[11.8053,43.21165]]},"properties":{}},{"type":"Feature","geometry":{"type":"LineString","coordinates":[[11.8059,43.21188],[11.80589,43.21193]]},"properties":{}},{"type":"Feature","geometry":{"type":"LineString","coordinates":[[11.80589,43.21193],[11.80582,43.21205],[11.80561,43.21215]]},"properties":{}},{"type":"Feature","geometry":{"type":"LineString","coordinates":[[11.80542,43.21215],[11.80523,43.21205]]},"properties":{}},{"type":"Feature","geometry":{"type":"LineString","coordinates":[[11.80561,43.21215],[11.80542,43.21215]]},"properties":{}},{"type":"Feature","geometry":{"type":"LineString","coordinates":[[11.80589,43.21193],[11.80598,43.21205],[11.80639,43.21236],[11.80651,43.21249]]},"properties":{}},{"type":"Feature","geometry":{"type":"LineString","coordinates":[[11.80651,43.21249],[11.80609,43.21224],[11.80561,43.21215]]},"properties":{}},{"type":"Feature","geometry":{"type":"LineString","coordinates":[[11.80714,43.21311],[11.80651,43.21249]]},"properties":{}},{"type":"Feature","geometry":{"type":"LineString","coordinates":[[11.80743,43.21339],[11.80714,43.21311]]},"properties":{}},{"type":"Feature","geometry":{"type":"LineString","coordinates":[[11.80966,43.21638],[11.80853,43.21455],[11.80795,43.21391]]},"properties":{}},{"type":"Feature","geometry":{"type":"LineString","coordinates":[[11.80966,43.21638],[11.80985,43.21657],[11.81004,43.21665]]},"properties":{}},{"type":"Feature","geometry":{"type":"LineString","coordinates":[[11.80968,43.21675],[11.80969,43.21654],[11.80966,43.21638]]},"properties":{}},{"type":"Feature","geometry":{"type":"LineString","coordinates":[[11.80968,43.21675],[11.80979,43.21668],[11.81004,43.21665]]},"properties":{}},{"type":"Feature","geometry":{"type":"LineString","coordinates":[[11.81004,43.21665],[11.81025,43.21673],[11.81036,43.21688]]},"properties":{}},{"type":"Feature","geometry":{"type":"LineString","coordinates":[[11.80983,43.21719],[11.80969,43.21712],[11.8096,43.217],[11.8096,43.21686],[11.80968,43.21675]]},"properties":{}},{"type":"Feature","geometry":{"type":"LineString","coordinates":[[11.81036,43.21688],[11.81037,43.21695],[11.81031,43.21708],[11.81024,43.21715],[11.81008,43.2172]]},"properties":{}},{"type":"Feature","geometry":{"type":"LineString","coordinates":[[11.81008,43.2172],[11.80983,43.21719]]},"properties":{}},{"type":"Feature","geometry":{"type":"LineString","coordinates":[[11.80991,43.21751],[11.80989,43.21733],[11.80983,43.21719]]},"properties":{}},{"type":"Feature","geometry":{"type":"LineString","coordinates":[[11.81008,43.2172],[11.80999,43.2173],[11.80991,43.21751]]},"properties":{}},{"type":"Feature","geometry":{"type":"LineString","coordinates":[[11.8102,43.21965],[11.81014,43.21866],[11.80993,43.21776],[11.80991,43.21751]]},"properties":{}},{"type":"Feature","geometry":{"type":"LineString","coordinates":[[11.80686,43.21812],[11.80689,43.21824],[11.80715,43.21847],[11.80921,43.22008],[11.80943,43.2202]]},"properties":{}},{"type":"Feature","geometry":{"type":"LineString","coordinates":[[11.8102,43.21965],[11.81025,43.2199],[11.81038,43.22003]]},"properties":{}},{"type":"Feature","geometry":{"type":"LineString","coordinates":[[11.81001,43.22007],[11.81017,43.21989],[11.8102,43.21965]]},"properties":{}},{"type":"Feature","geometry":{"type":"LineString","coordinates":[[11.81001,43.22007],[11.81019,43.22001],[11.81038,43.22003]]},"properties":{}},{"type":"Feature","geometry":{"type":"LineString","coordinates":[[11.81038,43.22003],[11.81048,43.22007]]},"properties":{}},{"type":"Feature","geometry":{"type":"LineString","coordinates":[[11.81048,43.22007],[11.81056,43.22013],[11.81062,43.22026]]},"properties":{}},{"type":"Feature","geometry":{"type":"LineString","coordinates":[[11.80943,43.2202],[11.80969,43.22021],[11.80993,43.22014]]},"properties":{}},{"type":"Feature","geometry":{"type":"LineString","coordinates":[[11.80988,43.22034],[11.80943,43.2202]]},"properties":{}},{"type":"Feature","geometry":{"type":"LineString","coordinates":[[11.81015,43.22054],[11.80997,43.22046],[11.80988,43.22034],[11.80988,43.22021],[11.81001,43.22007]]},"properties":{}},{"type":"Feature","geometry":{"type":"LineString","coordinates":[[11.81062,43.22026],[11.81055,43.22043]]},"properties":{}},{"type":"Feature","geometry":{"type":"LineString","coordinates":[[11.81055,43.22043],[11.81045,43.2205],[11.81022,43.22055]]},"properties":{}},{"type":"Feature","geometry":{"type":"LineString","coordinates":[[11.81022,43.22055],[11.81015,43.22054]]},"properties":{}},{"type":"Feature","geometry":{"type":"LineString","coordinates":[[11.81015,43.22079],[11.80992,43.2206],[11.8099,43.22038]]},"properties":{}},{"type":"Feature","geometry":{"type":"LineString","coordinates":[[11.81055,43.22043],[11.81048,43.22062],[11.81057,43.22088]]},"properties":{}},{"type":"Feature","geometry":{"type":"LineString","coordinates":[[11.81015,43.22054],[11.81008,43.22061],[11.81015,43.22079]]},"properties":{}},{"type":"Feature","geometry":{"type":"LineString","coordinates":[[11.81057,43.22088],[11.81042,43.22066],[11.81022,43.22055]]},"properties":{}},{"type":"Feature","geometry":{"type":"LineString","coordinates":[[11.89528,43.1445],[11.89417,43.14641],[11.89371,43.14714],[11.8933,43.14788],[11.88828,43.15609],[11.88698,43.15805],[11.88677,43.15834],[11.88651,43.15861],[11.88614,43.15896],[11.88492,43.15992],[11.88165,43.16169],[11.88107,43.16207],[11.88066,43.16243],[11.88031,43.16278],[11.87905,43.16422],[11.87768,43.16554],[11.87707,43.16592],[11.87486,43.16713],[11.8746,43.16734],[11.87346,43.16852],[11.87331,43.16863],[11.86885,43.17077],[11.86853,43.17089],[11.8672,43.17161],[11.86644,43.17209],[11.86452,43.17351]]},"properties":{}},{"type":"Feature","geometry":{"type":"LineString","coordinates":[[11.81057,43.22088],[11.81081,43.2213]]},"properties":{}},{"type":"Feature","geometry":{"type":"LineString","coordinates":[[11.8103,43.22148],[11.81058,43.22136],[11.81063,43.22122],[11.8106,43.22115],[11.81015,43.22079]]},"properties":{}},{"type":"Feature","geometry":{"type":"LineString","coordinates":[[11.81128,43.22254],[11.81134,43.22243],[11.81135,43.2223]]},"properties":{}},{"type":"Feature","geometry":{"type":"LineString","coordinates":[[11.81135,43.2223],[11.81143,43.2224],[11.81146,43.22259]]},"properties":{}},{"type":"Feature","geometry":{"type":"LineString","coordinates":[[11.80404,43.22343],[11.80451,43.22335],[11.8103,43.22148]]},"properties":{}},{"type":"Feature","geometry":{"type":"LineString","coordinates":[[11.81135,43.22282],[11.81122,43.22281],[11.81114,43.22275],[11.81112,43.22267],[11.81117,43.22259],[11.81133,43.22254],[11.81142,43.22256],[11.81149,43.22263],[11.81148,43.22276],[11.81135,43.22282]]},"properties":{}},{"type":"Feature","geometry":{"type":"LineString","coordinates":[[11.81067,43.22282],[11.81113,43.22263]]},"properties":{}},{"type":"Feature","geometry":{"type":"LineString","coordinates":[[11.81117,43.22278],[11.81067,43.22282]]},"properties":{}},{"type":"Feature","geometry":{"type":"LineString","coordinates":[[11.8115,43.22272],[11.81174,43.22304]]},"properties":{}},{"type":"Feature","geometry":{"type":"LineString","coordinates":[[11.81174,43.22304],[11.81135,43.22282]]},"properties":{}},{"type":"Feature","geometry":{"type":"LineString","coordinates":[[11.82724,43.22651],[11.82756,43.22664]]},"properties":{}},{"type":"Feature","geometry":{"type":"LineString","coordinates":[[11.82756,43.22664],[11.82761,43.22666],[11.82766,43.22663],[11.82786,43.22643],[11.82848,43.22612],[11.83097,43.22539],[11.83183,43.22518],[11.83227,43.22505],[11.83249,43.22495],[11.83342,43.22473],[11.83356,43.22472],[11.83381,43.22488],[11.83406,43.2259],[11.83419,43.2267],[11.83419,43.22727],[11.83403,43.2283],[11.83393,43.22966],[11.83406,43.23079],[11.83416,43.23238],[11.83421,43.23277],[11.83429,43.23309],[11.83459,43.23369],[11.83476,43.23393],[11.83557,43.23488]]},"properties":{}},{"type":"Feature","geometry":{"type":"LineString","coordinates":[[11.83557,43.23488],[11.83627,43.23577],[11.83685,43.23661],[11.83707,43.23721],[11.8379,43.23996],[11.83832,43.24148],[11.83838,43.24222],[11.83858,43.24596],[11.83869,43.24905],[11.83876,43.25]]},"properties":{}},{"type":"Feature","geometry":{"type":"LineString","coordinates":[[11.78346,43.17168],[11.78352,43.17173]]},"properties":{}},{"type":"Feature","geometry":{"type":"LineString","coordinates":[[11.78498,43.17284],[11.78458,43.17269],[11.78415,43.1724],[11.78371,43.17192],[11.7829,43.17127],[11.78225,43.17058]]},"properties":{}},{"type":"Feature","geometry":{"type":"LineString","coordinates":[[11.78352,43.17173],[11.78371,43.17188]]},"properties":{}},{"type":"Feature","geometry":{"type":"LineString","coordinates":[[11.78371,43.17188],[11.78376,43.17192]]},"properties":{}},{"type":"Feature","geometry":{"type":"LineString","coordinates":[[11.78386,43.17207],[11.78434,43.17176],[11.78438,43.17175],[11.78447,43.17181],[11.78394,43.17217]]},"properties":{}},{"type":"Feature","geometry":{"type":"LineString","coordinates":[[11.78376,43.17192],[11.78388,43.17202]]},"properties":{}},{"type":"Feature","geometry":{"type":"LineString","coordinates":[[11.78388,43.17202],[11.78401,43.17216]]},"properties":{}},{"type":"Feature","geometry":{"type":"LineString","coordinates":[[11.78401,43.17216],[11.78414,43.17231],[11.78435,43.17248]]},"properties":{}},{"type":"Feature","geometry":{"type":"LineString","coordinates":[[11.78435,43.17248],[11.78444,43.17254]]},"properties":{}},{"type":"Feature","geometry":{"type":"LineString","coordinates":[[11.78526,43.1724],[11.78518,43.17257],[11.78498,43.17284]]},"properties":{}},{"type":"Feature","geometry":{"type":"LineString","coordinates":[[11.78444,43.17254],[11.78489,43.17277]]},"properties":{}},{"type":"Feature","geometry":{"type":"LineString","coordinates":[[11.79675,43.20528],[11.79717,43.20497]]},"properties":{}},{"type":"Feature","geometry":{"type":"LineString","coordinates":[[11.79803,43.20623],[11.7987,43.20627],[11.79877,43.20631],[11.79871,43.20694],[11.79796,43.2069]]},"properties":{}},{"type":"Feature","geometry":{"type":"LineString","coordinates":[[11.79659,43.20781],[11.79624,43.20627],[11.79622,43.20606],[11.79639,43.2056],[11.79663,43.20542]]},"properties":{}},{"type":"Feature","geometry":{"type":"LineString","coordinates":[[11.80253,43.20829],[11.80251,43.20812]]},"properties":{}},{"type":"Feature","geometry":{"type":"LineString","coordinates":[[11.80398,43.20991],[11.80274,43.20866],[11.80263,43.20852],[11.80253,43.20829]]},"properties":{}},{"type":"Feature","geometry":{"type":"LineString","coordinates":[[11.8043,43.21024],[11.80398,43.20991]]},"properties":{}},{"type":"Feature","geometry":{"type":"LineString","coordinates":[[11.80462,43.21056],[11.8043,43.21024]]},"properties":{}},{"type":"Feature","geometry":{"type":"LineString","coordinates":[[11.80462,43.21056],[11.80542,43.2113]]},"properties":{}},{"type":"Feature","geometry":{"type":"LineString","coordinates":[[11.8053,43.21165],[11.80535,43.21144],[11.8053,43.21133],[11.80462,43.21056]]},"properties":{}},{"type":"Feature","geometry":{"type":"LineString","coordinates":[[11.75992,43.00888],[11.76,43.00914],[11.76007,43.00923]]},"properties":{}},{"type":"Feature","geometry":{"type":"LineString","coordinates":[[11.77347,43.16008],[11.77351,43.1599]]},"properties":{}},{"type":"Feature","geometry":{"type":"LineString","coordinates":[[11.77172,43.16141],[11.77302,43.16065],[11.77332,43.16037],[11.77347,43.16008]]},"properties":{}},{"type":"Feature","geometry":{"type":"LineString","coordinates":[[11.77175,43.16429],[11.77179,43.164],[11.77176,43.16378],[11.77171,43.16367],[11.77125,43.16301],[11.771,43.16203],[11.77103,43.16193],[11.7711,43.16185],[11.77172,43.16141]]},"properties":{}},{"type":"Feature","geometry":{"type":"LineString","coordinates":[[11.77247,43.16598],[11.77249,43.16577],[11.77244,43.16559],[11.77187,43.16509],[11.77171,43.16486],[11.77168,43.16461],[11.77175,43.16429]]},"properties":{}},{"type":"Feature","geometry":{"type":"LineString","coordinates":[[11.75454,43.22078],[11.75461,43.22055],[11.75476,43.22028]]},"properties":{}},{"type":"Feature","geometry":{"type":"LineString","coordinates":[[11.7552,43.22121],[11.75466,43.22098]]},"properties":{}},{"type":"Feature","geometry":{"type":"LineString","coordinates":[[11.80278,43.22367],[11.80293,43.22354],[11.80404,43.22343]]},"properties":{}}]}