{"type":"FeatureCollection","features":[{"type":"Feature","geometry":{"type":"LineString","coordinates":[[11.82856,42.51496],[11.82851,42.51485]]},"properties":{}},{"type":"Feature","geometry":{"type":"LineString","coordinates":[[11.8737,42.56703],[11.87356,42.56717]]},"properties":{}},{"type":"Feature","geometry":{"type":"LineString","coordinates":[[11.87346,42.5671],[11.87353,42.56712],[11.87356,42.56717]]},"properties":{}},{"type":"Feature","geometry":{"type":"LineString","coordinates":[[11.8734,42.56719],[11.87346,42.5671]]},"properties":{}},{"type":"Feature","geometry":{"type":"LineString","coordinates":[[11.8734,42.56719],[11.87332,42.56714]]},"properties":{}},{"type":"Feature","geometry":{"type":"LineString","coordinates":[[11.87356,42.56717],[11.87345,42.56729]]},"properties":{}},{"type":"Feature","geometry":{"type":"LineString","coordinates":[[11.87338,42.56735],[11.8734,42.56719]]},"properties":{}},{"type":"Feature","geometry":{"type":"LineString","coordinates":[[11.87345,42.56729],[11.87338,42.56735]]},"properties":{}},{"type":"Feature","geometry":{"type":"LineString","coordinates":[[11.86721,42.60895],[11.86729,42.60874],[11.86741,42.60777],[11.86781,42.60668],[11.86783,42.60651],[11.86779,42.60625],[11.86769,42.60602],[11.86725,42.60524],[11.86718,42.60526]]},"properties":{}},{"type":"Feature","geometry":{"type":"LineString","coordinates":[[11.86989,42.61612],[11.86979,42.61594],[11.86959,42.61576],[11.86857,42.61498],[11.8678,42.61406],[11.86741,42.6135],[11.86716,42.61301],[11.86706,42.61216],[11.86693,42.61166]]},"properties":{}},{"type":"Feature","geometry":{"type":"LineString","coordinates":[[11.82851,42.51485],[11.82821,42.51392],[11.82823,42.5138],[11.82873,42.51318],[11.82902,42.51298],[11.82912,42.51284],[11.82927,42.51235],[11.82924,42.51216],[11.82915,42.51196],[11.82886,42.51174],[11.82849,42.51157],[11.82834,42.51142],[11.82821,42.51107],[11.82812,42.51097],[11.82691,42.5102],[11.82617,42.50968],[11.82499,42.50907],[11.82472,42.50888],[11.82394,42.50796],[11.82342,42.50747],[11.82244,42.50679],[11.82153,42.50636],[11.82134,42.50623],[11.82105,42.50597],[11.8202,42.50496],[11.81931,42.504],[11.81826,42.50306],[11.81595,42.50127],[11.81468,42.50035],[11.81397,42.5]]},"properties":{}},{"type":"Feature","geometry":{"type":"LineString","coordinates":[[11.78347,42.50526],[11.78271,42.50468]]},"properties":{}},{"type":"Feature","geometry":{"type":"LineString","coordinates":[[11.78271,42.50468],[11.78172,42.5039],[11.78153,42.504],[11.78255,42.50476],[11.78271,42.50468]]},"properties":{}},{"type":"Feature","geometry":{"type":"LineString","coordinates":[[11.86718,42.60526],[11.86671,42.60395],[11.86666,42.60353],[11.86681,42.60309],[11.86681,42.603],[11.86649,42.60258],[11.86632,42.60183],[11.8663,42.60145],[11.86615,42.60146],[11.86596,42.60105],[11.86624,42.60096],[11.86625,42.60089],[11.86582,42.60009],[11.86589,42.60006],[11.86559,42.59945],[11.86532,42.59834],[11.8649,42.59771],[11.86467,42.59687],[11.86442,42.59631],[11.86387,42.59561],[11.86272,42.59468],[11.86108,42.59259],[11.86046,42.59141],[11.86026,42.59121],[11.85955,42.59079],[11.85906,42.59038],[11.85809,42.58926],[11.85765,42.58882],[11.85747,42.58856],[11.85733,42.58808],[11.85711,42.58765],[11.85707,42.58751],[11.857,42.58744]]},"properties":{}},{"type":"Feature","geometry":{"type":"LineString","coordinates":[[11.86823,42.67251],[11.86811,42.67242],[11.86771,42.67199],[11.86756,42.67188],[11.86596,42.67129],[11.86446,42.67081],[11.86398,42.67075],[11.86321,42.67081]]},"properties":{}},{"type":"Feature","geometry":{"type":"LineString","coordinates":[[11.87276,42.6197],[11.87267,42.61939],[11.87123,42.61789],[11.86989,42.61612]]},"properties":{}},{"type":"Feature","geometry":{"type":"LineString","coordinates":[[11.8749,42.6255],[11.87413,42.62392],[11.87374,42.623],[11.87308,42.62208],[11.87291,42.62176],[11.8728,42.62141],[11.87272,42.62098],[11.8727,42.62062],[11.87278,42.62019],[11.87276,42.6197]]},"properties":{}},{"type":"Feature","geometry":{"type":"LineString","coordinates":[[11.87546,42.62686],[11.87538,42.62655],[11.87521,42.62627],[11.87511,42.62603],[11.87499,42.62559],[11.8749,42.6255]]},"properties":{}},{"type":"Feature","geometry":{"type":"LineString","coordinates":[[11.88919,42.64009],[11.8892,42.63904],[11.88907,42.63822],[11.88896,42.6379],[11.88858,42.63731],[11.88827,42.63666],[11.88806,42.63637],[11.88793,42.63627],[11.8877,42.63623],[11.88661,42.63578],[11.88537,42.63522],[11.88476,42.6349],[11.88449,42.63471],[11.88398,42.63442],[11.88299,42.63366],[11.88269,42.63308],[11.88248,42.63283],[11.88146,42.6321],[11.88129,42.63193],[11.88108,42.63158],[11.88095,42.63145],[11.87912,42.6305],[11.87859,42.63017],[11.87792,42.62971],[11.87715,42.62926],[11.87661,42.62879],[11.876,42.62811],[11.87567,42.62764]]},"properties":{}},{"type":"Feature","geometry":{"type":"LineString","coordinates":[[11.89045,42.64241],[11.88988,42.64189],[11.88935,42.64094],[11.88929,42.64072],[11.88919,42.64009]]},"properties":{}},{"type":"Feature","geometry":{"type":"LineString","coordinates":[[11.87154,42.67388],[11.87042,42.67337],[11.87025,42.67334],[11.86987,42.67315],[11.86823,42.67251]]},"properties":{}},{"type":"Feature","geometry":{"type":"LineString","coordinates":[[11.98246,42.64083],[11.98412,42.63947],[11.98457,42.63902],[11.98474,42.63877]]},"properties":{}},{"type":"Feature","geometry":{"type":"LineString","coordinates":[[11.98219,42.64116],[11.98142,42.64211],[11.9804,42.64263],[11.97903,42.6432]]},"properties":{}},{"type":"Feature","geometry":{"type":"LineString","coordinates":[[11.97903,42.6432],[11.97869,42.64334]]},"properties":{}},{"type":"Feature","geometry":{"type":"LineString","coordinates":[[11.97869,42.64334],[11.97863,42.6433],[11.97855,42.64332],[11.97741,42.64381],[11.97737,42.64389]]},"properties":{}},{"type":"Feature","geometry":{"type":"LineString","coordinates":[[11.97869,42.64334],[11.97716,42.64398]]},"properties":{}},{"type":"Feature","geometry":{"type":"LineString","coordinates":[[11.93131,42.53301],[11.93105,42.53323],[11.9305,42.53285]]},"properties":{}},{"type":"Feature","geometry":{"type":"LineString","coordinates":[[11.97671,42.64406],[11.97653,42.64406],[11.97566,42.64431],[11.97558,42.64441],[11.9756,42.64458]]},"properties":{}},{"type":"Feature","geometry":{"type":"LineString","coordinates":[[11.9756,42.64458],[11.97551,42.6448],[11.97562,42.64501],[11.97565,42.64514],[11.97562,42.64534]]},"properties":{}},{"type":"Feature","geometry":{"type":"LineString","coordinates":[[11.97562,42.64534],[11.97509,42.64574]]},"properties":{}},{"type":"Feature","geometry":{"type":"LineString","coordinates":[[11.9818,42.64666],[11.98035,42.64704]]},"properties":{}},{"type":"Feature","geometry":{"type":"LineString","coordinates":[[11.98035,42.64704],[11.98004,42.64711]]},"properties":{}},{"type":"Feature","geometry":{"type":"LineString","coordinates":[[11.98004,42.64711],[11.97983,42.64717]]},"properties":{}},{"type":"Feature","geometry":{"type":"LineString","coordinates":[[11.97983,42.64717],[11.97924,42.64732]]},"properties":{}},{"type":"Feature","geometry":{"type":"LineString","coordinates":[[11.97924,42.64732],[11.97782,42.64768]]},"properties":{}},{"type":"Feature","geometry":{"type":"LineString","coordinates":[[11.97782,42.64768],[11.97369,42.64868]]},"properties":{}},{"type":"Feature","geometry":{"type":"LineString","coordinates":[[11.97369,42.64868],[11.97377,42.64884]]},"properties":{}},{"type":"Feature","geometry":{"type":"LineString","coordinates":[[11.97369,42.64868],[11.97105,42.64929],[11.96857,42.64991]]},"properties":{}},{"type":"Feature","geometry":{"type":"LineString","coordinates":[[11.97377,42.64884],[11.97404,42.64939],[11.97409,42.64981],[11.97417,42.65006],[11.97454,42.65077],[11.97489,42.65128],[11.97499,42.65133],[11.97519,42.65125],[11.97635,42.65056],[11.97701,42.65032],[11.97789,42.64984],[11.97812,42.64956],[11.97871,42.64848],[11.97889,42.64835],[11.97914,42.64828]]},"properties":{}},{"type":"Feature","geometry":{"type":"LineString","coordinates":[[11.76341,42.74559],[11.7634,42.74588]]},"properties":{}},{"type":"Feature","geometry":{"type":"LineString","coordinates":[[11.7634,42.74588],[11.76335,42.74579],[11.76321,42.74567]]},"properties":{}}]}