{"type":"FeatureCollection","features":[{"type":"Feature","geometry":{"type":"LineString","coordinates":[[11.79459,43.5067],[11.79498,43.50649],[11.79643,43.50582],[11.79695,43.50565],[11.79825,43.50532],[11.79905,43.50518]]},"properties":{}},{"type":"Feature","geometry":{"type":"LineString","coordinates":[[11.75843,43.52784],[11.75872,43.52779]]},"properties":{}},{"type":"Feature","geometry":{"type":"LineString","coordinates":[[11.75809,43.52798],[11.75821,43.52785],[11.75836,43.52783],[11.7585,43.52787],[11.75855,43.52791],[11.75859,43.52801],[11.75851,43.52814],[11.75834,43.52819],[11.75816,43.52813],[11.75811,43.52808],[11.75809,43.52798]]},"properties":{}},{"type":"Feature","geometry":{"type":"LineString","coordinates":[[11.75789,43.52822],[11.75811,43.52808]]},"properties":{}},{"type":"Feature","geometry":{"type":"LineString","coordinates":[[11.75823,43.52817],[11.75789,43.52822]]},"properties":{}},{"type":"Feature","geometry":{"type":"LineString","coordinates":[[11.76031,43.68548],[11.76012,43.68534],[11.75996,43.68488],[11.75956,43.68411],[11.75931,43.68392],[11.75882,43.68374],[11.7583,43.6837],[11.75791,43.68363],[11.75739,43.68344],[11.75697,43.68314],[11.75639,43.6828],[11.75639,43.68268],[11.75639,43.68272]]},"properties":{}},{"type":"Feature","geometry":{"type":"LineString","coordinates":[[11.77731,43.69272],[11.77626,43.6926],[11.77599,43.69252],[11.77535,43.69215],[11.77366,43.69147],[11.77261,43.69096],[11.77227,43.69091],[11.77081,43.69103],[11.77013,43.69112],[11.76966,43.69127],[11.76703,43.69095],[11.76693,43.69099],[11.7669,43.69118],[11.76692,43.6914],[11.76687,43.69147],[11.76643,43.69158],[11.76619,43.69158],[11.766,43.69152],[11.76587,43.69144],[11.76567,43.69126],[11.76547,43.69099]]},"properties":{}},{"type":"Feature","geometry":{"type":"LineString","coordinates":[[11.76729,43.72239],[11.76651,43.72184],[11.76638,43.72182],[11.76609,43.72186]]},"properties":{}},{"type":"Feature","geometry":{"type":"LineString","coordinates":[[11.76766,43.72265],[11.76729,43.72239]]},"properties":{}},{"type":"Feature","geometry":{"type":"LineString","coordinates":[[11.79496,43.50689],[11.79477,43.50689]]},"properties":{}},{"type":"Feature","geometry":{"type":"LineString","coordinates":[[11.79477,43.50689],[11.79423,43.5069],[11.79406,43.50694]]},"properties":{}},{"type":"Feature","geometry":{"type":"LineString","coordinates":[[11.8053,43.68704],[11.80527,43.68702]]},"properties":{}},{"type":"Feature","geometry":{"type":"LineString","coordinates":[[11.80533,43.68712],[11.8053,43.68704]]},"properties":{}},{"type":"Feature","geometry":{"type":"LineString","coordinates":[[11.80527,43.68702],[11.80516,43.68724],[11.80504,43.68735],[11.80487,43.68735],[11.8045,43.68726],[11.80394,43.6872],[11.80313,43.68724],[11.80298,43.68728]]},"properties":{}},{"type":"Feature","geometry":{"type":"LineString","coordinates":[[11.80298,43.68728],[11.8029,43.68729]]},"properties":{}},{"type":"Feature","geometry":{"type":"LineString","coordinates":[[11.8029,43.68729],[11.80235,43.68744],[11.80146,43.68746],[11.80119,43.68764],[11.80101,43.68785],[11.80056,43.68803],[11.8002,43.68825],[11.79969,43.68877],[11.79889,43.68932],[11.79865,43.68941]]},"properties":{}},{"type":"Feature","geometry":{"type":"LineString","coordinates":[[11.8105,43.68945],[11.80989,43.68962],[11.80958,43.68962],[11.80891,43.68949],[11.80546,43.68758],[11.80539,43.68752],[11.80533,43.68712]]},"properties":{}},{"type":"Feature","geometry":{"type":"LineString","coordinates":[[11.79865,43.68941],[11.79862,43.68944]]},"properties":{}},{"type":"Feature","geometry":{"type":"LineString","coordinates":[[11.79245,43.69268],[11.79073,43.6924],[11.79043,43.69232],[11.79025,43.69223],[11.79007,43.69212],[11.7899,43.69191],[11.78983,43.69165],[11.78985,43.6913],[11.78997,43.69077],[11.78989,43.69061],[11.78976,43.69048],[11.78944,43.69033],[11.78859,43.69008],[11.78822,43.69004],[11.78715,43.69006],[11.78662,43.68977],[11.78623,43.68919],[11.78577,43.68883],[11.78552,43.68881],[11.78515,43.68889],[11.78434,43.68947],[11.78387,43.68985],[11.7837,43.69007],[11.78361,43.69036],[11.78341,43.6907],[11.78303,43.69113],[11.78228,43.69178],[11.78195,43.69231],[11.78193,43.69256],[11.78177,43.69284],[11.78153,43.69302],[11.78133,43.69306],[11.78113,43.69305],[11.77982,43.69279],[11.77919,43.69275],[11.77731,43.69272]]},"properties":{}},{"type":"Feature","geometry":{"type":"LineString","coordinates":[[11.7773,43.69246],[11.77683,43.69245],[11.77611,43.69229],[11.77544,43.69193],[11.7741,43.69135],[11.77405,43.69124],[11.77504,43.6908],[11.77522,43.6905],[11.77546,43.69042],[11.77555,43.69023],[11.77555,43.69008],[11.7755,43.68992],[11.77536,43.68981],[11.77515,43.68974],[11.77492,43.68974],[11.77412,43.69001],[11.774,43.69011],[11.77387,43.69012],[11.77355,43.69006],[11.77292,43.68978],[11.77273,43.68975]]},"properties":{}},{"type":"Feature","geometry":{"type":"LineString","coordinates":[[11.79862,43.68944],[11.79815,43.68996],[11.79789,43.69043],[11.7969,43.69149],[11.79572,43.69267],[11.79563,43.69293],[11.79543,43.69303],[11.79519,43.69302],[11.7948,43.69284],[11.7926,43.69238]]},"properties":{}},{"type":"Feature","geometry":{"type":"LineString","coordinates":[[11.80137,43.69535],[11.80161,43.69519]]},"properties":{}},{"type":"Feature","geometry":{"type":"LineString","coordinates":[[11.80107,43.6958],[11.80119,43.69552],[11.80137,43.69535]]},"properties":{}},{"type":"Feature","geometry":{"type":"LineString","coordinates":[[11.80008,43.69592],[11.80042,43.69579],[11.80082,43.69556]]},"properties":{}},{"type":"Feature","geometry":{"type":"LineString","coordinates":[[11.80082,43.69556],[11.80047,43.69585],[11.80039,43.69597],[11.80038,43.69606]]},"properties":{}},{"type":"Feature","geometry":{"type":"LineString","coordinates":[[11.79721,43.69628],[11.79725,43.69624],[11.7972,43.69612],[11.79715,43.69563],[11.79719,43.69554],[11.79726,43.69551],[11.79735,43.69548],[11.79777,43.6955],[11.79817,43.69559],[11.79878,43.6958],[11.79898,43.69579],[11.79905,43.69575]]},"properties":{}},{"type":"Feature","geometry":{"type":"LineString","coordinates":[[11.79943,43.6959],[11.7998,43.69596]]},"properties":{}},{"type":"Feature","geometry":{"type":"LineString","coordinates":[[11.79968,43.6961],[11.79943,43.6959]]},"properties":{}},{"type":"Feature","geometry":{"type":"LineString","coordinates":[[11.80045,43.69617],[11.80063,43.69623],[11.80074,43.69624]]},"properties":{}},{"type":"Feature","geometry":{"type":"LineString","coordinates":[[11.80011,43.6966],[11.79986,43.69654],[11.79967,43.69636],[11.79964,43.69623],[11.79968,43.6961],[11.79972,43.69603],[11.79987,43.69593],[11.80008,43.69592],[11.80027,43.69598],[11.80038,43.69606],[11.80049,43.69625],[11.80049,43.69641],[11.8004,43.69653],[11.80021,43.6966],[11.80011,43.6966]]},"properties":{}},{"type":"Feature","geometry":{"type":"LineString","coordinates":[[11.80074,43.69624],[11.8005,43.69634]]},"properties":{}},{"type":"Feature","geometry":{"type":"LineString","coordinates":[[11.79711,43.69637],[11.79721,43.69628]]},"properties":{}},{"type":"Feature","geometry":{"type":"LineString","coordinates":[[11.79943,43.69689],[11.79961,43.69659],[11.79967,43.69636]]},"properties":{}},{"type":"Feature","geometry":{"type":"LineString","coordinates":[[11.8004,43.69653],[11.8003,43.69674],[11.8003,43.6969]]},"properties":{}},{"type":"Feature","geometry":{"type":"LineString","coordinates":[[11.79995,43.69657],[11.79963,43.69673],[11.79943,43.69689]]},"properties":{}},{"type":"Feature","geometry":{"type":"LineString","coordinates":[[11.8003,43.6969],[11.80023,43.69675],[11.80011,43.6966]]},"properties":{}},{"type":"Feature","geometry":{"type":"LineString","coordinates":[[11.79114,43.69796],[11.79401,43.6974],[11.79461,43.69739],[11.79486,43.69739],[11.79504,43.69743],[11.79518,43.69752],[11.79525,43.69765],[11.79533,43.69791],[11.79541,43.69792],[11.79677,43.69693],[11.79697,43.69672],[11.79704,43.69659],[11.79707,43.69641],[11.79711,43.69637]]},"properties":{}},{"type":"Feature","geometry":{"type":"LineString","coordinates":[[11.79106,43.69798],[11.79114,43.69796]]},"properties":{}},{"type":"Feature","geometry":{"type":"LineString","coordinates":[[11.79096,43.698],[11.79106,43.69798]]},"properties":{}},{"type":"Feature","geometry":{"type":"LineString","coordinates":[[11.76723,43.72281],[11.76723,43.72287],[11.76728,43.723],[11.76719,43.72306]]},"properties":{}},{"type":"Feature","geometry":{"type":"LineString","coordinates":[[11.76791,43.72351],[11.76809,43.72346],[11.76836,43.72317],[11.76766,43.72265]]},"properties":{}},{"type":"Feature","geometry":{"type":"LineString","coordinates":[[11.76652,43.72304],[11.76665,43.72313],[11.76691,43.72322]]},"properties":{}},{"type":"Feature","geometry":{"type":"LineString","coordinates":[[11.76691,43.72322],[11.76747,43.72342],[11.76772,43.7235],[11.76791,43.72351]]},"properties":{}},{"type":"Feature","geometry":{"type":"LineString","coordinates":[[11.76802,43.72589],[11.76796,43.72569],[11.76779,43.72545],[11.76777,43.72538],[11.76781,43.72527],[11.76786,43.72522],[11.76806,43.72518],[11.76834,43.72525],[11.76848,43.72525],[11.7686,43.72517],[11.76857,43.72507],[11.7684,43.72498],[11.76724,43.72477],[11.767,43.72479],[11.76679,43.72494],[11.76664,43.72495],[11.76658,43.72493],[11.76649,43.72483],[11.7665,43.72465],[11.76655,43.72453],[11.7667,43.72438],[11.76694,43.7243],[11.76848,43.72435],[11.76881,43.72432],[11.76894,43.72423],[11.769,43.72398],[11.76911,43.72382],[11.76912,43.72372],[11.769,43.72366],[11.76893,43.72367],[11.76867,43.72397],[11.76855,43.72402],[11.76837,43.72403],[11.76676,43.72336],[11.76635,43.72333],[11.76598,43.72318]]},"properties":{}},{"type":"Feature","geometry":{"type":"LineString","coordinates":[[11.7734,43.72471],[11.77332,43.72484]]},"properties":{}},{"type":"Feature","geometry":{"type":"LineString","coordinates":[[11.77332,43.72484],[11.77326,43.72491]]},"properties":{}},{"type":"Feature","geometry":{"type":"LineString","coordinates":[[11.77326,43.72491],[11.77247,43.72561],[11.77169,43.72614]]},"properties":{}},{"type":"Feature","geometry":{"type":"LineString","coordinates":[[11.77169,43.72614],[11.77162,43.72618]]},"properties":{}},{"type":"Feature","geometry":{"type":"LineString","coordinates":[[11.77263,43.72679],[11.77288,43.72677]]},"properties":{}},{"type":"Feature","geometry":{"type":"LineString","coordinates":[[11.86117,43.54279],[11.86099,43.54314],[11.86095,43.54334],[11.86095,43.5436]]},"properties":{}},{"type":"Feature","geometry":{"type":"LineString","coordinates":[[11.86167,43.54337],[11.86156,43.54372],[11.86157,43.54389],[11.86168,43.54405],[11.86191,43.5442]]},"properties":{}},{"type":"Feature","geometry":{"type":"LineString","coordinates":[[11.86,43.54378],[11.85996,43.544],[11.86,43.54417]]},"properties":{}},{"type":"Feature","geometry":{"type":"LineString","coordinates":[[11.85966,43.54408],[11.86,43.54417]]},"properties":{}},{"type":"Feature","geometry":{"type":"LineString","coordinates":[[11.86925,43.57624],[11.86963,43.57626]]},"properties":{}},{"type":"Feature","geometry":{"type":"LineString","coordinates":[[11.86922,43.57902],[11.8688,43.57904],[11.8687,43.57901],[11.86867,43.57895],[11.86876,43.57694],[11.86893,43.57627],[11.86902,43.57622],[11.86925,43.57624]]},"properties":{}},{"type":"Feature","geometry":{"type":"LineString","coordinates":[[11.86896,43.57905],[11.86896,43.57907]]},"properties":{}},{"type":"Feature","geometry":{"type":"LineString","coordinates":[[11.8718,43.58361],[11.87097,43.58382],[11.87151,43.58458]]},"properties":{}},{"type":"Feature","geometry":{"type":"LineString","coordinates":[[11.87455,43.58617],[11.87485,43.58625]]},"properties":{}},{"type":"Feature","geometry":{"type":"LineString","coordinates":[[11.87485,43.58625],[11.87543,43.58625]]},"properties":{}},{"type":"Feature","geometry":{"type":"LineString","coordinates":[[11.86191,43.5442],[11.86161,43.54413],[11.86137,43.54413]]},"properties":{}},{"type":"Feature","geometry":{"type":"LineString","coordinates":[[11.85988,43.54426],[11.85966,43.54408]]},"properties":{}},{"type":"Feature","geometry":{"type":"LineString","coordinates":[[11.85988,43.54426],[11.85941,43.54433]]},"properties":{}},{"type":"Feature","geometry":{"type":"LineString","coordinates":[[11.86,43.54417],[11.86011,43.54429],[11.86026,43.54438],[11.86048,43.54443],[11.86071,43.54441]]},"properties":{}},{"type":"Feature","geometry":{"type":"LineString","coordinates":[[11.86137,43.54413],[11.86115,43.54423],[11.86081,43.54451]]},"properties":{}},{"type":"Feature","geometry":{"type":"LineString","coordinates":[[11.86071,43.54441],[11.86103,43.54425]]},"properties":{}},{"type":"Feature","geometry":{"type":"LineString","coordinates":[[11.86028,43.54507],[11.86042,43.54482],[11.86044,43.54468],[11.86035,43.54451],[11.86016,43.54438],[11.85988,43.54426]]},"properties":{}},{"type":"Feature","geometry":{"type":"LineString","coordinates":[[11.86113,43.54475],[11.86127,43.54487],[11.86142,43.54495]]},"properties":{}},{"type":"Feature","geometry":{"type":"LineString","coordinates":[[11.86142,43.54495],[11.86175,43.54498]]},"properties":{}},{"type":"Feature","geometry":{"type":"LineString","coordinates":[[11.86118,43.54506],[11.8613,43.54498],[11.86142,43.54495]]},"properties":{}},{"type":"Feature","geometry":{"type":"LineString","coordinates":[[11.86175,43.54498],[11.86141,43.54507]]},"properties":{}},{"type":"Feature","geometry":{"type":"LineString","coordinates":[[11.86141,43.54507],[11.86118,43.54506]]},"properties":{}},{"type":"Feature","geometry":{"type":"LineString","coordinates":[[11.86141,43.54507],[11.86121,43.5453]]},"properties":{}},{"type":"Feature","geometry":{"type":"LineString","coordinates":[[11.85494,43.55002],[11.85507,43.54965],[11.85574,43.54857],[11.85672,43.54753]]},"properties":{}},{"type":"Feature","geometry":{"type":"LineString","coordinates":[[11.86457,43.6119],[11.8648,43.61173],[11.86488,43.6116],[11.8649,43.61128]]},"properties":{}},{"type":"Feature","geometry":{"type":"LineString","coordinates":[[11.86501,43.61227],[11.86492,43.61198],[11.86481,43.61192],[11.86457,43.6119]]},"properties":{}},{"type":"Feature","geometry":{"type":"LineString","coordinates":[[11.86511,43.61298],[11.86521,43.6132],[11.8653,43.6133],[11.8655,43.6134],[11.86564,43.61341]]},"properties":{}},{"type":"Feature","geometry":{"type":"LineString","coordinates":[[11.86564,43.61341],[11.86542,43.61349],[11.86524,43.61363]]},"properties":{}},{"type":"Feature","geometry":{"type":"LineString","coordinates":[[11.86524,43.61363],[11.86512,43.61391]]},"properties":{}},{"type":"Feature","geometry":{"type":"LineString","coordinates":[[11.85366,43.62802],[11.85352,43.62794],[11.85325,43.62765],[11.85267,43.62725],[11.85221,43.62672],[11.85161,43.62555],[11.85156,43.6254],[11.85127,43.6248],[11.85106,43.62416],[11.85098,43.62364],[11.851,43.6233],[11.85108,43.62287],[11.85135,43.62219],[11.85136,43.62206]]},"properties":{}},{"type":"Feature","geometry":{"type":"LineString","coordinates":[[11.84509,43.63291],[11.84518,43.63287],[11.84562,43.63291],[11.84581,43.63285],[11.84598,43.63271]]},"properties":{}},{"type":"Feature","geometry":{"type":"LineString","coordinates":[[11.84598,43.63271],[11.84596,43.63286],[11.84586,43.633]]},"properties":{}},{"type":"Feature","geometry":{"type":"LineString","coordinates":[[11.84586,43.633],[11.84584,43.63287],[11.84598,43.63271]]},"properties":{}},{"type":"Feature","geometry":{"type":"LineString","coordinates":[[11.84598,43.63271],[11.84599,43.63286],[11.84604,43.63294],[11.84625,43.63302],[11.84633,43.63309]]},"properties":{}},{"type":"Feature","geometry":{"type":"LineString","coordinates":[[11.84632,43.63261],[11.84628,43.63256],[11.84615,43.63254],[11.84582,43.63255],[11.84544,43.63262],[11.84474,43.63277],[11.84405,43.63297],[11.84293,43.63338],[11.84266,43.63341],[11.84244,43.63341],[11.84106,43.63276],[11.84099,43.63314],[11.84095,43.63323],[11.84071,43.63349],[11.84039,43.63392],[11.8396,43.63461],[11.83896,43.63523],[11.83878,43.63542],[11.8387,43.63567]]},"properties":{}},{"type":"Feature","geometry":{"type":"LineString","coordinates":[[11.8387,43.63567],[11.83857,43.63581]]},"properties":{}},{"type":"Feature","geometry":{"type":"LineString","coordinates":[[11.83857,43.63581],[11.83828,43.63611],[11.8379,43.63657]]},"properties":{}},{"type":"Feature","geometry":{"type":"LineString","coordinates":[[11.83389,43.64547],[11.83381,43.64541],[11.83375,43.64512],[11.83277,43.64516],[11.8327,43.64397],[11.83294,43.64334],[11.83315,43.64336]]},"properties":{}},{"type":"Feature","geometry":{"type":"LineString","coordinates":[[11.83513,43.645],[11.83522,43.64584]]},"properties":{}},{"type":"Feature","geometry":{"type":"LineString","coordinates":[[11.83507,43.64564],[11.83521,43.64567]]},"properties":{}},{"type":"Feature","geometry":{"type":"LineString","coordinates":[[11.83522,43.64584],[11.83515,43.64578],[11.83505,43.64577]]},"properties":{}},{"type":"Feature","geometry":{"type":"LineString","coordinates":[[11.83803,43.65364],[11.83719,43.65254],[11.83702,43.65239],[11.8368,43.65225],[11.83633,43.65183]]},"properties":{}},{"type":"Feature","geometry":{"type":"LineString","coordinates":[[11.83825,43.65389],[11.83851,43.65419]]},"properties":{}},{"type":"Feature","geometry":{"type":"LineString","coordinates":[[11.83821,43.65419],[11.83851,43.65419]]},"properties":{}},{"type":"Feature","geometry":{"type":"LineString","coordinates":[[11.83743,43.65425],[11.83753,43.65429],[11.83767,43.65431],[11.8378,43.65427],[11.83791,43.6542]]},"properties":{}},{"type":"Feature","geometry":{"type":"LineString","coordinates":[[11.83791,43.6542],[11.83774,43.6544],[11.83761,43.65443]]},"properties":{}},{"type":"Feature","geometry":{"type":"LineString","coordinates":[[11.83761,43.65443],[11.83765,43.65435],[11.83773,43.6543]]},"properties":{}},{"type":"Feature","geometry":{"type":"LineString","coordinates":[[11.83778,43.65437],[11.83775,43.65447],[11.8378,43.65464]]},"properties":{}},{"type":"Feature","geometry":{"type":"LineString","coordinates":[[11.83803,43.65486],[11.83812,43.65486],[11.83791,43.65458],[11.8379,43.65443],[11.83795,43.65433],[11.83805,43.65423],[11.83821,43.65419]]},"properties":{}},{"type":"Feature","geometry":{"type":"LineString","coordinates":[[11.83789,43.65485],[11.83803,43.65486]]},"properties":{}},{"type":"Feature","geometry":{"type":"LineString","coordinates":[[11.83851,43.65419],[11.83863,43.65435],[11.83867,43.65446],[11.83881,43.65526],[11.83905,43.65618],[11.83906,43.65647]]},"properties":{}},{"type":"Feature","geometry":{"type":"LineString","coordinates":[[11.84024,43.6622],[11.84028,43.66193],[11.84019,43.66163],[11.8401,43.66148],[11.84002,43.66141],[11.83962,43.66134],[11.83968,43.66094],[11.83962,43.66082],[11.83947,43.66077],[11.83904,43.66074],[11.83889,43.66066],[11.83876,43.66036],[11.83868,43.66003],[11.83865,43.65925],[11.83871,43.65898],[11.83871,43.65876],[11.83876,43.6584],[11.83882,43.65833],[11.83878,43.65808],[11.83884,43.65764],[11.83866,43.65699],[11.83843,43.65662],[11.83817,43.65591],[11.83797,43.6555],[11.83767,43.65506],[11.83753,43.65492],[11.83762,43.65485],[11.83789,43.65485]]},"properties":{}},{"type":"Feature","geometry":{"type":"LineString","coordinates":[[11.82528,43.67709],[11.82541,43.67681],[11.82549,43.67675],[11.8256,43.67671],[11.82573,43.67672],[11.82585,43.67667],[11.82592,43.67656],[11.8259,43.67624],[11.8258,43.67568],[11.82595,43.6754],[11.82631,43.67489],[11.82674,43.67461],[11.82801,43.67402],[11.82944,43.67325],[11.83068,43.67266],[11.83317,43.67123],[11.83414,43.67072],[11.83445,43.67059],[11.83536,43.67009],[11.83544,43.67008],[11.8361,43.67067],[11.83679,43.67135],[11.83766,43.67078],[11.83791,43.67055],[11.8381,43.67032],[11.83934,43.66851],[11.84025,43.66732],[11.84034,43.66712],[11.8404,43.66685],[11.84041,43.66651],[11.84017,43.66534],[11.84016,43.665],[11.84041,43.66344],[11.84041,43.66329],[11.84028,43.66293],[11.84024,43.6622]]},"properties":{}},{"type":"Feature","geometry":{"type":"LineString","coordinates":[[11.83679,43.67135],[11.83704,43.67163]]},"properties":{}},{"type":"Feature","geometry":{"type":"LineString","coordinates":[[11.82521,43.67722],[11.82528,43.67709]]},"properties":{}},{"type":"Feature","geometry":{"type":"LineString","coordinates":[[11.8248,43.67807],[11.82496,43.67762],[11.82521,43.67722]]},"properties":{}},{"type":"Feature","geometry":{"type":"LineString","coordinates":[[11.8248,43.67807],[11.82465,43.67819],[11.82411,43.67946],[11.82398,43.67984],[11.82397,43.68019],[11.82447,43.68175],[11.82471,43.68224],[11.82489,43.68285],[11.82492,43.68302],[11.82502,43.68306]]},"properties":{}},{"type":"Feature","geometry":{"type":"LineString","coordinates":[[11.82397,43.68318],[11.82431,43.6839],[11.82447,43.68476],[11.82451,43.6853],[11.82446,43.68561],[11.82394,43.68691]]},"properties":{}},{"type":"Feature","geometry":{"type":"LineString","coordinates":[[11.82394,43.68691],[11.82392,43.68697]]},"properties":{}},{"type":"Feature","geometry":{"type":"LineString","coordinates":[[11.82392,43.68697],[11.82386,43.68709],[11.82364,43.68729],[11.82348,43.68761],[11.82317,43.68798],[11.82303,43.68801],[11.82277,43.68796],[11.82264,43.68796],[11.82174,43.68848],[11.82119,43.68866],[11.82073,43.68874],[11.81865,43.68872],[11.81625,43.68863],[11.81609,43.68859],[11.81592,43.68844],[11.81576,43.6884],[11.81374,43.68832]]},"properties":{}},{"type":"Feature","geometry":{"type":"LineString","coordinates":[[11.81367,43.68832],[11.81367,43.68832]]},"properties":{}},{"type":"Feature","geometry":{"type":"LineString","coordinates":[[11.81374,43.68832],[11.81367,43.68832]]},"properties":{}},{"type":"Feature","geometry":{"type":"LineString","coordinates":[[11.81367,43.68832],[11.81253,43.68866],[11.81164,43.68905],[11.8105,43.68945]]},"properties":{}},{"type":"Feature","geometry":{"type":"LineString","coordinates":[[11.81891,43.69014],[11.81951,43.69035]]},"properties":{}},{"type":"Feature","geometry":{"type":"LineString","coordinates":[[11.8191,43.69046],[11.8191,43.6903],[11.81891,43.69014]]},"properties":{}},{"type":"Feature","geometry":{"type":"LineString","coordinates":[[11.81865,43.69057],[11.81901,43.69055]]},"properties":{}},{"type":"Feature","geometry":{"type":"LineString","coordinates":[[11.81987,43.69052],[11.81997,43.69061],[11.82029,43.69063]]},"properties":{}},{"type":"Feature","geometry":{"type":"LineString","coordinates":[[11.81894,43.6907],[11.81865,43.69057]]},"properties":{}},{"type":"Feature","geometry":{"type":"LineString","coordinates":[[11.8191,43.69046],[11.81937,43.69037],[11.81951,43.69035],[11.8197,43.69039],[11.81987,43.69052],[11.81989,43.69069],[11.8198,43.6908],[11.81958,43.69092],[11.81939,43.69095],[11.81918,43.69094],[11.81901,43.69085],[11.81894,43.6907],[11.81901,43.69055],[11.8191,43.69046]]},"properties":{}},{"type":"Feature","geometry":{"type":"LineString","coordinates":[[11.82029,43.69063],[11.8198,43.6908]]},"properties":{}},{"type":"Feature","geometry":{"type":"LineString","coordinates":[[11.99305,43.50922],[11.99282,43.50905],[11.99257,43.50872],[11.99221,43.50847],[11.99204,43.5084],[11.99158,43.50832],[11.99115,43.50811],[11.99064,43.50837],[11.99037,43.50859],[11.99029,43.50894],[11.99042,43.50927],[11.99143,43.51015],[11.99166,43.5104],[11.99184,43.51066],[11.99184,43.51076],[11.99179,43.51079],[11.99171,43.51078],[11.99151,43.51065],[11.99128,43.51056],[11.991,43.51036],[11.99081,43.51017],[11.99,43.50986],[11.98984,43.50972],[11.98942,43.50947]]},"properties":{}},{"type":"Feature","geometry":{"type":"LineString","coordinates":[[12.0,43.51065],[11.9995,43.51014],[11.99908,43.5099],[11.99859,43.5097],[11.99826,43.50959],[11.99785,43.50955],[11.99738,43.50941],[11.99645,43.50904],[11.99628,43.50904],[11.99605,43.50911],[11.99586,43.50911],[11.99411,43.50797],[11.99398,43.50819],[11.99402,43.50857],[11.99426,43.50894],[11.99462,43.50919],[11.99469,43.50938],[11.9942,43.50928],[11.99305,43.50922]]},"properties":{}},{"type":"Feature","geometry":{"type":"LineString","coordinates":[[11.99469,43.50938],[11.99489,43.50973],[11.99506,43.5098],[11.9956,43.50981],[11.99583,43.50988],[11.99618,43.50991],[11.99652,43.51011],[11.99664,43.51032],[11.9967,43.51056],[11.99614,43.51112],[11.99564,43.51209],[11.99535,43.51217],[11.99483,43.51241],[11.99471,43.51265],[11.99458,43.51307],[11.99452,43.51317],[11.99409,43.51315],[11.99394,43.51305],[11.99383,43.51306],[11.9938,43.51311],[11.99385,43.51322]]},"properties":{}},{"type":"Feature","geometry":{"type":"LineString","coordinates":[[11.93856,43.69908],[11.93851,43.69889],[11.93853,43.69871]]},"properties":{}},{"type":"Feature","geometry":{"type":"LineString","coordinates":[[11.93856,43.69908],[11.93862,43.69898],[11.9387,43.69896]]},"properties":{}},{"type":"Feature","geometry":{"type":"LineString","coordinates":[[11.9387,43.69896],[11.93864,43.69907],[11.93865,43.69924]]},"properties":{}},{"type":"Feature","geometry":{"type":"LineString","coordinates":[[11.93881,43.6991],[11.93867,43.69912],[11.93863,43.69915]]},"properties":{}},{"type":"Feature","geometry":{"type":"LineString","coordinates":[[11.93865,43.69924],[11.93856,43.69908]]},"properties":{}},{"type":"Feature","geometry":{"type":"LineString","coordinates":[[11.87467,43.58641],[11.87475,43.58632],[11.87485,43.58625]]},"properties":{}},{"type":"Feature","geometry":{"type":"LineString","coordinates":[[11.87543,43.58625],[11.87494,43.58644]]},"properties":{}},{"type":"Feature","geometry":{"type":"LineString","coordinates":[[11.87494,43.58644],[11.87476,43.58645],[11.87467,43.58641]]},"properties":{}},{"type":"Feature","geometry":{"type":"LineString","coordinates":[[11.87494,43.58644],[11.87487,43.58652],[11.87481,43.58665]]},"properties":{}},{"type":"Feature","geometry":{"type":"LineString","coordinates":[[11.88062,43.66462],[11.88054,43.66433],[11.88033,43.66394],[11.88024,43.66362],[11.8803,43.66291],[11.88038,43.66281]]},"properties":{}},{"type":"Feature","geometry":{"type":"LineString","coordinates":[[11.87866,43.66527],[11.87864,43.66584],[11.87828,43.66611],[11.87747,43.66573],[11.87738,43.66553],[11.87722,43.66542],[11.87601,43.66524],[11.87569,43.66483],[11.87557,43.6646],[11.87481,43.66397]]},"properties":{}},{"type":"Feature","geometry":{"type":"LineString","coordinates":[[11.88054,43.66705],[11.8805,43.66692],[11.88053,43.66678],[11.88061,43.66668],[11.88059,43.66659],[11.88091,43.66619],[11.88081,43.66597],[11.88067,43.66585],[11.88063,43.66571]]},"properties":{}},{"type":"Feature","geometry":{"type":"LineString","coordinates":[[11.81881,43.69113],[11.81894,43.69105],[11.81899,43.69098],[11.819,43.69091],[11.81896,43.69078]]},"properties":{}},{"type":"Feature","geometry":{"type":"LineString","coordinates":[[11.81939,43.69095],[11.81881,43.69113]]},"properties":{}},{"type":"Feature","geometry":{"type":"LineString","coordinates":[[11.81023,43.70279],[11.81051,43.7031],[11.81083,43.70337],[11.81096,43.7036],[11.81133,43.70402],[11.81184,43.70473],[11.8133,43.70704],[11.81332,43.7072],[11.8133,43.70735],[11.81345,43.7074],[11.81362,43.70752],[11.8139,43.708],[11.81452,43.70884],[11.81506,43.70971],[11.81519,43.71055],[11.81512,43.71109],[11.8148,43.71156],[11.81422,43.71219],[11.8139,43.71289],[11.81397,43.71407],[11.81444,43.71511],[11.81446,43.71543],[11.81463,43.7157],[11.81495,43.71636],[11.81568,43.71807],[11.81646,43.72029],[11.81667,43.72097],[11.81683,43.72181]]},"properties":{}},{"type":"Feature","geometry":{"type":"LineString","coordinates":[[11.81683,43.72181],[11.81679,43.72254],[11.81692,43.72277],[11.81716,43.72296],[11.81733,43.72316],[11.81744,43.72344],[11.818,43.72449],[11.81825,43.72525]]},"properties":{}},{"type":"Feature","geometry":{"type":"LineString","coordinates":[[11.81825,43.72525],[11.81828,43.7255],[11.81866,43.7263],[11.81875,43.7267],[11.81892,43.72698],[11.81901,43.72798],[11.81909,43.72846],[11.81933,43.72891],[11.81956,43.73059],[11.81939,43.73084],[11.81967,43.73116],[11.81984,43.73234],[11.81995,43.73295],[11.82012,43.73363],[11.82038,43.7352]]},"properties":{}},{"type":"Feature","geometry":{"type":"LineString","coordinates":[[11.82098,43.73512],[11.82117,43.73615],[11.82132,43.73671],[11.8213,43.73688],[11.82156,43.73791],[11.82164,43.73846],[11.82158,43.73871],[11.82132,43.73902],[11.82098,43.73957],[11.8207,43.74029],[11.82057,43.74076],[11.82044,43.74163],[11.82042,43.74253],[11.82046,43.74296],[11.82049,43.74406],[11.82053,43.74422],[11.82063,43.74436]]},"properties":{}},{"type":"Feature","geometry":{"type":"LineString","coordinates":[[11.76267,43.72578],[11.76266,43.72586],[11.7629,43.72616],[11.76321,43.72685],[11.76364,43.72764],[11.76373,43.7277],[11.76389,43.72773],[11.76445,43.72774],[11.76463,43.72782]]},"properties":{}},{"type":"Feature","geometry":{"type":"LineString","coordinates":[[11.77162,43.72618],[11.7695,43.72733],[11.76883,43.72757],[11.76878,43.72762],[11.7688,43.72766],[11.76853,43.72781]]},"properties":{}},{"type":"Feature","geometry":{"type":"LineString","coordinates":[[11.76641,43.72694],[11.76688,43.72691],[11.76731,43.72683],[11.76735,43.72685],[11.76684,43.72705],[11.7668,43.72714],[11.76686,43.72721]]},"properties":{}},{"type":"Feature","geometry":{"type":"LineString","coordinates":[[11.77269,43.72693],[11.77269,43.72711]]},"properties":{}},{"type":"Feature","geometry":{"type":"LineString","coordinates":[[11.77269,43.72711],[11.7725,43.72701]]},"properties":{}},{"type":"Feature","geometry":{"type":"LineString","coordinates":[[11.76763,43.72687],[11.76697,43.72705],[11.76686,43.72716],[11.76686,43.72721],[11.76694,43.7273],[11.76689,43.72736],[11.76665,43.72745],[11.76487,43.72779],[11.76376,43.7279]]},"properties":{}},{"type":"Feature","geometry":{"type":"LineString","coordinates":[[11.76376,43.7279],[11.76369,43.72792]]},"properties":{}},{"type":"Feature","geometry":{"type":"LineString","coordinates":[[11.76841,43.72823],[11.76873,43.72838],[11.76895,43.72841]]},"properties":{}},{"type":"Feature","geometry":{"type":"LineString","coordinates":[[11.76872,43.72861],[11.76866,43.72844],[11.76841,43.72823]]},"properties":{}},{"type":"Feature","geometry":{"type":"LineString","coordinates":[[11.76369,43.72792],[11.76355,43.72793],[11.7629,43.72812],[11.76162,43.72843],[11.76097,43.72864],[11.76045,43.72879],[11.75982,43.7289],[11.75887,43.72918]]},"properties":{}},{"type":"Feature","geometry":{"type":"LineString","coordinates":[[11.75887,43.72918],[11.75881,43.72921]]},"properties":{}},{"type":"Feature","geometry":{"type":"LineString","coordinates":[[11.75881,43.72921],[11.75843,43.72935],[11.75764,43.72974],[11.75712,43.73007],[11.75614,43.73055],[11.7553,43.7308],[11.75364,43.73147]]},"properties":{}},{"type":"Feature","geometry":{"type":"LineString","coordinates":[[11.75364,43.73147],[11.75357,43.7315]]},"properties":{}},{"type":"Feature","geometry":{"type":"LineString","coordinates":[[11.75357,43.7315],[11.75336,43.73157],[11.75212,43.73217],[11.75198,43.73222],[11.75157,43.7322],[11.75151,43.73223]]},"properties":{}},{"type":"Feature","geometry":{"type":"LineString","coordinates":[[11.75151,43.73223],[11.75147,43.73227]]},"properties":{}},{"type":"Feature","geometry":{"type":"LineString","coordinates":[[11.75147,43.73227],[11.75143,43.73233],[11.75121,43.73245],[11.75084,43.73255],[11.75033,43.73274],[11.75,43.7328]]},"properties":{}},{"type":"Feature","geometry":{"type":"LineString","coordinates":[[11.80607,43.69922],[11.80633,43.69938],[11.80643,43.6994],[11.80659,43.69932],[11.80669,43.69931],[11.80677,43.69938],[11.80685,43.69961],[11.80713,43.69969],[11.80747,43.69995],[11.80772,43.70008],[11.80864,43.70084],[11.8089,43.70095]]},"properties":{}},{"type":"Feature","geometry":{"type":"LineString","coordinates":[[11.8089,43.70095],[11.80895,43.70099]]},"properties":{}},{"type":"Feature","geometry":{"type":"LineString","coordinates":[[11.80895,43.70099],[11.80898,43.70119],[11.80912,43.70141],[11.80913,43.70149]]},"properties":{}},{"type":"Feature","geometry":{"type":"LineString","coordinates":[[11.79096,43.698],[11.78998,43.69838],[11.78966,43.69859],[11.789,43.69892],[11.78806,43.69955],[11.7879,43.6996],[11.78735,43.69988],[11.78653,43.70015],[11.78614,43.70037],[11.78585,43.70063],[11.78567,43.70098],[11.78549,43.70154],[11.78548,43.70224],[11.78542,43.70238],[11.78509,43.7043],[11.78479,43.70561],[11.78465,43.70598],[11.7846,43.7062],[11.78461,43.70643],[11.78451,43.70684],[11.78365,43.70911],[11.78326,43.70988],[11.78277,43.71045],[11.78218,43.71129],[11.78166,43.71192],[11.78014,43.71334],[11.77955,43.71404],[11.77948,43.71414],[11.77941,43.71447],[11.77922,43.71468],[11.77762,43.71629],[11.77691,43.7169],[11.77563,43.71824],[11.77511,43.71874],[11.77482,43.7191],[11.77419,43.72035],[11.77414,43.72069],[11.77394,43.72133],[11.77384,43.72142],[11.77335,43.7214],[11.7732,43.72143],[11.77314,43.72153],[11.77311,43.72178],[11.77315,43.72212],[11.77325,43.72263],[11.77336,43.72291],[11.77349,43.72347],[11.77349,43.72383],[11.77336,43.72442],[11.7734,43.72471],[11.77352,43.72479],[11.77394,43.72492],[11.77465,43.72522],[11.77472,43.72521],[11.77482,43.72493],[11.77495,43.72488]]},"properties":{}}]}