{"type":"FeatureCollection","features":[{"type":"Feature","geometry":{"type":"LineString","coordinates":[[12.12254,41.93541],[12.12241,41.9353],[12.12226,41.93523],[12.12156,41.93512],[12.12111,41.93501]]},"properties":{}},{"type":"Feature","geometry":{"type":"LineString","coordinates":[[12.12254,41.93541],[12.12264,41.93519]]},"properties":{}},{"type":"Feature","geometry":{"type":"LineString","coordinates":[[12.12264,41.93519],[12.12274,41.93546]]},"properties":{}},{"type":"Feature","geometry":{"type":"LineString","coordinates":[[12.12436,41.93541],[12.123,41.93531],[12.1229,41.93534],[12.12277,41.93543],[12.12273,41.9356]]},"properties":{}},{"type":"Feature","geometry":{"type":"LineString","coordinates":[[12.12273,41.9356],[12.12254,41.93541]]},"properties":{}},{"type":"Feature","geometry":{"type":"LineString","coordinates":[[12.10255,41.93985],[12.1033,41.9395],[12.10405,41.93922]]},"properties":{}},{"type":"Feature","geometry":{"type":"LineString","coordinates":[[12.10243,41.94005],[12.10198,41.94051],[12.10189,41.94065],[12.10188,41.94081],[12.10194,41.941],[12.10221,41.94126]]},"properties":{}},{"type":"Feature","geometry":{"type":"LineString","coordinates":[[12.10125,41.94157],[12.10134,41.94063],[12.1013,41.94057],[12.10121,41.94057]]},"properties":{}},{"type":"Feature","geometry":{"type":"LineString","coordinates":[[12.19765,41.84496],[12.19771,41.84495]]},"properties":{}},{"type":"Feature","geometry":{"type":"LineString","coordinates":[[12.20442,41.83294],[12.20439,41.83293],[12.20409,41.83343],[12.20151,41.83789],[12.19852,41.84334],[12.19644,41.84731],[12.19283,41.85369],[12.1907,41.85724],[12.18998,41.85826],[12.18975,41.85863],[12.18825,41.86109],[12.18813,41.86139]]},"properties":{}},{"type":"Feature","geometry":{"type":"LineString","coordinates":[[12.1924,41.85443],[12.19264,41.85454]]},"properties":{}},{"type":"Feature","geometry":{"type":"LineString","coordinates":[[12.19264,41.85454],[12.19402,41.85509]]},"properties":{}},{"type":"Feature","geometry":{"type":"LineString","coordinates":[[12.19402,41.85509],[12.19538,41.85561]]},"properties":{}},{"type":"Feature","geometry":{"type":"LineString","coordinates":[[12.20231,41.85799],[12.20115,41.8574],[12.19834,41.85583],[12.19823,41.85599],[12.19807,41.85592],[12.19765,41.85649],[12.19538,41.85561]]},"properties":{}},{"type":"Feature","geometry":{"type":"LineString","coordinates":[[12.21034,41.86238],[12.21038,41.86234],[12.2101,41.86217],[12.20728,41.86065],[12.20551,41.85968],[12.20519,41.85947],[12.20503,41.85942],[12.20444,41.85911],[12.20438,41.85905],[12.20439,41.85898],[12.20448,41.85892],[12.20466,41.85889],[12.20465,41.8588],[12.2043,41.8588],[12.20399,41.85858],[12.20367,41.85842],[12.20294,41.85825],[12.20267,41.85816],[12.20231,41.85799]]},"properties":{}},{"type":"Feature","geometry":{"type":"LineString","coordinates":[[12.18813,41.86139],[12.18809,41.86148],[12.18808,41.8616],[12.1869,41.86342],[12.18548,41.86555],[12.18454,41.86682],[12.18414,41.86746],[12.18382,41.8681],[12.18352,41.86877],[12.18339,41.86876]]},"properties":{}},{"type":"Feature","geometry":{"type":"LineString","coordinates":[[12.17911,41.87442],[12.17752,41.87639],[12.17745,41.87641],[12.17667,41.87748],[12.17661,41.87753],[12.17648,41.87756],[12.17041,41.8856],[12.16998,41.88638],[12.17,41.88683],[12.16978,41.88731],[12.16957,41.88756],[12.16931,41.88758],[12.16915,41.88749],[12.16898,41.88747],[12.16882,41.88764],[12.16783,41.88873],[12.1636,41.8938],[12.16361,41.89383]]},"properties":{}},{"type":"Feature","geometry":{"type":"LineString","coordinates":[[12.198,41.91735],[12.19785,41.91752],[12.19783,41.91773]]},"properties":{}},{"type":"Feature","geometry":{"type":"LineString","coordinates":[[12.1622,41.89543],[12.1617,41.89599],[12.16057,41.89716]]},"properties":{}},{"type":"Feature","geometry":{"type":"LineString","coordinates":[[12.16057,41.89716],[12.15993,41.89771],[12.1595,41.89815],[12.15946,41.89836],[12.15906,41.89869],[12.15813,41.89969]]},"properties":{}},{"type":"Feature","geometry":{"type":"LineString","coordinates":[[12.15813,41.89969],[12.15765,41.90017],[12.15784,41.90028],[12.15576,41.90247]]},"properties":{}},{"type":"Feature","geometry":{"type":"LineString","coordinates":[[12.15576,41.90247],[12.15475,41.90365],[12.15304,41.90535],[12.15124,41.90753]]},"properties":{}},{"type":"Feature","geometry":{"type":"LineString","coordinates":[[12.15463,41.93551],[12.15418,41.93545],[12.15404,41.93546],[12.15397,41.93551],[12.15389,41.93569]]},"properties":{}},{"type":"Feature","geometry":{"type":"LineString","coordinates":[[12.12819,41.93585],[12.12842,41.93584],[12.13004,41.93598],[12.13055,41.93595],[12.13086,41.93588],[12.13117,41.93573],[12.13134,41.93557],[12.1315,41.93532]]},"properties":{}},{"type":"Feature","geometry":{"type":"LineString","coordinates":[[12.13605,41.93566],[12.13673,41.93578],[12.13746,41.93579]]},"properties":{}},{"type":"Feature","geometry":{"type":"LineString","coordinates":[[12.12867,41.93594],[12.1284,41.93588]]},"properties":{}},{"type":"Feature","geometry":{"type":"LineString","coordinates":[[12.13746,41.93579],[12.13658,41.93593],[12.1337,41.93621]]},"properties":{}},{"type":"Feature","geometry":{"type":"LineString","coordinates":[[12.13315,41.93624],[12.1304,41.93613],[12.12867,41.93594]]},"properties":{}},{"type":"Feature","geometry":{"type":"LineString","coordinates":[[12.19759,41.91762],[12.19771,41.91765],[12.19783,41.91773]]},"properties":{}},{"type":"Feature","geometry":{"type":"LineString","coordinates":[[12.19768,41.91775],[12.19753,41.91766]]},"properties":{}},{"type":"Feature","geometry":{"type":"LineString","coordinates":[[12.19768,41.91775],[12.19751,41.91773],[12.19739,41.91776]]},"properties":{}},{"type":"Feature","geometry":{"type":"LineString","coordinates":[[12.19783,41.91773],[12.19793,41.91784]]},"properties":{}},{"type":"Feature","geometry":{"type":"LineString","coordinates":[[12.19793,41.91784],[12.19768,41.91775]]},"properties":{}},{"type":"Feature","geometry":{"type":"LineString","coordinates":[[12.1893,41.92285],[12.18914,41.92297],[12.18911,41.9231]]},"properties":{}},{"type":"Feature","geometry":{"type":"LineString","coordinates":[[12.18895,41.92302],[12.18911,41.9231]]},"properties":{}},{"type":"Feature","geometry":{"type":"LineString","coordinates":[[12.18906,41.92322],[12.18897,41.92312],[12.18895,41.92302]]},"properties":{}},{"type":"Feature","geometry":{"type":"LineString","coordinates":[[12.18911,41.9231],[12.18924,41.92333]]},"properties":{}},{"type":"Feature","geometry":{"type":"LineString","coordinates":[[12.18906,41.92322],[12.1888,41.92321],[12.18847,41.92327]]},"properties":{}},{"type":"Feature","geometry":{"type":"LineString","coordinates":[[12.18924,41.92333],[12.18906,41.92322]]},"properties":{}},{"type":"Feature","geometry":{"type":"LineString","coordinates":[[12.18536,41.92485],[12.18799,41.9235]]},"properties":{}},{"type":"Feature","geometry":{"type":"LineString","coordinates":[[12.18799,41.9235],[12.18774,41.92366],[12.18569,41.92472],[12.18536,41.92485]]},"properties":{}},{"type":"Feature","geometry":{"type":"LineString","coordinates":[[12.18282,41.92586],[12.18327,41.9258],[12.18366,41.9257]]},"properties":{}},{"type":"Feature","geometry":{"type":"LineString","coordinates":[[12.1828,41.9261],[12.1829,41.92598],[12.18289,41.92592],[12.18282,41.92586]]},"properties":{}},{"type":"Feature","geometry":{"type":"LineString","coordinates":[[12.17909,41.92791],[12.17902,41.92801],[12.17885,41.92816]]},"properties":{}},{"type":"Feature","geometry":{"type":"LineString","coordinates":[[12.1783,41.92823],[12.17852,41.92821],[12.17902,41.92789],[12.17917,41.92784]]},"properties":{}},{"type":"Feature","geometry":{"type":"LineString","coordinates":[[12.17816,41.92814],[12.1783,41.92823],[12.1783,41.92836],[12.17816,41.92844],[12.17798,41.92841],[12.17791,41.92833],[12.17793,41.92821],[12.17801,41.92816],[12.17816,41.92814]]},"properties":{}},{"type":"Feature","geometry":{"type":"LineString","coordinates":[[12.17885,41.92816],[12.17829,41.92868],[12.178,41.92902]]},"properties":{}},{"type":"Feature","geometry":{"type":"LineString","coordinates":[[12.17758,41.92887],[12.17784,41.92863],[12.1779,41.92849],[12.17791,41.92833]]},"properties":{}},{"type":"Feature","geometry":{"type":"LineString","coordinates":[[12.17816,41.92844],[12.17805,41.92849],[12.17775,41.92878],[12.17758,41.92887]]},"properties":{}},{"type":"Feature","geometry":{"type":"LineString","coordinates":[[12.1766,41.92877],[12.17674,41.92897],[12.17695,41.92909]]},"properties":{}},{"type":"Feature","geometry":{"type":"LineString","coordinates":[[12.17663,41.92921],[12.17666,41.92901],[12.1766,41.92877]]},"properties":{}},{"type":"Feature","geometry":{"type":"LineString","coordinates":[[12.177,41.9291],[12.17718,41.92907],[12.1774,41.92899]]},"properties":{}},{"type":"Feature","geometry":{"type":"LineString","coordinates":[[12.1774,41.92899],[12.17725,41.92915],[12.17725,41.92926]]},"properties":{}},{"type":"Feature","geometry":{"type":"LineString","coordinates":[[12.178,41.92902],[12.17769,41.9294]]},"properties":{}},{"type":"Feature","geometry":{"type":"LineString","coordinates":[[12.178,41.92902],[12.1779,41.9293],[12.17793,41.9295]]},"properties":{}},{"type":"Feature","geometry":{"type":"LineString","coordinates":[[12.17738,41.92936],[12.17769,41.9294]]},"properties":{}},{"type":"Feature","geometry":{"type":"LineString","coordinates":[[12.17769,41.9294],[12.17793,41.9295]]},"properties":{}},{"type":"Feature","geometry":{"type":"LineString","coordinates":[[12.17769,41.9294],[12.17748,41.92957]]},"properties":{}},{"type":"Feature","geometry":{"type":"LineString","coordinates":[[12.10559,41.93778],[12.10402,41.93838],[12.10263,41.939],[12.10246,41.93912],[12.10237,41.93931],[12.10229,41.93938],[12.10153,41.93968],[12.10134,41.93984],[12.10012,41.94044],[12.09491,41.9433],[12.09398,41.94373],[12.09337,41.94394],[12.09241,41.94418],[12.09008,41.94461],[12.09001,41.94472]]},"properties":{}},{"type":"Feature","geometry":{"type":"LineString","coordinates":[[12.10221,41.94126],[12.10185,41.94119],[12.10164,41.94123],[12.10153,41.9413],[12.10142,41.94143],[12.10124,41.94207],[12.10114,41.94222]]},"properties":{}},{"type":"Feature","geometry":{"type":"LineString","coordinates":[[12.10035,41.94264],[12.10049,41.94258],[12.10056,41.94249],[12.10047,41.94222]]},"properties":{}},{"type":"Feature","geometry":{"type":"LineString","coordinates":[[12.10047,41.94222],[12.1006,41.94238],[12.10065,41.94257],[12.10061,41.94276],[12.10049,41.94289]]},"properties":{}},{"type":"Feature","geometry":{"type":"LineString","coordinates":[[12.08914,41.94476],[12.09239,41.94415],[12.09313,41.94396],[12.09392,41.9437],[12.09487,41.94326],[12.09505,41.94315],[12.09509,41.94319]]},"properties":{}},{"type":"Feature","geometry":{"type":"LineString","coordinates":[[12.08897,41.94493],[12.08894,41.94488],[12.08897,41.94483],[12.08904,41.94481],[12.0891,41.94485],[12.08911,41.94489],[12.08907,41.94493],[12.08897,41.94493]]},"properties":{}},{"type":"Feature","geometry":{"type":"LineString","coordinates":[[12.08886,41.94491],[12.08888,41.945]]},"properties":{}},{"type":"Feature","geometry":{"type":"LineString","coordinates":[[12.08894,41.9449],[12.08621,41.94545],[12.08523,41.94577],[12.08489,41.94592]]},"properties":{}},{"type":"Feature","geometry":{"type":"LineString","coordinates":[[12.08888,41.945],[12.08614,41.94556],[12.08474,41.94604]]},"properties":{}},{"type":"Feature","geometry":{"type":"LineString","coordinates":[[12.0828,41.94671],[12.08355,41.94648]]},"properties":{}},{"type":"Feature","geometry":{"type":"LineString","coordinates":[[12.08165,41.9567],[12.08153,41.9567],[12.08141,41.95663],[12.08139,41.95652],[12.08145,41.95644],[12.08164,41.9564],[12.08176,41.95646],[12.0818,41.95659],[12.08175,41.95666],[12.08165,41.9567]]},"properties":{}},{"type":"Feature","geometry":{"type":"LineString","coordinates":[[12.08178,41.95662],[12.08183,41.95685]]},"properties":{}},{"type":"Feature","geometry":{"type":"LineString","coordinates":[[12.08183,41.95685],[12.08159,41.95671]]},"properties":{}},{"type":"Feature","geometry":{"type":"LineString","coordinates":[[12.09676,41.95942],[12.09674,41.95953],[12.09677,41.95966]]},"properties":{}},{"type":"Feature","geometry":{"type":"LineString","coordinates":[[12.07263,41.95938],[12.07391,41.95976]]},"properties":{}},{"type":"Feature","geometry":{"type":"LineString","coordinates":[[12.09656,41.95952],[12.09677,41.95966]]},"properties":{}},{"type":"Feature","geometry":{"type":"LineString","coordinates":[[12.09669,41.9597],[12.09661,41.95962],[12.09656,41.95952]]},"properties":{}},{"type":"Feature","geometry":{"type":"LineString","coordinates":[[12.07386,41.95987],[12.07258,41.95948]]},"properties":{}},{"type":"Feature","geometry":{"type":"LineString","coordinates":[[12.09669,41.9597],[12.09627,41.95967]]},"properties":{}},{"type":"Feature","geometry":{"type":"LineString","coordinates":[[12.09677,41.95966],[12.09686,41.95976]]},"properties":{}},{"type":"Feature","geometry":{"type":"LineString","coordinates":[[12.09686,41.95976],[12.09669,41.9597]]},"properties":{}},{"type":"Feature","geometry":{"type":"LineString","coordinates":[[12.08117,41.95984],[12.08108,41.95977],[12.07739,41.9601]]},"properties":{}},{"type":"Feature","geometry":{"type":"LineString","coordinates":[[12.07391,41.95976],[12.07577,41.96033]]},"properties":{}},{"type":"Feature","geometry":{"type":"LineString","coordinates":[[12.07574,41.96041],[12.07561,41.9604],[12.07386,41.95987]]},"properties":{}},{"type":"Feature","geometry":{"type":"LineString","coordinates":[[12.07577,41.96033],[12.07587,41.96036],[12.07624,41.96027],[12.07658,41.96032],[12.07695,41.96018],[12.07739,41.9601]]},"properties":{}},{"type":"Feature","geometry":{"type":"LineString","coordinates":[[12.08313,41.9643],[12.08326,41.96415]]},"properties":{}},{"type":"Feature","geometry":{"type":"LineString","coordinates":[[12.08326,41.96415],[12.08334,41.96431]]},"properties":{}},{"type":"Feature","geometry":{"type":"LineString","coordinates":[[12.08313,41.9643],[12.08322,41.96427],[12.08334,41.96431]]},"properties":{}},{"type":"Feature","geometry":{"type":"LineString","coordinates":[[12.08308,41.96435],[12.08313,41.9643]]},"properties":{}},{"type":"Feature","geometry":{"type":"LineString","coordinates":[[12.08334,41.96431],[12.08338,41.96436]]},"properties":{}},{"type":"Feature","geometry":{"type":"LineString","coordinates":[[12.08338,41.96436],[12.08338,41.96442]]},"properties":{}},{"type":"Feature","geometry":{"type":"LineString","coordinates":[[12.08311,41.96447],[12.08307,41.96442],[12.08308,41.96435]]},"properties":{}},{"type":"Feature","geometry":{"type":"LineString","coordinates":[[12.08338,41.96442],[12.08333,41.96449],[12.08323,41.96451]]},"properties":{}},{"type":"Feature","geometry":{"type":"LineString","coordinates":[[12.08323,41.96451],[12.08311,41.96447]]},"properties":{}},{"type":"Feature","geometry":{"type":"LineString","coordinates":[[12.08338,41.96442],[12.08338,41.96462]]},"properties":{}},{"type":"Feature","geometry":{"type":"LineString","coordinates":[[12.08338,41.96462],[12.08323,41.96451]]},"properties":{}},{"type":"Feature","geometry":{"type":"LineString","coordinates":[[12.0841,41.96697],[12.0843,41.96712],[12.08458,41.96721]]},"properties":{}},{"type":"Feature","geometry":{"type":"LineString","coordinates":[[12.08511,41.96726],[12.08533,41.9673],[12.08553,41.96727],[12.08574,41.96717],[12.08598,41.967],[12.08612,41.96695]]},"properties":{}},{"type":"Feature","geometry":{"type":"LineString","coordinates":[[12.08429,41.96746],[12.08424,41.96722],[12.0841,41.96697]]},"properties":{}},{"type":"Feature","geometry":{"type":"LineString","coordinates":[[12.08458,41.96721],[12.08485,41.96718],[12.08511,41.96726]]},"properties":{}},{"type":"Feature","geometry":{"type":"LineString","coordinates":[[12.23124,41.75608],[12.23112,41.7561],[12.23101,41.75608],[12.23093,41.75601],[12.23092,41.75589],[12.23104,41.7558],[12.23115,41.75579],[12.23125,41.75581],[12.23131,41.75587],[12.23134,41.75594],[12.23128,41.75605]]},"properties":{}},{"type":"Feature","geometry":{"type":"LineString","coordinates":[[12.23128,41.75605],[12.23124,41.75608]]},"properties":{}},{"type":"Feature","geometry":{"type":"LineString","coordinates":[[12.23302,41.7611],[12.23305,41.76119],[12.233,41.76125],[12.23286,41.76127],[12.23278,41.7612],[12.23279,41.76112],[12.23285,41.76108],[12.23295,41.76107],[12.23302,41.7611]]},"properties":{}},{"type":"Feature","geometry":{"type":"LineString","coordinates":[[12.2227,41.76902],[12.22359,41.76572],[12.2237,41.7655],[12.22395,41.76525],[12.22417,41.76464],[12.22416,41.76454],[12.22405,41.76435],[12.22403,41.7642],[12.22416,41.76405],[12.22439,41.76393],[12.22503,41.76266],[12.2255,41.76181],[12.22562,41.7615],[12.22593,41.76103],[12.2265,41.7599],[12.22657,41.75963],[12.22671,41.75944],[12.22742,41.75797],[12.22742,41.75783],[12.22745,41.75774],[12.22751,41.75764],[12.22762,41.75755],[12.22888,41.75492],[12.22905,41.75429],[12.22912,41.75429]]},"properties":{}},{"type":"Feature","geometry":{"type":"LineString","coordinates":[[12.23471,41.77124],[12.23395,41.77113],[12.23242,41.771],[12.22863,41.77069],[12.22763,41.77064],[12.22709,41.77051],[12.22707,41.77022],[12.22692,41.76997],[12.2267,41.76935],[12.22655,41.76924],[12.2245,41.76929],[12.22441,41.76927],[12.22372,41.76967],[12.22351,41.76983],[12.22341,41.76976],[12.22336,41.76962],[12.22292,41.76907],[12.2227,41.76902]]},"properties":{}},{"type":"Feature","geometry":{"type":"LineString","coordinates":[[12.23527,41.7712],[12.23326,41.77097],[12.22763,41.77056]]},"properties":{}},{"type":"Feature","geometry":{"type":"LineString","coordinates":[[12.23529,41.77136],[12.23534,41.77124],[12.23539,41.77119],[12.23555,41.77116],[12.23554,41.77105],[12.23525,41.77102],[12.2352,41.77117],[12.23495,41.77113],[12.23494,41.77121],[12.23472,41.77118],[12.23471,41.77124]]},"properties":{}},{"type":"Feature","geometry":{"type":"LineString","coordinates":[[12.23509,41.7713],[12.23471,41.77124]]},"properties":{}},{"type":"Feature","geometry":{"type":"LineString","coordinates":[[12.23519,41.77173],[12.23529,41.77136]]},"properties":{}},{"type":"Feature","geometry":{"type":"LineString","coordinates":[[12.24922,41.77396],[12.24144,41.77285],[12.24131,41.77287],[12.24044,41.77275],[12.24034,41.77269],[12.23682,41.77218]]},"properties":{}},{"type":"Feature","geometry":{"type":"LineString","coordinates":[[12.24922,41.77396],[12.24924,41.77387]]},"properties":{}},{"type":"Feature","geometry":{"type":"LineString","coordinates":[[12.24923,41.77391],[12.24959,41.77392]]},"properties":{}},{"type":"Feature","geometry":{"type":"LineString","coordinates":[[12.24959,41.77392],[12.24974,41.77396]]},"properties":{}},{"type":"Feature","geometry":{"type":"LineString","coordinates":[[12.24942,41.77402],[12.24936,41.77395],[12.24923,41.77391]]},"properties":{}},{"type":"Feature","geometry":{"type":"LineString","coordinates":[[12.24942,41.77402],[12.24948,41.77395],[12.24959,41.77392]]},"properties":{}},{"type":"Feature","geometry":{"type":"LineString","coordinates":[[12.24974,41.77396],[12.25,41.77402]]},"properties":{}},{"type":"Feature","geometry":{"type":"LineString","coordinates":[[12.24974,41.77396],[12.2498,41.77408]]},"properties":{}},{"type":"Feature","geometry":{"type":"LineString","coordinates":[[12.25,41.77402],[12.2498,41.77408]]},"properties":{}},{"type":"Feature","geometry":{"type":"LineString","coordinates":[[12.2498,41.77408],[12.24974,41.77418],[12.24959,41.77422],[12.24944,41.77415],[12.24942,41.77402]]},"properties":{}},{"type":"Feature","geometry":{"type":"LineString","coordinates":[[12.24947,41.77435],[12.24943,41.77434],[12.24944,41.77424],[12.24935,41.77405],[12.24922,41.77396]]},"properties":{}},{"type":"Feature","geometry":{"type":"LineString","coordinates":[[12.24952,41.77441],[12.24948,41.77419]]},"properties":{}},{"type":"Feature","geometry":{"type":"LineString","coordinates":[[12.24964,41.77421],[12.24952,41.77441]]},"properties":{}},{"type":"Feature","geometry":{"type":"LineString","coordinates":[[12.2496,41.77437],[12.24947,41.77435]]},"properties":{}},{"type":"Feature","geometry":{"type":"LineString","coordinates":[[12.25,41.77395],[12.2497,41.77387],[12.24931,41.77385],[12.24924,41.77387]]},"properties":{}},{"type":"Feature","geometry":{"type":"LineString","coordinates":[[12.24873,41.77861],[12.2487,41.7785],[12.24874,41.77828],[12.24982,41.7744],[12.2496,41.77437]]},"properties":{}},{"type":"Feature","geometry":{"type":"LineString","coordinates":[[12.24137,41.77533],[12.24839,41.77845],[12.24848,41.77844],[12.24858,41.77837],[12.24867,41.77809]]},"properties":{}},{"type":"Feature","geometry":{"type":"LineString","coordinates":[[12.24867,41.77809],[12.24879,41.77811]]},"properties":{}},{"type":"Feature","geometry":{"type":"LineString","coordinates":[[12.24836,41.77844],[12.24831,41.7785]]},"properties":{}},{"type":"Feature","geometry":{"type":"LineString","coordinates":[[12.24831,41.7785],[12.24806,41.77878]]},"properties":{}},{"type":"Feature","geometry":{"type":"LineString","coordinates":[[12.24806,41.77878],[12.248,41.77884]]},"properties":{}},{"type":"Feature","geometry":{"type":"LineString","coordinates":[[12.24873,41.77861],[12.25,41.77917]]},"properties":{}},{"type":"Feature","geometry":{"type":"LineString","coordinates":[[12.25,41.78155],[12.24961,41.78132],[12.24948,41.78113],[12.24945,41.78103],[12.24948,41.77984],[12.24944,41.77965],[12.24918,41.77943],[12.24775,41.77887],[12.24777,41.7788]]},"properties":{}},{"type":"Feature","geometry":{"type":"LineString","coordinates":[[12.17793,41.9295],[12.17797,41.92964]]},"properties":{}},{"type":"Feature","geometry":{"type":"LineString","coordinates":[[12.17797,41.92964],[12.17776,41.92957],[12.17746,41.92961]]},"properties":{}},{"type":"Feature","geometry":{"type":"LineString","coordinates":[[12.17501,41.93086],[12.17552,41.93054],[12.17598,41.93017],[12.17652,41.92968],[12.17661,41.92943]]},"properties":{}},{"type":"Feature","geometry":{"type":"LineString","coordinates":[[12.17571,41.93072],[12.17576,41.93065],[12.17636,41.93041],[12.17685,41.93014],[12.17695,41.93002],[12.17691,41.92981]]},"properties":{}},{"type":"Feature","geometry":{"type":"LineString","coordinates":[[12.17715,41.92987],[12.17697,41.9301],[12.17679,41.93024],[12.17633,41.93049],[12.17571,41.93072]]},"properties":{}},{"type":"Feature","geometry":{"type":"LineString","coordinates":[[12.17571,41.93072],[12.17463,41.93099]]},"properties":{}},{"type":"Feature","geometry":{"type":"LineString","coordinates":[[12.13339,41.93611],[12.13328,41.9362],[12.13315,41.93624]]},"properties":{}},{"type":"Feature","geometry":{"type":"LineString","coordinates":[[12.15168,41.94071],[12.15183,41.94071]]},"properties":{}},{"type":"Feature","geometry":{"type":"LineString","coordinates":[[12.15183,41.94071],[12.15153,41.94087]]},"properties":{}},{"type":"Feature","geometry":{"type":"LineString","coordinates":[[12.15153,41.94087],[12.15168,41.94071]]},"properties":{}},{"type":"Feature","geometry":{"type":"LineString","coordinates":[[12.15181,41.94098],[12.15169,41.94089],[12.15153,41.94087]]},"properties":{}},{"type":"Feature","geometry":{"type":"LineString","coordinates":[[12.07835,41.97265],[12.07823,41.97274],[12.07807,41.9728],[12.07774,41.97278],[12.07751,41.97265],[12.07741,41.97247],[12.07741,41.97236],[12.07746,41.97225],[12.07767,41.97208],[12.07798,41.97203],[12.07815,41.97207],[12.07837,41.97221],[12.07843,41.97231],[12.07846,41.97243],[12.07843,41.97255],[12.07835,41.97265]]},"properties":{}},{"type":"Feature","geometry":{"type":"LineString","coordinates":[[12.077,41.97285],[12.07729,41.97263],[12.07741,41.97247]]},"properties":{}},{"type":"Feature","geometry":{"type":"LineString","coordinates":[[12.0776,41.97272],[12.07727,41.97275],[12.077,41.97285]]},"properties":{}},{"type":"Feature","geometry":{"type":"LineString","coordinates":[[12.07835,41.97265],[12.07843,41.97299]]},"properties":{}},{"type":"Feature","geometry":{"type":"LineString","coordinates":[[12.07843,41.97299],[12.07827,41.97288],[12.07807,41.9728]]},"properties":{}},{"type":"Feature","geometry":{"type":"LineString","coordinates":[[12.07487,41.97407],[12.07505,41.97394],[12.07658,41.97304],[12.07683,41.97295]]},"properties":{}},{"type":"Feature","geometry":{"type":"LineString","coordinates":[[12.07683,41.97295],[12.07487,41.97407]]},"properties":{}},{"type":"Feature","geometry":{"type":"LineString","coordinates":[[12.24836,41.78991],[12.24852,41.78997]]},"properties":{}},{"type":"Feature","geometry":{"type":"LineString","coordinates":[[12.24838,41.79016],[12.24844,41.79003],[12.24852,41.78997]]},"properties":{}},{"type":"Feature","geometry":{"type":"LineString","coordinates":[[12.24856,41.79003],[12.24847,41.79006],[12.24838,41.79016]]},"properties":{}},{"type":"Feature","geometry":{"type":"LineString","coordinates":[[12.25,41.79031],[12.24976,41.79029],[12.24971,41.79025],[12.24971,41.79004]]},"properties":{}},{"type":"Feature","geometry":{"type":"LineString","coordinates":[[12.24801,41.79097],[12.24804,41.79094],[12.24815,41.79094],[12.24822,41.79102]]},"properties":{}},{"type":"Feature","geometry":{"type":"LineString","coordinates":[[12.24823,41.79083],[12.24821,41.79109],[12.24811,41.79163],[12.24807,41.79169]]},"properties":{}},{"type":"Feature","geometry":{"type":"LineString","coordinates":[[12.24789,41.79167],[12.24801,41.79097]]},"properties":{}},{"type":"Feature","geometry":{"type":"LineString","coordinates":[[12.24807,41.79169],[12.24799,41.79172],[12.24789,41.79167]]},"properties":{}},{"type":"Feature","geometry":{"type":"LineString","coordinates":[[12.24913,41.79282],[12.2495,41.79215],[12.2497,41.79185],[12.2495,41.79178],[12.25,41.79139]]},"properties":{}},{"type":"Feature","geometry":{"type":"LineString","coordinates":[[12.23607,41.772],[12.23609,41.77193],[12.23579,41.77185],[12.23575,41.77181],[12.23519,41.77173]]},"properties":{}},{"type":"Feature","geometry":{"type":"LineString","coordinates":[[12.23621,41.77209],[12.23606,41.77207],[12.23607,41.772]]},"properties":{}},{"type":"Feature","geometry":{"type":"LineString","coordinates":[[12.23682,41.77218],[12.23621,41.77209]]},"properties":{}},{"type":"Feature","geometry":{"type":"LineString","coordinates":[[12.24122,41.77564],[12.24137,41.77533],[12.2411,41.77524],[12.24098,41.77516],[12.24071,41.77508],[12.24043,41.77493],[12.23933,41.77448],[12.23867,41.77449],[12.23724,41.77388],[12.23648,41.77361],[12.23652,41.77354],[12.23641,41.77347],[12.2364,41.77341],[12.23632,41.77338],[12.23635,41.77332],[12.23633,41.77323],[12.23618,41.77296],[12.2361,41.77207]]},"properties":{}},{"type":"Feature","geometry":{"type":"LineString","coordinates":[[12.24122,41.77564],[12.24116,41.77573]]},"properties":{}},{"type":"Feature","geometry":{"type":"LineString","coordinates":[[12.24116,41.77573],[12.22712,41.80267],[12.2201,41.81616],[12.22009,41.81626]]},"properties":{}},{"type":"Feature","geometry":{"type":"LineString","coordinates":[[12.23746,41.82127],[12.23752,41.82123],[12.23768,41.82122],[12.23776,41.82128],[12.23778,41.82133]]},"properties":{}},{"type":"Feature","geometry":{"type":"LineString","coordinates":[[12.23707,41.82132],[12.23746,41.82127]]},"properties":{}},{"type":"Feature","geometry":{"type":"LineString","coordinates":[[12.23747,41.82141],[12.23744,41.82132],[12.23746,41.82127]]},"properties":{}},{"type":"Feature","geometry":{"type":"LineString","coordinates":[[12.23747,41.82141],[12.23707,41.82132]]},"properties":{}},{"type":"Feature","geometry":{"type":"LineString","coordinates":[[12.2241,41.76485],[12.22414,41.76487]]},"properties":{}},{"type":"Feature","geometry":{"type":"LineString","coordinates":[[12.22359,41.76572],[12.22368,41.76572]]},"properties":{}},{"type":"Feature","geometry":{"type":"LineString","coordinates":[[12.22344,41.76629],[12.22352,41.7663]]},"properties":{}},{"type":"Feature","geometry":{"type":"LineString","coordinates":[[12.22316,41.76732],[12.22323,41.76733]]},"properties":{}},{"type":"Feature","geometry":{"type":"LineString","coordinates":[[12.22287,41.76839],[12.22294,41.7684]]},"properties":{}},{"type":"Feature","geometry":{"type":"LineString","coordinates":[[12.22271,41.76898],[12.22279,41.76896]]},"properties":{}},{"type":"Feature","geometry":{"type":"LineString","coordinates":[[12.22221,41.76962],[12.2222,41.76922],[12.22227,41.76912],[12.22263,41.76912],[12.22268,41.76909],[12.2227,41.76902]]},"properties":{}},{"type":"Feature","geometry":{"type":"LineString","coordinates":[[12.22009,41.81626],[12.22006,41.8163],[12.21972,41.81629],[12.21945,41.81644],[12.21931,41.81649],[12.21848,41.81663],[12.21831,41.81663],[12.21749,41.81646],[12.21695,41.81649],[12.21673,41.81655],[12.21614,41.81687],[12.21478,41.81624]]},"properties":{}},{"type":"Feature","geometry":{"type":"LineString","coordinates":[[12.21714,41.87685],[12.21728,41.8769],[12.22279,41.87697],[12.22513,41.87696]]},"properties":{}},{"type":"Feature","geometry":{"type":"LineString","coordinates":[[12.22513,41.87696],[12.22527,41.87696]]},"properties":{}},{"type":"Feature","geometry":{"type":"LineString","coordinates":[[12.24911,41.79359],[12.24902,41.79339],[12.24898,41.79316],[12.249,41.79298],[12.24909,41.79269]]},"properties":{}},{"type":"Feature","geometry":{"type":"LineString","coordinates":[[12.24992,41.79423],[12.24939,41.79392],[12.24924,41.79378],[12.24911,41.79359]]},"properties":{}},{"type":"Feature","geometry":{"type":"LineString","coordinates":[[12.24267,41.87257],[12.2431,41.87213],[12.24359,41.87182]]},"properties":{}},{"type":"Feature","geometry":{"type":"LineString","coordinates":[[12.24359,41.87182],[12.24302,41.8723],[12.24295,41.87241],[12.2429,41.87259]]},"properties":{}},{"type":"Feature","geometry":{"type":"LineString","coordinates":[[12.24013,41.87512],[12.24007,41.87508],[12.24007,41.87503],[12.24297,41.87216],[12.24539,41.87044],[12.24639,41.8695],[12.24665,41.8694]]},"properties":{}},{"type":"Feature","geometry":{"type":"LineString","coordinates":[[12.24267,41.87257],[12.24281,41.87255],[12.2429,41.87259]]},"properties":{}},{"type":"Feature","geometry":{"type":"LineString","coordinates":[[12.2429,41.87259],[12.24292,41.87261]]},"properties":{}},{"type":"Feature","geometry":{"type":"LineString","coordinates":[[12.24261,41.87264],[12.24267,41.87257]]},"properties":{}},{"type":"Feature","geometry":{"type":"LineString","coordinates":[[12.24262,41.87272],[12.24261,41.87264]]},"properties":{}},{"type":"Feature","geometry":{"type":"LineString","coordinates":[[12.24292,41.87261],[12.24292,41.87272],[12.24281,41.87279]]},"properties":{}},{"type":"Feature","geometry":{"type":"LineString","coordinates":[[12.24276,41.87279],[12.24262,41.87272]]},"properties":{}},{"type":"Feature","geometry":{"type":"LineString","coordinates":[[12.24281,41.87279],[12.24276,41.87279]]},"properties":{}},{"type":"Feature","geometry":{"type":"LineString","coordinates":[[12.24219,41.87305],[12.24261,41.87264]]},"properties":{}},{"type":"Feature","geometry":{"type":"LineString","coordinates":[[12.24276,41.87279],[12.24251,41.87285],[12.24219,41.87305]]},"properties":{}},{"type":"Feature","geometry":{"type":"LineString","coordinates":[[12.23778,41.82133],[12.2377,41.82144]]},"properties":{}},{"type":"Feature","geometry":{"type":"LineString","coordinates":[[12.23778,41.82133],[12.23815,41.82146]]},"properties":{}},{"type":"Feature","geometry":{"type":"LineString","coordinates":[[12.23768,41.82145],[12.23756,41.82146],[12.23747,41.82141]]},"properties":{}},{"type":"Feature","geometry":{"type":"LineString","coordinates":[[12.2377,41.82144],[12.23768,41.82145]]},"properties":{}},{"type":"Feature","geometry":{"type":"LineString","coordinates":[[12.23815,41.82146],[12.2377,41.82144]]},"properties":{}},{"type":"Feature","geometry":{"type":"LineString","coordinates":[[12.23966,41.87558],[12.23954,41.87587],[12.23951,41.87631],[12.23903,41.87682]]},"properties":{}},{"type":"Feature","geometry":{"type":"LineString","coordinates":[[12.23903,41.87682],[12.23917,41.87677],[12.23929,41.87668]]},"properties":{}},{"type":"Feature","geometry":{"type":"LineString","coordinates":[[12.23589,41.87683],[12.23589,41.87678]]},"properties":{}},{"type":"Feature","geometry":{"type":"LineString","coordinates":[[12.22527,41.87696],[12.23589,41.87683],[12.23903,41.87682]]},"properties":{}},{"type":"Feature","geometry":{"type":"LineString","coordinates":[[12.0683,41.95202],[12.06834,41.95197],[12.06813,41.95171],[12.06792,41.95124],[12.06802,41.95109],[12.07046,41.9505],[12.07123,41.95023],[12.0718,41.94995]]},"properties":{}},{"type":"Feature","geometry":{"type":"LineString","coordinates":[[12.06534,41.95337],[12.06497,41.95258]]},"properties":{}},{"type":"Feature","geometry":{"type":"LineString","coordinates":[[12.06319,41.95508],[12.06287,41.95449],[12.0683,41.95202]]},"properties":{}},{"type":"Feature","geometry":{"type":"LineString","coordinates":[[12.06287,41.95449],[12.06235,41.9535],[12.06237,41.95346]]},"properties":{}},{"type":"Feature","geometry":{"type":"LineString","coordinates":[[12.06173,41.95577],[12.06174,41.95572],[12.06319,41.95508]]},"properties":{}},{"type":"Feature","geometry":{"type":"LineString","coordinates":[[12.06119,41.95595],[12.06173,41.95577]]},"properties":{}},{"type":"Feature","geometry":{"type":"LineString","coordinates":[[12.06267,41.95768],[12.06353,41.95732],[12.06679,41.95587],[12.06779,41.95538],[12.06783,41.95542]]},"properties":{}},{"type":"Feature","geometry":{"type":"LineString","coordinates":[[12.08355,41.94648],[12.08287,41.9468]]},"properties":{}},{"type":"Feature","geometry":{"type":"LineString","coordinates":[[12.08263,41.94673],[12.0828,41.94671]]},"properties":{}},{"type":"Feature","geometry":{"type":"LineString","coordinates":[[12.0828,41.94671],[12.08287,41.9468]]},"properties":{}},{"type":"Feature","geometry":{"type":"LineString","coordinates":[[12.08273,41.94691],[12.0826,41.94685],[12.08259,41.94679],[12.08263,41.94673]]},"properties":{}},{"type":"Feature","geometry":{"type":"LineString","coordinates":[[12.08287,41.9468],[12.08283,41.94687],[12.08278,41.9469]]},"properties":{}},{"type":"Feature","geometry":{"type":"LineString","coordinates":[[12.08278,41.9469],[12.08273,41.94691]]},"properties":{}},{"type":"Feature","geometry":{"type":"LineString","coordinates":[[12.08069,41.94807],[12.07836,41.94895],[12.07608,41.94987],[12.07477,41.95018],[12.07409,41.95045]]},"properties":{}},{"type":"Feature","geometry":{"type":"LineString","coordinates":[[12.07608,41.94987],[12.07577,41.94943]]},"properties":{}},{"type":"Feature","geometry":{"type":"LineString","coordinates":[[12.07391,41.95017],[12.07577,41.94943]]},"properties":{}},{"type":"Feature","geometry":{"type":"LineString","coordinates":[[12.07369,41.95039],[12.07349,41.9503],[12.07281,41.94942]]},"properties":{}},{"type":"Feature","geometry":{"type":"LineString","coordinates":[[12.07371,41.95043],[12.07368,41.95035],[12.07372,41.95024],[12.07391,41.95017]]},"properties":{}},{"type":"Feature","geometry":{"type":"LineString","coordinates":[[12.07391,41.95017],[12.07406,41.95021],[12.07413,41.95028],[12.07414,41.95036],[12.07409,41.95045]]},"properties":{}},{"type":"Feature","geometry":{"type":"LineString","coordinates":[[12.07372,41.95044],[12.07371,41.95043]]},"properties":{}},{"type":"Feature","geometry":{"type":"LineString","coordinates":[[12.07409,41.95045],[12.07407,41.95047]]},"properties":{}},{"type":"Feature","geometry":{"type":"LineString","coordinates":[[12.07407,41.95047],[12.07387,41.95051],[12.07372,41.95044]]},"properties":{}},{"type":"Feature","geometry":{"type":"LineString","coordinates":[[12.07638,41.95364],[12.07845,41.95321]]},"properties":{}},{"type":"Feature","geometry":{"type":"LineString","coordinates":[[12.08907,41.9534],[12.08947,41.95366]]},"properties":{}},{"type":"Feature","geometry":{"type":"LineString","coordinates":[[12.07845,41.95321],[12.07896,41.95394]]},"properties":{}},{"type":"Feature","geometry":{"type":"LineString","coordinates":[[12.07594,41.95369],[12.07608,41.95365],[12.07638,41.95364]]},"properties":{}},{"type":"Feature","geometry":{"type":"LineString","coordinates":[[12.07239,41.95932],[12.07225,41.9592],[12.07228,41.95899],[12.07256,41.9586],[12.07276,41.95843],[12.07277,41.95829],[12.07324,41.95753],[12.0731,41.95747],[12.07404,41.95595],[12.07399,41.95582],[12.07244,41.95366],[12.0725,41.95364]]},"properties":{}},{"type":"Feature","geometry":{"type":"LineString","coordinates":[[12.06267,41.95768],[12.06244,41.95751],[12.06119,41.956]]},"properties":{}},{"type":"Feature","geometry":{"type":"LineString","coordinates":[[12.0642,41.95968],[12.06111,41.95598]]},"properties":{}},{"type":"Feature","geometry":{"type":"LineString","coordinates":[[12.05236,41.95979],[12.06119,41.95595]]},"properties":{}},{"type":"Feature","geometry":{"type":"LineString","coordinates":[[12.05236,41.95979],[12.0524,41.95983],[12.06119,41.956]]},"properties":{}},{"type":"Feature","geometry":{"type":"LineString","coordinates":[[12.07239,41.95932],[12.07263,41.95938]]},"properties":{}},{"type":"Feature","geometry":{"type":"LineString","coordinates":[[12.07258,41.95948],[12.07235,41.95941]]},"properties":{}},{"type":"Feature","geometry":{"type":"LineString","coordinates":[[12.04008,41.97051],[12.04013,41.97044]]},"properties":{}},{"type":"Feature","geometry":{"type":"LineString","coordinates":[[12.04197,41.97125],[12.03995,41.97048]]},"properties":{}},{"type":"Feature","geometry":{"type":"LineString","coordinates":[[12.04,41.97041],[12.0421,41.97122],[12.04263,41.97153]]},"properties":{}},{"type":"Feature","geometry":{"type":"LineString","coordinates":[[12.04191,41.97123],[12.04196,41.97116]]},"properties":{}},{"type":"Feature","geometry":{"type":"LineString","coordinates":[[12.08612,41.96695],[12.0859,41.96715],[12.08543,41.96742],[12.0853,41.96759]]},"properties":{}},{"type":"Feature","geometry":{"type":"LineString","coordinates":[[12.08429,41.96746],[12.08435,41.96736],[12.08458,41.96721]]},"properties":{}},{"type":"Feature","geometry":{"type":"LineString","coordinates":[[12.08511,41.96726],[12.08522,41.96735],[12.08529,41.96747],[12.0853,41.96759]]},"properties":{}},{"type":"Feature","geometry":{"type":"LineString","coordinates":[[12.0845,41.96787],[12.08431,41.96769],[12.08428,41.96762],[12.08429,41.96746]]},"properties":{}},{"type":"Feature","geometry":{"type":"LineString","coordinates":[[12.0853,41.96759],[12.08519,41.96779],[12.08496,41.96792]]},"properties":{}},{"type":"Feature","geometry":{"type":"LineString","coordinates":[[12.08496,41.96792],[12.0848,41.96794],[12.0845,41.96787]]},"properties":{}},{"type":"Feature","geometry":{"type":"LineString","coordinates":[[12.08453,41.96833],[12.0846,41.96808],[12.0845,41.96787]]},"properties":{}},{"type":"Feature","geometry":{"type":"LineString","coordinates":[[12.08496,41.96792],[12.08453,41.96833]]},"properties":{}},{"type":"Feature","geometry":{"type":"LineString","coordinates":[[12.07815,41.97207],[12.07857,41.97196]]},"properties":{}},{"type":"Feature","geometry":{"type":"LineString","coordinates":[[12.07857,41.97196],[12.07845,41.97213],[12.07843,41.97231]]},"properties":{}},{"type":"Feature","geometry":{"type":"LineString","coordinates":[[12.0424,41.97158],[12.04225,41.9714],[12.04197,41.97125]]},"properties":{}},{"type":"Feature","geometry":{"type":"LineString","coordinates":[[12.04374,41.97235],[12.04383,41.97227]]},"properties":{}},{"type":"Feature","geometry":{"type":"LineString","coordinates":[[12.03514,41.97612],[12.03591,41.97526],[12.03594,41.97519],[12.03601,41.97514],[12.03731,41.97357],[12.03884,41.97182],[12.03985,41.97047],[12.04108,41.96872],[12.04106,41.96858]]},"properties":{}},{"type":"Feature","geometry":{"type":"LineString","coordinates":[[12.0427,41.97159],[12.04388,41.97231],[12.04626,41.97384],[12.04639,41.97388]]},"properties":{}},{"type":"Feature","geometry":{"type":"LineString","coordinates":[[12.04625,41.97398],[12.04616,41.97388],[12.04295,41.97184],[12.04279,41.97177],[12.04262,41.97176],[12.0426,41.97174]]},"properties":{}},{"type":"Feature","geometry":{"type":"LineString","coordinates":[[12.04536,41.97327],[12.04529,41.97332]]},"properties":{}},{"type":"Feature","geometry":{"type":"LineString","coordinates":[[12.04617,41.97389],[12.04625,41.97383]]},"properties":{}},{"type":"Feature","geometry":{"type":"LineString","coordinates":[[12.045,41.97621],[12.04564,41.97575],[12.04631,41.97428],[12.04633,41.97416],[12.04629,41.97407]]},"properties":{}},{"type":"Feature","geometry":{"type":"LineString","coordinates":[[12.03615,41.97533],[12.03621,41.97527]]},"properties":{}},{"type":"Feature","geometry":{"type":"LineString","coordinates":[[12.04649,41.97409],[12.04641,41.97421],[12.04546,41.97642],[12.04544,41.97663]]},"properties":{}},{"type":"Feature","geometry":{"type":"LineString","coordinates":[[12.0369,41.9757],[12.03698,41.9756]]},"properties":{}},{"type":"Feature","geometry":{"type":"LineString","coordinates":[[12.03785,41.97616],[12.03793,41.97607]]},"properties":{}},{"type":"Feature","geometry":{"type":"LineString","coordinates":[[12.03608,41.97521],[12.03707,41.97564],[12.04058,41.97736],[12.04082,41.97735],[12.04421,41.97671],[12.04436,41.97665],[12.04493,41.97625]]},"properties":{}},{"type":"Feature","geometry":{"type":"LineString","coordinates":[[12.04048,41.97743],[12.03605,41.97528]]},"properties":{}},{"type":"Feature","geometry":{"type":"LineString","coordinates":[[12.04544,41.97663],[12.04549,41.97668]]},"properties":{}},{"type":"Feature","geometry":{"type":"LineString","coordinates":[[12.04549,41.97668],[12.0454,41.97663]]},"properties":{}},{"type":"Feature","geometry":{"type":"LineString","coordinates":[[12.05498,41.9762],[12.05634,41.97719]]},"properties":{}},{"type":"Feature","geometry":{"type":"LineString","coordinates":[[12.04549,41.97668],[12.04566,41.97682]]},"properties":{}},{"type":"Feature","geometry":{"type":"LineString","coordinates":[[12.03925,41.97684],[12.03932,41.97675]]},"properties":{}},{"type":"Feature","geometry":{"type":"LineString","coordinates":[[12.0454,41.97663],[12.04513,41.97663],[12.0407,41.97745],[12.04048,41.97743]]},"properties":{}},{"type":"Feature","geometry":{"type":"LineString","coordinates":[[12.04566,41.97682],[12.04689,41.9778]]},"properties":{}},{"type":"Feature","geometry":{"type":"LineString","coordinates":[[12.04041,41.9774],[12.04047,41.97733]]},"properties":{}},{"type":"Feature","geometry":{"type":"LineString","coordinates":[[12.05634,41.97719],[12.05861,41.97883]]},"properties":{}},{"type":"Feature","geometry":{"type":"LineString","coordinates":[[12.05031,41.98006],[12.05046,41.97981],[12.05127,41.97871],[12.05498,41.9762]]},"properties":{}},{"type":"Feature","geometry":{"type":"LineString","coordinates":[[12.05782,41.9787],[12.05814,41.97849]]},"properties":{}},{"type":"Feature","geometry":{"type":"LineString","coordinates":[[12.05964,41.97927],[12.06039,41.97929],[12.06059,41.97926],[12.06383,41.97798]]},"properties":{}},{"type":"Feature","geometry":{"type":"LineString","coordinates":[[12.05861,41.97883],[12.05894,41.97904]]},"properties":{}},{"type":"Feature","geometry":{"type":"LineString","coordinates":[[12.05894,41.97904],[12.05914,41.97916]]},"properties":{}},{"type":"Feature","geometry":{"type":"LineString","coordinates":[[12.05914,41.97916],[12.0593,41.97924],[12.05964,41.97927]]},"properties":{}},{"type":"Feature","geometry":{"type":"LineString","coordinates":[[12.05608,41.98013],[12.05722,41.97968],[12.05803,41.97908],[12.05807,41.979],[12.05804,41.97893],[12.05782,41.9787]]},"properties":{}},{"type":"Feature","geometry":{"type":"LineString","coordinates":[[12.04897,41.97967],[12.04875,41.97961],[12.04839,41.97957],[12.04798,41.97964],[12.04786,41.9797],[12.04768,41.97986],[12.04772,41.98009]]},"properties":{}},{"type":"Feature","geometry":{"type":"LineString","coordinates":[[12.04967,41.97996],[12.04976,41.97989],[12.0502,41.98006],[12.05031,41.98006]]},"properties":{}},{"type":"Feature","geometry":{"type":"LineString","coordinates":[[12.04961,41.98002],[12.04967,41.97996]]},"properties":{}},{"type":"Feature","geometry":{"type":"LineString","coordinates":[[12.05031,41.98006],[12.0504,41.9801]]},"properties":{}},{"type":"Feature","geometry":{"type":"LineString","coordinates":[[12.04961,41.98002],[12.04958,41.98006],[12.04968,41.98012],[12.04975,41.98028]]},"properties":{}},{"type":"Feature","geometry":{"type":"LineString","coordinates":[[12.0504,41.9801],[12.0503,41.98024]]},"properties":{}},{"type":"Feature","geometry":{"type":"LineString","coordinates":[[12.0562,41.98031],[12.05608,41.98013]]},"properties":{}},{"type":"Feature","geometry":{"type":"LineString","coordinates":[[12.04975,41.98028],[12.04984,41.98043],[12.04967,41.98055],[12.04969,41.98057]]},"properties":{}},{"type":"Feature","geometry":{"type":"LineString","coordinates":[[12.0562,41.98031],[12.05524,41.98069]]},"properties":{}},{"type":"Feature","geometry":{"type":"LineString","coordinates":[[12.05524,41.98069],[12.05535,41.98082]]},"properties":{}},{"type":"Feature","geometry":{"type":"LineString","coordinates":[[12.0503,41.98024],[12.05368,41.98139]]},"properties":{}},{"type":"Feature","geometry":{"type":"LineString","coordinates":[[12.05493,41.98099],[12.05535,41.98082]]},"properties":{}},{"type":"Feature","geometry":{"type":"LineString","coordinates":[[12.05421,41.98128],[12.05493,41.98099]]},"properties":{}},{"type":"Feature","geometry":{"type":"LineString","coordinates":[[12.05368,41.98139],[12.05421,41.98128]]},"properties":{}},{"type":"Feature","geometry":{"type":"LineString","coordinates":[[12.05495,41.98285],[12.0573,41.98189],[12.058,41.98164]]},"properties":{}},{"type":"Feature","geometry":{"type":"LineString","coordinates":[[12.0565,41.98228],[12.05513,41.9828]]},"properties":{}},{"type":"Feature","geometry":{"type":"LineString","coordinates":[[12.05485,41.9826],[12.05496,41.98271],[12.05495,41.98285]]},"properties":{}},{"type":"Feature","geometry":{"type":"LineString","coordinates":[[12.05495,41.98285],[12.0548,41.98282],[12.05463,41.98266]]},"properties":{}},{"type":"Feature","geometry":{"type":"LineString","coordinates":[[12.058,41.98164],[12.05684,41.98215],[12.05233,41.98395]]},"properties":{}},{"type":"Feature","geometry":{"type":"LineString","coordinates":[[12.05513,41.9828],[12.05495,41.98285]]},"properties":{}},{"type":"Feature","geometry":{"type":"LineString","coordinates":[[12.01925,41.99746],[12.01987,41.99716],[12.02121,41.99662]]},"properties":{}},{"type":"Feature","geometry":{"type":"LineString","coordinates":[[12.02121,41.99662],[12.0193,41.99749],[12.01822,41.99804]]},"properties":{}},{"type":"Feature","geometry":{"type":"LineString","coordinates":[[12.01817,41.99803],[12.01925,41.99746]]},"properties":{}},{"type":"Feature","geometry":{"type":"LineString","coordinates":[[12.0191,41.9976],[12.01868,41.99785],[12.01851,41.99804],[12.01846,41.9982],[12.01854,41.99847]]},"properties":{}},{"type":"Feature","geometry":{"type":"LineString","coordinates":[[12.01817,41.99803],[12.01822,41.99804]]},"properties":{}},{"type":"Feature","geometry":{"type":"LineString","coordinates":[[12.01816,41.99807],[12.01817,41.99803]]},"properties":{}},{"type":"Feature","geometry":{"type":"LineString","coordinates":[[12.01822,41.99804],[12.01816,41.99807]]},"properties":{}},{"type":"Feature","geometry":{"type":"LineString","coordinates":[[12.0166,41.99881],[12.01748,41.99833],[12.01925,41.99746]]},"properties":{}},{"type":"Feature","geometry":{"type":"LineString","coordinates":[[12.01822,41.99804],[12.01836,41.99813],[12.01854,41.99847]]},"properties":{}},{"type":"Feature","geometry":{"type":"LineString","coordinates":[[12.0185,41.99848],[12.01821,41.99817],[12.01816,41.99807]]},"properties":{}},{"type":"Feature","geometry":{"type":"LineString","coordinates":[[12.01713,41.99853],[12.01817,41.99803]]},"properties":{}},{"type":"Feature","geometry":{"type":"LineString","coordinates":[[12.01816,41.99807],[12.01677,41.99877]]},"properties":{}},{"type":"Feature","geometry":{"type":"LineString","coordinates":[[12.0185,41.99848],[12.01837,41.99834],[12.01827,41.99829],[12.0179,41.99828],[12.01773,41.99833],[12.01677,41.99877]]},"properties":{}},{"type":"Feature","geometry":{"type":"LineString","coordinates":[[12.01854,41.99847],[12.01861,41.99865]]},"properties":{}},{"type":"Feature","geometry":{"type":"LineString","coordinates":[[12.01861,41.99865],[12.0185,41.99848]]},"properties":{}},{"type":"Feature","geometry":{"type":"LineString","coordinates":[[12.01677,41.99877],[12.01625,41.99901]]},"properties":{}},{"type":"Feature","geometry":{"type":"LineString","coordinates":[[12.01625,41.99901],[12.0166,41.99881]]},"properties":{}},{"type":"Feature","geometry":{"type":"LineString","coordinates":[[12.05403,41.98322],[12.05458,41.98294],[12.05467,41.9828],[12.05463,41.98266]]},"properties":{}},{"type":"Feature","geometry":{"type":"LineString","coordinates":[[12.05403,41.98322],[12.05495,41.98285]]},"properties":{}},{"type":"Feature","geometry":{"type":"LineString","coordinates":[[12.05495,41.98285],[12.05373,41.98341]]},"properties":{}},{"type":"Feature","geometry":{"type":"LineString","coordinates":[[12.05233,41.98395],[12.05403,41.98322]]},"properties":{}}]}