{"type":"FeatureCollection","features":[{"type":"Feature","geometry":{"type":"LineString","coordinates":[[12.08166,43.96966],[12.08101,43.96954],[12.08043,43.96967],[12.08022,43.96964],[12.08014,43.96957],[12.07999,43.96933],[12.0795,43.96917],[12.07894,43.9693]]},"properties":{}},{"type":"Feature","geometry":{"type":"LineString","coordinates":[[12.10519,43.99503],[12.10489,43.99479],[12.10489,43.99463],[12.10536,43.99422]]},"properties":{}},{"type":"Feature","geometry":{"type":"LineString","coordinates":[[12.19861,43.96556],[12.19875,43.96575]]},"properties":{}},{"type":"Feature","geometry":{"type":"LineString","coordinates":[[12.19863,43.96578],[12.19861,43.96556]]},"properties":{}},{"type":"Feature","geometry":{"type":"LineString","coordinates":[[12.19863,43.96578],[12.1988,43.96576]]},"properties":{}},{"type":"Feature","geometry":{"type":"LineString","coordinates":[[12.1988,43.96576],[12.19891,43.96591],[12.19891,43.96605],[12.19883,43.96614],[12.1987,43.96614]]},"properties":{}},{"type":"Feature","geometry":{"type":"LineString","coordinates":[[12.1987,43.96614],[12.19862,43.96609],[12.19856,43.96597],[12.19857,43.96585],[12.19863,43.96578]]},"properties":{}},{"type":"Feature","geometry":{"type":"LineString","coordinates":[[12.1652,43.92364],[12.16519,43.92355]]},"properties":{}},{"type":"Feature","geometry":{"type":"LineString","coordinates":[[12.16519,43.92355],[12.16531,43.92362],[12.16531,43.92373]]},"properties":{}},{"type":"Feature","geometry":{"type":"LineString","coordinates":[[12.16531,43.92362],[12.16566,43.92369]]},"properties":{}},{"type":"Feature","geometry":{"type":"LineString","coordinates":[[12.16531,43.92373],[12.1652,43.92364]]},"properties":{}},{"type":"Feature","geometry":{"type":"LineString","coordinates":[[12.16502,43.92377],[12.1652,43.92364]]},"properties":{}},{"type":"Feature","geometry":{"type":"LineString","coordinates":[[12.15006,43.92437],[12.15034,43.92452]]},"properties":{}},{"type":"Feature","geometry":{"type":"LineString","coordinates":[[12.15016,43.92458],[12.15006,43.92437]]},"properties":{}},{"type":"Feature","geometry":{"type":"LineString","coordinates":[[12.19887,43.96612],[12.19883,43.96623],[12.19883,43.96634]]},"properties":{}},{"type":"Feature","geometry":{"type":"LineString","coordinates":[[12.19883,43.96634],[12.1987,43.96614]]},"properties":{}},{"type":"Feature","geometry":{"type":"LineString","coordinates":[[12.20044,43.97419],[12.20052,43.97429],[12.2007,43.97438]]},"properties":{}},{"type":"Feature","geometry":{"type":"LineString","coordinates":[[12.2005,43.97444],[12.20044,43.97419]]},"properties":{}},{"type":"Feature","geometry":{"type":"LineString","coordinates":[[12.2005,43.97444],[12.20058,43.97439],[12.2007,43.97438]]},"properties":{}},{"type":"Feature","geometry":{"type":"LineString","coordinates":[[12.2007,43.97438],[12.20085,43.97445],[12.20089,43.97456],[12.20081,43.97466],[12.20065,43.9747]]},"properties":{}},{"type":"Feature","geometry":{"type":"LineString","coordinates":[[12.20065,43.9747],[12.20056,43.97467],[12.20047,43.97461],[12.20045,43.97451],[12.2005,43.97444]]},"properties":{}},{"type":"Feature","geometry":{"type":"LineString","coordinates":[[12.20082,43.97465],[12.20084,43.97482]]},"properties":{}},{"type":"Feature","geometry":{"type":"LineString","coordinates":[[12.20084,43.97482],[12.20065,43.9747]]},"properties":{}},{"type":"Feature","geometry":{"type":"LineString","coordinates":[[12.15016,43.92458],[12.15034,43.92452]]},"properties":{}},{"type":"Feature","geometry":{"type":"LineString","coordinates":[[12.15034,43.92452],[12.15045,43.92454],[12.15053,43.9246],[12.15055,43.92468],[12.1505,43.92477]]},"properties":{}},{"type":"Feature","geometry":{"type":"LineString","coordinates":[[12.15032,43.92483],[12.15022,43.9248],[12.15014,43.92474],[12.15012,43.92465],[12.15016,43.92458]]},"properties":{}},{"type":"Feature","geometry":{"type":"LineString","coordinates":[[12.1505,43.92477],[12.15032,43.92483]]},"properties":{}},{"type":"Feature","geometry":{"type":"LineString","coordinates":[[12.1505,43.92477],[12.15054,43.925]]},"properties":{}},{"type":"Feature","geometry":{"type":"LineString","coordinates":[[12.15054,43.925],[12.15032,43.92483]]},"properties":{}},{"type":"Feature","geometry":{"type":"LineString","coordinates":[[12.06257,43.84684],[12.0625,43.84691],[12.0624,43.84694],[12.06179,43.8469],[12.06145,43.84692],[12.06096,43.84704],[12.06091,43.84717],[12.061,43.84725],[12.06123,43.84736],[12.06125,43.84741],[12.06123,43.84746]]},"properties":{}}]}