{"type":"FeatureCollection","features":[{"type":"Feature","geometry":{"type":"LineString","coordinates":[[12.46277,41.62067],[12.4629,41.6205],[12.4631,41.62034]]},"properties":{}},{"type":"Feature","geometry":{"type":"LineString","coordinates":[[12.4631,41.62034],[12.46297,41.6205],[12.46294,41.62068]]},"properties":{}},{"type":"Feature","geometry":{"type":"LineString","coordinates":[[12.46279,41.62085],[12.46271,41.62078],[12.46272,41.62071],[12.46278,41.62066],[12.4629,41.62066]]},"properties":{}},{"type":"Feature","geometry":{"type":"LineString","coordinates":[[12.4629,41.62066],[12.46298,41.62073],[12.46297,41.62079],[12.46292,41.62084],[12.46284,41.62086]]},"properties":{}},{"type":"Feature","geometry":{"type":"LineString","coordinates":[[12.46244,41.62095],[12.46258,41.62078],[12.46272,41.62071]]},"properties":{}},{"type":"Feature","geometry":{"type":"LineString","coordinates":[[12.46284,41.62086],[12.46279,41.62085]]},"properties":{}},{"type":"Feature","geometry":{"type":"LineString","coordinates":[[12.46279,41.62085],[12.46244,41.62095]]},"properties":{}},{"type":"Feature","geometry":{"type":"LineString","coordinates":[[12.44192,41.67466],[12.44196,41.67455]]},"properties":{}},{"type":"Feature","geometry":{"type":"LineString","coordinates":[[12.45152,41.68166],[12.45145,41.68164],[12.45114,41.68137],[12.44635,41.67784],[12.44192,41.67466]]},"properties":{}},{"type":"Feature","geometry":{"type":"LineString","coordinates":[[12.41705,41.65661],[12.41882,41.65794],[12.41906,41.65806],[12.41948,41.65816],[12.41967,41.65824],[12.42132,41.65944]]},"properties":{}},{"type":"Feature","geometry":{"type":"LineString","coordinates":[[12.42132,41.65944],[12.42137,41.65948]]},"properties":{}},{"type":"Feature","geometry":{"type":"LineString","coordinates":[[12.46506,41.62205],[12.4711,41.61637],[12.47118,41.61634],[12.47131,41.61638],[12.47134,41.61635]]},"properties":{}},{"type":"Feature","geometry":{"type":"LineString","coordinates":[[12.48639,41.65993],[12.48643,41.66034]]},"properties":{}},{"type":"Feature","geometry":{"type":"LineString","coordinates":[[12.4891,41.66445],[12.48938,41.66449]]},"properties":{}},{"type":"Feature","geometry":{"type":"LineString","coordinates":[[12.4954,41.65512],[12.4955,41.65509],[12.49547,41.65501],[12.49539,41.655],[12.49534,41.65502],[12.49534,41.65509],[12.4954,41.65512]]},"properties":{}},{"type":"Feature","geometry":{"type":"LineString","coordinates":[[12.4942,41.65731],[12.49448,41.65701],[12.49453,41.65683],[12.49452,41.65661],[12.49461,41.65638],[12.49509,41.65571],[12.49539,41.65512]]},"properties":{}},{"type":"Feature","geometry":{"type":"LineString","coordinates":[[12.49643,41.65748],[12.49835,41.65769]]},"properties":{}},{"type":"Feature","geometry":{"type":"LineString","coordinates":[[12.49363,41.65913],[12.49387,41.65921],[12.49405,41.6589],[12.49438,41.65873],[12.49477,41.6578],[12.49498,41.65763],[12.49524,41.65706],[12.49545,41.65673],[12.49569,41.65653],[12.4958,41.6565],[12.49586,41.65655],[12.49586,41.65659],[12.49557,41.65696],[12.49547,41.65714],[12.49551,41.6572],[12.49557,41.65721],[12.49562,41.65718],[12.49571,41.65696],[12.49581,41.65693],[12.49588,41.65696],[12.49587,41.65705],[12.49564,41.6574],[12.49564,41.65751]]},"properties":{}},{"type":"Feature","geometry":{"type":"LineString","coordinates":[[12.49348,41.65746],[12.49358,41.65745],[12.49358,41.65731],[12.49363,41.65727],[12.49371,41.65727],[12.49375,41.65732],[12.49368,41.65751],[12.49373,41.65755],[12.49383,41.65753],[12.49393,41.65736],[12.49406,41.65688],[12.49414,41.65684],[12.4942,41.65686],[12.4942,41.65731],[12.49387,41.65816],[12.49378,41.65836],[12.49337,41.65894]]},"properties":{}},{"type":"Feature","geometry":{"type":"LineString","coordinates":[[12.49344,41.65901],[12.49336,41.65907],[12.4933,41.65907],[12.49325,41.65901],[12.49329,41.65896],[12.49334,41.65894],[12.4934,41.65895],[12.49344,41.65901]]},"properties":{}},{"type":"Feature","geometry":{"type":"LineString","coordinates":[[12.4935,41.65909],[12.49341,41.65905]]},"properties":{}},{"type":"Feature","geometry":{"type":"LineString","coordinates":[[12.49363,41.65913],[12.4935,41.65909]]},"properties":{}},{"type":"Feature","geometry":{"type":"LineString","coordinates":[[12.49835,41.65769],[12.49895,41.65776],[12.49874,41.65894],[12.49866,41.65918],[12.49857,41.65926],[12.49845,41.65927],[12.49843,41.65941],[12.4984,41.65955],[12.49855,41.65957],[12.49859,41.65962],[12.49836,41.66084],[12.49824,41.66098],[12.49805,41.66103]]},"properties":{}},{"type":"Feature","geometry":{"type":"LineString","coordinates":[[12.49387,41.65921],[12.49368,41.65958],[12.49374,41.65969],[12.49409,41.66004],[12.4941,41.66021],[12.49397,41.66055],[12.49404,41.66068],[12.49479,41.661],[12.49497,41.66112],[12.49517,41.66132],[12.49525,41.66135],[12.49533,41.66131],[12.49539,41.66103],[12.49547,41.66087],[12.49559,41.66081],[12.4958,41.6608]]},"properties":{}},{"type":"Feature","geometry":{"type":"LineString","coordinates":[[12.4965,41.66111],[12.4976,41.6612],[12.498,41.66136],[12.49805,41.66103]]},"properties":{}},{"type":"Feature","geometry":{"type":"LineString","coordinates":[[12.4943,41.66162],[12.4943,41.66139],[12.49442,41.6611],[12.49448,41.66087]]},"properties":{}},{"type":"Feature","geometry":{"type":"LineString","coordinates":[[12.498,41.66136],[12.49867,41.66145],[12.49895,41.66142],[12.5,41.66153]]},"properties":{}},{"type":"Feature","geometry":{"type":"LineString","coordinates":[[12.49914,41.66171],[12.49921,41.66145]]},"properties":{}},{"type":"Feature","geometry":{"type":"LineString","coordinates":[[12.49805,41.66311],[12.49797,41.6631],[12.49795,41.66319],[12.49791,41.66322],[12.49767,41.66319],[12.49703,41.66301],[12.4953,41.66238],[12.4943,41.66162]]},"properties":{}},{"type":"Feature","geometry":{"type":"LineString","coordinates":[[12.4945,41.66177],[12.49435,41.66189],[12.49408,41.66171],[12.49376,41.66159],[12.49359,41.66148],[12.4933,41.66118],[12.49305,41.66102],[12.49282,41.66096],[12.49239,41.66095],[12.49191,41.66104],[12.48963,41.66164],[12.48818,41.6621],[12.48811,41.66215],[12.48797,41.66238],[12.48796,41.66269],[12.48802,41.66295],[12.48821,41.6633],[12.4891,41.66445]]},"properties":{}},{"type":"Feature","geometry":{"type":"LineString","coordinates":[[12.49903,41.66226],[12.49845,41.6622],[12.49826,41.66325],[12.49833,41.66335],[12.49866,41.66354],[12.49871,41.66369]]},"properties":{}},{"type":"Feature","geometry":{"type":"LineString","coordinates":[[12.49828,41.66313],[12.49805,41.66311]]},"properties":{}},{"type":"Feature","geometry":{"type":"LineString","coordinates":[[12.49869,41.66363],[12.49921,41.66394],[12.5,41.66427]]},"properties":{}},{"type":"Feature","geometry":{"type":"LineString","coordinates":[[12.49214,41.66508],[12.4924,41.66516],[12.49214,41.66555],[12.49214,41.66572],[12.49288,41.66674],[12.49298,41.66677],[12.49306,41.66675],[12.49351,41.66595],[12.49376,41.66566],[12.49412,41.66551],[12.49528,41.66524],[12.49546,41.66507],[12.49546,41.66498],[12.49536,41.6647],[12.49536,41.66453],[12.49528,41.66425],[12.49639,41.66278]]},"properties":{}},{"type":"Feature","geometry":{"type":"LineString","coordinates":[[12.48938,41.66449],[12.49027,41.66445],[12.49075,41.66448],[12.4911,41.6646],[12.49132,41.66473],[12.49151,41.66488],[12.49188,41.66532],[12.49198,41.66532],[12.49214,41.66508]]},"properties":{}},{"type":"Feature","geometry":{"type":"LineString","coordinates":[[12.49743,41.66787],[12.49768,41.66741],[12.49759,41.66735],[12.49734,41.6666],[12.49738,41.66656],[12.49716,41.6659],[12.49708,41.66589],[12.49702,41.66572],[12.49703,41.66557],[12.49694,41.66512],[12.49682,41.66499],[12.49679,41.66489],[12.49681,41.66482],[12.49569,41.66435],[12.49574,41.66428],[12.49537,41.66412]]},"properties":{}},{"type":"Feature","geometry":{"type":"LineString","coordinates":[[12.49316,41.66661],[12.49325,41.66663]]},"properties":{}},{"type":"Feature","geometry":{"type":"LineString","coordinates":[[12.49325,41.66663],[12.4931,41.66691],[12.49308,41.66701],[12.49359,41.66774],[12.49373,41.6679],[12.49393,41.66805],[12.49441,41.66819],[12.49452,41.66817],[12.4953,41.66839],[12.49534,41.66845],[12.49662,41.66884]]},"properties":{}},{"type":"Feature","geometry":{"type":"LineString","coordinates":[[12.49725,41.66788],[12.49728,41.66782],[12.49743,41.66787]]},"properties":{}},{"type":"Feature","geometry":{"type":"LineString","coordinates":[[12.4971,41.66814],[12.49725,41.66788]]},"properties":{}},{"type":"Feature","geometry":{"type":"LineString","coordinates":[[12.49693,41.66876],[12.49701,41.66874],[12.49721,41.66833],[12.4971,41.66814]]},"properties":{}},{"type":"Feature","geometry":{"type":"LineString","coordinates":[[12.49662,41.66884],[12.49682,41.66875],[12.49693,41.66876]]},"properties":{}},{"type":"Feature","geometry":{"type":"LineString","coordinates":[[12.49751,41.66913],[12.49698,41.66898]]},"properties":{}},{"type":"Feature","geometry":{"type":"LineString","coordinates":[[12.49607,41.67295],[12.49675,41.67367]]},"properties":{}},{"type":"Feature","geometry":{"type":"LineString","coordinates":[[12.49666,41.67421],[12.49569,41.67322]]},"properties":{}},{"type":"Feature","geometry":{"type":"LineString","coordinates":[[12.49675,41.67367],[12.49702,41.67395]]},"properties":{}},{"type":"Feature","geometry":{"type":"LineString","coordinates":[[12.49702,41.67395],[12.49718,41.67411]]},"properties":{}},{"type":"Feature","geometry":{"type":"LineString","coordinates":[[12.49696,41.67429],[12.49666,41.67421]]},"properties":{}},{"type":"Feature","geometry":{"type":"LineString","coordinates":[[12.49975,41.67617],[12.5,41.67598]]},"properties":{}},{"type":"Feature","geometry":{"type":"LineString","coordinates":[[12.35225,41.7496],[12.35224,41.74957],[12.35256,41.74947],[12.35265,41.74913],[12.35258,41.74905],[12.35088,41.74777],[12.35083,41.74777],[12.35073,41.74766],[12.3503,41.74734],[12.34994,41.7471],[12.34972,41.74702],[12.34948,41.74701],[12.34879,41.74713]]},"properties":{}},{"type":"Feature","geometry":{"type":"LineString","coordinates":[[12.34532,41.70211],[12.33961,41.70482],[12.33616,41.70639],[12.33294,41.70779],[12.33097,41.70874],[12.32648,41.71076],[12.32446,41.71158],[12.32264,41.71225],[12.32255,41.71231],[12.32252,41.71239],[12.32255,41.71261]]},"properties":{}},{"type":"Feature","geometry":{"type":"LineString","coordinates":[[12.3339,41.70882],[12.33309,41.70772]]},"properties":{}},{"type":"Feature","geometry":{"type":"LineString","coordinates":[[12.32187,41.7124],[12.3234,41.71189],[12.32608,41.71084],[12.33071,41.70877],[12.33298,41.70768],[12.33723,41.70581]]},"properties":{}},{"type":"Feature","geometry":{"type":"LineString","coordinates":[[12.30358,41.71891],[12.30479,41.71844],[12.30881,41.71702],[12.30987,41.71676],[12.3103,41.71669],[12.3142,41.71613],[12.31489,41.71597],[12.31543,41.71578],[12.31603,41.71547],[12.31796,41.71409],[12.31837,41.71384],[12.31882,41.71362],[12.32139,41.71253],[12.32385,41.71169],[12.32673,41.71051],[12.33121,41.70851],[12.33263,41.7078],[12.33884,41.70504],[12.34056,41.70423],[12.34058,41.70415],[12.34062,41.70411],[12.34133,41.70378],[12.34148,41.70382],[12.34578,41.70176]]},"properties":{}},{"type":"Feature","geometry":{"type":"LineString","coordinates":[[12.34578,41.70176],[12.34602,41.70166],[12.34608,41.7017],[12.34602,41.70177],[12.34578,41.70176]]},"properties":{}},{"type":"Feature","geometry":{"type":"LineString","coordinates":[[12.32032,41.71303],[12.32187,41.7124]]},"properties":{}},{"type":"Feature","geometry":{"type":"LineString","coordinates":[[12.32197,41.71241],[12.32254,41.71318]]},"properties":{}},{"type":"Feature","geometry":{"type":"LineString","coordinates":[[12.32255,41.71261],[12.3229,41.71308]]},"properties":{}},{"type":"Feature","geometry":{"type":"LineString","coordinates":[[12.3229,41.71308],[12.32254,41.71318]]},"properties":{}},{"type":"Feature","geometry":{"type":"LineString","coordinates":[[12.3229,41.71308],[12.32314,41.71337],[12.32317,41.71344],[12.32313,41.71353],[12.32294,41.71362]]},"properties":{}},{"type":"Feature","geometry":{"type":"LineString","coordinates":[[12.27684,41.72951],[12.28572,41.72664],[12.28588,41.72654],[12.28605,41.72628]]},"properties":{}},{"type":"Feature","geometry":{"type":"LineString","coordinates":[[12.27769,41.72916],[12.2809,41.72811],[12.28116,41.72808],[12.28527,41.72675]]},"properties":{}},{"type":"Feature","geometry":{"type":"LineString","coordinates":[[12.28638,41.72654],[12.28113,41.72826],[12.27689,41.72961]]},"properties":{}},{"type":"Feature","geometry":{"type":"LineString","coordinates":[[12.27788,41.72906],[12.27789,41.72908]]},"properties":{}},{"type":"Feature","geometry":{"type":"LineString","coordinates":[[12.27653,41.72957],[12.27663,41.72961],[12.27667,41.72967],[12.27662,41.72982],[12.27645,41.72987],[12.2763,41.72982],[12.27627,41.72978],[12.27627,41.72967],[12.27653,41.72957]]},"properties":{}},{"type":"Feature","geometry":{"type":"LineString","coordinates":[[12.27662,41.72982],[12.27666,41.72994]]},"properties":{}},{"type":"Feature","geometry":{"type":"LineString","coordinates":[[12.3458,41.70191],[12.34532,41.70211]]},"properties":{}},{"type":"Feature","geometry":{"type":"LineString","coordinates":[[12.34717,41.70271],[12.34781,41.70234],[12.34836,41.70211]]},"properties":{}},{"type":"Feature","geometry":{"type":"LineString","coordinates":[[12.34836,41.70211],[12.34815,41.70227],[12.3473,41.70277]]},"properties":{}},{"type":"Feature","geometry":{"type":"LineString","coordinates":[[12.34705,41.70276],[12.34717,41.70271]]},"properties":{}},{"type":"Feature","geometry":{"type":"LineString","coordinates":[[12.34717,41.70271],[12.3473,41.70277]]},"properties":{}},{"type":"Feature","geometry":{"type":"LineString","coordinates":[[12.34704,41.70285],[12.34705,41.70276]]},"properties":{}},{"type":"Feature","geometry":{"type":"LineString","coordinates":[[12.3473,41.70277],[12.34731,41.70284],[12.34727,41.70288],[12.34712,41.7029]]},"properties":{}},{"type":"Feature","geometry":{"type":"LineString","coordinates":[[12.34669,41.70303],[12.34693,41.70283],[12.34696,41.70274],[12.34694,41.70267]]},"properties":{}},{"type":"Feature","geometry":{"type":"LineString","coordinates":[[12.34752,41.70263],[12.34745,41.70286],[12.34749,41.70298],[12.34758,41.70308]]},"properties":{}},{"type":"Feature","geometry":{"type":"LineString","coordinates":[[12.34712,41.7029],[12.34704,41.70285]]},"properties":{}},{"type":"Feature","geometry":{"type":"LineString","coordinates":[[12.34669,41.70303],[12.34704,41.70285]]},"properties":{}},{"type":"Feature","geometry":{"type":"LineString","coordinates":[[12.34758,41.70308],[12.3472,41.70298],[12.3468,41.70309]]},"properties":{}},{"type":"Feature","geometry":{"type":"LineString","coordinates":[[12.33723,41.70581],[12.34169,41.70376],[12.34561,41.70188],[12.34573,41.70187],[12.3458,41.70191]]},"properties":{}},{"type":"Feature","geometry":{"type":"LineString","coordinates":[[12.33826,41.70711],[12.3409,41.70608],[12.34192,41.70564],[12.345,41.70407],[12.34669,41.70303]]},"properties":{}},{"type":"Feature","geometry":{"type":"LineString","coordinates":[[12.32111,41.71336],[12.32077,41.71338]]},"properties":{}},{"type":"Feature","geometry":{"type":"LineString","coordinates":[[12.32294,41.71362],[12.32265,41.71327],[12.32254,41.71318]]},"properties":{}},{"type":"Feature","geometry":{"type":"LineString","coordinates":[[12.31782,41.71423],[12.31856,41.71378],[12.32032,41.71303]]},"properties":{}},{"type":"Feature","geometry":{"type":"LineString","coordinates":[[12.32139,41.7137],[12.32167,41.71358],[12.32202,41.71404]]},"properties":{}},{"type":"Feature","geometry":{"type":"LineString","coordinates":[[12.32077,41.71338],[12.31995,41.71344],[12.31922,41.71359],[12.31854,41.71388],[12.31792,41.71429]]},"properties":{}},{"type":"Feature","geometry":{"type":"LineString","coordinates":[[12.32174,41.71416],[12.32154,41.71423],[12.3214,41.71421],[12.32109,41.71384],[12.32139,41.7137]]},"properties":{}},{"type":"Feature","geometry":{"type":"LineString","coordinates":[[12.32202,41.71404],[12.32174,41.71416]]},"properties":{}},{"type":"Feature","geometry":{"type":"LineString","coordinates":[[12.31744,41.71448],[12.31782,41.71423]]},"properties":{}},{"type":"Feature","geometry":{"type":"LineString","coordinates":[[12.31792,41.71429],[12.31783,41.71448],[12.31786,41.71478]]},"properties":{}},{"type":"Feature","geometry":{"type":"LineString","coordinates":[[12.3172,41.71466],[12.31744,41.71448]]},"properties":{}},{"type":"Feature","geometry":{"type":"LineString","coordinates":[[12.31744,41.71448],[12.31786,41.71478]]},"properties":{}},{"type":"Feature","geometry":{"type":"LineString","coordinates":[[12.31761,41.71499],[12.3172,41.71466]]},"properties":{}},{"type":"Feature","geometry":{"type":"LineString","coordinates":[[12.31786,41.71478],[12.31803,41.71497]]},"properties":{}},{"type":"Feature","geometry":{"type":"LineString","coordinates":[[12.31786,41.71478],[12.31761,41.71499]]},"properties":{}},{"type":"Feature","geometry":{"type":"LineString","coordinates":[[12.31761,41.71499],[12.31715,41.715],[12.31695,41.71504]]},"properties":{}},{"type":"Feature","geometry":{"type":"LineString","coordinates":[[12.31803,41.71497],[12.31828,41.71509]]},"properties":{}},{"type":"Feature","geometry":{"type":"LineString","coordinates":[[12.3178,41.71511],[12.31761,41.71499]]},"properties":{}},{"type":"Feature","geometry":{"type":"LineString","coordinates":[[12.31803,41.71497],[12.31817,41.71517]]},"properties":{}},{"type":"Feature","geometry":{"type":"LineString","coordinates":[[12.31808,41.71523],[12.3178,41.71511]]},"properties":{}},{"type":"Feature","geometry":{"type":"LineString","coordinates":[[12.31797,41.71531],[12.3178,41.71511]]},"properties":{}},{"type":"Feature","geometry":{"type":"LineString","coordinates":[[12.31873,41.71589],[12.31797,41.71531]]},"properties":{}},{"type":"Feature","geometry":{"type":"LineString","coordinates":[[12.31066,41.71668],[12.31395,41.71622],[12.31468,41.71607],[12.31532,41.71587],[12.31585,41.71562],[12.31636,41.7153],[12.31684,41.71495]]},"properties":{}},{"type":"Feature","geometry":{"type":"LineString","coordinates":[[12.31897,41.71608],[12.31873,41.71589]]},"properties":{}},{"type":"Feature","geometry":{"type":"LineString","coordinates":[[12.31695,41.71504],[12.3161,41.7156],[12.31576,41.71579],[12.31525,41.716],[12.31477,41.71615],[12.31388,41.71633],[12.31057,41.71679],[12.30962,41.71695],[12.30863,41.71722],[12.30664,41.71793]]},"properties":{}},{"type":"Feature","geometry":{"type":"LineString","coordinates":[[12.30657,41.71785],[12.30883,41.71706],[12.3095,41.71688],[12.31066,41.71668]]},"properties":{}},{"type":"Feature","geometry":{"type":"LineString","coordinates":[[12.32774,41.72282],[12.31897,41.71608]]},"properties":{}},{"type":"Feature","geometry":{"type":"LineString","coordinates":[[12.32664,41.72151],[12.32666,41.7217]]},"properties":{}},{"type":"Feature","geometry":{"type":"LineString","coordinates":[[12.32774,41.72282],[12.32806,41.72262]]},"properties":{}},{"type":"Feature","geometry":{"type":"LineString","coordinates":[[12.32823,41.72274],[12.32793,41.72295]]},"properties":{}},{"type":"Feature","geometry":{"type":"LineString","coordinates":[[12.32793,41.72295],[12.32774,41.72282]]},"properties":{}},{"type":"Feature","geometry":{"type":"LineString","coordinates":[[12.30664,41.71793],[12.30624,41.71807]]},"properties":{}},{"type":"Feature","geometry":{"type":"LineString","coordinates":[[12.30624,41.71807],[12.30465,41.71864]]},"properties":{}},{"type":"Feature","geometry":{"type":"LineString","coordinates":[[12.30465,41.71864],[12.3036,41.71906]]},"properties":{}},{"type":"Feature","geometry":{"type":"LineString","coordinates":[[12.30301,41.71915],[12.30358,41.71891]]},"properties":{}},{"type":"Feature","geometry":{"type":"LineString","coordinates":[[12.30302,41.71919],[12.30358,41.71896]]},"properties":{}},{"type":"Feature","geometry":{"type":"LineString","coordinates":[[12.3036,41.71906],[12.30305,41.71929]]},"properties":{}},{"type":"Feature","geometry":{"type":"LineString","coordinates":[[12.30275,41.71931],[12.30302,41.71919]]},"properties":{}},{"type":"Feature","geometry":{"type":"LineString","coordinates":[[12.30305,41.71929],[12.3028,41.71939]]},"properties":{}},{"type":"Feature","geometry":{"type":"LineString","coordinates":[[12.3028,41.71939],[12.30185,41.71979]]},"properties":{}},{"type":"Feature","geometry":{"type":"LineString","coordinates":[[12.29561,41.7224],[12.29909,41.72085],[12.30275,41.71931]]},"properties":{}},{"type":"Feature","geometry":{"type":"LineString","coordinates":[[12.30185,41.71979],[12.29915,41.72092],[12.29625,41.72225]]},"properties":{}},{"type":"Feature","geometry":{"type":"LineString","coordinates":[[12.29614,41.72212],[12.29617,41.72216]]},"properties":{}},{"type":"Feature","geometry":{"type":"LineString","coordinates":[[12.29625,41.72225],[12.29562,41.72251]]},"properties":{}},{"type":"Feature","geometry":{"type":"LineString","coordinates":[[12.28695,41.72564],[12.29192,41.72402],[12.29975,41.72051],[12.30301,41.71915]]},"properties":{}},{"type":"Feature","geometry":{"type":"LineString","coordinates":[[12.29562,41.72251],[12.29561,41.7224]]},"properties":{}},{"type":"Feature","geometry":{"type":"LineString","coordinates":[[12.29562,41.72251],[12.29348,41.72348]]},"properties":{}},{"type":"Feature","geometry":{"type":"LineString","coordinates":[[12.29069,41.72448],[12.2919,41.72407],[12.29561,41.7224]]},"properties":{}},{"type":"Feature","geometry":{"type":"LineString","coordinates":[[12.29348,41.72348],[12.29202,41.72415],[12.29169,41.72427]]},"properties":{}},{"type":"Feature","geometry":{"type":"LineString","coordinates":[[12.29153,41.72421],[12.29164,41.72421],[12.29169,41.72427]]},"properties":{}},{"type":"Feature","geometry":{"type":"LineString","coordinates":[[12.29169,41.72427],[12.29062,41.72461]]},"properties":{}},{"type":"Feature","geometry":{"type":"LineString","coordinates":[[12.34712,41.7029],[12.3451,41.70414],[12.34191,41.70577],[12.34096,41.70618],[12.33821,41.70725]]},"properties":{}},{"type":"Feature","geometry":{"type":"LineString","coordinates":[[12.33815,41.70715],[12.33826,41.70711]]},"properties":{}},{"type":"Feature","geometry":{"type":"LineString","coordinates":[[12.33704,41.7076],[12.33815,41.70715]]},"properties":{}},{"type":"Feature","geometry":{"type":"LineString","coordinates":[[12.33821,41.70725],[12.33776,41.70741],[12.33704,41.7076]]},"properties":{}},{"type":"Feature","geometry":{"type":"LineString","coordinates":[[12.34551,41.73645],[12.34541,41.73652],[12.34493,41.73615],[12.34485,41.73601],[12.33772,41.73053],[12.33762,41.73046],[12.33742,41.73055]]},"properties":{}},{"type":"Feature","geometry":{"type":"LineString","coordinates":[[12.34579,41.73624],[12.34789,41.73784]]},"properties":{}},{"type":"Feature","geometry":{"type":"LineString","coordinates":[[12.34703,41.73747],[12.34678,41.73746]]},"properties":{}},{"type":"Feature","geometry":{"type":"LineString","coordinates":[[12.34595,41.73679],[12.3459,41.73684],[12.34708,41.73775],[12.34727,41.73793],[12.34738,41.73797],[12.3495,41.73961],[12.34958,41.73973],[12.35024,41.74023]]},"properties":{}},{"type":"Feature","geometry":{"type":"LineString","coordinates":[[12.35019,41.73976],[12.35045,41.73981]]},"properties":{}},{"type":"Feature","geometry":{"type":"LineString","coordinates":[[12.34789,41.73784],[12.35797,41.74559]]},"properties":{}},{"type":"Feature","geometry":{"type":"LineString","coordinates":[[12.29062,41.72461],[12.29063,41.72454],[12.29069,41.72448]]},"properties":{}},{"type":"Feature","geometry":{"type":"LineString","coordinates":[[12.29062,41.72461],[12.28943,41.72499]]},"properties":{}},{"type":"Feature","geometry":{"type":"LineString","coordinates":[[12.28943,41.72499],[12.28702,41.72577]]},"properties":{}},{"type":"Feature","geometry":{"type":"LineString","coordinates":[[12.28694,41.72562],[12.28695,41.72564]]},"properties":{}},{"type":"Feature","geometry":{"type":"LineString","coordinates":[[12.28697,41.72567],[12.28695,41.72564]]},"properties":{}},{"type":"Feature","geometry":{"type":"LineString","coordinates":[[12.28702,41.72577],[12.28688,41.72583],[12.28678,41.72592],[12.28668,41.72624]]},"properties":{}},{"type":"Feature","geometry":{"type":"LineString","coordinates":[[12.28613,41.72613],[12.28627,41.72607],[12.28648,41.72607],[12.28661,41.72614],[12.28668,41.72624]]},"properties":{}},{"type":"Feature","geometry":{"type":"LineString","coordinates":[[12.29052,41.72626],[12.29053,41.72612],[12.29059,41.72607],[12.29071,41.72604],[12.29086,41.72608],[12.29091,41.72613],[12.29091,41.72624]]},"properties":{}},{"type":"Feature","geometry":{"type":"LineString","coordinates":[[12.28695,41.72564],[12.28506,41.72624],[12.28532,41.72672]]},"properties":{}},{"type":"Feature","geometry":{"type":"LineString","coordinates":[[12.29091,41.72624],[12.29083,41.72633],[12.29072,41.72635],[12.29059,41.72632],[12.29052,41.72626]]},"properties":{}},{"type":"Feature","geometry":{"type":"LineString","coordinates":[[12.28668,41.72624],[12.28668,41.72636],[12.2866,41.72646],[12.28638,41.72654]]},"properties":{}},{"type":"Feature","geometry":{"type":"LineString","coordinates":[[12.28638,41.72654],[12.28627,41.72653],[12.28614,41.72646],[12.28606,41.72636],[12.28605,41.72628]]},"properties":{}},{"type":"Feature","geometry":{"type":"LineString","coordinates":[[12.28527,41.72675],[12.28532,41.72672]]},"properties":{}},{"type":"Feature","geometry":{"type":"LineString","coordinates":[[12.28686,41.72737],[12.28694,41.72729],[12.28708,41.7273]]},"properties":{}},{"type":"Feature","geometry":{"type":"LineString","coordinates":[[12.28708,41.7273],[12.28714,41.72734],[12.28715,41.7274]]},"properties":{}},{"type":"Feature","geometry":{"type":"LineString","coordinates":[[12.28693,41.72749],[12.28686,41.72743],[12.28686,41.72737]]},"properties":{}},{"type":"Feature","geometry":{"type":"LineString","coordinates":[[12.28715,41.7274],[12.28708,41.72749],[12.28693,41.72749]]},"properties":{}},{"type":"Feature","geometry":{"type":"LineString","coordinates":[[12.29306,41.72774],[12.29287,41.7279]]},"properties":{}},{"type":"Feature","geometry":{"type":"LineString","coordinates":[[12.28768,41.72836],[12.28775,41.72843],[12.28772,41.72852],[12.28761,41.72857],[12.28748,41.72851],[12.28746,41.72844],[12.28749,41.72838],[12.28756,41.72835],[12.28768,41.72836]]},"properties":{}},{"type":"Feature","geometry":{"type":"LineString","coordinates":[[12.28864,41.72999],[12.29032,41.72942],[12.29086,41.72917],[12.29165,41.72869],[12.29302,41.72766]]},"properties":{}},{"type":"Feature","geometry":{"type":"LineString","coordinates":[[12.32816,41.72313],[12.32793,41.72295]]},"properties":{}},{"type":"Feature","geometry":{"type":"LineString","coordinates":[[12.32919,41.72392],[12.32816,41.72313]]},"properties":{}},{"type":"Feature","geometry":{"type":"LineString","coordinates":[[12.32949,41.72396],[12.32919,41.72392]]},"properties":{}},{"type":"Feature","geometry":{"type":"LineString","coordinates":[[12.33018,41.72466],[12.32919,41.72392]]},"properties":{}},{"type":"Feature","geometry":{"type":"LineString","coordinates":[[12.3159,41.73137],[12.31601,41.73119],[12.31614,41.73108],[12.31748,41.73007],[12.32012,41.72824],[12.32304,41.72597],[12.32388,41.72536],[12.32774,41.72282]]},"properties":{}},{"type":"Feature","geometry":{"type":"LineString","coordinates":[[12.33686,41.72981],[12.33018,41.72466]]},"properties":{}},{"type":"Feature","geometry":{"type":"LineString","coordinates":[[12.32755,41.7232],[12.32596,41.72425],[12.32557,41.72456],[12.32405,41.72561],[12.3219,41.72721],[12.32065,41.72819],[12.31616,41.73124],[12.3159,41.73137]]},"properties":{}},{"type":"Feature","geometry":{"type":"LineString","coordinates":[[12.33616,41.72883],[12.33615,41.72897]]},"properties":{}},{"type":"Feature","geometry":{"type":"LineString","coordinates":[[12.3159,41.73137],[12.31575,41.7315],[12.31362,41.73295]]},"properties":{}},{"type":"Feature","geometry":{"type":"LineString","coordinates":[[12.31214,41.73386],[12.3123,41.73383]]},"properties":{}},{"type":"Feature","geometry":{"type":"LineString","coordinates":[[12.27654,41.72998],[12.27645,41.72987]]},"properties":{}},{"type":"Feature","geometry":{"type":"LineString","coordinates":[[12.2724,41.73098],[12.27251,41.73086],[12.27488,41.7301],[12.27509,41.72999],[12.27769,41.72916]]},"properties":{}},{"type":"Feature","geometry":{"type":"LineString","coordinates":[[12.27666,41.72994],[12.27688,41.73025]]},"properties":{}},{"type":"Feature","geometry":{"type":"LineString","coordinates":[[12.273,41.73073],[12.27602,41.72976]]},"properties":{}},{"type":"Feature","geometry":{"type":"LineString","coordinates":[[12.27608,41.72986],[12.27306,41.73084]]},"properties":{}},{"type":"Feature","geometry":{"type":"LineString","coordinates":[[12.27774,41.73175],[12.27773,41.73164],[12.27767,41.73152],[12.27654,41.72998]]},"properties":{}},{"type":"Feature","geometry":{"type":"LineString","coordinates":[[12.27255,41.73101],[12.27261,41.73091],[12.273,41.73073]]},"properties":{}},{"type":"Feature","geometry":{"type":"LineString","coordinates":[[12.27306,41.73084],[12.27255,41.73101]]},"properties":{}},{"type":"Feature","geometry":{"type":"LineString","coordinates":[[12.27688,41.73025],[12.27796,41.73166]]},"properties":{}},{"type":"Feature","geometry":{"type":"LineString","coordinates":[[12.27773,41.73192],[12.27771,41.7318],[12.27784,41.73168],[12.27803,41.73167],[12.27816,41.73176]]},"properties":{}},{"type":"Feature","geometry":{"type":"LineString","coordinates":[[12.29287,41.7279],[12.29175,41.72877],[12.2911,41.72919],[12.29038,41.72952],[12.28868,41.73007]]},"properties":{}},{"type":"Feature","geometry":{"type":"LineString","coordinates":[[12.28853,41.73003],[12.28864,41.72999]]},"properties":{}},{"type":"Feature","geometry":{"type":"LineString","coordinates":[[12.28842,41.73007],[12.28853,41.73003]]},"properties":{}},{"type":"Feature","geometry":{"type":"LineString","coordinates":[[12.28868,41.73007],[12.28857,41.73011]]},"properties":{}},{"type":"Feature","geometry":{"type":"LineString","coordinates":[[12.28857,41.73011],[12.28846,41.73015]]},"properties":{}},{"type":"Feature","geometry":{"type":"LineString","coordinates":[[12.28537,41.73104],[12.28842,41.73007]]},"properties":{}},{"type":"Feature","geometry":{"type":"LineString","coordinates":[[12.28846,41.73015],[12.28541,41.73113]]},"properties":{}},{"type":"Feature","geometry":{"type":"LineString","coordinates":[[12.28849,41.73553],[12.28792,41.73572]]},"properties":{}},{"type":"Feature","geometry":{"type":"LineString","coordinates":[[12.28647,41.73591],[12.28735,41.73563]]},"properties":{}},{"type":"Feature","geometry":{"type":"LineString","coordinates":[[12.28747,41.73585],[12.28659,41.73614]]},"properties":{}},{"type":"Feature","geometry":{"type":"LineString","coordinates":[[12.28233,41.73203],[12.28339,41.73168]]},"properties":{}},{"type":"Feature","geometry":{"type":"LineString","coordinates":[[12.27255,41.73101],[12.26733,41.7327]]},"properties":{}},{"type":"Feature","geometry":{"type":"LineString","coordinates":[[12.27816,41.73176],[12.27818,41.73188],[12.2781,41.73198]]},"properties":{}},{"type":"Feature","geometry":{"type":"LineString","coordinates":[[12.28343,41.73176],[12.28237,41.73211]]},"properties":{}},{"type":"Feature","geometry":{"type":"LineString","coordinates":[[12.2781,41.73198],[12.2779,41.73202],[12.27773,41.73192]]},"properties":{}},{"type":"Feature","geometry":{"type":"LineString","coordinates":[[12.28093,41.73247],[12.28233,41.73203]]},"properties":{}},{"type":"Feature","geometry":{"type":"LineString","coordinates":[[12.26441,41.73354],[12.2724,41.73098]]},"properties":{}},{"type":"Feature","geometry":{"type":"LineString","coordinates":[[12.28237,41.73211],[12.28081,41.7326]]},"properties":{}},{"type":"Feature","geometry":{"type":"LineString","coordinates":[[12.28078,41.73253],[12.28093,41.73247]]},"properties":{}},{"type":"Feature","geometry":{"type":"LineString","coordinates":[[12.28062,41.73257],[12.28078,41.73253]]},"properties":{}},{"type":"Feature","geometry":{"type":"LineString","coordinates":[[12.28081,41.7326],[12.28078,41.73253]]},"properties":{}},{"type":"Feature","geometry":{"type":"LineString","coordinates":[[12.28081,41.7326],[12.28067,41.73265]]},"properties":{}},{"type":"Feature","geometry":{"type":"LineString","coordinates":[[12.27888,41.73314],[12.28062,41.73257]]},"properties":{}},{"type":"Feature","geometry":{"type":"LineString","coordinates":[[12.28067,41.73265],[12.27915,41.73318]]},"properties":{}},{"type":"Feature","geometry":{"type":"LineString","coordinates":[[12.28119,41.73323],[12.28081,41.7326]]},"properties":{}},{"type":"Feature","geometry":{"type":"LineString","coordinates":[[12.27915,41.73318],[12.2791,41.73319]]},"properties":{}},{"type":"Feature","geometry":{"type":"LineString","coordinates":[[12.26733,41.7327],[12.26727,41.73282],[12.26776,41.73367],[12.26768,41.73369],[12.2672,41.73285],[12.26705,41.73278]]},"properties":{}},{"type":"Feature","geometry":{"type":"LineString","coordinates":[[12.26705,41.73278],[12.26431,41.73365]]},"properties":{}},{"type":"Feature","geometry":{"type":"LineString","coordinates":[[12.2791,41.73319],[12.27894,41.73324]]},"properties":{}},{"type":"Feature","geometry":{"type":"LineString","coordinates":[[12.27697,41.73378],[12.27888,41.73314]]},"properties":{}},{"type":"Feature","geometry":{"type":"LineString","coordinates":[[12.27951,41.73378],[12.28119,41.73323]]},"properties":{}},{"type":"Feature","geometry":{"type":"LineString","coordinates":[[12.27924,41.73351],[12.27929,41.73355]]},"properties":{}},{"type":"Feature","geometry":{"type":"LineString","coordinates":[[12.27894,41.73324],[12.27702,41.73388]]},"properties":{}},{"type":"Feature","geometry":{"type":"LineString","coordinates":[[12.27929,41.73355],[12.27951,41.73378]]},"properties":{}},{"type":"Feature","geometry":{"type":"LineString","coordinates":[[12.26431,41.73365],[12.2642,41.73374],[12.26403,41.73374]]},"properties":{}},{"type":"Feature","geometry":{"type":"LineString","coordinates":[[12.26403,41.73374],[12.26252,41.73424]]},"properties":{}},{"type":"Feature","geometry":{"type":"LineString","coordinates":[[12.26779,41.73379],[12.26784,41.73378],[12.26821,41.73447],[12.26814,41.7345],[12.26775,41.7338],[12.26779,41.73379]]},"properties":{}},{"type":"Feature","geometry":{"type":"LineString","coordinates":[[12.27702,41.73388],[12.27454,41.7347]]},"properties":{}},{"type":"Feature","geometry":{"type":"LineString","coordinates":[[12.26602,41.73423],[12.26612,41.73428],[12.26608,41.73436],[12.266,41.73437],[12.26594,41.73432],[12.26595,41.73426],[12.26602,41.73423]]},"properties":{}},{"type":"Feature","geometry":{"type":"LineString","coordinates":[[12.26252,41.73424],[12.2615,41.73456]]},"properties":{}},{"type":"Feature","geometry":{"type":"LineString","coordinates":[[12.28071,41.73785],[12.28415,41.73676]]},"properties":{}},{"type":"Feature","geometry":{"type":"LineString","coordinates":[[12.28419,41.73681],[12.28074,41.73792]]},"properties":{}},{"type":"Feature","geometry":{"type":"LineString","coordinates":[[12.26991,41.73748],[12.26973,41.73748],[12.26954,41.73754]]},"properties":{}},{"type":"Feature","geometry":{"type":"LineString","coordinates":[[12.28267,41.73731],[12.28243,41.73743],[12.28239,41.73754],[12.28295,41.73841]]},"properties":{}},{"type":"Feature","geometry":{"type":"LineString","coordinates":[[12.2748,41.73846],[12.26991,41.73748]]},"properties":{}},{"type":"Feature","geometry":{"type":"LineString","coordinates":[[12.27949,41.73817],[12.28007,41.73805],[12.28071,41.73785]]},"properties":{}},{"type":"Feature","geometry":{"type":"LineString","coordinates":[[12.27495,41.73804],[12.2759,41.73822]]},"properties":{}},{"type":"Feature","geometry":{"type":"LineString","coordinates":[[12.28074,41.73792],[12.28003,41.73815],[12.27959,41.73836]]},"properties":{}},{"type":"Feature","geometry":{"type":"LineString","coordinates":[[12.2759,41.73822],[12.27706,41.73845],[12.2776,41.73849],[12.27858,41.73839],[12.27949,41.73817]]},"properties":{}},{"type":"Feature","geometry":{"type":"LineString","coordinates":[[12.27597,41.73846],[12.27562,41.73843],[12.2748,41.73846]]},"properties":{}},{"type":"Feature","geometry":{"type":"LineString","coordinates":[[12.2615,41.73456],[12.26062,41.73484]]},"properties":{}},{"type":"Feature","geometry":{"type":"LineString","coordinates":[[12.26062,41.73484],[12.25767,41.73579]]},"properties":{}},{"type":"Feature","geometry":{"type":"LineString","coordinates":[[12.26441,41.73354],[12.25314,41.73714]]},"properties":{}},{"type":"Feature","geometry":{"type":"LineString","coordinates":[[12.26955,41.73627],[12.27461,41.73457]]},"properties":{}},{"type":"Feature","geometry":{"type":"LineString","coordinates":[[12.27899,41.7373],[12.27702,41.73388]]},"properties":{}},{"type":"Feature","geometry":{"type":"LineString","coordinates":[[12.27454,41.7347],[12.2696,41.73635],[12.26916,41.73649],[12.26897,41.73649]]},"properties":{}},{"type":"Feature","geometry":{"type":"LineString","coordinates":[[12.27007,41.7371],[12.27015,41.73697],[12.27006,41.73689],[12.26957,41.73611],[12.26887,41.7349],[12.26887,41.73481],[12.26865,41.73454],[12.26866,41.73449],[12.2685,41.73443],[12.26845,41.73444],[12.2684,41.73437],[12.2682,41.73444]]},"properties":{}},{"type":"Feature","geometry":{"type":"LineString","coordinates":[[12.27589,41.73425],[12.27652,41.73538],[12.27717,41.73645],[12.27787,41.73774],[12.27831,41.73843]]},"properties":{}},{"type":"Feature","geometry":{"type":"LineString","coordinates":[[12.26187,41.73702],[12.26115,41.73577]]},"properties":{}},{"type":"Feature","geometry":{"type":"LineString","coordinates":[[12.27603,41.73757],[12.27671,41.73768],[12.27704,41.7377],[12.27758,41.73769],[12.27806,41.73761],[12.2788,41.73738],[12.28112,41.73643]]},"properties":{}},{"type":"Feature","geometry":{"type":"LineString","coordinates":[[12.25767,41.73579],[12.25643,41.73619]]},"properties":{}},{"type":"Feature","geometry":{"type":"LineString","coordinates":[[12.25643,41.73619],[12.25267,41.7374]]},"properties":{}},{"type":"Feature","geometry":{"type":"LineString","coordinates":[[12.25232,41.73708],[12.25314,41.73714]]},"properties":{}},{"type":"Feature","geometry":{"type":"LineString","coordinates":[[12.25232,41.73708],[12.25215,41.7372],[12.25,41.73774]]},"properties":{}},{"type":"Feature","geometry":{"type":"LineString","coordinates":[[12.25359,41.73928],[12.25369,41.73959]]},"properties":{}},{"type":"Feature","geometry":{"type":"LineString","coordinates":[[12.2536,41.73966],[12.25357,41.73952],[12.25359,41.73928]]},"properties":{}},{"type":"Feature","geometry":{"type":"LineString","coordinates":[[12.2536,41.73966],[12.25369,41.73959]]},"properties":{}},{"type":"Feature","geometry":{"type":"LineString","coordinates":[[12.25369,41.73959],[12.25403,41.74022]]},"properties":{}},{"type":"Feature","geometry":{"type":"LineString","coordinates":[[12.25389,41.74027],[12.2536,41.73966]]},"properties":{}},{"type":"Feature","geometry":{"type":"LineString","coordinates":[[12.25389,41.74027],[12.25403,41.74022]]},"properties":{}},{"type":"Feature","geometry":{"type":"LineString","coordinates":[[12.25403,41.74022],[12.25416,41.74027]]},"properties":{}},{"type":"Feature","geometry":{"type":"LineString","coordinates":[[12.25385,41.74034],[12.25389,41.74027]]},"properties":{}},{"type":"Feature","geometry":{"type":"LineString","coordinates":[[12.25416,41.74027],[12.25419,41.74035],[12.25416,41.74042],[12.25408,41.74047],[12.25396,41.74046]]},"properties":{}},{"type":"Feature","geometry":{"type":"LineString","coordinates":[[12.25396,41.74046],[12.25387,41.74041],[12.25385,41.74034]]},"properties":{}},{"type":"Feature","geometry":{"type":"LineString","coordinates":[[12.2855,41.73623],[12.28647,41.73591]]},"properties":{}},{"type":"Feature","geometry":{"type":"LineString","coordinates":[[12.28522,41.73626],[12.28533,41.73621],[12.2855,41.73623]]},"properties":{}},{"type":"Feature","geometry":{"type":"LineString","coordinates":[[12.28659,41.73614],[12.2856,41.73647]]},"properties":{}},{"type":"Feature","geometry":{"type":"LineString","coordinates":[[12.2855,41.73623],[12.28561,41.73631],[12.28563,41.73638],[12.2856,41.73647]]},"properties":{}},{"type":"Feature","geometry":{"type":"LineString","coordinates":[[12.28541,41.73656],[12.28525,41.73653],[12.28517,41.73645],[12.28516,41.73634],[12.28522,41.73626]]},"properties":{}},{"type":"Feature","geometry":{"type":"LineString","coordinates":[[12.2856,41.73647],[12.28555,41.73652]]},"properties":{}},{"type":"Feature","geometry":{"type":"LineString","coordinates":[[12.28555,41.73652],[12.28541,41.73656]]},"properties":{}},{"type":"Feature","geometry":{"type":"LineString","coordinates":[[12.28415,41.73676],[12.28481,41.73655],[12.28516,41.73638]]},"properties":{}},{"type":"Feature","geometry":{"type":"LineString","coordinates":[[12.28527,41.73654],[12.28482,41.73662],[12.28419,41.73681]]},"properties":{}},{"type":"Feature","geometry":{"type":"LineString","coordinates":[[12.2842,41.74044],[12.28431,41.74039]]},"properties":{}},{"type":"Feature","geometry":{"type":"LineString","coordinates":[[12.27849,41.73865],[12.27835,41.73864],[12.27833,41.73848],[12.27848,41.7384]]},"properties":{}},{"type":"Feature","geometry":{"type":"LineString","coordinates":[[12.27959,41.73836],[12.27872,41.73862],[12.27828,41.73868],[12.27762,41.73871],[12.27699,41.73867]]},"properties":{}},{"type":"Feature","geometry":{"type":"LineString","coordinates":[[12.27796,41.73847],[12.27821,41.73849],[12.27823,41.73864],[12.27802,41.7387]]},"properties":{}},{"type":"Feature","geometry":{"type":"LineString","coordinates":[[12.28295,41.73841],[12.28319,41.73874],[12.2833,41.73901]]},"properties":{}},{"type":"Feature","geometry":{"type":"LineString","coordinates":[[12.25954,41.73854],[12.26166,41.73896]]},"properties":{}},{"type":"Feature","geometry":{"type":"LineString","coordinates":[[12.26161,41.73907],[12.25931,41.73862]]},"properties":{}},{"type":"Feature","geometry":{"type":"LineString","coordinates":[[12.26166,41.73896],[12.26174,41.73893],[12.26184,41.73894]]},"properties":{}},{"type":"Feature","geometry":{"type":"LineString","coordinates":[[12.26184,41.73894],[12.26194,41.73902]]},"properties":{}},{"type":"Feature","geometry":{"type":"LineString","coordinates":[[12.26161,41.73907],[12.26166,41.73896]]},"properties":{}},{"type":"Feature","geometry":{"type":"LineString","coordinates":[[12.26194,41.73902],[12.26192,41.73913]]},"properties":{}},{"type":"Feature","geometry":{"type":"LineString","coordinates":[[12.26173,41.73918],[12.26166,41.73915],[12.26161,41.73907]]},"properties":{}},{"type":"Feature","geometry":{"type":"LineString","coordinates":[[12.26192,41.73913],[12.26184,41.73918],[12.26173,41.73918]]},"properties":{}},{"type":"Feature","geometry":{"type":"LineString","coordinates":[[12.26194,41.73902],[12.26359,41.73934]]},"properties":{}},{"type":"Feature","geometry":{"type":"LineString","coordinates":[[12.26426,41.73958],[12.26192,41.73913]]},"properties":{}},{"type":"Feature","geometry":{"type":"LineString","coordinates":[[12.26359,41.73934],[12.2643,41.73948]]},"properties":{}},{"type":"Feature","geometry":{"type":"LineString","coordinates":[[12.27429,41.73967],[12.27442,41.73964]]},"properties":{}},{"type":"Feature","geometry":{"type":"LineString","coordinates":[[12.27589,41.74175],[12.27598,41.74177],[12.27647,41.7404],[12.27661,41.7403],[12.2767,41.74029],[12.27672,41.74015],[12.27653,41.7401],[12.27665,41.73983],[12.27671,41.73985],[12.27679,41.73963],[12.27674,41.73956],[12.27679,41.7395],[12.27689,41.73947],[12.27691,41.73942],[12.27688,41.73935],[12.27707,41.73882],[12.27699,41.73878],[12.27596,41.73855],[12.27477,41.73854],[12.26989,41.73758],[12.26962,41.73768],[12.2688,41.74018],[12.26876,41.74024],[12.26859,41.74032]]},"properties":{}},{"type":"Feature","geometry":{"type":"LineString","coordinates":[[12.27427,41.73977],[12.27426,41.73971],[12.27429,41.73967]]},"properties":{}},{"type":"Feature","geometry":{"type":"LineString","coordinates":[[12.27442,41.73964],[12.27451,41.7397],[12.27448,41.7398],[12.27436,41.73983],[12.27427,41.73977]]},"properties":{}},{"type":"Feature","geometry":{"type":"LineString","coordinates":[[12.2643,41.73948],[12.26798,41.7402]]},"properties":{}},{"type":"Feature","geometry":{"type":"LineString","coordinates":[[12.28407,41.74049],[12.2842,41.74044]]},"properties":{}},{"type":"Feature","geometry":{"type":"LineString","coordinates":[[12.28393,41.74055],[12.28407,41.74049]]},"properties":{}},{"type":"Feature","geometry":{"type":"LineString","coordinates":[[12.2893,41.74761],[12.28911,41.74739],[12.2882,41.74611],[12.28487,41.74159]]},"properties":{}},{"type":"Feature","geometry":{"type":"LineString","coordinates":[[12.2893,41.74761],[12.28924,41.7474],[12.28908,41.74713]]},"properties":{}},{"type":"Feature","geometry":{"type":"LineString","coordinates":[[12.28908,41.74713],[12.28956,41.7477],[12.28999,41.74812]]},"properties":{}},{"type":"Feature","geometry":{"type":"LineString","coordinates":[[12.28752,41.74866],[12.2891,41.74811],[12.28921,41.74803],[12.28931,41.74789],[12.28934,41.74772],[12.2893,41.74761]]},"properties":{}},{"type":"Feature","geometry":{"type":"LineString","coordinates":[[12.28999,41.74812],[12.29058,41.74858]]},"properties":{}},{"type":"Feature","geometry":{"type":"LineString","coordinates":[[12.28752,41.74866],[12.28774,41.74863],[12.28921,41.74818],[12.28953,41.74813],[12.28983,41.74817],[12.29003,41.74824],[12.29058,41.74858]]},"properties":{}},{"type":"Feature","geometry":{"type":"LineString","coordinates":[[12.28419,41.7489],[12.28436,41.7488],[12.28463,41.74874],[12.28575,41.74884],[12.28616,41.74884],[12.28681,41.74878],[12.28752,41.74866]]},"properties":{}},{"type":"Feature","geometry":{"type":"LineString","coordinates":[[12.28927,41.74898],[12.28905,41.74878],[12.28877,41.74866],[12.28854,41.74863],[12.28825,41.74866]]},"properties":{}},{"type":"Feature","geometry":{"type":"LineString","coordinates":[[12.34426,41.74228],[12.34437,41.74231],[12.34563,41.74158],[12.34583,41.74138],[12.34587,41.74119],[12.34625,41.74125],[12.34652,41.74124],[12.34658,41.7412],[12.3468,41.74132],[12.3469,41.74133],[12.34701,41.74131],[12.34709,41.74137],[12.34705,41.7414],[12.34706,41.74148],[12.34737,41.74191],[12.34843,41.74292],[12.34866,41.74306],[12.34911,41.74318],[12.34928,41.74326]]},"properties":{}},{"type":"Feature","geometry":{"type":"LineString","coordinates":[[12.34408,41.74245],[12.34426,41.74228]]},"properties":{}},{"type":"Feature","geometry":{"type":"LineString","coordinates":[[12.34389,41.74255],[12.34408,41.74245]]},"properties":{}},{"type":"Feature","geometry":{"type":"LineString","coordinates":[[12.34848,41.74514],[12.34902,41.74362]]},"properties":{}},{"type":"Feature","geometry":{"type":"LineString","coordinates":[[12.36224,41.74041],[12.36232,41.74056],[12.36504,41.74266],[12.36511,41.74275],[12.36579,41.74434],[12.36598,41.74495],[12.36637,41.74564],[12.36672,41.74649],[12.36683,41.74661],[12.36905,41.7483],[12.36917,41.74845]]},"properties":{}},{"type":"Feature","geometry":{"type":"LineString","coordinates":[[12.35632,41.74447],[12.35654,41.74449]]},"properties":{}},{"type":"Feature","geometry":{"type":"LineString","coordinates":[[12.34858,41.74717],[12.34639,41.74761],[12.34581,41.74764],[12.34496,41.74751],[12.34429,41.74726],[12.34401,41.7471],[12.34377,41.74692],[12.34357,41.74662],[12.34328,41.74594],[12.34278,41.74545],[12.34255,41.74532],[12.34167,41.74494],[12.34081,41.74452],[12.34089,41.74441],[12.34092,41.74426],[12.34089,41.74405],[12.34092,41.7439],[12.34089,41.74386],[12.34094,41.74384],[12.34087,41.74375],[12.34225,41.74314],[12.34385,41.74257],[12.34393,41.7425],[12.34393,41.74243],[12.34389,41.74236],[12.34375,41.74225],[12.34379,41.74222]]},"properties":{}},{"type":"Feature","geometry":{"type":"LineString","coordinates":[[12.35936,41.74692],[12.35911,41.7469]]},"properties":{}},{"type":"Feature","geometry":{"type":"LineString","coordinates":[[12.34879,41.74713],[12.34858,41.74717]]},"properties":{}},{"type":"Feature","geometry":{"type":"LineString","coordinates":[[12.35797,41.74559],[12.36376,41.75]]},"properties":{}},{"type":"Feature","geometry":{"type":"LineString","coordinates":[[12.29082,41.74884],[12.29001,41.74832],[12.28978,41.74825],[12.28945,41.74823],[12.28839,41.74851],[12.28545,41.74954]]},"properties":{}},{"type":"Feature","geometry":{"type":"LineString","coordinates":[[12.28825,41.74866],[12.28599,41.74942]]},"properties":{}},{"type":"Feature","geometry":{"type":"LineString","coordinates":[[12.28345,41.74969],[12.28407,41.74899],[12.28419,41.7489]]},"properties":{}},{"type":"Feature","geometry":{"type":"LineString","coordinates":[[12.28545,41.74954],[12.28483,41.74972],[12.28458,41.74971],[12.28431,41.74962],[12.28416,41.74951],[12.28406,41.74931],[12.28409,41.74908],[12.28419,41.7489]]},"properties":{}},{"type":"Feature","geometry":{"type":"LineString","coordinates":[[12.28599,41.74942],[12.28545,41.74954]]},"properties":{}},{"type":"Feature","geometry":{"type":"LineString","coordinates":[[12.28599,41.74942],[12.28432,41.75]]},"properties":{}},{"type":"Feature","geometry":{"type":"LineString","coordinates":[[12.28345,41.74969],[12.28372,41.74954],[12.28388,41.74953],[12.28402,41.74958],[12.28413,41.74966],[12.28418,41.74978],[12.28416,41.7499],[12.28407,41.75]]},"properties":{}},{"type":"Feature","geometry":{"type":"LineString","coordinates":[[12.28911,41.75],[12.28935,41.7494],[12.28936,41.74923],[12.28927,41.74898]]},"properties":{}},{"type":"Feature","geometry":{"type":"LineString","coordinates":[[12.31214,41.73386],[12.31173,41.73414],[12.31157,41.73434],[12.31141,41.73465],[12.31137,41.73494],[12.31143,41.73523],[12.31185,41.73601]]},"properties":{}},{"type":"Feature","geometry":{"type":"LineString","coordinates":[[12.31185,41.73601],[12.31253,41.73717],[12.31263,41.73725],[12.31277,41.73757],[12.31311,41.73808],[12.31365,41.73905],[12.31375,41.73916],[12.31387,41.73947],[12.31374,41.74157],[12.31365,41.74205],[12.31325,41.74294]]},"properties":{}},{"type":"Feature","geometry":{"type":"LineString","coordinates":[[12.31325,41.74294],[12.31264,41.74412],[12.31113,41.74723]]},"properties":{}},{"type":"Feature","geometry":{"type":"LineString","coordinates":[[12.31113,41.74723],[12.30974,41.75]]},"properties":{}}]}