{"type":"FeatureCollection","features":[{"type":"Feature","geometry":{"type":"LineString","coordinates":[[12.25782,43.37722],[12.25798,43.37729],[12.258,43.37742],[12.25789,43.3775],[12.2577,43.37749],[12.25762,43.37742],[12.25762,43.37732],[12.2577,43.37725],[12.25782,43.37722]]},"properties":{}},{"type":"Feature","geometry":{"type":"LineString","coordinates":[[12.2541,43.46465],[12.25329,43.46553],[12.25261,43.46522]]},"properties":{}},{"type":"Feature","geometry":{"type":"LineString","coordinates":[[12.25331,43.4706],[12.25039,43.47052],[12.25,43.47054]]},"properties":{}},{"type":"Feature","geometry":{"type":"LineString","coordinates":[[12.25,43.46661],[12.2506,43.46613]]},"properties":{}},{"type":"Feature","geometry":{"type":"LineString","coordinates":[[12.25605,43.46963],[12.25606,43.46969],[12.25619,43.46982],[12.25619,43.47002],[12.25564,43.47079],[12.25523,43.47092],[12.25473,43.47081],[12.25455,43.47082]]},"properties":{}},{"type":"Feature","geometry":{"type":"LineString","coordinates":[[12.25455,43.47082],[12.25331,43.4706]]},"properties":{}},{"type":"Feature","geometry":{"type":"LineString","coordinates":[[12.2553,43.47361],[12.25531,43.47367],[12.25557,43.47378],[12.25561,43.47383],[12.2557,43.4741],[12.25575,43.4744],[12.25564,43.47478],[12.25517,43.47583]]},"properties":{}},{"type":"Feature","geometry":{"type":"LineString","coordinates":[[12.29772,43.32357],[12.29788,43.32354]]},"properties":{}},{"type":"Feature","geometry":{"type":"LineString","coordinates":[[12.29788,43.32354],[12.29801,43.32359]]},"properties":{}},{"type":"Feature","geometry":{"type":"LineString","coordinates":[[12.2979,43.32364],[12.2978,43.32362],[12.29772,43.32357]]},"properties":{}},{"type":"Feature","geometry":{"type":"LineString","coordinates":[[12.29801,43.32359],[12.2979,43.32364]]},"properties":{}},{"type":"Feature","geometry":{"type":"LineString","coordinates":[[12.32788,43.30739],[12.3286,43.30815],[12.32932,43.30855],[12.32976,43.309]]},"properties":{}},{"type":"Feature","geometry":{"type":"LineString","coordinates":[[12.2979,43.32364],[12.2978,43.32369],[12.29773,43.32381]]},"properties":{}}]}