{"type":"FeatureCollection","features":[{"type":"Feature","geometry":{"type":"LineString","coordinates":[[12.46411,44.84401],[12.46227,44.84387],[12.4605,44.84368]]},"properties":{}},{"type":"Feature","geometry":{"type":"LineString","coordinates":[[12.4605,44.84368],[12.45193,44.84284],[12.45123,44.84278],[12.45097,44.8428],[12.4469,44.84412],[12.4334,44.85178],[12.43319,44.85196],[12.43314,44.85204],[12.43312,44.85215],[12.43313,44.85225],[12.434,44.85484],[12.43733,44.85932],[12.44051,44.86195],[12.44382,44.86391],[12.44394,44.86414],[12.44392,44.86423],[12.44384,44.86437],[12.44113,44.86605],[12.44102,44.86616],[12.44096,44.86631],[12.44067,44.87652],[12.44007,44.88056],[12.44004,44.88107],[12.44075,44.88535],[12.44103,44.88777],[12.4418,44.88987],[12.44188,44.89422],[12.44185,44.89438],[12.4418,44.89448],[12.4405,44.89558],[12.44026,44.89569],[12.42504,44.90058],[12.42469,44.90063],[12.42396,44.90045],[12.42031,44.89877],[12.41873,44.89786],[12.41611,44.89684],[12.41297,44.89571],[12.40976,44.89439],[12.40947,44.89441],[12.40835,44.89474],[12.40801,44.89475],[12.40476,44.89454],[12.40461,44.89448],[12.40432,44.89426],[12.40093,44.89131],[12.40016,44.89073],[12.40007,44.89061],[12.39968,44.88983],[12.39964,44.88966],[12.39974,44.88949],[12.40159,44.88784],[12.40282,44.8868],[12.40316,44.88656],[12.40405,44.88601],[12.40428,44.88583],[12.40438,44.88567],[12.40443,44.88547],[12.40438,44.88536],[12.40425,44.88521],[12.40347,44.88486],[12.40213,44.88417],[12.40172,44.88401],[12.40126,44.88389],[12.40086,44.88373],[12.39997,44.8831],[12.39962,44.88279],[12.39942,44.88248],[12.39913,44.88185],[12.39862,44.88158],[12.398,44.88136]]},"properties":{}},{"type":"Feature","geometry":{"type":"LineString","coordinates":[[12.39288,44.87893],[12.39362,44.87959],[12.39385,44.87972],[12.39632,44.8808],[12.39709,44.88108],[12.398,44.88136]]},"properties":{}},{"type":"Feature","geometry":{"type":"LineString","coordinates":[[12.38716,44.92159],[12.38811,44.91967],[12.38848,44.91905],[12.38895,44.91842],[12.3906,44.91687],[12.39094,44.91649],[12.39188,44.91531],[12.39222,44.91473],[12.39284,44.91383],[12.39294,44.91357],[12.39304,44.91303],[12.39306,44.91277],[12.39301,44.91241],[12.39288,44.91192],[12.39268,44.91135],[12.39265,44.91112],[12.39268,44.91094],[12.3928,44.91073],[12.39331,44.91004],[12.3944,44.90844],[12.39544,44.90682],[12.39556,44.90652],[12.39581,44.90562],[12.39589,44.90528],[12.39589,44.90506],[12.39601,44.90486]]},"properties":{}},{"type":"Feature","geometry":{"type":"LineString","coordinates":[[12.43159,44.93665],[12.4315,44.93582],[12.43146,44.9335],[12.43135,44.9329],[12.43112,44.93219]]},"properties":{}},{"type":"Feature","geometry":{"type":"LineString","coordinates":[[12.43166,44.9373],[12.43159,44.93665]]},"properties":{}},{"type":"Feature","geometry":{"type":"LineString","coordinates":[[12.43169,44.93764],[12.43166,44.9373]]},"properties":{}},{"type":"Feature","geometry":{"type":"LineString","coordinates":[[12.43173,44.93799],[12.43169,44.93764]]},"properties":{}},{"type":"Feature","geometry":{"type":"LineString","coordinates":[[12.41889,44.9531],[12.41942,44.95281],[12.41977,44.95255],[12.42145,44.95107],[12.42247,44.95025],[12.42391,44.9493],[12.43039,44.94491],[12.43093,44.94451],[12.43129,44.94415],[12.43203,44.94277],[12.43215,44.94234],[12.43216,44.94206],[12.43204,44.94107],[12.43195,44.94065],[12.43187,44.93991],[12.43183,44.93879],[12.43173,44.93799]]},"properties":{}},{"type":"Feature","geometry":{"type":"LineString","coordinates":[[12.41517,44.95373],[12.41811,44.9533],[12.41866,44.95319],[12.41889,44.9531]]},"properties":{}},{"type":"Feature","geometry":{"type":"LineString","coordinates":[[12.48145,44.96529],[12.48126,44.96521],[12.47936,44.9652]]},"properties":{}},{"type":"Feature","geometry":{"type":"LineString","coordinates":[[12.49377,44.97163],[12.49378,44.97152],[12.49376,44.97141],[12.49343,44.97037],[12.49335,44.9702],[12.49273,44.96962],[12.49167,44.9688],[12.49154,44.96863],[12.49133,44.9681],[12.49112,44.96778],[12.48975,44.96672],[12.48959,44.96664],[12.48675,44.96582],[12.48546,44.96544],[12.48489,44.96533],[12.48433,44.96525],[12.48354,44.96519],[12.48181,44.96516]]},"properties":{}},{"type":"Feature","geometry":{"type":"LineString","coordinates":[[12.48145,44.96529],[12.48151,44.96536],[12.48151,44.96548],[12.48011,44.96844],[12.47937,44.97011],[12.47939,44.97022],[12.47948,44.97033],[12.481,44.9708],[12.48118,44.97089],[12.48122,44.97101],[12.48122,44.9711],[12.48105,44.97222]]},"properties":{}},{"type":"Feature","geometry":{"type":"LineString","coordinates":[[12.48105,44.97222],[12.48076,44.97397],[12.48061,44.97441],[12.48039,44.97478],[12.47846,44.97757],[12.47841,44.97769],[12.47838,44.97802],[12.4784,44.9781],[12.47865,44.97835]]},"properties":{}},{"type":"Feature","geometry":{"type":"LineString","coordinates":[[12.34286,44.83536],[12.34318,44.83481],[12.34394,44.83317],[12.34466,44.83018],[12.34535,44.82874],[12.34592,44.82771],[12.34642,44.82662],[12.34665,44.82641],[12.34729,44.82596],[12.34768,44.82562],[12.34919,44.8233],[12.34946,44.82279],[12.35088,44.81935],[12.35088,44.81928],[12.35084,44.81926]]},"properties":{}},{"type":"Feature","geometry":{"type":"LineString","coordinates":[[12.38639,44.8676],[12.38589,44.86761],[12.38347,44.86784],[12.3833,44.86784],[12.38316,44.8678],[12.38259,44.86749],[12.38119,44.86628],[12.3807,44.86572],[12.38061,44.86567],[12.38051,44.86567],[12.37927,44.8658],[12.3772,44.86594],[12.36475,44.86715]]},"properties":{}},{"type":"Feature","geometry":{"type":"LineString","coordinates":[[12.36475,44.86715],[12.3631,44.8673],[12.36232,44.86717],[12.361,44.86685]]},"properties":{}},{"type":"Feature","geometry":{"type":"LineString","coordinates":[[12.38656,44.8676],[12.38628,44.86903],[12.38629,44.86918],[12.38643,44.86935],[12.38701,44.8699]]},"properties":{}},{"type":"Feature","geometry":{"type":"LineString","coordinates":[[12.36625,44.87384],[12.36635,44.87381],[12.36639,44.87376],[12.36636,44.87358],[12.366,44.87315],[12.36571,44.87189],[12.36475,44.86715]]},"properties":{}},{"type":"Feature","geometry":{"type":"LineString","coordinates":[[12.38701,44.8699],[12.38762,44.87049],[12.38838,44.8711],[12.38861,44.87126],[12.38874,44.87132],[12.38887,44.87132],[12.38982,44.87126],[12.39004,44.87133],[12.39039,44.87152],[12.39066,44.87176],[12.39283,44.87399],[12.39284,44.87416],[12.39278,44.87429],[12.39047,44.87632],[12.38979,44.87697],[12.3897,44.87711],[12.38968,44.87726],[12.38971,44.87734],[12.38982,44.87745],[12.3907,44.8782],[12.39081,44.87825],[12.39234,44.87862],[12.39252,44.87868],[12.39288,44.87893]]},"properties":{}},{"type":"Feature","geometry":{"type":"LineString","coordinates":[[12.39288,44.87893],[12.39274,44.87909],[12.39038,44.88276],[12.38877,44.8852],[12.3862,44.88923]]},"properties":{}},{"type":"Feature","geometry":{"type":"LineString","coordinates":[[12.38613,44.88934],[12.38444,44.89189],[12.37982,44.89906]]},"properties":{}},{"type":"Feature","geometry":{"type":"LineString","coordinates":[[12.38604,44.92407],[12.38618,44.92377]]},"properties":{}},{"type":"Feature","geometry":{"type":"LineString","coordinates":[[12.37326,44.93197],[12.37408,44.93149],[12.37523,44.93106],[12.37605,44.93081],[12.37649,44.93072],[12.37922,44.93031],[12.38238,44.92978],[12.38272,44.92969],[12.38312,44.9295],[12.38348,44.92915],[12.3837,44.9289],[12.38455,44.92785],[12.38488,44.92735],[12.38521,44.92659],[12.38604,44.92407]]},"properties":{}},{"type":"Feature","geometry":{"type":"LineString","coordinates":[[12.4505,44.90222],[12.45112,44.90177],[12.45202,44.90091],[12.45207,44.90094]]},"properties":{}},{"type":"Feature","geometry":{"type":"LineString","coordinates":[[12.44962,44.90293],[12.4505,44.90222]]},"properties":{}},{"type":"Feature","geometry":{"type":"LineString","coordinates":[[12.44873,44.90394],[12.449,44.90354],[12.44962,44.90293]]},"properties":{}},{"type":"Feature","geometry":{"type":"LineString","coordinates":[[12.44798,44.9053],[12.44842,44.90444],[12.44873,44.90394]]},"properties":{}},{"type":"Feature","geometry":{"type":"LineString","coordinates":[[12.44731,44.90674],[12.44736,44.90675]]},"properties":{}},{"type":"Feature","geometry":{"type":"LineString","coordinates":[[12.44634,44.9082],[12.44642,44.9081],[12.44668,44.90744],[12.44729,44.90677],[12.44753,44.90601],[12.44798,44.9053]]},"properties":{}},{"type":"Feature","geometry":{"type":"LineString","coordinates":[[12.44631,44.90828],[12.44634,44.9082]]},"properties":{}},{"type":"Feature","geometry":{"type":"LineString","coordinates":[[12.44598,44.90931],[12.44592,44.9093],[12.4463,44.90839],[12.44631,44.90828]]},"properties":{}},{"type":"Feature","geometry":{"type":"LineString","coordinates":[[12.43112,44.93219],[12.43088,44.9313],[12.43044,44.92836],[12.43031,44.92687],[12.43032,44.92618],[12.43043,44.92576],[12.43073,44.92492],[12.43263,44.92],[12.43375,44.91718],[12.43425,44.9161],[12.43462,44.91577],[12.43716,44.91405],[12.44154,44.91148],[12.44363,44.91035],[12.44405,44.91015],[12.44547,44.90968],[12.44573,44.90955]]},"properties":{}},{"type":"Feature","geometry":{"type":"LineString","coordinates":[[12.47936,44.9652],[12.47777,44.9652],[12.47615,44.96501],[12.47297,44.96469],[12.46874,44.96452],[12.46631,44.96391],[12.46571,44.96384],[12.46102,44.96371],[12.46046,44.96361],[12.45639,44.96255],[12.45588,44.96246],[12.45563,44.96245],[12.4552,44.96249],[12.45447,44.96274],[12.45398,44.96283],[12.45321,44.96271],[12.45231,44.96249],[12.45148,44.96225],[12.451,44.96204],[12.44906,44.96077],[12.44864,44.96045],[12.44851,44.96025],[12.44845,44.95996],[12.44849,44.95919],[12.44845,44.9589],[12.44828,44.95861],[12.44796,44.95835],[12.44517,44.95692],[12.44486,44.95679],[12.44353,44.95636],[12.44245,44.95612],[12.44195,44.95605],[12.44096,44.95596],[12.44012,44.95593],[12.43928,44.95596],[12.43795,44.95607],[12.42598,44.95716],[12.42389,44.95757],[12.42349,44.95771]]},"properties":{}},{"type":"Feature","geometry":{"type":"LineString","coordinates":[[12.37326,44.93197],[12.37332,44.93202],[12.3716,44.9331],[12.36685,44.9358],[12.36628,44.93623],[12.36481,44.93794],[12.36481,44.93809],[12.36391,44.93915],[12.36369,44.93927],[12.36244,44.94076],[12.36184,44.94152],[12.36133,44.94222],[12.36108,44.94264],[12.36093,44.9431],[12.36088,44.94345],[12.36103,44.94717],[12.36138,44.94882],[12.36139,44.94903],[12.36135,44.94924],[12.3613,44.94945],[12.36116,44.94978],[12.36077,44.95044],[12.35937,44.95216]]},"properties":{}},{"type":"Feature","geometry":{"type":"LineString","coordinates":[[12.35937,44.95216],[12.3589,44.95274],[12.35889,44.95285],[12.35892,44.95289],[12.35897,44.95292],[12.35928,44.95295],[12.36008,44.95295],[12.36033,44.95299],[12.36068,44.95313]]},"properties":{}},{"type":"Feature","geometry":{"type":"LineString","coordinates":[[12.35896,44.95267],[12.35888,44.95264]]},"properties":{}},{"type":"Feature","geometry":{"type":"LineString","coordinates":[[12.33935,44.95224],[12.3535,44.95403],[12.35418,44.95409],[12.35523,44.95413]]},"properties":{}},{"type":"Feature","geometry":{"type":"LineString","coordinates":[[12.35776,44.95408],[12.358,44.95408]]},"properties":{}},{"type":"Feature","geometry":{"type":"LineString","coordinates":[[12.35674,44.95411],[12.35776,44.95408]]},"properties":{}},{"type":"Feature","geometry":{"type":"LineString","coordinates":[[12.35674,44.95411],[12.35568,44.95415]]},"properties":{}},{"type":"Feature","geometry":{"type":"LineString","coordinates":[[12.35568,44.95415],[12.35523,44.95413]]},"properties":{}},{"type":"Feature","geometry":{"type":"LineString","coordinates":[[12.358,44.95408],[12.40409,44.9552],[12.40464,44.9552],[12.40528,44.95514],[12.40889,44.95462]]},"properties":{}},{"type":"Feature","geometry":{"type":"LineString","coordinates":[[12.36068,44.95313],[12.36097,44.95337],[12.36113,44.95368],[12.36191,44.96236]]},"properties":{}},{"type":"Feature","geometry":{"type":"LineString","coordinates":[[12.40915,44.95458],[12.41517,44.95373]]},"properties":{}},{"type":"Feature","geometry":{"type":"LineString","coordinates":[[12.40889,44.95462],[12.40915,44.95458]]},"properties":{}},{"type":"Feature","geometry":{"type":"LineString","coordinates":[[12.42504,44.99845],[12.42511,44.99865],[12.42507,44.99878],[12.42376,45.0]]},"properties":{}},{"type":"Feature","geometry":{"type":"LineString","coordinates":[[12.35636,44.81227],[12.3565,44.81217],[12.35688,44.81203],[12.35927,44.81168],[12.35991,44.8115],[12.36029,44.81136],[12.36276,44.81003],[12.36504,44.8087],[12.36859,44.80646],[12.37051,44.80495],[12.37096,44.80456],[12.37122,44.80441],[12.37135,44.80426],[12.37321,44.80277],[12.3735,44.80258],[12.37398,44.80213],[12.37419,44.802],[12.37667,44.79997],[12.37678,44.79977]]},"properties":{}},{"type":"Feature","geometry":{"type":"LineString","coordinates":[[12.35629,44.81234],[12.35636,44.81227]]},"properties":{}},{"type":"Feature","geometry":{"type":"LineString","coordinates":[[12.35136,44.81757],[12.35137,44.81731],[12.35171,44.81685],[12.35283,44.81555],[12.35428,44.81416],[12.35629,44.81234]]},"properties":{}},{"type":"Feature","geometry":{"type":"LineString","coordinates":[[12.35136,44.81765],[12.35136,44.81757]]},"properties":{}},{"type":"Feature","geometry":{"type":"LineString","coordinates":[[12.35119,44.81768],[12.35136,44.81768],[12.35136,44.81765]]},"properties":{}},{"type":"Feature","geometry":{"type":"LineString","coordinates":[[12.31167,44.85386],[12.31245,44.85376],[12.3133,44.85371],[12.31609,44.85361],[12.31712,44.85376],[12.31772,44.85379],[12.3193,44.85356],[12.32616,44.85218],[12.3271,44.85193],[12.32902,44.85133],[12.33045,44.85071],[12.33122,44.85066],[12.33152,44.85061],[12.33208,44.85031],[12.33357,44.84934],[12.33834,44.84605],[12.33885,44.84558],[12.33931,44.84488],[12.34002,44.84305],[12.34044,44.84181],[12.34134,44.83853],[12.34208,44.83616]]},"properties":{}},{"type":"Feature","geometry":{"type":"LineString","coordinates":[[12.3335,44.94377],[12.33458,44.93918],[12.33461,44.93877],[12.33456,44.9384],[12.33444,44.93797],[12.33369,44.93409],[12.3336,44.93394],[12.33327,44.93359],[12.33271,44.93308],[12.33113,44.93178],[12.3295,44.93003]]},"properties":{}},{"type":"Feature","geometry":{"type":"LineString","coordinates":[[12.29105,44.85968],[12.29053,44.86045],[12.28886,44.8626],[12.28888,44.86261]]},"properties":{}},{"type":"Feature","geometry":{"type":"LineString","coordinates":[[12.28896,44.86263],[12.28888,44.86261]]},"properties":{}},{"type":"Feature","geometry":{"type":"LineString","coordinates":[[12.28949,44.86332],[12.28975,44.86285],[12.28896,44.86263]]},"properties":{}},{"type":"Feature","geometry":{"type":"LineString","coordinates":[[12.29413,44.94891],[12.29355,44.94873],[12.29264,44.94855]]},"properties":{}},{"type":"Feature","geometry":{"type":"LineString","coordinates":[[12.26624,44.80323],[12.26625,44.80318],[12.26653,44.80303],[12.26902,44.79974]]},"properties":{}},{"type":"Feature","geometry":{"type":"LineString","coordinates":[[12.2723,44.8295],[12.26556,44.82524],[12.26553,44.82526],[12.26566,44.82541],[12.26563,44.82542],[12.26516,44.82512],[12.26506,44.82501],[12.26457,44.82408],[12.26374,44.8227],[12.26278,44.82127],[12.26188,44.82035],[12.2609,44.81836],[12.2604,44.81744],[12.25954,44.8163],[12.25934,44.81612],[12.25905,44.81608],[12.25855,44.81608],[12.25823,44.81614]]},"properties":{}},{"type":"Feature","geometry":{"type":"LineString","coordinates":[[12.25393,44.86665],[12.25439,44.86669],[12.25589,44.86696],[12.26904,44.86934],[12.26911,44.8694]]},"properties":{}},{"type":"Feature","geometry":{"type":"LineString","coordinates":[[12.25299,44.80502],[12.25301,44.80497],[12.25456,44.80488],[12.25528,44.80488],[12.25635,44.80495],[12.25772,44.80487],[12.25832,44.80473],[12.25886,44.8045],[12.25891,44.80453]]},"properties":{}},{"type":"Feature","geometry":{"type":"LineString","coordinates":[[12.25323,44.86671],[12.25393,44.86665]]},"properties":{}},{"type":"Feature","geometry":{"type":"LineString","coordinates":[[12.25213,44.86713],[12.25254,44.86692],[12.25323,44.86671]]},"properties":{}},{"type":"Feature","geometry":{"type":"LineString","coordinates":[[12.25,44.86838],[12.25213,44.86713]]},"properties":{}},{"type":"Feature","geometry":{"type":"LineString","coordinates":[[12.33454,44.94426],[12.33371,44.94415],[12.33364,44.94412],[12.33356,44.94401],[12.3335,44.94377],[12.33347,44.94391]]},"properties":{}},{"type":"Feature","geometry":{"type":"LineString","coordinates":[[12.33376,44.9442],[12.33358,44.94412],[12.33348,44.94398],[12.33347,44.94391]]},"properties":{}},{"type":"Feature","geometry":{"type":"LineString","coordinates":[[12.33375,44.94422],[12.33376,44.9442],[12.33431,44.94427]]},"properties":{}},{"type":"Feature","geometry":{"type":"LineString","coordinates":[[12.33371,44.94438],[12.33375,44.94422]]},"properties":{}},{"type":"Feature","geometry":{"type":"LineString","coordinates":[[12.33533,44.94435],[12.33454,44.94426],[12.33431,44.94427]]},"properties":{}},{"type":"Feature","geometry":{"type":"LineString","coordinates":[[12.33326,44.94467],[12.33332,44.94456],[12.33338,44.94451],[12.33365,44.94449],[12.33371,44.94438]]},"properties":{}},{"type":"Feature","geometry":{"type":"LineString","coordinates":[[12.33326,44.94467],[12.33168,44.95124],[12.33171,44.95128],[12.33181,44.9513],[12.33179,44.95138]]},"properties":{}},{"type":"Feature","geometry":{"type":"LineString","coordinates":[[12.32894,44.95088],[12.32847,44.95087],[12.31125,44.94872],[12.31078,44.94867],[12.31077,44.94873]]},"properties":{}},{"type":"Feature","geometry":{"type":"LineString","coordinates":[[12.33323,44.95162],[12.33317,44.95162],[12.33314,44.95156],[12.33304,44.95154],[12.33103,44.95129],[12.33105,44.95119],[12.32893,44.95092],[12.32929,44.94951]]},"properties":{}},{"type":"Feature","geometry":{"type":"LineString","coordinates":[[12.33162,44.95133],[12.33324,44.95152]]},"properties":{}},{"type":"Feature","geometry":{"type":"LineString","coordinates":[[12.36191,44.96236],[12.36276,44.97143],[12.36268,44.97143]]},"properties":{}},{"type":"Feature","geometry":{"type":"LineString","coordinates":[[12.33324,44.95152],[12.33543,44.95181]]},"properties":{}},{"type":"Feature","geometry":{"type":"LineString","coordinates":[[12.33543,44.95181],[12.33675,44.95193]]},"properties":{}},{"type":"Feature","geometry":{"type":"LineString","coordinates":[[12.33675,44.95193],[12.33787,44.95206]]},"properties":{}},{"type":"Feature","geometry":{"type":"LineString","coordinates":[[12.32603,44.96119],[12.32618,44.96131],[12.32659,44.96153]]},"properties":{}}]}