{"type":"FeatureCollection","features":[{"type":"Feature","geometry":{"type":"LineString","coordinates":[[12.58075,42.05631],[12.58304,42.05804],[12.58323,42.05814],[12.58491,42.05943]]},"properties":{}},{"type":"Feature","geometry":{"type":"LineString","coordinates":[[12.6322,42.04264],[12.63197,42.04257]]},"properties":{}},{"type":"Feature","geometry":{"type":"LineString","coordinates":[[12.63239,42.04273],[12.6322,42.04264]]},"properties":{}},{"type":"Feature","geometry":{"type":"LineString","coordinates":[[12.63467,42.04062],[12.63336,42.04142],[12.63229,42.04229],[12.6323,42.04242],[12.63237,42.04253],[12.63244,42.04258],[12.63227,42.04274],[12.63215,42.04271],[12.63203,42.04274],[12.63199,42.04319],[12.6319,42.04335],[12.63173,42.04353],[12.63044,42.04431],[12.62983,42.04475],[12.62854,42.04534],[12.62817,42.04569],[12.6276,42.04608],[12.62712,42.04655],[12.62699,42.04678],[12.62671,42.04704],[12.6266,42.04721],[12.62658,42.04734],[12.62659,42.04749],[12.62671,42.04785],[12.62645,42.04793]]},"properties":{}},{"type":"Feature","geometry":{"type":"LineString","coordinates":[[12.62555,42.04893],[12.62562,42.0487],[12.6255,42.04841],[12.62551,42.04808],[12.6258,42.0478],[12.62595,42.04773],[12.62612,42.04769],[12.6263,42.04774],[12.62642,42.04787],[12.62666,42.04841],[12.62693,42.04913],[12.62688,42.04921],[12.62647,42.04932],[12.62645,42.0494],[12.6266,42.04978],[12.62669,42.04984],[12.62705,42.04977],[12.62717,42.0498],[12.62744,42.05047],[12.62765,42.05091],[12.62809,42.05146],[12.62849,42.05179],[12.62897,42.05209],[12.63053,42.05297],[12.63094,42.05315],[12.63169,42.05342],[12.63344,42.05391],[12.63383,42.05407],[12.63419,42.05425],[12.6347,42.05463],[12.63513,42.05518],[12.63525,42.05546],[12.63516,42.05566],[12.63518,42.0557]]},"properties":{}},{"type":"Feature","geometry":{"type":"LineString","coordinates":[[12.61536,42.0538],[12.61521,42.05328]]},"properties":{}},{"type":"Feature","geometry":{"type":"LineString","coordinates":[[12.63518,42.0557],[12.63534,42.05581]]},"properties":{}},{"type":"Feature","geometry":{"type":"LineString","coordinates":[[12.62568,42.05757],[12.62597,42.05569]]},"properties":{}},{"type":"Feature","geometry":{"type":"LineString","coordinates":[[12.58921,42.1225],[12.58926,42.12255],[12.58896,42.12269],[12.58852,42.12287],[12.5879,42.12301],[12.58569,42.1232],[12.58497,42.12332],[12.58367,42.12367],[12.58269,42.12389],[12.57942,42.12403],[12.57838,42.12422],[12.57781,42.12438],[12.57658,42.12483],[12.57622,42.12501],[12.57591,42.12528],[12.5758,42.12542],[12.57568,42.12559],[12.57557,42.12585],[12.57592,42.12669],[12.57587,42.1267],[12.57727,42.12977],[12.57738,42.13011],[12.57735,42.13018],[12.57715,42.13027],[12.57573,42.13052],[12.57421,42.13064],[12.57298,42.13059],[12.57276,42.13055],[12.57219,42.13037],[12.57047,42.12958],[12.56916,42.12922],[12.5686,42.12912]]},"properties":{}},{"type":"Feature","geometry":{"type":"LineString","coordinates":[[12.57584,42.15503],[12.57559,42.1546],[12.57436,42.15397]]},"properties":{}},{"type":"Feature","geometry":{"type":"LineString","coordinates":[[12.58114,42.15749],[12.57976,42.15776],[12.57957,42.15771],[12.57935,42.15742],[12.5796,42.15715],[12.57878,42.15666],[12.57803,42.15608],[12.57733,42.1558],[12.57712,42.1556],[12.57584,42.15503]]},"properties":{}},{"type":"Feature","geometry":{"type":"LineString","coordinates":[[12.65265,42.15189],[12.65246,42.15218],[12.65242,42.15218],[12.65175,42.15193],[12.65144,42.15186],[12.65117,42.15187],[12.65101,42.15194],[12.65062,42.1522],[12.65032,42.15231],[12.64942,42.15248],[12.64877,42.15257],[12.64857,42.15266]]},"properties":{}},{"type":"Feature","geometry":{"type":"LineString","coordinates":[[12.64857,42.15266],[12.64848,42.15277],[12.64839,42.15282],[12.64835,42.15281],[12.64842,42.15271],[12.64837,42.15268],[12.64837,42.15263],[12.64844,42.1526],[12.64848,42.15261],[12.6485,42.15266],[12.64857,42.15266]]},"properties":{}},{"type":"Feature","geometry":{"type":"LineString","coordinates":[[12.65668,42.1649],[12.65602,42.16411],[12.6556,42.16356]]},"properties":{}},{"type":"Feature","geometry":{"type":"LineString","coordinates":[[12.65842,42.16847],[12.65834,42.16781],[12.65828,42.16757],[12.65793,42.16666],[12.65778,42.1664],[12.65778,42.16634],[12.65768,42.16625],[12.65723,42.16566],[12.65693,42.16511],[12.65679,42.16493],[12.65604,42.16407],[12.65577,42.16373],[12.65573,42.16363],[12.65574,42.16326],[12.6558,42.16316],[12.65591,42.16308],[12.65586,42.16304]]},"properties":{}},{"type":"Feature","geometry":{"type":"LineString","coordinates":[[12.65837,42.16974],[12.65832,42.1682],[12.65825,42.16777],[12.65813,42.16734],[12.65774,42.16649],[12.65703,42.16549],[12.6569,42.16523]]},"properties":{}},{"type":"Feature","geometry":{"type":"LineString","coordinates":[[12.65846,42.16972],[12.65841,42.1694],[12.65842,42.16847]]},"properties":{}},{"type":"Feature","geometry":{"type":"LineString","coordinates":[[12.65941,42.1567],[12.66093,42.15943],[12.66113,42.15971],[12.6613,42.15987],[12.66322,42.16126],[12.66429,42.16184],[12.66626,42.16273],[12.66647,42.16287],[12.6668,42.1632],[12.6671,42.16361],[12.66903,42.16713],[12.66926,42.16745],[12.66963,42.16766],[12.67073,42.16797],[12.6728,42.16879],[12.67403,42.16903],[12.67423,42.16909],[12.67439,42.16919],[12.67511,42.16991],[12.67641,42.17105],[12.67676,42.17124],[12.6769,42.17135],[12.67699,42.17157],[12.67701,42.17186],[12.6771,42.17202],[12.67741,42.17225],[12.6782,42.17271],[12.67829,42.1729],[12.67835,42.17338],[12.6784,42.17353],[12.67883,42.17408],[12.67915,42.17439],[12.67949,42.17465],[12.68005,42.17498],[12.68028,42.17506],[12.68108,42.17521],[12.68148,42.17537],[12.6817,42.1755],[12.6828,42.17633],[12.68309,42.17667],[12.68384,42.17803],[12.68609,42.18157],[12.68664,42.18234]]},"properties":{}},{"type":"Feature","geometry":{"type":"LineString","coordinates":[[12.69434,42.18281],[12.69578,42.18231],[12.69607,42.18224],[12.69667,42.18217],[12.69702,42.18206],[12.69726,42.18197],[12.69778,42.18169],[12.69824,42.18138],[12.69842,42.1813],[12.70032,42.18075],[12.70051,42.18063],[12.70086,42.18021],[12.70127,42.17994],[12.70156,42.17981],[12.70274,42.17946],[12.70387,42.17898],[12.70542,42.17819]]},"properties":{}},{"type":"Feature","geometry":{"type":"LineString","coordinates":[[12.68664,42.18234],[12.68768,42.18321],[12.68785,42.18322],[12.68803,42.18317],[12.68825,42.18301],[12.68847,42.18276],[12.6886,42.1827],[12.68871,42.18271],[12.68924,42.18299],[12.69023,42.18365],[12.69041,42.18372],[12.69061,42.18374],[12.69149,42.18373],[12.69184,42.18367],[12.69434,42.18281]]},"properties":{}},{"type":"Feature","geometry":{"type":"LineString","coordinates":[[12.58761,42.05953],[12.58794,42.05973],[12.58849,42.05924],[12.58879,42.0589],[12.58959,42.05912]]},"properties":{}},{"type":"Feature","geometry":{"type":"LineString","coordinates":[[12.58651,42.06061],[12.58812,42.05905],[12.58849,42.05924]]},"properties":{}},{"type":"Feature","geometry":{"type":"LineString","coordinates":[[12.59072,42.06145],[12.59127,42.06098],[12.59155,42.06069]]},"properties":{}},{"type":"Feature","geometry":{"type":"LineString","coordinates":[[12.58901,42.06204],[12.58724,42.06107],[12.58651,42.06061]]},"properties":{}},{"type":"Feature","geometry":{"type":"LineString","coordinates":[[12.59057,42.06149],[12.59072,42.06145]]},"properties":{}},{"type":"Feature","geometry":{"type":"LineString","coordinates":[[12.59936,42.06984],[12.59927,42.06978],[12.59893,42.0693],[12.59881,42.06919],[12.59851,42.06903],[12.598,42.0689],[12.59768,42.06874],[12.59724,42.06845],[12.59687,42.06813],[12.59669,42.0679],[12.5966,42.06772],[12.59619,42.06657],[12.59447,42.06693],[12.59412,42.0663],[12.59375,42.06577],[12.59322,42.06513],[12.59281,42.06474],[12.58903,42.06209],[12.58901,42.06204],[12.59057,42.06149]]},"properties":{}},{"type":"Feature","geometry":{"type":"LineString","coordinates":[[12.59414,42.09083],[12.59414,42.09088],[12.59206,42.09144],[12.59166,42.09161],[12.5912,42.09191],[12.5843,42.09747],[12.58315,42.09832],[12.58166,42.09953]]},"properties":{}},{"type":"Feature","geometry":{"type":"LineString","coordinates":[[12.59995,42.14052],[12.59995,42.14039]]},"properties":{}},{"type":"Feature","geometry":{"type":"LineString","coordinates":[[12.60066,42.14053],[12.60066,42.14039]]},"properties":{}},{"type":"Feature","geometry":{"type":"LineString","coordinates":[[12.59613,42.14111],[12.59292,42.15118],[12.5931,42.15128],[12.59302,42.15149],[12.59282,42.15151],[12.59115,42.15675]]},"properties":{}},{"type":"Feature","geometry":{"type":"LineString","coordinates":[[12.62784,42.05872],[12.62615,42.05785],[12.62514,42.05727]]},"properties":{}},{"type":"Feature","geometry":{"type":"LineString","coordinates":[[12.62784,42.05872],[12.62931,42.0595],[12.63186,42.06078]]},"properties":{}},{"type":"Feature","geometry":{"type":"LineString","coordinates":[[12.63534,42.05581],[12.63603,42.0577],[12.63617,42.05821],[12.63617,42.05864],[12.63611,42.0589],[12.636,42.05916],[12.63574,42.05956],[12.63544,42.05986],[12.63489,42.06022],[12.63436,42.06046],[12.63424,42.06047],[12.63403,42.06056],[12.63389,42.06067],[12.63264,42.06124],[12.63231,42.06115],[12.6322,42.061],[12.63206,42.06103],[12.6322,42.06128],[12.63212,42.06138],[12.63216,42.06152],[12.62899,42.06388],[12.62823,42.06457],[12.62761,42.06526],[12.62731,42.06571],[12.62681,42.06654],[12.62651,42.06728],[12.62644,42.0677],[12.62633,42.06778],[12.62617,42.06779],[12.62591,42.06768]]},"properties":{}},{"type":"Feature","geometry":{"type":"LineString","coordinates":[[12.62591,42.06768],[12.62597,42.06795],[12.62623,42.06801],[12.62637,42.06809],[12.62641,42.06817],[12.62642,42.06886],[12.6263,42.07076],[12.62615,42.07129],[12.62597,42.07169],[12.62573,42.07205],[12.62549,42.07233],[12.6253,42.07251],[12.62482,42.07286],[12.6247,42.07288],[12.62443,42.07303],[12.62435,42.07312],[12.62129,42.07471],[12.62045,42.07521],[12.61873,42.07646],[12.61774,42.07712],[12.61763,42.07715],[12.61742,42.07713],[12.61729,42.07704],[12.61725,42.07693]]},"properties":{}},{"type":"Feature","geometry":{"type":"LineString","coordinates":[[12.61566,42.15218],[12.61561,42.15232],[12.61583,42.15332],[12.61604,42.15382],[12.6172,42.15624],[12.61838,42.15837],[12.619,42.15928]]},"properties":{}},{"type":"Feature","geometry":{"type":"LineString","coordinates":[[12.64546,42.17384],[12.64536,42.17384]]},"properties":{}},{"type":"Feature","geometry":{"type":"LineString","coordinates":[[12.64879,42.17986],[12.64846,42.17932],[12.64822,42.17901],[12.64758,42.17837],[12.64754,42.17809],[12.64745,42.17801],[12.64726,42.17794],[12.64717,42.17786],[12.64718,42.17778],[12.64732,42.1777],[12.64646,42.17676],[12.64629,42.17665],[12.64613,42.17659],[12.64605,42.17651],[12.64584,42.1761],[12.64585,42.17597],[12.64579,42.17575],[12.64569,42.17568],[12.64565,42.17561],[12.64546,42.17479],[12.64545,42.17467],[12.64551,42.17455],[12.64546,42.17387],[12.64549,42.1738],[12.64563,42.17371]]},"properties":{}},{"type":"Feature","geometry":{"type":"LineString","coordinates":[[12.63714,42.17827],[12.63633,42.17865],[12.6361,42.17886],[12.63599,42.1791],[12.63587,42.17987],[12.63586,42.18025],[12.6359,42.18067],[12.63634,42.18199],[12.63666,42.18382],[12.63682,42.18411],[12.63746,42.18488],[12.63785,42.18521],[12.63858,42.18571],[12.6388,42.18592],[12.63897,42.18621],[12.63934,42.18706],[12.63991,42.18788],[12.64033,42.18826],[12.64119,42.18884]]},"properties":{}},{"type":"Feature","geometry":{"type":"LineString","coordinates":[[12.64119,42.18884],[12.64149,42.18919],[12.64174,42.18968]]},"properties":{}},{"type":"Feature","geometry":{"type":"LineString","coordinates":[[12.64174,42.18968],[12.64198,42.1902],[12.64217,42.19047],[12.64415,42.19249],[12.64482,42.19326]]},"properties":{}},{"type":"Feature","geometry":{"type":"LineString","coordinates":[[12.59308,42.1507],[12.59388,42.15084]]},"properties":{}},{"type":"Feature","geometry":{"type":"LineString","coordinates":[[12.60022,42.16469],[12.60071,42.16426],[12.60087,42.1641],[12.60092,42.16395],[12.60099,42.16386],[12.60166,42.16322],[12.60341,42.16114],[12.60435,42.16007],[12.60488,42.15954],[12.60581,42.1583],[12.60642,42.15757],[12.60691,42.15689],[12.60752,42.15595],[12.60815,42.15523],[12.60865,42.15489],[12.60995,42.15375],[12.61083,42.15305],[12.6111,42.15289],[12.61162,42.15271],[12.61152,42.15261],[12.61143,42.15259],[12.61144,42.15253],[12.61028,42.15232],[12.61084,42.15053],[12.61079,42.15047],[12.60967,42.14981],[12.60813,42.14716],[12.60825,42.14688],[12.60822,42.1467],[12.60805,42.14648],[12.60782,42.14657],[12.60741,42.14598],[12.60715,42.14585],[12.60481,42.14557],[12.60447,42.14542],[12.604,42.14514],[12.60372,42.14487],[12.60189,42.14119],[12.60165,42.14084],[12.60124,42.14044],[12.60113,42.14038],[12.59983,42.14039],[12.59964,42.14047],[12.59886,42.14047]]},"properties":{}},{"type":"Feature","geometry":{"type":"LineString","coordinates":[[12.59116,42.15679],[12.59071,42.15815],[12.59073,42.15818],[12.59165,42.15845]]},"properties":{}},{"type":"Feature","geometry":{"type":"LineString","coordinates":[[12.59011,42.15842],[12.59016,42.15831],[12.59029,42.15826],[12.59043,42.15828],[12.59051,42.15836],[12.59052,42.15841],[12.59047,42.15851],[12.59035,42.15855],[12.59021,42.15854],[12.59011,42.15842]]},"properties":{}},{"type":"Feature","geometry":{"type":"LineString","coordinates":[[12.59165,42.15845],[12.59167,42.15847],[12.59161,42.15867]]},"properties":{}},{"type":"Feature","geometry":{"type":"LineString","coordinates":[[12.59279,42.15903],[12.59202,42.15882],[12.59161,42.15867]]},"properties":{}},{"type":"Feature","geometry":{"type":"LineString","coordinates":[[12.59279,42.15903],[12.59307,42.15912]]},"properties":{}},{"type":"Feature","geometry":{"type":"LineString","coordinates":[[12.59307,42.15912],[12.59317,42.15916]]},"properties":{}},{"type":"Feature","geometry":{"type":"LineString","coordinates":[[12.59317,42.15916],[12.59336,42.15922],[12.59332,42.15929]]},"properties":{}},{"type":"Feature","geometry":{"type":"LineString","coordinates":[[12.59332,42.15929],[12.59329,42.15935]]},"properties":{}},{"type":"Feature","geometry":{"type":"LineString","coordinates":[[12.59329,42.15935],[12.59326,42.15942]]},"properties":{}},{"type":"Feature","geometry":{"type":"LineString","coordinates":[[12.59291,42.15932],[12.59409,42.15963],[12.59464,42.15981],[12.59527,42.16012],[12.59654,42.16085],[12.59683,42.16108],[12.59833,42.16273],[12.59862,42.16307],[12.59884,42.16343],[12.59894,42.16346]]},"properties":{}},{"type":"Feature","geometry":{"type":"LineString","coordinates":[[12.59742,42.16172],[12.59493,42.16237],[12.59463,42.1624],[12.59438,42.16257],[12.59426,42.16334],[12.59421,42.16353],[12.59414,42.16363],[12.59307,42.16419]]},"properties":{}},{"type":"Feature","geometry":{"type":"LineString","coordinates":[[12.59894,42.16346],[12.59902,42.16343]]},"properties":{}},{"type":"Feature","geometry":{"type":"LineString","coordinates":[[12.59902,42.16343],[12.59912,42.16359]]},"properties":{}},{"type":"Feature","geometry":{"type":"LineString","coordinates":[[12.58792,42.16362],[12.58824,42.16367],[12.58848,42.16365]]},"properties":{}},{"type":"Feature","geometry":{"type":"LineString","coordinates":[[12.58834,42.16391],[12.5882,42.16377],[12.58792,42.16362]]},"properties":{}},{"type":"Feature","geometry":{"type":"LineString","coordinates":[[12.5884,42.1637],[12.58859,42.16363],[12.58874,42.16365],[12.58885,42.16372],[12.58889,42.16379],[12.58889,42.16392],[12.58884,42.16398],[12.58868,42.16405],[12.58844,42.16401],[12.58834,42.16391],[12.58833,42.16384],[12.5884,42.1637]]},"properties":{}},{"type":"Feature","geometry":{"type":"LineString","coordinates":[[12.58418,42.16371],[12.58461,42.16408],[12.58489,42.16422],[12.58535,42.16423],[12.58597,42.16405]]},"properties":{}},{"type":"Feature","geometry":{"type":"LineString","coordinates":[[12.58856,42.16421],[12.58851,42.16404]]},"properties":{}},{"type":"Feature","geometry":{"type":"LineString","coordinates":[[12.58876,42.16403],[12.58867,42.16426]]},"properties":{}},{"type":"Feature","geometry":{"type":"LineString","coordinates":[[12.59912,42.16359],[12.59913,42.16367],[12.59967,42.16476]]},"properties":{}},{"type":"Feature","geometry":{"type":"LineString","coordinates":[[12.58836,42.16483],[12.58812,42.16427],[12.58807,42.16416],[12.58801,42.16412],[12.58694,42.16391],[12.58674,42.16393],[12.58628,42.16414],[12.58616,42.16423],[12.58609,42.1644]]},"properties":{}},{"type":"Feature","geometry":{"type":"LineString","coordinates":[[12.58597,42.16405],[12.5856,42.16428],[12.58525,42.16472],[12.58508,42.16477]]},"properties":{}},{"type":"Feature","geometry":{"type":"LineString","coordinates":[[12.60022,42.16469],[12.59971,42.16478],[12.59967,42.16476]]},"properties":{}},{"type":"Feature","geometry":{"type":"LineString","coordinates":[[12.60002,42.16482],[12.60022,42.16469]]},"properties":{}},{"type":"Feature","geometry":{"type":"LineString","coordinates":[[12.60001,42.16483],[12.59993,42.16483],[12.5999,42.16478],[12.59994,42.16475],[12.60001,42.16476],[12.60003,42.16478],[12.60001,42.16483]]},"properties":{}},{"type":"Feature","geometry":{"type":"LineString","coordinates":[[12.59971,42.16478],[12.59985,42.16484],[12.59993,42.16483]]},"properties":{}},{"type":"Feature","geometry":{"type":"LineString","coordinates":[[12.58848,42.16488],[12.58835,42.1649]]},"properties":{}},{"type":"Feature","geometry":{"type":"LineString","coordinates":[[12.58539,42.16457],[12.58536,42.16469],[12.5854,42.16485],[12.58571,42.16528]]},"properties":{}},{"type":"Feature","geometry":{"type":"LineString","coordinates":[[12.54016,42.13984],[12.54034,42.13955],[12.54113,42.13852]]},"properties":{}},{"type":"Feature","geometry":{"type":"LineString","coordinates":[[12.53996,42.14021],[12.54016,42.13984]]},"properties":{}},{"type":"Feature","geometry":{"type":"LineString","coordinates":[[12.53936,42.14078],[12.53973,42.14051],[12.53996,42.14021]]},"properties":{}},{"type":"Feature","geometry":{"type":"LineString","coordinates":[[12.53152,42.19029],[12.5313,42.19027],[12.53074,42.19014],[12.53043,42.1902],[12.53021,42.19032],[12.53003,42.1903],[12.52911,42.19007],[12.52897,42.19009],[12.52891,42.18997],[12.52853,42.18993],[12.52813,42.19006],[12.52785,42.19027]]},"properties":{}},{"type":"Feature","geometry":{"type":"LineString","coordinates":[[12.50056,42.12596],[12.50065,42.126],[12.50072,42.12617],[12.5008,42.12687]]},"properties":{}},{"type":"Feature","geometry":{"type":"LineString","coordinates":[[12.50003,42.12739],[12.50042,42.12603],[12.50056,42.12596]]},"properties":{}},{"type":"Feature","geometry":{"type":"LineString","coordinates":[[12.50084,42.12732],[12.50093,42.12725],[12.50102,42.12704],[12.50123,42.12671],[12.50118,42.12652],[12.50102,42.12641]]},"properties":{}},{"type":"Feature","geometry":{"type":"LineString","coordinates":[[12.5008,42.12687],[12.50071,42.12691],[12.5005,42.12718],[12.50037,42.12728],[12.50019,42.12738],[12.50003,42.12739]]},"properties":{}},{"type":"Feature","geometry":{"type":"LineString","coordinates":[[12.58047,42.18977],[12.58048,42.18958],[12.58054,42.18931],[12.58094,42.1888],[12.58101,42.18864],[12.58076,42.1884],[12.58058,42.18825],[12.58022,42.18816],[12.57986,42.18807],[12.57952,42.18807],[12.57923,42.18803],[12.57849,42.18783],[12.57799,42.18742]]},"properties":{}},{"type":"Feature","geometry":{"type":"LineString","coordinates":[[12.58051,42.18979],[12.57981,42.1894],[12.57959,42.1895],[12.57929,42.1895],[12.57904,42.18943],[12.57871,42.18919],[12.57828,42.18861],[12.57784,42.18822],[12.57756,42.18805],[12.57731,42.18794],[12.57696,42.18807],[12.57584,42.18866]]},"properties":{}},{"type":"Feature","geometry":{"type":"LineString","coordinates":[[12.57113,42.19227],[12.57136,42.19207],[12.57153,42.19167],[12.5728,42.19084],[12.5733,42.19034]]},"properties":{}},{"type":"Feature","geometry":{"type":"LineString","coordinates":[[12.58051,42.18979],[12.58042,42.18989],[12.58,42.19007],[12.57995,42.19022],[12.57985,42.19034],[12.57957,42.19052],[12.57911,42.19059],[12.57891,42.19071],[12.57866,42.19081],[12.5784,42.19086],[12.5783,42.19104],[12.5786,42.19134],[12.57874,42.1917],[12.5792,42.19188],[12.5792,42.19207],[12.57897,42.19242],[12.57874,42.19252],[12.57856,42.19268],[12.57831,42.19279],[12.57817,42.19295],[12.578,42.19308],[12.57786,42.19343]]},"properties":{}},{"type":"Feature","geometry":{"type":"LineString","coordinates":[[12.57786,42.19343],[12.57766,42.19353],[12.57761,42.19372]]},"properties":{}},{"type":"Feature","geometry":{"type":"LineString","coordinates":[[12.58762,42.16535],[12.58835,42.16487]]},"properties":{}},{"type":"Feature","geometry":{"type":"LineString","coordinates":[[12.58805,42.16607],[12.58809,42.16577],[12.58856,42.16421]]},"properties":{}},{"type":"Feature","geometry":{"type":"LineString","coordinates":[[12.58867,42.16426],[12.58827,42.16568],[12.58805,42.16615]]},"properties":{}},{"type":"Feature","geometry":{"type":"LineString","coordinates":[[12.58816,42.16552],[12.58826,42.16553],[12.5883,42.16558]]},"properties":{}},{"type":"Feature","geometry":{"type":"LineString","coordinates":[[12.58822,42.16581],[12.58809,42.16581]]},"properties":{}},{"type":"Feature","geometry":{"type":"LineString","coordinates":[[12.58805,42.16615],[12.58805,42.16607]]},"properties":{}},{"type":"Feature","geometry":{"type":"LineString","coordinates":[[12.5931,42.17011],[12.59338,42.16966],[12.59355,42.16931],[12.59368,42.16889],[12.59373,42.1683],[12.59372,42.16795],[12.59353,42.16724],[12.59323,42.16664],[12.59296,42.16621],[12.59265,42.16583],[12.59212,42.16535],[12.59172,42.16505],[12.59132,42.1648],[12.59054,42.16441],[12.59,42.16421],[12.58935,42.16402],[12.58884,42.16398]]},"properties":{}},{"type":"Feature","geometry":{"type":"LineString","coordinates":[[12.59372,42.16905],[12.59437,42.169],[12.59435,42.1686],[12.59379,42.16862]]},"properties":{}},{"type":"Feature","geometry":{"type":"LineString","coordinates":[[12.59115,42.17148],[12.59099,42.1715],[12.58928,42.17111]]},"properties":{}},{"type":"Feature","geometry":{"type":"LineString","coordinates":[[12.58592,42.17149],[12.58613,42.17137]]},"properties":{}},{"type":"Feature","geometry":{"type":"LineString","coordinates":[[12.58619,42.17146],[12.58592,42.17149]]},"properties":{}},{"type":"Feature","geometry":{"type":"LineString","coordinates":[[12.58941,42.18492],[12.58954,42.18452],[12.59004,42.18393],[12.5903,42.18368],[12.59043,42.18337],[12.59038,42.183],[12.59056,42.18281],[12.59087,42.18225],[12.59091,42.18205],[12.59084,42.18195],[12.59086,42.18187],[12.59082,42.1817],[12.59066,42.18166],[12.5905,42.18168],[12.58988,42.18219],[12.58936,42.18252],[12.58896,42.18285],[12.58849,42.18334],[12.58832,42.18357],[12.58822,42.18363],[12.58765,42.1844],[12.58745,42.18456]]},"properties":{}},{"type":"Feature","geometry":{"type":"LineString","coordinates":[[12.58941,42.18492],[12.59007,42.18459]]},"properties":{}},{"type":"Feature","geometry":{"type":"LineString","coordinates":[[12.61241,42.23319],[12.61136,42.23312],[12.60953,42.2328],[12.60837,42.23251],[12.60722,42.23203],[12.60649,42.23166],[12.60588,42.23124],[12.60537,42.23054],[12.60476,42.22902],[12.60452,42.22807],[12.60448,42.22696],[12.60454,42.22563],[12.60464,42.22455],[12.6048,42.2235],[12.60507,42.22226]]},"properties":{}},{"type":"Feature","geometry":{"type":"LineString","coordinates":[[12.64482,42.19326],[12.64513,42.19357],[12.64555,42.19379],[12.64741,42.19425],[12.64815,42.19452],[12.6494,42.19503],[12.65011,42.19539],[12.65051,42.19576],[12.65103,42.19643],[12.65118,42.19667],[12.65129,42.19693],[12.65176,42.19841],[12.65184,42.19878],[12.65182,42.19913],[12.65167,42.19967],[12.65168,42.19995],[12.65221,42.20098],[12.65271,42.2022]]},"properties":{}},{"type":"Feature","geometry":{"type":"LineString","coordinates":[[12.61995,42.22308],[12.61989,42.22337],[12.61959,42.22385],[12.61904,42.22451],[12.6182,42.22559],[12.61735,42.22688],[12.61667,42.22844],[12.61601,42.22955],[12.61556,42.23125],[12.61525,42.23193],[12.61448,42.23271],[12.61386,42.23307],[12.6133,42.23317],[12.61241,42.23319]]},"properties":{}},{"type":"Feature","geometry":{"type":"LineString","coordinates":[[12.72669,42.08187],[12.72662,42.08193],[12.72647,42.08194],[12.72637,42.08186],[12.72636,42.08177],[12.72644,42.0817],[12.72659,42.08168],[12.72668,42.08174],[12.72671,42.08179],[12.72669,42.08187]]},"properties":{}}]}