{"type":"FeatureCollection","features":[{"type":"Feature","geometry":{"type":"LineString","coordinates":[[12.56741,43.3468],[12.56779,43.34678],[12.56807,43.34683],[12.56827,43.34704],[12.56831,43.34714],[12.56813,43.3474],[12.56793,43.34761],[12.56781,43.34761],[12.56753,43.34757]]},"properties":{}},{"type":"Feature","geometry":{"type":"LineString","coordinates":[[12.56941,43.34789],[12.56807,43.34667],[12.56753,43.34643],[12.56734,43.34649],[12.56729,43.34663],[12.56734,43.34675],[12.56788,43.34716],[12.56794,43.34725],[12.56795,43.34732],[12.56791,43.34739],[12.56746,43.3476],[12.56725,43.34774],[12.56723,43.34786],[12.56729,43.34794],[12.56818,43.34872],[12.56835,43.34879],[12.56847,43.34877],[12.56869,43.34864],[12.56899,43.34841],[12.56929,43.34825],[12.5694,43.34814],[12.56946,43.348],[12.56941,43.34789]]},"properties":{}},{"type":"Feature","geometry":{"type":"LineString","coordinates":[[12.56869,43.34864],[12.56865,43.34845],[12.56857,43.34837],[12.56794,43.34829],[12.56769,43.34816],[12.56739,43.34786],[12.5674,43.34776],[12.56747,43.3477],[12.56774,43.34772],[12.56783,43.34811],[12.56791,43.34818],[12.56899,43.34841]]},"properties":{}},{"type":"Feature","geometry":{"type":"LineString","coordinates":[[12.57685,43.35047],[12.57701,43.35046]]},"properties":{}},{"type":"Feature","geometry":{"type":"LineString","coordinates":[[12.57677,43.35047],[12.57685,43.35047]]},"properties":{}},{"type":"Feature","geometry":{"type":"LineString","coordinates":[[12.57685,43.35047],[12.5769,43.3505]]},"properties":{}},{"type":"Feature","geometry":{"type":"LineString","coordinates":[[12.57701,43.35046],[12.57691,43.35052]]},"properties":{}},{"type":"Feature","geometry":{"type":"LineString","coordinates":[[12.60081,43.33551],[12.60103,43.33544],[12.60139,43.33527]]},"properties":{}},{"type":"Feature","geometry":{"type":"LineString","coordinates":[[12.60139,43.33527],[12.60121,43.33546],[12.60109,43.33565]]},"properties":{}},{"type":"Feature","geometry":{"type":"LineString","coordinates":[[12.5769,43.3505],[12.57691,43.35052]]},"properties":{}},{"type":"Feature","geometry":{"type":"LineString","coordinates":[[12.57645,43.35058],[12.57677,43.35047]]},"properties":{}},{"type":"Feature","geometry":{"type":"LineString","coordinates":[[12.57673,43.35058],[12.57672,43.35051],[12.57677,43.35047]]},"properties":{}},{"type":"Feature","geometry":{"type":"LineString","coordinates":[[12.57691,43.35052],[12.57688,43.3506]]},"properties":{}},{"type":"Feature","geometry":{"type":"LineString","coordinates":[[12.57656,43.35057],[12.57645,43.35058]]},"properties":{}},{"type":"Feature","geometry":{"type":"LineString","coordinates":[[12.57673,43.35058],[12.57656,43.35057]]},"properties":{}},{"type":"Feature","geometry":{"type":"LineString","coordinates":[[12.57677,43.35062],[12.57673,43.35058]]},"properties":{}},{"type":"Feature","geometry":{"type":"LineString","coordinates":[[12.57688,43.3506],[12.57683,43.35063],[12.57677,43.35062]]},"properties":{}},{"type":"Feature","geometry":{"type":"LineString","coordinates":[[12.56755,43.35213],[12.56782,43.35231],[12.56845,43.35195],[12.56856,43.35198],[12.56902,43.35238],[12.56914,43.35239],[12.56924,43.35236],[12.5705,43.35165]]},"properties":{}},{"type":"Feature","geometry":{"type":"LineString","coordinates":[[12.57925,43.35275],[12.57804,43.3533],[12.57757,43.35356],[12.57697,43.35396]]},"properties":{}},{"type":"Feature","geometry":{"type":"LineString","coordinates":[[12.60025,43.33549],[12.60077,43.33551]]},"properties":{}},{"type":"Feature","geometry":{"type":"LineString","coordinates":[[12.60056,43.3357],[12.60044,43.33559],[12.60025,43.33549]]},"properties":{}},{"type":"Feature","geometry":{"type":"LineString","coordinates":[[12.58308,43.34709],[12.58305,43.34714],[12.58298,43.34709]]},"properties":{}},{"type":"Feature","geometry":{"type":"LineString","coordinates":[[12.58425,43.34865],[12.58338,43.34764]]},"properties":{}},{"type":"Feature","geometry":{"type":"LineString","coordinates":[[12.58068,43.34807],[12.58108,43.34827],[12.5814,43.34838],[12.58176,43.34843]]},"properties":{}},{"type":"Feature","geometry":{"type":"LineString","coordinates":[[12.57697,43.35396],[12.57683,43.35424],[12.57686,43.35444]]},"properties":{}},{"type":"Feature","geometry":{"type":"LineString","coordinates":[[12.57538,43.3547],[12.5754,43.3546]]},"properties":{}},{"type":"Feature","geometry":{"type":"LineString","coordinates":[[12.57531,43.35529],[12.57538,43.3547]]},"properties":{}}]}