{"type":"FeatureCollection","features":[{"type":"Feature","geometry":{"type":"LineString","coordinates":[[12.7284,46.06141],[12.72873,46.06144],[12.73137,46.06221]]},"properties":{}},{"type":"Feature","geometry":{"type":"LineString","coordinates":[[12.73137,46.06221],[12.74271,46.06545]]},"properties":{}},{"type":"Feature","geometry":{"type":"LineString","coordinates":[[12.74271,46.06545],[12.74531,46.0662],[12.74572,46.06638]]},"properties":{}},{"type":"Feature","geometry":{"type":"LineString","coordinates":[[12.74203,46.10985],[12.74213,46.10988],[12.75,46.1034]]},"properties":{}},{"type":"Feature","geometry":{"type":"LineString","coordinates":[[12.71114,46.14949],[12.71056,46.14929],[12.70977,46.14893],[12.70946,46.14883],[12.70937,46.14885]]},"properties":{}},{"type":"Feature","geometry":{"type":"LineString","coordinates":[[12.71122,46.14952],[12.71114,46.14949]]},"properties":{}},{"type":"Feature","geometry":{"type":"LineString","coordinates":[[12.71404,46.15049],[12.71122,46.14952]]},"properties":{}},{"type":"Feature","geometry":{"type":"LineString","coordinates":[[12.71416,46.15053],[12.71404,46.15049]]},"properties":{}},{"type":"Feature","geometry":{"type":"LineString","coordinates":[[12.71618,46.15122],[12.71416,46.15053]]},"properties":{}},{"type":"Feature","geometry":{"type":"LineString","coordinates":[[12.71627,46.15125],[12.71618,46.15122]]},"properties":{}},{"type":"Feature","geometry":{"type":"LineString","coordinates":[[12.71909,46.15221],[12.71745,46.15167],[12.71701,46.15146],[12.71627,46.15125]]},"properties":{}},{"type":"Feature","geometry":{"type":"LineString","coordinates":[[12.71919,46.15225],[12.71909,46.15221]]},"properties":{}},{"type":"Feature","geometry":{"type":"LineString","coordinates":[[12.72419,46.15569],[12.72607,46.15306]]},"properties":{}},{"type":"Feature","geometry":{"type":"LineString","coordinates":[[12.69193,46.14354],[12.69181,46.14348]]},"properties":{}},{"type":"Feature","geometry":{"type":"LineString","coordinates":[[12.69313,46.14417],[12.69193,46.14354]]},"properties":{}},{"type":"Feature","geometry":{"type":"LineString","coordinates":[[12.69323,46.14423],[12.69313,46.14417]]},"properties":{}},{"type":"Feature","geometry":{"type":"LineString","coordinates":[[12.69396,46.14461],[12.69323,46.14423]]},"properties":{}},{"type":"Feature","geometry":{"type":"LineString","coordinates":[[12.70297,46.14505],[12.70372,46.14438],[12.70394,46.1441]]},"properties":{}},{"type":"Feature","geometry":{"type":"LineString","coordinates":[[12.69407,46.14467],[12.69396,46.14461]]},"properties":{}},{"type":"Feature","geometry":{"type":"LineString","coordinates":[[12.69531,46.14532],[12.69407,46.14467]]},"properties":{}},{"type":"Feature","geometry":{"type":"LineString","coordinates":[[12.69548,46.14541],[12.69531,46.14532]]},"properties":{}},{"type":"Feature","geometry":{"type":"LineString","coordinates":[[12.6965,46.14594],[12.69548,46.14541]]},"properties":{}},{"type":"Feature","geometry":{"type":"LineString","coordinates":[[12.69668,46.14604],[12.6965,46.14594]]},"properties":{}},{"type":"Feature","geometry":{"type":"LineString","coordinates":[[12.72282,46.1567],[12.7231,46.15646],[12.72326,46.15602],[12.72334,46.15594],[12.72388,46.15574],[12.72484,46.15433],[12.72468,46.15414],[12.72458,46.15407],[12.72403,46.15393],[12.72347,46.15371],[12.72232,46.15331],[12.72189,46.15321],[12.72143,46.153],[12.72084,46.15288],[12.71919,46.15225]]},"properties":{}},{"type":"Feature","geometry":{"type":"LineString","coordinates":[[12.72396,46.15561],[12.72399,46.15562]]},"properties":{}},{"type":"Feature","geometry":{"type":"LineString","coordinates":[[12.72399,46.15562],[12.72419,46.15569]]},"properties":{}},{"type":"Feature","geometry":{"type":"LineString","coordinates":[[12.715,46.16147],[12.71564,46.16035],[12.71621,46.1598],[12.71672,46.15947],[12.71709,46.15927],[12.7218,46.15722],[12.72282,46.1567],[12.72289,46.15676]]},"properties":{}},{"type":"Feature","geometry":{"type":"LineString","coordinates":[[12.70769,46.16036],[12.70923,46.16018]]},"properties":{}},{"type":"Feature","geometry":{"type":"LineString","coordinates":[[12.7096,46.16001],[12.7148,46.16161]]},"properties":{}},{"type":"Feature","geometry":{"type":"LineString","coordinates":[[12.70923,46.16018],[12.70927,46.16014],[12.70962,46.1601],[12.71408,46.16148],[12.71473,46.16167],[12.71476,46.16167],[12.7148,46.16161]]},"properties":{}},{"type":"Feature","geometry":{"type":"LineString","coordinates":[[12.7151,46.1617],[12.71525,46.16179],[12.71573,46.16195],[12.72062,46.16346]]},"properties":{}},{"type":"Feature","geometry":{"type":"LineString","coordinates":[[12.71476,46.16167],[12.71485,46.16176],[12.71371,46.16393],[12.7136,46.16417],[12.71366,46.16419]]},"properties":{}},{"type":"Feature","geometry":{"type":"LineString","coordinates":[[12.72062,46.16346],[12.72092,46.1636],[12.72116,46.16378]]},"properties":{}},{"type":"Feature","geometry":{"type":"LineString","coordinates":[[12.72116,46.16378],[12.72123,46.16384]]},"properties":{}},{"type":"Feature","geometry":{"type":"LineString","coordinates":[[12.72123,46.16384],[12.72145,46.16413],[12.72156,46.16442]]},"properties":{}},{"type":"Feature","geometry":{"type":"LineString","coordinates":[[12.7136,46.16417],[12.71358,46.16422],[12.71338,46.16428],[12.71336,46.16436],[12.71344,46.16445],[12.71258,46.16606],[12.71253,46.16605],[12.71246,46.16614],[12.71253,46.16616],[12.71202,46.16705],[12.7118,46.1673],[12.7115,46.16751],[12.71156,46.16756]]},"properties":{}},{"type":"Feature","geometry":{"type":"LineString","coordinates":[[12.7148,46.16161],[12.71484,46.16156],[12.71493,46.16155],[12.715,46.16147],[12.71514,46.16151],[12.71513,46.16156],[12.71516,46.16164],[12.71523,46.16171],[12.71926,46.16292],[12.72099,46.16349],[12.72126,46.16348],[12.7215,46.16334],[12.72162,46.16341],[12.72173,46.16498],[12.72182,46.16586],[12.72181,46.16624],[12.7217,46.16671],[12.72155,46.16701],[12.72086,46.16811],[12.71959,46.16998],[12.71953,46.1702],[12.71957,46.17051],[12.71951,46.1707]]},"properties":{}},{"type":"Feature","geometry":{"type":"LineString","coordinates":[[12.70686,46.16706],[12.70691,46.1668],[12.70684,46.16604]]},"properties":{}},{"type":"Feature","geometry":{"type":"LineString","coordinates":[[12.70949,46.16631],[12.7099,46.16652],[12.71039,46.16687],[12.71118,46.16778]]},"properties":{}},{"type":"Feature","geometry":{"type":"LineString","coordinates":[[12.70686,46.16706],[12.70765,46.16712],[12.70769,46.16704],[12.70825,46.16711]]},"properties":{}},{"type":"Feature","geometry":{"type":"LineString","coordinates":[[12.72156,46.16442],[12.72168,46.16593],[12.72163,46.16642],[12.72151,46.1668],[12.72128,46.16723],[12.71898,46.1706]]},"properties":{}},{"type":"Feature","geometry":{"type":"LineString","coordinates":[[12.71156,46.16756],[12.71147,46.16763]]},"properties":{}},{"type":"Feature","geometry":{"type":"LineString","coordinates":[[12.71147,46.16763],[12.71139,46.16775],[12.71118,46.16778],[12.71134,46.16805],[12.71139,46.16828],[12.71133,46.16868],[12.71128,46.16867]]},"properties":{}},{"type":"Feature","geometry":{"type":"LineString","coordinates":[[12.70654,46.1684],[12.70648,46.16847],[12.70651,46.16858],[12.70657,46.1686],[12.7065,46.16871],[12.70628,46.16868],[12.70613,46.16871]]},"properties":{}},{"type":"Feature","geometry":{"type":"LineString","coordinates":[[12.71951,46.1707],[12.7197,46.17076]]},"properties":{}},{"type":"Feature","geometry":{"type":"LineString","coordinates":[[12.7197,46.17076],[12.71971,46.17081],[12.71965,46.17088],[12.7194,46.171],[12.71897,46.17114],[12.7189,46.17118],[12.71881,46.17128],[12.71869,46.17158],[12.71828,46.17235],[12.71836,46.17246],[12.71859,46.17256],[12.71866,46.17263],[12.71862,46.17265],[12.71851,46.17264],[12.71795,46.17244]]},"properties":{}},{"type":"Feature","geometry":{"type":"LineString","coordinates":[[12.71725,46.17274],[12.71766,46.17273],[12.71781,46.17269]]},"properties":{}},{"type":"Feature","geometry":{"type":"LineString","coordinates":[[12.71781,46.17269],[12.71787,46.17284],[12.718,46.17299]]},"properties":{}},{"type":"Feature","geometry":{"type":"LineString","coordinates":[[12.72068,46.17396],[12.72091,46.17403],[12.72113,46.17425]]},"properties":{}},{"type":"Feature","geometry":{"type":"LineString","coordinates":[[12.72089,46.17432],[12.72091,46.17425],[12.7209,46.17412],[12.72068,46.17396]]},"properties":{}},{"type":"Feature","geometry":{"type":"LineString","coordinates":[[12.72124,46.17427],[12.72149,46.17424],[12.72172,46.1743]]},"properties":{}},{"type":"Feature","geometry":{"type":"LineString","coordinates":[[12.72172,46.1743],[12.72148,46.17433],[12.72138,46.17444]]},"properties":{}},{"type":"Feature","geometry":{"type":"LineString","coordinates":[[12.72101,46.17501],[12.72095,46.17498],[12.72097,46.17487],[12.72093,46.17466],[12.72079,46.1745],[12.72082,46.17413],[12.7208,46.17408],[12.72067,46.17401],[12.72068,46.17396]]},"properties":{}},{"type":"Feature","geometry":{"type":"LineString","coordinates":[[12.72171,46.17504],[12.72163,46.17504],[12.72145,46.17487],[12.7213,46.17481],[12.72122,46.17484],[12.72112,46.175],[12.72101,46.17501]]},"properties":{}},{"type":"Feature","geometry":{"type":"LineString","coordinates":[[12.72325,46.17592],[12.72331,46.17585],[12.7234,46.17585],[12.72634,46.17663],[12.72689,46.17682],[12.73156,46.17936]]},"properties":{}},{"type":"Feature","geometry":{"type":"LineString","coordinates":[[12.75,46.1823],[12.74661,46.18241],[12.74648,46.18246],[12.74617,46.18248],[12.74602,46.18244],[12.74507,46.18244],[12.7429,46.18259],[12.74186,46.18257],[12.74162,46.18254],[12.7409,46.18234],[12.74021,46.18212],[12.73959,46.18187],[12.7388,46.18161],[12.73874,46.18153],[12.73875,46.1814],[12.73865,46.18134],[12.73849,46.18131],[12.73821,46.18131],[12.73668,46.18081],[12.73639,46.18074],[12.73532,46.18063],[12.73484,46.18069],[12.73449,46.18066],[12.73361,46.18046],[12.73296,46.18018],[12.73156,46.17936]]},"properties":{}},{"type":"Feature","geometry":{"type":"LineString","coordinates":[[12.7409,46.18234],[12.74083,46.18243]]},"properties":{}},{"type":"Feature","geometry":{"type":"LineString","coordinates":[[12.61569,46.00087],[12.61585,46.00084],[12.61653,46.00087],[12.61717,46.00097],[12.61748,46.00109],[12.61759,46.00109],[12.61756,46.00069],[12.6176,46.00032],[12.61762,46.00012],[12.6177,46.00006],[12.61771,46.0]]},"properties":{}},{"type":"Feature","geometry":{"type":"LineString","coordinates":[[12.62679,46.00275],[12.62701,46.00273],[12.62714,46.00264],[12.6276,46.00218]]},"properties":{}},{"type":"Feature","geometry":{"type":"LineString","coordinates":[[12.6261,46.0032],[12.62628,46.00306],[12.6266,46.00293],[12.62662,46.00285],[12.62654,46.00275]]},"properties":{}},{"type":"Feature","geometry":{"type":"LineString","coordinates":[[12.61803,46.00351],[12.61815,46.00354],[12.61891,46.00357],[12.62472,46.00337],[12.62555,46.00334],[12.62553,46.00325],[12.6261,46.0032]]},"properties":{}},{"type":"Feature","geometry":{"type":"LineString","coordinates":[[12.67879,46.03263],[12.67951,46.03273]]},"properties":{}},{"type":"Feature","geometry":{"type":"LineString","coordinates":[[12.67859,46.03172],[12.67879,46.03263],[12.67889,46.03365],[12.67892,46.03369],[12.6789,46.03375],[12.67901,46.03417],[12.67923,46.03464],[12.67868,46.0348]]},"properties":{}},{"type":"Feature","geometry":{"type":"LineString","coordinates":[[12.67892,46.03369],[12.67905,46.0337]]},"properties":{}},{"type":"Feature","geometry":{"type":"LineString","coordinates":[[12.67923,46.03464],[12.67959,46.03475],[12.67971,46.03489],[12.67979,46.03523],[12.67979,46.03553],[12.67984,46.03573],[12.67982,46.03575]]},"properties":{}},{"type":"Feature","geometry":{"type":"LineString","coordinates":[[12.67838,46.03797],[12.6789,46.03747],[12.67945,46.03714],[12.67985,46.03699],[12.67999,46.03684]]},"properties":{}},{"type":"Feature","geometry":{"type":"LineString","coordinates":[[12.61263,46.0032],[12.61129,46.00332],[12.61105,46.00333],[12.61102,46.00327]]},"properties":{}},{"type":"Feature","geometry":{"type":"LineString","coordinates":[[12.61569,46.00087],[12.61558,46.00084],[12.61451,46.00081],[12.61443,46.00083],[12.61435,46.0009],[12.61429,46.0009],[12.61417,46.00088],[12.61411,46.0008],[12.61397,46.00076],[12.61136,46.00052],[12.61017,46.00044],[12.60984,46.00059],[12.60969,46.00062],[12.60938,46.00058],[12.60921,46.0006],[12.60894,46.00075],[12.6079,46.00157],[12.60784,46.00163],[12.60784,46.00177],[12.60765,46.00191],[12.60746,46.00193],[12.60385,46.00397],[12.60277,46.00471],[12.60256,46.00492],[12.60213,46.00518],[12.59857,46.00789],[12.59614,46.00991],[12.59329,46.01184],[12.59277,46.0123],[12.59251,46.01213],[12.59219,46.01218],[12.59192,46.01217],[12.59173,46.01229],[12.59166,46.01246],[12.59119,46.01262],[12.59106,46.01272],[12.59042,46.01304],[12.59028,46.01307],[12.58946,46.0136],[12.58633,46.01552],[12.58564,46.01578],[12.58182,46.01698],[12.57775,46.01862],[12.57727,46.01884],[12.57077,46.02139],[12.57054,46.02139],[12.57028,46.02128],[12.57012,46.02131],[12.57,46.02161],[12.56987,46.02176],[12.56987,46.0218]]},"properties":{}},{"type":"Feature","geometry":{"type":"LineString","coordinates":[[12.59101,46.06386],[12.59092,46.06403],[12.59088,46.06424]]},"properties":{}},{"type":"Feature","geometry":{"type":"LineString","coordinates":[[12.59088,46.06424],[12.59045,46.06393]]},"properties":{}},{"type":"Feature","geometry":{"type":"LineString","coordinates":[[12.59709,46.0649],[12.59713,46.06507],[12.59723,46.06521]]},"properties":{}},{"type":"Feature","geometry":{"type":"LineString","coordinates":[[12.59694,46.06542],[12.59687,46.0652],[12.59723,46.06521]]},"properties":{}},{"type":"Feature","geometry":{"type":"LineString","coordinates":[[12.59704,46.06559],[12.59698,46.06553],[12.59694,46.06542],[12.597,46.0653],[12.59706,46.06525],[12.59723,46.06521],[12.59733,46.06521],[12.5975,46.06528],[12.59756,46.06535],[12.59756,46.06549],[12.59747,46.0656],[12.59721,46.06565],[12.59704,46.06559]]},"properties":{}},{"type":"Feature","geometry":{"type":"LineString","coordinates":[[12.59756,46.06549],[12.59769,46.0657],[12.5977,46.06595]]},"properties":{}},{"type":"Feature","geometry":{"type":"LineString","coordinates":[[12.59769,46.0657],[12.59786,46.06577],[12.59805,46.06576]]},"properties":{}},{"type":"Feature","geometry":{"type":"LineString","coordinates":[[12.59765,46.06598],[12.59721,46.06565]]},"properties":{}},{"type":"Feature","geometry":{"type":"LineString","coordinates":[[12.60488,46.06584],[12.60511,46.06597]]},"properties":{}},{"type":"Feature","geometry":{"type":"LineString","coordinates":[[12.60482,46.06603],[12.60488,46.06584]]},"properties":{}},{"type":"Feature","geometry":{"type":"LineString","coordinates":[[12.60517,46.066],[12.60535,46.06598]]},"properties":{}},{"type":"Feature","geometry":{"type":"LineString","coordinates":[[12.58373,46.06603],[12.58388,46.06596]]},"properties":{}},{"type":"Feature","geometry":{"type":"LineString","coordinates":[[12.60482,46.06603],[12.60492,46.06597],[12.60511,46.06597]]},"properties":{}},{"type":"Feature","geometry":{"type":"LineString","coordinates":[[12.60511,46.06597],[12.60521,46.06603]]},"properties":{}},{"type":"Feature","geometry":{"type":"LineString","coordinates":[[12.58388,46.06596],[12.58387,46.06607]]},"properties":{}},{"type":"Feature","geometry":{"type":"LineString","coordinates":[[12.58355,46.06602],[12.58369,46.06604]]},"properties":{}},{"type":"Feature","geometry":{"type":"LineString","coordinates":[[12.60535,46.06598],[12.60523,46.06608]]},"properties":{}},{"type":"Feature","geometry":{"type":"LineString","coordinates":[[12.58363,46.06611],[12.58355,46.06602]]},"properties":{}},{"type":"Feature","geometry":{"type":"LineString","coordinates":[[12.58388,46.0661],[12.58386,46.06615],[12.58377,46.0662],[12.58366,46.06617],[12.58363,46.06611],[12.58365,46.06606],[12.58373,46.06603],[12.58381,46.06603],[12.58388,46.0661]]},"properties":{}},{"type":"Feature","geometry":{"type":"LineString","coordinates":[[12.60485,46.06619],[12.60481,46.06613],[12.60482,46.06603]]},"properties":{}},{"type":"Feature","geometry":{"type":"LineString","coordinates":[[12.60521,46.06603],[12.60523,46.06613],[12.60518,46.0662],[12.60506,46.06625],[12.60491,46.06623]]},"properties":{}},{"type":"Feature","geometry":{"type":"LineString","coordinates":[[12.58388,46.0661],[12.58396,46.0662]]},"properties":{}},{"type":"Feature","geometry":{"type":"LineString","coordinates":[[12.58359,46.06624],[12.58364,46.06614]]},"properties":{}},{"type":"Feature","geometry":{"type":"LineString","coordinates":[[12.58396,46.0662],[12.58381,46.06619]]},"properties":{}},{"type":"Feature","geometry":{"type":"LineString","coordinates":[[12.60471,46.06626],[12.60481,46.06613]]},"properties":{}},{"type":"Feature","geometry":{"type":"LineString","coordinates":[[12.60491,46.06623],[12.60485,46.06619]]},"properties":{}},{"type":"Feature","geometry":{"type":"LineString","coordinates":[[12.58373,46.0662],[12.58359,46.06624]]},"properties":{}},{"type":"Feature","geometry":{"type":"LineString","coordinates":[[12.60491,46.06623],[12.60471,46.06626]]},"properties":{}},{"type":"Feature","geometry":{"type":"LineString","coordinates":[[12.60521,46.06616],[12.60521,46.06636]]},"properties":{}},{"type":"Feature","geometry":{"type":"LineString","coordinates":[[12.58857,46.06813],[12.58816,46.06784],[12.5879,46.06755],[12.58791,46.06751],[12.58824,46.06726]]},"properties":{}},{"type":"Feature","geometry":{"type":"LineString","coordinates":[[12.5896,46.06874],[12.5889,46.06813]]},"properties":{}},{"type":"Feature","geometry":{"type":"LineString","coordinates":[[12.6107,46.0061],[12.61218,46.00558],[12.61236,46.00548],[12.61253,46.00533],[12.61357,46.00491],[12.61384,46.00488],[12.61405,46.00489],[12.61438,46.00482]]},"properties":{}},{"type":"Feature","geometry":{"type":"LineString","coordinates":[[12.61801,46.01059],[12.61786,46.01039],[12.61759,46.00955]]},"properties":{}},{"type":"Feature","geometry":{"type":"LineString","coordinates":[[12.61959,46.01036],[12.6191,46.01034],[12.61801,46.01059]]},"properties":{}},{"type":"Feature","geometry":{"type":"LineString","coordinates":[[12.62181,46.0178],[12.62154,46.01752],[12.62146,46.01709]]},"properties":{}},{"type":"Feature","geometry":{"type":"LineString","coordinates":[[12.62444,46.11155],[12.62503,46.11125],[12.62627,46.11049],[12.62647,46.11043],[12.62673,46.11042],[12.62689,46.11046],[12.62766,46.11104],[12.62849,46.11151],[12.62864,46.11157],[12.62917,46.11163],[12.62985,46.11192],[12.6303,46.11229],[12.6311,46.11319],[12.63136,46.11339],[12.63161,46.11364],[12.63209,46.11428],[12.63222,46.11455],[12.63236,46.11528],[12.63234,46.11614],[12.63251,46.11666],[12.63268,46.11691]]},"properties":{}},{"type":"Feature","geometry":{"type":"LineString","coordinates":[[12.63268,46.11691],[12.63316,46.11732],[12.63361,46.11758]]},"properties":{}},{"type":"Feature","geometry":{"type":"LineString","coordinates":[[12.63391,46.13424],[12.63457,46.13395],[12.63475,46.13392],[12.63593,46.13353],[12.63661,46.13325],[12.63683,46.13311],[12.63831,46.1327],[12.6396,46.13216],[12.63969,46.13217],[12.63981,46.13269],[12.64018,46.13297],[12.64089,46.13364],[12.64145,46.13404],[12.64202,46.13466]]},"properties":{}},{"type":"Feature","geometry":{"type":"LineString","coordinates":[[12.64256,46.13578],[12.6426,46.13572],[12.64272,46.13568],[12.64314,46.13562],[12.64332,46.1355]]},"properties":{}},{"type":"Feature","geometry":{"type":"LineString","coordinates":[[12.64256,46.13578],[12.64237,46.13587],[12.64225,46.13604],[12.6424,46.13627],[12.64269,46.1365],[12.6428,46.13662],[12.64291,46.13683],[12.64304,46.13696],[12.64307,46.13711]]},"properties":{}},{"type":"Feature","geometry":{"type":"LineString","coordinates":[[12.64216,46.13463],[12.64241,46.13479],[12.64306,46.13533],[12.64332,46.1355],[12.6448,46.13583],[12.645,46.13598],[12.64585,46.1371],[12.64641,46.13724],[12.64666,46.13746],[12.64689,46.13779],[12.64693,46.13817],[12.64711,46.13866],[12.64755,46.13929],[12.64754,46.13941],[12.64863,46.14075],[12.64907,46.14108],[12.64936,46.14135],[12.64966,46.14206],[12.6499,46.1428],[12.65007,46.14313],[12.65024,46.1438]]},"properties":{}},{"type":"Feature","geometry":{"type":"LineString","coordinates":[[12.57951,46.18794],[12.57805,46.18915]]},"properties":{}},{"type":"Feature","geometry":{"type":"LineString","coordinates":[[12.6524,46.08247],[12.65254,46.08233],[12.65258,46.0822]]},"properties":{}},{"type":"Feature","geometry":{"type":"LineString","coordinates":[[12.65258,46.0822],[12.65262,46.08232],[12.65277,46.08247]]},"properties":{}},{"type":"Feature","geometry":{"type":"LineString","coordinates":[[12.65183,46.08247],[12.65226,46.08253]]},"properties":{}},{"type":"Feature","geometry":{"type":"LineString","coordinates":[[12.65295,46.08255],[12.65333,46.08251]]},"properties":{}},{"type":"Feature","geometry":{"type":"LineString","coordinates":[[12.65208,46.08273],[12.65183,46.08247]]},"properties":{}},{"type":"Feature","geometry":{"type":"LineString","coordinates":[[12.65333,46.08251],[12.6531,46.08275]]},"properties":{}},{"type":"Feature","geometry":{"type":"LineString","coordinates":[[12.65311,46.0829],[12.65306,46.08299],[12.65295,46.08309],[12.65271,46.08316],[12.65249,46.08317],[12.65235,46.08313],[12.65219,46.08304],[12.65208,46.08287],[12.65208,46.08273],[12.65226,46.08253],[12.6524,46.08247],[12.65267,46.08245],[12.65288,46.08251],[12.653,46.08259],[12.6531,46.08275],[12.65311,46.0829]]},"properties":{}},{"type":"Feature","geometry":{"type":"LineString","coordinates":[[12.65311,46.0829],[12.65322,46.08304],[12.65336,46.08312]]},"properties":{}},{"type":"Feature","geometry":{"type":"LineString","coordinates":[[12.65336,46.08312],[12.65295,46.08309]]},"properties":{}},{"type":"Feature","geometry":{"type":"LineString","coordinates":[[12.65247,46.08342],[12.65243,46.08326],[12.65235,46.08313]]},"properties":{}},{"type":"Feature","geometry":{"type":"LineString","coordinates":[[12.59143,46.07159],[12.59078,46.07077],[12.59061,46.07076],[12.59044,46.07065],[12.59027,46.06988],[12.59014,46.0697]]},"properties":{}},{"type":"Feature","geometry":{"type":"LineString","coordinates":[[12.59042,46.07058],[12.59031,46.07074],[12.59014,46.07086],[12.59016,46.07089]]},"properties":{}},{"type":"Feature","geometry":{"type":"LineString","coordinates":[[12.59408,46.07574],[12.59411,46.07567],[12.594,46.07546],[12.59341,46.07474],[12.59323,46.07458],[12.59312,46.07435],[12.59272,46.0737],[12.59251,46.07357],[12.59189,46.07287],[12.59178,46.07249],[12.5918,46.07212],[12.59167,46.07174]]},"properties":{}},{"type":"Feature","geometry":{"type":"LineString","coordinates":[[12.59352,46.0765],[12.59408,46.07574]]},"properties":{}},{"type":"Feature","geometry":{"type":"LineString","coordinates":[[12.59627,46.08999],[12.59658,46.09013]]},"properties":{}},{"type":"Feature","geometry":{"type":"LineString","coordinates":[[12.59658,46.09013],[12.59673,46.09024]]},"properties":{}},{"type":"Feature","geometry":{"type":"LineString","coordinates":[[12.59673,46.09024],[12.59697,46.09046],[12.59754,46.09142],[12.59771,46.09159],[12.59819,46.09196],[12.59844,46.09221],[12.59875,46.09263],[12.59967,46.09411],[12.59977,46.0943],[12.59978,46.09435],[12.59973,46.0944]]},"properties":{}},{"type":"Feature","geometry":{"type":"LineString","coordinates":[[12.59662,46.10236],[12.59676,46.10234]]},"properties":{}},{"type":"Feature","geometry":{"type":"LineString","coordinates":[[12.59697,46.10241],[12.59683,46.10248],[12.59673,46.10248],[12.59672,46.10241],[12.59676,46.10234],[12.59695,46.10225]]},"properties":{}},{"type":"Feature","geometry":{"type":"LineString","coordinates":[[12.59697,46.10241],[12.59704,46.10276],[12.59703,46.10284]]},"properties":{}},{"type":"Feature","geometry":{"type":"LineString","coordinates":[[12.65271,46.08316],[12.65253,46.08331],[12.65247,46.08342]]},"properties":{}},{"type":"Feature","geometry":{"type":"LineString","coordinates":[[12.68332,46.09721],[12.68358,46.09712]]},"properties":{}},{"type":"Feature","geometry":{"type":"LineString","coordinates":[[12.68358,46.09712],[12.68369,46.0973]]},"properties":{}},{"type":"Feature","geometry":{"type":"LineString","coordinates":[[12.68332,46.09735],[12.6832,46.09727],[12.68308,46.09724]]},"properties":{}},{"type":"Feature","geometry":{"type":"LineString","coordinates":[[12.68369,46.0973],[12.68357,46.09739],[12.68344,46.09741],[12.68332,46.09735],[12.68332,46.09721]]},"properties":{}},{"type":"Feature","geometry":{"type":"LineString","coordinates":[[12.68369,46.0973],[12.68381,46.09762],[12.68382,46.09771]]},"properties":{}},{"type":"Feature","geometry":{"type":"LineString","coordinates":[[12.68382,46.09771],[12.68375,46.09762],[12.68344,46.09741]]},"properties":{}},{"type":"Feature","geometry":{"type":"LineString","coordinates":[[12.65595,46.11757],[12.6562,46.11745]]},"properties":{}},{"type":"Feature","geometry":{"type":"LineString","coordinates":[[12.65575,46.11757],[12.65595,46.11757]]},"properties":{}},{"type":"Feature","geometry":{"type":"LineString","coordinates":[[12.6562,46.11745],[12.65583,46.11782]]},"properties":{}},{"type":"Feature","geometry":{"type":"LineString","coordinates":[[12.53509,46.03647],[12.53727,46.03664],[12.53815,46.03687],[12.53915,46.03703],[12.54007,46.03712],[12.54163,46.03735],[12.54313,46.03765],[12.54376,46.03774],[12.54441,46.038]]},"properties":{}},{"type":"Feature","geometry":{"type":"LineString","coordinates":[[12.53591,46.03919],[12.53599,46.03887],[12.53603,46.03856],[12.53597,46.03808],[12.53589,46.03775],[12.53571,46.03735],[12.53523,46.03664],[12.53517,46.03664]]},"properties":{}},{"type":"Feature","geometry":{"type":"LineString","coordinates":[[12.53566,46.03932],[12.53458,46.0397],[12.53397,46.04002],[12.53325,46.04048]]},"properties":{}},{"type":"Feature","geometry":{"type":"LineString","coordinates":[[12.52199,46.09035],[12.52173,46.0906],[12.52137,46.09108],[12.52134,46.09119],[12.52118,46.09137],[12.52091,46.0915],[12.52076,46.09152],[12.52063,46.09149],[12.52001,46.09111],[12.51973,46.09089]]},"properties":{}},{"type":"Feature","geometry":{"type":"LineString","coordinates":[[12.51973,46.09089],[12.51925,46.09058],[12.51855,46.09048],[12.51803,46.09028],[12.51673,46.08915],[12.51638,46.08889],[12.51624,46.08888]]},"properties":{}},{"type":"Feature","geometry":{"type":"LineString","coordinates":[[12.6558,46.11774],[12.65595,46.11757]]},"properties":{}},{"type":"Feature","geometry":{"type":"LineString","coordinates":[[12.65569,46.1178],[12.65575,46.11757]]},"properties":{}},{"type":"Feature","geometry":{"type":"LineString","coordinates":[[12.65569,46.1178],[12.6558,46.11774]]},"properties":{}},{"type":"Feature","geometry":{"type":"LineString","coordinates":[[12.65559,46.118],[12.65569,46.1178]]},"properties":{}},{"type":"Feature","geometry":{"type":"LineString","coordinates":[[12.65583,46.11782],[12.65565,46.11799]]},"properties":{}},{"type":"Feature","geometry":{"type":"LineString","coordinates":[[12.65565,46.11799],[12.65559,46.118]]},"properties":{}},{"type":"Feature","geometry":{"type":"LineString","coordinates":[[12.65588,46.11802],[12.65565,46.11799]]},"properties":{}},{"type":"Feature","geometry":{"type":"LineString","coordinates":[[12.65829,46.13163],[12.6583,46.13129],[12.65804,46.12878]]},"properties":{}},{"type":"Feature","geometry":{"type":"LineString","coordinates":[[12.69163,46.1435],[12.6916,46.14354],[12.69143,46.14349],[12.69086,46.14338],[12.68982,46.14298],[12.68955,46.14333],[12.68963,46.14348]]},"properties":{}},{"type":"Feature","geometry":{"type":"LineString","coordinates":[[12.69181,46.14348],[12.69177,46.14346],[12.69163,46.1435]]},"properties":{}},{"type":"Feature","geometry":{"type":"LineString","coordinates":[[12.64466,46.14909],[12.64471,46.14869],[12.64488,46.14849],[12.645,46.14826],[12.64519,46.14784],[12.64523,46.14767],[12.64531,46.14752],[12.64553,46.14687],[12.64563,46.14667],[12.64575,46.14654],[12.6459,46.14645],[12.64599,46.14628],[12.64594,46.14583],[12.64577,46.1456],[12.64571,46.14544],[12.64565,46.14498],[12.64542,46.14428],[12.64509,46.14363],[12.64497,46.14281],[12.64499,46.14258],[12.64493,46.14238],[12.64488,46.14195],[12.64482,46.14177],[12.64483,46.14153],[12.64479,46.14136],[12.64461,46.14091],[12.64452,46.1408],[12.64443,46.14052],[12.64428,46.14025],[12.64391,46.13926],[12.64378,46.13902],[12.64366,46.1384],[12.64348,46.13807],[12.64337,46.13751],[12.64299,46.137],[12.64223,46.1365],[12.64165,46.13629],[12.64067,46.13615],[12.64038,46.13607]]},"properties":{}},{"type":"Feature","geometry":{"type":"LineString","coordinates":[[12.64466,46.14909],[12.64379,46.14862]]},"properties":{}},{"type":"Feature","geometry":{"type":"LineString","coordinates":[[12.64115,46.15161],[12.64132,46.1514],[12.6414,46.15101],[12.64159,46.15073],[12.64233,46.15009],[12.64267,46.14984],[12.64326,46.14951],[12.64352,46.14931],[12.64369,46.14905],[12.64379,46.14862]]},"properties":{}},{"type":"Feature","geometry":{"type":"LineString","coordinates":[[12.60431,46.09743],[12.6053,46.09799],[12.60634,46.09843],[12.60765,46.09903],[12.6085,46.09967],[12.60936,46.10043],[12.60932,46.10061],[12.60918,46.10083],[12.60916,46.1009],[12.60918,46.10099],[12.60934,46.10119],[12.6095,46.10134],[12.61014,46.10214],[12.6107,46.10261],[12.61099,46.10289],[12.61142,46.10322],[12.61217,46.10385],[12.61222,46.10394],[12.61226,46.10422],[12.61252,46.10445],[12.61268,46.10466],[12.61295,46.10486],[12.61323,46.10491],[12.61349,46.10523],[12.6137,46.10537],[12.61371,46.1054],[12.61366,46.10552],[12.6138,46.10561],[12.61395,46.10585],[12.61372,46.10616],[12.61366,46.10631],[12.6136,46.10663],[12.61388,46.10692],[12.61394,46.10701],[12.614,46.10744],[12.61391,46.10772],[12.61392,46.10778],[12.61402,46.10785]]},"properties":{}},{"type":"Feature","geometry":{"type":"LineString","coordinates":[[12.59959,46.1876],[12.59916,46.18757],[12.59766,46.18731]]},"properties":{}},{"type":"Feature","geometry":{"type":"LineString","coordinates":[[12.59766,46.18731],[12.59722,46.1873],[12.59683,46.18738],[12.59667,46.18745],[12.59652,46.18764]]},"properties":{}},{"type":"Feature","geometry":{"type":"LineString","coordinates":[[12.59652,46.18764],[12.59633,46.18806]]},"properties":{}},{"type":"Feature","geometry":{"type":"LineString","coordinates":[[12.59633,46.18806],[12.59631,46.18809]]},"properties":{}},{"type":"Feature","geometry":{"type":"LineString","coordinates":[[12.58308,46.18845],[12.58228,46.18837],[12.58182,46.18829],[12.58139,46.18819],[12.58066,46.18796],[12.57992,46.1879],[12.57962,46.1879],[12.57951,46.18794]]},"properties":{}},{"type":"Feature","geometry":{"type":"LineString","coordinates":[[12.58355,46.18853],[12.58308,46.18845]]},"properties":{}},{"type":"Feature","geometry":{"type":"LineString","coordinates":[[12.58412,46.18863],[12.58355,46.18853]]},"properties":{}},{"type":"Feature","geometry":{"type":"LineString","coordinates":[[12.58512,46.18912],[12.58462,46.18884],[12.58412,46.18863]]},"properties":{}},{"type":"Feature","geometry":{"type":"LineString","coordinates":[[12.59631,46.18809],[12.59586,46.18825],[12.5956,46.1884],[12.59545,46.18854],[12.59538,46.18868],[12.59535,46.18889],[12.59536,46.18931],[12.59534,46.18946],[12.59523,46.18964],[12.59498,46.18982],[12.59438,46.1901],[12.59386,46.19025],[12.59327,46.19029]]},"properties":{}},{"type":"Feature","geometry":{"type":"LineString","coordinates":[[12.6687,46.14686],[12.66874,46.14664],[12.66865,46.14644],[12.66841,46.14614]]},"properties":{}},{"type":"Feature","geometry":{"type":"LineString","coordinates":[[12.69864,46.14707],[12.69668,46.14604]]},"properties":{}},{"type":"Feature","geometry":{"type":"LineString","coordinates":[[12.6687,46.14686],[12.66905,46.14675],[12.66937,46.14671]]},"properties":{}},{"type":"Feature","geometry":{"type":"LineString","coordinates":[[12.66937,46.14671],[12.66941,46.14684],[12.66939,46.14696],[12.66927,46.14707],[12.66913,46.14714],[12.66816,46.1472]]},"properties":{}},{"type":"Feature","geometry":{"type":"LineString","coordinates":[[12.66816,46.1472],[12.66844,46.14712],[12.66859,46.14701],[12.6687,46.14686]]},"properties":{}},{"type":"Feature","geometry":{"type":"LineString","coordinates":[[12.69877,46.14714],[12.69864,46.14707]]},"properties":{}},{"type":"Feature","geometry":{"type":"LineString","coordinates":[[12.6989,46.14721],[12.69877,46.14714]]},"properties":{}},{"type":"Feature","geometry":{"type":"LineString","coordinates":[[12.69906,46.14729],[12.6989,46.14721]]},"properties":{}},{"type":"Feature","geometry":{"type":"LineString","coordinates":[[12.67096,46.1475],[12.67023,46.14729],[12.6697,46.14719],[12.66913,46.14714]]},"properties":{}},{"type":"Feature","geometry":{"type":"LineString","coordinates":[[12.69842,46.14993],[12.69947,46.14881],[12.70047,46.14792],[12.70113,46.14719],[12.70177,46.14655],[12.70201,46.14618],[12.70297,46.14505]]},"properties":{}},{"type":"Feature","geometry":{"type":"LineString","coordinates":[[12.70037,46.14798],[12.69906,46.14729]]},"properties":{}},{"type":"Feature","geometry":{"type":"LineString","coordinates":[[12.69679,46.14677],[12.69413,46.14921]]},"properties":{}},{"type":"Feature","geometry":{"type":"LineString","coordinates":[[12.70043,46.14801],[12.70037,46.14798]]},"properties":{}},{"type":"Feature","geometry":{"type":"LineString","coordinates":[[12.65379,46.14744],[12.65393,46.14839],[12.654,46.14852],[12.65548,46.1496]]},"properties":{}},{"type":"Feature","geometry":{"type":"LineString","coordinates":[[12.6576,46.15179],[12.6557,46.14979],[12.65548,46.1496]]},"properties":{}},{"type":"Feature","geometry":{"type":"LineString","coordinates":[[12.66185,46.15244],[12.66191,46.15254],[12.66185,46.15262],[12.6617,46.15264],[12.66159,46.15257],[12.6616,46.15248],[12.66165,46.15243],[12.66177,46.15241],[12.66185,46.15244]]},"properties":{}},{"type":"Feature","geometry":{"type":"LineString","coordinates":[[12.68358,46.15188],[12.6896,46.15358],[12.69005,46.15365],[12.69029,46.15363]]},"properties":{}},{"type":"Feature","geometry":{"type":"LineString","coordinates":[[12.69771,46.15066],[12.69679,46.15163],[12.69622,46.15231],[12.69581,46.153],[12.69545,46.1537],[12.69521,46.15407],[12.69471,46.15469],[12.69446,46.15506]]},"properties":{}},{"type":"Feature","geometry":{"type":"LineString","coordinates":[[12.68987,46.15427],[12.68957,46.15407],[12.6886,46.15369],[12.68492,46.1524],[12.68358,46.15188]]},"properties":{}},{"type":"Feature","geometry":{"type":"LineString","coordinates":[[12.65853,46.15306],[12.65882,46.15318],[12.65908,46.15319]]},"properties":{}},{"type":"Feature","geometry":{"type":"LineString","coordinates":[[12.5862,46.18986],[12.58512,46.18912]]},"properties":{}},{"type":"Feature","geometry":{"type":"LineString","coordinates":[[12.59112,46.18959],[12.59062,46.18946],[12.58952,46.18943],[12.58871,46.18952],[12.58845,46.18963]]},"properties":{}},{"type":"Feature","geometry":{"type":"LineString","coordinates":[[12.58845,46.18963],[12.58813,46.18989],[12.58782,46.18997]]},"properties":{}},{"type":"Feature","geometry":{"type":"LineString","coordinates":[[12.59255,46.19007],[12.59225,46.18994],[12.59112,46.18959]]},"properties":{}},{"type":"Feature","geometry":{"type":"LineString","coordinates":[[12.5873,46.19003],[12.58687,46.19005],[12.58666,46.19003],[12.58637,46.18995],[12.5862,46.18986]]},"properties":{}},{"type":"Feature","geometry":{"type":"LineString","coordinates":[[12.58782,46.18997],[12.5873,46.19003]]},"properties":{}},{"type":"Feature","geometry":{"type":"LineString","coordinates":[[12.59292,46.19029],[12.59255,46.19007]]},"properties":{}},{"type":"Feature","geometry":{"type":"LineString","coordinates":[[12.59327,46.19029],[12.59292,46.19029]]},"properties":{}},{"type":"Feature","geometry":{"type":"LineString","coordinates":[[12.59276,46.19055],[12.59274,46.19051],[12.59278,46.19045],[12.59292,46.19029]]},"properties":{}},{"type":"Feature","geometry":{"type":"LineString","coordinates":[[12.5929,46.19072],[12.59276,46.19055]]},"properties":{}},{"type":"Feature","geometry":{"type":"LineString","coordinates":[[12.57805,46.18915],[12.57783,46.18938]]},"properties":{}},{"type":"Feature","geometry":{"type":"LineString","coordinates":[[12.57734,46.19019],[12.57728,46.19018],[12.57715,46.1904],[12.57686,46.19052],[12.57668,46.19053],[12.57638,46.19044],[12.57597,46.1904],[12.57529,46.19057],[12.57491,46.19052],[12.57477,46.19063],[12.57457,46.19069],[12.57426,46.1907],[12.57415,46.19077],[12.57402,46.19096],[12.57398,46.19115],[12.57388,46.19131],[12.57372,46.19144],[12.57359,46.19149]]},"properties":{}},{"type":"Feature","geometry":{"type":"LineString","coordinates":[[12.57349,46.19151],[12.57291,46.19111],[12.5727,46.19092],[12.57152,46.19059],[12.57145,46.19062],[12.57139,46.1908],[12.57128,46.19084],[12.57074,46.19083],[12.57038,46.1908],[12.56959,46.19093],[12.56935,46.19095],[12.56912,46.19089],[12.56871,46.19096],[12.56848,46.19102],[12.56831,46.19111],[12.56831,46.19118],[12.56839,46.19124],[12.56844,46.19134],[12.56834,46.19144],[12.56757,46.19144],[12.56745,46.19137],[12.56724,46.19119],[12.56708,46.19116],[12.56668,46.19118],[12.56579,46.1913],[12.56555,46.19125]]},"properties":{}},{"type":"Feature","geometry":{"type":"LineString","coordinates":[[12.59382,46.19255],[12.59379,46.1925],[12.59324,46.19216],[12.59308,46.19202],[12.5928,46.19159],[12.59281,46.1913],[12.59275,46.191],[12.59289,46.1908],[12.5929,46.19072]]},"properties":{}},{"type":"Feature","geometry":{"type":"LineString","coordinates":[[12.59385,46.19267],[12.59382,46.19255]]},"properties":{}},{"type":"Feature","geometry":{"type":"LineString","coordinates":[[12.59521,46.19326],[12.59504,46.19309],[12.59489,46.193],[12.59395,46.19274],[12.59385,46.19267]]},"properties":{}},{"type":"Feature","geometry":{"type":"LineString","coordinates":[[12.65865,46.15328],[12.65882,46.15318]]},"properties":{}},{"type":"Feature","geometry":{"type":"LineString","coordinates":[[12.65887,46.15331],[12.65865,46.15328]]},"properties":{}},{"type":"Feature","geometry":{"type":"LineString","coordinates":[[12.65908,46.15319],[12.65887,46.15331],[12.65875,46.15347]]},"properties":{}},{"type":"Feature","geometry":{"type":"LineString","coordinates":[[12.65789,46.15349],[12.65673,46.15406],[12.65595,46.15462]]},"properties":{}},{"type":"Feature","geometry":{"type":"LineString","coordinates":[[12.69089,46.15517],[12.69056,46.15509],[12.69026,46.15494],[12.69012,46.15482],[12.68995,46.15462],[12.68987,46.15438],[12.68988,46.15414],[12.68995,46.15398],[12.69011,46.15377],[12.69037,46.15358],[12.69066,46.15347],[12.69102,46.1534],[12.69123,46.1534],[12.69155,46.15344],[12.69183,46.15353],[12.69206,46.15365],[12.69221,46.15377],[12.69235,46.15395],[12.69245,46.15426],[12.69241,46.15451],[12.69222,46.1548],[12.69194,46.155],[12.69166,46.15511],[12.69119,46.15518],[12.69089,46.15517]]},"properties":{}},{"type":"Feature","geometry":{"type":"LineString","coordinates":[[12.69975,46.15704],[12.69976,46.15693],[12.69949,46.15683],[12.69874,46.15658],[12.69825,46.15637],[12.69803,46.15634],[12.69765,46.15618],[12.69472,46.15515]]},"properties":{}},{"type":"Feature","geometry":{"type":"LineString","coordinates":[[12.7005,46.15709],[12.7004,46.15708],[12.70033,46.15691],[12.70029,46.15688],[12.70017,46.15687],[12.69976,46.15693]]},"properties":{}},{"type":"Feature","geometry":{"type":"LineString","coordinates":[[12.70625,46.16035],[12.70444,46.16052],[12.70411,46.15915],[12.70412,46.15904],[12.70406,46.15842],[12.70402,46.15838],[12.698,46.1566],[12.69398,46.15547],[12.6939,46.15547],[12.69377,46.15553]]},"properties":{}},{"type":"Feature","geometry":{"type":"LineString","coordinates":[[12.6612,46.16304],[12.66108,46.16264],[12.66107,46.16228],[12.66111,46.16202],[12.66138,46.16146],[12.66146,46.16106]]},"properties":{}}]}