{"type":"FeatureCollection","features":[{"type":"Feature","geometry":{"type":"LineString","coordinates":[[12.70802,46.56852],[12.70797,46.56858]]},"properties":{}},{"type":"Feature","geometry":{"type":"LineString","coordinates":[[12.70797,46.56858],[12.7078,46.56872],[12.70775,46.56882],[12.70778,46.56923],[12.70784,46.5695],[12.70781,46.56954]]},"properties":{}},{"type":"Feature","geometry":{"type":"LineString","coordinates":[[12.70046,46.56699],[12.70059,46.56704]]},"properties":{}},{"type":"Feature","geometry":{"type":"LineString","coordinates":[[12.70059,46.56704],[12.70175,46.56745]]},"properties":{}},{"type":"Feature","geometry":{"type":"LineString","coordinates":[[12.70175,46.56745],[12.70216,46.56756],[12.70295,46.56792],[12.70348,46.5681],[12.70494,46.56836],[12.70582,46.56848],[12.70662,46.5685],[12.70677,46.56848],[12.7076,46.56815],[12.70782,46.56812],[12.70792,46.56816],[12.70801,46.56826],[12.70805,46.5684],[12.70802,46.56852]]},"properties":{}},{"type":"Feature","geometry":{"type":"LineString","coordinates":[[12.70036,46.56695],[12.70046,46.56699]]},"properties":{}}]}