{"type":"FeatureCollection","features":[{"type":"Feature","geometry":{"type":"LineString","coordinates":[[12.7314,37.57171],[12.72969,37.57122],[12.72633,37.56978],[12.7258,37.56963],[12.72519,37.56959],[12.72482,37.56965],[12.72466,37.56981],[12.72436,37.57061]]},"properties":{}},{"type":"Feature","geometry":{"type":"LineString","coordinates":[[12.73141,37.57171],[12.7309,37.57388]]},"properties":{}},{"type":"Feature","geometry":{"type":"LineString","coordinates":[[12.72589,37.57574],[12.72279,37.57497]]},"properties":{}},{"type":"Feature","geometry":{"type":"LineString","coordinates":[[12.74281,37.57697],[12.74291,37.57682],[12.74297,37.57678]]},"properties":{}},{"type":"Feature","geometry":{"type":"LineString","coordinates":[[12.74284,37.5772],[12.74281,37.57697],[12.74268,37.57654]]},"properties":{}},{"type":"Feature","geometry":{"type":"LineString","coordinates":[[12.74297,37.57678],[12.74288,37.57712]]},"properties":{}},{"type":"Feature","geometry":{"type":"LineString","coordinates":[[12.74343,37.57697],[12.74302,37.57701],[12.74288,37.57712],[12.74284,37.5772]]},"properties":{}},{"type":"Feature","geometry":{"type":"LineString","coordinates":[[12.73074,37.61702],[12.73082,37.61691],[12.73089,37.61667]]},"properties":{}},{"type":"Feature","geometry":{"type":"LineString","coordinates":[[12.7309,37.61676],[12.73103,37.6169],[12.73112,37.61693]]},"properties":{}},{"type":"Feature","geometry":{"type":"LineString","coordinates":[[12.73112,37.61693],[12.7313,37.61691]]},"properties":{}},{"type":"Feature","geometry":{"type":"LineString","coordinates":[[12.7313,37.61691],[12.73118,37.61701]]},"properties":{}},{"type":"Feature","geometry":{"type":"LineString","coordinates":[[12.73099,37.61703],[12.73112,37.61693]]},"properties":{}},{"type":"Feature","geometry":{"type":"LineString","coordinates":[[12.73074,37.61702],[12.73086,37.617],[12.73099,37.61703]]},"properties":{}},{"type":"Feature","geometry":{"type":"LineString","coordinates":[[12.73118,37.61701],[12.73099,37.61703]]},"properties":{}},{"type":"Feature","geometry":{"type":"LineString","coordinates":[[12.73061,37.61708],[12.73074,37.61702]]},"properties":{}},{"type":"Feature","geometry":{"type":"LineString","coordinates":[[12.73099,37.61703],[12.73077,37.61712]]},"properties":{}},{"type":"Feature","geometry":{"type":"LineString","coordinates":[[12.73077,37.61712],[12.73061,37.61708]]},"properties":{}},{"type":"Feature","geometry":{"type":"LineString","coordinates":[[12.73118,37.61701],[12.73115,37.6171],[12.73118,37.61731]]},"properties":{}},{"type":"Feature","geometry":{"type":"LineString","coordinates":[[12.7313,37.61746],[12.73077,37.61712]]},"properties":{}},{"type":"Feature","geometry":{"type":"LineString","coordinates":[[12.7468,37.63384],[12.74498,37.63033]]},"properties":{}},{"type":"Feature","geometry":{"type":"LineString","coordinates":[[12.74723,37.63359],[12.74763,37.63325]]},"properties":{}},{"type":"Feature","geometry":{"type":"LineString","coordinates":[[12.7468,37.63384],[12.74723,37.63359]]},"properties":{}},{"type":"Feature","geometry":{"type":"LineString","coordinates":[[12.74436,37.6347],[12.74595,37.63418],[12.7468,37.63384]]},"properties":{}},{"type":"Feature","geometry":{"type":"LineString","coordinates":[[12.74778,37.63575],[12.7468,37.63384]]},"properties":{}},{"type":"Feature","geometry":{"type":"LineString","coordinates":[[12.73843,37.63604],[12.73868,37.63733]]},"properties":{}},{"type":"Feature","geometry":{"type":"LineString","coordinates":[[12.75,37.63542],[12.7497,37.63518]]},"properties":{}},{"type":"Feature","geometry":{"type":"LineString","coordinates":[[12.73868,37.63733],[12.73884,37.63804],[12.73892,37.63816],[12.74061,37.63918],[12.7412,37.63958],[12.74138,37.63967],[12.74156,37.63972],[12.74197,37.6397],[12.743,37.63934],[12.74324,37.63928],[12.74355,37.63929],[12.74377,37.63933],[12.74533,37.64007],[12.74659,37.6408]]},"properties":{}},{"type":"Feature","geometry":{"type":"LineString","coordinates":[[12.7464,37.6408],[12.74539,37.6402],[12.74376,37.63942],[12.74349,37.63936],[12.74328,37.63936],[12.74306,37.6394],[12.74192,37.63979],[12.74158,37.63979],[12.74128,37.63971],[12.73953,37.63861],[12.73884,37.63822],[12.73835,37.63802],[12.73754,37.63786],[12.73688,37.63783],[12.73673,37.63776],[12.73664,37.63767],[12.73656,37.63735]]},"properties":{}},{"type":"Feature","geometry":{"type":"LineString","coordinates":[[12.74659,37.6408],[12.7467,37.64083],[12.74685,37.64083]]},"properties":{}},{"type":"Feature","geometry":{"type":"LineString","coordinates":[[12.74659,37.6408],[12.7467,37.64097]]},"properties":{}},{"type":"Feature","geometry":{"type":"LineString","coordinates":[[12.7467,37.64097],[12.7464,37.6408]]},"properties":{}},{"type":"Feature","geometry":{"type":"LineString","coordinates":[[12.74648,37.64118],[12.7465,37.641],[12.7464,37.6408]]},"properties":{}},{"type":"Feature","geometry":{"type":"LineString","coordinates":[[12.54605,37.70194],[12.54622,37.70195],[12.54633,37.70205]]},"properties":{}},{"type":"Feature","geometry":{"type":"LineString","coordinates":[[12.54638,37.70169],[12.54632,37.70187],[12.54633,37.70205],[12.54651,37.7023]]},"properties":{}},{"type":"Feature","geometry":{"type":"LineString","coordinates":[[12.54611,37.70217],[12.54603,37.70207],[12.54605,37.70194]]},"properties":{}},{"type":"Feature","geometry":{"type":"LineString","coordinates":[[12.54651,37.7023],[12.54611,37.70217],[12.54567,37.70222]]},"properties":{}},{"type":"Feature","geometry":{"type":"LineString","coordinates":[[12.52677,37.71589],[12.52699,37.7159],[12.52733,37.71572]]},"properties":{}},{"type":"Feature","geometry":{"type":"LineString","coordinates":[[12.52661,37.71583],[12.52677,37.71589]]},"properties":{}},{"type":"Feature","geometry":{"type":"LineString","coordinates":[[12.52672,37.71598],[12.52661,37.71583]]},"properties":{}},{"type":"Feature","geometry":{"type":"LineString","coordinates":[[12.52677,37.71589],[12.52687,37.71596],[12.52691,37.71604]]},"properties":{}},{"type":"Feature","geometry":{"type":"LineString","coordinates":[[12.52691,37.71604],[12.52672,37.71598]]},"properties":{}},{"type":"Feature","geometry":{"type":"LineString","coordinates":[[12.52658,37.71629],[12.5267,37.71614],[12.52672,37.71598]]},"properties":{}},{"type":"Feature","geometry":{"type":"LineString","coordinates":[[12.57132,37.65802],[12.57227,37.65805],[12.57261,37.65794],[12.57317,37.65765],[12.57347,37.65757]]},"properties":{}},{"type":"Feature","geometry":{"type":"LineString","coordinates":[[12.57171,37.65819],[12.57164,37.6581],[12.57157,37.65807],[12.57132,37.65802]]},"properties":{}},{"type":"Feature","geometry":{"type":"LineString","coordinates":[[12.57175,37.65804],[12.57188,37.65813],[12.57194,37.65821],[12.57196,37.65833]]},"properties":{}},{"type":"Feature","geometry":{"type":"LineString","coordinates":[[12.57196,37.65833],[12.57185,37.65829],[12.57171,37.65819]]},"properties":{}},{"type":"Feature","geometry":{"type":"LineString","coordinates":[[12.57099,37.65888],[12.57114,37.65871],[12.57164,37.65841],[12.57171,37.6583],[12.57171,37.65819]]},"properties":{}},{"type":"Feature","geometry":{"type":"LineString","coordinates":[[12.54943,37.66306],[12.54953,37.66305],[12.55129,37.66335],[12.55279,37.66356],[12.55359,37.66362],[12.55403,37.66361],[12.55741,37.66331],[12.55875,37.66328],[12.56045,37.66296],[12.56227,37.66231],[12.56476,37.66174],[12.56666,37.66122],[12.56758,37.66081],[12.56828,37.6604],[12.56939,37.65964],[12.57095,37.65885],[12.57111,37.65868],[12.57119,37.65864],[12.57128,37.65875],[12.57318,37.65779],[12.5735,37.65761],[12.57343,37.65751],[12.57378,37.65738],[12.57457,37.65688],[12.57534,37.65617],[12.57596,37.65573],[12.57874,37.6544],[12.57905,37.65422]]},"properties":{}},{"type":"Feature","geometry":{"type":"LineString","coordinates":[[12.57024,37.65925],[12.56956,37.65957],[12.56782,37.6607],[12.56709,37.66108],[12.56666,37.66125],[12.56476,37.66177],[12.56227,37.66234],[12.56045,37.66299],[12.55867,37.66331],[12.55745,37.66334],[12.55378,37.66366],[12.55304,37.66363],[12.55286,37.66366]]},"properties":{}},{"type":"Feature","geometry":{"type":"LineString","coordinates":[[12.61438,37.6347],[12.61465,37.63471]]},"properties":{}},{"type":"Feature","geometry":{"type":"LineString","coordinates":[[12.61465,37.63471],[12.61447,37.63483]]},"properties":{}},{"type":"Feature","geometry":{"type":"LineString","coordinates":[[12.61355,37.63615],[12.61388,37.63619]]},"properties":{}},{"type":"Feature","geometry":{"type":"LineString","coordinates":[[12.61356,37.63616],[12.61368,37.63628]]},"properties":{}},{"type":"Feature","geometry":{"type":"LineString","coordinates":[[12.61331,37.63644],[12.61316,37.6364],[12.61306,37.63629],[12.61305,37.63618],[12.61317,37.63605],[12.6133,37.63602],[12.61349,37.63608],[12.61357,37.63619],[12.61353,37.63634]]},"properties":{}},{"type":"Feature","geometry":{"type":"LineString","coordinates":[[12.61388,37.63619],[12.61368,37.63628]]},"properties":{}},{"type":"Feature","geometry":{"type":"LineString","coordinates":[[12.61368,37.63628],[12.61353,37.63634]]},"properties":{}},{"type":"Feature","geometry":{"type":"LineString","coordinates":[[12.61377,37.63625],[12.61376,37.6364]]},"properties":{}},{"type":"Feature","geometry":{"type":"LineString","coordinates":[[12.61368,37.63628],[12.61376,37.6364]]},"properties":{}},{"type":"Feature","geometry":{"type":"LineString","coordinates":[[12.61353,37.63634],[12.6134,37.63642],[12.61331,37.63644]]},"properties":{}},{"type":"Feature","geometry":{"type":"LineString","coordinates":[[12.61294,37.6367],[12.61303,37.63655],[12.61306,37.63629]]},"properties":{}},{"type":"Feature","geometry":{"type":"LineString","coordinates":[[12.61388,37.63666],[12.61364,37.63646],[12.61348,37.63639]]},"properties":{}},{"type":"Feature","geometry":{"type":"LineString","coordinates":[[12.61376,37.6364],[12.61388,37.63666]]},"properties":{}},{"type":"Feature","geometry":{"type":"LineString","coordinates":[[12.61331,37.63644],[12.61294,37.6367]]},"properties":{}},{"type":"Feature","geometry":{"type":"LineString","coordinates":[[12.61486,37.6445],[12.61494,37.64445],[12.615,37.6445],[12.61493,37.64455],[12.61489,37.64454],[12.61486,37.6445]]},"properties":{}},{"type":"Feature","geometry":{"type":"LineString","coordinates":[[12.61322,37.64575],[12.61349,37.64593]]},"properties":{}},{"type":"Feature","geometry":{"type":"LineString","coordinates":[[12.61344,37.64594],[12.61361,37.64578]]},"properties":{}},{"type":"Feature","geometry":{"type":"LineString","coordinates":[[12.61341,37.64599],[12.61322,37.64575]]},"properties":{}},{"type":"Feature","geometry":{"type":"LineString","coordinates":[[12.61349,37.64593],[12.61353,37.64597],[12.61351,37.64602]]},"properties":{}},{"type":"Feature","geometry":{"type":"LineString","coordinates":[[12.5872,37.65423],[12.58702,37.65289],[12.58694,37.65257],[12.58673,37.65221],[12.58641,37.6518],[12.58643,37.65173],[12.58656,37.65156],[12.58677,37.65138],[12.58727,37.65109],[12.58766,37.65093],[12.59186,37.64979],[12.59359,37.64903],[12.59492,37.64815],[12.59589,37.64737],[12.59658,37.64689],[12.5965,37.64674],[12.59674,37.64658],[12.59679,37.6465],[12.59861,37.64536],[12.59917,37.64507],[12.60139,37.64401],[12.60164,37.64413],[12.60184,37.64401],[12.60294,37.64314],[12.60344,37.64285],[12.60396,37.64256],[12.60603,37.6417],[12.60658,37.64143],[12.60806,37.64025],[12.60942,37.63945],[12.61116,37.63829],[12.61166,37.63789],[12.61273,37.63686],[12.61294,37.6367]]},"properties":{}},{"type":"Feature","geometry":{"type":"LineString","coordinates":[[12.5942,37.64869],[12.59427,37.64865]]},"properties":{}},{"type":"Feature","geometry":{"type":"LineString","coordinates":[[12.59427,37.64865],[12.59437,37.64869],[12.59434,37.64878],[12.59423,37.64877],[12.5942,37.64869]]},"properties":{}},{"type":"Feature","geometry":{"type":"LineString","coordinates":[[12.59495,37.64888],[12.59489,37.64884],[12.59449,37.64879],[12.59437,37.64874]]},"properties":{}},{"type":"Feature","geometry":{"type":"LineString","coordinates":[[12.59381,37.64897],[12.5942,37.64869]]},"properties":{}},{"type":"Feature","geometry":{"type":"LineString","coordinates":[[12.59426,37.64879],[12.59381,37.64897]]},"properties":{}},{"type":"Feature","geometry":{"type":"LineString","coordinates":[[12.59244,37.65201],[12.59168,37.65084]]},"properties":{}},{"type":"Feature","geometry":{"type":"LineString","coordinates":[[12.58645,37.65177],[12.58665,37.65156]]},"properties":{}},{"type":"Feature","geometry":{"type":"LineString","coordinates":[[12.58665,37.65156],[12.58711,37.65214],[12.58728,37.65251],[12.58749,37.65309]]},"properties":{}},{"type":"Feature","geometry":{"type":"LineString","coordinates":[[12.5871,37.65315],[12.58701,37.65265],[12.58695,37.6525],[12.58645,37.65177]]},"properties":{}},{"type":"Feature","geometry":{"type":"LineString","coordinates":[[12.59322,37.6532],[12.59244,37.65201]]},"properties":{}},{"type":"Feature","geometry":{"type":"LineString","coordinates":[[12.57954,37.65365],[12.57958,37.6536],[12.58007,37.65329],[12.58037,37.65316],[12.58183,37.65286],[12.58358,37.6523],[12.58361,37.65231],[12.58363,37.65235],[12.58406,37.65379],[12.58588,37.6532],[12.58637,37.65416],[12.58604,37.65442]]},"properties":{}},{"type":"Feature","geometry":{"type":"LineString","coordinates":[[12.58749,37.65309],[12.58759,37.6536],[12.58719,37.65376]]},"properties":{}},{"type":"Feature","geometry":{"type":"LineString","coordinates":[[12.58719,37.65376],[12.5871,37.65315]]},"properties":{}},{"type":"Feature","geometry":{"type":"LineString","coordinates":[[12.58866,37.65628],[12.58932,37.65572],[12.58995,37.65527]]},"properties":{}},{"type":"Feature","geometry":{"type":"LineString","coordinates":[[12.59042,37.65497],[12.59066,37.65522],[12.59348,37.65653],[12.5937,37.65661]]},"properties":{}},{"type":"Feature","geometry":{"type":"LineString","coordinates":[[12.58995,37.65527],[12.58902,37.65612],[12.58877,37.65639]]},"properties":{}},{"type":"Feature","geometry":{"type":"LineString","coordinates":[[12.58432,37.65455],[12.58534,37.65798]]},"properties":{}},{"type":"Feature","geometry":{"type":"LineString","coordinates":[[12.58759,37.65716],[12.58866,37.65628]]},"properties":{}},{"type":"Feature","geometry":{"type":"LineString","coordinates":[[12.59423,37.65677],[12.59543,37.65752]]},"properties":{}},{"type":"Feature","geometry":{"type":"LineString","coordinates":[[12.58691,37.65771],[12.58759,37.65716]]},"properties":{}},{"type":"Feature","geometry":{"type":"LineString","coordinates":[[12.60134,37.65717],[12.60061,37.65792]]},"properties":{}},{"type":"Feature","geometry":{"type":"LineString","coordinates":[[12.58598,37.65789],[12.58683,37.65775]]},"properties":{}},{"type":"Feature","geometry":{"type":"LineString","coordinates":[[12.58534,37.65798],[12.58598,37.65789]]},"properties":{}},{"type":"Feature","geometry":{"type":"LineString","coordinates":[[12.59821,37.65782],[12.59991,37.65811]]},"properties":{}},{"type":"Feature","geometry":{"type":"LineString","coordinates":[[12.58476,37.65808],[12.58534,37.65798]]},"properties":{}},{"type":"Feature","geometry":{"type":"LineString","coordinates":[[12.59991,37.65811],[12.60022,37.65816]]},"properties":{}},{"type":"Feature","geometry":{"type":"LineString","coordinates":[[12.58694,37.65813],[12.58682,37.65816]]},"properties":{}},{"type":"Feature","geometry":{"type":"LineString","coordinates":[[12.58682,37.65816],[12.58601,37.6583]]},"properties":{}},{"type":"Feature","geometry":{"type":"LineString","coordinates":[[12.58732,37.65864],[12.58694,37.65813]]},"properties":{}},{"type":"Feature","geometry":{"type":"LineString","coordinates":[[12.58239,37.67548],[12.58184,37.67541],[12.58111,37.67514],[12.58015,37.6745]]},"properties":{}},{"type":"Feature","geometry":{"type":"LineString","coordinates":[[12.58343,37.67519],[12.58364,37.67517],[12.58444,37.67486]]},"properties":{}},{"type":"Feature","geometry":{"type":"LineString","coordinates":[[12.58303,37.67504],[12.58321,37.67518],[12.58328,37.67519]]},"properties":{}},{"type":"Feature","geometry":{"type":"LineString","coordinates":[[12.58444,37.67486],[12.58368,37.67522],[12.58355,37.67539]]},"properties":{}},{"type":"Feature","geometry":{"type":"LineString","coordinates":[[12.58197,37.67558],[12.58192,37.6755],[12.58185,37.67524],[12.58185,37.67504],[12.58194,37.67489],[12.58203,37.67482],[12.58222,37.67475],[12.58243,37.67475],[12.58262,37.67483],[12.58272,37.67492],[12.58281,37.67507],[12.58279,37.67521],[12.58269,37.67537],[12.58253,37.67547],[12.58239,37.67548]]},"properties":{}},{"type":"Feature","geometry":{"type":"LineString","coordinates":[[12.58315,37.67531],[12.58303,37.67504]]},"properties":{}},{"type":"Feature","geometry":{"type":"LineString","coordinates":[[12.58242,37.67541],[12.58253,37.6754],[12.58262,37.67533],[12.5827,37.67522],[12.58273,37.67512],[12.58265,37.67494],[12.58249,37.67484],[12.58231,37.6748],[12.58203,37.6749],[12.58193,37.67503],[12.58191,37.67511],[12.58196,37.67543],[12.5821,37.6756],[12.58237,37.67564]]},"properties":{}},{"type":"Feature","geometry":{"type":"LineString","coordinates":[[12.58315,37.67532],[12.58325,37.67521],[12.58343,37.67519]]},"properties":{}},{"type":"Feature","geometry":{"type":"LineString","coordinates":[[12.58343,37.67519],[12.58354,37.67527],[12.58355,37.67539]]},"properties":{}},{"type":"Feature","geometry":{"type":"LineString","coordinates":[[12.58329,37.6755],[12.58318,37.67543],[12.58315,37.67532]]},"properties":{}},{"type":"Feature","geometry":{"type":"LineString","coordinates":[[12.58355,37.67539],[12.58345,37.67549],[12.58329,37.6755]]},"properties":{}},{"type":"Feature","geometry":{"type":"LineString","coordinates":[[12.58252,37.67563],[12.58283,37.67557],[12.58302,37.67545],[12.58315,37.67532]]},"properties":{}},{"type":"Feature","geometry":{"type":"LineString","coordinates":[[12.58218,37.6758],[12.58197,37.67558]]},"properties":{}},{"type":"Feature","geometry":{"type":"LineString","coordinates":[[12.58223,37.67576],[12.58232,37.67566],[12.58252,37.67563]]},"properties":{}},{"type":"Feature","geometry":{"type":"LineString","coordinates":[[12.58329,37.6755],[12.58297,37.67561],[12.58285,37.67569],[12.5827,37.67589]]},"properties":{}},{"type":"Feature","geometry":{"type":"LineString","coordinates":[[12.58252,37.67563],[12.58263,37.67567],[12.58269,37.67575],[12.5827,37.67589]]},"properties":{}},{"type":"Feature","geometry":{"type":"LineString","coordinates":[[12.58175,37.67606],[12.58198,37.67589],[12.58201,37.67581],[12.58202,37.67574],[12.58197,37.67558]]},"properties":{}},{"type":"Feature","geometry":{"type":"LineString","coordinates":[[12.58232,37.67599],[12.58223,37.67589],[12.58223,37.67576]]},"properties":{}},{"type":"Feature","geometry":{"type":"LineString","coordinates":[[12.5827,37.67589],[12.58263,37.67597],[12.58253,37.67602],[12.58232,37.67599]]},"properties":{}},{"type":"Feature","geometry":{"type":"LineString","coordinates":[[12.65082,37.57855],[12.65108,37.57871],[12.65121,37.57886]]},"properties":{}},{"type":"Feature","geometry":{"type":"LineString","coordinates":[[12.65108,37.57871],[12.65129,37.57872],[12.65146,37.57869]]},"properties":{}},{"type":"Feature","geometry":{"type":"LineString","coordinates":[[12.65097,37.57909],[12.65099,37.57885],[12.65082,37.57855]]},"properties":{}},{"type":"Feature","geometry":{"type":"LineString","coordinates":[[12.65116,37.57891],[12.65099,37.57885]]},"properties":{}},{"type":"Feature","geometry":{"type":"LineString","coordinates":[[12.61351,37.64602],[12.61344,37.64603],[12.61341,37.64599],[12.61342,37.64594],[12.61349,37.64593]]},"properties":{}},{"type":"Feature","geometry":{"type":"LineString","coordinates":[[12.61337,37.64641],[12.61342,37.64601]]},"properties":{}},{"type":"Feature","geometry":{"type":"LineString","coordinates":[[12.61351,37.64602],[12.61337,37.64641]]},"properties":{}}]}