{"type":"FeatureCollection","features":[{"type":"Feature","geometry":{"type":"LineString","coordinates":[[12.64822,43.61411],[12.64818,43.61409],[12.64813,43.6139]]},"properties":{}},{"type":"Feature","geometry":{"type":"LineString","coordinates":[[12.65632,43.61439],[12.65648,43.61432],[12.6574,43.61429],[12.65747,43.61424],[12.65768,43.61388],[12.65776,43.61386],[12.65822,43.61387]]},"properties":{}},{"type":"Feature","geometry":{"type":"LineString","coordinates":[[12.64965,43.61439],[12.64896,43.61429],[12.64822,43.61411]]},"properties":{}},{"type":"Feature","geometry":{"type":"LineString","coordinates":[[12.66392,43.61433],[12.66198,43.61436]]},"properties":{}},{"type":"Feature","geometry":{"type":"LineString","coordinates":[[12.64965,43.61439],[12.65012,43.61432]]},"properties":{}},{"type":"Feature","geometry":{"type":"LineString","coordinates":[[12.65632,43.61439],[12.65041,43.61443],[12.64965,43.61439]]},"properties":{}},{"type":"Feature","geometry":{"type":"LineString","coordinates":[[12.64368,43.54684],[12.64395,43.54677]]},"properties":{}},{"type":"Feature","geometry":{"type":"LineString","coordinates":[[12.64447,43.61282],[12.64355,43.61279],[12.64313,43.61282],[12.64266,43.61291],[12.64231,43.61302],[12.64118,43.61352]]},"properties":{}},{"type":"Feature","geometry":{"type":"LineString","coordinates":[[12.64723,43.61376],[12.64575,43.61315],[12.64494,43.61291]]},"properties":{}},{"type":"Feature","geometry":{"type":"LineString","coordinates":[[12.64118,43.61352],[12.64085,43.61366]]},"properties":{}},{"type":"Feature","geometry":{"type":"LineString","coordinates":[[12.62566,43.61364],[12.62593,43.61359]]},"properties":{}},{"type":"Feature","geometry":{"type":"LineString","coordinates":[[12.62629,43.61365],[12.62615,43.61373],[12.62581,43.61381]]},"properties":{}},{"type":"Feature","geometry":{"type":"LineString","coordinates":[[12.62593,43.61359],[12.62589,43.61371],[12.62581,43.61381],[12.62515,43.61395]]},"properties":{}},{"type":"Feature","geometry":{"type":"LineString","coordinates":[[12.62515,43.61395],[12.62566,43.61364]]},"properties":{}},{"type":"Feature","geometry":{"type":"LineString","coordinates":[[12.64085,43.61366],[12.63868,43.61446],[12.63785,43.61469]]},"properties":{}},{"type":"Feature","geometry":{"type":"LineString","coordinates":[[12.63785,43.61469],[12.63673,43.61492],[12.63565,43.61508],[12.63496,43.61514],[12.6319,43.61529]]},"properties":{}},{"type":"Feature","geometry":{"type":"LineString","coordinates":[[12.6319,43.61529],[12.63179,43.6153]]},"properties":{}},{"type":"Feature","geometry":{"type":"LineString","coordinates":[[12.6429,43.68272],[12.643,43.68264],[12.64307,43.68254]]},"properties":{}},{"type":"Feature","geometry":{"type":"LineString","coordinates":[[12.64307,43.68254],[12.64309,43.68284]]},"properties":{}},{"type":"Feature","geometry":{"type":"LineString","coordinates":[[12.64309,43.68284],[12.64307,43.68295],[12.6429,43.68303],[12.64273,43.683],[12.64265,43.68288],[12.6427,43.68278],[12.64286,43.68272],[12.64302,43.68276],[12.64309,43.68284]]},"properties":{}},{"type":"Feature","geometry":{"type":"LineString","coordinates":[[12.64405,43.69164],[12.64363,43.69191],[12.64331,43.69204],[12.64323,43.69205],[12.64249,43.69191]]},"properties":{}},{"type":"Feature","geometry":{"type":"LineString","coordinates":[[12.66812,43.61704],[12.66813,43.61695],[12.66697,43.61626],[12.66622,43.61586],[12.66574,43.61567],[12.66519,43.61562],[12.66505,43.61557],[12.66495,43.61544],[12.66477,43.61463],[12.6647,43.61454],[12.66445,43.6144],[12.66392,43.61433]]},"properties":{}},{"type":"Feature","geometry":{"type":"LineString","coordinates":[[12.67663,43.62287],[12.67688,43.62301]]},"properties":{}},{"type":"Feature","geometry":{"type":"LineString","coordinates":[[12.67675,43.62307],[12.67663,43.62287]]},"properties":{}},{"type":"Feature","geometry":{"type":"LineString","coordinates":[[12.67678,43.62303],[12.67692,43.62302],[12.67697,43.62305],[12.67698,43.62311],[12.67689,43.62317],[12.67679,43.62316],[12.67674,43.62309],[12.67678,43.62303]]},"properties":{}},{"type":"Feature","geometry":{"type":"LineString","coordinates":[[12.67698,43.62309],[12.67712,43.62322]]},"properties":{}},{"type":"Feature","geometry":{"type":"LineString","coordinates":[[12.67649,43.62329],[12.67674,43.62309]]},"properties":{}},{"type":"Feature","geometry":{"type":"LineString","coordinates":[[12.67712,43.62322],[12.67689,43.62317]]},"properties":{}},{"type":"Feature","geometry":{"type":"LineString","coordinates":[[12.67686,43.62318],[12.67649,43.62329]]},"properties":{}},{"type":"Feature","geometry":{"type":"LineString","coordinates":[[12.64875,43.67963],[12.64855,43.67981],[12.6483,43.67991]]},"properties":{}},{"type":"Feature","geometry":{"type":"LineString","coordinates":[[12.66326,43.69966],[12.66345,43.69957],[12.6636,43.69945]]},"properties":{}},{"type":"Feature","geometry":{"type":"LineString","coordinates":[[12.63964,43.72618],[12.63964,43.72628],[12.6397,43.72644]]},"properties":{}},{"type":"Feature","geometry":{"type":"LineString","coordinates":[[12.63948,43.72649],[12.63964,43.72618]]},"properties":{}},{"type":"Feature","geometry":{"type":"LineString","coordinates":[[12.63979,43.7265],[12.6402,43.72652]]},"properties":{}},{"type":"Feature","geometry":{"type":"LineString","coordinates":[[12.63976,43.72647],[12.63981,43.72657],[12.63977,43.72664],[12.6397,43.72668],[12.63956,43.72668],[12.63946,43.7266],[12.63946,43.72651],[12.63955,43.72644],[12.63965,43.72643],[12.63976,43.72647]]},"properties":{}},{"type":"Feature","geometry":{"type":"LineString","coordinates":[[12.6402,43.72652],[12.63977,43.72664]]},"properties":{}},{"type":"Feature","geometry":{"type":"LineString","coordinates":[[12.63966,43.72669],[12.6392,43.72703]]},"properties":{}},{"type":"Feature","geometry":{"type":"LineString","coordinates":[[12.63453,43.7283],[12.63483,43.72804]]},"properties":{}},{"type":"Feature","geometry":{"type":"LineString","coordinates":[[12.63794,43.72801],[12.63788,43.72893],[12.63792,43.72908],[12.63805,43.72913]]},"properties":{}},{"type":"Feature","geometry":{"type":"LineString","coordinates":[[12.63333,43.72914],[12.63375,43.72927]]},"properties":{}},{"type":"Feature","geometry":{"type":"LineString","coordinates":[[12.63215,43.73318],[12.63244,43.73305],[12.63262,43.73289],[12.63272,43.73275]]},"properties":{}},{"type":"Feature","geometry":{"type":"LineString","coordinates":[[12.52185,43.58327],[12.52186,43.58344],[12.52194,43.5837]]},"properties":{}},{"type":"Feature","geometry":{"type":"LineString","coordinates":[[12.52171,43.58379],[12.52185,43.58327]]},"properties":{}},{"type":"Feature","geometry":{"type":"LineString","coordinates":[[12.50655,43.58541],[12.50679,43.58531]]},"properties":{}},{"type":"Feature","geometry":{"type":"LineString","coordinates":[[12.50677,43.58548],[12.50679,43.58531],[12.50686,43.58526]]},"properties":{}},{"type":"Feature","geometry":{"type":"LineString","coordinates":[[12.50686,43.58526],[12.50688,43.58535],[12.50685,43.58542],[12.50677,43.58548]]},"properties":{}},{"type":"Feature","geometry":{"type":"LineString","coordinates":[[12.50688,43.58535],[12.50699,43.58557]]},"properties":{}},{"type":"Feature","geometry":{"type":"LineString","coordinates":[[12.50995,43.59016],[12.50986,43.5901],[12.50951,43.58941],[12.50952,43.58933]]},"properties":{}},{"type":"Feature","geometry":{"type":"LineString","coordinates":[[12.50963,43.58935],[12.50963,43.58945],[12.50994,43.59007],[12.50995,43.59016]]},"properties":{}},{"type":"Feature","geometry":{"type":"LineString","coordinates":[[12.5153,43.67395],[12.51508,43.67393]]},"properties":{}},{"type":"Feature","geometry":{"type":"LineString","coordinates":[[12.52194,43.5837],[12.52189,43.58388],[12.52181,43.58393]]},"properties":{}},{"type":"Feature","geometry":{"type":"LineString","coordinates":[[12.52194,43.5837],[12.52205,43.58386],[12.52219,43.58398]]},"properties":{}},{"type":"Feature","geometry":{"type":"LineString","coordinates":[[12.52181,43.58393],[12.52171,43.58379]]},"properties":{}},{"type":"Feature","geometry":{"type":"LineString","coordinates":[[12.52157,43.58393],[12.52171,43.58379]]},"properties":{}},{"type":"Feature","geometry":{"type":"LineString","coordinates":[[12.52066,43.67912],[12.52092,43.67904],[12.52107,43.67892],[12.52123,43.67872],[12.52188,43.67765],[12.52218,43.6773],[12.52287,43.67668],[12.52313,43.67656]]},"properties":{}},{"type":"Feature","geometry":{"type":"LineString","coordinates":[[12.52059,43.67923],[12.52066,43.67912]]},"properties":{}},{"type":"Feature","geometry":{"type":"LineString","coordinates":[[12.51508,43.67393],[12.51469,43.67402]]},"properties":{}},{"type":"Feature","geometry":{"type":"LineString","coordinates":[[12.51469,43.67402],[12.51406,43.67469]]},"properties":{}},{"type":"Feature","geometry":{"type":"LineString","coordinates":[[12.51406,43.67469],[12.51384,43.67491]]},"properties":{}},{"type":"Feature","geometry":{"type":"LineString","coordinates":[[12.51384,43.67491],[12.51359,43.67516]]},"properties":{}},{"type":"Feature","geometry":{"type":"LineString","coordinates":[[12.51359,43.67516],[12.5131,43.67566],[12.51292,43.67596]]},"properties":{}},{"type":"Feature","geometry":{"type":"LineString","coordinates":[[12.51431,43.68394],[12.51442,43.68381],[12.51491,43.68355],[12.51515,43.68347],[12.51629,43.6832],[12.51711,43.68275],[12.51834,43.68226],[12.51898,43.68189],[12.5195,43.68153],[12.52006,43.68125],[12.52018,43.68113],[12.5204,43.68073],[12.52052,43.68042],[12.5207,43.67978],[12.52073,43.67947],[12.52059,43.67923]]},"properties":{}},{"type":"Feature","geometry":{"type":"LineString","coordinates":[[12.6636,43.69945],[12.66355,43.69963],[12.66359,43.69974]]},"properties":{}},{"type":"Feature","geometry":{"type":"LineString","coordinates":[[12.66216,43.69955],[12.6626,43.6996],[12.66292,43.69971],[12.66313,43.69971]]},"properties":{}},{"type":"Feature","geometry":{"type":"LineString","coordinates":[[12.66287,43.69977],[12.66261,43.69966],[12.66216,43.69955]]},"properties":{}},{"type":"Feature","geometry":{"type":"LineString","coordinates":[[12.66302,43.69989],[12.66287,43.69977]]},"properties":{}},{"type":"Feature","geometry":{"type":"LineString","coordinates":[[12.66308,43.70001],[12.66303,43.69994],[12.66304,43.69981],[12.6632,43.69968],[12.66345,43.69966],[12.66359,43.69974],[12.66365,43.69985],[12.6636,43.70001],[12.66348,43.70008],[12.66322,43.70009],[12.66308,43.70001]]},"properties":{}},{"type":"Feature","geometry":{"type":"LineString","coordinates":[[12.66313,43.70042],[12.66308,43.70001]]},"properties":{}},{"type":"Feature","geometry":{"type":"LineString","coordinates":[[12.66341,43.7001],[12.66323,43.70023],[12.66313,43.70042]]},"properties":{}},{"type":"Feature","geometry":{"type":"LineString","coordinates":[[12.63272,43.73275],[12.63268,43.73291],[12.63257,43.73306],[12.6322,43.73333]]},"properties":{}},{"type":"Feature","geometry":{"type":"LineString","coordinates":[[12.63167,43.73463],[12.63183,43.73444]]},"properties":{}},{"type":"Feature","geometry":{"type":"LineString","coordinates":[[12.63191,43.73454],[12.63177,43.73457],[12.63167,43.73463]]},"properties":{}},{"type":"Feature","geometry":{"type":"LineString","coordinates":[[12.64311,43.73567],[12.64302,43.73569],[12.64289,43.73566],[12.64283,43.73557],[12.64284,43.73551],[12.64297,43.73542],[12.64312,43.73544],[12.64319,43.73549],[12.64321,43.73556],[12.64318,43.73563],[12.64311,43.73567]]},"properties":{}},{"type":"Feature","geometry":{"type":"LineString","coordinates":[[12.71291,43.68858],[12.71315,43.68861],[12.71359,43.68876],[12.71373,43.68875]]},"properties":{}},{"type":"Feature","geometry":{"type":"LineString","coordinates":[[12.71373,43.68875],[12.71356,43.68884],[12.71337,43.68888],[12.71274,43.68892],[12.71225,43.6891]]},"properties":{}}]}