{"type":"FeatureCollection","features":[{"type":"Feature","geometry":{"type":"LineString","coordinates":[[12.9981,46.00163],[12.99806,46.00169],[12.99786,46.00245],[12.99779,46.00255],[12.99729,46.00299]]},"properties":{}},{"type":"Feature","geometry":{"type":"LineString","coordinates":[[12.96734,46.00285],[12.96747,46.00311],[12.96791,46.00457],[12.96804,46.00517],[12.96784,46.0069],[12.96794,46.00716],[12.96808,46.00733],[12.96875,46.008]]},"properties":{}},{"type":"Feature","geometry":{"type":"LineString","coordinates":[[12.97889,46.01816],[12.97926,46.01717],[12.97931,46.01713],[12.97946,46.01713],[12.97951,46.01717],[12.98029,46.01823],[12.98327,46.02131],[12.98621,46.02377],[12.98734,46.02479]]},"properties":{}},{"type":"Feature","geometry":{"type":"LineString","coordinates":[[12.98154,46.06122],[12.98113,46.06114]]},"properties":{}},{"type":"Feature","geometry":{"type":"LineString","coordinates":[[12.98096,46.06156],[12.98126,46.06082]]},"properties":{}},{"type":"Feature","geometry":{"type":"LineString","coordinates":[[12.85815,46.00034],[12.85867,46.00077],[12.85958,46.00207],[12.85985,46.00379],[12.85991,46.00394],[12.8602,46.00438],[12.86113,46.00561],[12.86251,46.00753],[12.86279,46.00803],[12.86276,46.00812],[12.86267,46.00822],[12.86311,46.00847],[12.86329,46.00866]]},"properties":{}},{"type":"Feature","geometry":{"type":"LineString","coordinates":[[12.89809,46.07697],[12.89882,46.0777]]},"properties":{}},{"type":"Feature","geometry":{"type":"LineString","coordinates":[[12.89841,46.07778],[12.8985,46.07769],[12.89859,46.07766],[12.89882,46.0777]]},"properties":{}},{"type":"Feature","geometry":{"type":"LineString","coordinates":[[12.89879,46.07786],[12.89841,46.07778]]},"properties":{}},{"type":"Feature","geometry":{"type":"LineString","coordinates":[[12.89882,46.0777],[12.89901,46.07794]]},"properties":{}},{"type":"Feature","geometry":{"type":"LineString","coordinates":[[12.86329,46.00866],[12.86345,46.00889]]},"properties":{}},{"type":"Feature","geometry":{"type":"LineString","coordinates":[[12.86345,46.00889],[12.8638,46.00955]]},"properties":{}},{"type":"Feature","geometry":{"type":"LineString","coordinates":[[12.8638,46.00955],[12.86415,46.01012]]},"properties":{}},{"type":"Feature","geometry":{"type":"LineString","coordinates":[[12.86415,46.01012],[12.86436,46.01053],[12.86463,46.01122],[12.86553,46.01243],[12.86557,46.01263],[12.86568,46.01264],[12.86581,46.01288],[12.86591,46.01289],[12.86601,46.01301],[12.86653,46.01375]]},"properties":{}},{"type":"Feature","geometry":{"type":"LineString","coordinates":[[12.86661,46.01374],[12.86671,46.01371]]},"properties":{}},{"type":"Feature","geometry":{"type":"LineString","coordinates":[[12.86653,46.01375],[12.86661,46.01374]]},"properties":{}},{"type":"Feature","geometry":{"type":"LineString","coordinates":[[12.86653,46.01375],[12.86656,46.01382],[12.86648,46.014],[12.86648,46.01408],[12.86631,46.0142],[12.86633,46.01422]]},"properties":{}},{"type":"Feature","geometry":{"type":"LineString","coordinates":[[12.86609,46.01434],[12.86633,46.01422]]},"properties":{}},{"type":"Feature","geometry":{"type":"LineString","coordinates":[[12.86578,46.01457],[12.86609,46.01434]]},"properties":{}},{"type":"Feature","geometry":{"type":"LineString","coordinates":[[12.86429,46.01545],[12.86528,46.01494],[12.86578,46.01457]]},"properties":{}},{"type":"Feature","geometry":{"type":"LineString","coordinates":[[12.83063,46.03177],[12.83056,46.03175],[12.83065,46.03138],[12.82825,46.02689],[12.82785,46.02635],[12.82765,46.02615],[12.82728,46.02584]]},"properties":{}},{"type":"Feature","geometry":{"type":"LineString","coordinates":[[12.83085,46.03191],[12.83063,46.03177]]},"properties":{}},{"type":"Feature","geometry":{"type":"LineString","coordinates":[[12.83584,46.04082],[12.83577,46.04083],[12.83541,46.04019],[12.83249,46.03476],[12.83238,46.03478],[12.832,46.03397],[12.83136,46.0329],[12.83131,46.03278],[12.83132,46.03256],[12.83102,46.03204],[12.83085,46.03191]]},"properties":{}},{"type":"Feature","geometry":{"type":"LineString","coordinates":[[12.83001,46.03568],[12.82991,46.03579],[12.82865,46.03862],[12.82847,46.03907],[12.82842,46.03907]]},"properties":{}},{"type":"Feature","geometry":{"type":"LineString","coordinates":[[12.86776,46.04504],[12.86781,46.04538]]},"properties":{}},{"type":"Feature","geometry":{"type":"LineString","coordinates":[[12.86766,46.04539],[12.86766,46.04529],[12.86776,46.04504]]},"properties":{}},{"type":"Feature","geometry":{"type":"LineString","coordinates":[[12.86778,46.04513],[12.86783,46.04522],[12.86798,46.0453],[12.86817,46.04532],[12.86833,46.04529]]},"properties":{}},{"type":"Feature","geometry":{"type":"LineString","coordinates":[[12.86595,46.04576],[12.86641,46.04568],[12.86644,46.04562]]},"properties":{}},{"type":"Feature","geometry":{"type":"LineString","coordinates":[[12.86595,46.04576],[12.86253,46.04616],[12.86251,46.04609]]},"properties":{}},{"type":"Feature","geometry":{"type":"LineString","coordinates":[[12.86457,46.04631],[12.86449,46.04594]]},"properties":{}},{"type":"Feature","geometry":{"type":"LineString","coordinates":[[12.8033,46.09242],[12.80498,46.09202],[12.80666,46.09174],[12.80787,46.09162],[12.80874,46.09158],[12.81042,46.09158],[12.81147,46.09164],[12.8126,46.09175],[12.81392,46.09195],[12.8154,46.09228],[12.81702,46.09277]]},"properties":{}},{"type":"Feature","geometry":{"type":"LineString","coordinates":[[12.80327,46.09244],[12.80323,46.09237]]},"properties":{}},{"type":"Feature","geometry":{"type":"LineString","coordinates":[[12.81702,46.09277],[12.81705,46.09277],[12.81709,46.09273]]},"properties":{}},{"type":"Feature","geometry":{"type":"LineString","coordinates":[[12.79837,46.09412],[12.80227,46.09274],[12.8033,46.09242]]},"properties":{}},{"type":"Feature","geometry":{"type":"LineString","coordinates":[[12.79973,46.09364],[12.79968,46.09359]]},"properties":{}},{"type":"Feature","geometry":{"type":"LineString","coordinates":[[12.79815,46.0942],[12.79837,46.09412]]},"properties":{}},{"type":"Feature","geometry":{"type":"LineString","coordinates":[[12.79704,46.09459],[12.79815,46.0942]]},"properties":{}},{"type":"Feature","geometry":{"type":"LineString","coordinates":[[12.89901,46.07794],[12.89879,46.07786],[12.89865,46.07788],[12.89855,46.07794],[12.8985,46.07806]]},"properties":{}},{"type":"Feature","geometry":{"type":"LineString","coordinates":[[12.91014,46.09017],[12.91029,46.09026],[12.91036,46.09043]]},"properties":{}},{"type":"Feature","geometry":{"type":"LineString","coordinates":[[12.91036,46.09043],[12.90999,46.09039],[12.90978,46.09029]]},"properties":{}},{"type":"Feature","geometry":{"type":"LineString","coordinates":[[12.90652,46.10246],[12.90676,46.10273],[12.90681,46.10295],[12.9068,46.10303]]},"properties":{}},{"type":"Feature","geometry":{"type":"LineString","coordinates":[[12.90029,46.1042],[12.90022,46.10407],[12.90003,46.10395]]},"properties":{}},{"type":"Feature","geometry":{"type":"LineString","coordinates":[[12.8961,46.1052],[12.89582,46.10495]]},"properties":{}},{"type":"Feature","geometry":{"type":"LineString","coordinates":[[12.89616,46.10525],[12.8961,46.1052]]},"properties":{}},{"type":"Feature","geometry":{"type":"LineString","coordinates":[[12.90671,46.10334],[12.90664,46.10354],[12.90586,46.10515],[12.9058,46.1054],[12.90565,46.10717],[12.90561,46.10721]]},"properties":{}},{"type":"Feature","geometry":{"type":"LineString","coordinates":[[12.89615,46.10533],[12.89616,46.10525]]},"properties":{}},{"type":"Feature","geometry":{"type":"LineString","coordinates":[[12.89328,46.10529],[12.89345,46.10532]]},"properties":{}},{"type":"Feature","geometry":{"type":"LineString","coordinates":[[12.86398,46.0474],[12.86366,46.04603]]},"properties":{}},{"type":"Feature","geometry":{"type":"LineString","coordinates":[[12.8673,46.0472],[12.8674,46.04722],[12.86762,46.04702],[12.86807,46.04683],[12.86891,46.04656],[12.86914,46.04655]]},"properties":{}},{"type":"Feature","geometry":{"type":"LineString","coordinates":[[12.86498,46.04729],[12.86487,46.0472],[12.86279,46.04743]]},"properties":{}},{"type":"Feature","geometry":{"type":"LineString","coordinates":[[12.86721,46.0477],[12.8673,46.04712],[12.86719,46.04704],[12.86708,46.04703],[12.86595,46.04721],[12.86585,46.04728],[12.86536,46.04736],[12.86521,46.04741],[12.86509,46.0474],[12.86377,46.04783]]},"properties":{}},{"type":"Feature","geometry":{"type":"LineString","coordinates":[[12.86405,46.04771],[12.86398,46.0474]]},"properties":{}},{"type":"Feature","geometry":{"type":"LineString","coordinates":[[12.87279,46.12916],[12.8726,46.12942],[12.8726,46.12965],[12.87256,46.12977]]},"properties":{}},{"type":"Feature","geometry":{"type":"LineString","coordinates":[[12.87159,46.13025],[12.87192,46.1299],[12.87233,46.12955]]},"properties":{}},{"type":"Feature","geometry":{"type":"LineString","coordinates":[[12.86847,46.133],[12.86816,46.13342],[12.86812,46.13356],[12.86821,46.1337],[12.86843,46.13372]]},"properties":{}},{"type":"Feature","geometry":{"type":"LineString","coordinates":[[12.84167,46.1567],[12.84213,46.15639]]},"properties":{}},{"type":"Feature","geometry":{"type":"LineString","coordinates":[[12.84047,46.15667],[12.84066,46.15678],[12.84093,46.15689]]},"properties":{}},{"type":"Feature","geometry":{"type":"LineString","coordinates":[[12.89304,46.10544],[12.89314,46.10533],[12.89328,46.10529]]},"properties":{}},{"type":"Feature","geometry":{"type":"LineString","coordinates":[[12.89615,46.10533],[12.89809,46.10554],[12.89819,46.10553],[12.89824,46.10547]]},"properties":{}},{"type":"Feature","geometry":{"type":"LineString","coordinates":[[12.89304,46.10547],[12.89304,46.10544]]},"properties":{}},{"type":"Feature","geometry":{"type":"LineString","coordinates":[[12.89824,46.10547],[12.89832,46.10549]]},"properties":{}},{"type":"Feature","geometry":{"type":"LineString","coordinates":[[12.89323,46.10566],[12.89309,46.10559],[12.89304,46.10547]]},"properties":{}},{"type":"Feature","geometry":{"type":"LineString","coordinates":[[12.89328,46.10566],[12.89323,46.10566]]},"properties":{}},{"type":"Feature","geometry":{"type":"LineString","coordinates":[[12.89214,46.10594],[12.89291,46.1056],[12.89304,46.10547]]},"properties":{}},{"type":"Feature","geometry":{"type":"LineString","coordinates":[[12.89323,46.10566],[12.89301,46.10566],[12.89214,46.10594]]},"properties":{}},{"type":"Feature","geometry":{"type":"LineString","coordinates":[[12.89832,46.10549],[12.89792,46.10696],[12.89798,46.10701],[12.89807,46.10702]]},"properties":{}},{"type":"Feature","geometry":{"type":"LineString","coordinates":[[12.89791,46.1069],[12.89784,46.10689]]},"properties":{}},{"type":"Feature","geometry":{"type":"LineString","coordinates":[[12.98923,46.08166],[12.9897,46.08168]]},"properties":{}},{"type":"Feature","geometry":{"type":"LineString","coordinates":[[12.9897,46.08168],[12.98929,46.0818]]},"properties":{}},{"type":"Feature","geometry":{"type":"LineString","coordinates":[[12.98853,46.08183],[12.9889,46.0817]]},"properties":{}},{"type":"Feature","geometry":{"type":"LineString","coordinates":[[12.98892,46.08168],[12.98902,46.08163],[12.98915,46.08163],[12.98925,46.08167],[12.9893,46.08176],[12.98928,46.08182],[12.98919,46.0819],[12.98905,46.08191],[12.98894,46.08188]]},"properties":{}},{"type":"Feature","geometry":{"type":"LineString","coordinates":[[12.98894,46.08188],[12.98888,46.08179],[12.98892,46.08168]]},"properties":{}},{"type":"Feature","geometry":{"type":"LineString","coordinates":[[12.98891,46.08185],[12.98853,46.08183]]},"properties":{}},{"type":"Feature","geometry":{"type":"LineString","coordinates":[[12.9322,46.08355],[12.93228,46.08372],[12.93235,46.08379]]},"properties":{}},{"type":"Feature","geometry":{"type":"LineString","coordinates":[[12.93213,46.08384],[12.9322,46.08355]]},"properties":{}},{"type":"Feature","geometry":{"type":"LineString","coordinates":[[12.93211,46.08394],[12.93211,46.08387],[12.93221,46.0838],[12.93235,46.08379],[12.93247,46.08385]]},"properties":{}},{"type":"Feature","geometry":{"type":"LineString","coordinates":[[12.93247,46.08385],[12.93333,46.08387]]},"properties":{}},{"type":"Feature","geometry":{"type":"LineString","coordinates":[[12.93333,46.08387],[12.93273,46.08393],[12.93246,46.08399]]},"properties":{}},{"type":"Feature","geometry":{"type":"LineString","coordinates":[[12.93247,46.08385],[12.93248,46.08396],[12.93239,46.08404],[12.93224,46.08405],[12.93215,46.08401],[12.93211,46.08394]]},"properties":{}},{"type":"Feature","geometry":{"type":"LineString","coordinates":[[12.93173,46.08426],[12.93198,46.08408],[12.93211,46.08394]]},"properties":{}},{"type":"Feature","geometry":{"type":"LineString","coordinates":[[12.93224,46.08405],[12.93173,46.08426]]},"properties":{}},{"type":"Feature","geometry":{"type":"LineString","coordinates":[[12.94897,46.08496],[12.94908,46.08516],[12.9492,46.08531]]},"properties":{}},{"type":"Feature","geometry":{"type":"LineString","coordinates":[[12.94886,46.08534],[12.94893,46.08519],[12.94897,46.08496]]},"properties":{}},{"type":"Feature","geometry":{"type":"LineString","coordinates":[[12.94966,46.08553],[12.94988,46.08562],[12.95033,46.08567]]},"properties":{}},{"type":"Feature","geometry":{"type":"LineString","coordinates":[[12.9481,46.08573],[12.94853,46.08558]]},"properties":{}},{"type":"Feature","geometry":{"type":"LineString","coordinates":[[12.94853,46.08558],[12.94866,46.08543],[12.94886,46.08534],[12.94909,46.0853],[12.94935,46.08533],[12.94956,46.08543],[12.94966,46.08553],[12.94973,46.08569],[12.94972,46.08583],[12.94961,46.08599],[12.94945,46.08609],[12.94925,46.08615],[12.9489,46.08614],[12.94872,46.08607],[12.94855,46.08592],[12.94849,46.08579],[12.94853,46.08558]]},"properties":{}},{"type":"Feature","geometry":{"type":"LineString","coordinates":[[12.94851,46.08586],[12.9481,46.08573]]},"properties":{}},{"type":"Feature","geometry":{"type":"LineString","coordinates":[[12.95033,46.08567],[12.94998,46.08573],[12.94984,46.08579],[12.94965,46.08594]]},"properties":{}},{"type":"Feature","geometry":{"type":"LineString","coordinates":[[12.94945,46.08609],[12.9493,46.08628],[12.94923,46.08644]]},"properties":{}},{"type":"Feature","geometry":{"type":"LineString","coordinates":[[12.94923,46.08644],[12.94908,46.08628],[12.9489,46.08614]]},"properties":{}},{"type":"Feature","geometry":{"type":"LineString","coordinates":[[12.94835,46.09988],[12.94843,46.09988],[12.94844,46.10142],[12.94849,46.10174],[12.94868,46.10221],[12.94949,46.10378],[12.94993,46.10425],[12.95081,46.10481],[12.95108,46.10491],[12.95131,46.10504],[12.95177,46.10548],[12.95175,46.10549]]},"properties":{}},{"type":"Feature","geometry":{"type":"LineString","coordinates":[[12.95175,46.10549],[12.95171,46.10552]]},"properties":{}},{"type":"Feature","geometry":{"type":"LineString","coordinates":[[12.95187,46.10571],[12.95224,46.1057],[12.95239,46.10564],[12.9525,46.10552]]},"properties":{}},{"type":"Feature","geometry":{"type":"LineString","coordinates":[[12.95198,46.10581],[12.95187,46.10571]]},"properties":{}},{"type":"Feature","geometry":{"type":"LineString","coordinates":[[12.95198,46.10581],[12.95256,46.10588]]},"properties":{}},{"type":"Feature","geometry":{"type":"LineString","coordinates":[[12.95219,46.10605],[12.95198,46.10581]]},"properties":{}},{"type":"Feature","geometry":{"type":"LineString","coordinates":[[12.95258,46.10603],[12.95233,46.10608],[12.95219,46.10605]]},"properties":{}},{"type":"Feature","geometry":{"type":"LineString","coordinates":[[12.9528,46.10692],[12.95272,46.10684],[12.9525,46.10646],[12.95219,46.10605]]},"properties":{}},{"type":"Feature","geometry":{"type":"LineString","coordinates":[[12.95171,46.10552],[12.95161,46.10558],[12.95202,46.10595],[12.95213,46.10617],[12.95241,46.10656],[12.95261,46.10696],[12.95323,46.10868],[12.95375,46.10999],[12.95382,46.11053],[12.95393,46.11062]]},"properties":{}},{"type":"Feature","geometry":{"type":"LineString","coordinates":[[12.95397,46.11005],[12.95347,46.10877],[12.9528,46.10692]]},"properties":{}},{"type":"Feature","geometry":{"type":"LineString","coordinates":[[12.98502,46.14656],[12.98515,46.14649],[12.98542,46.14646]]},"properties":{}},{"type":"Feature","geometry":{"type":"LineString","coordinates":[[12.98542,46.14646],[12.98526,46.14657],[12.98504,46.14662]]},"properties":{}},{"type":"Feature","geometry":{"type":"LineString","coordinates":[[12.98479,46.14666],[12.98502,46.14656]]},"properties":{}},{"type":"Feature","geometry":{"type":"LineString","coordinates":[[12.89794,46.1069],[12.89791,46.1069]]},"properties":{}},{"type":"Feature","geometry":{"type":"LineString","coordinates":[[12.89784,46.10689],[12.89768,46.10701],[12.89718,46.107],[12.89543,46.10723]]},"properties":{}},{"type":"Feature","geometry":{"type":"LineString","coordinates":[[12.89291,46.10745],[12.8944,46.10741],[12.89517,46.1073],[12.89523,46.10724],[12.89539,46.10721]]},"properties":{}},{"type":"Feature","geometry":{"type":"LineString","coordinates":[[12.89118,46.1075],[12.89258,46.10746]]},"properties":{}},{"type":"Feature","geometry":{"type":"LineString","coordinates":[[12.90561,46.10721],[12.90555,46.10753],[12.90545,46.10772],[12.90523,46.10791],[12.90504,46.10799],[12.90469,46.10808],[12.89985,46.10812]]},"properties":{}},{"type":"Feature","geometry":{"type":"LineString","coordinates":[[12.89957,46.10812],[12.89881,46.10806]]},"properties":{}},{"type":"Feature","geometry":{"type":"LineString","coordinates":[[12.89985,46.10812],[12.89957,46.10812]]},"properties":{}},{"type":"Feature","geometry":{"type":"LineString","coordinates":[[12.90271,46.11032],[12.90213,46.11074]]},"properties":{}},{"type":"Feature","geometry":{"type":"LineString","coordinates":[[12.89758,46.11128],[12.8979,46.10994]]},"properties":{}},{"type":"Feature","geometry":{"type":"LineString","coordinates":[[12.90392,46.11074],[12.90453,46.11066]]},"properties":{}},{"type":"Feature","geometry":{"type":"LineString","coordinates":[[12.88886,46.11053],[12.88894,46.11072],[12.88906,46.11085],[12.88917,46.11091],[12.88945,46.11099]]},"properties":{}},{"type":"Feature","geometry":{"type":"LineString","coordinates":[[12.90364,46.1108],[12.90392,46.11074]]},"properties":{}},{"type":"Feature","geometry":{"type":"LineString","coordinates":[[12.88835,46.11098],[12.88867,46.11089],[12.88887,46.1107]]},"properties":{}},{"type":"Feature","geometry":{"type":"LineString","coordinates":[[12.90326,46.11102],[12.90333,46.11088],[12.90353,46.11083]]},"properties":{}},{"type":"Feature","geometry":{"type":"LineString","coordinates":[[12.88889,46.11136],[12.88885,46.11124],[12.88866,46.11105],[12.88851,46.11099],[12.88835,46.11098]]},"properties":{}},{"type":"Feature","geometry":{"type":"LineString","coordinates":[[12.89773,46.11134],[12.89758,46.11128]]},"properties":{}},{"type":"Feature","geometry":{"type":"LineString","coordinates":[[12.89868,46.11131],[12.89914,46.11133]]},"properties":{}},{"type":"Feature","geometry":{"type":"LineString","coordinates":[[12.89821,46.11132],[12.89773,46.11134]]},"properties":{}},{"type":"Feature","geometry":{"type":"LineString","coordinates":[[12.89773,46.11134],[12.89758,46.11136]]},"properties":{}},{"type":"Feature","geometry":{"type":"LineString","coordinates":[[12.88552,46.11312],[12.88503,46.11244],[12.88498,46.11222],[12.88468,46.11162],[12.8844,46.11123]]},"properties":{}},{"type":"Feature","geometry":{"type":"LineString","coordinates":[[12.89931,46.11181],[12.89941,46.11199],[12.89965,46.11226],[12.90002,46.1125],[12.90025,46.1126],[12.90121,46.1128]]},"properties":{}},{"type":"Feature","geometry":{"type":"LineString","coordinates":[[12.89989,46.11235],[12.90064,46.11261]]},"properties":{}},{"type":"Feature","geometry":{"type":"LineString","coordinates":[[12.9008,46.11265],[12.90145,46.1128]]},"properties":{}},{"type":"Feature","geometry":{"type":"LineString","coordinates":[[12.88552,46.11312],[12.88573,46.11337]]},"properties":{}},{"type":"Feature","geometry":{"type":"LineString","coordinates":[[12.88581,46.11348],[12.88573,46.11337]]},"properties":{}},{"type":"Feature","geometry":{"type":"LineString","coordinates":[[12.8859,46.11361],[12.88581,46.11348]]},"properties":{}},{"type":"Feature","geometry":{"type":"LineString","coordinates":[[12.8859,46.11361],[12.88606,46.11363],[12.88658,46.11435]]},"properties":{}},{"type":"Feature","geometry":{"type":"LineString","coordinates":[[12.90301,46.11693],[12.90307,46.11505],[12.90317,46.1143],[12.90319,46.11421],[12.90339,46.11388],[12.90343,46.11356],[12.90338,46.11335],[12.90282,46.11289]]},"properties":{}},{"type":"Feature","geometry":{"type":"LineString","coordinates":[[12.9012,46.11314],[12.90111,46.11516],[12.90106,46.11707]]},"properties":{}},{"type":"Feature","geometry":{"type":"LineString","coordinates":[[12.88988,46.11819],[12.88872,46.1153]]},"properties":{}},{"type":"Feature","geometry":{"type":"LineString","coordinates":[[12.75,46.1034],[12.7503,46.10315],[12.75024,46.10312]]},"properties":{}},{"type":"Feature","geometry":{"type":"LineString","coordinates":[[12.8906,46.118],[12.89071,46.11783]]},"properties":{}},{"type":"Feature","geometry":{"type":"LineString","coordinates":[[12.8906,46.118],[12.89078,46.11802]]},"properties":{}},{"type":"Feature","geometry":{"type":"LineString","coordinates":[[12.89033,46.1181],[12.8906,46.118]]},"properties":{}},{"type":"Feature","geometry":{"type":"LineString","coordinates":[[12.89078,46.11802],[12.89071,46.11807],[12.89062,46.11809]]},"properties":{}},{"type":"Feature","geometry":{"type":"LineString","coordinates":[[12.89062,46.11809],[12.89033,46.1181]]},"properties":{}},{"type":"Feature","geometry":{"type":"LineString","coordinates":[[12.89087,46.11822],[12.89075,46.11813],[12.89062,46.11809]]},"properties":{}},{"type":"Feature","geometry":{"type":"LineString","coordinates":[[12.89186,46.12072],[12.89173,46.12061],[12.89158,46.12054],[12.89142,46.12051],[12.89111,46.12051]]},"properties":{}},{"type":"Feature","geometry":{"type":"LineString","coordinates":[[12.88623,46.16102],[12.88624,46.16095],[12.88632,46.16091],[12.88643,46.16093],[12.88647,46.16099],[12.88644,46.16105],[12.88637,46.16107],[12.88629,46.16106],[12.88623,46.16102]]},"properties":{}},{"type":"Feature","geometry":{"type":"LineString","coordinates":[[12.89772,46.19915],[12.89744,46.19886],[12.89726,46.19858],[12.89717,46.19831],[12.89641,46.19792],[12.89607,46.19795],[12.89579,46.19801],[12.89525,46.19819],[12.89509,46.19831],[12.89495,46.19853],[12.89434,46.19899]]},"properties":{}},{"type":"Feature","geometry":{"type":"LineString","coordinates":[[12.89183,46.19912],[12.89119,46.1989],[12.89106,46.19874],[12.89089,46.19863],[12.89008,46.19844],[12.88985,46.19827],[12.88881,46.19842],[12.88783,46.19872],[12.88738,46.1989],[12.88625,46.19921],[12.88491,46.19926]]},"properties":{}},{"type":"Feature","geometry":{"type":"LineString","coordinates":[[12.78982,46.16371],[12.78996,46.1639]]},"properties":{}},{"type":"Feature","geometry":{"type":"LineString","coordinates":[[12.78974,46.16396],[12.78982,46.16371]]},"properties":{}},{"type":"Feature","geometry":{"type":"LineString","coordinates":[[12.78996,46.1639],[12.79026,46.16403]]},"properties":{}},{"type":"Feature","geometry":{"type":"LineString","coordinates":[[12.78996,46.1639],[12.78992,46.16408]]},"properties":{}},{"type":"Feature","geometry":{"type":"LineString","coordinates":[[12.78982,46.16409],[12.78974,46.16396]]},"properties":{}},{"type":"Feature","geometry":{"type":"LineString","coordinates":[[12.78945,46.16413],[12.78974,46.16396]]},"properties":{}},{"type":"Feature","geometry":{"type":"LineString","coordinates":[[12.84093,46.15689],[12.84132,46.15688],[12.84153,46.1568],[12.84167,46.1567]]},"properties":{}},{"type":"Feature","geometry":{"type":"LineString","coordinates":[[12.84072,46.15699],[12.84047,46.15667]]},"properties":{}},{"type":"Feature","geometry":{"type":"LineString","coordinates":[[12.84093,46.15689],[12.84109,46.157],[12.84116,46.15716]]},"properties":{}},{"type":"Feature","geometry":{"type":"LineString","coordinates":[[12.84116,46.15716],[12.8409,46.15713],[12.84072,46.15699]]},"properties":{}},{"type":"Feature","geometry":{"type":"LineString","coordinates":[[12.84002,46.15774],[12.84011,46.15765],[12.84062,46.15736],[12.84071,46.15724],[12.84072,46.15699]]},"properties":{}},{"type":"Feature","geometry":{"type":"LineString","coordinates":[[12.83717,46.15929],[12.8374,46.15936],[12.83777,46.15944]]},"properties":{}},{"type":"Feature","geometry":{"type":"LineString","coordinates":[[12.83673,46.15971],[12.83654,46.15965],[12.83643,46.15956],[12.83637,46.15942],[12.83642,46.15928],[12.83652,46.1592],[12.83667,46.15914],[12.83692,46.15914],[12.83713,46.15924],[12.83722,46.15939],[12.83716,46.15956],[12.83699,46.15968],[12.83673,46.15971]]},"properties":{}},{"type":"Feature","geometry":{"type":"LineString","coordinates":[[12.83777,46.15944],[12.83747,46.15942],[12.8372,46.1595]]},"properties":{}},{"type":"Feature","geometry":{"type":"LineString","coordinates":[[12.83656,46.15992],[12.83655,46.15973],[12.83649,46.15962]]},"properties":{}},{"type":"Feature","geometry":{"type":"LineString","coordinates":[[12.87895,46.17821],[12.87806,46.18017],[12.87796,46.18052],[12.87789,46.18111],[12.87788,46.18155],[12.87815,46.1843],[12.87827,46.1847],[12.87845,46.18505]]},"properties":{}},{"type":"Feature","geometry":{"type":"LineString","coordinates":[[13.0,46.15187],[12.99906,46.1521],[12.99922,46.15254],[12.99916,46.15255]]},"properties":{}},{"type":"Feature","geometry":{"type":"LineString","coordinates":[[12.99922,46.15254],[12.99936,46.15282]]},"properties":{}},{"type":"Feature","geometry":{"type":"LineString","coordinates":[[12.99891,46.15611],[12.9992,46.15621],[12.99948,46.15617]]},"properties":{}},{"type":"Feature","geometry":{"type":"LineString","coordinates":[[12.99948,46.15617],[12.99934,46.15627]]},"properties":{}},{"type":"Feature","geometry":{"type":"LineString","coordinates":[[12.99917,46.1564],[12.99917,46.15633],[12.99923,46.15626],[12.99948,46.15617]]},"properties":{}},{"type":"Feature","geometry":{"type":"LineString","coordinates":[[12.99898,46.15648],[12.99902,46.15632],[12.99896,46.15616]]},"properties":{}},{"type":"Feature","geometry":{"type":"LineString","coordinates":[[12.99934,46.15627],[12.99917,46.1564]]},"properties":{}},{"type":"Feature","geometry":{"type":"LineString","coordinates":[[12.99934,46.15627],[12.99928,46.15637],[12.99928,46.15653]]},"properties":{}},{"type":"Feature","geometry":{"type":"LineString","coordinates":[[12.99898,46.15648],[12.99906,46.15642],[12.99917,46.1564]]},"properties":{}},{"type":"Feature","geometry":{"type":"LineString","coordinates":[[12.99917,46.1564],[12.99903,46.15654],[12.99886,46.15663]]},"properties":{}},{"type":"Feature","geometry":{"type":"LineString","coordinates":[[12.99886,46.15663],[12.99898,46.15648]]},"properties":{}},{"type":"Feature","geometry":{"type":"LineString","coordinates":[[12.99939,46.15665],[12.99914,46.15657],[12.99886,46.15663]]},"properties":{}},{"type":"Feature","geometry":{"type":"LineString","coordinates":[[12.75409,46.18203],[12.75384,46.18201],[12.7526,46.18218],[12.75,46.1823]]},"properties":{}},{"type":"Feature","geometry":{"type":"LineString","coordinates":[[12.75429,46.18207],[12.75409,46.18203]]},"properties":{}},{"type":"Feature","geometry":{"type":"LineString","coordinates":[[12.76999,46.18743],[12.7697,46.18709],[12.76947,46.18687],[12.76894,46.18648],[12.76832,46.18619],[12.76493,46.18493],[12.76478,46.18481],[12.76219,46.18386],[12.76183,46.18374],[12.76163,46.1837],[12.76085,46.18334],[12.76031,46.18314],[12.76012,46.18303],[12.75971,46.18295],[12.75875,46.18258],[12.75852,46.18256],[12.75821,46.18242],[12.75742,46.18215],[12.75721,46.18202],[12.7566,46.18185],[12.75607,46.18182],[12.75429,46.18207]]},"properties":{}},{"type":"Feature","geometry":{"type":"LineString","coordinates":[[12.77544,46.19494],[12.77586,46.19476],[12.77676,46.19418],[12.77732,46.19392],[12.77751,46.19377]]},"properties":{}},{"type":"Feature","geometry":{"type":"LineString","coordinates":[[12.80137,46.20382],[12.80141,46.20398],[12.80152,46.20409]]},"properties":{}},{"type":"Feature","geometry":{"type":"LineString","coordinates":[[12.8011,46.20431],[12.80107,46.20419],[12.80115,46.20409]]},"properties":{}},{"type":"Feature","geometry":{"type":"LineString","coordinates":[[12.8011,46.20431],[12.80057,46.20427]]},"properties":{}},{"type":"Feature","geometry":{"type":"LineString","coordinates":[[12.79551,46.2077],[12.79567,46.20773]]},"properties":{}},{"type":"Feature","geometry":{"type":"LineString","coordinates":[[12.79567,46.20773],[12.79593,46.20773]]},"properties":{}},{"type":"Feature","geometry":{"type":"LineString","coordinates":[[12.78715,46.2128],[12.7874,46.2128],[12.78784,46.21259]]},"properties":{}},{"type":"Feature","geometry":{"type":"LineString","coordinates":[[12.78821,46.21717],[12.78829,46.21712],[12.78835,46.21697]]},"properties":{}},{"type":"Feature","geometry":{"type":"LineString","coordinates":[[12.89421,46.19905],[12.89434,46.19899]]},"properties":{}},{"type":"Feature","geometry":{"type":"LineString","coordinates":[[12.89421,46.19905],[12.89373,46.19921],[12.89317,46.19932],[12.89278,46.19931],[12.89253,46.19922],[12.89183,46.19912]]},"properties":{}},{"type":"Feature","geometry":{"type":"LineString","coordinates":[[12.88491,46.19926],[12.88403,46.19934],[12.88386,46.19942]]},"properties":{}},{"type":"Feature","geometry":{"type":"LineString","coordinates":[[12.78835,46.21697],[12.78842,46.21717],[12.78839,46.21724]]},"properties":{}}]}