{"type":"FeatureCollection","features":[{"type":"Feature","geometry":{"type":"LineString","coordinates":[[12.99026,42.02183],[12.99015,42.02156],[12.99018,42.02126],[12.98999,42.02068],[12.98944,42.01933],[12.9893,42.01908],[12.98909,42.01889]]},"properties":{}},{"type":"Feature","geometry":{"type":"LineString","coordinates":[[12.99049,42.02216],[12.99026,42.02183]]},"properties":{}},{"type":"Feature","geometry":{"type":"LineString","coordinates":[[12.98997,42.02258],[12.99046,42.02233],[12.99051,42.02225],[12.99049,42.02216]]},"properties":{}},{"type":"Feature","geometry":{"type":"LineString","coordinates":[[13.0,42.08191],[12.99796,42.08235],[12.99773,42.08243],[12.99679,42.08254],[12.9965,42.08253],[12.99509,42.08231],[12.99486,42.08229],[12.99467,42.08234]]},"properties":{}},{"type":"Feature","geometry":{"type":"LineString","coordinates":[[12.7788,42.1455],[12.77963,42.14537],[12.78075,42.14552],[12.78173,42.1456],[12.78238,42.14541],[12.7829,42.14541],[12.78361,42.14562],[12.7843,42.14572],[12.78253,42.14413],[12.78251,42.14387],[12.7827,42.1426],[12.7825,42.14178],[12.78229,42.14148]]},"properties":{}},{"type":"Feature","geometry":{"type":"LineString","coordinates":[[12.8101,42.22923],[12.81024,42.22926],[12.81061,42.22921],[12.81085,42.22916],[12.81099,42.22908],[12.81111,42.22898],[12.81123,42.22879],[12.81137,42.22847],[12.8118,42.22814],[12.81199,42.22805],[12.81249,42.22787],[12.81304,42.22778],[12.81391,42.22776],[12.81406,42.2277],[12.81404,42.22764]]},"properties":{}}]}