{"type":"FeatureCollection","features":[{"type":"Feature","geometry":{"type":"LineString","coordinates":[[12.91683,42.41244],[12.91681,42.41251],[12.91685,42.41272],[12.91733,42.41414],[12.91748,42.41785],[12.91753,42.41794],[12.91761,42.41798],[12.92137,42.41791],[12.92184,42.41778],[12.92189,42.41768],[12.92132,42.41248],[12.92123,42.41242],[12.92105,42.41238],[12.91683,42.41244]]},"properties":{}},{"type":"Feature","geometry":{"type":"LineString","coordinates":[[12.91683,42.41244],[12.9137,42.41249],[12.91355,42.41253],[12.91345,42.41263],[12.91342,42.41562],[12.91337,42.41657],[12.91336,42.41868],[12.91328,42.42048],[12.91333,42.42075],[12.91341,42.42087],[12.91355,42.42096],[12.91738,42.42172]]},"properties":{}},{"type":"Feature","geometry":{"type":"LineString","coordinates":[[12.92193,42.41817],[12.92193,42.41812]]},"properties":{}},{"type":"Feature","geometry":{"type":"LineString","coordinates":[[12.87886,42.40618],[12.87934,42.40655]]},"properties":{}},{"type":"Feature","geometry":{"type":"LineString","coordinates":[[12.90306,42.40655],[12.90316,42.40656],[12.90574,42.40913],[12.90618,42.40947],[12.9066,42.40972],[12.90711,42.4099],[12.90749,42.40997],[12.91192,42.41037],[12.91224,42.41035],[12.91236,42.41029],[12.91246,42.41017]]},"properties":{}},{"type":"Feature","geometry":{"type":"LineString","coordinates":[[12.9127,42.41077],[12.91246,42.41061],[12.91203,42.41052],[12.90725,42.41006],[12.90688,42.40998],[12.90635,42.40976]]},"properties":{}},{"type":"Feature","geometry":{"type":"LineString","coordinates":[[12.91343,42.41268],[12.9133,42.41181],[12.9131,42.41112],[12.91244,42.40946],[12.91232,42.40926],[12.91212,42.40878]]},"properties":{}},{"type":"Feature","geometry":{"type":"LineString","coordinates":[[12.91145,42.40801],[12.91152,42.40815],[12.91184,42.40863],[12.91198,42.40891],[12.91282,42.41109],[12.91308,42.41199],[12.91321,42.41326],[12.91313,42.41694],[12.91314,42.41804]]},"properties":{}},{"type":"Feature","geometry":{"type":"LineString","coordinates":[[12.89331,42.41382],[12.89369,42.41416]]},"properties":{}},{"type":"Feature","geometry":{"type":"LineString","coordinates":[[12.89553,42.4152],[12.89548,42.41515],[12.89547,42.41509],[12.89552,42.41503],[12.89564,42.41501],[12.89574,42.41507],[12.89576,42.41513],[12.89572,42.41518],[12.89561,42.41522],[12.89553,42.4152]]},"properties":{}},{"type":"Feature","geometry":{"type":"LineString","coordinates":[[12.91657,42.41244],[12.91667,42.41259],[12.91715,42.41413],[12.91723,42.41566],[12.91729,42.41785],[12.91726,42.41791],[12.9172,42.41798],[12.91712,42.418],[12.91389,42.41806],[12.91353,42.41802],[12.91342,42.41795],[12.91336,42.41788]]},"properties":{}},{"type":"Feature","geometry":{"type":"LineString","coordinates":[[12.81809,42.39601],[12.81807,42.39597]]},"properties":{}},{"type":"Feature","geometry":{"type":"LineString","coordinates":[[12.81818,42.39623],[12.81809,42.39601]]},"properties":{}},{"type":"Feature","geometry":{"type":"LineString","coordinates":[[12.81819,42.39625],[12.81818,42.39623]]},"properties":{}},{"type":"Feature","geometry":{"type":"LineString","coordinates":[[12.85814,42.39774],[12.8586,42.39736],[12.85846,42.39727],[12.85848,42.39722],[12.8583,42.39709],[12.8575,42.39687],[12.85728,42.39686],[12.85697,42.39693],[12.85676,42.39707],[12.8564,42.39741]]},"properties":{}},{"type":"Feature","geometry":{"type":"LineString","coordinates":[[12.8564,42.39741],[12.85632,42.39745]]},"properties":{}},{"type":"Feature","geometry":{"type":"LineString","coordinates":[[12.85747,42.39808],[12.85717,42.39793],[12.85701,42.3979],[12.85681,42.39792]]},"properties":{}},{"type":"Feature","geometry":{"type":"LineString","coordinates":[[12.85632,42.39745],[12.85533,42.39791],[12.85388,42.39833],[12.85352,42.39839],[12.85275,42.39845],[12.85125,42.39881],[12.85066,42.3989],[12.84972,42.39892],[12.84923,42.39888],[12.84887,42.39879],[12.8486,42.39867],[12.84773,42.39819],[12.84737,42.39812],[12.84699,42.39813],[12.84663,42.39824],[12.84632,42.39837],[12.84615,42.39847],[12.84594,42.39864],[12.84577,42.39884],[12.84573,42.39899],[12.84568,42.399]]},"properties":{}},{"type":"Feature","geometry":{"type":"LineString","coordinates":[[12.86062,42.39957],[12.86005,42.39943],[12.85917,42.3993],[12.85897,42.39922],[12.85881,42.39909],[12.85875,42.399],[12.8586,42.39863],[12.85814,42.39774]]},"properties":{}},{"type":"Feature","geometry":{"type":"LineString","coordinates":[[12.85066,42.39892],[12.85066,42.3989]]},"properties":{}},{"type":"Feature","geometry":{"type":"LineString","coordinates":[[12.84372,42.39914],[12.8436,42.39903],[12.84361,42.39896],[12.84411,42.39872],[12.84422,42.3987]]},"properties":{}},{"type":"Feature","geometry":{"type":"LineString","coordinates":[[12.86434,42.39902],[12.86444,42.399]]},"properties":{}},{"type":"Feature","geometry":{"type":"LineString","coordinates":[[12.8643,42.39903],[12.86434,42.39902]]},"properties":{}},{"type":"Feature","geometry":{"type":"LineString","coordinates":[[12.86416,42.39908],[12.8643,42.39903]]},"properties":{}},{"type":"Feature","geometry":{"type":"LineString","coordinates":[[12.84318,42.39895],[12.84319,42.39904],[12.84359,42.39922]]},"properties":{}},{"type":"Feature","geometry":{"type":"LineString","coordinates":[[12.85066,42.39929],[12.85066,42.39892]]},"properties":{}},{"type":"Feature","geometry":{"type":"LineString","coordinates":[[12.85066,42.39929],[12.85019,42.39936],[12.85017,42.39944]]},"properties":{}},{"type":"Feature","geometry":{"type":"LineString","coordinates":[[12.86305,42.39971],[12.86408,42.39936],[12.86412,42.39931],[12.86411,42.39913],[12.86416,42.39908]]},"properties":{}},{"type":"Feature","geometry":{"type":"LineString","coordinates":[[12.86305,42.39971],[12.86306,42.39972]]},"properties":{}},{"type":"Feature","geometry":{"type":"LineString","coordinates":[[12.86135,42.39966],[12.86235,42.39979]]},"properties":{}},{"type":"Feature","geometry":{"type":"LineString","coordinates":[[12.86235,42.39979],[12.86264,42.39981],[12.86305,42.39971]]},"properties":{}},{"type":"Feature","geometry":{"type":"LineString","coordinates":[[12.86161,42.39977],[12.86211,42.39976]]},"properties":{}},{"type":"Feature","geometry":{"type":"LineString","coordinates":[[12.86306,42.39972],[12.86323,42.40004]]},"properties":{}},{"type":"Feature","geometry":{"type":"LineString","coordinates":[[12.86323,42.40004],[12.86323,42.40005]]},"properties":{}},{"type":"Feature","geometry":{"type":"LineString","coordinates":[[12.86289,42.40022],[12.86323,42.40005]]},"properties":{}},{"type":"Feature","geometry":{"type":"LineString","coordinates":[[12.86276,42.40058],[12.86289,42.40022]]},"properties":{}},{"type":"Feature","geometry":{"type":"LineString","coordinates":[[12.84693,42.40238],[12.84696,42.40236],[12.84695,42.4023],[12.84529,42.40062],[12.84372,42.39914]]},"properties":{}},{"type":"Feature","geometry":{"type":"LineString","coordinates":[[12.86444,42.399],[12.86503,42.39898],[12.86523,42.39901],[12.86543,42.39912],[12.86575,42.39951],[12.86572,42.40024],[12.86575,42.40045],[12.86584,42.40062],[12.86608,42.40091],[12.86607,42.40096],[12.86488,42.4015],[12.86504,42.40174],[12.8652,42.40189],[12.86549,42.40207],[12.86591,42.40224],[12.86665,42.4024],[12.86708,42.40255],[12.86753,42.40264],[12.86912,42.40264],[12.87041,42.40273],[12.87047,42.40272],[12.87098,42.40238],[12.87097,42.40233],[12.87075,42.40208],[12.87075,42.40204],[12.8708,42.40199]]},"properties":{}},{"type":"Feature","geometry":{"type":"LineString","coordinates":[[12.8605,42.40016],[12.86025,42.40058],[12.86024,42.40068],[12.86054,42.40144],[12.86071,42.40173]]},"properties":{}},{"type":"Feature","geometry":{"type":"LineString","coordinates":[[12.84695,42.40248],[12.84693,42.40238]]},"properties":{}},{"type":"Feature","geometry":{"type":"LineString","coordinates":[[12.84681,42.40248],[12.84685,42.40252]]},"properties":{}},{"type":"Feature","geometry":{"type":"LineString","coordinates":[[12.84727,42.40284],[12.84695,42.40248]]},"properties":{}},{"type":"Feature","geometry":{"type":"LineString","coordinates":[[12.84685,42.40252],[12.84718,42.40289]]},"properties":{}},{"type":"Feature","geometry":{"type":"LineString","coordinates":[[12.84718,42.40289],[12.84718,42.4029]]},"properties":{}},{"type":"Feature","geometry":{"type":"LineString","coordinates":[[12.84718,42.4029],[12.84704,42.403],[12.84688,42.40306],[12.84682,42.4033],[12.84677,42.40336],[12.84632,42.40339],[12.84604,42.40337],[12.84596,42.40413]]},"properties":{}},{"type":"Feature","geometry":{"type":"LineString","coordinates":[[12.85431,42.40416],[12.85459,42.40425],[12.85615,42.40428],[12.85661,42.40437]]},"properties":{}},{"type":"Feature","geometry":{"type":"LineString","coordinates":[[12.85437,42.40449],[12.85436,42.40431],[12.85431,42.40416]]},"properties":{}},{"type":"Feature","geometry":{"type":"LineString","coordinates":[[12.85678,42.40433],[12.85685,42.40437],[12.85687,42.40444]]},"properties":{}},{"type":"Feature","geometry":{"type":"LineString","coordinates":[[12.85661,42.4045],[12.85658,42.40442],[12.85661,42.40437],[12.85669,42.40433],[12.85678,42.40433]]},"properties":{}},{"type":"Feature","geometry":{"type":"LineString","coordinates":[[12.85687,42.40444],[12.85684,42.4045],[12.85677,42.40453]]},"properties":{}},{"type":"Feature","geometry":{"type":"LineString","coordinates":[[12.85677,42.40453],[12.85661,42.4045]]},"properties":{}},{"type":"Feature","geometry":{"type":"LineString","coordinates":[[12.85661,42.4045],[12.8548,42.40456],[12.85445,42.40454],[12.85437,42.40449]]},"properties":{}},{"type":"Feature","geometry":{"type":"LineString","coordinates":[[12.86036,42.40497],[12.85722,42.40448],[12.85723,42.40442]]},"properties":{}},{"type":"Feature","geometry":{"type":"LineString","coordinates":[[12.85158,42.40554],[12.852,42.40484],[12.85226,42.40461],[12.8525,42.40455],[12.85424,42.40455],[12.85437,42.40449]]},"properties":{}},{"type":"Feature","geometry":{"type":"LineString","coordinates":[[12.86036,42.40497],[12.86204,42.40523]]},"properties":{}},{"type":"Feature","geometry":{"type":"LineString","coordinates":[[12.87092,42.40544],[12.86934,42.40543],[12.86612,42.40501]]},"properties":{}},{"type":"Feature","geometry":{"type":"LineString","coordinates":[[12.87146,42.40531],[12.87129,42.4054]]},"properties":{}},{"type":"Feature","geometry":{"type":"LineString","coordinates":[[12.86623,42.40511],[12.86724,42.40526],[12.86931,42.40551],[12.87093,42.40552],[12.87115,42.40568]]},"properties":{}},{"type":"Feature","geometry":{"type":"LineString","coordinates":[[12.87129,42.4054],[12.87115,42.40543]]},"properties":{}},{"type":"Feature","geometry":{"type":"LineString","coordinates":[[12.87115,42.40543],[12.87092,42.40544]]},"properties":{}},{"type":"Feature","geometry":{"type":"LineString","coordinates":[[12.85154,42.40561],[12.85158,42.40554]]},"properties":{}},{"type":"Feature","geometry":{"type":"LineString","coordinates":[[12.85145,42.40576],[12.85154,42.40561]]},"properties":{}},{"type":"Feature","geometry":{"type":"LineString","coordinates":[[12.85141,42.40582],[12.85145,42.40576]]},"properties":{}},{"type":"Feature","geometry":{"type":"LineString","coordinates":[[12.8507,42.40703],[12.85141,42.40582]]},"properties":{}},{"type":"Feature","geometry":{"type":"LineString","coordinates":[[12.84899,42.40919],[12.84862,42.40897],[12.84843,42.40875],[12.84839,42.40866],[12.84847,42.40847],[12.84675,42.40696],[12.84664,42.40681],[12.84652,42.40658],[12.84648,42.40631],[12.84659,42.40579],[12.84667,42.4057],[12.84692,42.40441],[12.84677,42.40438],[12.84665,42.40426]]},"properties":{}},{"type":"Feature","geometry":{"type":"LineString","coordinates":[[12.84784,42.40671],[12.84923,42.40735]]},"properties":{}},{"type":"Feature","geometry":{"type":"LineString","coordinates":[[12.85022,42.40791],[12.8507,42.40703]]},"properties":{}},{"type":"Feature","geometry":{"type":"LineString","coordinates":[[12.84918,42.40759],[12.84999,42.40789]]},"properties":{}},{"type":"Feature","geometry":{"type":"LineString","coordinates":[[12.84999,42.40789],[12.85017,42.40792],[12.85022,42.40791]]},"properties":{}},{"type":"Feature","geometry":{"type":"LineString","coordinates":[[12.84852,42.40836],[12.84901,42.40764],[12.8491,42.40758],[12.84918,42.40759]]},"properties":{}},{"type":"Feature","geometry":{"type":"LineString","coordinates":[[12.84999,42.40789],[12.85015,42.40799],[12.85017,42.40809]]},"properties":{}},{"type":"Feature","geometry":{"type":"LineString","coordinates":[[12.8505,42.40816],[12.85028,42.408],[12.85022,42.40791]]},"properties":{}},{"type":"Feature","geometry":{"type":"LineString","coordinates":[[12.8505,42.40816],[12.8503,42.40808],[12.85017,42.40809]]},"properties":{}},{"type":"Feature","geometry":{"type":"LineString","coordinates":[[12.85017,42.40809],[12.84966,42.40944]]},"properties":{}},{"type":"Feature","geometry":{"type":"LineString","coordinates":[[12.8532,42.40958],[12.85277,42.4095],[12.85258,42.40941],[12.8505,42.40816]]},"properties":{}},{"type":"Feature","geometry":{"type":"LineString","coordinates":[[12.84966,42.40944],[12.84951,42.40926],[12.84852,42.40836]]},"properties":{}},{"type":"Feature","geometry":{"type":"LineString","coordinates":[[12.85618,42.4096],[12.8532,42.40958]]},"properties":{}},{"type":"Feature","geometry":{"type":"LineString","coordinates":[[12.84866,42.4123],[12.84952,42.40955],[12.84953,42.40946],[12.84948,42.40938],[12.84929,42.40925],[12.84914,42.4092]]},"properties":{}},{"type":"Feature","geometry":{"type":"LineString","coordinates":[[12.85715,42.41478],[12.85876,42.41478]]},"properties":{}},{"type":"Feature","geometry":{"type":"LineString","coordinates":[[12.85904,42.41478],[12.86313,42.41482]]},"properties":{}},{"type":"Feature","geometry":{"type":"LineString","coordinates":[[12.84732,42.41725],[12.84754,42.4173],[12.84765,42.41728],[12.84773,42.41723],[12.84788,42.417],[12.84814,42.41649],[12.84834,42.41622],[12.84847,42.41594],[12.8487,42.41461],[12.84871,42.41378],[12.8485,42.41342],[12.84843,42.41324],[12.8485,42.41284],[12.84863,42.41237]]},"properties":{}},{"type":"Feature","geometry":{"type":"LineString","coordinates":[[12.86354,42.41483],[12.86483,42.41491],[12.86524,42.41498]]},"properties":{}},{"type":"Feature","geometry":{"type":"LineString","coordinates":[[12.8652,42.41505],[12.86527,42.41492]]},"properties":{}},{"type":"Feature","geometry":{"type":"LineString","coordinates":[[12.86597,42.41516],[12.86613,42.41513],[12.86622,42.41517]]},"properties":{}},{"type":"Feature","geometry":{"type":"LineString","coordinates":[[12.86622,42.41517],[12.86625,42.41528],[12.8662,42.41534]]},"properties":{}},{"type":"Feature","geometry":{"type":"LineString","coordinates":[[12.8662,42.41534],[12.86611,42.41537],[12.86597,42.41534],[12.86593,42.41523],[12.86597,42.41516]]},"properties":{}},{"type":"Feature","geometry":{"type":"LineString","coordinates":[[12.86631,42.41661],[12.86646,42.41703]]},"properties":{}},{"type":"Feature","geometry":{"type":"LineString","coordinates":[[12.86646,42.41703],[12.86627,42.41677],[12.86611,42.41669]]},"properties":{}},{"type":"Feature","geometry":{"type":"LineString","coordinates":[[12.84714,42.41777],[12.84741,42.41754],[12.8474,42.41747],[12.84722,42.41734]]},"properties":{}},{"type":"Feature","geometry":{"type":"LineString","coordinates":[[12.84324,42.42408],[12.84424,42.42432],[12.84432,42.4243],[12.84448,42.4233],[12.84437,42.42261],[12.84439,42.42226],[12.84448,42.42199],[12.84463,42.42166],[12.84492,42.42129],[12.84519,42.42068],[12.84561,42.42025],[12.84572,42.42018],[12.84675,42.41909],[12.84717,42.41831],[12.84722,42.4179]]},"properties":{}},{"type":"Feature","geometry":{"type":"LineString","coordinates":[[12.85642,42.42142],[12.85636,42.42142]]},"properties":{}},{"type":"Feature","geometry":{"type":"LineString","coordinates":[[12.83941,42.42389],[12.8396,42.42403]]},"properties":{}},{"type":"Feature","geometry":{"type":"LineString","coordinates":[[12.84319,42.42407],[12.84324,42.42408]]},"properties":{}},{"type":"Feature","geometry":{"type":"LineString","coordinates":[[12.8396,42.42403],[12.8423,42.42462],[12.84237,42.42461]]},"properties":{}},{"type":"Feature","geometry":{"type":"LineString","coordinates":[[12.81264,42.39845],[12.81263,42.39835],[12.81277,42.3979],[12.81305,42.39732],[12.81325,42.397],[12.81354,42.39672],[12.81365,42.39667],[12.81521,42.39633],[12.8167,42.39646],[12.81713,42.39647],[12.81748,42.39643],[12.81793,42.39629],[12.81819,42.39625]]},"properties":{}},{"type":"Feature","geometry":{"type":"LineString","coordinates":[[12.79043,42.39933],[12.79066,42.39915]]},"properties":{}},{"type":"Feature","geometry":{"type":"LineString","coordinates":[[12.79027,42.39953],[12.79043,42.39933]]},"properties":{}},{"type":"Feature","geometry":{"type":"LineString","coordinates":[[12.78558,42.40485],[12.78652,42.40385],[12.78739,42.40283],[12.78879,42.40129],[12.79027,42.39953]]},"properties":{}},{"type":"Feature","geometry":{"type":"LineString","coordinates":[[12.78544,42.405],[12.78558,42.40485]]},"properties":{}},{"type":"Feature","geometry":{"type":"LineString","coordinates":[[12.78541,42.40514],[12.78544,42.405]]},"properties":{}},{"type":"Feature","geometry":{"type":"LineString","coordinates":[[12.78962,42.43633],[12.7896,42.43624]]},"properties":{}},{"type":"Feature","geometry":{"type":"LineString","coordinates":[[12.80356,42.44426],[12.80286,42.44236],[12.80294,42.44233],[12.80286,42.44211],[12.80329,42.44184],[12.80344,42.44157],[12.80352,42.44123],[12.80364,42.44099],[12.80375,42.44085],[12.80393,42.44071],[12.8046,42.44035],[12.80503,42.44021],[12.80534,42.44021],[12.80623,42.44034],[12.80644,42.44029],[12.80655,42.44023],[12.80697,42.43991],[12.80708,42.43962],[12.8071,42.43945],[12.80707,42.43936],[12.80693,42.43901],[12.80683,42.43889],[12.80691,42.43879],[12.80718,42.43866],[12.80745,42.43842],[12.80871,42.43769],[12.80877,42.43757],[12.81042,42.43651],[12.81404,42.43423],[12.81588,42.43312],[12.81674,42.43274],[12.81784,42.43232],[12.8192,42.43201],[12.81929,42.43204],[12.81934,42.43212],[12.81948,42.43211],[12.81959,42.43196],[12.81971,42.43191],[12.82043,42.4318],[12.82176,42.43174],[12.82348,42.43182],[12.8247,42.43185],[12.8272,42.43168],[12.82726,42.43224],[12.82729,42.43228],[12.82734,42.43232],[12.8276,42.43232],[12.82771,42.43239],[12.82839,42.43196],[12.82857,42.43179],[12.82876,42.43154]]},"properties":{}},{"type":"Feature","geometry":{"type":"LineString","coordinates":[[12.78962,42.43633],[12.78969,42.43636],[12.78989,42.43633],[12.79028,42.43656],[12.79073,42.43709],[12.79093,42.43729],[12.79349,42.43843],[12.79384,42.4388],[12.79396,42.439],[12.79398,42.43909],[12.79388,42.43941],[12.79348,42.43982],[12.79343,42.43996],[12.79345,42.4401],[12.79354,42.44022],[12.79379,42.44044],[12.79386,42.44057],[12.79401,42.44069],[12.79504,42.44134],[12.79497,42.442],[12.795,42.44204],[12.79556,42.44204],[12.79557,42.44217],[12.79562,42.44223]]},"properties":{}},{"type":"Feature","geometry":{"type":"LineString","coordinates":[[12.79619,42.4422],[12.79575,42.44222]]},"properties":{}},{"type":"Feature","geometry":{"type":"LineString","coordinates":[[12.84239,42.42456],[12.84292,42.42464],[12.84313,42.42408],[12.84319,42.42407]]},"properties":{}},{"type":"Feature","geometry":{"type":"LineString","coordinates":[[12.84237,42.42461],[12.84239,42.42456]]},"properties":{}},{"type":"Feature","geometry":{"type":"LineString","coordinates":[[12.85636,42.42142],[12.85631,42.42142],[12.85615,42.42676],[12.85614,42.42807],[12.85613,42.42821],[12.85603,42.42848],[12.85605,42.42851],[12.85614,42.42851]]},"properties":{}},{"type":"Feature","geometry":{"type":"LineString","coordinates":[[12.85636,42.42142],[12.85618,42.4279],[12.85614,42.42851]]},"properties":{}},{"type":"Feature","geometry":{"type":"LineString","coordinates":[[12.82876,42.43154],[12.82969,42.43138],[12.83035,42.43122],[12.83082,42.43105],[12.83142,42.43072],[12.8318,42.43043],[12.83229,42.42998],[12.8333,42.42921],[12.83431,42.42814],[12.83513,42.42748],[12.83558,42.42698],[12.83599,42.42661],[12.83624,42.42644],[12.83706,42.42546],[12.83767,42.42487],[12.83842,42.42432],[12.83906,42.42407],[12.83941,42.42389]]},"properties":{}},{"type":"Feature","geometry":{"type":"LineString","coordinates":[[12.85614,42.42851],[12.85624,42.42852],[12.85622,42.42878],[12.8563,42.42901]]},"properties":{}},{"type":"Feature","geometry":{"type":"LineString","coordinates":[[12.84696,42.4312],[12.84701,42.43113],[12.84657,42.43072],[12.84598,42.43003],[12.8459,42.4299],[12.84557,42.42912],[12.84542,42.42859],[12.84538,42.42832],[12.84538,42.42655]]},"properties":{}},{"type":"Feature","geometry":{"type":"LineString","coordinates":[[12.8276,42.43232],[12.82772,42.4323],[12.82813,42.43208],[12.82836,42.43191],[12.82867,42.43155]]},"properties":{}},{"type":"Feature","geometry":{"type":"LineString","coordinates":[[12.79562,42.44223],[12.79563,42.44226],[12.79576,42.44225]]},"properties":{}},{"type":"Feature","geometry":{"type":"LineString","coordinates":[[12.79576,42.44225],[12.79619,42.44223]]},"properties":{}},{"type":"Feature","geometry":{"type":"LineString","coordinates":[[12.79619,42.44223],[12.79627,42.44223],[12.79629,42.44242],[12.79665,42.4429],[12.79677,42.443],[12.79831,42.44357],[12.7986,42.44355],[12.79946,42.44363],[12.80054,42.44396],[12.80168,42.44438],[12.80356,42.44426]]},"properties":{}},{"type":"Feature","geometry":{"type":"LineString","coordinates":[[12.91252,42.42083],[12.91289,42.42079],[12.91296,42.42073],[12.91307,42.42052],[12.91309,42.41911],[12.91298,42.41899],[12.91295,42.41888]]},"properties":{}},{"type":"Feature","geometry":{"type":"LineString","coordinates":[[12.91544,42.42151],[12.91514,42.42145],[12.91481,42.42143],[12.91444,42.42149]]},"properties":{}},{"type":"Feature","geometry":{"type":"LineString","coordinates":[[12.91633,42.42168],[12.91552,42.42152]]},"properties":{}},{"type":"Feature","geometry":{"type":"LineString","coordinates":[[12.91444,42.42149],[12.91423,42.42168],[12.91384,42.42215],[12.91345,42.42272],[12.91333,42.42297],[12.91324,42.42344],[12.91297,42.4259],[12.91315,42.42603],[12.9136,42.42617],[12.91565,42.42661],[12.91991,42.4275],[12.92013,42.42752],[12.9203,42.4275],[12.92044,42.42742],[12.92165,42.42513]]},"properties":{}},{"type":"Feature","geometry":{"type":"LineString","coordinates":[[12.91389,42.4314],[12.91389,42.43123],[12.91373,42.43078],[12.91289,42.42773],[12.91285,42.42702],[12.91297,42.4259]]},"properties":{}},{"type":"Feature","geometry":{"type":"LineString","coordinates":[[12.91292,42.42629],[12.91311,42.42622],[12.9135,42.42628],[12.91474,42.42657],[12.91492,42.42658],[12.92011,42.42767],[12.9202,42.42781],[12.91903,42.43004],[12.91887,42.43024],[12.91852,42.43101],[12.91839,42.43124]]},"properties":{}},{"type":"Feature","geometry":{"type":"LineString","coordinates":[[12.91336,42.41837],[12.91356,42.41824],[12.91396,42.41819],[12.92135,42.41804],[12.92166,42.41807],[12.92193,42.41817],[12.92215,42.42057],[12.92237,42.42239],[12.92234,42.4225],[12.92223,42.42261],[12.9221,42.42265],[12.9219,42.42263],[12.91905,42.42207],[12.91893,42.42201],[12.9184,42.42189]]},"properties":{}},{"type":"Feature","geometry":{"type":"LineString","coordinates":[[12.91822,42.42185],[12.91759,42.42171],[12.91738,42.42172]]},"properties":{}},{"type":"Feature","geometry":{"type":"LineString","coordinates":[[12.91654,42.42173],[12.91719,42.42185],[12.9174,42.42186],[12.9208,42.42253],[12.92211,42.42282],[12.92226,42.4229],[12.9224,42.42304],[12.92243,42.42311]]},"properties":{}},{"type":"Feature","geometry":{"type":"LineString","coordinates":[[12.92171,42.42499],[12.92232,42.4242],[12.92244,42.42397],[12.92247,42.42386],[12.92243,42.42311]]},"properties":{}},{"type":"Feature","geometry":{"type":"LineString","coordinates":[[12.92171,42.42499],[12.92165,42.42513]]},"properties":{}}]}