{"type":"FeatureCollection","features":[{"type":"Feature","geometry":{"type":"LineString","coordinates":[[12.76837,37.58666],[12.76875,37.58668]]},"properties":{}},{"type":"Feature","geometry":{"type":"LineString","coordinates":[[12.76864,37.58686],[12.76851,37.58683],[12.76834,37.58671]]},"properties":{}},{"type":"Feature","geometry":{"type":"LineString","coordinates":[[12.78253,37.58737],[12.78269,37.58738],[12.7828,37.58731]]},"properties":{}},{"type":"Feature","geometry":{"type":"LineString","coordinates":[[12.83306,37.58229],[12.8321,37.58269],[12.83179,37.58296],[12.83173,37.58308],[12.83176,37.58317]]},"properties":{}},{"type":"Feature","geometry":{"type":"LineString","coordinates":[[12.83176,37.58317],[12.83188,37.58318],[12.83215,37.58302],[12.83251,37.58288],[12.83292,37.58279],[12.83418,37.58265],[12.83456,37.58269]]},"properties":{}},{"type":"Feature","geometry":{"type":"LineString","coordinates":[[12.84412,37.616],[12.84451,37.61586],[12.8447,37.61568],[12.84487,37.61541],[12.84499,37.61505],[12.84512,37.61411]]},"properties":{}},{"type":"Feature","geometry":{"type":"LineString","coordinates":[[12.84373,37.61653],[12.84395,37.61676],[12.84414,37.61683],[12.84461,37.61688]]},"properties":{}},{"type":"Feature","geometry":{"type":"LineString","coordinates":[[12.84353,37.61694],[12.84372,37.61682],[12.84376,37.61669],[12.84373,37.61653]]},"properties":{}},{"type":"Feature","geometry":{"type":"LineString","coordinates":[[12.84823,37.61642],[12.84644,37.61705]]},"properties":{}},{"type":"Feature","geometry":{"type":"LineString","coordinates":[[12.84695,37.61667],[12.847,37.61676],[12.84696,37.61685]]},"properties":{}},{"type":"Feature","geometry":{"type":"LineString","coordinates":[[12.84399,37.61691],[12.84389,37.61684],[12.84376,37.61669]]},"properties":{}},{"type":"Feature","geometry":{"type":"LineString","coordinates":[[12.84656,37.61696],[12.84686,37.61682],[12.84695,37.61667]]},"properties":{}},{"type":"Feature","geometry":{"type":"LineString","coordinates":[[12.845,37.61613],[12.84501,37.61643],[12.8449,37.61719],[12.84494,37.61741],[12.84502,37.61749],[12.84517,37.61753],[12.84548,37.6175]]},"properties":{}},{"type":"Feature","geometry":{"type":"LineString","coordinates":[[12.78282,37.58722],[12.7829,37.58759]]},"properties":{}},{"type":"Feature","geometry":{"type":"LineString","coordinates":[[12.78278,37.58761],[12.78282,37.58722]]},"properties":{}},{"type":"Feature","geometry":{"type":"LineString","coordinates":[[12.76851,37.58631],[12.76866,37.58661],[12.76875,37.58668],[12.77127,37.58805],[12.77145,37.58813],[12.77184,37.5882],[12.77249,37.58817],[12.7795,37.58726],[12.78137,37.58708],[12.78165,37.58708],[12.78193,37.58713],[12.78272,37.58746],[12.7829,37.58759],[12.78364,37.58974],[12.78377,37.5899],[12.78393,37.59004],[12.78411,37.59013],[12.78433,37.59018],[12.79097,37.58969],[12.79146,37.58977],[12.79187,37.5899],[12.79457,37.59128],[12.79483,37.59139],[12.79537,37.59154],[12.79591,37.59156],[12.80522,37.59094],[12.80537,37.59097],[12.80553,37.59105],[12.80571,37.5912],[12.80578,37.59131]]},"properties":{}},{"type":"Feature","geometry":{"type":"LineString","coordinates":[[12.80514,37.59136],[12.8048,37.59119],[12.80439,37.59109],[12.79591,37.59164],[12.7956,37.59164],[12.79533,37.5916],[12.79478,37.59146],[12.79188,37.58999],[12.79146,37.58984],[12.79095,37.58976],[12.78429,37.59025],[12.78389,37.59013],[12.78368,37.58996],[12.78356,37.58981],[12.78283,37.5877],[12.78278,37.58761],[12.78266,37.58752],[12.78214,37.5873],[12.78169,37.58717],[12.78138,37.58716],[12.77892,37.58739],[12.77214,37.58829],[12.77182,37.58828],[12.77151,37.58823],[12.77119,37.58812],[12.76893,37.58689],[12.76864,37.58686],[12.7684,37.58693],[12.76818,37.58707]]},"properties":{}},{"type":"Feature","geometry":{"type":"LineString","coordinates":[[12.80522,37.59094],[12.80541,37.59091],[12.80573,37.59078],[12.80584,37.59069],[12.8061,37.59035]]},"properties":{}},{"type":"Feature","geometry":{"type":"LineString","coordinates":[[12.80541,37.59099],[12.80545,37.59105],[12.80546,37.59117],[12.80538,37.59128],[12.80531,37.59132]]},"properties":{}},{"type":"Feature","geometry":{"type":"LineString","coordinates":[[12.80585,37.5911],[12.80564,37.59124],[12.80548,37.5913],[12.80526,37.59132],[12.80496,37.59126]]},"properties":{}},{"type":"Feature","geometry":{"type":"LineString","coordinates":[[12.80546,37.59226],[12.80543,37.59182],[12.80536,37.59164],[12.80508,37.59128],[12.80502,37.59116],[12.80509,37.591],[12.80522,37.59094]]},"properties":{}},{"type":"Feature","geometry":{"type":"LineString","coordinates":[[12.80536,37.59349],[12.80491,37.59411],[12.80463,37.59441]]},"properties":{}},{"type":"Feature","geometry":{"type":"LineString","coordinates":[[12.75718,37.64102],[12.75,37.63542]]},"properties":{}},{"type":"Feature","geometry":{"type":"LineString","coordinates":[[12.84395,37.61676],[12.84399,37.61685],[12.84399,37.61691]]},"properties":{}},{"type":"Feature","geometry":{"type":"LineString","coordinates":[[12.84644,37.61705],[12.84656,37.61696],[12.84659,37.6169],[12.8465,37.61674]]},"properties":{}},{"type":"Feature","geometry":{"type":"LineString","coordinates":[[12.84461,37.61785],[12.84485,37.61672],[12.84483,37.61651],[12.84476,37.61634],[12.84458,37.61614],[12.84447,37.61606],[12.84412,37.616]]},"properties":{}},{"type":"Feature","geometry":{"type":"LineString","coordinates":[[12.84548,37.6175],[12.84484,37.61798],[12.84452,37.61835],[12.84425,37.6188],[12.84397,37.61936],[12.84377,37.6196]]},"properties":{}},{"type":"Feature","geometry":{"type":"LineString","coordinates":[[12.82504,37.62072],[12.82511,37.62085]]},"properties":{}},{"type":"Feature","geometry":{"type":"LineString","coordinates":[[12.82505,37.62091],[12.82504,37.62072]]},"properties":{}},{"type":"Feature","geometry":{"type":"LineString","coordinates":[[12.82526,37.62066],[12.82511,37.62085],[12.82508,37.62098]]},"properties":{}},{"type":"Feature","geometry":{"type":"LineString","coordinates":[[12.82508,37.62098],[12.82501,37.62088],[12.82478,37.62081]]},"properties":{}},{"type":"Feature","geometry":{"type":"LineString","coordinates":[[12.82388,37.66293],[12.82405,37.66283],[12.82419,37.66266],[12.82421,37.66186],[12.82426,37.66176],[12.8245,37.66161],[12.82536,37.66142],[12.82901,37.66013],[12.83062,37.65949],[12.83175,37.65908],[12.83386,37.65835],[12.83449,37.65818],[12.83583,37.65789],[12.8377,37.65732],[12.83929,37.65659],[12.84055,37.6562],[12.84226,37.65554],[12.84466,37.65476],[12.845,37.65466],[12.84591,37.65448],[12.84836,37.65411],[12.84949,37.65423],[12.85088,37.65443],[12.8513,37.65444],[12.85149,37.6544],[12.85262,37.65394],[12.85503,37.65209],[12.85686,37.65131]]},"properties":{}},{"type":"Feature","geometry":{"type":"LineString","coordinates":[[12.8235,37.6631],[12.82388,37.66293]]},"properties":{}},{"type":"Feature","geometry":{"type":"LineString","coordinates":[[12.78209,37.66284],[12.78212,37.6628],[12.78218,37.66279],[12.78225,37.66285],[12.78222,37.66289],[12.78216,37.66291],[12.78209,37.66284]]},"properties":{}},{"type":"Feature","geometry":{"type":"LineString","coordinates":[[12.80505,37.66392],[12.80492,37.66384]]},"properties":{}},{"type":"Feature","geometry":{"type":"LineString","coordinates":[[12.78302,37.66381],[12.78325,37.66398],[12.78387,37.66461],[12.78415,37.66483]]},"properties":{}},{"type":"Feature","geometry":{"type":"LineString","coordinates":[[12.78403,37.66489],[12.78318,37.66403],[12.78302,37.66381]]},"properties":{}},{"type":"Feature","geometry":{"type":"LineString","coordinates":[[12.8082,37.66493],[12.80817,37.66475],[12.80801,37.66436],[12.80789,37.66425],[12.80586,37.66387],[12.80527,37.66389],[12.80483,37.66396]]},"properties":{}},{"type":"Feature","geometry":{"type":"LineString","coordinates":[[12.78415,37.66493],[12.78405,37.66492],[12.78404,37.66485],[12.78408,37.66482],[12.78415,37.66483],[12.78419,37.66488],[12.78415,37.66493]]},"properties":{}},{"type":"Feature","geometry":{"type":"LineString","coordinates":[[12.80836,37.66489],[12.80842,37.66495],[12.80839,37.66503],[12.80829,37.66506],[12.80821,37.66502],[12.80819,37.66497],[12.80822,37.6649],[12.80836,37.66489]]},"properties":{}},{"type":"Feature","geometry":{"type":"LineString","coordinates":[[12.78417,37.66484],[12.78461,37.66541],[12.78479,37.6657],[12.78515,37.66596]]},"properties":{}},{"type":"Feature","geometry":{"type":"LineString","coordinates":[[12.78506,37.66609],[12.78454,37.66544],[12.78407,37.66493]]},"properties":{}},{"type":"Feature","geometry":{"type":"LineString","coordinates":[[12.78546,37.66625],[12.78541,37.66629],[12.78529,37.66631],[12.78506,37.66609],[12.78509,37.66601],[12.78515,37.66596],[12.78533,37.666],[12.78545,37.66616],[12.78546,37.66625]]},"properties":{}},{"type":"Feature","geometry":{"type":"LineString","coordinates":[[12.78546,37.66625],[12.78553,37.66647]]},"properties":{}},{"type":"Feature","geometry":{"type":"LineString","coordinates":[[12.78553,37.66647],[12.78541,37.66642],[12.78529,37.66631]]},"properties":{}},{"type":"Feature","geometry":{"type":"LineString","coordinates":[[12.81332,37.67235],[12.80871,37.66721],[12.80736,37.66606],[12.80733,37.66595],[12.80739,37.6658],[12.80809,37.66513],[12.80819,37.66497]]},"properties":{}},{"type":"Feature","geometry":{"type":"LineString","coordinates":[[12.80832,37.66506],[12.80821,37.66512],[12.80745,37.66588],[12.80746,37.66602],[12.80875,37.6671],[12.81342,37.67231]]},"properties":{}},{"type":"Feature","geometry":{"type":"LineString","coordinates":[[12.78819,37.66905],[12.78831,37.66889],[12.78826,37.66872]]},"properties":{}},{"type":"Feature","geometry":{"type":"LineString","coordinates":[[12.78823,37.66905],[12.7885,37.66889]]},"properties":{}},{"type":"Feature","geometry":{"type":"LineString","coordinates":[[12.78865,37.669],[12.78823,37.66905]]},"properties":{}},{"type":"Feature","geometry":{"type":"LineString","coordinates":[[12.81676,37.67098],[12.81699,37.6712],[12.81728,37.67136]]},"properties":{}},{"type":"Feature","geometry":{"type":"LineString","coordinates":[[12.81698,37.67147],[12.81693,37.67128],[12.81676,37.67098]]},"properties":{}},{"type":"Feature","geometry":{"type":"LineString","coordinates":[[12.81637,37.67154],[12.81666,37.67128],[12.81673,37.67114],[12.81676,37.67098]]},"properties":{}},{"type":"Feature","geometry":{"type":"LineString","coordinates":[[12.81701,37.67143],[12.8172,37.67135],[12.81739,37.67139],[12.8175,37.67149],[12.8175,37.67164],[12.81745,37.67173],[12.81735,37.67178],[12.81721,37.6718],[12.81711,37.67178],[12.81697,37.67167],[12.81696,37.67151],[12.81701,37.67143]]},"properties":{}},{"type":"Feature","geometry":{"type":"LineString","coordinates":[[12.81428,37.67175],[12.81441,37.67186],[12.81458,37.67192]]},"properties":{}},{"type":"Feature","geometry":{"type":"LineString","coordinates":[[12.81428,37.67175],[12.81433,37.67199]]},"properties":{}},{"type":"Feature","geometry":{"type":"LineString","coordinates":[[12.81433,37.67199],[12.81424,37.67189],[12.81419,37.67177]]},"properties":{}},{"type":"Feature","geometry":{"type":"LineString","coordinates":[[12.81413,37.67205],[12.81419,37.67193],[12.81419,37.67177]]},"properties":{}},{"type":"Feature","geometry":{"type":"LineString","coordinates":[[12.8174,37.67176],[12.81745,37.67217],[12.81713,37.67568]]},"properties":{}},{"type":"Feature","geometry":{"type":"LineString","coordinates":[[12.81702,37.67567],[12.81735,37.67217],[12.81711,37.67178]]},"properties":{}},{"type":"Feature","geometry":{"type":"LineString","coordinates":[[12.81342,37.67231],[12.81356,37.67255],[12.81428,37.67557]]},"properties":{}},{"type":"Feature","geometry":{"type":"LineString","coordinates":[[12.81422,37.6757],[12.81346,37.67258],[12.81332,37.67235]]},"properties":{}},{"type":"Feature","geometry":{"type":"LineString","coordinates":[[12.79167,37.67786],[12.7917,37.67633],[12.79187,37.67341]]},"properties":{}},{"type":"Feature","geometry":{"type":"LineString","coordinates":[[12.79341,37.67657],[12.79411,37.67601]]},"properties":{}},{"type":"Feature","geometry":{"type":"LineString","coordinates":[[12.81745,37.67143],[12.81909,37.67113],[12.8193,37.67123],[12.81938,37.67135],[12.81959,37.67204],[12.81981,37.67307],[12.81985,37.67375],[12.81979,37.67553],[12.81975,37.67612],[12.8195,37.67806],[12.81918,37.67929],[12.81882,37.68137],[12.81869,37.68186],[12.81864,37.68197]]},"properties":{}},{"type":"Feature","geometry":{"type":"LineString","coordinates":[[12.81864,37.68197],[12.8186,37.68186],[12.81876,37.68088],[12.81907,37.67931],[12.81938,37.67805],[12.81961,37.67638],[12.8197,37.67493],[12.81973,37.67352],[12.8197,37.67314],[12.81964,37.67273],[12.81946,37.67193],[12.81926,37.67134],[12.81918,37.67127],[12.81904,37.67123],[12.81772,37.67148],[12.8176,37.67153],[12.81751,37.67162]]},"properties":{}},{"type":"Feature","geometry":{"type":"LineString","coordinates":[[12.79411,37.67601],[12.7942,37.67731]]},"properties":{}},{"type":"Feature","geometry":{"type":"LineString","coordinates":[[12.79296,37.67691],[12.79341,37.67657]]},"properties":{}},{"type":"Feature","geometry":{"type":"LineString","coordinates":[[12.79243,37.67732],[12.79296,37.67691]]},"properties":{}},{"type":"Feature","geometry":{"type":"LineString","coordinates":[[12.97587,37.55125],[12.97736,37.54994],[12.98038,37.54787],[12.98127,37.54718],[12.98214,37.54658],[12.9846,37.54542],[12.9861,37.54465]]},"properties":{}},{"type":"Feature","geometry":{"type":"LineString","coordinates":[[12.97582,37.5513],[12.97587,37.55125]]},"properties":{}},{"type":"Feature","geometry":{"type":"LineString","coordinates":[[12.98204,37.5607],[12.98188,37.56049],[12.98155,37.5602],[12.98058,37.55948],[12.98035,37.55924],[12.97878,37.55669],[12.97802,37.55551],[12.97781,37.55525],[12.97735,37.5549],[12.97623,37.55443],[12.97563,37.5541],[12.97543,37.55394],[12.97517,37.55358],[12.97502,37.55324],[12.97496,37.55296],[12.97495,37.5527],[12.975,37.55244],[12.97518,37.55201],[12.97582,37.5513]]},"properties":{}},{"type":"Feature","geometry":{"type":"LineString","coordinates":[[12.98209,37.56079],[12.98204,37.5607]]},"properties":{}},{"type":"Feature","geometry":{"type":"LineString","coordinates":[[12.99035,37.56869],[12.99012,37.5682],[12.99001,37.56805],[12.98967,37.56776],[12.9893,37.56757],[12.98871,37.5674],[12.98794,37.56711],[12.98763,37.56695],[12.98743,37.56678],[12.98724,37.56656],[12.98633,37.56505],[12.98601,37.56473],[12.98581,37.56459],[12.98411,37.56365],[12.98393,37.56352],[12.98373,37.56332],[12.98295,37.56233],[12.98268,37.56192],[12.98209,37.56079]]},"properties":{}},{"type":"Feature","geometry":{"type":"LineString","coordinates":[[12.98281,37.58315],[12.98308,37.58265],[12.98365,37.58197],[12.98449,37.5812],[12.98477,37.58097],[12.98544,37.58064],[12.986,37.58047],[12.98658,37.58042],[12.98717,37.58041],[12.98872,37.58045],[12.98901,37.58037],[12.98933,37.58022],[12.98958,37.57999],[12.98974,37.57976],[12.98981,37.57956],[12.98978,37.57913],[12.9896,37.57814],[12.98961,37.57797],[12.98978,37.57759],[12.99029,37.57693],[12.99051,37.57649],[12.99057,37.57623],[12.99074,37.57497],[12.9917,37.57131],[12.99173,37.57098],[12.99167,37.57069],[12.99155,37.57044],[12.99061,37.56936],[12.99035,37.56869]]},"properties":{}},{"type":"Feature","geometry":{"type":"LineString","coordinates":[[12.98277,37.58322],[12.98281,37.58315]]},"properties":{}},{"type":"Feature","geometry":{"type":"LineString","coordinates":[[12.91841,37.58048],[12.9188,37.58074],[12.91924,37.58126],[12.9215,37.58578],[12.92326,37.58786],[12.92364,37.58822],[12.92384,37.58833],[12.92428,37.5885],[12.92472,37.58855],[12.92494,37.58855],[12.92823,37.58823],[12.93125,37.58798],[12.93298,37.5878],[12.93452,37.58771],[12.93502,37.58777],[12.93546,37.58796],[12.93576,37.58824],[12.93592,37.58858],[12.93617,37.58939],[12.93641,37.58972],[12.93657,37.58986],[12.93693,37.59008],[12.93719,37.59018],[12.93923,37.59089],[12.93979,37.591],[12.94247,37.59131],[12.94576,37.59138],[12.9462,37.59151],[12.94642,37.59161],[12.94677,37.59186],[12.947,37.59214],[12.94809,37.594],[12.94838,37.59422],[12.94874,37.59437]]},"properties":{}},{"type":"Feature","geometry":{"type":"LineString","coordinates":[[12.93216,37.58819],[12.93271,37.58828],[12.93277,37.58832]]},"properties":{}},{"type":"Feature","geometry":{"type":"LineString","coordinates":[[12.93268,37.58833],[12.93216,37.58819]]},"properties":{}},{"type":"Feature","geometry":{"type":"LineString","coordinates":[[12.93209,37.58851],[12.93236,37.58834],[12.93238,37.58828],[12.93235,37.58824]]},"properties":{}},{"type":"Feature","geometry":{"type":"LineString","coordinates":[[12.9822,37.59583],[12.98278,37.5956],[12.98305,37.59542],[12.9833,37.59515],[12.98343,37.59492],[12.98349,37.59472],[12.98349,37.59448],[12.98344,37.59418],[12.98329,37.59388],[12.98114,37.59071],[12.98105,37.59051],[12.98102,37.59031],[12.98103,37.59006],[12.98107,37.58982],[12.98174,37.58867],[12.98193,37.58822],[12.98224,37.58667],[12.98223,37.58634],[12.98219,37.58617],[12.98192,37.58546],[12.98189,37.58525],[12.98191,37.58499],[12.98277,37.58322]]},"properties":{}},{"type":"Feature","geometry":{"type":"LineString","coordinates":[[12.95589,37.59397],[12.95842,37.5942],[12.95885,37.59432],[12.95906,37.59443],[12.95933,37.59467],[12.95952,37.59494],[12.95982,37.59548],[12.96003,37.59574],[12.96031,37.59593],[12.96048,37.59599],[12.96086,37.59605],[12.96105,37.59604],[12.96141,37.59595],[12.96231,37.5955],[12.9625,37.59544],[12.96295,37.59537],[12.96383,37.59536],[12.96427,37.59529],[12.96451,37.59522],[12.96542,37.59481],[12.96582,37.59458],[12.96614,37.59428],[12.96633,37.59395],[12.96637,37.5938],[12.96639,37.59363],[12.96637,37.59332],[12.96615,37.5924],[12.96619,37.59208],[12.96626,37.59194],[12.96645,37.59171],[12.96676,37.59153],[12.96694,37.59147],[12.96713,37.59143],[12.96756,37.59144],[12.96952,37.59173],[12.97003,37.59184],[12.97057,37.59208],[12.97167,37.59281]]},"properties":{}},{"type":"Feature","geometry":{"type":"LineString","coordinates":[[12.95585,37.59396],[12.95589,37.59397]]},"properties":{}},{"type":"Feature","geometry":{"type":"LineString","coordinates":[[12.94886,37.59438],[12.94874,37.59437]]},"properties":{}},{"type":"Feature","geometry":{"type":"LineString","coordinates":[[12.94886,37.59438],[12.94932,37.59437],[12.95052,37.594],[12.95097,37.59395],[12.95138,37.59403],[12.95159,37.59412],[12.95273,37.59473],[12.95292,37.59479],[12.95327,37.59482],[12.95347,37.5948],[12.95391,37.59464],[12.95502,37.59404],[12.95537,37.59396],[12.95585,37.59396]]},"properties":{}},{"type":"Feature","geometry":{"type":"LineString","coordinates":[[12.97817,37.5939],[12.97869,37.59396],[12.97902,37.59408],[12.9793,37.59424],[12.97953,37.59441],[12.98038,37.59528],[12.98081,37.59559],[12.98102,37.5957],[12.98144,37.59583],[12.98188,37.59586]]},"properties":{}},{"type":"Feature","geometry":{"type":"LineString","coordinates":[[12.98188,37.59586],[12.9822,37.59583]]},"properties":{}},{"type":"Feature","geometry":{"type":"LineString","coordinates":[[12.79446,37.6778],[12.79575,37.67756],[12.79659,37.6773]]},"properties":{}},{"type":"Feature","geometry":{"type":"LineString","coordinates":[[12.7918,37.67783],[12.79243,37.67732]]},"properties":{}},{"type":"Feature","geometry":{"type":"LineString","coordinates":[[12.79227,37.67824],[12.7918,37.67783]]},"properties":{}},{"type":"Feature","geometry":{"type":"LineString","coordinates":[[12.7942,37.67731],[12.79446,37.6778],[12.79481,37.67861],[12.79493,37.67905],[12.79499,37.67951]]},"properties":{}},{"type":"Feature","geometry":{"type":"LineString","coordinates":[[12.79271,37.67859],[12.79227,37.67824]]},"properties":{}},{"type":"Feature","geometry":{"type":"LineString","coordinates":[[12.79769,37.67859],[12.7988,37.67825]]},"properties":{}},{"type":"Feature","geometry":{"type":"LineString","coordinates":[[12.793,37.67886],[12.79273,37.67865]]},"properties":{}},{"type":"Feature","geometry":{"type":"LineString","coordinates":[[12.79326,37.6793],[12.79302,37.67895],[12.793,37.67886]]},"properties":{}},{"type":"Feature","geometry":{"type":"LineString","coordinates":[[12.79713,37.67875],[12.79657,37.67891],[12.79568,37.67925],[12.79498,37.67946]]},"properties":{}},{"type":"Feature","geometry":{"type":"LineString","coordinates":[[12.79332,37.67939],[12.79326,37.6793]]},"properties":{}},{"type":"Feature","geometry":{"type":"LineString","coordinates":[[12.79158,37.67942],[12.79056,37.67951]]},"properties":{}},{"type":"Feature","geometry":{"type":"LineString","coordinates":[[12.78355,37.67987],[12.78644,37.67938],[12.78686,37.67941],[12.78697,37.67949]]},"properties":{}},{"type":"Feature","geometry":{"type":"LineString","coordinates":[[12.78697,37.67949],[12.78645,37.67945],[12.78615,37.67949],[12.78365,37.67998]]},"properties":{}},{"type":"Feature","geometry":{"type":"LineString","coordinates":[[12.79098,37.6808],[12.79193,37.68016],[12.79192,37.6799],[12.79205,37.67948],[12.79201,37.67936]]},"properties":{}},{"type":"Feature","geometry":{"type":"LineString","coordinates":[[12.7906,37.67967],[12.79044,37.68065],[12.79048,37.68083],[12.7906,37.68089]]},"properties":{}},{"type":"Feature","geometry":{"type":"LineString","coordinates":[[12.79502,37.67971],[12.79521,37.68073],[12.7955,37.68205]]},"properties":{}},{"type":"Feature","geometry":{"type":"LineString","coordinates":[[12.79063,37.68101],[12.79053,37.681],[12.79052,37.68092],[12.79058,37.68089],[12.79066,37.68092],[12.79068,37.68097],[12.79063,37.68101]]},"properties":{}},{"type":"Feature","geometry":{"type":"LineString","coordinates":[[12.79529,37.68272],[12.79372,37.68],[12.79332,37.67939]]},"properties":{}},{"type":"Feature","geometry":{"type":"LineString","coordinates":[[12.79046,37.68126],[12.79049,37.68103],[12.79052,37.68098]]},"properties":{}},{"type":"Feature","geometry":{"type":"LineString","coordinates":[[12.79063,37.68101],[12.79046,37.68126]]},"properties":{}},{"type":"Feature","geometry":{"type":"LineString","coordinates":[[12.82257,37.66951],[12.82189,37.66686],[12.82183,37.66643],[12.82185,37.66628],[12.82195,37.66612],[12.82288,37.66526],[12.82308,37.66499],[12.8234,37.66417],[12.82343,37.66386],[12.82336,37.66328],[12.8234,37.66319],[12.8235,37.6631]]},"properties":{}},{"type":"Feature","geometry":{"type":"LineString","coordinates":[[12.82257,37.66951],[12.82273,37.66982],[12.82279,37.66988],[12.8229,37.66994],[12.82311,37.66999]]},"properties":{}},{"type":"Feature","geometry":{"type":"LineString","coordinates":[[12.82226,37.6703],[12.8224,37.67018],[12.82257,37.66987],[12.82257,37.66951]]},"properties":{}},{"type":"Feature","geometry":{"type":"LineString","coordinates":[[12.82279,37.66988],[12.82281,37.67003],[12.82277,37.67012]]},"properties":{}},{"type":"Feature","geometry":{"type":"LineString","coordinates":[[12.82268,37.67015],[12.82257,37.67005],[12.82257,37.66987]]},"properties":{}},{"type":"Feature","geometry":{"type":"LineString","coordinates":[[12.7955,37.68205],[12.79562,37.68262]]},"properties":{}},{"type":"Feature","geometry":{"type":"LineString","coordinates":[[12.79562,37.68262],[12.79569,37.68293],[12.79596,37.6836],[12.79592,37.68369]]},"properties":{}},{"type":"Feature","geometry":{"type":"LineString","coordinates":[[12.79592,37.68369],[12.79586,37.68368],[12.79579,37.68362],[12.79529,37.68272]]},"properties":{}}]}