{"type":"FeatureCollection","features":[{"type":"Feature","geometry":{"type":"LineString","coordinates":[[13.22827,43.51107],[13.22822,43.51102],[13.22823,43.51091],[13.22836,43.51072]]},"properties":{}},{"type":"Feature","geometry":{"type":"LineString","coordinates":[[13.23023,43.51042],[13.23028,43.51043],[13.23037,43.51038],[13.23066,43.51007],[13.23095,43.51015],[13.23125,43.50977],[13.23384,43.51079],[13.23411,43.51103],[13.23441,43.51117],[13.2342,43.5114],[13.23465,43.51196],[13.23446,43.51216]]},"properties":{}},{"type":"Feature","geometry":{"type":"LineString","coordinates":[[13.2342,43.51209],[13.2336,43.51182]]},"properties":{}},{"type":"Feature","geometry":{"type":"LineString","coordinates":[[13.2342,43.51209],[13.23429,43.51208],[13.23446,43.51216]]},"properties":{}},{"type":"Feature","geometry":{"type":"LineString","coordinates":[[13.23462,43.5123],[13.2342,43.51209]]},"properties":{}},{"type":"Feature","geometry":{"type":"LineString","coordinates":[[13.23446,43.51216],[13.23467,43.51226]]},"properties":{}},{"type":"Feature","geometry":{"type":"LineString","coordinates":[[13.15548,43.50159],[13.15542,43.50054]]},"properties":{}},{"type":"Feature","geometry":{"type":"LineString","coordinates":[[13.12936,43.50204],[13.13185,43.50234],[13.13338,43.50257],[13.13664,43.50315],[13.13843,43.50337]]},"properties":{}},{"type":"Feature","geometry":{"type":"LineString","coordinates":[[13.13843,43.50337],[13.13975,43.50356]]},"properties":{}},{"type":"Feature","geometry":{"type":"LineString","coordinates":[[13.13975,43.50356],[13.14073,43.50368]]},"properties":{}},{"type":"Feature","geometry":{"type":"LineString","coordinates":[[13.13584,43.50377],[13.13568,43.5042]]},"properties":{}},{"type":"Feature","geometry":{"type":"LineString","coordinates":[[13.12568,43.50169],[13.12524,43.50376],[13.12474,43.50636]]},"properties":{}},{"type":"Feature","geometry":{"type":"LineString","coordinates":[[13.10774,43.53014],[13.10767,43.53003],[13.10755,43.52994]]},"properties":{}},{"type":"Feature","geometry":{"type":"LineString","coordinates":[[13.10774,43.53014],[13.10787,43.53]]},"properties":{}},{"type":"Feature","geometry":{"type":"LineString","coordinates":[[13.02182,43.53493],[13.02191,43.53494],[13.02199,43.53501],[13.022,43.53508],[13.02195,43.53513],[13.02182,43.53516],[13.02171,43.53511],[13.02169,43.53505],[13.02171,43.53498],[13.02182,43.53493]]},"properties":{}},{"type":"Feature","geometry":{"type":"LineString","coordinates":[[13.03345,43.54157],[13.0336,43.54135]]},"properties":{}},{"type":"Feature","geometry":{"type":"LineString","coordinates":[[13.05216,43.57401],[13.0522,43.57428]]},"properties":{}},{"type":"Feature","geometry":{"type":"LineString","coordinates":[[13.0522,43.57428],[13.05189,43.57402]]},"properties":{}},{"type":"Feature","geometry":{"type":"LineString","coordinates":[[13.02607,43.58609],[13.02648,43.586],[13.02661,43.58594],[13.02674,43.58575]]},"properties":{}},{"type":"Feature","geometry":{"type":"LineString","coordinates":[[13.02648,43.586],[13.02676,43.58603]]},"properties":{}},{"type":"Feature","geometry":{"type":"LineString","coordinates":[[13.02676,43.58603],[13.02654,43.5861]]},"properties":{}},{"type":"Feature","geometry":{"type":"LineString","coordinates":[[13.0268,43.58627],[13.02654,43.5861],[13.02607,43.58609]]},"properties":{}},{"type":"Feature","geometry":{"type":"LineString","coordinates":[[13.08821,43.59092],[13.08838,43.59084]]},"properties":{}},{"type":"Feature","geometry":{"type":"LineString","coordinates":[[13.25,43.51023],[13.24963,43.51012],[13.24941,43.51],[13.24921,43.50987],[13.24903,43.50964],[13.2485,43.50935],[13.24824,43.50911],[13.24791,43.509],[13.24732,43.50892],[13.24706,43.50882],[13.24691,43.5088],[13.24649,43.50888],[13.24628,43.50886],[13.24606,43.50877],[13.24574,43.50849],[13.24539,43.50833],[13.24517,43.50818],[13.24467,43.50813],[13.24425,43.50801],[13.24401,43.50787],[13.24382,43.50766],[13.24288,43.50718],[13.24256,43.50711],[13.24208,43.50707],[13.24102,43.50711],[13.24054,43.50697],[13.24036,43.50696],[13.24023,43.50708]]},"properties":{}},{"type":"Feature","geometry":{"type":"LineString","coordinates":[[13.22645,43.51541],[13.22658,43.51536],[13.22666,43.51543],[13.22715,43.5154],[13.22724,43.51557]]},"properties":{}},{"type":"Feature","geometry":{"type":"LineString","coordinates":[[13.22213,43.51717],[13.22645,43.51541]]},"properties":{}},{"type":"Feature","geometry":{"type":"LineString","coordinates":[[13.22724,43.51557],[13.22703,43.51577],[13.22697,43.51588],[13.22745,43.51647],[13.22837,43.51774]]},"properties":{}},{"type":"Feature","geometry":{"type":"LineString","coordinates":[[13.22197,43.51724],[13.22192,43.51717],[13.22208,43.51711],[13.22213,43.51717]]},"properties":{}},{"type":"Feature","geometry":{"type":"LineString","coordinates":[[13.22001,43.51804],[13.22197,43.51724]]},"properties":{}},{"type":"Feature","geometry":{"type":"LineString","coordinates":[[13.2353,43.51789],[13.23539,43.51794]]},"properties":{}},{"type":"Feature","geometry":{"type":"LineString","coordinates":[[13.23539,43.51794],[13.23542,43.51796]]},"properties":{}},{"type":"Feature","geometry":{"type":"LineString","coordinates":[[13.22014,43.51822],[13.22001,43.51804]]},"properties":{}},{"type":"Feature","geometry":{"type":"LineString","coordinates":[[13.2197,43.51849],[13.21969,43.51843],[13.21972,43.5184],[13.22014,43.51822]]},"properties":{}},{"type":"Feature","geometry":{"type":"LineString","coordinates":[[13.22947,43.51931],[13.23147,43.51856],[13.2333,43.51792],[13.23435,43.5175],[13.23466,43.51749],[13.23486,43.51755],[13.2351,43.51768],[13.23497,43.5178],[13.23473,43.51771],[13.23441,43.51772],[13.23311,43.51823],[13.23131,43.51886],[13.2306,43.51915],[13.22958,43.51953]]},"properties":{}},{"type":"Feature","geometry":{"type":"LineString","coordinates":[[13.23955,43.51729],[13.23933,43.51713],[13.23923,43.51702],[13.23916,43.51699],[13.23853,43.51697],[13.23819,43.51707],[13.23799,43.51717]]},"properties":{}},{"type":"Feature","geometry":{"type":"LineString","coordinates":[[13.24995,43.51819],[13.24876,43.51748]]},"properties":{}},{"type":"Feature","geometry":{"type":"LineString","coordinates":[[13.23842,43.5198],[13.23834,43.51966],[13.23834,43.51955]]},"properties":{}},{"type":"Feature","geometry":{"type":"LineString","coordinates":[[13.24765,43.52018],[13.24772,43.52016],[13.24855,43.51948]]},"properties":{}},{"type":"Feature","geometry":{"type":"LineString","coordinates":[[13.24923,43.52112],[13.24944,43.52108]]},"properties":{}},{"type":"Feature","geometry":{"type":"LineString","coordinates":[[13.24903,43.5211],[13.24915,43.52112]]},"properties":{}},{"type":"Feature","geometry":{"type":"LineString","coordinates":[[13.24915,43.52112],[13.24923,43.52112]]},"properties":{}},{"type":"Feature","geometry":{"type":"LineString","coordinates":[[13.24944,43.52108],[13.24931,43.52119]]},"properties":{}},{"type":"Feature","geometry":{"type":"LineString","coordinates":[[13.24908,43.52118],[13.24903,43.5211]]},"properties":{}},{"type":"Feature","geometry":{"type":"LineString","coordinates":[[13.24908,43.52118],[13.24915,43.52112]]},"properties":{}},{"type":"Feature","geometry":{"type":"LineString","coordinates":[[13.24923,43.52112],[13.24931,43.52119]]},"properties":{}},{"type":"Feature","geometry":{"type":"LineString","coordinates":[[13.24908,43.52121],[13.24908,43.52118]]},"properties":{}},{"type":"Feature","geometry":{"type":"LineString","coordinates":[[13.24931,43.52119],[13.24927,43.52127],[13.24915,43.52128]]},"properties":{}},{"type":"Feature","geometry":{"type":"LineString","coordinates":[[13.24915,43.52128],[13.24908,43.52121]]},"properties":{}},{"type":"Feature","geometry":{"type":"LineString","coordinates":[[13.2493,43.52123],[13.24934,43.52132]]},"properties":{}},{"type":"Feature","geometry":{"type":"LineString","coordinates":[[13.24895,43.52135],[13.24908,43.52121]]},"properties":{}},{"type":"Feature","geometry":{"type":"LineString","coordinates":[[13.24934,43.52132],[13.24921,43.52128]]},"properties":{}},{"type":"Feature","geometry":{"type":"LineString","coordinates":[[13.24915,43.52128],[13.24895,43.52135]]},"properties":{}},{"type":"Feature","geometry":{"type":"LineString","coordinates":[[13.2429,43.5229],[13.24238,43.52245],[13.24159,43.52184],[13.24091,43.5214],[13.23919,43.52079],[13.23875,43.52048],[13.2385,43.52022],[13.23842,43.5198]]},"properties":{}},{"type":"Feature","geometry":{"type":"LineString","coordinates":[[13.24794,43.5218],[13.24811,43.52176]]},"properties":{}},{"type":"Feature","geometry":{"type":"LineString","coordinates":[[13.24811,43.52176],[13.248,43.5219]]},"properties":{}},{"type":"Feature","geometry":{"type":"LineString","coordinates":[[13.24794,43.5218],[13.24799,43.52184],[13.248,43.5219]]},"properties":{}},{"type":"Feature","geometry":{"type":"LineString","coordinates":[[13.24784,43.52196],[13.24777,43.52191],[13.24777,43.52184],[13.24785,43.52179],[13.24794,43.5218]]},"properties":{}},{"type":"Feature","geometry":{"type":"LineString","coordinates":[[13.248,43.5219],[13.24798,43.52192]]},"properties":{}},{"type":"Feature","geometry":{"type":"LineString","coordinates":[[13.2476,43.52201],[13.24777,43.52184]]},"properties":{}},{"type":"Feature","geometry":{"type":"LineString","coordinates":[[13.24798,43.52192],[13.24784,43.52196]]},"properties":{}},{"type":"Feature","geometry":{"type":"LineString","coordinates":[[13.2478,43.52194],[13.2476,43.52201]]},"properties":{}},{"type":"Feature","geometry":{"type":"LineString","coordinates":[[13.24798,43.52192],[13.24801,43.52207]]},"properties":{}},{"type":"Feature","geometry":{"type":"LineString","coordinates":[[13.24801,43.52207],[13.24784,43.52196]]},"properties":{}},{"type":"Feature","geometry":{"type":"LineString","coordinates":[[13.2448,43.52483],[13.24437,43.5244],[13.24407,43.52401],[13.24305,43.5231],[13.24299,43.52299],[13.2429,43.5229]]},"properties":{}},{"type":"Feature","geometry":{"type":"LineString","coordinates":[[13.24418,43.52526],[13.24387,43.52522],[13.24365,43.52501],[13.2428,43.52489]]},"properties":{}},{"type":"Feature","geometry":{"type":"LineString","coordinates":[[13.24578,43.52705],[13.24605,43.5271],[13.2463,43.5271]]},"properties":{}},{"type":"Feature","geometry":{"type":"LineString","coordinates":[[13.24678,43.52714],[13.24695,43.52711],[13.24718,43.52702]]},"properties":{}},{"type":"Feature","geometry":{"type":"LineString","coordinates":[[13.2463,43.5271],[13.24639,43.5271]]},"properties":{}},{"type":"Feature","geometry":{"type":"LineString","coordinates":[[13.24639,43.5271],[13.24601,43.52726]]},"properties":{}},{"type":"Feature","geometry":{"type":"LineString","coordinates":[[13.24937,43.52766],[13.2493,43.52777],[13.24932,43.52797]]},"properties":{}},{"type":"Feature","geometry":{"type":"LineString","coordinates":[[13.24907,43.52797],[13.24901,43.52778],[13.24895,43.52773]]},"properties":{}},{"type":"Feature","geometry":{"type":"LineString","coordinates":[[13.24907,43.52797],[13.24919,43.52794],[13.24932,43.52797]]},"properties":{}},{"type":"Feature","geometry":{"type":"LineString","coordinates":[[13.24837,43.5292],[13.24854,43.52885],[13.24907,43.52797]]},"properties":{}},{"type":"Feature","geometry":{"type":"LineString","coordinates":[[13.2465,43.5277],[13.24665,43.52776],[13.24873,43.52949]]},"properties":{}},{"type":"Feature","geometry":{"type":"LineString","coordinates":[[13.2483,43.52983],[13.24837,43.52931]]},"properties":{}},{"type":"Feature","geometry":{"type":"LineString","coordinates":[[13.24873,43.52949],[13.24908,43.52979]]},"properties":{}},{"type":"Feature","geometry":{"type":"LineString","coordinates":[[13.249,43.52983],[13.24865,43.52954]]},"properties":{}},{"type":"Feature","geometry":{"type":"LineString","coordinates":[[13.25,43.53067],[13.249,43.52983]]},"properties":{}},{"type":"Feature","geometry":{"type":"LineString","coordinates":[[13.25,43.53101],[13.24971,43.53116]]},"properties":{}},{"type":"Feature","geometry":{"type":"LineString","coordinates":[[13.25,43.53118],[13.24971,43.53116],[13.24867,43.53122]]},"properties":{}},{"type":"Feature","geometry":{"type":"LineString","coordinates":[[13.24908,43.52979],[13.25,43.53055]]},"properties":{}},{"type":"Feature","geometry":{"type":"LineString","coordinates":[[13.22837,43.51774],[13.22947,43.51931],[13.22944,43.51936]]},"properties":{}},{"type":"Feature","geometry":{"type":"LineString","coordinates":[[13.23497,43.5178],[13.23825,43.51953],[13.23841,43.51958]]},"properties":{}},{"type":"Feature","geometry":{"type":"LineString","coordinates":[[13.21804,43.52223],[13.21794,43.52211],[13.21791,43.52199],[13.21792,43.52184],[13.21826,43.52088],[13.21862,43.5203],[13.21888,43.5198],[13.21898,43.5189],[13.21906,43.51863],[13.21914,43.51853],[13.21921,43.51851],[13.21964,43.51855],[13.2197,43.51849]]},"properties":{}},{"type":"Feature","geometry":{"type":"LineString","coordinates":[[13.23039,43.52116],[13.23047,43.52129],[13.23044,43.52271],[13.23043,43.52283],[13.23038,43.52289],[13.23044,43.52346]]},"properties":{}},{"type":"Feature","geometry":{"type":"LineString","coordinates":[[13.21515,43.52343],[13.21507,43.52328],[13.21481,43.52311],[13.21475,43.52302],[13.21476,43.52291],[13.21482,43.52285],[13.21493,43.52281],[13.21505,43.52282]]},"properties":{}},{"type":"Feature","geometry":{"type":"LineString","coordinates":[[13.23229,43.5249],[13.23263,43.52487],[13.23787,43.5235]]},"properties":{}},{"type":"Feature","geometry":{"type":"LineString","coordinates":[[13.20312,43.5756],[13.20314,43.57566],[13.20309,43.57579],[13.20311,43.57592]]},"properties":{}},{"type":"Feature","geometry":{"type":"LineString","coordinates":[[13.20374,43.58012],[13.20296,43.58009],[13.202,43.5803],[13.20195,43.58035],[13.20123,43.58053]]},"properties":{}},{"type":"Feature","geometry":{"type":"LineString","coordinates":[[13.22051,43.69682],[13.22052,43.69665],[13.22064,43.69605],[13.22083,43.6954],[13.22132,43.69455],[13.22151,43.69394],[13.22168,43.69325],[13.22216,43.69219],[13.22236,43.69158],[13.22261,43.69025],[13.22281,43.68967],[13.22279,43.68935],[13.22257,43.68872],[13.22252,43.68827],[13.22264,43.68787],[13.22289,43.68732],[13.22297,43.68702],[13.22363,43.68237],[13.22373,43.68212],[13.22431,43.68132],[13.22438,43.68113],[13.22438,43.68102],[13.22388,43.67962],[13.22371,43.67873],[13.22349,43.67831],[13.22253,43.67734],[13.22181,43.67656],[13.2203,43.67531],[13.21992,43.67491],[13.21947,43.67436],[13.21919,43.67381],[13.21912,43.67359],[13.21894,43.67269],[13.21889,43.6723],[13.219,43.67177],[13.21899,43.67161],[13.21894,43.67144],[13.21885,43.67129],[13.21804,43.67046],[13.21686,43.66897],[13.21586,43.66791],[13.21569,43.66764],[13.21485,43.66554],[13.21449,43.66368],[13.21449,43.66345],[13.21454,43.66323],[13.21463,43.66303],[13.21505,43.66236],[13.2152,43.66195]]},"properties":{}},{"type":"Feature","geometry":{"type":"LineString","coordinates":[[13.20279,43.70051],[13.20283,43.70038],[13.20288,43.70033],[13.20304,43.70028],[13.20329,43.70033],[13.20339,43.70046],[13.20336,43.70059],[13.20324,43.70069],[13.20315,43.70071],[13.20293,43.70068],[13.20286,43.70063],[13.20279,43.70051]]},"properties":{}},{"type":"Feature","geometry":{"type":"LineString","coordinates":[[13.10787,43.53],[13.10787,43.53018]]},"properties":{}},{"type":"Feature","geometry":{"type":"LineString","coordinates":[[13.10821,43.53006],[13.10802,43.5301],[13.10787,43.53018]]},"properties":{}},{"type":"Feature","geometry":{"type":"LineString","coordinates":[[13.10777,43.53032],[13.10774,43.53014]]},"properties":{}},{"type":"Feature","geometry":{"type":"LineString","coordinates":[[13.10787,43.53018],[13.10777,43.53032]]},"properties":{}},{"type":"Feature","geometry":{"type":"LineString","coordinates":[[13.18178,43.58311],[13.18138,43.58317],[13.18034,43.58318]]},"properties":{}},{"type":"Feature","geometry":{"type":"LineString","coordinates":[[13.11891,43.62041],[13.11908,43.62061],[13.11924,43.6207]]},"properties":{}},{"type":"Feature","geometry":{"type":"LineString","coordinates":[[13.11894,43.62083],[13.11895,43.62059],[13.11891,43.62041]]},"properties":{}},{"type":"Feature","geometry":{"type":"LineString","coordinates":[[13.11956,43.62088],[13.11955,43.62102],[13.1195,43.62108],[13.11935,43.62116],[13.11925,43.62117],[13.11907,43.62114],[13.11899,43.6211],[13.11891,43.62097],[13.11894,43.62083],[13.11899,43.62078],[13.11915,43.6207],[13.11935,43.62071],[13.11944,43.62075],[13.11956,43.62088]]},"properties":{}},{"type":"Feature","geometry":{"type":"LineString","coordinates":[[13.11956,43.62088],[13.12021,43.62116]]},"properties":{}},{"type":"Feature","geometry":{"type":"LineString","coordinates":[[13.12021,43.62116],[13.11979,43.62105],[13.11967,43.62104],[13.1195,43.62108]]},"properties":{}},{"type":"Feature","geometry":{"type":"LineString","coordinates":[[13.08838,43.59084],[13.08832,43.59095]]},"properties":{}},{"type":"Feature","geometry":{"type":"LineString","coordinates":[[13.08802,43.59097],[13.08821,43.59092]]},"properties":{}},{"type":"Feature","geometry":{"type":"LineString","coordinates":[[13.08814,43.59104],[13.08821,43.59092]]},"properties":{}},{"type":"Feature","geometry":{"type":"LineString","coordinates":[[13.08832,43.59095],[13.08814,43.59104]]},"properties":{}},{"type":"Feature","geometry":{"type":"LineString","coordinates":[[13.08832,43.59095],[13.0884,43.5912]]},"properties":{}},{"type":"Feature","geometry":{"type":"LineString","coordinates":[[13.09684,43.59788],[13.09659,43.59787]]},"properties":{}},{"type":"Feature","geometry":{"type":"LineString","coordinates":[[13.09808,43.60225],[13.09774,43.60194],[13.09729,43.60131],[13.09523,43.59937],[13.09484,43.59918],[13.09464,43.59913],[13.09411,43.59913]]},"properties":{}},{"type":"Feature","geometry":{"type":"LineString","coordinates":[[13.05582,43.60179],[13.05563,43.60165]]},"properties":{}},{"type":"Feature","geometry":{"type":"LineString","coordinates":[[13.05625,43.60212],[13.05622,43.60206],[13.05594,43.60185]]},"properties":{}},{"type":"Feature","geometry":{"type":"LineString","coordinates":[[13.05656,43.60212],[13.05625,43.60212]]},"properties":{}},{"type":"Feature","geometry":{"type":"LineString","coordinates":[[13.0211,43.60221],[13.02118,43.60206]]},"properties":{}},{"type":"Feature","geometry":{"type":"LineString","coordinates":[[13.02118,43.60206],[13.02123,43.60229]]},"properties":{}},{"type":"Feature","geometry":{"type":"LineString","coordinates":[[13.02078,43.60234],[13.02093,43.6023],[13.0211,43.60221]]},"properties":{}},{"type":"Feature","geometry":{"type":"LineString","coordinates":[[13.0211,43.60243],[13.02108,43.60233],[13.0211,43.60221]]},"properties":{}},{"type":"Feature","geometry":{"type":"LineString","coordinates":[[13.05668,43.60258],[13.05625,43.60212]]},"properties":{}},{"type":"Feature","geometry":{"type":"LineString","coordinates":[[13.02123,43.60229],[13.0211,43.60243]]},"properties":{}},{"type":"Feature","geometry":{"type":"LineString","coordinates":[[13.02123,43.60229],[13.02143,43.6025]]},"properties":{}},{"type":"Feature","geometry":{"type":"LineString","coordinates":[[13.0211,43.60243],[13.02128,43.60245],[13.02143,43.6025]]},"properties":{}},{"type":"Feature","geometry":{"type":"LineString","coordinates":[[13.02146,43.60259],[13.0211,43.60243]]},"properties":{}},{"type":"Feature","geometry":{"type":"LineString","coordinates":[[13.05667,43.6022],[13.05719,43.60278],[13.05744,43.60295],[13.05755,43.60298]]},"properties":{}},{"type":"Feature","geometry":{"type":"LineString","coordinates":[[13.04587,43.60004],[13.0463,43.60108],[13.04658,43.60184],[13.04697,43.60271],[13.047,43.60286],[13.04687,43.60297],[13.04614,43.60304],[13.04589,43.60312],[13.04577,43.6032],[13.04574,43.60331],[13.04579,43.60351],[13.04602,43.60402],[13.04666,43.60574]]},"properties":{}},{"type":"Feature","geometry":{"type":"LineString","coordinates":[[13.05675,43.60298],[13.05692,43.60311]]},"properties":{}},{"type":"Feature","geometry":{"type":"LineString","coordinates":[[13.05692,43.60311],[13.05725,43.60305]]},"properties":{}},{"type":"Feature","geometry":{"type":"LineString","coordinates":[[13.07381,43.60585],[13.07362,43.60582],[13.07328,43.6056],[13.07317,43.60545],[13.07261,43.60432],[13.07215,43.6037],[13.07197,43.60353],[13.07138,43.6031],[13.07085,43.60258],[13.07061,43.60242],[13.06982,43.60203],[13.06758,43.60069],[13.06731,43.60059]]},"properties":{}},{"type":"Feature","geometry":{"type":"LineString","coordinates":[[13.05692,43.60311],[13.0572,43.60338]]},"properties":{}},{"type":"Feature","geometry":{"type":"LineString","coordinates":[[13.05709,43.60307],[13.05722,43.6032],[13.05835,43.60397]]},"properties":{}},{"type":"Feature","geometry":{"type":"LineString","coordinates":[[13.05755,43.60298],[13.05791,43.60317],[13.05872,43.60369],[13.05883,43.60382],[13.05891,43.60406]]},"properties":{}},{"type":"Feature","geometry":{"type":"LineString","coordinates":[[13.05732,43.60348],[13.05727,43.60352],[13.05729,43.60355],[13.05707,43.60366],[13.05694,43.6035],[13.0572,43.60338]]},"properties":{}},{"type":"Feature","geometry":{"type":"LineString","coordinates":[[13.05755,43.60441],[13.05686,43.60365],[13.05638,43.60304],[13.05637,43.60298],[13.05641,43.60293],[13.05654,43.60289],[13.05666,43.60291],[13.05675,43.60298]]},"properties":{}},{"type":"Feature","geometry":{"type":"LineString","coordinates":[[13.05773,43.60369],[13.05766,43.60375]]},"properties":{}},{"type":"Feature","geometry":{"type":"LineString","coordinates":[[13.0572,43.60338],[13.05814,43.60415],[13.05825,43.60436]]},"properties":{}},{"type":"Feature","geometry":{"type":"LineString","coordinates":[[13.05835,43.60397],[13.05839,43.60399],[13.05859,43.60427]]},"properties":{}},{"type":"Feature","geometry":{"type":"LineString","coordinates":[[13.05859,43.60427],[13.05891,43.60406]]},"properties":{}},{"type":"Feature","geometry":{"type":"LineString","coordinates":[[13.059,43.60428],[13.05884,43.60412]]},"properties":{}},{"type":"Feature","geometry":{"type":"LineString","coordinates":[[13.05825,43.60436],[13.05859,43.60427]]},"properties":{}},{"type":"Feature","geometry":{"type":"LineString","coordinates":[[13.05859,43.60427],[13.05865,43.60441],[13.05896,43.60488]]},"properties":{}},{"type":"Feature","geometry":{"type":"LineString","coordinates":[[13.08335,43.60358],[13.08251,43.60401],[13.081,43.60462],[13.08028,43.60515],[13.08002,43.60519],[13.07919,43.6052],[13.07799,43.60547],[13.07696,43.60563],[13.07635,43.60562],[13.07542,43.60568],[13.07475,43.60565],[13.0745,43.60567],[13.07381,43.60585]]},"properties":{}},{"type":"Feature","geometry":{"type":"LineString","coordinates":[[13.05912,43.60509],[13.05882,43.60514],[13.05855,43.60508],[13.05755,43.60441]]},"properties":{}},{"type":"Feature","geometry":{"type":"LineString","coordinates":[[13.05896,43.60488],[13.05897,43.60489]]},"properties":{}},{"type":"Feature","geometry":{"type":"LineString","coordinates":[[13.05897,43.60489],[13.05899,43.60493]]},"properties":{}},{"type":"Feature","geometry":{"type":"LineString","coordinates":[[13.14351,43.63274],[13.14388,43.63273]]},"properties":{}},{"type":"Feature","geometry":{"type":"LineString","coordinates":[[13.14386,43.63285],[13.14351,43.63274]]},"properties":{}},{"type":"Feature","geometry":{"type":"LineString","coordinates":[[13.13321,43.63498],[13.13301,43.63508],[13.13279,43.6353],[13.13236,43.63557],[13.13048,43.63598],[13.12792,43.63682],[13.12673,43.63727],[13.12622,43.6375],[13.12591,43.63765],[13.1257,43.63783],[13.12544,43.6382],[13.12542,43.63837],[13.12555,43.63884],[13.12557,43.63907],[13.12509,43.64001],[13.12497,43.64042],[13.12482,43.64113],[13.12481,43.64197],[13.12475,43.64228],[13.12445,43.64278],[13.12389,43.64326],[13.12382,43.64342],[13.12375,43.64397],[13.12369,43.64408],[13.12342,43.64428]]},"properties":{}},{"type":"Feature","geometry":{"type":"LineString","coordinates":[[13.13993,43.64154],[13.13998,43.64165],[13.13995,43.64177],[13.13976,43.64189],[13.13951,43.64187],[13.13943,43.64183],[13.13934,43.64171],[13.13935,43.64159],[13.13939,43.64153],[13.13955,43.64144],[13.13978,43.64145],[13.13993,43.64154]]},"properties":{}},{"type":"Feature","geometry":{"type":"LineString","coordinates":[[13.13925,43.64205],[13.13937,43.64177]]},"properties":{}},{"type":"Feature","geometry":{"type":"LineString","coordinates":[[13.1396,43.64189],[13.13925,43.64205]]},"properties":{}},{"type":"Feature","geometry":{"type":"LineString","coordinates":[[13.13819,43.64412],[13.13812,43.64434],[13.1379,43.6446],[13.13788,43.64468],[13.13791,43.64477],[13.13797,43.64482]]},"properties":{}},{"type":"Feature","geometry":{"type":"LineString","coordinates":[[13.13789,43.64489],[13.13763,43.6449],[13.13739,43.64516],[13.13722,43.64521]]},"properties":{}},{"type":"Feature","geometry":{"type":"LineString","coordinates":[[13.1495,43.65183],[13.14955,43.6521]]},"properties":{}},{"type":"Feature","geometry":{"type":"LineString","coordinates":[[13.14955,43.6521],[13.14928,43.65195]]},"properties":{}},{"type":"Feature","geometry":{"type":"LineString","coordinates":[[13.05899,43.60493],[13.059,43.60495]]},"properties":{}},{"type":"Feature","geometry":{"type":"LineString","coordinates":[[13.059,43.60495],[13.05912,43.60509]]},"properties":{}},{"type":"Feature","geometry":{"type":"LineString","coordinates":[[13.05941,43.60549],[13.0591,43.60561]]},"properties":{}},{"type":"Feature","geometry":{"type":"LineString","coordinates":[[13.05833,43.60779],[13.0583,43.60679],[13.05848,43.60651],[13.05857,43.60645],[13.05878,43.6064],[13.05957,43.60626],[13.05988,43.60613]]},"properties":{}},{"type":"Feature","geometry":{"type":"LineString","coordinates":[[13.09532,43.66325],[13.09563,43.66332],[13.09621,43.66353],[13.09639,43.66355],[13.09699,43.66324],[13.0972,43.66318]]},"properties":{}},{"type":"Feature","geometry":{"type":"LineString","coordinates":[[13.05122,43.69119],[13.05047,43.69059]]},"properties":{}},{"type":"Feature","geometry":{"type":"LineString","coordinates":[[13.05158,43.69118],[13.05196,43.69095]]},"properties":{}},{"type":"Feature","geometry":{"type":"LineString","coordinates":[[13.05196,43.69095],[13.05181,43.6911],[13.05172,43.6913]]},"properties":{}},{"type":"Feature","geometry":{"type":"LineString","coordinates":[[13.05122,43.69119],[13.05158,43.69118]]},"properties":{}},{"type":"Feature","geometry":{"type":"LineString","coordinates":[[13.05146,43.69137],[13.05158,43.69118]]},"properties":{}},{"type":"Feature","geometry":{"type":"LineString","coordinates":[[13.17088,43.66202],[13.17098,43.66203],[13.17171,43.66198],[13.17229,43.66188],[13.17325,43.66198],[13.1735,43.66192],[13.17463,43.66151],[13.17518,43.66137],[13.17575,43.66137],[13.17637,43.66145],[13.1766,43.66145],[13.17677,43.66142],[13.17733,43.66116],[13.17775,43.66087],[13.17801,43.66075],[13.17935,43.6606],[13.18029,43.66042],[13.18138,43.66032],[13.18211,43.66009],[13.18258,43.66003],[13.18286,43.65994],[13.18304,43.6598],[13.18326,43.65954],[13.18348,43.65938],[13.18439,43.65881],[13.18488,43.65841],[13.18555,43.65813],[13.18568,43.65798],[13.18596,43.65743],[13.18736,43.65528],[13.18745,43.65507],[13.1875,43.65481],[13.1876,43.6546],[13.18768,43.65451],[13.18784,43.65442],[13.18862,43.65416],[13.18895,43.65398],[13.18905,43.65389],[13.18925,43.65357],[13.18982,43.65309],[13.19108,43.65221],[13.1921,43.65144],[13.19268,43.65106],[13.19337,43.65069],[13.19411,43.65015],[13.19421,43.65002],[13.19424,43.64989],[13.19422,43.64908],[13.19427,43.64874],[13.19471,43.64755],[13.19487,43.64736],[13.19521,43.64709],[13.19589,43.64664],[13.19632,43.64612],[13.19672,43.64576],[13.19877,43.6442],[13.19924,43.64395],[13.20047,43.64358],[13.20094,43.64331],[13.201,43.64323],[13.20107,43.64305]]},"properties":{}},{"type":"Feature","geometry":{"type":"LineString","coordinates":[[13.10701,43.65523],[13.10675,43.65563],[13.10657,43.65612],[13.10621,43.65687],[13.10623,43.65702],[13.1064,43.65711],[13.10794,43.65745],[13.10848,43.65773],[13.10868,43.6579],[13.10899,43.65808],[13.1091,43.65829],[13.10932,43.65918],[13.10932,43.65939],[13.10905,43.66026],[13.10898,43.66121],[13.10898,43.66158],[13.10914,43.6625],[13.10912,43.66288],[13.10891,43.66331]]},"properties":{}},{"type":"Feature","geometry":{"type":"LineString","coordinates":[[13.15377,43.66082],[13.15303,43.66089],[13.15274,43.66078],[13.15255,43.66067],[13.15248,43.66054],[13.15251,43.66036],[13.15249,43.66018],[13.15225,43.65989],[13.15217,43.65958],[13.15211,43.6595]]},"properties":{}},{"type":"Feature","geometry":{"type":"LineString","coordinates":[[13.10891,43.66331],[13.10951,43.66326],[13.10989,43.66317]]},"properties":{}},{"type":"Feature","geometry":{"type":"LineString","coordinates":[[13.15517,43.66356],[13.15527,43.66368],[13.15545,43.6638],[13.15566,43.66386],[13.15591,43.66385]]},"properties":{}},{"type":"Feature","geometry":{"type":"LineString","coordinates":[[13.15523,43.66403],[13.1553,43.66396],[13.15566,43.66386]]},"properties":{}},{"type":"Feature","geometry":{"type":"LineString","coordinates":[[13.15555,43.66406],[13.15531,43.66407],[13.15523,43.66403]]},"properties":{}},{"type":"Feature","geometry":{"type":"LineString","coordinates":[[13.15591,43.66385],[13.15564,43.66398],[13.15555,43.66406],[13.15545,43.66424],[13.15535,43.66433]]},"properties":{}},{"type":"Feature","geometry":{"type":"LineString","coordinates":[[13.10834,43.67039],[13.10989,43.6702],[13.11113,43.66984],[13.11144,43.66977],[13.11259,43.66967],[13.11344,43.66951],[13.11402,43.66927],[13.11502,43.66892],[13.11535,43.66867],[13.11582,43.66838],[13.11608,43.66829],[13.11627,43.66827],[13.11663,43.66836],[13.11735,43.66873],[13.11835,43.66919],[13.11893,43.66963],[13.11919,43.66978],[13.1195,43.6699],[13.12062,43.6702],[13.12092,43.67024],[13.12125,43.67025],[13.1221,43.67015],[13.12251,43.67019],[13.12523,43.67089],[13.12733,43.67169],[13.12807,43.67189],[13.12898,43.67208],[13.12912,43.67208],[13.12947,43.67197],[13.1296,43.67196],[13.12997,43.67203],[13.13027,43.67217],[13.13034,43.67224],[13.13047,43.6725],[13.13063,43.67264]]},"properties":{}},{"type":"Feature","geometry":{"type":"LineString","coordinates":[[13.10802,43.67195],[13.10809,43.67204],[13.108,43.67228],[13.10784,43.67256],[13.10774,43.67286]]},"properties":{}},{"type":"Feature","geometry":{"type":"LineString","coordinates":[[13.05146,43.69137],[13.05122,43.69119]]},"properties":{}},{"type":"Feature","geometry":{"type":"LineString","coordinates":[[13.05172,43.6913],[13.05146,43.69137]]},"properties":{}},{"type":"Feature","geometry":{"type":"LineString","coordinates":[[13.05172,43.6913],[13.05169,43.69156]]},"properties":{}},{"type":"Feature","geometry":{"type":"LineString","coordinates":[[13.05169,43.69156],[13.05146,43.69137]]},"properties":{}},{"type":"Feature","geometry":{"type":"LineString","coordinates":[[13.05246,43.69217],[13.05169,43.69156]]},"properties":{}},{"type":"Feature","geometry":{"type":"LineString","coordinates":[[13.05559,43.69807],[13.05555,43.69805],[13.05558,43.69748]]},"properties":{}},{"type":"Feature","geometry":{"type":"LineString","coordinates":[[13.05572,43.69807],[13.05559,43.69807]]},"properties":{}},{"type":"Feature","geometry":{"type":"LineString","coordinates":[[13.05646,43.69807],[13.05637,43.69807]]},"properties":{}},{"type":"Feature","geometry":{"type":"LineString","coordinates":[[13.05584,43.69807],[13.05572,43.69807]]},"properties":{}},{"type":"Feature","geometry":{"type":"LineString","coordinates":[[13.05637,43.69807],[13.05611,43.69808]]},"properties":{}},{"type":"Feature","geometry":{"type":"LineString","coordinates":[[13.20217,43.70078],[13.2025,43.70064],[13.2028,43.70044]]},"properties":{}},{"type":"Feature","geometry":{"type":"LineString","coordinates":[[13.21923,43.70073],[13.21941,43.70066]]},"properties":{}},{"type":"Feature","geometry":{"type":"LineString","coordinates":[[13.21941,43.70066],[13.21932,43.70079]]},"properties":{}},{"type":"Feature","geometry":{"type":"LineString","coordinates":[[13.20301,43.70071],[13.20277,43.7007],[13.20217,43.70078]]},"properties":{}},{"type":"Feature","geometry":{"type":"LineString","coordinates":[[13.21923,43.70073],[13.21932,43.70079]]},"properties":{}},{"type":"Feature","geometry":{"type":"LineString","coordinates":[[13.21904,43.70081],[13.21911,43.70074],[13.21923,43.70073]]},"properties":{}},{"type":"Feature","geometry":{"type":"LineString","coordinates":[[13.21932,43.70079],[13.21934,43.70086],[13.21922,43.70117],[13.21931,43.70142]]},"properties":{}},{"type":"Feature","geometry":{"type":"LineString","coordinates":[[13.21912,43.70168],[13.21911,43.70117],[13.21904,43.70081]]},"properties":{}},{"type":"Feature","geometry":{"type":"LineString","coordinates":[[13.21931,43.70142],[13.21944,43.70162]]},"properties":{}},{"type":"Feature","geometry":{"type":"LineString","coordinates":[[13.21944,43.70162],[13.21959,43.70168]]},"properties":{}},{"type":"Feature","geometry":{"type":"LineString","coordinates":[[13.24995,43.69932],[13.25,43.69929]]},"properties":{}},{"type":"Feature","geometry":{"type":"LineString","coordinates":[[13.24727,43.69872],[13.24777,43.6987],[13.24816,43.69863],[13.24876,43.6983],[13.24897,43.69824]]},"properties":{}},{"type":"Feature","geometry":{"type":"LineString","coordinates":[[13.24701,43.69931],[13.24713,43.69919],[13.24755,43.69895],[13.24753,43.69882],[13.24748,43.69878],[13.24727,43.69872]]},"properties":{}},{"type":"Feature","geometry":{"type":"LineString","coordinates":[[13.23677,43.70199],[13.24176,43.69963],[13.24195,43.69956],[13.24345,43.69918],[13.24347,43.69923]]},"properties":{}},{"type":"Feature","geometry":{"type":"LineString","coordinates":[[13.24323,43.69932],[13.24198,43.69965],[13.23686,43.70207]]},"properties":{}},{"type":"Feature","geometry":{"type":"LineString","coordinates":[[13.24995,43.69932],[13.24987,43.69941],[13.24459,43.70258]]},"properties":{}},{"type":"Feature","geometry":{"type":"LineString","coordinates":[[13.24435,43.70268],[13.24995,43.69932]]},"properties":{}},{"type":"Feature","geometry":{"type":"LineString","coordinates":[[13.24459,43.70258],[13.24379,43.70307],[13.24369,43.70308]]},"properties":{}},{"type":"Feature","geometry":{"type":"LineString","coordinates":[[13.24369,43.70308],[13.24435,43.70268]]},"properties":{}},{"type":"Feature","geometry":{"type":"LineString","coordinates":[[13.24338,43.70326],[13.24369,43.70308]]},"properties":{}},{"type":"Feature","geometry":{"type":"LineString","coordinates":[[13.20813,43.70406],[13.20777,43.70384],[13.20761,43.7038]]},"properties":{}},{"type":"Feature","geometry":{"type":"LineString","coordinates":[[13.2367,43.70192],[13.23585,43.70236],[13.23472,43.70287],[13.23466,43.70299],[13.2348,43.70335],[13.23479,43.70341],[13.23472,43.70347],[13.23298,43.70385],[13.23242,43.70403],[13.23204,43.70426],[13.23086,43.70513],[13.23036,43.7056],[13.22907,43.70623],[13.22899,43.70624],[13.22923,43.70737]]},"properties":{}},{"type":"Feature","geometry":{"type":"LineString","coordinates":[[13.20951,43.7054],[13.20977,43.7055]]},"properties":{}},{"type":"Feature","geometry":{"type":"LineString","coordinates":[[13.20965,43.7056],[13.20951,43.7054]]},"properties":{}},{"type":"Feature","geometry":{"type":"LineString","coordinates":[[13.20972,43.70552],[13.20983,43.70549],[13.20993,43.70551],[13.21,43.70557],[13.21002,43.70566],[13.20989,43.70576],[13.20974,43.70575],[13.20965,43.70565],[13.20965,43.7056],[13.20972,43.70552]]},"properties":{}},{"type":"Feature","geometry":{"type":"LineString","coordinates":[[13.21002,43.70566],[13.21015,43.70584],[13.2106,43.70622],[13.21102,43.70655],[13.2114,43.70677]]},"properties":{}},{"type":"Feature","geometry":{"type":"LineString","coordinates":[[13.21116,43.70692],[13.21095,43.7066],[13.20983,43.70577]]},"properties":{}},{"type":"Feature","geometry":{"type":"LineString","coordinates":[[13.2183,43.70776],[13.21832,43.70767],[13.21926,43.70596]]},"properties":{}},{"type":"Feature","geometry":{"type":"LineString","coordinates":[[13.22863,43.70743],[13.23153,43.70713],[13.23185,43.70719],[13.23232,43.70757]]},"properties":{}},{"type":"Feature","geometry":{"type":"LineString","coordinates":[[13.22858,43.70751],[13.22857,43.70747]]},"properties":{}},{"type":"Feature","geometry":{"type":"LineString","coordinates":[[13.22806,43.70756],[13.22858,43.70751]]},"properties":{}},{"type":"Feature","geometry":{"type":"LineString","coordinates":[[13.23232,43.70757],[13.23223,43.70772]]},"properties":{}},{"type":"Feature","geometry":{"type":"LineString","coordinates":[[13.21836,43.70778],[13.21839,43.70782],[13.21835,43.70786],[13.21829,43.70787],[13.21824,43.70783],[13.21827,43.70777],[13.21836,43.70778]]},"properties":{}},{"type":"Feature","geometry":{"type":"LineString","coordinates":[[13.22574,43.70848],[13.22607,43.7087],[13.22632,43.7088],[13.22661,43.70886],[13.22694,43.70887],[13.22727,43.70882],[13.22754,43.70873],[13.22777,43.70861],[13.22792,43.70848],[13.22805,43.7083],[13.22811,43.70813],[13.22812,43.70789],[13.22806,43.70756]]},"properties":{}},{"type":"Feature","geometry":{"type":"LineString","coordinates":[[13.23223,43.70772],[13.2325,43.70794],[13.23251,43.70802],[13.2314,43.70872],[13.23145,43.70877]]},"properties":{}},{"type":"Feature","geometry":{"type":"LineString","coordinates":[[13.2135,43.70852],[13.2138,43.70857],[13.21419,43.7085]]},"properties":{}},{"type":"Feature","geometry":{"type":"LineString","coordinates":[[13.22244,43.708],[13.2216,43.70833],[13.22107,43.70858],[13.22049,43.70923]]},"properties":{}},{"type":"Feature","geometry":{"type":"LineString","coordinates":[[13.21419,43.7085],[13.21406,43.70858],[13.21402,43.70866],[13.21402,43.70873],[13.21411,43.70883]]},"properties":{}},{"type":"Feature","geometry":{"type":"LineString","coordinates":[[13.2135,43.70852],[13.21411,43.70883]]},"properties":{}},{"type":"Feature","geometry":{"type":"LineString","coordinates":[[13.21346,43.70878],[13.21348,43.70872],[13.21354,43.70868],[13.21363,43.70869],[13.21442,43.70896]]},"properties":{}},{"type":"Feature","geometry":{"type":"LineString","coordinates":[[13.21411,43.70883],[13.21507,43.70922],[13.21582,43.70957]]},"properties":{}},{"type":"Feature","geometry":{"type":"LineString","coordinates":[[13.214,43.70962],[13.21349,43.70884]]},"properties":{}},{"type":"Feature","geometry":{"type":"LineString","coordinates":[[13.21837,43.70785],[13.2228,43.71074]]},"properties":{}},{"type":"Feature","geometry":{"type":"LineString","coordinates":[[13.22632,43.7088],[13.22598,43.70934],[13.22568,43.70989]]},"properties":{}},{"type":"Feature","geometry":{"type":"LineString","coordinates":[[13.22437,43.70952],[13.22468,43.70966]]},"properties":{}},{"type":"Feature","geometry":{"type":"LineString","coordinates":[[13.21582,43.70957],[13.21631,43.70986]]},"properties":{}},{"type":"Feature","geometry":{"type":"LineString","coordinates":[[13.22606,43.71456],[13.22656,43.71423],[13.23243,43.71005],[13.23455,43.7086],[13.237,43.70704],[13.24018,43.70516]]},"properties":{}},{"type":"Feature","geometry":{"type":"LineString","coordinates":[[13.22359,43.70999],[13.22381,43.70995]]},"properties":{}},{"type":"Feature","geometry":{"type":"LineString","coordinates":[[13.22381,43.70995],[13.22376,43.7101]]},"properties":{}},{"type":"Feature","geometry":{"type":"LineString","coordinates":[[13.22468,43.70966],[13.22781,43.71039]]},"properties":{}},{"type":"Feature","geometry":{"type":"LineString","coordinates":[[13.22794,43.71059],[13.22786,43.71049],[13.22766,43.7104],[13.22474,43.70975],[13.22464,43.70971],[13.22468,43.70966]]},"properties":{}},{"type":"Feature","geometry":{"type":"LineString","coordinates":[[13.22049,43.70923],[13.21922,43.7107],[13.21864,43.71129]]},"properties":{}},{"type":"Feature","geometry":{"type":"LineString","coordinates":[[13.21631,43.70986],[13.21602,43.71064],[13.21587,43.71067]]},"properties":{}},{"type":"Feature","geometry":{"type":"LineString","coordinates":[[13.22306,43.71052],[13.223,43.71043],[13.22301,43.71033],[13.22336,43.71004],[13.22348,43.70999],[13.22359,43.70999],[13.2237,43.71003],[13.22376,43.7101],[13.22377,43.71019],[13.22372,43.71027],[13.22342,43.71052],[13.22323,43.71057],[13.22306,43.71052]]},"properties":{}},{"type":"Feature","geometry":{"type":"LineString","coordinates":[[13.21521,43.71039],[13.21502,43.71031]]},"properties":{}},{"type":"Feature","geometry":{"type":"LineString","coordinates":[[13.21503,43.71048],[13.21502,43.71031]]},"properties":{}},{"type":"Feature","geometry":{"type":"LineString","coordinates":[[13.22781,43.71039],[13.22794,43.71041]]},"properties":{}},{"type":"Feature","geometry":{"type":"LineString","coordinates":[[13.21521,43.71039],[13.21503,43.71048]]},"properties":{}},{"type":"Feature","geometry":{"type":"LineString","coordinates":[[13.22794,43.71059],[13.22806,43.71058]]},"properties":{}},{"type":"Feature","geometry":{"type":"LineString","coordinates":[[13.22832,43.7108],[13.2288,43.71119],[13.22914,43.71097],[13.22924,43.71093]]},"properties":{}},{"type":"Feature","geometry":{"type":"LineString","coordinates":[[13.22967,43.71128],[13.22924,43.71093]]},"properties":{}},{"type":"Feature","geometry":{"type":"LineString","coordinates":[[13.2298,43.71139],[13.22967,43.71128]]},"properties":{}},{"type":"Feature","geometry":{"type":"LineString","coordinates":[[13.22989,43.7117],[13.22988,43.71156],[13.2298,43.71139]]},"properties":{}},{"type":"Feature","geometry":{"type":"LineString","coordinates":[[13.22049,43.71232],[13.22063,43.71232],[13.22237,43.71098]]},"properties":{}},{"type":"Feature","geometry":{"type":"LineString","coordinates":[[13.2182,43.71165],[13.21771,43.71174]]},"properties":{}},{"type":"Feature","geometry":{"type":"LineString","coordinates":[[13.22248,43.71105],[13.22077,43.71237]]},"properties":{}},{"type":"Feature","geometry":{"type":"LineString","coordinates":[[13.22986,43.71188],[13.22989,43.7117]]},"properties":{}},{"type":"Feature","geometry":{"type":"LineString","coordinates":[[13.21985,43.71314],[13.21859,43.71211],[13.21814,43.71185],[13.21794,43.71178],[13.21755,43.71173],[13.21729,43.71165],[13.21587,43.71067],[13.21568,43.71057]]},"properties":{}},{"type":"Feature","geometry":{"type":"LineString","coordinates":[[13.21975,43.71305],[13.22027,43.71274],[13.22045,43.71257],[13.22045,43.71249],[13.22033,43.71241],[13.22049,43.71232]]},"properties":{}},{"type":"Feature","geometry":{"type":"LineString","coordinates":[[13.22251,43.71388],[13.22255,43.71395]]},"properties":{}},{"type":"Feature","geometry":{"type":"LineString","coordinates":[[13.22255,43.71395],[13.22254,43.71398]]},"properties":{}},{"type":"Feature","geometry":{"type":"LineString","coordinates":[[13.22218,43.71409],[13.2221,43.71402],[13.22215,43.71394],[13.2224,43.71385],[13.22251,43.71388]]},"properties":{}},{"type":"Feature","geometry":{"type":"LineString","coordinates":[[13.21107,43.71393],[13.21128,43.71404]]},"properties":{}},{"type":"Feature","geometry":{"type":"LineString","coordinates":[[13.22254,43.71398],[13.22249,43.71402]]},"properties":{}},{"type":"Feature","geometry":{"type":"LineString","coordinates":[[13.22212,43.71405],[13.22162,43.71397]]},"properties":{}},{"type":"Feature","geometry":{"type":"LineString","coordinates":[[13.21133,43.71404],[13.2115,43.71399]]},"properties":{}},{"type":"Feature","geometry":{"type":"LineString","coordinates":[[13.20597,43.71396],[13.20604,43.71407]]},"properties":{}},{"type":"Feature","geometry":{"type":"LineString","coordinates":[[13.21117,43.71411],[13.21107,43.71393]]},"properties":{}},{"type":"Feature","geometry":{"type":"LineString","coordinates":[[13.2059,43.71408],[13.20597,43.71396]]},"properties":{}},{"type":"Feature","geometry":{"type":"LineString","coordinates":[[13.22249,43.71402],[13.22234,43.71407]]},"properties":{}},{"type":"Feature","geometry":{"type":"LineString","coordinates":[[13.21095,43.71438],[13.21117,43.71417]]},"properties":{}},{"type":"Feature","geometry":{"type":"LineString","coordinates":[[13.21166,43.71434],[13.21134,43.71423]]},"properties":{}},{"type":"Feature","geometry":{"type":"LineString","coordinates":[[13.20569,43.71432],[13.20547,43.71425]]},"properties":{}},{"type":"Feature","geometry":{"type":"LineString","coordinates":[[13.20626,43.71418],[13.2063,43.71429],[13.20629,43.71435],[13.20621,43.71446],[13.20606,43.71451],[13.20582,43.71448],[13.20575,43.71444],[13.20569,43.71432],[13.20569,43.71424],[13.20574,43.71416],[13.2059,43.71408],[13.2061,43.71409],[13.20626,43.71418]]},"properties":{}},{"type":"Feature","geometry":{"type":"LineString","coordinates":[[13.21127,43.71424],[13.21095,43.71438]]},"properties":{}},{"type":"Feature","geometry":{"type":"LineString","coordinates":[[13.22227,43.71439],[13.22223,43.71431]]},"properties":{}},{"type":"Feature","geometry":{"type":"LineString","coordinates":[[13.2058,43.71465],[13.20582,43.71448]]},"properties":{}},{"type":"Feature","geometry":{"type":"LineString","coordinates":[[13.20597,43.71452],[13.2058,43.71465]]},"properties":{}},{"type":"Feature","geometry":{"type":"LineString","coordinates":[[13.22369,43.71465],[13.22354,43.71475],[13.22344,43.71474]]},"properties":{}},{"type":"Feature","geometry":{"type":"LineString","coordinates":[[13.2221,43.71524],[13.22234,43.71503],[13.22244,43.71486],[13.22241,43.71466],[13.22227,43.71439]]},"properties":{}},{"type":"Feature","geometry":{"type":"LineString","coordinates":[[13.20334,43.71479],[13.20342,43.71489],[13.20356,43.71498],[13.20402,43.71512]]},"properties":{}},{"type":"Feature","geometry":{"type":"LineString","coordinates":[[13.22495,43.71548],[13.22513,43.7153],[13.22604,43.71466],[13.22606,43.71456]]},"properties":{}},{"type":"Feature","geometry":{"type":"LineString","coordinates":[[13.20327,43.7151],[13.20341,43.71501],[13.20356,43.71498]]},"properties":{}},{"type":"Feature","geometry":{"type":"LineString","coordinates":[[13.20353,43.71522],[13.20339,43.71518],[13.20327,43.7151]]},"properties":{}},{"type":"Feature","geometry":{"type":"LineString","coordinates":[[13.20402,43.71512],[13.20353,43.71522],[13.2032,43.71535]]},"properties":{}},{"type":"Feature","geometry":{"type":"LineString","coordinates":[[13.22156,43.71563],[13.2221,43.71524]]},"properties":{}},{"type":"Feature","geometry":{"type":"LineString","coordinates":[[13.2087,43.71585],[13.2089,43.71573]]},"properties":{}},{"type":"Feature","geometry":{"type":"LineString","coordinates":[[13.2089,43.71573],[13.20882,43.71587]]},"properties":{}},{"type":"Feature","geometry":{"type":"LineString","coordinates":[[13.21308,43.71587],[13.21316,43.71587]]},"properties":{}},{"type":"Feature","geometry":{"type":"LineString","coordinates":[[13.20861,43.71589],[13.2087,43.71585],[13.20882,43.71587]]},"properties":{}},{"type":"Feature","geometry":{"type":"LineString","coordinates":[[13.05611,43.69808],[13.05584,43.69807]]},"properties":{}},{"type":"Feature","geometry":{"type":"LineString","coordinates":[[13.08652,43.7005],[13.08666,43.7002]]},"properties":{}},{"type":"Feature","geometry":{"type":"LineString","coordinates":[[13.08666,43.7002],[13.08667,43.70045],[13.0867,43.70051]]},"properties":{}},{"type":"Feature","geometry":{"type":"LineString","coordinates":[[13.0637,43.70126],[13.0619,43.69977]]},"properties":{}},{"type":"Feature","geometry":{"type":"LineString","coordinates":[[13.08663,43.70048],[13.08673,43.70054],[13.08672,43.70063],[13.08663,43.70068],[13.0865,43.70065],[13.08646,43.70057],[13.08649,43.70052],[13.08663,43.70048]]},"properties":{}},{"type":"Feature","geometry":{"type":"LineString","coordinates":[[13.08617,43.70068],[13.08647,43.70054]]},"properties":{}},{"type":"Feature","geometry":{"type":"LineString","coordinates":[[13.08652,43.70066],[13.08617,43.70068]]},"properties":{}},{"type":"Feature","geometry":{"type":"LineString","coordinates":[[13.08674,43.7006],[13.0868,43.70082]]},"properties":{}},{"type":"Feature","geometry":{"type":"LineString","coordinates":[[13.0868,43.70082],[13.08663,43.70068]]},"properties":{}},{"type":"Feature","geometry":{"type":"LineString","coordinates":[[13.06705,43.70404],[13.06752,43.70433],[13.06775,43.70433]]},"properties":{}},{"type":"Feature","geometry":{"type":"LineString","coordinates":[[13.21944,43.70162],[13.21938,43.70173]]},"properties":{}},{"type":"Feature","geometry":{"type":"LineString","coordinates":[[13.21959,43.70168],[13.21938,43.70173]]},"properties":{}},{"type":"Feature","geometry":{"type":"LineString","coordinates":[[13.21925,43.70176],[13.21912,43.70168]]},"properties":{}},{"type":"Feature","geometry":{"type":"LineString","coordinates":[[13.21938,43.70173],[13.21925,43.70176]]},"properties":{}},{"type":"Feature","geometry":{"type":"LineString","coordinates":[[13.21908,43.70184],[13.21912,43.70168]]},"properties":{}},{"type":"Feature","geometry":{"type":"LineString","coordinates":[[13.21925,43.70176],[13.21908,43.70184]]},"properties":{}},{"type":"Feature","geometry":{"type":"LineString","coordinates":[[13.20965,43.70565],[13.20961,43.70565],[13.20959,43.70557],[13.2095,43.70548],[13.20905,43.70515],[13.20866,43.70465],[13.20842,43.70441],[13.20774,43.70389],[13.20747,43.70384],[13.20736,43.70378],[13.20653,43.70311],[13.20647,43.70289],[13.20632,43.70272],[13.20519,43.70178],[13.20459,43.70131],[13.20441,43.7012]]},"properties":{}},{"type":"Feature","geometry":{"type":"LineString","coordinates":[[13.20738,43.70319],[13.20783,43.70358],[13.20783,43.70365],[13.20779,43.70373],[13.20765,43.7038]]},"properties":{}},{"type":"Feature","geometry":{"type":"LineString","coordinates":[[13.20765,43.7038],[13.20745,43.70377],[13.20719,43.70356]]},"properties":{}},{"type":"Feature","geometry":{"type":"LineString","coordinates":[[13.20783,43.70365],[13.20813,43.70406]]},"properties":{}},{"type":"Feature","geometry":{"type":"LineString","coordinates":[[13.06775,43.70433],[13.06816,43.70412]]},"properties":{}},{"type":"Feature","geometry":{"type":"LineString","coordinates":[[13.06816,43.70412],[13.06796,43.70442]]},"properties":{}},{"type":"Feature","geometry":{"type":"LineString","coordinates":[[13.06763,43.70453],[13.06767,43.70442],[13.06775,43.70433]]},"properties":{}},{"type":"Feature","geometry":{"type":"LineString","coordinates":[[13.06796,43.70442],[13.06783,43.70448],[13.06763,43.70453]]},"properties":{}},{"type":"Feature","geometry":{"type":"LineString","coordinates":[[13.06796,43.70442],[13.06796,43.70458],[13.06804,43.70474],[13.06831,43.70509]]},"properties":{}},{"type":"Feature","geometry":{"type":"LineString","coordinates":[[13.07453,43.70984],[13.07477,43.70965]]},"properties":{}},{"type":"Feature","geometry":{"type":"LineString","coordinates":[[13.07477,43.70965],[13.07475,43.70974],[13.0748,43.70988]]},"properties":{}},{"type":"Feature","geometry":{"type":"LineString","coordinates":[[13.07402,43.70974],[13.07414,43.70983],[13.07438,43.70987]]},"properties":{}},{"type":"Feature","geometry":{"type":"LineString","coordinates":[[13.07438,43.70987],[13.07453,43.70984]]},"properties":{}},{"type":"Feature","geometry":{"type":"LineString","coordinates":[[13.07453,43.70984],[13.0748,43.70988]]},"properties":{}},{"type":"Feature","geometry":{"type":"LineString","coordinates":[[13.07485,43.70991],[13.07512,43.70991],[13.07533,43.70986]]},"properties":{}},{"type":"Feature","geometry":{"type":"LineString","coordinates":[[13.0748,43.70988],[13.07485,43.70991]]},"properties":{}},{"type":"Feature","geometry":{"type":"LineString","coordinates":[[13.07415,43.71012],[13.07402,43.70974]]},"properties":{}},{"type":"Feature","geometry":{"type":"LineString","coordinates":[[13.07415,43.71012],[13.07419,43.71002],[13.07427,43.70993],[13.07438,43.70987]]},"properties":{}},{"type":"Feature","geometry":{"type":"LineString","coordinates":[[13.07533,43.70986],[13.07513,43.71],[13.075,43.71015]]},"properties":{}},{"type":"Feature","geometry":{"type":"LineString","coordinates":[[13.07485,43.70991],[13.07493,43.70998],[13.075,43.71015]]},"properties":{}},{"type":"Feature","geometry":{"type":"LineString","coordinates":[[13.075,43.71015],[13.07499,43.7102]]},"properties":{}},{"type":"Feature","geometry":{"type":"LineString","coordinates":[[13.0747,43.71043],[13.07443,43.71043],[13.07431,43.71038],[13.07417,43.71022],[13.07415,43.71012]]},"properties":{}},{"type":"Feature","geometry":{"type":"LineString","coordinates":[[13.07499,43.7102],[13.07488,43.71035],[13.0747,43.71043]]},"properties":{}},{"type":"Feature","geometry":{"type":"LineString","coordinates":[[13.07499,43.7102],[13.07507,43.71043],[13.07516,43.71057]]},"properties":{}},{"type":"Feature","geometry":{"type":"LineString","coordinates":[[13.2115,43.71399],[13.21143,43.71411]]},"properties":{}},{"type":"Feature","geometry":{"type":"LineString","coordinates":[[13.20616,43.71411],[13.20632,43.71405]]},"properties":{}},{"type":"Feature","geometry":{"type":"LineString","coordinates":[[13.22234,43.71407],[13.22218,43.71409]]},"properties":{}},{"type":"Feature","geometry":{"type":"LineString","coordinates":[[13.20632,43.71405],[13.20626,43.71418]]},"properties":{}},{"type":"Feature","geometry":{"type":"LineString","coordinates":[[13.21118,43.71408],[13.21128,43.71404],[13.21136,43.71405],[13.21141,43.71409],[13.21143,43.71416],[13.21137,43.71422],[13.21124,43.71423],[13.21117,43.71417],[13.21118,43.71408]]},"properties":{}},{"type":"Feature","geometry":{"type":"LineString","coordinates":[[13.22234,43.71407],[13.22226,43.71418],[13.22223,43.71431]]},"properties":{}},{"type":"Feature","geometry":{"type":"LineString","coordinates":[[13.22223,43.71431],[13.22218,43.71409]]},"properties":{}},{"type":"Feature","geometry":{"type":"LineString","coordinates":[[13.20547,43.71425],[13.20571,43.71421]]},"properties":{}},{"type":"Feature","geometry":{"type":"LineString","coordinates":[[13.22227,43.71439],[13.22202,43.71417],[13.22184,43.71407]]},"properties":{}},{"type":"Feature","geometry":{"type":"LineString","coordinates":[[13.21143,43.71416],[13.21154,43.71427],[13.21166,43.71434]]},"properties":{}},{"type":"Feature","geometry":{"type":"LineString","coordinates":[[13.21915,43.71899],[13.21869,43.71914]]},"properties":{}},{"type":"Feature","geometry":{"type":"LineString","coordinates":[[13.22061,43.71925],[13.22079,43.71921],[13.221,43.71906],[13.22107,43.71895]]},"properties":{}},{"type":"Feature","geometry":{"type":"LineString","coordinates":[[13.2169,43.71905],[13.21699,43.71917],[13.21703,43.71937]]},"properties":{}},{"type":"Feature","geometry":{"type":"LineString","coordinates":[[13.21703,43.71937],[13.21705,43.71946],[13.21719,43.71963]]},"properties":{}},{"type":"Feature","geometry":{"type":"LineString","coordinates":[[13.20838,43.71985],[13.20892,43.71949]]},"properties":{}},{"type":"Feature","geometry":{"type":"LineString","coordinates":[[13.21719,43.71963],[13.21741,43.71983]]},"properties":{}},{"type":"Feature","geometry":{"type":"LineString","coordinates":[[13.21517,43.71983],[13.21543,43.71971]]},"properties":{}},{"type":"Feature","geometry":{"type":"LineString","coordinates":[[13.20838,43.71985],[13.20757,43.72021],[13.20722,43.72048]]},"properties":{}},{"type":"Feature","geometry":{"type":"LineString","coordinates":[[13.21741,43.71983],[13.21775,43.72007],[13.21844,43.72069]]},"properties":{}},{"type":"Feature","geometry":{"type":"LineString","coordinates":[[13.20722,43.72048],[13.20654,43.72099],[13.20648,43.72108],[13.20645,43.72134],[13.2063,43.72179],[13.20577,43.72221],[13.20579,43.72232],[13.20606,43.72263],[13.20621,43.72274],[13.20625,43.72282],[13.20621,43.72298]]},"properties":{}},{"type":"Feature","geometry":{"type":"LineString","coordinates":[[13.19929,43.72055],[13.19921,43.72071],[13.19919,43.72084]]},"properties":{}},{"type":"Feature","geometry":{"type":"LineString","coordinates":[[13.19893,43.72079],[13.1991,43.7208],[13.19919,43.72084]]},"properties":{}},{"type":"Feature","geometry":{"type":"LineString","coordinates":[[13.19896,43.72101],[13.1989,43.72091],[13.19893,43.72079]]},"properties":{}},{"type":"Feature","geometry":{"type":"LineString","coordinates":[[13.19919,43.72084],[13.19923,43.72096],[13.19934,43.72112]]},"properties":{}},{"type":"Feature","geometry":{"type":"LineString","coordinates":[[13.19896,43.72101],[13.19854,43.72102]]},"properties":{}},{"type":"Feature","geometry":{"type":"LineString","coordinates":[[13.19934,43.72112],[13.19896,43.72101]]},"properties":{}},{"type":"Feature","geometry":{"type":"LineString","coordinates":[[13.19977,43.72148],[13.19992,43.72166]]},"properties":{}},{"type":"Feature","geometry":{"type":"LineString","coordinates":[[13.19969,43.72167],[13.19976,43.72159],[13.19977,43.72148]]},"properties":{}},{"type":"Feature","geometry":{"type":"LineString","coordinates":[[13.20026,43.72194],[13.20052,43.72201]]},"properties":{}},{"type":"Feature","geometry":{"type":"LineString","coordinates":[[13.19935,43.72211],[13.19952,43.72191]]},"properties":{}},{"type":"Feature","geometry":{"type":"LineString","coordinates":[[13.20052,43.72201],[13.20036,43.72204],[13.20024,43.7221]]},"properties":{}},{"type":"Feature","geometry":{"type":"LineString","coordinates":[[13.19962,43.72207],[13.19935,43.72211]]},"properties":{}},{"type":"Feature","geometry":{"type":"LineString","coordinates":[[13.19957,43.72236],[13.19967,43.72223],[13.1997,43.72213]]},"properties":{}},{"type":"Feature","geometry":{"type":"LineString","coordinates":[[13.19999,43.72221],[13.19971,43.72229],[13.19957,43.72236]]},"properties":{}},{"type":"Feature","geometry":{"type":"LineString","coordinates":[[13.19919,43.72649],[13.20092,43.72525],[13.20105,43.72526],[13.20147,43.7256],[13.20156,43.72562],[13.20166,43.72561],[13.2041,43.72393]]},"properties":{}},{"type":"Feature","geometry":{"type":"LineString","coordinates":[[13.19947,43.7263],[13.19964,43.72643],[13.19987,43.72629],[13.19992,43.72628],[13.20002,43.72632]]},"properties":{}},{"type":"Feature","geometry":{"type":"LineString","coordinates":[[13.19909,43.7266],[13.19964,43.72704]]},"properties":{}},{"type":"Feature","geometry":{"type":"LineString","coordinates":[[13.19862,43.72945],[13.19898,43.72939]]},"properties":{}},{"type":"Feature","geometry":{"type":"LineString","coordinates":[[13.19898,43.72939],[13.19868,43.72958]]},"properties":{}},{"type":"Feature","geometry":{"type":"LineString","coordinates":[[13.19865,43.72947],[13.19868,43.72958],[13.19857,43.72967],[13.1984,43.72966],[13.19832,43.72957],[13.19835,43.72947],[13.19844,43.72942],[13.19856,43.72942],[13.19865,43.72947]]},"properties":{}},{"type":"Feature","geometry":{"type":"LineString","coordinates":[[13.07516,43.71057],[13.07499,43.71046],[13.0747,43.71043]]},"properties":{}},{"type":"Feature","geometry":{"type":"LineString","coordinates":[[13.09493,43.72584],[13.09449,43.72581],[13.09442,43.72584],[13.09436,43.72594],[13.09443,43.72605],[13.09513,43.72639],[13.09544,43.72659],[13.0957,43.72686],[13.09605,43.72734]]},"properties":{}},{"type":"Feature","geometry":{"type":"LineString","coordinates":[[13.10113,43.72653],[13.09971,43.7273],[13.0979,43.728]]},"properties":{}},{"type":"Feature","geometry":{"type":"LineString","coordinates":[[13.0971,43.72836],[13.09601,43.72736]]},"properties":{}},{"type":"Feature","geometry":{"type":"LineString","coordinates":[[13.0979,43.728],[13.0971,43.72836]]},"properties":{}},{"type":"Feature","geometry":{"type":"LineString","coordinates":[[13.10467,43.7349],[13.10432,43.7346]]},"properties":{}},{"type":"Feature","geometry":{"type":"LineString","coordinates":[[13.10487,43.73508],[13.10467,43.7349]]},"properties":{}},{"type":"Feature","geometry":{"type":"LineString","coordinates":[[13.1072,43.73716],[13.10487,43.73508]]},"properties":{}},{"type":"Feature","geometry":{"type":"LineString","coordinates":[[13.10415,43.73452],[13.10427,43.73464],[13.10433,43.73489],[13.1043,43.73503],[13.10448,43.73518],[13.10467,43.73509],[13.10487,43.73513],[13.10699,43.73706],[13.10713,43.73721],[13.10725,43.73741],[13.10722,43.73784]]},"properties":{}},{"type":"Feature","geometry":{"type":"LineString","coordinates":[[13.19823,43.72984],[13.19832,43.72971],[13.19833,43.72961]]},"properties":{}},{"type":"Feature","geometry":{"type":"LineString","coordinates":[[13.19854,43.72968],[13.19823,43.72984]]},"properties":{}},{"type":"Feature","geometry":{"type":"LineString","coordinates":[[13.18131,43.73281],[13.18134,43.7329],[13.18147,43.73302]]},"properties":{}},{"type":"Feature","geometry":{"type":"LineString","coordinates":[[13.1812,43.73304],[13.18131,43.73281]]},"properties":{}},{"type":"Feature","geometry":{"type":"LineString","coordinates":[[13.18094,43.73298],[13.18115,43.73307]]},"properties":{}},{"type":"Feature","geometry":{"type":"LineString","coordinates":[[13.18156,43.73306],[13.18181,43.73303]]},"properties":{}},{"type":"Feature","geometry":{"type":"LineString","coordinates":[[13.18106,43.73316],[13.18094,43.73298]]},"properties":{}},{"type":"Feature","geometry":{"type":"LineString","coordinates":[[13.18181,43.73303],[13.18168,43.73317]]},"properties":{}},{"type":"Feature","geometry":{"type":"LineString","coordinates":[[13.18158,43.73342],[13.1814,43.73348],[13.18115,43.73342],[13.18106,43.73333],[13.18106,43.73316],[13.18115,43.73307],[13.18129,43.73302],[13.18147,43.73302],[13.18156,43.73306],[13.18165,43.73313],[13.18169,43.73324],[13.18165,43.73337],[13.18158,43.73342]]},"properties":{}},{"type":"Feature","geometry":{"type":"LineString","coordinates":[[13.18755,43.73789],[13.19242,43.7342]]},"properties":{}},{"type":"Feature","geometry":{"type":"LineString","coordinates":[[13.1072,43.73716],[13.10754,43.73736]]},"properties":{}},{"type":"Feature","geometry":{"type":"LineString","coordinates":[[13.10737,43.73748],[13.1072,43.73716]]},"properties":{}},{"type":"Feature","geometry":{"type":"LineString","coordinates":[[13.1076,43.73764],[13.10751,43.73764],[13.1074,43.73758],[13.10737,43.73748],[13.10743,43.7374],[13.1076,43.73737],[13.10774,43.73745],[13.10775,43.73754],[13.10771,43.73759],[13.1076,43.73764]]},"properties":{}},{"type":"Feature","geometry":{"type":"LineString","coordinates":[[13.10775,43.73749],[13.10794,43.73774]]},"properties":{}},{"type":"Feature","geometry":{"type":"LineString","coordinates":[[13.10722,43.73784],[13.10737,43.73753]]},"properties":{}},{"type":"Feature","geometry":{"type":"LineString","coordinates":[[13.10794,43.73774],[13.1076,43.73764]]},"properties":{}},{"type":"Feature","geometry":{"type":"LineString","coordinates":[[13.10758,43.73764],[13.10722,43.73784]]},"properties":{}},{"type":"Feature","geometry":{"type":"LineString","coordinates":[[13.18723,43.73798],[13.18734,43.738],[13.18735,43.73808],[13.18727,43.73811],[13.18719,43.73809],[13.18717,43.73803],[13.18723,43.73798]]},"properties":{}},{"type":"Feature","geometry":{"type":"LineString","coordinates":[[13.10963,43.73948],[13.11008,43.73921]]},"properties":{}},{"type":"Feature","geometry":{"type":"LineString","coordinates":[[13.11018,43.73929],[13.10963,43.73948]]},"properties":{}},{"type":"Feature","geometry":{"type":"LineString","coordinates":[[13.18173,43.74162],[13.18522,43.73962],[13.18711,43.73821]]},"properties":{}},{"type":"Feature","geometry":{"type":"LineString","coordinates":[[13.18425,43.74209],[13.18405,43.7422],[13.18312,43.74294],[13.18245,43.74349],[13.18215,43.74379],[13.18183,43.74399]]},"properties":{}},{"type":"Feature","geometry":{"type":"LineString","coordinates":[[13.11684,43.74419],[13.11725,43.7441]]},"properties":{}},{"type":"Feature","geometry":{"type":"LineString","coordinates":[[13.11615,43.74412],[13.1165,43.74422],[13.11684,43.74419]]},"properties":{}},{"type":"Feature","geometry":{"type":"LineString","coordinates":[[13.11725,43.7441],[13.11692,43.74435]]},"properties":{}},{"type":"Feature","geometry":{"type":"LineString","coordinates":[[13.11656,43.74446],[13.11662,43.74428],[13.11684,43.74419]]},"properties":{}},{"type":"Feature","geometry":{"type":"LineString","coordinates":[[13.11692,43.74435],[13.11673,43.74444],[13.11656,43.74446]]},"properties":{}},{"type":"Feature","geometry":{"type":"LineString","coordinates":[[13.11692,43.74435],[13.11686,43.74451],[13.11689,43.74472]]},"properties":{}},{"type":"Feature","geometry":{"type":"LineString","coordinates":[[13.1547,43.74643],[13.15339,43.7461],[13.15108,43.74575],[13.14883,43.74497],[13.14733,43.74452],[13.14604,43.74421],[13.14527,43.74408],[13.14296,43.7439],[13.1421,43.74376],[13.13916,43.74316]]},"properties":{}},{"type":"Feature","geometry":{"type":"LineString","coordinates":[[13.1734,43.74546],[13.17372,43.74561],[13.17397,43.74568]]},"properties":{}},{"type":"Feature","geometry":{"type":"LineString","coordinates":[[13.15473,43.74701],[13.1547,43.74698],[13.15484,43.74682],[13.15485,43.74665],[13.15474,43.74652],[13.15358,43.74621],[13.15118,43.74588],[13.14885,43.74509],[13.14729,43.7446],[13.14547,43.74417]]},"properties":{}},{"type":"Feature","geometry":{"type":"LineString","coordinates":[[13.17421,43.74568],[13.17476,43.74554]]},"properties":{}},{"type":"Feature","geometry":{"type":"LineString","coordinates":[[13.17376,43.74587],[13.17367,43.74572],[13.1734,43.74546]]},"properties":{}},{"type":"Feature","geometry":{"type":"LineString","coordinates":[[13.1738,43.74579],[13.17397,43.74568],[13.17421,43.74568],[13.17438,43.74579],[13.17442,43.74594],[13.17435,43.74606],[13.17426,43.74612],[13.174,43.74614],[13.17384,43.74607],[13.17378,43.746],[13.17375,43.74591],[13.1738,43.74579]]},"properties":{}},{"type":"Feature","geometry":{"type":"LineString","coordinates":[[13.17332,43.74634],[13.17354,43.74622],[13.17378,43.746]]},"properties":{}},{"type":"Feature","geometry":{"type":"LineString","coordinates":[[13.174,43.74614],[13.17332,43.74634]]},"properties":{}},{"type":"Feature","geometry":{"type":"LineString","coordinates":[[13.17332,43.74634],[13.17286,43.74661]]},"properties":{}},{"type":"Feature","geometry":{"type":"LineString","coordinates":[[13.15492,43.74672],[13.15497,43.74662],[13.15513,43.74654]]},"properties":{}},{"type":"Feature","geometry":{"type":"LineString","coordinates":[[13.15513,43.74654],[13.15515,43.74667],[13.15512,43.74681]]},"properties":{}},{"type":"Feature","geometry":{"type":"LineString","coordinates":[[13.15473,43.74701],[13.15486,43.74686],[13.15492,43.74672],[13.15487,43.74659],[13.1547,43.74643]]},"properties":{}},{"type":"Feature","geometry":{"type":"LineString","coordinates":[[13.15577,43.74673],[13.15532,43.74674],[13.15512,43.74681],[13.15473,43.74701]]},"properties":{}},{"type":"Feature","geometry":{"type":"LineString","coordinates":[[13.17286,43.74661],[13.17138,43.74745]]},"properties":{}},{"type":"Feature","geometry":{"type":"LineString","coordinates":[[13.17138,43.74745],[13.17056,43.74795]]},"properties":{}},{"type":"Feature","geometry":{"type":"LineString","coordinates":[[13.17424,43.74785],[13.17476,43.74824]]},"properties":{}},{"type":"Feature","geometry":{"type":"LineString","coordinates":[[13.17056,43.74795],[13.16952,43.74861]]},"properties":{}},{"type":"Feature","geometry":{"type":"LineString","coordinates":[[13.17306,43.74934],[13.17309,43.74927],[13.17303,43.74889],[13.17305,43.7488],[13.1731,43.74873],[13.17408,43.74809],[13.17436,43.74803],[13.17443,43.74799]]},"properties":{}},{"type":"Feature","geometry":{"type":"LineString","coordinates":[[13.17306,43.74934],[13.17423,43.74854],[13.17475,43.74829],[13.17476,43.74824]]},"properties":{}},{"type":"Feature","geometry":{"type":"LineString","coordinates":[[13.16952,43.74861],[13.16863,43.74918]]},"properties":{}},{"type":"Feature","geometry":{"type":"LineString","coordinates":[[13.1455,43.74411],[13.14482,43.74519],[13.14375,43.74639],[13.14351,43.74671],[13.14297,43.74763],[13.14273,43.74794],[13.14245,43.74822],[13.14157,43.74897],[13.1402,43.74977],[13.13976,43.75]]},"properties":{}},{"type":"Feature","geometry":{"type":"LineString","coordinates":[[13.14981,43.75],[13.15473,43.74701]]},"properties":{}},{"type":"Feature","geometry":{"type":"LineString","coordinates":[[13.16828,43.74941],[13.16863,43.74918]]},"properties":{}},{"type":"Feature","geometry":{"type":"LineString","coordinates":[[13.1726,43.74934],[13.17282,43.74939],[13.17306,43.74934]]},"properties":{}},{"type":"Feature","geometry":{"type":"LineString","coordinates":[[13.16797,43.74962],[13.16828,43.74941]]},"properties":{}},{"type":"Feature","geometry":{"type":"LineString","coordinates":[[13.16745,43.74966],[13.16772,43.74967],[13.16797,43.74962]]},"properties":{}},{"type":"Feature","geometry":{"type":"LineString","coordinates":[[13.1671,43.74955],[13.16745,43.74966],[13.16755,43.74976],[13.1676,43.74986]]},"properties":{}},{"type":"Feature","geometry":{"type":"LineString","coordinates":[[13.1676,43.74986],[13.16797,43.74962]]},"properties":{}},{"type":"Feature","geometry":{"type":"LineString","coordinates":[[13.16729,43.75],[13.16732,43.74985],[13.1673,43.74977],[13.1671,43.74955]]},"properties":{}},{"type":"Feature","geometry":{"type":"LineString","coordinates":[[13.16741,43.75],[13.1676,43.74986]]},"properties":{}},{"type":"Feature","geometry":{"type":"LineString","coordinates":[[13.1709,43.75],[13.1721,43.74922],[13.17225,43.74921],[13.1726,43.74934]]},"properties":{}},{"type":"Feature","geometry":{"type":"LineString","coordinates":[[13.21304,43.71589],[13.21308,43.71587]]},"properties":{}},{"type":"Feature","geometry":{"type":"LineString","coordinates":[[13.20882,43.71587],[13.20886,43.71592]]},"properties":{}},{"type":"Feature","geometry":{"type":"LineString","coordinates":[[13.21316,43.71587],[13.2132,43.71593]]},"properties":{}},{"type":"Feature","geometry":{"type":"LineString","coordinates":[[13.2086,43.71597],[13.20861,43.71589]]},"properties":{}},{"type":"Feature","geometry":{"type":"LineString","coordinates":[[13.21306,43.71598],[13.21302,43.71593],[13.21304,43.71589]]},"properties":{}},{"type":"Feature","geometry":{"type":"LineString","coordinates":[[13.20845,43.716],[13.20861,43.71589]]},"properties":{}},{"type":"Feature","geometry":{"type":"LineString","coordinates":[[13.2132,43.71593],[13.21318,43.71597]]},"properties":{}},{"type":"Feature","geometry":{"type":"LineString","coordinates":[[13.22081,43.71627],[13.22091,43.71612],[13.22105,43.716],[13.22156,43.71563]]},"properties":{}},{"type":"Feature","geometry":{"type":"LineString","coordinates":[[13.20886,43.71592],[13.20883,43.716]]},"properties":{}},{"type":"Feature","geometry":{"type":"LineString","coordinates":[[13.21318,43.71597],[13.2131,43.71599]]},"properties":{}},{"type":"Feature","geometry":{"type":"LineString","coordinates":[[13.2086,43.71597],[13.20845,43.716]]},"properties":{}},{"type":"Feature","geometry":{"type":"LineString","coordinates":[[13.20862,43.716],[13.2086,43.71597]]},"properties":{}},{"type":"Feature","geometry":{"type":"LineString","coordinates":[[13.2131,43.71599],[13.21306,43.71598]]},"properties":{}},{"type":"Feature","geometry":{"type":"LineString","coordinates":[[13.21772,43.71593],[13.21878,43.71608]]},"properties":{}},{"type":"Feature","geometry":{"type":"LineString","coordinates":[[13.20883,43.716],[13.20879,43.71602]]},"properties":{}},{"type":"Feature","geometry":{"type":"LineString","coordinates":[[13.20873,43.71604],[13.20862,43.716]]},"properties":{}},{"type":"Feature","geometry":{"type":"LineString","coordinates":[[13.20879,43.71602],[13.20873,43.71604]]},"properties":{}},{"type":"Feature","geometry":{"type":"LineString","coordinates":[[13.21878,43.71608],[13.21894,43.71613],[13.21918,43.7163]]},"properties":{}},{"type":"Feature","geometry":{"type":"LineString","coordinates":[[13.21591,43.71615],[13.21757,43.71632]]},"properties":{}},{"type":"Feature","geometry":{"type":"LineString","coordinates":[[13.22058,43.71672],[13.22081,43.71627]]},"properties":{}},{"type":"Feature","geometry":{"type":"LineString","coordinates":[[13.21918,43.7163],[13.21959,43.71683]]},"properties":{}},{"type":"Feature","geometry":{"type":"LineString","coordinates":[[13.21962,43.71698],[13.21968,43.71696]]},"properties":{}},{"type":"Feature","geometry":{"type":"LineString","coordinates":[[13.21992,43.71726],[13.22033,43.71696],[13.22058,43.71672]]},"properties":{}},{"type":"Feature","geometry":{"type":"LineString","coordinates":[[13.21959,43.71683],[13.21962,43.71698],[13.22007,43.71756],[13.22023,43.71783],[13.22033,43.7179]]},"properties":{}},{"type":"Feature","geometry":{"type":"LineString","coordinates":[[13.22114,43.7189],[13.2213,43.71882],[13.22487,43.71605]]},"properties":{}},{"type":"Feature","geometry":{"type":"LineString","coordinates":[[13.21719,43.71754],[13.21721,43.71759],[13.21706,43.71805]]},"properties":{}},{"type":"Feature","geometry":{"type":"LineString","coordinates":[[13.2107,43.71741],[13.21067,43.71744],[13.21077,43.7175],[13.2108,43.71756],[13.2112,43.71772],[13.21124,43.71777],[13.21121,43.71786],[13.20892,43.71949]]},"properties":{}},{"type":"Feature","geometry":{"type":"LineString","coordinates":[[13.21706,43.71805],[13.21682,43.71893],[13.2169,43.71905]]},"properties":{}},{"type":"Feature","geometry":{"type":"LineString","coordinates":[[13.21543,43.71971],[13.21795,43.71856],[13.21944,43.71758]]},"properties":{}},{"type":"Feature","geometry":{"type":"LineString","coordinates":[[13.22114,43.7189],[13.22113,43.71894],[13.22107,43.71895]]},"properties":{}},{"type":"Feature","geometry":{"type":"LineString","coordinates":[[13.20745,43.72431],[13.21376,43.72058],[13.21481,43.71998],[13.21517,43.71983]]},"properties":{}},{"type":"Feature","geometry":{"type":"LineString","coordinates":[[13.20519,43.72299],[13.20606,43.72294],[13.20621,43.72298]]},"properties":{}},{"type":"Feature","geometry":{"type":"LineString","coordinates":[[13.20519,43.72299],[13.20505,43.72306],[13.20491,43.72323]]},"properties":{}},{"type":"Feature","geometry":{"type":"LineString","coordinates":[[13.2043,43.72374],[13.20435,43.72364],[13.2045,43.72353],[13.20457,43.72351]]},"properties":{}},{"type":"Feature","geometry":{"type":"LineString","coordinates":[[13.20514,43.72407],[13.20459,43.72362],[13.20457,43.72357],[13.20461,43.72346],[13.20491,43.72323]]},"properties":{}},{"type":"Feature","geometry":{"type":"LineString","coordinates":[[13.20416,43.72385],[13.2043,43.72374]]},"properties":{}},{"type":"Feature","geometry":{"type":"LineString","coordinates":[[13.2041,43.72393],[13.20416,43.72385]]},"properties":{}},{"type":"Feature","geometry":{"type":"LineString","coordinates":[[13.20389,43.72467],[13.2034,43.72441]]},"properties":{}},{"type":"Feature","geometry":{"type":"LineString","coordinates":[[13.24018,43.70516],[13.24338,43.70326]]},"properties":{}}]}