{"type":"FeatureCollection","features":[{"type":"Feature","geometry":{"type":"LineString","coordinates":[[13.21809,38.09064],[13.21785,38.0906],[13.21762,38.09043],[13.21712,38.09034],[13.21678,38.09016],[13.21656,38.09012],[13.21656,38.0901],[13.21671,38.09003],[13.21726,38.08996],[13.21728,38.08993],[13.21721,38.0899],[13.21771,38.08982],[13.21775,38.08978],[13.21777,38.08971],[13.21767,38.08933],[13.21767,38.08918],[13.21774,38.08914],[13.21784,38.08898],[13.21793,38.08892],[13.21836,38.0888],[13.21869,38.08858],[13.219,38.08853],[13.21916,38.08846],[13.2194,38.08841],[13.21975,38.08839],[13.22002,38.08833],[13.22028,38.08843]]},"properties":{}},{"type":"Feature","geometry":{"type":"LineString","coordinates":[[13.22632,38.16833],[13.22653,38.1683],[13.22665,38.16819]]},"properties":{}},{"type":"Feature","geometry":{"type":"LineString","coordinates":[[13.22667,38.16843],[13.22655,38.16837],[13.22632,38.16833]]},"properties":{}},{"type":"Feature","geometry":{"type":"LineString","coordinates":[[13.22653,38.16876],[13.22664,38.16862],[13.22667,38.16843]]},"properties":{}},{"type":"Feature","geometry":{"type":"LineString","coordinates":[[13.22667,38.16843],[13.22675,38.16879]]},"properties":{}},{"type":"Feature","geometry":{"type":"LineString","coordinates":[[13.05228,38.06893],[13.05224,38.06907],[13.05233,38.06926],[13.05269,38.06943]]},"properties":{}},{"type":"Feature","geometry":{"type":"LineString","coordinates":[[13.05408,38.06858],[13.05361,38.06901],[13.05329,38.06923],[13.05324,38.06929],[13.05322,38.06942],[13.05324,38.06953],[13.05336,38.06964],[13.05404,38.0699]]},"properties":{}},{"type":"Feature","geometry":{"type":"LineString","coordinates":[[13.0,38.0442],[13.00023,38.0443],[13.00045,38.04432],[13.00065,38.04427],[13.00093,38.04414]]},"properties":{}},{"type":"Feature","geometry":{"type":"LineString","coordinates":[[13.00093,38.04414],[13.00077,38.04424],[13.00072,38.04432],[13.00071,38.0444],[13.00081,38.04454],[13.00108,38.04468]]},"properties":{}},{"type":"Feature","geometry":{"type":"LineString","coordinates":[[13.00034,38.0451],[13.00009,38.04448],[13.0,38.04434]]},"properties":{}},{"type":"Feature","geometry":{"type":"LineString","coordinates":[[13.00103,38.04476],[13.00067,38.0446],[13.00047,38.04459],[13.00038,38.04463],[13.00028,38.04476],[13.00034,38.0451]]},"properties":{}},{"type":"Feature","geometry":{"type":"LineString","coordinates":[[13.23804,38.18134],[13.23808,38.18021]]},"properties":{}},{"type":"Feature","geometry":{"type":"LineString","coordinates":[[13.23808,38.18021],[13.23833,38.18037],[13.23959,38.18148]]},"properties":{}},{"type":"Feature","geometry":{"type":"LineString","coordinates":[[13.22593,38.1687],[13.22626,38.16879],[13.2265,38.16878]]},"properties":{}},{"type":"Feature","geometry":{"type":"LineString","coordinates":[[13.22645,38.16894],[13.22593,38.1687]]},"properties":{}},{"type":"Feature","geometry":{"type":"LineString","coordinates":[[13.22657,38.16903],[13.2265,38.169],[13.22644,38.16893],[13.22647,38.16881],[13.22661,38.16874],[13.22675,38.16879],[13.2268,38.16885],[13.22679,38.16896],[13.22669,38.16903],[13.22657,38.16903]]},"properties":{}},{"type":"Feature","geometry":{"type":"LineString","coordinates":[[13.22681,38.16889],[13.22684,38.16898],[13.22695,38.16909],[13.22725,38.16924]]},"properties":{}},{"type":"Feature","geometry":{"type":"LineString","coordinates":[[13.22725,38.16924],[13.22669,38.16903]]},"properties":{}},{"type":"Feature","geometry":{"type":"LineString","coordinates":[[13.22665,38.16933],[13.22652,38.16922],[13.22647,38.16897]]},"properties":{}},{"type":"Feature","geometry":{"type":"LineString","coordinates":[[13.22667,38.16903],[13.22658,38.16918],[13.22665,38.16933]]},"properties":{}},{"type":"Feature","geometry":{"type":"LineString","coordinates":[[13.21574,38.17261],[13.216,38.17266],[13.21623,38.17257],[13.21637,38.17256],[13.21675,38.1727]]},"properties":{}},{"type":"Feature","geometry":{"type":"LineString","coordinates":[[13.21675,38.1727],[13.21649,38.17262],[13.21629,38.17261],[13.21608,38.17272],[13.21603,38.17287]]},"properties":{}},{"type":"Feature","geometry":{"type":"LineString","coordinates":[[13.21675,38.1727],[13.21678,38.17274],[13.21677,38.17284]]},"properties":{}},{"type":"Feature","geometry":{"type":"LineString","coordinates":[[13.2378,38.18559],[13.23897,38.18644],[13.23979,38.18716],[13.2409,38.18834],[13.24217,38.18964],[13.24333,38.19102],[13.24354,38.19132],[13.24413,38.19233]]},"properties":{}},{"type":"Feature","geometry":{"type":"LineString","coordinates":[[13.24681,38.19215],[13.24782,38.19175]]},"properties":{}},{"type":"Feature","geometry":{"type":"LineString","coordinates":[[13.24782,38.19175],[13.24925,38.19412]]},"properties":{}},{"type":"Feature","geometry":{"type":"LineString","coordinates":[[13.24925,38.19412],[13.24954,38.19398]]},"properties":{}},{"type":"Feature","geometry":{"type":"LineString","coordinates":[[13.24954,38.19398],[13.2499,38.19452],[13.24987,38.19468],[13.25,38.1949]]},"properties":{}},{"type":"Feature","geometry":{"type":"LineString","coordinates":[[13.25,38.19505],[13.2499,38.195],[13.2498,38.195],[13.24923,38.19522]]},"properties":{}},{"type":"Feature","geometry":{"type":"LineString","coordinates":[[13.17178,38.16844],[13.17165,38.16847],[13.16764,38.16849],[13.16664,38.16859],[13.16605,38.16873],[13.16534,38.16897],[13.16472,38.16924],[13.16406,38.16961],[13.16402,38.16966],[13.16395,38.16988],[13.16299,38.1708],[13.16277,38.17106]]},"properties":{}},{"type":"Feature","geometry":{"type":"LineString","coordinates":[[13.16299,38.1708],[13.16296,38.17076],[13.16296,38.1707],[13.16307,38.17059],[13.16381,38.16991]]},"properties":{}},{"type":"Feature","geometry":{"type":"LineString","coordinates":[[13.12318,38.18948],[13.12321,38.18941],[13.12355,38.18913]]},"properties":{}},{"type":"Feature","geometry":{"type":"LineString","coordinates":[[13.12322,38.18961],[13.12318,38.18948]]},"properties":{}},{"type":"Feature","geometry":{"type":"LineString","coordinates":[[13.12323,38.18969],[13.12322,38.18961]]},"properties":{}},{"type":"Feature","geometry":{"type":"LineString","coordinates":[[13.12313,38.18998],[13.12308,38.18987],[13.12321,38.18976],[13.12323,38.18969]]},"properties":{}},{"type":"Feature","geometry":{"type":"LineString","coordinates":[[13.05402,38.06995],[13.05336,38.06974],[13.05318,38.06973],[13.05278,38.06994]]},"properties":{}},{"type":"Feature","geometry":{"type":"LineString","coordinates":[[13.08158,38.11005],[13.08117,38.1105]]},"properties":{}},{"type":"Feature","geometry":{"type":"LineString","coordinates":[[13.07228,38.14584],[13.07223,38.14588]]},"properties":{}},{"type":"Feature","geometry":{"type":"LineString","coordinates":[[13.07833,38.14866],[13.07454,38.14576],[13.07408,38.14549],[13.07331,38.1452],[13.07318,38.1451],[13.07315,38.145],[13.07318,38.14491],[13.07306,38.14491],[13.07274,38.14544],[13.07228,38.14584]]},"properties":{}},{"type":"Feature","geometry":{"type":"LineString","coordinates":[[13.07223,38.14588],[13.07211,38.14599],[13.07189,38.1463],[13.07172,38.14675],[13.0716,38.14722],[13.07157,38.14766],[13.07158,38.14803],[13.07168,38.14838],[13.07181,38.14863],[13.07236,38.14954],[13.07258,38.14979],[13.07302,38.15018],[13.07354,38.15052],[13.07521,38.15133],[13.07614,38.15186],[13.07638,38.15202],[13.07649,38.15213],[13.07655,38.15224],[13.07656,38.15241],[13.0763,38.15317],[13.07632,38.15331],[13.07637,38.15341],[13.07649,38.15355],[13.07694,38.15387],[13.0772,38.15398],[13.07753,38.15398],[13.07845,38.15377],[13.07872,38.15375],[13.07893,38.15381],[13.07964,38.15412],[13.07983,38.15415],[13.08029,38.15416],[13.08053,38.15422],[13.08072,38.15431],[13.08142,38.15486],[13.08189,38.15514]]},"properties":{}},{"type":"Feature","geometry":{"type":"LineString","coordinates":[[13.08129,38.156],[13.08043,38.15634],[13.08025,38.15689],[13.08034,38.15719],[13.08049,38.15735],[13.08091,38.15807],[13.08061,38.1582],[13.07931,38.15951]]},"properties":{}},{"type":"Feature","geometry":{"type":"LineString","coordinates":[[13.24925,38.19412],[13.24928,38.19434],[13.24922,38.19547],[13.24906,38.19744],[13.24912,38.19767],[13.24928,38.19791],[13.24949,38.19854]]},"properties":{}},{"type":"Feature","geometry":{"type":"LineString","coordinates":[[13.24866,38.19846],[13.24818,38.19673]]},"properties":{}},{"type":"Feature","geometry":{"type":"LineString","coordinates":[[13.24413,38.19233],[13.24425,38.1926],[13.24427,38.19276],[13.24424,38.19398],[13.24389,38.19459],[13.24367,38.19612],[13.2437,38.19938],[13.24339,38.19956],[13.24309,38.19986],[13.24242,38.20029],[13.24215,38.20053],[13.2419,38.20086],[13.24171,38.20121],[13.24132,38.20226],[13.24116,38.20306],[13.24119,38.20324],[13.24164,38.2036],[13.24193,38.20368],[13.24215,38.20369],[13.24242,38.20361],[13.24282,38.20345],[13.24331,38.20316],[13.24431,38.20274],[13.24478,38.20273],[13.24504,38.20268],[13.24608,38.20187],[13.2463,38.20164],[13.24636,38.20154],[13.24643,38.20128],[13.24644,38.2009],[13.24648,38.20077],[13.24644,38.20074]]},"properties":{}},{"type":"Feature","geometry":{"type":"LineString","coordinates":[[13.24374,38.19936],[13.24375,38.19886]]},"properties":{}},{"type":"Feature","geometry":{"type":"LineString","coordinates":[[13.24376,38.19934],[13.2439,38.19932],[13.24394,38.19936],[13.24395,38.19941],[13.24389,38.19947],[13.24378,38.19947],[13.24373,38.19941],[13.24376,38.19934]]},"properties":{}},{"type":"Feature","geometry":{"type":"LineString","coordinates":[[13.21667,38.17283],[13.21672,38.17274],[13.21684,38.17273]]},"properties":{}},{"type":"Feature","geometry":{"type":"LineString","coordinates":[[13.2167,38.17298],[13.21664,38.17275],[13.21649,38.17262]]},"properties":{}},{"type":"Feature","geometry":{"type":"LineString","coordinates":[[13.21776,38.17299],[13.21737,38.17291],[13.21675,38.1727]]},"properties":{}},{"type":"Feature","geometry":{"type":"LineString","coordinates":[[13.21702,38.17279],[13.2168,38.17281],[13.2167,38.17298]]},"properties":{}},{"type":"Feature","geometry":{"type":"LineString","coordinates":[[13.21548,38.17259],[13.21569,38.1726],[13.21582,38.17265],[13.21595,38.17274],[13.21603,38.17287],[13.21605,38.173],[13.21602,38.17309],[13.21589,38.17325],[13.2158,38.1733],[13.21566,38.17334],[13.21539,38.17333],[13.21521,38.17323],[13.21511,38.17311],[13.21508,38.17297],[13.21512,38.17282],[13.21523,38.17269],[13.21548,38.17259]]},"properties":{}},{"type":"Feature","geometry":{"type":"LineString","coordinates":[[13.21553,38.17529],[13.21562,38.17526],[13.21569,38.17516]]},"properties":{}},{"type":"Feature","geometry":{"type":"LineString","coordinates":[[13.23297,38.17546],[13.23321,38.17539]]},"properties":{}},{"type":"Feature","geometry":{"type":"LineString","coordinates":[[13.23321,38.17539],[13.23309,38.17558]]},"properties":{}}]}