{"type":"FeatureCollection","features":[{"type":"Feature","geometry":{"type":"LineString","coordinates":[[13.11605,41.25199],[13.11568,41.25224],[13.11559,41.25226],[13.11546,41.25223],[13.11121,41.25]]},"properties":{}},{"type":"Feature","geometry":{"type":"LineString","coordinates":[[13.11862,41.25032],[13.11745,41.25175],[13.11735,41.25174],[13.117,41.25152],[13.11682,41.2515],[13.11669,41.25156],[13.11614,41.25193]]},"properties":{}},{"type":"Feature","geometry":{"type":"LineString","coordinates":[[13.01408,41.29392],[13.01418,41.29387],[13.01426,41.29388],[13.01438,41.29409]]},"properties":{}},{"type":"Feature","geometry":{"type":"LineString","coordinates":[[13.01444,41.29339],[13.01436,41.29372],[13.01437,41.29399],[13.01445,41.29449],[13.01455,41.29466]]},"properties":{}},{"type":"Feature","geometry":{"type":"LineString","coordinates":[[13.01393,41.29476],[13.01379,41.29482],[13.0137,41.29482],[13.01362,41.29479],[13.01358,41.2947]]},"properties":{}},{"type":"Feature","geometry":{"type":"LineString","coordinates":[[13.01455,41.29466],[13.01433,41.29463],[13.01415,41.29466],[13.01366,41.29492],[13.01328,41.29517]]},"properties":{}},{"type":"Feature","geometry":{"type":"LineString","coordinates":[[13.00708,41.30387],[13.00776,41.3032],[13.00865,41.30202]]},"properties":{}},{"type":"Feature","geometry":{"type":"LineString","coordinates":[[13.00865,41.30202],[13.00814,41.30302],[13.00803,41.30317],[13.00774,41.30342],[13.00708,41.30387]]},"properties":{}},{"type":"Feature","geometry":{"type":"LineString","coordinates":[[13.00792,41.30343],[13.00776,41.3032]]},"properties":{}},{"type":"Feature","geometry":{"type":"LineString","coordinates":[[13.00795,41.30296],[13.00814,41.30302],[13.00811,41.30376]]},"properties":{}},{"type":"Feature","geometry":{"type":"LineString","coordinates":[[13.00811,41.30376],[13.00798,41.30347],[13.00792,41.30343],[13.00774,41.30342]]},"properties":{}},{"type":"Feature","geometry":{"type":"LineString","coordinates":[[13.11614,41.25193],[13.11605,41.25199]]},"properties":{}},{"type":"Feature","geometry":{"type":"LineString","coordinates":[[13.16322,41.27972],[13.16322,41.27993],[13.16316,41.28016]]},"properties":{}},{"type":"Feature","geometry":{"type":"LineString","coordinates":[[13.16161,41.28028],[13.16245,41.28017],[13.16279,41.28009],[13.16302,41.27997],[13.16322,41.27972]]},"properties":{}},{"type":"Feature","geometry":{"type":"LineString","coordinates":[[13.16322,41.27993],[13.16328,41.28009],[13.16345,41.28014]]},"properties":{}},{"type":"Feature","geometry":{"type":"LineString","coordinates":[[13.16316,41.28016],[13.16458,41.28009],[13.1658,41.28014]]},"properties":{}},{"type":"Feature","geometry":{"type":"LineString","coordinates":[[13.1658,41.28014],[13.1667,41.28039]]},"properties":{}},{"type":"Feature","geometry":{"type":"LineString","coordinates":[[13.16316,41.28016],[13.16301,41.28036],[13.1627,41.28053]]},"properties":{}},{"type":"Feature","geometry":{"type":"LineString","coordinates":[[13.15685,41.28072],[13.16316,41.28016]]},"properties":{}},{"type":"Feature","geometry":{"type":"LineString","coordinates":[[13.1667,41.28039],[13.16537,41.28022],[13.16482,41.28019],[13.1644,41.28022],[13.16325,41.2804],[13.16166,41.28082],[13.16057,41.28093],[13.15785,41.28073],[13.15685,41.28072]]},"properties":{}},{"type":"Feature","geometry":{"type":"LineString","coordinates":[[13.16098,41.28091],[13.1606,41.28083],[13.16052,41.28079],[13.16045,41.28069],[13.16046,41.28057],[13.16052,41.28049],[13.16062,41.28043],[13.16087,41.28035]]},"properties":{}},{"type":"Feature","geometry":{"type":"LineString","coordinates":[[13.06855,41.25],[13.06819,41.25081]]},"properties":{}},{"type":"Feature","geometry":{"type":"LineString","coordinates":[[13.067,41.26925],[13.06696,41.27048],[13.06679,41.27288],[13.06665,41.27374],[13.06647,41.27429],[13.06596,41.27548]]},"properties":{}},{"type":"Feature","geometry":{"type":"LineString","coordinates":[[13.106,41.29424],[13.10611,41.29396]]},"properties":{}},{"type":"Feature","geometry":{"type":"LineString","coordinates":[[13.01455,41.29466],[13.01458,41.29465],[13.01908,41.2974],[13.01906,41.29742]]},"properties":{}},{"type":"Feature","geometry":{"type":"LineString","coordinates":[[13.04677,41.29847],[13.03982,41.29897]]},"properties":{}},{"type":"Feature","geometry":{"type":"LineString","coordinates":[[13.10245,41.29976],[13.10273,41.29949]]},"properties":{}},{"type":"Feature","geometry":{"type":"LineString","coordinates":[[13.10273,41.29949],[13.10267,41.29983]]},"properties":{}},{"type":"Feature","geometry":{"type":"LineString","coordinates":[[13.10191,41.29981],[13.10234,41.29979]]},"properties":{}},{"type":"Feature","geometry":{"type":"LineString","coordinates":[[13.10221,41.30001],[13.10191,41.29981]]},"properties":{}},{"type":"Feature","geometry":{"type":"LineString","coordinates":[[13.10272,41.29998],[13.10265,41.3001],[13.10254,41.30015],[13.10242,41.30015],[13.10225,41.30007],[13.10221,41.29994],[13.10223,41.29988],[13.10234,41.29979],[13.10253,41.29977],[13.10267,41.29983],[13.10272,41.29992],[13.10272,41.29998]]},"properties":{}},{"type":"Feature","geometry":{"type":"LineString","coordinates":[[13.17626,41.28073],[13.1763,41.28084],[13.17636,41.28089],[13.17692,41.28101]]},"properties":{}},{"type":"Feature","geometry":{"type":"LineString","coordinates":[[13.1692,41.28132],[13.16905,41.28114],[13.16843,41.28081]]},"properties":{}},{"type":"Feature","geometry":{"type":"LineString","coordinates":[[13.1692,41.28132],[13.1692,41.28115],[13.16934,41.28104]]},"properties":{}},{"type":"Feature","geometry":{"type":"LineString","coordinates":[[13.16934,41.28104],[13.16937,41.28116],[13.16926,41.28136]]},"properties":{}},{"type":"Feature","geometry":{"type":"LineString","coordinates":[[13.16919,41.28149],[13.1692,41.28132]]},"properties":{}},{"type":"Feature","geometry":{"type":"LineString","coordinates":[[13.16926,41.28136],[13.16919,41.28149]]},"properties":{}},{"type":"Feature","geometry":{"type":"LineString","coordinates":[[13.19117,41.28495],[13.19141,41.28475],[13.19153,41.28458]]},"properties":{}},{"type":"Feature","geometry":{"type":"LineString","coordinates":[[13.19153,41.28458],[13.19146,41.28482],[13.19145,41.28505]]},"properties":{}},{"type":"Feature","geometry":{"type":"LineString","coordinates":[[13.19028,41.28492],[13.19104,41.28501]]},"properties":{}},{"type":"Feature","geometry":{"type":"LineString","coordinates":[[13.19099,41.28521],[13.19079,41.28507],[13.19028,41.28492]]},"properties":{}},{"type":"Feature","geometry":{"type":"LineString","coordinates":[[13.19147,41.28508],[13.19147,41.2852],[13.19143,41.28525],[13.1913,41.28532],[13.19107,41.28528],[13.19098,41.28516],[13.19104,41.28501],[13.19117,41.28495],[13.19136,41.28498],[13.19147,41.28508]]},"properties":{}},{"type":"Feature","geometry":{"type":"LineString","coordinates":[[13.19147,41.28508],[13.19214,41.28532]]},"properties":{}},{"type":"Feature","geometry":{"type":"LineString","coordinates":[[13.19214,41.28532],[13.19165,41.28526],[13.19137,41.28529]]},"properties":{}},{"type":"Feature","geometry":{"type":"LineString","coordinates":[[13.19094,41.2856],[13.19101,41.28524]]},"properties":{}},{"type":"Feature","geometry":{"type":"LineString","coordinates":[[13.19122,41.28533],[13.19094,41.2856]]},"properties":{}},{"type":"Feature","geometry":{"type":"LineString","coordinates":[[13.11989,41.28559],[13.12332,41.28576],[13.12448,41.28585]]},"properties":{}},{"type":"Feature","geometry":{"type":"LineString","coordinates":[[13.11993,41.28641],[13.1202,41.28622],[13.12028,41.28605],[13.12022,41.28582],[13.12005,41.28568],[13.11989,41.28559]]},"properties":{}},{"type":"Feature","geometry":{"type":"LineString","coordinates":[[13.13493,41.28593],[13.13471,41.28608],[13.13468,41.28619],[13.13472,41.28637],[13.13479,41.28645]]},"properties":{}},{"type":"Feature","geometry":{"type":"LineString","coordinates":[[13.13369,41.28632],[13.13359,41.28627],[13.13357,41.28622],[13.13362,41.28613],[13.13369,41.28609]]},"properties":{}},{"type":"Feature","geometry":{"type":"LineString","coordinates":[[13.13397,41.28606],[13.13442,41.28624],[13.13479,41.28645]]},"properties":{}},{"type":"Feature","geometry":{"type":"LineString","coordinates":[[13.13479,41.28645],[13.13429,41.28635],[13.13231,41.28626],[13.13215,41.28619]]},"properties":{}},{"type":"Feature","geometry":{"type":"LineString","coordinates":[[13.1088,41.29157],[13.11011,41.29079],[13.11631,41.28775],[13.11787,41.2871]]},"properties":{}},{"type":"Feature","geometry":{"type":"LineString","coordinates":[[13.18679,41.29314],[13.19089,41.28578],[13.19094,41.2856]]},"properties":{}},{"type":"Feature","geometry":{"type":"LineString","coordinates":[[13.10807,41.28994],[13.10795,41.28954],[13.10768,41.28895]]},"properties":{}},{"type":"Feature","geometry":{"type":"LineString","coordinates":[[13.10768,41.28895],[13.10812,41.28954],[13.10818,41.28967],[13.10824,41.29001],[13.10835,41.29016]]},"properties":{}},{"type":"Feature","geometry":{"type":"LineString","coordinates":[[13.10838,41.29017],[13.1086,41.29001],[13.10908,41.28934]]},"properties":{}},{"type":"Feature","geometry":{"type":"LineString","coordinates":[[13.10908,41.28934],[13.10901,41.2897],[13.10896,41.2898],[13.1085,41.29034]]},"properties":{}},{"type":"Feature","geometry":{"type":"LineString","coordinates":[[13.11787,41.2871],[13.11648,41.28778],[13.11233,41.29042],[13.11104,41.29101],[13.10972,41.2915],[13.10829,41.2921],[13.10795,41.29232],[13.10728,41.29285]]},"properties":{}},{"type":"Feature","geometry":{"type":"LineString","coordinates":[[13.10811,41.29028],[13.10807,41.28994]]},"properties":{}},{"type":"Feature","geometry":{"type":"LineString","coordinates":[[13.10849,41.29025],[13.10847,41.29038],[13.10833,41.29045],[13.10816,41.29041],[13.10811,41.29033],[13.10813,41.29023],[13.10823,41.29017],[13.10838,41.29017],[13.10849,41.29025]]},"properties":{}},{"type":"Feature","geometry":{"type":"LineString","coordinates":[[13.11166,41.29003],[13.11196,41.29002],[13.11213,41.29009],[13.11223,41.29018],[13.11225,41.29027],[13.11223,41.29038],[13.11193,41.29061]]},"properties":{}},{"type":"Feature","geometry":{"type":"LineString","coordinates":[[13.10844,41.29042],[13.1081,41.29086]]},"properties":{}},{"type":"Feature","geometry":{"type":"LineString","coordinates":[[13.10847,41.29038],[13.10847,41.29073],[13.10852,41.29086],[13.10869,41.29105],[13.10884,41.29111],[13.10902,41.29113],[13.10923,41.29111],[13.10953,41.29104],[13.11011,41.29079]]},"properties":{}},{"type":"Feature","geometry":{"type":"LineString","coordinates":[[13.1081,41.29086],[13.10808,41.2907]]},"properties":{}},{"type":"Feature","geometry":{"type":"LineString","coordinates":[[13.1088,41.29157],[13.10847,41.29137],[13.1083,41.2912],[13.1081,41.29086]]},"properties":{}},{"type":"Feature","geometry":{"type":"LineString","coordinates":[[13.1081,41.29086],[13.10736,41.29208]]},"properties":{}},{"type":"Feature","geometry":{"type":"LineString","coordinates":[[13.10972,41.2915],[13.10914,41.29163],[13.1088,41.29157]]},"properties":{}},{"type":"Feature","geometry":{"type":"LineString","coordinates":[[13.10728,41.29285],[13.10773,41.29237],[13.1082,41.29198],[13.1088,41.29157]]},"properties":{}},{"type":"Feature","geometry":{"type":"LineString","coordinates":[[13.18658,41.2935],[13.18679,41.29314]]},"properties":{}},{"type":"Feature","geometry":{"type":"LineString","coordinates":[[13.18344,41.29936],[13.18658,41.2935]]},"properties":{}},{"type":"Feature","geometry":{"type":"LineString","coordinates":[[13.10272,41.29992],[13.1029,41.30021]]},"properties":{}},{"type":"Feature","geometry":{"type":"LineString","coordinates":[[13.1029,41.30021],[13.10258,41.30014]]},"properties":{}},{"type":"Feature","geometry":{"type":"LineString","coordinates":[[13.10218,41.30042],[13.10225,41.30007]]},"properties":{}},{"type":"Feature","geometry":{"type":"LineString","coordinates":[[13.10249,41.30015],[13.10218,41.30042]]},"properties":{}},{"type":"Feature","geometry":{"type":"LineString","coordinates":[[13.09072,41.32764],[13.09082,41.32758],[13.091,41.32739]]},"properties":{}},{"type":"Feature","geometry":{"type":"LineString","coordinates":[[13.091,41.32739],[13.09094,41.32774]]},"properties":{}},{"type":"Feature","geometry":{"type":"LineString","coordinates":[[13.09033,41.32757],[13.09062,41.32765]]},"properties":{}},{"type":"Feature","geometry":{"type":"LineString","coordinates":[[13.09048,41.32775],[13.09033,41.32757]]},"properties":{}},{"type":"Feature","geometry":{"type":"LineString","coordinates":[[13.09081,41.32765],[13.09089,41.32769],[13.09097,41.3278],[13.09098,41.32785],[13.09092,41.32796],[13.09079,41.32802],[13.09068,41.32803],[13.09048,41.32793],[13.09045,41.32781],[13.09051,41.32771],[13.09067,41.32764],[13.09081,41.32765]]},"properties":{}},{"type":"Feature","geometry":{"type":"LineString","coordinates":[[13.09096,41.32791],[13.09109,41.32811]]},"properties":{}},{"type":"Feature","geometry":{"type":"LineString","coordinates":[[13.2099,41.28396],[13.21243,41.28415]]},"properties":{}},{"type":"Feature","geometry":{"type":"LineString","coordinates":[[13.21243,41.28415],[13.21318,41.2842]]},"properties":{}},{"type":"Feature","geometry":{"type":"LineString","coordinates":[[13.25,41.28401],[13.24513,41.28441],[13.24329,41.28452],[13.23684,41.28469],[13.22742,41.28477],[13.22367,41.28471],[13.21874,41.28454]]},"properties":{}},{"type":"Feature","geometry":{"type":"LineString","coordinates":[[13.21318,41.2842],[13.21874,41.28454]]},"properties":{}},{"type":"Feature","geometry":{"type":"LineString","coordinates":[[13.21377,41.28692],[13.2138,41.28705],[13.2139,41.28719]]},"properties":{}},{"type":"Feature","geometry":{"type":"LineString","coordinates":[[13.21364,41.2872],[13.21372,41.28709],[13.21377,41.28692]]},"properties":{}},{"type":"Feature","geometry":{"type":"LineString","coordinates":[[13.20601,41.28726],[13.20573,41.28716]]},"properties":{}},{"type":"Feature","geometry":{"type":"LineString","coordinates":[[13.20602,41.28714],[13.2064,41.28719],[13.20647,41.28725],[13.20639,41.2873],[13.20601,41.28726],[13.20597,41.28719],[13.20602,41.28714]]},"properties":{}},{"type":"Feature","geometry":{"type":"LineString","coordinates":[[13.20664,41.28724],[13.20642,41.2873]]},"properties":{}},{"type":"Feature","geometry":{"type":"LineString","coordinates":[[13.21401,41.28729],[13.21403,41.28734],[13.214,41.28746],[13.21389,41.28753],[13.21381,41.28755],[13.21364,41.28752],[13.21358,41.28749],[13.21352,41.28739],[13.21355,41.28728],[13.2137,41.28718],[13.2139,41.28719],[13.21401,41.28729]]},"properties":{}},{"type":"Feature","geometry":{"type":"LineString","coordinates":[[13.21308,41.28745],[13.21337,41.28737],[13.21355,41.28728]]},"properties":{}},{"type":"Feature","geometry":{"type":"LineString","coordinates":[[13.21401,41.28729],[13.21438,41.28744]]},"properties":{}},{"type":"Feature","geometry":{"type":"LineString","coordinates":[[13.24058,41.2932],[13.24077,41.29315],[13.2471,41.29071],[13.24713,41.29058],[13.24709,41.29048],[13.24722,41.29062],[13.24752,41.29059],[13.24834,41.29024],[13.24843,41.29015],[13.24902,41.28981],[13.25,41.28904]]},"properties":{}},{"type":"Feature","geometry":{"type":"LineString","coordinates":[[13.24514,41.29169],[13.24516,41.29173]]},"properties":{}},{"type":"Feature","geometry":{"type":"LineString","coordinates":[[13.24722,41.29062],[13.24725,41.29066],[13.2473,41.29066],[13.24739,41.29079],[13.24073,41.29342]]},"properties":{}},{"type":"Feature","geometry":{"type":"LineString","coordinates":[[13.24057,41.29319],[13.24075,41.29344]]},"properties":{}},{"type":"Feature","geometry":{"type":"LineString","coordinates":[[13.21358,41.28749],[13.21308,41.28745]]},"properties":{}},{"type":"Feature","geometry":{"type":"LineString","coordinates":[[13.21438,41.28744],[13.21395,41.2875]]},"properties":{}},{"type":"Feature","geometry":{"type":"LineString","coordinates":[[13.21377,41.28785],[13.21364,41.28752]]},"properties":{}},{"type":"Feature","geometry":{"type":"LineString","coordinates":[[13.21389,41.28753],[13.21382,41.28764],[13.21377,41.28785]]},"properties":{}},{"type":"Feature","geometry":{"type":"LineString","coordinates":[[13.21804,41.28818],[13.2184,41.28823],[13.21885,41.28834],[13.21896,41.28834],[13.21904,41.28825],[13.21896,41.28796]]},"properties":{}},{"type":"Feature","geometry":{"type":"LineString","coordinates":[[13.2191,41.28798],[13.21919,41.28824],[13.21938,41.28847],[13.22008,41.28894]]},"properties":{}},{"type":"Feature","geometry":{"type":"LineString","coordinates":[[13.23556,41.29542],[13.23365,41.29648],[13.23309,41.29674]]},"properties":{}},{"type":"Feature","geometry":{"type":"LineString","coordinates":[[13.23032,41.29747],[13.23556,41.29542]]},"properties":{}},{"type":"Feature","geometry":{"type":"LineString","coordinates":[[13.23309,41.29674],[13.23251,41.29691],[13.23125,41.2972],[13.23032,41.29747]]},"properties":{}},{"type":"Feature","geometry":{"type":"LineString","coordinates":[[13.18334,41.29955],[13.18344,41.29936]]},"properties":{}},{"type":"Feature","geometry":{"type":"LineString","coordinates":[[13.17746,41.30413],[13.17749,41.30408],[13.18291,41.29995],[13.18334,41.29955]]},"properties":{}},{"type":"Feature","geometry":{"type":"LineString","coordinates":[[13.17746,41.30413],[13.17741,41.30415]]},"properties":{}},{"type":"Feature","geometry":{"type":"LineString","coordinates":[[13.17741,41.30415],[13.17725,41.30428]]},"properties":{}},{"type":"Feature","geometry":{"type":"LineString","coordinates":[[13.17725,41.30428],[13.1766,41.30484],[13.1745,41.30647],[13.17437,41.30646]]},"properties":{}},{"type":"Feature","geometry":{"type":"LineString","coordinates":[[13.17876,41.3256],[13.17866,41.32587]]},"properties":{}},{"type":"Feature","geometry":{"type":"LineString","coordinates":[[13.17866,41.32587],[13.17844,41.32649],[13.17829,41.32677],[13.17829,41.32692],[13.17844,41.32742],[13.17849,41.32787],[13.17844,41.32832],[13.17834,41.3287],[13.17819,41.32905]]},"properties":{}},{"type":"Feature","geometry":{"type":"LineString","coordinates":[[13.18588,41.33205],[13.18506,41.3319],[13.184,41.3316],[13.18065,41.33095],[13.18041,41.33082],[13.17845,41.32918],[13.17819,41.32905]]},"properties":{}},{"type":"Feature","geometry":{"type":"LineString","coordinates":[[13.13378,41.33165],[13.13375,41.33162]]},"properties":{}},{"type":"Feature","geometry":{"type":"LineString","coordinates":[[13.19061,41.33297],[13.18617,41.33211]]},"properties":{}},{"type":"Feature","geometry":{"type":"LineString","coordinates":[[13.09109,41.32811],[13.09079,41.32802]]},"properties":{}},{"type":"Feature","geometry":{"type":"LineString","coordinates":[[13.09038,41.32823],[13.09048,41.32793]]},"properties":{}},{"type":"Feature","geometry":{"type":"LineString","coordinates":[[13.09068,41.32803],[13.09038,41.32823]]},"properties":{}},{"type":"Feature","geometry":{"type":"LineString","coordinates":[[13.08281,41.33531],[13.08224,41.33592]]},"properties":{}},{"type":"Feature","geometry":{"type":"LineString","coordinates":[[13.08025,41.33717],[13.081,41.33665],[13.08281,41.33531]]},"properties":{}},{"type":"Feature","geometry":{"type":"LineString","coordinates":[[13.08224,41.33592],[13.08181,41.33629],[13.08123,41.3367],[13.08106,41.33685],[13.08065,41.33743]]},"properties":{}},{"type":"Feature","geometry":{"type":"LineString","coordinates":[[13.07843,41.33627],[13.07937,41.33676],[13.07968,41.33709],[13.07983,41.33717],[13.08014,41.3372]]},"properties":{}},{"type":"Feature","geometry":{"type":"LineString","coordinates":[[13.0798,41.3375],[13.07972,41.33725],[13.07964,41.33715],[13.07843,41.33627]]},"properties":{}},{"type":"Feature","geometry":{"type":"LineString","coordinates":[[13.08025,41.33717],[13.08041,41.33719],[13.08055,41.33725],[13.08062,41.33733],[13.08065,41.33743],[13.08062,41.33753],[13.08036,41.33777],[13.08015,41.33785],[13.08,41.33785],[13.07989,41.3378],[13.07981,41.33771],[13.07977,41.33758],[13.0798,41.3375],[13.07999,41.3373],[13.08025,41.33717]]},"properties":{}},{"type":"Feature","geometry":{"type":"LineString","coordinates":[[13.08062,41.33753],[13.08068,41.33774],[13.08082,41.33793],[13.08131,41.33829],[13.0817,41.33868]]},"properties":{}},{"type":"Feature","geometry":{"type":"LineString","coordinates":[[13.0817,41.33868],[13.08106,41.33829],[13.08086,41.33812],[13.08075,41.33795],[13.08058,41.33784],[13.08022,41.33783]]},"properties":{}},{"type":"Feature","geometry":{"type":"LineString","coordinates":[[13.07766,41.34011],[13.07867,41.33886],[13.07939,41.33816],[13.07977,41.33758]]},"properties":{}},{"type":"Feature","geometry":{"type":"LineString","coordinates":[[13.08015,41.33785],[13.07989,41.338],[13.07952,41.3383],[13.07914,41.33865],[13.078,41.33984]]},"properties":{}},{"type":"Feature","geometry":{"type":"LineString","coordinates":[[13.078,41.33984],[13.07766,41.34011]]},"properties":{}},{"type":"Feature","geometry":{"type":"LineString","coordinates":[[13.05751,41.35866],[13.0575,41.35891]]},"properties":{}},{"type":"Feature","geometry":{"type":"LineString","coordinates":[[13.0573,41.35882],[13.05743,41.35885],[13.0575,41.35891]]},"properties":{}},{"type":"Feature","geometry":{"type":"LineString","coordinates":[[13.05739,41.35899],[13.05732,41.35892],[13.0573,41.35882]]},"properties":{}},{"type":"Feature","geometry":{"type":"LineString","coordinates":[[13.0575,41.35891],[13.05769,41.35908]]},"properties":{}},{"type":"Feature","geometry":{"type":"LineString","coordinates":[[13.05769,41.35908],[13.05751,41.359],[13.05739,41.35899]]},"properties":{}},{"type":"Feature","geometry":{"type":"LineString","coordinates":[[13.05739,41.35899],[13.05717,41.35904],[13.05689,41.35919],[13.05677,41.35921]]},"properties":{}},{"type":"Feature","geometry":{"type":"LineString","coordinates":[[13.01623,41.31741],[13.01614,41.31744],[13.01575,41.31746],[13.00694,41.31771],[13.00605,41.31773],[13.00514,41.3177]]},"properties":{}},{"type":"Feature","geometry":{"type":"LineString","coordinates":[[13.0,41.33889],[13.00093,41.33892],[13.00159,41.33903],[13.00344,41.33969],[13.008,41.3414]]},"properties":{}},{"type":"Feature","geometry":{"type":"LineString","coordinates":[[13.19365,41.33355],[13.19073,41.33299]]},"properties":{}},{"type":"Feature","geometry":{"type":"LineString","coordinates":[[13.17365,41.33215],[13.17377,41.33221],[13.1738,41.33236],[13.17137,41.33615],[13.16863,41.34049]]},"properties":{}},{"type":"Feature","geometry":{"type":"LineString","coordinates":[[13.15727,41.35832],[13.15776,41.35771],[13.15885,41.35608],[13.16863,41.34049]]},"properties":{}},{"type":"Feature","geometry":{"type":"LineString","coordinates":[[13.12259,41.36038],[13.10853,41.35015]]},"properties":{}},{"type":"Feature","geometry":{"type":"LineString","coordinates":[[13.12268,41.36044],[13.12259,41.36038]]},"properties":{}},{"type":"Feature","geometry":{"type":"LineString","coordinates":[[13.12273,41.36048],[13.12268,41.36044]]},"properties":{}},{"type":"Feature","geometry":{"type":"LineString","coordinates":[[13.15811,41.35848],[13.15801,41.35868],[13.15796,41.35897],[13.15794,41.36099],[13.158,41.36128],[13.15811,41.36155],[13.15989,41.36405]]},"properties":{}},{"type":"Feature","geometry":{"type":"LineString","coordinates":[[13.15995,41.36447],[13.16023,41.36465]]},"properties":{}},{"type":"Feature","geometry":{"type":"LineString","coordinates":[[13.18284,41.37756],[13.18289,41.37745],[13.18507,41.3745],[13.18538,41.37424],[13.19127,41.37054],[13.19217,41.36991],[13.19333,41.36903],[13.19365,41.36875],[13.19383,41.36847],[13.19483,41.36566],[13.19503,41.36521]]},"properties":{}},{"type":"Feature","geometry":{"type":"LineString","coordinates":[[13.16023,41.36465],[13.16128,41.36513],[13.16163,41.36537],[13.16561,41.36933],[13.16712,41.37088],[13.16866,41.37228],[13.17045,41.37372],[13.17209,41.3751],[13.17505,41.37751],[13.17728,41.37936],[13.17771,41.37976],[13.17778,41.37996],[13.17758,41.38069],[13.17733,41.38132],[13.17728,41.38156]]},"properties":{}},{"type":"Feature","geometry":{"type":"LineString","coordinates":[[13.04364,41.36801],[13.04356,41.36813],[13.04355,41.36831]]},"properties":{}},{"type":"Feature","geometry":{"type":"LineString","coordinates":[[13.04335,41.3682],[13.04355,41.36831]]},"properties":{}},{"type":"Feature","geometry":{"type":"LineString","coordinates":[[13.04337,41.36837],[13.04328,41.36825]]},"properties":{}},{"type":"Feature","geometry":{"type":"LineString","coordinates":[[13.04355,41.36831],[13.04367,41.36843]]},"properties":{}},{"type":"Feature","geometry":{"type":"LineString","coordinates":[[13.04367,41.36843],[13.04351,41.36837],[13.04337,41.36837]]},"properties":{}},{"type":"Feature","geometry":{"type":"LineString","coordinates":[[13.04337,41.36837],[13.0429,41.36856],[13.04279,41.36858]]},"properties":{}},{"type":"Feature","geometry":{"type":"LineString","coordinates":[[13.04147,41.36947],[13.03939,41.37101],[13.03865,41.37151],[13.03738,41.37223]]},"properties":{}},{"type":"Feature","geometry":{"type":"LineString","coordinates":[[13.03738,41.37223],[13.03919,41.37087],[13.04017,41.37023],[13.04147,41.36947]]},"properties":{}},{"type":"Feature","geometry":{"type":"LineString","coordinates":[[13.03088,41.37642],[13.03108,41.37637],[13.03127,41.37628],[13.03221,41.37568]]},"properties":{}},{"type":"Feature","geometry":{"type":"LineString","coordinates":[[13.03221,41.37568],[13.0313,41.37634],[13.0311,41.37659]]},"properties":{}},{"type":"Feature","geometry":{"type":"LineString","coordinates":[[13.16512,41.38266],[13.16547,41.38248],[13.16625,41.38194],[13.16672,41.38146],[13.16698,41.3813],[13.16803,41.38095],[13.16822,41.38081],[13.16828,41.38061],[13.16833,41.37982],[13.16849,41.37878],[13.1685,41.37842],[13.16847,41.37813],[13.16837,41.37776],[13.16822,41.37748],[13.16795,41.37719],[13.16694,41.37623],[13.16482,41.37394],[13.16265,41.37171],[13.1624,41.37141],[13.1619,41.37044]]},"properties":{}},{"type":"Feature","geometry":{"type":"LineString","coordinates":[[13.15994,41.36416],[13.15995,41.36447],[13.15969,41.36534],[13.15966,41.36561],[13.1597,41.36587],[13.1613,41.36947],[13.1614,41.36978],[13.16143,41.37013],[13.16141,41.37069],[13.16122,41.37144],[13.16107,41.37174],[13.15769,41.37635],[13.15665,41.37794],[13.15631,41.37839],[13.15589,41.37882],[13.15569,41.3791],[13.1556,41.37938],[13.15563,41.37964],[13.15599,41.38026],[13.1564,41.38084],[13.15736,41.38198],[13.15758,41.3823],[13.1578,41.38295],[13.15781,41.38338],[13.15773,41.38381],[13.15761,41.3841],[13.15641,41.38619],[13.15629,41.38663],[13.15628,41.38711],[13.15654,41.38905],[13.15652,41.38948],[13.15639,41.39017],[13.15636,41.39066],[13.15651,41.3917],[13.15654,41.3921],[13.15649,41.39233],[13.15639,41.39253],[13.15504,41.394]]},"properties":{}},{"type":"Feature","geometry":{"type":"LineString","coordinates":[[13.17728,41.38156],[13.17725,41.38168]]},"properties":{}},{"type":"Feature","geometry":{"type":"LineString","coordinates":[[13.15773,41.38381],[13.15894,41.38356],[13.16006,41.38316],[13.16184,41.38308],[13.16284,41.38284],[13.16375,41.38271],[13.1648,41.38262],[13.16512,41.38266]]},"properties":{}},{"type":"Feature","geometry":{"type":"LineString","coordinates":[[13.17118,41.38469],[13.17107,41.38516]]},"properties":{}},{"type":"Feature","geometry":{"type":"LineString","coordinates":[[13.16478,41.38588],[13.16696,41.38492],[13.16715,41.38487],[13.17005,41.38495],[13.17035,41.38498],[13.17086,41.38514],[13.17107,41.38516]]},"properties":{}},{"type":"Feature","geometry":{"type":"LineString","coordinates":[[13.17725,41.38168],[13.17712,41.38229],[13.17689,41.38397],[13.17539,41.39067],[13.17513,41.3917],[13.17507,41.39211],[13.17507,41.39255],[13.17513,41.39296],[13.17522,41.39331],[13.17597,41.39522],[13.1764,41.39623],[13.17656,41.39656],[13.17683,41.39698],[13.1776,41.39766],[13.17801,41.39795],[13.18211,41.40016],[13.18304,41.40074],[13.18577,41.40255],[13.18591,41.4027],[13.18596,41.40287],[13.1859,41.40306],[13.18542,41.40358]]},"properties":{}},{"type":"Feature","geometry":{"type":"LineString","coordinates":[[13.18542,41.40358],[13.18541,41.4037]]},"properties":{}},{"type":"Feature","geometry":{"type":"LineString","coordinates":[[13.18514,41.40392],[13.18522,41.40382]]},"properties":{}},{"type":"Feature","geometry":{"type":"LineString","coordinates":[[13.18514,41.40392],[13.18503,41.40398],[13.1846,41.40437],[13.18445,41.40456],[13.18442,41.40469]]},"properties":{}},{"type":"Feature","geometry":{"type":"LineString","coordinates":[[13.00849,41.39152],[13.00868,41.3914]]},"properties":{}},{"type":"Feature","geometry":{"type":"LineString","coordinates":[[13.00873,41.39146],[13.00855,41.39158]]},"properties":{}},{"type":"Feature","geometry":{"type":"LineString","coordinates":[[13.03045,41.37631],[13.03078,41.37643]]},"properties":{}},{"type":"Feature","geometry":{"type":"LineString","coordinates":[[13.03062,41.37654],[13.03045,41.37631]]},"properties":{}},{"type":"Feature","geometry":{"type":"LineString","coordinates":[[13.03108,41.37654],[13.03108,41.37667],[13.03102,41.37674],[13.03092,41.37678],[13.03071,41.37676],[13.03061,41.37665],[13.0306,41.37657],[13.03064,41.3765],[13.03078,41.37643],[13.03094,41.37643],[13.03108,41.37654]]},"properties":{}},{"type":"Feature","geometry":{"type":"LineString","coordinates":[[13.03108,41.37667],[13.03124,41.37689]]},"properties":{}},{"type":"Feature","geometry":{"type":"LineString","coordinates":[[13.03124,41.37689],[13.03092,41.37678]]},"properties":{}},{"type":"Feature","geometry":{"type":"LineString","coordinates":[[13.021,41.38324],[13.02093,41.38342],[13.02104,41.38363]]},"properties":{}},{"type":"Feature","geometry":{"type":"LineString","coordinates":[[13.02104,41.38363],[13.02092,41.38357],[13.02074,41.38356],[13.02026,41.38373]]},"properties":{}},{"type":"Feature","geometry":{"type":"LineString","coordinates":[[13.00868,41.3914],[13.01007,41.39046],[13.01113,41.38968],[13.01194,41.38913],[13.01337,41.38824],[13.02073,41.38334],[13.02328,41.38161],[13.02544,41.38008],[13.02693,41.37916],[13.0301,41.37706],[13.03045,41.3768],[13.0306,41.3766]]},"properties":{}},{"type":"Feature","geometry":{"type":"LineString","coordinates":[[13.03083,41.37679],[13.03053,41.37688],[13.03016,41.37709],[13.02698,41.37923],[13.02466,41.38086],[13.02315,41.38178],[13.01344,41.38829],[13.01143,41.38974],[13.0102,41.39048],[13.00873,41.39146]]},"properties":{}},{"type":"Feature","geometry":{"type":"LineString","coordinates":[[13.0493,41.40857],[13.04746,41.40724],[13.04731,41.40715],[13.04709,41.40712],[13.04699,41.40703],[13.04697,41.40689],[13.04536,41.40571]]},"properties":{}},{"type":"Feature","geometry":{"type":"LineString","coordinates":[[13.00855,41.39158],[13.0052,41.39384]]},"properties":{}},{"type":"Feature","geometry":{"type":"LineString","coordinates":[[13.0044,41.39416],[13.00468,41.39406],[13.00511,41.39379],[13.00849,41.39152]]},"properties":{}},{"type":"Feature","geometry":{"type":"LineString","coordinates":[[13.0052,41.39384],[13.00481,41.39412],[13.0046,41.39433]]},"properties":{}},{"type":"Feature","geometry":{"type":"LineString","coordinates":[[13.00388,41.39405],[13.00426,41.39416]]},"properties":{}},{"type":"Feature","geometry":{"type":"LineString","coordinates":[[13.00405,41.39432],[13.00402,41.39421],[13.00388,41.39405]]},"properties":{}},{"type":"Feature","geometry":{"type":"LineString","coordinates":[[13.00447,41.39419],[13.00458,41.39428],[13.0046,41.39433],[13.00459,41.39444],[13.00454,41.3945],[13.00447,41.39455],[13.00432,41.39458],[13.00418,41.39455],[13.00408,41.39446],[13.00405,41.39432],[13.00413,41.39422],[13.00426,41.39416],[13.00447,41.39419]]},"properties":{}},{"type":"Feature","geometry":{"type":"LineString","coordinates":[[13.00459,41.39444],[13.00472,41.39466]]},"properties":{}},{"type":"Feature","geometry":{"type":"LineString","coordinates":[[13.00472,41.39466],[13.00438,41.39457]]},"properties":{}},{"type":"Feature","geometry":{"type":"LineString","coordinates":[[13.00426,41.39457],[13.00402,41.39464],[13.00354,41.39494],[13.0,41.39731]]},"properties":{}},{"type":"Feature","geometry":{"type":"LineString","coordinates":[[13.0,41.39721],[13.0036,41.39479],[13.00389,41.39457],[13.00405,41.3944]]},"properties":{}},{"type":"Feature","geometry":{"type":"LineString","coordinates":[[13.18442,41.40469],[13.18444,41.40481]]},"properties":{}},{"type":"Feature","geometry":{"type":"LineString","coordinates":[[13.18444,41.40481],[13.18462,41.40523],[13.1868,41.40809],[13.18725,41.40875],[13.1875,41.40925],[13.18753,41.40954],[13.18741,41.40977],[13.1852,41.41194],[13.18494,41.41222],[13.18479,41.41251],[13.18478,41.41287],[13.18507,41.41428],[13.18526,41.4147],[13.18544,41.41495],[13.18578,41.4153],[13.18833,41.41764],[13.18849,41.41784],[13.18861,41.41816],[13.18858,41.41839],[13.18848,41.41859],[13.18832,41.41876],[13.18218,41.42314]]},"properties":{}},{"type":"Feature","geometry":{"type":"LineString","coordinates":[[13.18218,41.42314],[13.1816,41.42343]]},"properties":{}}]}