{"type":"FeatureCollection","features":[{"type":"Feature","geometry":{"type":"LineString","coordinates":[[13.03704,43.04333],[13.03587,43.0434],[13.03449,43.04332],[13.03418,43.04338],[13.03386,43.04338],[13.03358,43.04343],[13.03316,43.04342],[13.03268,43.04325],[13.03223,43.04305],[13.03201,43.04289],[13.03177,43.04286],[13.03158,43.04286],[13.03129,43.04292],[13.03107,43.04304],[13.03051,43.04316],[13.02997,43.04312],[13.02979,43.04307],[13.02945,43.04289],[13.02936,43.04288],[13.02922,43.04291],[13.02872,43.04287],[13.02696,43.04295],[13.02657,43.0429],[13.02628,43.04291],[13.0257,43.04307],[13.02542,43.0433]]},"properties":{}},{"type":"Feature","geometry":{"type":"LineString","coordinates":[[13.02542,43.0433],[13.02525,43.04336],[13.02494,43.04339],[13.02463,43.04326],[13.02437,43.0432],[13.02409,43.04305],[13.02376,43.04304],[13.02351,43.04311],[13.02319,43.04347],[13.02291,43.04354],[13.02269,43.04355]]},"properties":{}},{"type":"Feature","geometry":{"type":"LineString","coordinates":[[13.03726,43.04342],[13.03704,43.04333]]},"properties":{}},{"type":"Feature","geometry":{"type":"LineString","coordinates":[[13.03935,43.04346],[13.03921,43.0434],[13.03865,43.04342],[13.03745,43.04331],[13.03704,43.04333]]},"properties":{}},{"type":"Feature","geometry":{"type":"LineString","coordinates":[[13.02269,43.04355],[13.02211,43.04355],[13.02186,43.0435],[13.02171,43.0434],[13.02162,43.04324],[13.02154,43.04317],[13.02129,43.04309],[13.02087,43.04306],[13.02072,43.04307],[13.02063,43.04311],[13.02035,43.04343],[13.02019,43.04345],[13.02006,43.04353],[13.01998,43.04368],[13.01976,43.04367],[13.01966,43.04359],[13.01928,43.04356],[13.01885,43.04347],[13.01851,43.04336],[13.01838,43.0434],[13.01831,43.04351],[13.01797,43.04363],[13.01729,43.04363],[13.0171,43.04366],[13.01691,43.04373]]},"properties":{}},{"type":"Feature","geometry":{"type":"LineString","coordinates":[[13.02061,43.04353],[13.02037,43.04357],[13.02021,43.04366],[13.02012,43.04382],[13.01987,43.04394],[13.01945,43.0439],[13.01898,43.04375],[13.01868,43.04371],[13.01831,43.04372],[13.01781,43.04382],[13.01746,43.04381],[13.01691,43.04373]]},"properties":{}},{"type":"Feature","geometry":{"type":"LineString","coordinates":[[13.01444,43.04352],[13.0146,43.04346],[13.01472,43.04333],[13.01503,43.04326],[13.01532,43.04334],[13.01536,43.04337],[13.01537,43.04348],[13.01563,43.04348],[13.01569,43.04357]]},"properties":{}},{"type":"Feature","geometry":{"type":"LineString","coordinates":[[13.01569,43.04357],[13.01564,43.04379]]},"properties":{}},{"type":"Feature","geometry":{"type":"LineString","coordinates":[[13.01691,43.04373],[13.01654,43.0437],[13.01585,43.04382]]},"properties":{}},{"type":"Feature","geometry":{"type":"LineString","coordinates":[[13.12993,43.10558],[13.13005,43.10568],[13.1301,43.10582],[13.13008,43.10608],[13.12993,43.10624]]},"properties":{}},{"type":"Feature","geometry":{"type":"LineString","coordinates":[[13.12941,43.10625],[13.1293,43.10617],[13.12923,43.10603],[13.12924,43.10577],[13.12929,43.10567],[13.1294,43.10558]]},"properties":{}},{"type":"Feature","geometry":{"type":"LineString","coordinates":[[13.12845,43.1076],[13.12844,43.10726]]},"properties":{}},{"type":"Feature","geometry":{"type":"LineString","coordinates":[[13.1288,43.10748],[13.12859,43.10758],[13.12845,43.10773]]},"properties":{}},{"type":"Feature","geometry":{"type":"LineString","coordinates":[[13.01564,43.04379],[13.01566,43.04382],[13.01585,43.04382]]},"properties":{}},{"type":"Feature","geometry":{"type":"LineString","coordinates":[[13.00193,43.04262],[13.00231,43.0428],[13.00268,43.04312],[13.00287,43.04321],[13.00311,43.04347],[13.00322,43.04367],[13.00355,43.04385],[13.00414,43.04406],[13.00465,43.04438],[13.00503,43.04442],[13.00563,43.04435],[13.00585,43.04438],[13.00596,43.04441],[13.00609,43.04451],[13.00627,43.04457],[13.0066,43.04462],[13.00701,43.04472],[13.00766,43.0448],[13.0079,43.04495],[13.00791,43.04503],[13.00797,43.0451],[13.00821,43.04519],[13.00845,43.04518],[13.00879,43.04535],[13.00911,43.04539],[13.00983,43.04523]]},"properties":{}},{"type":"Feature","geometry":{"type":"LineString","coordinates":[[13.00983,43.04523],[13.01259,43.04385],[13.01316,43.04378],[13.01444,43.04352]]},"properties":{}},{"type":"Feature","geometry":{"type":"LineString","coordinates":[[13.08226,43.07595],[13.08101,43.07806],[13.08067,43.0785],[13.08062,43.07864]]},"properties":{}},{"type":"Feature","geometry":{"type":"LineString","coordinates":[[13.0661,43.14407],[13.0659,43.14414],[13.06504,43.1437],[13.06463,43.1436],[13.06424,43.14359],[13.06388,43.14367],[13.06373,43.14375],[13.06354,43.1439],[13.06309,43.14441],[13.06292,43.14452],[13.06266,43.14462],[13.06213,43.14477],[13.06122,43.1449],[13.06041,43.1448],[13.06019,43.1448],[13.06003,43.14486],[13.05987,43.14504],[13.05965,43.1451]]},"properties":{}},{"type":"Feature","geometry":{"type":"LineString","coordinates":[[13.19705,43.17319],[13.19729,43.17328]]},"properties":{}},{"type":"Feature","geometry":{"type":"LineString","coordinates":[[13.19729,43.17328],[13.19781,43.17332]]},"properties":{}},{"type":"Feature","geometry":{"type":"LineString","coordinates":[[13.19711,43.17333],[13.19729,43.17328]]},"properties":{}},{"type":"Feature","geometry":{"type":"LineString","coordinates":[[13.19781,43.17332],[13.19751,43.17338]]},"properties":{}},{"type":"Feature","geometry":{"type":"LineString","coordinates":[[13.19751,43.17338],[13.1973,43.17338],[13.19711,43.17333]]},"properties":{}},{"type":"Feature","geometry":{"type":"LineString","coordinates":[[13.19751,43.17338],[13.19721,43.17347],[13.19706,43.17346]]},"properties":{}}]}