{"type":"FeatureCollection","features":[{"type":"Feature","geometry":{"type":"LineString","coordinates":[[13.42112,42.0321],[13.42347,42.02991]]},"properties":{}},{"type":"Feature","geometry":{"type":"LineString","coordinates":[[13.42656,42.03407],[13.42112,42.0321]]},"properties":{}},{"type":"Feature","geometry":{"type":"LineString","coordinates":[[13.42627,42.03863],[13.42635,42.03678],[13.42644,42.0356],[13.42584,42.03541],[13.42657,42.03405],[13.42672,42.03134],[13.42566,42.03085],[13.42568,42.03083]]},"properties":{}},{"type":"Feature","geometry":{"type":"LineString","coordinates":[[13.42602,42.04061],[13.42521,42.04233],[13.42507,42.04251]]},"properties":{}},{"type":"Feature","geometry":{"type":"LineString","coordinates":[[13.42041,42.04199],[13.4207,42.04206],[13.42081,42.04206],[13.4243,42.04286]]},"properties":{}},{"type":"Feature","geometry":{"type":"LineString","coordinates":[[13.42432,42.04279],[13.42454,42.04277]]},"properties":{}},{"type":"Feature","geometry":{"type":"LineString","coordinates":[[13.42444,42.04292],[13.42454,42.04277],[13.42481,42.04266],[13.42497,42.04274],[13.42492,42.04283]]},"properties":{}},{"type":"Feature","geometry":{"type":"LineString","coordinates":[[13.44953,42.04463],[13.44961,42.04469],[13.4496,42.04477],[13.4495,42.04481],[13.44939,42.04477],[13.44937,42.04472],[13.4494,42.04466],[13.44953,42.04463]]},"properties":{}},{"type":"Feature","geometry":{"type":"LineString","coordinates":[[13.4243,42.04286],[13.42432,42.04279]]},"properties":{}},{"type":"Feature","geometry":{"type":"LineString","coordinates":[[13.42469,42.04273],[13.42487,42.04277],[13.42494,42.04289],[13.42513,42.04297]]},"properties":{}},{"type":"Feature","geometry":{"type":"LineString","coordinates":[[13.42474,42.04309],[13.42454,42.04306],[13.42442,42.04291],[13.4243,42.04286]]},"properties":{}},{"type":"Feature","geometry":{"type":"LineString","coordinates":[[13.42494,42.04289],[13.42493,42.04298],[13.42489,42.04302],[13.42474,42.04309]]},"properties":{}},{"type":"Feature","geometry":{"type":"LineString","coordinates":[[13.42513,42.04297],[13.4251,42.04304]]},"properties":{}},{"type":"Feature","geometry":{"type":"LineString","coordinates":[[13.4251,42.04304],[13.42489,42.04302]]},"properties":{}},{"type":"Feature","geometry":{"type":"LineString","coordinates":[[13.42443,42.04315],[13.42448,42.04299]]},"properties":{}},{"type":"Feature","geometry":{"type":"LineString","coordinates":[[13.42474,42.04309],[13.42467,42.04312],[13.42458,42.04321]]},"properties":{}},{"type":"Feature","geometry":{"type":"LineString","coordinates":[[13.42458,42.04321],[13.42443,42.04315]]},"properties":{}},{"type":"Feature","geometry":{"type":"LineString","coordinates":[[13.42458,42.04321],[13.4237,42.0446],[13.42366,42.04471],[13.42371,42.04533],[13.42324,42.04671],[13.42322,42.04685],[13.42325,42.04691],[13.42334,42.04697],[13.42483,42.04723],[13.42507,42.04721],[13.42669,42.04747],[13.42867,42.04735],[13.42848,42.04651],[13.42843,42.04643],[13.42826,42.04628],[13.42825,42.04623],[13.42914,42.04374],[13.42911,42.04359],[13.42896,42.04355],[13.42815,42.04375],[13.4251,42.04304]]},"properties":{}},{"type":"Feature","geometry":{"type":"LineString","coordinates":[[13.42308,42.04674],[13.42314,42.04675]]},"properties":{}},{"type":"Feature","geometry":{"type":"LineString","coordinates":[[13.42314,42.04675],[13.42316,42.04676]]},"properties":{}},{"type":"Feature","geometry":{"type":"LineString","coordinates":[[13.42316,42.04676],[13.42323,42.04677]]},"properties":{}},{"type":"Feature","geometry":{"type":"LineString","coordinates":[[13.42299,42.04686],[13.42308,42.04674]]},"properties":{}},{"type":"Feature","geometry":{"type":"LineString","coordinates":[[13.42317,42.0471],[13.42306,42.04712],[13.42295,42.04709],[13.4229,42.04696],[13.42301,42.04685],[13.42314,42.04685],[13.42323,42.04689]]},"properties":{}},{"type":"Feature","geometry":{"type":"LineString","coordinates":[[13.42325,42.04691],[13.42327,42.04699],[13.42322,42.04707]]},"properties":{}},{"type":"Feature","geometry":{"type":"LineString","coordinates":[[13.42336,42.04698],[13.42335,42.04702]]},"properties":{}},{"type":"Feature","geometry":{"type":"LineString","coordinates":[[13.42335,42.04702],[13.42334,42.04703]]},"properties":{}},{"type":"Feature","geometry":{"type":"LineString","coordinates":[[13.42334,42.04703],[13.42333,42.04706]]},"properties":{}},{"type":"Feature","geometry":{"type":"LineString","coordinates":[[13.42293,42.04707],[13.42294,42.04717]]},"properties":{}},{"type":"Feature","geometry":{"type":"LineString","coordinates":[[13.42294,42.04717],[13.423,42.04718]]},"properties":{}},{"type":"Feature","geometry":{"type":"LineString","coordinates":[[13.423,42.04718],[13.42302,42.04718]]},"properties":{}},{"type":"Feature","geometry":{"type":"LineString","coordinates":[[13.42302,42.04718],[13.42309,42.04719]]},"properties":{}},{"type":"Feature","geometry":{"type":"LineString","coordinates":[[13.42419,42.04712],[13.42417,42.04719],[13.42329,42.04706],[13.42314,42.04713],[13.4225,42.04887],[13.42242,42.0493],[13.42249,42.04949],[13.42264,42.04962],[13.42539,42.0505],[13.42534,42.0506],[13.42552,42.05069],[13.42562,42.05083],[13.4256,42.05098],[13.42452,42.05372],[13.42445,42.05384],[13.42428,42.05393],[13.42415,42.05395],[13.42395,42.0539],[13.42392,42.05395]]},"properties":{}},{"type":"Feature","geometry":{"type":"LineString","coordinates":[[13.5,42.22961],[13.49844,42.23076],[13.49684,42.23188],[13.49668,42.23192],[13.49634,42.23191],[13.49621,42.23199],[13.49616,42.23208],[13.49614,42.23233],[13.49604,42.23247],[13.49585,42.23261],[13.49516,42.23288],[13.49521,42.23294]]},"properties":{}},{"type":"Feature","geometry":{"type":"LineString","coordinates":[[13.49516,42.23288],[13.49487,42.23233],[13.49442,42.23125],[13.49387,42.23058],[13.49368,42.23018],[13.49363,42.22998]]},"properties":{}},{"type":"Feature","geometry":{"type":"LineString","coordinates":[[13.26407,42.20515],[13.2634,42.20418],[13.26296,42.20361],[13.26266,42.2031],[13.26236,42.20276],[13.25975,42.20027],[13.25954,42.20009],[13.25934,42.19998],[13.25813,42.1996],[13.25794,42.19951],[13.25725,42.19891],[13.25606,42.19772],[13.25586,42.19763],[13.25545,42.19758],[13.25496,42.19746],[13.25467,42.19732],[13.25447,42.1972],[13.2541,42.19687],[13.253,42.19573],[13.25248,42.19525]]},"properties":{}}]}