{"type":"FeatureCollection","features":[{"type":"Feature","geometry":{"type":"LineString","coordinates":[[13.31429,43.26628],[13.3144,43.26626]]},"properties":{}},{"type":"Feature","geometry":{"type":"LineString","coordinates":[[13.31414,43.2663],[13.31429,43.26628]]},"properties":{}},{"type":"Feature","geometry":{"type":"LineString","coordinates":[[13.31324,43.26631],[13.31414,43.2663]]},"properties":{}},{"type":"Feature","geometry":{"type":"LineString","coordinates":[[13.31324,43.26631],[13.31331,43.26641],[13.31343,43.26681],[13.31352,43.26713],[13.31351,43.2672],[13.31329,43.26754],[13.31325,43.26777],[13.31327,43.26785],[13.31323,43.26797],[13.31293,43.26833],[13.31272,43.2688],[13.3126,43.26896],[13.31238,43.26891],[13.31133,43.26886],[13.31084,43.26873],[13.31045,43.26849]]},"properties":{}},{"type":"Feature","geometry":{"type":"LineString","coordinates":[[13.33398,43.28274],[13.33379,43.2827],[13.33328,43.28295],[13.333,43.28299],[13.33274,43.28292],[13.33255,43.28276],[13.33246,43.28243],[13.3325,43.28224],[13.33296,43.28183],[13.33309,43.28165],[13.33324,43.28139],[13.33329,43.28108],[13.33327,43.28086],[13.33307,43.28056],[13.33288,43.28038],[13.33223,43.28007],[13.33118,43.27968],[13.33063,43.27952],[13.3299,43.27935],[13.32979,43.27928],[13.32928,43.27912],[13.3287,43.27883],[13.32835,43.27861],[13.32811,43.27841],[13.32782,43.27805],[13.32763,43.27772],[13.32743,43.27704],[13.32728,43.27632],[13.32723,43.27589],[13.32704,43.27542],[13.32686,43.27515],[13.32642,43.27482],[13.32612,43.27466],[13.32521,43.27428],[13.32321,43.27357],[13.32258,43.27327],[13.32187,43.27305],[13.31991,43.27223],[13.31916,43.27183],[13.31904,43.27164],[13.31912,43.27153],[13.31837,43.27121],[13.31803,43.27086],[13.31753,43.27059],[13.31696,43.27036],[13.31672,43.2703],[13.31656,43.27032],[13.31588,43.27013],[13.31532,43.27003],[13.31486,43.2696],[13.31457,43.26946],[13.31372,43.26925],[13.31308,43.26921],[13.31295,43.26916],[13.31287,43.26903],[13.31288,43.26888],[13.31305,43.26852],[13.31318,43.2683],[13.31341,43.2681],[13.31348,43.26781],[13.31349,43.26763],[13.31357,43.26748],[13.31366,43.26737],[13.31397,43.26728],[13.31402,43.26722],[13.31403,43.26713],[13.31423,43.26694],[13.31426,43.26686],[13.31421,43.26674],[13.31412,43.26667],[13.31425,43.26652],[13.31444,43.26648],[13.31449,43.26642],[13.31449,43.26636],[13.3144,43.26626]]},"properties":{}},{"type":"Feature","geometry":{"type":"LineString","coordinates":[[13.32287,43.27952],[13.32316,43.2799]]},"properties":{}},{"type":"Feature","geometry":{"type":"LineString","coordinates":[[13.32305,43.27995],[13.32287,43.27952]]},"properties":{}},{"type":"Feature","geometry":{"type":"LineString","coordinates":[[13.32316,43.28001],[13.32307,43.28],[13.32305,43.27993],[13.32313,43.2799],[13.3232,43.27992],[13.32321,43.27997],[13.32316,43.28001]]},"properties":{}},{"type":"Feature","geometry":{"type":"LineString","coordinates":[[13.32321,43.27994],[13.32338,43.28012]]},"properties":{}},{"type":"Feature","geometry":{"type":"LineString","coordinates":[[13.32338,43.28012],[13.32314,43.28002]]},"properties":{}},{"type":"Feature","geometry":{"type":"LineString","coordinates":[[13.31949,43.28073],[13.31965,43.28077],[13.31983,43.28075],[13.3199,43.28072],[13.32005,43.28058]]},"properties":{}},{"type":"Feature","geometry":{"type":"LineString","coordinates":[[13.32005,43.28058],[13.32009,43.28074],[13.3203,43.281]]},"properties":{}},{"type":"Feature","geometry":{"type":"LineString","coordinates":[[13.31991,43.28089],[13.3199,43.28072]]},"properties":{}},{"type":"Feature","geometry":{"type":"LineString","coordinates":[[13.32009,43.28074],[13.32,43.28085],[13.31991,43.28089]]},"properties":{}},{"type":"Feature","geometry":{"type":"LineString","coordinates":[[13.32429,43.28091],[13.32382,43.28166]]},"properties":{}},{"type":"Feature","geometry":{"type":"LineString","coordinates":[[13.32828,43.28342],[13.32845,43.28319]]},"properties":{}},{"type":"Feature","geometry":{"type":"LineString","coordinates":[[13.33073,43.28335],[13.33098,43.28342],[13.33285,43.28347]]},"properties":{}},{"type":"Feature","geometry":{"type":"LineString","coordinates":[[13.33345,43.28334],[13.33325,43.28354]]},"properties":{}},{"type":"Feature","geometry":{"type":"LineString","coordinates":[[13.32844,43.28348],[13.32828,43.28342]]},"properties":{}},{"type":"Feature","geometry":{"type":"LineString","coordinates":[[13.33285,43.28347],[13.33305,43.2835]]},"properties":{}},{"type":"Feature","geometry":{"type":"LineString","coordinates":[[13.33305,43.2835],[13.3333,43.28348]]},"properties":{}},{"type":"Feature","geometry":{"type":"LineString","coordinates":[[13.33305,43.2835],[13.33314,43.28355],[13.33319,43.28361]]},"properties":{}},{"type":"Feature","geometry":{"type":"LineString","coordinates":[[13.33319,43.28361],[13.33325,43.28354]]},"properties":{}},{"type":"Feature","geometry":{"type":"LineString","coordinates":[[13.32935,43.28372],[13.32844,43.28348]]},"properties":{}},{"type":"Feature","geometry":{"type":"LineString","coordinates":[[13.33192,43.28388],[13.33275,43.28365],[13.33283,43.28359],[13.33285,43.28347]]},"properties":{}},{"type":"Feature","geometry":{"type":"LineString","coordinates":[[13.32957,43.28375],[13.32935,43.28372]]},"properties":{}},{"type":"Feature","geometry":{"type":"LineString","coordinates":[[13.33059,43.28379],[13.33056,43.28373]]},"properties":{}},{"type":"Feature","geometry":{"type":"LineString","coordinates":[[13.33192,43.28388],[13.33157,43.28387],[13.33093,43.28371],[13.33063,43.28368]]},"properties":{}},{"type":"Feature","geometry":{"type":"LineString","coordinates":[[13.33059,43.28379],[13.33042,43.28384],[13.32957,43.28375]]},"properties":{}},{"type":"Feature","geometry":{"type":"LineString","coordinates":[[13.33239,43.28399],[13.33217,43.28389],[13.33223,43.2838]]},"properties":{}},{"type":"Feature","geometry":{"type":"LineString","coordinates":[[13.33147,43.28409],[13.33145,43.28385]]},"properties":{}},{"type":"Feature","geometry":{"type":"LineString","coordinates":[[13.32945,43.28373],[13.32906,43.28422]]},"properties":{}},{"type":"Feature","geometry":{"type":"LineString","coordinates":[[13.33162,43.28388],[13.33147,43.28409]]},"properties":{}},{"type":"Feature","geometry":{"type":"LineString","coordinates":[[13.33278,43.2842],[13.3325,43.28402],[13.33192,43.28388]]},"properties":{}},{"type":"Feature","geometry":{"type":"LineString","coordinates":[[13.33161,43.28432],[13.33147,43.28409]]},"properties":{}},{"type":"Feature","geometry":{"type":"LineString","coordinates":[[13.32896,43.28421],[13.32906,43.28422]]},"properties":{}},{"type":"Feature","geometry":{"type":"LineString","coordinates":[[13.33298,43.28422],[13.33285,43.28423],[13.33278,43.2842]]},"properties":{}},{"type":"Feature","geometry":{"type":"LineString","coordinates":[[13.33296,43.28435],[13.33278,43.2842]]},"properties":{}},{"type":"Feature","geometry":{"type":"LineString","coordinates":[[13.33161,43.28432],[13.33202,43.28428]]},"properties":{}},{"type":"Feature","geometry":{"type":"LineString","coordinates":[[13.33202,43.28428],[13.33222,43.28434],[13.33239,43.28455]]},"properties":{}},{"type":"Feature","geometry":{"type":"LineString","coordinates":[[13.32859,43.2848],[13.32906,43.28422]]},"properties":{}},{"type":"Feature","geometry":{"type":"LineString","coordinates":[[13.32795,43.28556],[13.32797,43.28547],[13.32839,43.28491],[13.32935,43.28372]]},"properties":{}},{"type":"Feature","geometry":{"type":"LineString","coordinates":[[13.32906,43.28422],[13.33033,43.28444],[13.3305,43.28463],[13.33086,43.28535]]},"properties":{}},{"type":"Feature","geometry":{"type":"LineString","coordinates":[[13.32851,43.28478],[13.32859,43.2848]]},"properties":{}},{"type":"Feature","geometry":{"type":"LineString","coordinates":[[13.33229,43.28553],[13.33161,43.28432]]},"properties":{}},{"type":"Feature","geometry":{"type":"LineString","coordinates":[[13.33266,43.28643],[13.33303,43.28558],[13.33305,43.28523],[13.33296,43.28435],[13.33307,43.28383],[13.33319,43.28361]]},"properties":{}},{"type":"Feature","geometry":{"type":"LineString","coordinates":[[13.32819,43.28527],[13.32859,43.2848]]},"properties":{}},{"type":"Feature","geometry":{"type":"LineString","coordinates":[[13.32859,43.2848],[13.32935,43.28505],[13.33049,43.28522],[13.33071,43.28527],[13.33086,43.28535]]},"properties":{}},{"type":"Feature","geometry":{"type":"LineString","coordinates":[[13.33218,43.2865],[13.33059,43.28379]]},"properties":{}},{"type":"Feature","geometry":{"type":"LineString","coordinates":[[13.3325,43.28503],[13.33253,43.28517],[13.33249,43.28535],[13.33236,43.28551],[13.33229,43.28553]]},"properties":{}},{"type":"Feature","geometry":{"type":"LineString","coordinates":[[13.32962,43.2857],[13.32917,43.28559],[13.32819,43.28527]]},"properties":{}},{"type":"Feature","geometry":{"type":"LineString","coordinates":[[13.33086,43.28535],[13.33106,43.28574],[13.3311,43.28589]]},"properties":{}},{"type":"Feature","geometry":{"type":"LineString","coordinates":[[13.3311,43.28589],[13.32962,43.2857]]},"properties":{}},{"type":"Feature","geometry":{"type":"LineString","coordinates":[[13.33229,43.28553],[13.33243,43.28583],[13.33241,43.28598],[13.33222,43.28616],[13.33203,43.28625]]},"properties":{}},{"type":"Feature","geometry":{"type":"LineString","coordinates":[[13.3311,43.28589],[13.33149,43.28597],[13.33183,43.28589]]},"properties":{}},{"type":"Feature","geometry":{"type":"LineString","coordinates":[[13.33028,43.28668],[13.33149,43.28597]]},"properties":{}},{"type":"Feature","geometry":{"type":"LineString","coordinates":[[13.33252,43.28657],[13.33266,43.28643]]},"properties":{}},{"type":"Feature","geometry":{"type":"LineString","coordinates":[[13.33061,43.28686],[13.32935,43.28617]]},"properties":{}},{"type":"Feature","geometry":{"type":"LineString","coordinates":[[13.33266,43.28643],[13.33266,43.28661]]},"properties":{}},{"type":"Feature","geometry":{"type":"LineString","coordinates":[[13.33218,43.2865],[13.33247,43.28658]]},"properties":{}},{"type":"Feature","geometry":{"type":"LineString","coordinates":[[13.33233,43.28671],[13.33218,43.2865]]},"properties":{}},{"type":"Feature","geometry":{"type":"LineString","coordinates":[[13.33256,43.28657],[13.33269,43.28664],[13.33271,43.28676],[13.33258,43.28685],[13.3324,43.28683],[13.33233,43.28674],[13.33234,43.28665],[13.33243,43.28659],[13.33256,43.28657]]},"properties":{}},{"type":"Feature","geometry":{"type":"LineString","coordinates":[[13.33266,43.28682],[13.33261,43.28708]]},"properties":{}},{"type":"Feature","geometry":{"type":"LineString","coordinates":[[13.33261,43.28708],[13.33244,43.28684]]},"properties":{}},{"type":"Feature","geometry":{"type":"LineString","coordinates":[[13.33261,43.28708],[13.33289,43.28736],[13.3334,43.28769]]},"properties":{}},{"type":"Feature","geometry":{"type":"LineString","coordinates":[[13.3334,43.28769],[13.33372,43.28785]]},"properties":{}},{"type":"Feature","geometry":{"type":"LineString","coordinates":[[13.33359,43.28793],[13.3334,43.28769]]},"properties":{}},{"type":"Feature","geometry":{"type":"LineString","coordinates":[[13.33397,43.28789],[13.33403,43.28802],[13.334,43.28809],[13.3339,43.28815],[13.33373,43.28816],[13.33365,43.28813],[13.33358,43.28805],[13.33359,43.28793],[13.33368,43.28786],[13.33381,43.28783],[13.33397,43.28789]]},"properties":{}},{"type":"Feature","geometry":{"type":"LineString","coordinates":[[13.33403,43.28802],[13.33422,43.28821]]},"properties":{}},{"type":"Feature","geometry":{"type":"LineString","coordinates":[[13.33422,43.28821],[13.33394,43.28813]]},"properties":{}},{"type":"Feature","geometry":{"type":"LineString","coordinates":[[13.33368,43.28831],[13.33365,43.28813]]},"properties":{}},{"type":"Feature","geometry":{"type":"LineString","coordinates":[[13.33382,43.28817],[13.33368,43.28831]]},"properties":{}},{"type":"Feature","geometry":{"type":"LineString","coordinates":[[13.33422,43.28821],[13.34082,43.29257]]},"properties":{}},{"type":"Feature","geometry":{"type":"LineString","coordinates":[[13.34082,43.29257],[13.34102,43.29261],[13.34125,43.29258],[13.34153,43.29243]]},"properties":{}},{"type":"Feature","geometry":{"type":"LineString","coordinates":[[13.32884,43.2928],[13.32904,43.29273],[13.3295,43.29237]]},"properties":{}},{"type":"Feature","geometry":{"type":"LineString","coordinates":[[13.29287,43.48817],[13.29297,43.48826],[13.29316,43.48859]]},"properties":{}},{"type":"Feature","geometry":{"type":"LineString","coordinates":[[13.29288,43.48872],[13.29249,43.48846]]},"properties":{}},{"type":"Feature","geometry":{"type":"LineString","coordinates":[[13.29384,43.48915],[13.29331,43.48899],[13.29311,43.48889],[13.29288,43.48872],[13.29278,43.48857],[13.29275,43.48847]]},"properties":{}},{"type":"Feature","geometry":{"type":"LineString","coordinates":[[13.29275,43.48847],[13.29316,43.48859],[13.29343,43.48889],[13.29384,43.48915]]},"properties":{}},{"type":"Feature","geometry":{"type":"LineString","coordinates":[[13.34082,43.29257],[13.34117,43.2928]]},"properties":{}},{"type":"Feature","geometry":{"type":"LineString","coordinates":[[13.32809,43.29268],[13.32852,43.29281],[13.32884,43.2928]]},"properties":{}},{"type":"Feature","geometry":{"type":"LineString","coordinates":[[13.34153,43.29243],[13.34149,43.29255],[13.34153,43.29284],[13.34166,43.29312]]},"properties":{}},{"type":"Feature","geometry":{"type":"LineString","coordinates":[[13.34117,43.2928],[13.34166,43.29312]]},"properties":{}},{"type":"Feature","geometry":{"type":"LineString","coordinates":[[13.33882,43.33809],[13.33932,43.33809]]},"properties":{}},{"type":"Feature","geometry":{"type":"LineString","coordinates":[[13.33876,43.33815],[13.33788,43.33834],[13.3371,43.33865]]},"properties":{}},{"type":"Feature","geometry":{"type":"LineString","coordinates":[[13.31907,43.33881],[13.32174,43.33884]]},"properties":{}},{"type":"Feature","geometry":{"type":"LineString","coordinates":[[13.32118,43.33899],[13.32113,43.33921],[13.32118,43.33932],[13.3213,43.33946]]},"properties":{}},{"type":"Feature","geometry":{"type":"LineString","coordinates":[[13.32666,43.34112],[13.32691,43.34113],[13.327,43.3411],[13.32713,43.34098],[13.32715,43.34086],[13.32698,43.3406]]},"properties":{}},{"type":"Feature","geometry":{"type":"LineString","coordinates":[[13.30222,43.46724],[13.30253,43.46711]]},"properties":{}},{"type":"Feature","geometry":{"type":"LineString","coordinates":[[13.30253,43.46711],[13.30246,43.46722],[13.30247,43.46732]]},"properties":{}},{"type":"Feature","geometry":{"type":"LineString","coordinates":[[13.3017,43.46726],[13.30213,43.46727]]},"properties":{}},{"type":"Feature","geometry":{"type":"LineString","coordinates":[[13.30204,43.46746],[13.3017,43.46726]]},"properties":{}},{"type":"Feature","geometry":{"type":"LineString","coordinates":[[13.30204,43.46735],[13.30217,43.46725],[13.30236,43.46725],[13.30247,43.46732],[13.30249,43.46745],[13.30239,43.46755],[13.30216,43.46756],[13.30204,43.46746],[13.30204,43.46735]]},"properties":{}},{"type":"Feature","geometry":{"type":"LineString","coordinates":[[13.30249,43.46735],[13.30282,43.46749]]},"properties":{}},{"type":"Feature","geometry":{"type":"LineString","coordinates":[[13.30282,43.46749],[13.30261,43.46747],[13.30247,43.46749]]},"properties":{}},{"type":"Feature","geometry":{"type":"LineString","coordinates":[[13.30239,43.46755],[13.30233,43.4678]]},"properties":{}},{"type":"Feature","geometry":{"type":"LineString","coordinates":[[13.30233,43.4678],[13.30216,43.46756]]},"properties":{}},{"type":"Feature","geometry":{"type":"LineString","coordinates":[[13.31462,43.47079],[13.31475,43.47069]]},"properties":{}},{"type":"Feature","geometry":{"type":"LineString","coordinates":[[13.31475,43.47069],[13.31473,43.47083]]},"properties":{}},{"type":"Feature","geometry":{"type":"LineString","coordinates":[[13.31429,43.47072],[13.31453,43.4708]]},"properties":{}},{"type":"Feature","geometry":{"type":"LineString","coordinates":[[13.31445,43.47087],[13.31429,43.47072]]},"properties":{}},{"type":"Feature","geometry":{"type":"LineString","coordinates":[[13.31448,43.47083],[13.31459,43.47079],[13.31471,43.47081],[13.31477,43.47089],[13.31476,43.47094],[13.31469,43.47101],[13.31451,43.471],[13.31445,43.47092],[13.31448,43.47083]]},"properties":{}},{"type":"Feature","geometry":{"type":"LineString","coordinates":[[13.31476,43.47094],[13.31487,43.47106]]},"properties":{}},{"type":"Feature","geometry":{"type":"LineString","coordinates":[[13.31487,43.47106],[13.31469,43.47101]]},"properties":{}},{"type":"Feature","geometry":{"type":"LineString","coordinates":[[13.40027,43.25037],[13.40082,43.25049]]},"properties":{}},{"type":"Feature","geometry":{"type":"LineString","coordinates":[[13.48491,43.26989],[13.48509,43.26982],[13.48528,43.26968]]},"properties":{}},{"type":"Feature","geometry":{"type":"LineString","coordinates":[[13.48528,43.26968],[13.48518,43.26985],[13.48514,43.27004]]},"properties":{}},{"type":"Feature","geometry":{"type":"LineString","coordinates":[[13.48443,43.26983],[13.48481,43.26991]]},"properties":{}},{"type":"Feature","geometry":{"type":"LineString","coordinates":[[13.48481,43.26991],[13.48491,43.26989]]},"properties":{}},{"type":"Feature","geometry":{"type":"LineString","coordinates":[[13.48467,43.27007],[13.48456,43.26993],[13.48443,43.26983]]},"properties":{}},{"type":"Feature","geometry":{"type":"LineString","coordinates":[[13.48491,43.26989],[13.48509,43.26995],[13.48514,43.27004]]},"properties":{}},{"type":"Feature","geometry":{"type":"LineString","coordinates":[[13.48467,43.27007],[13.48469,43.26999],[13.48481,43.26991]]},"properties":{}},{"type":"Feature","geometry":{"type":"LineString","coordinates":[[13.48514,43.27004],[13.48508,43.27018]]},"properties":{}},{"type":"Feature","geometry":{"type":"LineString","coordinates":[[13.40082,43.25049],[13.40029,43.25061]]},"properties":{}},{"type":"Feature","geometry":{"type":"LineString","coordinates":[[13.40082,43.25049],[13.40228,43.25058],[13.40288,43.25076]]},"properties":{}},{"type":"Feature","geometry":{"type":"LineString","coordinates":[[13.40288,43.25076],[13.41409,43.25549]]},"properties":{}},{"type":"Feature","geometry":{"type":"LineString","coordinates":[[13.41409,43.25549],[13.41425,43.25549],[13.41439,43.25544]]},"properties":{}},{"type":"Feature","geometry":{"type":"LineString","coordinates":[[13.41428,43.25557],[13.41409,43.25549]]},"properties":{}},{"type":"Feature","geometry":{"type":"LineString","coordinates":[[13.41445,43.25564],[13.41428,43.25557]]},"properties":{}},{"type":"Feature","geometry":{"type":"LineString","coordinates":[[13.41926,43.2564],[13.41923,43.25644]]},"properties":{}},{"type":"Feature","geometry":{"type":"LineString","coordinates":[[13.42268,43.2598],[13.42278,43.25989],[13.42298,43.25997]]},"properties":{}},{"type":"Feature","geometry":{"type":"LineString","coordinates":[[13.42281,43.26009],[13.42268,43.2598]]},"properties":{}},{"type":"Feature","geometry":{"type":"LineString","coordinates":[[13.42278,43.26045],[13.42285,43.2603],[13.42285,43.26021]]},"properties":{}},{"type":"Feature","geometry":{"type":"LineString","coordinates":[[13.48476,43.27021],[13.4847,43.27015],[13.48467,43.27007]]},"properties":{}},{"type":"Feature","geometry":{"type":"LineString","coordinates":[[13.48508,43.27018],[13.48493,43.27024],[13.48476,43.27021]]},"properties":{}},{"type":"Feature","geometry":{"type":"LineString","coordinates":[[13.48508,43.27018],[13.48503,43.27037],[13.48499,43.27065]]},"properties":{}},{"type":"Feature","geometry":{"type":"LineString","coordinates":[[13.48478,43.27138],[13.48476,43.27121],[13.48478,43.27101],[13.48493,43.27048],[13.48488,43.27033],[13.48476,43.27021]]},"properties":{}},{"type":"Feature","geometry":{"type":"LineString","coordinates":[[13.48472,43.27139],[13.4847,43.27122],[13.48473,43.27102],[13.48488,43.27049],[13.48476,43.27021]]},"properties":{}},{"type":"Feature","geometry":{"type":"LineString","coordinates":[[13.48499,43.27065],[13.48488,43.27104],[13.48489,43.27137]]},"properties":{}},{"type":"Feature","geometry":{"type":"LineString","coordinates":[[13.48489,43.27137],[13.48545,43.27304]]},"properties":{}},{"type":"Feature","geometry":{"type":"LineString","coordinates":[[13.48534,43.27306],[13.48478,43.27138]]},"properties":{}},{"type":"Feature","geometry":{"type":"LineString","coordinates":[[13.48529,43.27307],[13.48472,43.27139]]},"properties":{}},{"type":"Feature","geometry":{"type":"LineString","coordinates":[[13.48545,43.27304],[13.48583,43.27417]]},"properties":{}},{"type":"Feature","geometry":{"type":"LineString","coordinates":[[13.48592,43.27488],[13.48587,43.27462],[13.48534,43.27306]]},"properties":{}},{"type":"Feature","geometry":{"type":"LineString","coordinates":[[13.48569,43.27494],[13.48584,43.27489],[13.48585,43.27479],[13.48529,43.27307]]},"properties":{}},{"type":"Feature","geometry":{"type":"LineString","coordinates":[[13.48583,43.27417],[13.48597,43.2746],[13.48614,43.27485]]},"properties":{}},{"type":"Feature","geometry":{"type":"LineString","coordinates":[[13.48592,43.27488],[13.48602,43.27484],[13.48614,43.27485]]},"properties":{}},{"type":"Feature","geometry":{"type":"LineString","coordinates":[[13.48569,43.27497],[13.48588,43.27492]]},"properties":{}},{"type":"Feature","geometry":{"type":"LineString","coordinates":[[13.48614,43.27485],[13.48626,43.27494],[13.48624,43.27506]]},"properties":{}},{"type":"Feature","geometry":{"type":"LineString","coordinates":[[13.48554,43.27501],[13.48569,43.27497]]},"properties":{}},{"type":"Feature","geometry":{"type":"LineString","coordinates":[[13.48594,43.2751],[13.48587,43.27502],[13.48586,43.27497],[13.48592,43.27488]]},"properties":{}},{"type":"Feature","geometry":{"type":"LineString","coordinates":[[13.48624,43.27506],[13.48617,43.27511]]},"properties":{}},{"type":"Feature","geometry":{"type":"LineString","coordinates":[[13.48617,43.27511],[13.48605,43.27513],[13.48594,43.2751]]},"properties":{}},{"type":"Feature","geometry":{"type":"LineString","coordinates":[[13.49258,43.27626],[13.49272,43.27596]]},"properties":{}},{"type":"Feature","geometry":{"type":"LineString","coordinates":[[13.48486,43.2809],[13.48499,43.28073],[13.48511,43.28046]]},"properties":{}},{"type":"Feature","geometry":{"type":"LineString","coordinates":[[13.48511,43.28046],[13.48513,43.28091]]},"properties":{}},{"type":"Feature","geometry":{"type":"LineString","coordinates":[[13.48518,43.28094],[13.48547,43.28101],[13.48835,43.28115]]},"properties":{}},{"type":"Feature","geometry":{"type":"LineString","coordinates":[[13.48513,43.28091],[13.48521,43.28098],[13.48523,43.28107],[13.48512,43.2812],[13.4849,43.28121],[13.48478,43.28114],[13.48475,43.28109],[13.48476,43.28098],[13.48486,43.2809],[13.485,43.28087],[13.48513,43.28091]]},"properties":{}},{"type":"Feature","geometry":{"type":"LineString","coordinates":[[13.48598,43.28113],[13.48546,43.28111],[13.48518,43.28116]]},"properties":{}},{"type":"Feature","geometry":{"type":"LineString","coordinates":[[13.48638,43.28115],[13.48598,43.28113]]},"properties":{}},{"type":"Feature","geometry":{"type":"LineString","coordinates":[[13.48829,43.28132],[13.48806,43.28124],[13.48638,43.28115]]},"properties":{}},{"type":"Feature","geometry":{"type":"LineString","coordinates":[[13.48491,43.28161],[13.48489,43.28135],[13.48483,43.28118]]},"properties":{}},{"type":"Feature","geometry":{"type":"LineString","coordinates":[[13.48512,43.2812],[13.48491,43.28161]]},"properties":{}},{"type":"Feature","geometry":{"type":"LineString","coordinates":[[13.48874,43.28127],[13.48894,43.28137],[13.48913,43.28154]]},"properties":{}},{"type":"Feature","geometry":{"type":"LineString","coordinates":[[13.48598,43.28113],[13.48586,43.28117],[13.48546,43.28118],[13.48522,43.28127],[13.48505,43.28143],[13.48489,43.28177]]},"properties":{}},{"type":"Feature","geometry":{"type":"LineString","coordinates":[[13.4918,43.28246],[13.49209,43.28239],[13.49229,43.28215]]},"properties":{}},{"type":"Feature","geometry":{"type":"LineString","coordinates":[[13.49229,43.28215],[13.49228,43.28235],[13.49238,43.28246],[13.49252,43.28252]]},"properties":{}},{"type":"Feature","geometry":{"type":"LineString","coordinates":[[13.43273,43.28398],[13.43272,43.28401]]},"properties":{}},{"type":"Feature","geometry":{"type":"LineString","coordinates":[[13.43272,43.28401],[13.43266,43.28424]]},"properties":{}},{"type":"Feature","geometry":{"type":"LineString","coordinates":[[13.43266,43.28424],[13.43257,43.28446]]},"properties":{}},{"type":"Feature","geometry":{"type":"LineString","coordinates":[[13.4346,43.28748],[13.43493,43.28783],[13.43543,43.2881]]},"properties":{}},{"type":"Feature","geometry":{"type":"LineString","coordinates":[[13.43471,43.28772],[13.435,43.28811]]},"properties":{}},{"type":"Feature","geometry":{"type":"LineString","coordinates":[[13.43482,43.28814],[13.43471,43.28772]]},"properties":{}},{"type":"Feature","geometry":{"type":"LineString","coordinates":[[13.43507,43.28813],[13.43543,43.2881]]},"properties":{}},{"type":"Feature","geometry":{"type":"LineString","coordinates":[[13.43482,43.28814],[13.435,43.28811]]},"properties":{}},{"type":"Feature","geometry":{"type":"LineString","coordinates":[[13.43543,43.2881],[13.4359,43.2883]]},"properties":{}},{"type":"Feature","geometry":{"type":"LineString","coordinates":[[13.43558,43.28821],[13.43533,43.28818],[13.43524,43.28822],[13.4352,43.28828]]},"properties":{}},{"type":"Feature","geometry":{"type":"LineString","coordinates":[[13.435,43.28811],[13.4351,43.28814],[13.43518,43.28821],[13.4352,43.28828],[13.43517,43.28837]]},"properties":{}},{"type":"Feature","geometry":{"type":"LineString","coordinates":[[13.43501,43.28845],[13.43483,43.28843],[13.43473,43.28834],[13.43473,43.28823],[13.43482,43.28814]]},"properties":{}},{"type":"Feature","geometry":{"type":"LineString","coordinates":[[13.47271,43.28827],[13.47252,43.28854]]},"properties":{}},{"type":"Feature","geometry":{"type":"LineString","coordinates":[[13.43517,43.28837],[13.43501,43.28845]]},"properties":{}},{"type":"Feature","geometry":{"type":"LineString","coordinates":[[13.43517,43.28837],[13.43531,43.28873],[13.43528,43.28877]]},"properties":{}},{"type":"Feature","geometry":{"type":"LineString","coordinates":[[13.43528,43.28877],[13.43524,43.28875],[13.43501,43.28845]]},"properties":{}},{"type":"Feature","geometry":{"type":"LineString","coordinates":[[13.43144,43.2887],[13.43137,43.28869],[13.43131,43.28864],[13.43135,43.28854],[13.43145,43.28852],[13.43154,43.28858],[13.43153,43.28866],[13.43144,43.2887]]},"properties":{}},{"type":"Feature","geometry":{"type":"LineString","coordinates":[[13.47471,43.28923],[13.47486,43.28863],[13.47486,43.2885],[13.47478,43.28832],[13.47464,43.28822],[13.47449,43.28817],[13.47429,43.28815],[13.4738,43.28822],[13.47326,43.28814],[13.47307,43.28827],[13.47284,43.28849],[13.47251,43.28883],[13.47243,43.28897]]},"properties":{}},{"type":"Feature","geometry":{"type":"LineString","coordinates":[[13.47282,43.28852],[13.47288,43.28873],[13.47377,43.29096]]},"properties":{}},{"type":"Feature","geometry":{"type":"LineString","coordinates":[[13.43909,43.28949],[13.43974,43.28931],[13.43999,43.28931],[13.44025,43.28938],[13.44041,43.28948],[13.44133,43.29039]]},"properties":{}},{"type":"Feature","geometry":{"type":"LineString","coordinates":[[13.44266,43.29138],[13.44238,43.29117],[13.44178,43.29091],[13.44161,43.29079],[13.44037,43.28958],[13.44029,43.28953],[13.43994,43.2894],[13.43972,43.2894],[13.43928,43.28949]]},"properties":{}},{"type":"Feature","geometry":{"type":"LineString","coordinates":[[13.4564,43.29073],[13.45629,43.29073],[13.45619,43.29068],[13.45616,43.2906],[13.4562,43.29053],[13.45633,43.29048],[13.45649,43.29054],[13.45651,43.29065],[13.4564,43.29073]]},"properties":{}},{"type":"Feature","geometry":{"type":"LineString","coordinates":[[13.45649,43.29054],[13.45686,43.2906],[13.45703,43.29071]]},"properties":{}},{"type":"Feature","geometry":{"type":"LineString","coordinates":[[13.45703,43.29071],[13.45673,43.29063],[13.45651,43.29065]]},"properties":{}},{"type":"Feature","geometry":{"type":"LineString","coordinates":[[13.44133,43.29039],[13.44173,43.29076],[13.44204,43.29092],[13.44222,43.29098]]},"properties":{}},{"type":"Feature","geometry":{"type":"LineString","coordinates":[[13.45573,43.29103],[13.45589,43.29079],[13.45616,43.2906]]},"properties":{}},{"type":"Feature","geometry":{"type":"LineString","coordinates":[[13.45629,43.29073],[13.45605,43.29082],[13.45592,43.29094],[13.45584,43.29107]]},"properties":{}},{"type":"Feature","geometry":{"type":"LineString","coordinates":[[13.44416,43.29097],[13.44715,43.29092]]},"properties":{}},{"type":"Feature","geometry":{"type":"LineString","coordinates":[[13.44293,43.291],[13.44416,43.29097]]},"properties":{}},{"type":"Feature","geometry":{"type":"LineString","coordinates":[[13.44222,43.29098],[13.44277,43.291]]},"properties":{}},{"type":"Feature","geometry":{"type":"LineString","coordinates":[[13.44277,43.291],[13.44293,43.291]]},"properties":{}},{"type":"Feature","geometry":{"type":"LineString","coordinates":[[13.44311,43.29106],[13.44416,43.29097]]},"properties":{}},{"type":"Feature","geometry":{"type":"LineString","coordinates":[[13.44715,43.29092],[13.4482,43.29091],[13.4484,43.29094],[13.4486,43.29101],[13.4488,43.29113]]},"properties":{}},{"type":"Feature","geometry":{"type":"LineString","coordinates":[[13.44222,43.29098],[13.44281,43.2911]]},"properties":{}},{"type":"Feature","geometry":{"type":"LineString","coordinates":[[13.44618,43.29103],[13.44387,43.29108]]},"properties":{}},{"type":"Feature","geometry":{"type":"LineString","coordinates":[[13.44297,43.29106],[13.44304,43.29106]]},"properties":{}},{"type":"Feature","geometry":{"type":"LineString","coordinates":[[13.44286,43.29108],[13.44297,43.29106]]},"properties":{}},{"type":"Feature","geometry":{"type":"LineString","coordinates":[[13.44281,43.2911],[13.44286,43.29108]]},"properties":{}},{"type":"Feature","geometry":{"type":"LineString","coordinates":[[13.44266,43.29126],[13.44271,43.29118],[13.44281,43.2911]]},"properties":{}},{"type":"Feature","geometry":{"type":"LineString","coordinates":[[13.44304,43.29106],[13.44319,43.29109],[13.4433,43.29115],[13.44338,43.29131]]},"properties":{}},{"type":"Feature","geometry":{"type":"LineString","coordinates":[[13.44387,43.29108],[13.44373,43.29111],[13.44338,43.29131]]},"properties":{}},{"type":"Feature","geometry":{"type":"LineString","coordinates":[[13.44266,43.29138],[13.44266,43.29126]]},"properties":{}},{"type":"Feature","geometry":{"type":"LineString","coordinates":[[13.44338,43.29131],[13.44337,43.2914]]},"properties":{}},{"type":"Feature","geometry":{"type":"LineString","coordinates":[[13.44337,43.2914],[13.44332,43.29147]]},"properties":{}},{"type":"Feature","geometry":{"type":"LineString","coordinates":[[13.4488,43.29113],[13.44952,43.2918]]},"properties":{}},{"type":"Feature","geometry":{"type":"LineString","coordinates":[[13.44291,43.29158],[13.44277,43.29152],[13.44266,43.29138]]},"properties":{}},{"type":"Feature","geometry":{"type":"LineString","coordinates":[[13.44988,43.29195],[13.45492,43.29164],[13.45522,43.29155],[13.45544,43.29141],[13.45561,43.29124],[13.45573,43.29103]]},"properties":{}},{"type":"Feature","geometry":{"type":"LineString","coordinates":[[13.45584,43.29107],[13.45569,43.29131],[13.45546,43.29153],[13.45535,43.2916],[13.45491,43.29174],[13.45101,43.29196]]},"properties":{}},{"type":"Feature","geometry":{"type":"LineString","coordinates":[[13.44332,43.29147],[13.44315,43.29157],[13.44302,43.29159]]},"properties":{}},{"type":"Feature","geometry":{"type":"LineString","coordinates":[[13.44969,43.29208],[13.44952,43.29197],[13.44878,43.29126],[13.44858,43.29111],[13.44837,43.29104],[13.44813,43.291],[13.44618,43.29103]]},"properties":{}},{"type":"Feature","geometry":{"type":"LineString","coordinates":[[13.44302,43.29159],[13.44291,43.29158]]},"properties":{}},{"type":"Feature","geometry":{"type":"LineString","coordinates":[[13.45733,43.29161],[13.45724,43.29157]]},"properties":{}},{"type":"Feature","geometry":{"type":"LineString","coordinates":[[13.45649,43.29201],[13.45724,43.29157]]},"properties":{}},{"type":"Feature","geometry":{"type":"LineString","coordinates":[[13.44332,43.29147],[13.44333,43.29216]]},"properties":{}},{"type":"Feature","geometry":{"type":"LineString","coordinates":[[13.44952,43.2918],[13.44975,43.29188],[13.44999,43.29192],[13.45059,43.29191]]},"properties":{}},{"type":"Feature","geometry":{"type":"LineString","coordinates":[[13.44333,43.29216],[13.44327,43.29196],[13.44318,43.29182],[13.44306,43.29168],[13.44291,43.29158]]},"properties":{}},{"type":"Feature","geometry":{"type":"LineString","coordinates":[[13.44952,43.2918],[13.44984,43.29195]]},"properties":{}},{"type":"Feature","geometry":{"type":"LineString","coordinates":[[13.45101,43.29196],[13.45047,43.29199],[13.44999,43.29206]]},"properties":{}},{"type":"Feature","geometry":{"type":"LineString","coordinates":[[13.44996,43.29199],[13.44999,43.29208],[13.44992,43.29215],[13.44977,43.29216],[13.44969,43.29208],[13.44971,43.29201],[13.44979,43.29196],[13.44988,43.29195],[13.44996,43.29199]]},"properties":{}},{"type":"Feature","geometry":{"type":"LineString","coordinates":[[13.44996,43.29213],[13.44995,43.29225],[13.45002,43.2924]]},"properties":{}},{"type":"Feature","geometry":{"type":"LineString","coordinates":[[13.45002,43.2924],[13.44977,43.29216]]},"properties":{}},{"type":"Feature","geometry":{"type":"LineString","coordinates":[[13.45681,43.29302],[13.45683,43.29294],[13.45671,43.29275],[13.45667,43.29262],[13.45671,43.29247],[13.45682,43.29229],[13.45712,43.292],[13.45744,43.29178],[13.45744,43.29169]]},"properties":{}},{"type":"Feature","geometry":{"type":"LineString","coordinates":[[13.44381,43.29389],[13.44373,43.29375],[13.44375,43.29368],[13.44369,43.29354],[13.44379,43.29325],[13.44385,43.29296],[13.44383,43.29271],[13.44367,43.29237],[13.44358,43.29199],[13.44359,43.29188],[13.44366,43.29176],[13.44378,43.29166]]},"properties":{}},{"type":"Feature","geometry":{"type":"LineString","coordinates":[[13.42301,43.26027],[13.42278,43.26045]]},"properties":{}},{"type":"Feature","geometry":{"type":"LineString","coordinates":[[13.34166,43.29312],[13.34506,43.29537]]},"properties":{}},{"type":"Feature","geometry":{"type":"LineString","coordinates":[[13.42757,43.32028],[13.42753,43.31971],[13.42755,43.31961],[13.42768,43.31943]]},"properties":{}},{"type":"Feature","geometry":{"type":"LineString","coordinates":[[13.42804,43.32043],[13.42817,43.32063],[13.4283,43.32077]]},"properties":{}},{"type":"Feature","geometry":{"type":"LineString","coordinates":[[13.4283,43.32077],[13.42779,43.32059]]},"properties":{}},{"type":"Feature","geometry":{"type":"LineString","coordinates":[[13.41606,43.3239],[13.41609,43.3238],[13.41608,43.32363]]},"properties":{}},{"type":"Feature","geometry":{"type":"LineString","coordinates":[[13.41557,43.32404],[13.41583,43.324],[13.41618,43.32384],[13.41636,43.32381]]},"properties":{}},{"type":"Feature","geometry":{"type":"LineString","coordinates":[[13.41636,43.32381],[13.41627,43.32398],[13.41616,43.32405]]},"properties":{}},{"type":"Feature","geometry":{"type":"LineString","coordinates":[[13.41684,43.32411],[13.41648,43.32406],[13.41557,43.32404]]},"properties":{}},{"type":"Feature","geometry":{"type":"LineString","coordinates":[[13.42687,43.32577],[13.42714,43.3259]]},"properties":{}},{"type":"Feature","geometry":{"type":"LineString","coordinates":[[13.44975,43.29398],[13.44993,43.29367],[13.45002,43.29362]]},"properties":{}},{"type":"Feature","geometry":{"type":"LineString","coordinates":[[13.44975,43.29398],[13.4499,43.29377],[13.44997,43.29374]]},"properties":{}},{"type":"Feature","geometry":{"type":"LineString","coordinates":[[13.45002,43.29362],[13.44982,43.29399],[13.44979,43.29426]]},"properties":{}},{"type":"Feature","geometry":{"type":"LineString","coordinates":[[13.44979,43.29426],[13.44974,43.29417],[13.44975,43.29398]]},"properties":{}},{"type":"Feature","geometry":{"type":"LineString","coordinates":[[13.44231,43.29517],[13.44251,43.29504],[13.44281,43.29463],[13.44303,43.29443]]},"properties":{}},{"type":"Feature","geometry":{"type":"LineString","coordinates":[[13.46282,43.2947],[13.4628,43.29485],[13.46291,43.29494],[13.46351,43.29492]]},"properties":{}},{"type":"Feature","geometry":{"type":"LineString","coordinates":[[13.44303,43.29443],[13.44284,43.29475],[13.44258,43.29512],[13.44255,43.2952],[13.44257,43.29531]]},"properties":{}},{"type":"Feature","geometry":{"type":"LineString","coordinates":[[13.46282,43.2947],[13.46275,43.29478],[13.46273,43.29485],[13.46274,43.29505]]},"properties":{}},{"type":"Feature","geometry":{"type":"LineString","coordinates":[[13.46246,43.29505],[13.46271,43.29472]]},"properties":{}},{"type":"Feature","geometry":{"type":"LineString","coordinates":[[13.46278,43.29508],[13.46317,43.295]]},"properties":{}},{"type":"Feature","geometry":{"type":"LineString","coordinates":[[13.46237,43.29517],[13.46241,43.29508],[13.46251,43.29503],[13.46263,43.29502],[13.46278,43.29508]]},"properties":{}},{"type":"Feature","geometry":{"type":"LineString","coordinates":[[13.46317,43.295],[13.46281,43.29522]]},"properties":{}},{"type":"Feature","geometry":{"type":"LineString","coordinates":[[13.46278,43.29508],[13.46281,43.29522]]},"properties":{}},{"type":"Feature","geometry":{"type":"LineString","coordinates":[[13.46244,43.29529],[13.46237,43.29517]]},"properties":{}},{"type":"Feature","geometry":{"type":"LineString","coordinates":[[13.44149,43.29524],[13.44194,43.29524]]},"properties":{}},{"type":"Feature","geometry":{"type":"LineString","coordinates":[[13.44181,43.29546],[13.44169,43.29532],[13.44149,43.29524]]},"properties":{}},{"type":"Feature","geometry":{"type":"LineString","coordinates":[[13.44231,43.29517],[13.44252,43.29526],[13.4426,43.29537],[13.44261,43.2955],[13.44255,43.29562],[13.44244,43.2957],[13.44224,43.29575],[13.44206,43.29573],[13.44189,43.29564],[13.44181,43.29546],[13.44188,43.29529],[13.44204,43.29519],[13.44231,43.29517]]},"properties":{}},{"type":"Feature","geometry":{"type":"LineString","coordinates":[[13.44396,43.29377],[13.44347,43.29415],[13.44335,43.29418],[13.44293,43.29493],[13.44293,43.29509],[13.44279,43.29534],[13.44275,43.29559],[13.44255,43.29578],[13.44252,43.29586],[13.44251,43.29595],[13.44256,43.29605],[13.44271,43.29625],[13.44284,43.29637],[13.44342,43.29668],[13.44351,43.29677],[13.4435,43.29685],[13.44342,43.29694],[13.44321,43.29707],[13.44315,43.29714]]},"properties":{}},{"type":"Feature","geometry":{"type":"LineString","coordinates":[[13.44161,43.29587],[13.44181,43.2955]]},"properties":{}},{"type":"Feature","geometry":{"type":"LineString","coordinates":[[13.46274,43.2953],[13.4626,43.29563],[13.46238,43.29594],[13.46214,43.2961],[13.46205,43.29613]]},"properties":{}},{"type":"Feature","geometry":{"type":"LineString","coordinates":[[13.44206,43.29573],[13.44182,43.29577],[13.44161,43.29587]]},"properties":{}},{"type":"Feature","geometry":{"type":"LineString","coordinates":[[13.45013,43.29641],[13.45021,43.29639]]},"properties":{}},{"type":"Feature","geometry":{"type":"LineString","coordinates":[[13.45,43.29653],[13.45002,43.29648],[13.45013,43.29641]]},"properties":{}},{"type":"Feature","geometry":{"type":"LineString","coordinates":[[13.45685,43.29573],[13.45645,43.29577],[13.45635,43.29585],[13.45589,43.29743]]},"properties":{}},{"type":"Feature","geometry":{"type":"LineString","coordinates":[[13.45589,43.29743],[13.45584,43.29742]]},"properties":{}},{"type":"Feature","geometry":{"type":"LineString","coordinates":[[13.44845,43.29753],[13.44878,43.29754]]},"properties":{}},{"type":"Feature","geometry":{"type":"LineString","coordinates":[[13.44888,43.29749],[13.44913,43.29738],[13.44927,43.29735],[13.45071,43.29746],[13.45353,43.2978],[13.45361,43.29779],[13.45372,43.29774]]},"properties":{}},{"type":"Feature","geometry":{"type":"LineString","coordinates":[[13.4487,43.2977],[13.44873,43.29758],[13.44888,43.29749]]},"properties":{}},{"type":"Feature","geometry":{"type":"LineString","coordinates":[[13.44893,43.29822],[13.44892,43.29791],[13.44895,43.29782],[13.44904,43.29775]]},"properties":{}},{"type":"Feature","geometry":{"type":"LineString","coordinates":[[13.45569,43.29826],[13.45577,43.29848]]},"properties":{}},{"type":"Feature","geometry":{"type":"LineString","coordinates":[[13.44895,43.29874],[13.44897,43.29836],[13.44893,43.29822]]},"properties":{}},{"type":"Feature","geometry":{"type":"LineString","coordinates":[[13.45577,43.29848],[13.45583,43.29853]]},"properties":{}},{"type":"Feature","geometry":{"type":"LineString","coordinates":[[13.45583,43.29853],[13.45584,43.29864]]},"properties":{}},{"type":"Feature","geometry":{"type":"LineString","coordinates":[[13.45559,43.2987],[13.45553,43.29865],[13.45551,43.29858]]},"properties":{}},{"type":"Feature","geometry":{"type":"LineString","coordinates":[[13.45584,43.29864],[13.45574,43.29871],[13.45559,43.2987]]},"properties":{}},{"type":"Feature","geometry":{"type":"LineString","coordinates":[[13.45549,43.29891],[13.45551,43.29882]]},"properties":{}},{"type":"Feature","geometry":{"type":"LineString","coordinates":[[13.45559,43.29965],[13.4556,43.29927],[13.45552,43.29905],[13.45547,43.299],[13.45549,43.29891]]},"properties":{}},{"type":"Feature","geometry":{"type":"LineString","coordinates":[[13.44322,43.29875],[13.44357,43.30011]]},"properties":{}},{"type":"Feature","geometry":{"type":"LineString","coordinates":[[13.4557,43.30019],[13.45519,43.30009],[13.45368,43.29952],[13.45321,43.29937],[13.4527,43.29934],[13.45146,43.29916]]},"properties":{}},{"type":"Feature","geometry":{"type":"LineString","coordinates":[[13.44778,43.29951],[13.44776,43.29972],[13.44772,43.29983],[13.44758,43.3],[13.44726,43.3002],[13.44683,43.30037],[13.44652,43.3004],[13.44623,43.30035],[13.44592,43.30018],[13.44574,43.29992],[13.44577,43.29962],[13.44591,43.29942],[13.44628,43.29919],[13.44671,43.29901],[13.44695,43.29897],[13.4473,43.29906],[13.4476,43.29929],[13.44778,43.29951]]},"properties":{}},{"type":"Feature","geometry":{"type":"LineString","coordinates":[[13.44778,43.29951],[13.44784,43.29965]]},"properties":{}},{"type":"Feature","geometry":{"type":"LineString","coordinates":[[13.44504,43.29965],[13.44497,43.29996]]},"properties":{}},{"type":"Feature","geometry":{"type":"LineString","coordinates":[[13.45626,43.30001],[13.45612,43.29989],[13.45591,43.29977],[13.45559,43.29965]]},"properties":{}},{"type":"Feature","geometry":{"type":"LineString","coordinates":[[13.44424,43.29992],[13.44489,43.29975]]},"properties":{}},{"type":"Feature","geometry":{"type":"LineString","coordinates":[[13.44404,43.29997],[13.44424,43.29992]]},"properties":{}},{"type":"Feature","geometry":{"type":"LineString","coordinates":[[13.44357,43.30011],[13.44404,43.29997]]},"properties":{}},{"type":"Feature","geometry":{"type":"LineString","coordinates":[[13.44583,43.30024],[13.44587,43.30012]]},"properties":{}},{"type":"Feature","geometry":{"type":"LineString","coordinates":[[13.4557,43.30019],[13.45622,43.30029]]},"properties":{}},{"type":"Feature","geometry":{"type":"LineString","coordinates":[[13.45335,43.30041],[13.4531,43.3004]]},"properties":{}},{"type":"Feature","geometry":{"type":"LineString","coordinates":[[13.45394,43.30045],[13.45335,43.30041]]},"properties":{}},{"type":"Feature","geometry":{"type":"LineString","coordinates":[[13.45558,43.30068],[13.45444,43.3005],[13.45394,43.30045]]},"properties":{}},{"type":"Feature","geometry":{"type":"LineString","coordinates":[[13.45558,43.30068],[13.45635,43.30077],[13.45661,43.30064],[13.45677,43.30064],[13.45695,43.30056]]},"properties":{}},{"type":"Feature","geometry":{"type":"LineString","coordinates":[[13.45232,43.30107],[13.4516,43.30102],[13.4514,43.30096],[13.45067,43.30057],[13.45067,43.30049]]},"properties":{}},{"type":"Feature","geometry":{"type":"LineString","coordinates":[[13.45265,43.30109],[13.45232,43.30107]]},"properties":{}},{"type":"Feature","geometry":{"type":"LineString","coordinates":[[13.44642,43.30119],[13.4464,43.30105],[13.44641,43.30097]]},"properties":{}},{"type":"Feature","geometry":{"type":"LineString","coordinates":[[13.44609,43.30123],[13.44641,43.30097]]},"properties":{}},{"type":"Feature","geometry":{"type":"LineString","coordinates":[[13.44609,43.30123],[13.44642,43.30119]]},"properties":{}},{"type":"Feature","geometry":{"type":"LineString","coordinates":[[13.45481,43.30143],[13.45477,43.30136],[13.45483,43.3013],[13.45547,43.30127]]},"properties":{}},{"type":"Feature","geometry":{"type":"LineString","coordinates":[[13.44696,43.30154],[13.44665,43.30149],[13.44653,43.30143],[13.44646,43.30134],[13.44642,43.30119]]},"properties":{}},{"type":"Feature","geometry":{"type":"LineString","coordinates":[[13.44609,43.30123],[13.44627,43.30127],[13.44637,43.30139],[13.44634,43.30152],[13.44616,43.30161]]},"properties":{}},{"type":"Feature","geometry":{"type":"LineString","coordinates":[[13.44128,43.30158],[13.44111,43.30144]]},"properties":{}},{"type":"Feature","geometry":{"type":"LineString","coordinates":[[13.44138,43.30181],[13.44128,43.30158]]},"properties":{}},{"type":"Feature","geometry":{"type":"LineString","coordinates":[[13.44138,43.30197],[13.44138,43.30181]]},"properties":{}},{"type":"Feature","geometry":{"type":"LineString","coordinates":[[13.44616,43.30161],[13.44516,43.3017],[13.44461,43.30167],[13.44318,43.30186],[13.44217,43.30202],[13.44184,43.30212],[13.44163,43.30222],[13.44133,43.30228]]},"properties":{}},{"type":"Feature","geometry":{"type":"LineString","coordinates":[[13.44002,43.30425],[13.43973,43.30452],[13.43949,43.30483]]},"properties":{}},{"type":"Feature","geometry":{"type":"LineString","coordinates":[[13.44063,43.30591],[13.44045,43.30597],[13.44038,43.30603],[13.44028,43.30619]]},"properties":{}},{"type":"Feature","geometry":{"type":"LineString","coordinates":[[13.44089,43.30711],[13.44105,43.30704],[13.44121,43.30691],[13.44155,43.30635]]},"properties":{}},{"type":"Feature","geometry":{"type":"LineString","coordinates":[[13.44155,43.30635],[13.44132,43.3072]]},"properties":{}},{"type":"Feature","geometry":{"type":"LineString","coordinates":[[13.44155,43.30635],[13.44119,43.30721]]},"properties":{}},{"type":"Feature","geometry":{"type":"LineString","coordinates":[[13.44111,43.30745],[13.44094,43.30749],[13.44079,43.30744],[13.4407,43.30734],[13.44072,43.30722],[13.44089,43.30711],[13.44107,43.30712],[13.44114,43.30716],[13.44119,43.30721],[13.44122,43.30731],[13.44117,43.30741],[13.44111,43.30745]]},"properties":{}},{"type":"Feature","geometry":{"type":"LineString","coordinates":[[13.44132,43.3072],[13.44127,43.30744]]},"properties":{}},{"type":"Feature","geometry":{"type":"LineString","coordinates":[[13.44111,43.30826],[13.44088,43.30917],[13.44055,43.31004],[13.44032,43.31053],[13.43999,43.31109]]},"properties":{}},{"type":"Feature","geometry":{"type":"LineString","coordinates":[[13.43999,43.31109],[13.43933,43.31193]]},"properties":{}},{"type":"Feature","geometry":{"type":"LineString","coordinates":[[13.43259,43.3167],[13.43246,43.31669],[13.43222,43.31678]]},"properties":{}},{"type":"Feature","geometry":{"type":"LineString","coordinates":[[13.43459,43.31688],[13.4343,43.31706],[13.4337,43.31725],[13.43355,43.31735]]},"properties":{}},{"type":"Feature","geometry":{"type":"LineString","coordinates":[[13.49685,43.33136],[13.49698,43.33151]]},"properties":{}},{"type":"Feature","geometry":{"type":"LineString","coordinates":[[13.49691,43.3316],[13.49685,43.33136]]},"properties":{}},{"type":"Feature","geometry":{"type":"LineString","coordinates":[[13.49698,43.33151],[13.49724,43.33161],[13.49756,43.33162]]},"properties":{}},{"type":"Feature","geometry":{"type":"LineString","coordinates":[[13.49698,43.33151],[13.49707,43.33164],[13.49709,43.33177]]},"properties":{}},{"type":"Feature","geometry":{"type":"LineString","coordinates":[[13.49709,43.33177],[13.49691,43.3316]]},"properties":{}},{"type":"Feature","geometry":{"type":"LineString","coordinates":[[13.4968,43.33188],[13.49685,43.33181],[13.49691,43.3316]]},"properties":{}},{"type":"Feature","geometry":{"type":"LineString","coordinates":[[13.43888,43.33332],[13.43868,43.33329],[13.43854,43.3332],[13.4385,43.33314],[13.43851,43.33297],[13.4386,43.33287],[13.43877,43.33281],[13.43897,43.33283],[13.43912,43.33292],[13.43917,43.33299],[13.43917,43.33313],[13.43913,43.3332],[13.43898,43.3333],[13.43888,43.33332]]},"properties":{}},{"type":"Feature","geometry":{"type":"LineString","coordinates":[[13.4305,43.33461],[13.4303,43.33462],[13.43018,43.33456],[13.43012,43.33446],[13.43017,43.33434],[13.43037,43.33426],[13.43058,43.33433],[13.43064,43.33444],[13.43062,43.3345],[13.4305,43.33461]]},"properties":{}},{"type":"Feature","geometry":{"type":"LineString","coordinates":[[13.43161,43.33446],[13.43141,43.3345],[13.43109,43.33451],[13.43093,43.33459],[13.4309,43.33469],[13.43091,43.33479],[13.43113,43.33505]]},"properties":{}},{"type":"Feature","geometry":{"type":"LineString","coordinates":[[13.47439,43.35503],[13.47376,43.35585],[13.47361,43.35587],[13.4715,43.35518],[13.47135,43.35517],[13.47051,43.35531],[13.46934,43.35505],[13.46848,43.35459],[13.46772,43.35438],[13.46634,43.35377],[13.46623,43.35376],[13.46587,43.35401],[13.46487,43.35441],[13.46403,43.35499],[13.46391,43.35511],[13.46338,43.35576],[13.46309,43.35626],[13.46282,43.35758],[13.46271,43.35769],[13.46257,43.35767]]},"properties":{}},{"type":"Feature","geometry":{"type":"LineString","coordinates":[[13.48629,43.44377],[13.48653,43.44383],[13.48978,43.44524],[13.49093,43.44558],[13.4919,43.44582],[13.49224,43.44587],[13.49248,43.44584],[13.49349,43.44537],[13.49374,43.4453],[13.49413,43.4451],[13.49471,43.44474],[13.49545,43.44448],[13.49572,43.44435],[13.49614,43.44422],[13.49678,43.44412],[13.4973,43.44414],[13.49798,43.4441],[13.49872,43.4441],[13.49888,43.44407],[13.49919,43.44395],[13.49978,43.44381],[13.5,43.44379]]},"properties":{}},{"type":"Feature","geometry":{"type":"LineString","coordinates":[[13.5,43.44764],[13.49976,43.44775]]},"properties":{}},{"type":"Feature","geometry":{"type":"LineString","coordinates":[[13.44874,43.44779],[13.44922,43.44856]]},"properties":{}},{"type":"Feature","geometry":{"type":"LineString","coordinates":[[13.44922,43.44856],[13.45143,43.45228],[13.45732,43.44962],[13.4572,43.4493],[13.45657,43.44851],[13.45813,43.44855],[13.45831,43.44836]]},"properties":{}},{"type":"Feature","geometry":{"type":"LineString","coordinates":[[13.49747,43.45788],[13.49745,43.45783],[13.5,43.45396]]},"properties":{}},{"type":"Feature","geometry":{"type":"LineString","coordinates":[[13.42697,43.32605],[13.42695,43.32594],[13.42687,43.32577]]},"properties":{}},{"type":"Feature","geometry":{"type":"LineString","coordinates":[[13.42697,43.32605],[13.42707,43.32594],[13.42714,43.3259],[13.42734,43.32588],[13.4275,43.32594],[13.4276,43.32609],[13.42756,43.32623],[13.42741,43.32632],[13.42732,43.32634],[13.42711,43.3263],[13.42698,43.32617]]},"properties":{}},{"type":"Feature","geometry":{"type":"LineString","coordinates":[[13.42698,43.32617],[13.42697,43.32605]]},"properties":{}},{"type":"Feature","geometry":{"type":"LineString","coordinates":[[13.42786,43.32644],[13.42751,43.32634],[13.42732,43.32634]]},"properties":{}},{"type":"Feature","geometry":{"type":"LineString","coordinates":[[13.36128,43.48398],[13.36104,43.48376],[13.36083,43.48362]]},"properties":{}},{"type":"Feature","geometry":{"type":"LineString","coordinates":[[13.36128,43.48398],[13.36129,43.48388],[13.3614,43.4838]]},"properties":{}},{"type":"Feature","geometry":{"type":"LineString","coordinates":[[13.3614,43.4838],[13.36152,43.48412]]},"properties":{}},{"type":"Feature","geometry":{"type":"LineString","coordinates":[[13.36152,43.48412],[13.36128,43.48398]]},"properties":{}},{"type":"Feature","geometry":{"type":"LineString","coordinates":[[13.3619,43.48396],[13.36166,43.48398],[13.36159,43.48403],[13.36158,43.48415]]},"properties":{}},{"type":"Feature","geometry":{"type":"LineString","coordinates":[[13.49974,43.45999],[13.49974,43.45983]]},"properties":{}},{"type":"Feature","geometry":{"type":"LineString","coordinates":[[13.49974,43.45983],[13.49987,43.45999]]},"properties":{}},{"type":"Feature","geometry":{"type":"LineString","coordinates":[[13.49946,43.4601],[13.49967,43.46006]]},"properties":{}},{"type":"Feature","geometry":{"type":"LineString","coordinates":[[13.49991,43.46001],[13.49995,43.46009],[13.49988,43.46018],[13.49979,43.46019],[13.49968,43.46013],[13.49967,43.46006],[13.49971,43.46001],[13.49979,43.45998],[13.49991,43.46001]]},"properties":{}},{"type":"Feature","geometry":{"type":"LineString","coordinates":[[13.49995,43.46006],[13.5,43.46007]]},"properties":{}},{"type":"Feature","geometry":{"type":"LineString","coordinates":[[13.49968,43.46013],[13.49946,43.4601]]},"properties":{}},{"type":"Feature","geometry":{"type":"LineString","coordinates":[[13.5,43.46013],[13.49994,43.46013]]},"properties":{}},{"type":"Feature","geometry":{"type":"LineString","coordinates":[[13.45922,43.47091],[13.45954,43.47083]]},"properties":{}},{"type":"Feature","geometry":{"type":"LineString","coordinates":[[13.45868,43.47088],[13.45883,43.47092]]},"properties":{}},{"type":"Feature","geometry":{"type":"LineString","coordinates":[[13.45954,43.47083],[13.45928,43.471]]},"properties":{}},{"type":"Feature","geometry":{"type":"LineString","coordinates":[[13.45879,43.47098],[13.45868,43.47088]]},"properties":{}},{"type":"Feature","geometry":{"type":"LineString","coordinates":[[13.45881,43.47095],[13.45891,43.47087],[13.4591,43.47085],[13.45925,43.47094],[13.45928,43.47104],[13.45919,43.47116],[13.4591,43.4712],[13.45896,43.4712],[13.45885,43.47114],[13.4588,43.47108],[13.45881,43.47095]]},"properties":{}},{"type":"Feature","geometry":{"type":"LineString","coordinates":[[13.4585,43.4712],[13.45879,43.47105]]},"properties":{}},{"type":"Feature","geometry":{"type":"LineString","coordinates":[[13.45888,43.47117],[13.4585,43.4712]]},"properties":{}},{"type":"Feature","geometry":{"type":"LineString","coordinates":[[13.45927,43.47108],[13.45936,43.47123],[13.45956,43.47139]]},"properties":{}},{"type":"Feature","geometry":{"type":"LineString","coordinates":[[13.45956,43.47139],[13.45901,43.4712]]},"properties":{}},{"type":"Feature","geometry":{"type":"LineString","coordinates":[[13.46043,43.47205],[13.46044,43.47188]]},"properties":{}},{"type":"Feature","geometry":{"type":"LineString","coordinates":[[13.46057,43.47197],[13.46043,43.47205]]},"properties":{}},{"type":"Feature","geometry":{"type":"LineString","coordinates":[[13.45662,43.47199],[13.45666,43.47216]]},"properties":{}},{"type":"Feature","geometry":{"type":"LineString","coordinates":[[13.45666,43.47216],[13.45647,43.47206]]},"properties":{}},{"type":"Feature","geometry":{"type":"LineString","coordinates":[[13.46846,43.47246],[13.46868,43.47259]]},"properties":{}},{"type":"Feature","geometry":{"type":"LineString","coordinates":[[13.46851,43.47268],[13.46846,43.47246]]},"properties":{}},{"type":"Feature","geometry":{"type":"LineString","coordinates":[[13.4687,43.47291],[13.46856,43.47288],[13.46849,43.47279],[13.46848,43.47273],[13.46855,43.47264],[13.46861,43.47261],[13.46876,43.4726],[13.46888,43.47266],[13.46892,43.47276],[13.46884,43.47288],[13.4687,43.47291]]},"properties":{}},{"type":"Feature","geometry":{"type":"LineString","coordinates":[[13.46815,43.47285],[13.46848,43.47273]]},"properties":{}},{"type":"Feature","geometry":{"type":"LineString","coordinates":[[13.46851,43.47284],[13.46815,43.47285]]},"properties":{}},{"type":"Feature","geometry":{"type":"LineString","coordinates":[[13.46884,43.47288],[13.46877,43.4731]]},"properties":{}},{"type":"Feature","geometry":{"type":"LineString","coordinates":[[13.46877,43.4731],[13.46863,43.4729]]},"properties":{}},{"type":"Feature","geometry":{"type":"LineString","coordinates":[[13.46536,43.47421],[13.46434,43.47367]]},"properties":{}},{"type":"Feature","geometry":{"type":"LineString","coordinates":[[13.46561,43.47378],[13.46533,43.47396],[13.46528,43.47402],[13.46536,43.47421]]},"properties":{}},{"type":"Feature","geometry":{"type":"LineString","coordinates":[[13.47218,43.47768],[13.47245,43.47776]]},"properties":{}},{"type":"Feature","geometry":{"type":"LineString","coordinates":[[13.47237,43.47786],[13.47218,43.47768]]},"properties":{}},{"type":"Feature","geometry":{"type":"LineString","coordinates":[[13.47237,43.47786],[13.47245,43.47776],[13.47256,43.47772],[13.47271,43.47775],[13.47279,43.47787],[13.47273,43.47798],[13.47255,43.47802],[13.47241,43.47796],[13.47237,43.47786]]},"properties":{}},{"type":"Feature","geometry":{"type":"LineString","coordinates":[[13.47279,43.47787],[13.47304,43.47801]]},"properties":{}},{"type":"Feature","geometry":{"type":"LineString","coordinates":[[13.47304,43.47801],[13.47273,43.47798]]},"properties":{}},{"type":"Feature","geometry":{"type":"LineString","coordinates":[[13.47419,43.47835],[13.47467,43.47843],[13.47512,43.47856]]},"properties":{}},{"type":"Feature","geometry":{"type":"LineString","coordinates":[[13.47616,43.4789],[13.47565,43.47878],[13.47419,43.47835]]},"properties":{}},{"type":"Feature","geometry":{"type":"LineString","coordinates":[[13.47512,43.47856],[13.47616,43.4789]]},"properties":{}},{"type":"Feature","geometry":{"type":"LineString","coordinates":[[13.47959,43.48129],[13.47984,43.48151],[13.48023,43.48165]]},"properties":{}},{"type":"Feature","geometry":{"type":"LineString","coordinates":[[13.47961,43.48141],[13.47964,43.48149],[13.47977,43.48159]]},"properties":{}},{"type":"Feature","geometry":{"type":"LineString","coordinates":[[13.47962,43.48164],[13.47961,43.48141]]},"properties":{}},{"type":"Feature","geometry":{"type":"LineString","coordinates":[[13.47982,43.48161],[13.48023,43.48165]]},"properties":{}},{"type":"Feature","geometry":{"type":"LineString","coordinates":[[13.48023,43.48165],[13.48076,43.48168]]},"properties":{}},{"type":"Feature","geometry":{"type":"LineString","coordinates":[[13.4798,43.4816],[13.47985,43.48167],[13.47981,43.48173],[13.47971,43.48175],[13.47962,43.4817],[13.47962,43.48164],[13.47967,43.4816],[13.4798,43.4816]]},"properties":{}},{"type":"Feature","geometry":{"type":"LineString","coordinates":[[13.48027,43.48169],[13.47984,43.4817]]},"properties":{}},{"type":"Feature","geometry":{"type":"LineString","coordinates":[[13.48064,43.48182],[13.48054,43.48174],[13.48027,43.48169]]},"properties":{}},{"type":"Feature","geometry":{"type":"LineString","coordinates":[[13.48083,43.4817],[13.48088,43.48177],[13.48082,43.48185],[13.4807,43.48186],[13.48063,43.4818],[13.48063,43.48175],[13.48069,43.48169],[13.48083,43.4817]]},"properties":{}},{"type":"Feature","geometry":{"type":"LineString","coordinates":[[13.47953,43.4819],[13.4796,43.4818],[13.47962,43.4817]]},"properties":{}},{"type":"Feature","geometry":{"type":"LineString","coordinates":[[13.47977,43.48175],[13.47953,43.4819]]},"properties":{}},{"type":"Feature","geometry":{"type":"LineString","coordinates":[[13.49121,43.48193],[13.49136,43.48184]]},"properties":{}},{"type":"Feature","geometry":{"type":"LineString","coordinates":[[13.49136,43.48184],[13.49128,43.48198]]},"properties":{}},{"type":"Feature","geometry":{"type":"LineString","coordinates":[[13.48085,43.48183],[13.48088,43.48213]]},"properties":{}},{"type":"Feature","geometry":{"type":"LineString","coordinates":[[13.49116,43.48195],[13.49126,43.48195],[13.49128,43.48201],[13.49123,43.48204],[13.49116,43.48203],[13.49114,43.48198],[13.49116,43.48195]]},"properties":{}},{"type":"Feature","geometry":{"type":"LineString","coordinates":[[13.48088,43.48213],[13.48077,43.48195],[13.48067,43.48185]]},"properties":{}},{"type":"Feature","geometry":{"type":"LineString","coordinates":[[13.49112,43.4822],[13.49114,43.48201]]},"properties":{}},{"type":"Feature","geometry":{"type":"LineString","coordinates":[[13.49127,43.48202],[13.49112,43.4822]]},"properties":{}},{"type":"Feature","geometry":{"type":"LineString","coordinates":[[13.48091,43.48231],[13.48099,43.48256]]},"properties":{}},{"type":"Feature","geometry":{"type":"LineString","coordinates":[[13.48086,43.48256],[13.48091,43.48231]]},"properties":{}},{"type":"Feature","geometry":{"type":"LineString","coordinates":[[13.48101,43.48257],[13.48105,43.48264],[13.48101,43.48271],[13.48089,43.48273],[13.48081,43.48267],[13.4808,43.48262],[13.48086,43.48256],[13.48101,43.48257]]},"properties":{}},{"type":"Feature","geometry":{"type":"LineString","coordinates":[[13.48063,43.48277],[13.4808,43.48265]]},"properties":{}},{"type":"Feature","geometry":{"type":"LineString","coordinates":[[13.48089,43.48273],[13.48063,43.48277]]},"properties":{}},{"type":"Feature","geometry":{"type":"LineString","coordinates":[[13.48105,43.48267],[13.48128,43.48286]]},"properties":{}},{"type":"Feature","geometry":{"type":"LineString","coordinates":[[13.4936,43.48383],[13.49391,43.48394]]},"properties":{}},{"type":"Feature","geometry":{"type":"LineString","coordinates":[[13.49381,43.48403],[13.4936,43.48383]]},"properties":{}},{"type":"Feature","geometry":{"type":"LineString","coordinates":[[13.49398,43.48395],[13.49437,43.48392]]},"properties":{}},{"type":"Feature","geometry":{"type":"LineString","coordinates":[[13.48625,43.48398],[13.48653,43.48394]]},"properties":{}},{"type":"Feature","geometry":{"type":"LineString","coordinates":[[13.49437,43.48392],[13.49404,43.48404]]},"properties":{}},{"type":"Feature","geometry":{"type":"LineString","coordinates":[[13.48653,43.48394],[13.48634,43.48403]]},"properties":{}},{"type":"Feature","geometry":{"type":"LineString","coordinates":[[13.48324,43.48354],[13.48353,43.48362],[13.48375,43.48379],[13.48405,43.48429],[13.48424,43.48446],[13.4844,43.48449],[13.48471,43.48444]]},"properties":{}},{"type":"Feature","geometry":{"type":"LineString","coordinates":[[13.49383,43.48407],[13.49381,43.48401],[13.49387,43.48395],[13.49398,43.48395],[13.49404,43.48401],[13.49402,43.48406],[13.49396,43.4841],[13.49383,43.48407]]},"properties":{}},{"type":"Feature","geometry":{"type":"LineString","coordinates":[[13.48424,43.48453],[13.48409,43.48444],[13.48402,43.48437],[13.48376,43.48391],[13.4836,43.48375],[13.48347,43.48365],[13.48324,43.48354]]},"properties":{}},{"type":"Feature","geometry":{"type":"LineString","coordinates":[[13.48625,43.48398],[13.48634,43.48403],[13.48635,43.48409],[13.48627,43.48415],[13.48616,43.48413],[13.48612,43.48409],[13.48613,43.48404],[13.48625,43.48398]]},"properties":{}},{"type":"Feature","geometry":{"type":"LineString","coordinates":[[13.48635,43.48409],[13.48649,43.48418]]},"properties":{}},{"type":"Feature","geometry":{"type":"LineString","coordinates":[[13.48522,43.48425],[13.48613,43.48404]]},"properties":{}},{"type":"Feature","geometry":{"type":"LineString","coordinates":[[13.48649,43.48418],[13.48627,43.48415]]},"properties":{}},{"type":"Feature","geometry":{"type":"LineString","coordinates":[[13.49402,43.48406],[13.49396,43.48431]]},"properties":{}},{"type":"Feature","geometry":{"type":"LineString","coordinates":[[13.48616,43.48413],[13.48522,43.48425]]},"properties":{}},{"type":"Feature","geometry":{"type":"LineString","coordinates":[[13.49396,43.48431],[13.49392,43.48418],[13.49385,43.48409]]},"properties":{}},{"type":"Feature","geometry":{"type":"LineString","coordinates":[[13.48471,43.48444],[13.48449,43.48454],[13.48424,43.48453]]},"properties":{}},{"type":"Feature","geometry":{"type":"LineString","coordinates":[[13.48112,43.48488],[13.48134,43.48594]]},"properties":{}},{"type":"Feature","geometry":{"type":"LineString","coordinates":[[13.48241,43.48571],[13.48251,43.48571]]},"properties":{}},{"type":"Feature","geometry":{"type":"LineString","coordinates":[[13.48233,43.48595],[13.48241,43.4859],[13.48241,43.48571]]},"properties":{}},{"type":"Feature","geometry":{"type":"LineString","coordinates":[[13.49067,43.48603],[13.49078,43.4858]]},"properties":{}},{"type":"Feature","geometry":{"type":"LineString","coordinates":[[13.49787,43.4906],[13.49831,43.49064]]},"properties":{}},{"type":"Feature","geometry":{"type":"LineString","coordinates":[[13.49828,43.4907],[13.49787,43.4906]]},"properties":{}},{"type":"Feature","geometry":{"type":"LineString","coordinates":[[13.4984,43.49065],[13.49839,43.49072],[13.49834,43.49073],[13.49828,43.4907],[13.49831,43.49064],[13.4984,43.49065]]},"properties":{}},{"type":"Feature","geometry":{"type":"LineString","coordinates":[[13.4984,43.49065],[13.49878,43.49073]]},"properties":{}},{"type":"Feature","geometry":{"type":"LineString","coordinates":[[13.49878,43.49073],[13.49838,43.49073]]},"properties":{}},{"type":"Feature","geometry":{"type":"LineString","coordinates":[[13.49722,43.49113],[13.49822,43.4908],[13.4983,43.49076],[13.4983,43.49072]]},"properties":{}},{"type":"Feature","geometry":{"type":"LineString","coordinates":[[13.49722,43.49122],[13.49711,43.49121],[13.4971,43.49115],[13.49716,43.49112],[13.49722,43.49113],[13.49725,43.49117],[13.49722,43.49122]]},"properties":{}},{"type":"Feature","geometry":{"type":"LineString","coordinates":[[13.5,43.49104],[13.4999,43.49099]]},"properties":{}},{"type":"Feature","geometry":{"type":"LineString","coordinates":[[13.4999,43.49099],[13.5,43.49102]]},"properties":{}},{"type":"Feature","geometry":{"type":"LineString","coordinates":[[13.5,43.49164],[13.49934,43.49167],[13.49871,43.49163],[13.4972,43.49123]]},"properties":{}}]}