{"type":"FeatureCollection","features":[{"type":"Feature","geometry":{"type":"LineString","coordinates":[[13.46918,37.86302],[13.469,37.86289]]},"properties":{}},{"type":"Feature","geometry":{"type":"LineString","coordinates":[[13.46905,37.86285],[13.46958,37.86314]]},"properties":{}},{"type":"Feature","geometry":{"type":"LineString","coordinates":[[13.46958,37.86314],[13.46918,37.86302],[13.46886,37.86301]]},"properties":{}},{"type":"Feature","geometry":{"type":"LineString","coordinates":[[13.49732,37.87547],[13.49788,37.87581],[13.49799,37.87583],[13.49819,37.87579]]},"properties":{}},{"type":"Feature","geometry":{"type":"LineString","coordinates":[[13.49571,37.87671],[13.49722,37.8762],[13.49739,37.87611],[13.49751,37.87596],[13.49755,37.87584],[13.49744,37.87558],[13.49732,37.87547]]},"properties":{}},{"type":"Feature","geometry":{"type":"LineString","coordinates":[[13.49735,37.87622],[13.49708,37.87636],[13.49592,37.87676],[13.49583,37.87694],[13.49585,37.87709]]},"properties":{}},{"type":"Feature","geometry":{"type":"LineString","coordinates":[[13.46455,37.88082],[13.46465,37.8809],[13.46488,37.88088],[13.46518,37.88064],[13.46534,37.88061],[13.46549,37.88064],[13.46558,37.88068],[13.46569,37.8808],[13.46582,37.88083]]},"properties":{}},{"type":"Feature","geometry":{"type":"LineString","coordinates":[[13.4626,37.8824],[13.46291,37.88207],[13.46386,37.88138],[13.4643,37.88099],[13.46434,37.88086]]},"properties":{}},{"type":"Feature","geometry":{"type":"LineString","coordinates":[[13.46236,37.88269],[13.46194,37.8834],[13.46184,37.88364],[13.46186,37.88373],[13.462,37.88385],[13.4625,37.8839]]},"properties":{}},{"type":"Feature","geometry":{"type":"LineString","coordinates":[[13.46247,37.88398],[13.46181,37.88387],[13.46166,37.88394],[13.46154,37.88413]]},"properties":{}},{"type":"Feature","geometry":{"type":"LineString","coordinates":[[13.47469,37.90476],[13.47467,37.90468],[13.47478,37.90466]]},"properties":{}},{"type":"Feature","geometry":{"type":"LineString","coordinates":[[13.47478,37.90466],[13.47481,37.90474],[13.47472,37.90477]]},"properties":{}},{"type":"Feature","geometry":{"type":"LineString","coordinates":[[13.47472,37.90477],[13.47469,37.90476]]},"properties":{}},{"type":"Feature","geometry":{"type":"LineString","coordinates":[[13.47668,37.90577],[13.47677,37.90577],[13.47684,37.90582]]},"properties":{}},{"type":"Feature","geometry":{"type":"LineString","coordinates":[[13.47658,37.90593],[13.47658,37.90583],[13.47668,37.90577]]},"properties":{}},{"type":"Feature","geometry":{"type":"LineString","coordinates":[[13.47684,37.90582],[13.47685,37.90589],[13.47682,37.90596]]},"properties":{}},{"type":"Feature","geometry":{"type":"LineString","coordinates":[[13.47793,37.90594],[13.47719,37.90592],[13.47682,37.90596]]},"properties":{}},{"type":"Feature","geometry":{"type":"LineString","coordinates":[[13.47673,37.90599],[13.47664,37.90598],[13.47658,37.90593]]},"properties":{}},{"type":"Feature","geometry":{"type":"LineString","coordinates":[[13.47682,37.90596],[13.47673,37.90599]]},"properties":{}},{"type":"Feature","geometry":{"type":"LineString","coordinates":[[13.4901,37.95014],[13.49022,37.95039],[13.49026,37.95064],[13.49023,37.95138],[13.49026,37.95159],[13.49043,37.95211],[13.49059,37.95222]]},"properties":{}},{"type":"Feature","geometry":{"type":"LineString","coordinates":[[13.46486,37.96258],[13.46495,37.96243],[13.46531,37.96211],[13.46535,37.96198],[13.46526,37.96182]]},"properties":{}},{"type":"Feature","geometry":{"type":"LineString","coordinates":[[13.4658,37.96224],[13.46561,37.96218],[13.46548,37.96218],[13.46536,37.96225],[13.46477,37.96274],[13.46461,37.9628]]},"properties":{}},{"type":"Feature","geometry":{"type":"LineString","coordinates":[[13.45924,37.96731],[13.4591,37.96727],[13.45886,37.96733],[13.45876,37.9673],[13.45879,37.96714],[13.4589,37.96698],[13.4589,37.96689]]},"properties":{}},{"type":"Feature","geometry":{"type":"LineString","coordinates":[[13.45692,37.97048],[13.4572,37.97083],[13.4573,37.97088],[13.45749,37.9709],[13.45772,37.97081],[13.45828,37.9703]]},"properties":{}},{"type":"Feature","geometry":{"type":"LineString","coordinates":[[13.45723,37.97126],[13.45707,37.97103],[13.45689,37.97056],[13.45672,37.97041]]},"properties":{}},{"type":"Feature","geometry":{"type":"LineString","coordinates":[[13.45692,37.97048],[13.45701,37.97061],[13.45716,37.97105],[13.45728,37.97121]]},"properties":{}},{"type":"Feature","geometry":{"type":"LineString","coordinates":[[13.45756,37.97104],[13.45712,37.97169],[13.45705,37.97191],[13.4571,37.97209],[13.45719,37.97216],[13.45737,37.97223],[13.45753,37.97223],[13.45773,37.97214],[13.4578,37.97205],[13.45783,37.97188],[13.45775,37.97172],[13.45738,37.9714]]},"properties":{}},{"type":"Feature","geometry":{"type":"LineString","coordinates":[[13.45743,37.97136],[13.45771,37.9716],[13.45785,37.97177],[13.45788,37.97194],[13.45785,37.97205],[13.45778,37.97214],[13.45767,37.97222],[13.45711,37.97236],[13.45695,37.97245],[13.45687,37.97255],[13.45646,37.97357]]},"properties":{}}]}