{"type":"FeatureCollection","features":[{"type":"Feature","geometry":{"type":"LineString","coordinates":[[13.47696,41.95697],[13.47848,41.95832]]},"properties":{}},{"type":"Feature","geometry":{"type":"LineString","coordinates":[[13.2587,41.75],[13.25882,41.75039],[13.25882,41.75048],[13.25878,41.75056],[13.25867,41.75068],[13.25856,41.75073],[13.25829,41.75079],[13.25819,41.75083],[13.25735,41.75153],[13.25724,41.7517],[13.25718,41.75194],[13.25737,41.75235],[13.25738,41.75246],[13.25735,41.75255],[13.25695,41.75297],[13.25624,41.7534],[13.25646,41.75384],[13.25648,41.75393],[13.25641,41.75415],[13.25634,41.75425],[13.25617,41.75437]]},"properties":{}},{"type":"Feature","geometry":{"type":"LineString","coordinates":[[13.25383,41.75863],[13.25358,41.75833],[13.25329,41.75805],[13.25267,41.75755],[13.25256,41.75751],[13.25169,41.75746],[13.25127,41.75752],[13.25053,41.75769],[13.2504,41.7576],[13.25035,41.75751],[13.25038,41.7573],[13.25044,41.75722],[13.25058,41.75712],[13.25088,41.75717],[13.25097,41.75715],[13.25157,41.75685],[13.252,41.7565],[13.25208,41.75637],[13.25218,41.75604],[13.25225,41.75599],[13.25289,41.75567],[13.25341,41.75556],[13.25391,41.7554],[13.25408,41.7552],[13.25415,41.75497],[13.25443,41.75475],[13.25458,41.75472],[13.25503,41.75474],[13.25588,41.75454],[13.25617,41.75437]]},"properties":{}},{"type":"Feature","geometry":{"type":"LineString","coordinates":[[13.25383,41.75863],[13.25378,41.75866],[13.25167,41.75896],[13.25076,41.75886],[13.25,41.75862]]},"properties":{}},{"type":"Feature","geometry":{"type":"LineString","coordinates":[[13.25,41.86161],[13.25008,41.86163],[13.25052,41.86188],[13.25101,41.86209],[13.25117,41.86235],[13.25108,41.86255],[13.25093,41.86264]]},"properties":{}},{"type":"Feature","geometry":{"type":"LineString","coordinates":[[13.25,41.86676],[13.2508,41.86704],[13.25117,41.86712],[13.25159,41.86717],[13.25232,41.86742],[13.25319,41.86753],[13.25339,41.86762],[13.25383,41.86772]]},"properties":{}},{"type":"Feature","geometry":{"type":"LineString","coordinates":[[13.25383,41.86772],[13.25441,41.8678],[13.2549,41.86793],[13.25587,41.86809],[13.25639,41.86824],[13.25698,41.86847],[13.25789,41.86897],[13.25892,41.86933],[13.25923,41.86968],[13.25927,41.86978],[13.25925,41.86991],[13.2591,41.87022],[13.25898,41.87034],[13.25896,41.87043],[13.25873,41.87057],[13.25814,41.87069],[13.25806,41.87074],[13.25773,41.87078],[13.25766,41.87085],[13.25818,41.87091],[13.25856,41.87108]]},"properties":{}}]}