{"type":"FeatureCollection","features":[{"type":"Feature","geometry":{"type":"LineString","coordinates":[[13.28759,46.37493],[13.2877,46.37476],[13.28784,46.37467],[13.28809,46.37457],[13.2884,46.37431],[13.2885,46.37412],[13.28864,46.37397],[13.28872,46.37371],[13.28893,46.37336],[13.28905,46.37328],[13.28927,46.37321],[13.28946,46.373],[13.28965,46.37288],[13.28989,46.3726],[13.29017,46.37241],[13.2903,46.37229],[13.29072,46.37201],[13.29105,46.37189],[13.29127,46.37186],[13.29187,46.37152],[13.29221,46.37143],[13.29251,46.37126],[13.29278,46.37119]]},"properties":{}},{"type":"Feature","geometry":{"type":"LineString","coordinates":[[13.29278,46.37119],[13.2935,46.37092],[13.29371,46.37091],[13.29404,46.37105],[13.29469,46.37125],[13.29505,46.37132],[13.29515,46.37128],[13.29512,46.37113],[13.29484,46.3709],[13.29482,46.37084],[13.29427,46.37066],[13.2941,46.37067]]},"properties":{}},{"type":"Feature","geometry":{"type":"LineString","coordinates":[[13.29058,46.37732],[13.29055,46.37727],[13.29196,46.37688],[13.29355,46.3763],[13.29425,46.37619],[13.29517,46.37612],[13.29555,46.37612],[13.29556,46.37607],[13.29586,46.37608],[13.29587,46.37614],[13.29703,46.37615],[13.29745,46.37607],[13.29779,46.37597],[13.29807,46.37594],[13.29807,46.37599]]},"properties":{}},{"type":"Feature","geometry":{"type":"LineString","coordinates":[[13.29203,46.40529],[13.29245,46.4054],[13.29362,46.40559],[13.29538,46.40574]]},"properties":{}},{"type":"Feature","geometry":{"type":"LineString","coordinates":[[13.29538,46.40574],[13.29544,46.40574]]},"properties":{}},{"type":"Feature","geometry":{"type":"LineString","coordinates":[[13.29544,46.40574],[13.29624,46.40575]]},"properties":{}},{"type":"Feature","geometry":{"type":"LineString","coordinates":[[13.25883,46.37604],[13.25844,46.37598]]},"properties":{}},{"type":"Feature","geometry":{"type":"LineString","coordinates":[[13.25844,46.37598],[13.25822,46.37604]]},"properties":{}},{"type":"Feature","geometry":{"type":"LineString","coordinates":[[13.27915,46.37479],[13.27856,46.37504],[13.27805,46.37514],[13.2776,46.37515],[13.27735,46.37511],[13.27432,46.37519],[13.27381,46.37525],[13.27323,46.37538],[13.27269,46.37556],[13.27123,46.37571],[13.26944,46.37631],[13.26884,46.3767],[13.26867,46.37674],[13.2682,46.37678],[13.26804,46.37687],[13.26733,46.37748],[13.2672,46.37756],[13.26687,46.37767],[13.26667,46.37765],[13.26585,46.37729],[13.26496,46.37702],[13.26465,46.37696],[13.26438,46.37698],[13.2642,46.37696],[13.26212,46.37652],[13.26132,46.37653],[13.26067,46.37649],[13.25929,46.3761],[13.25883,46.37604]]},"properties":{}},{"type":"Feature","geometry":{"type":"LineString","coordinates":[[13.25822,46.37604],[13.25813,46.37608],[13.25797,46.37626],[13.2575,46.37664],[13.257,46.37695],[13.25678,46.37727],[13.2566,46.37737],[13.25643,46.37741],[13.25589,46.37748],[13.25556,46.37747]]},"properties":{}},{"type":"Feature","geometry":{"type":"LineString","coordinates":[[13.25,46.37692],[13.2506,46.37691],[13.2512,46.37699],[13.25218,46.37692],[13.25251,46.37697],[13.25324,46.37695]]},"properties":{}},{"type":"Feature","geometry":{"type":"LineString","coordinates":[[13.25324,46.37695],[13.25359,46.37693],[13.25367,46.37701],[13.25379,46.37731],[13.25391,46.37743],[13.25406,46.37746],[13.25509,46.37744],[13.25556,46.37747]]},"properties":{}},{"type":"Feature","geometry":{"type":"LineString","coordinates":[[13.25902,46.39392],[13.25813,46.39374],[13.25709,46.39366],[13.2565,46.39368],[13.25553,46.39381]]},"properties":{}},{"type":"Feature","geometry":{"type":"LineString","coordinates":[[13.25553,46.39381],[13.25517,46.39389]]},"properties":{}},{"type":"Feature","geometry":{"type":"LineString","coordinates":[[13.25914,46.39396],[13.25902,46.39392]]},"properties":{}},{"type":"Feature","geometry":{"type":"LineString","coordinates":[[13.25963,46.39412],[13.25914,46.39396]]},"properties":{}},{"type":"Feature","geometry":{"type":"LineString","coordinates":[[13.25973,46.39416],[13.25963,46.39412]]},"properties":{}},{"type":"Feature","geometry":{"type":"LineString","coordinates":[[13.25517,46.39389],[13.25409,46.3942],[13.25286,46.39445],[13.25228,46.3945],[13.25,46.39452]]},"properties":{}},{"type":"Feature","geometry":{"type":"LineString","coordinates":[[13.26368,46.3956],[13.2626,46.39529],[13.25973,46.39416]]},"properties":{}},{"type":"Feature","geometry":{"type":"LineString","coordinates":[[13.27361,46.39566],[13.27423,46.39556],[13.27465,46.39553],[13.27557,46.39553],[13.27603,46.39558]]},"properties":{}},{"type":"Feature","geometry":{"type":"LineString","coordinates":[[13.27603,46.39558],[13.2773,46.39589]]},"properties":{}},{"type":"Feature","geometry":{"type":"LineString","coordinates":[[13.26664,46.39616],[13.26496,46.39589],[13.26368,46.3956]]},"properties":{}},{"type":"Feature","geometry":{"type":"LineString","coordinates":[[13.2773,46.39589],[13.27759,46.39597]]},"properties":{}},{"type":"Feature","geometry":{"type":"LineString","coordinates":[[13.27144,46.39646],[13.27361,46.39566]]},"properties":{}},{"type":"Feature","geometry":{"type":"LineString","coordinates":[[13.26687,46.3962],[13.26664,46.39616]]},"properties":{}},{"type":"Feature","geometry":{"type":"LineString","coordinates":[[13.27759,46.39597],[13.27853,46.39622],[13.27903,46.39639]]},"properties":{}},{"type":"Feature","geometry":{"type":"LineString","coordinates":[[13.26943,46.39662],[13.26687,46.3962]]},"properties":{}},{"type":"Feature","geometry":{"type":"LineString","coordinates":[[13.27105,46.39655],[13.27144,46.39646]]},"properties":{}},{"type":"Feature","geometry":{"type":"LineString","coordinates":[[13.26953,46.39664],[13.27026,46.39665],[13.27105,46.39655]]},"properties":{}},{"type":"Feature","geometry":{"type":"LineString","coordinates":[[13.26953,46.39664],[13.26943,46.39662]]},"properties":{}},{"type":"Feature","geometry":{"type":"LineString","coordinates":[[13.26918,46.39681],[13.26935,46.39683],[13.26953,46.39664]]},"properties":{}},{"type":"Feature","geometry":{"type":"LineString","coordinates":[[13.27903,46.39639],[13.2796,46.39667],[13.28033,46.39714]]},"properties":{}},{"type":"Feature","geometry":{"type":"LineString","coordinates":[[13.28033,46.39714],[13.28068,46.39737],[13.28161,46.39789]]},"properties":{}},{"type":"Feature","geometry":{"type":"LineString","coordinates":[[13.28161,46.39789],[13.28242,46.39833]]},"properties":{}},{"type":"Feature","geometry":{"type":"LineString","coordinates":[[13.28242,46.39833],[13.28282,46.39863],[13.28321,46.39909]]},"properties":{}},{"type":"Feature","geometry":{"type":"LineString","coordinates":[[13.28321,46.39909],[13.28375,46.39975],[13.28417,46.40012],[13.28503,46.40064],[13.28581,46.40106]]},"properties":{}},{"type":"Feature","geometry":{"type":"LineString","coordinates":[[13.28581,46.40106],[13.28599,46.40115]]},"properties":{}},{"type":"Feature","geometry":{"type":"LineString","coordinates":[[13.28599,46.40115],[13.28673,46.40158]]},"properties":{}},{"type":"Feature","geometry":{"type":"LineString","coordinates":[[13.28673,46.40158],[13.28685,46.40165]]},"properties":{}},{"type":"Feature","geometry":{"type":"LineString","coordinates":[[13.29624,46.40575],[13.29693,46.40579],[13.29766,46.40591],[13.30048,46.40656],[13.30245,46.40694]]},"properties":{}},{"type":"Feature","geometry":{"type":"LineString","coordinates":[[13.30245,46.40694],[13.30263,46.40699]]},"properties":{}},{"type":"Feature","geometry":{"type":"LineString","coordinates":[[13.30263,46.40699],[13.30383,46.40743]]},"properties":{}},{"type":"Feature","geometry":{"type":"LineString","coordinates":[[13.30383,46.40743],[13.30403,46.40751]]},"properties":{}},{"type":"Feature","geometry":{"type":"LineString","coordinates":[[13.30403,46.40751],[13.30467,46.40772],[13.30503,46.40779],[13.30562,46.40787],[13.3073,46.40799],[13.30797,46.4081],[13.30865,46.4083],[13.30923,46.40856]]},"properties":{}},{"type":"Feature","geometry":{"type":"LineString","coordinates":[[13.30923,46.40856],[13.30952,46.40879],[13.31049,46.40945]]},"properties":{}},{"type":"Feature","geometry":{"type":"LineString","coordinates":[[13.31049,46.40945],[13.31059,46.40952]]},"properties":{}},{"type":"Feature","geometry":{"type":"LineString","coordinates":[[13.31059,46.40952],[13.31269,46.41098],[13.31299,46.41122]]},"properties":{}},{"type":"Feature","geometry":{"type":"LineString","coordinates":[[13.31299,46.41122],[13.31344,46.41169],[13.31371,46.41205],[13.31399,46.41258],[13.31418,46.4132]]},"properties":{}},{"type":"Feature","geometry":{"type":"LineString","coordinates":[[13.31418,46.4132],[13.31424,46.41341]]},"properties":{}},{"type":"Feature","geometry":{"type":"LineString","coordinates":[[13.31424,46.41341],[13.3144,46.4139]]},"properties":{}},{"type":"Feature","geometry":{"type":"LineString","coordinates":[[13.3144,46.4139],[13.31442,46.41396]]},"properties":{}},{"type":"Feature","geometry":{"type":"LineString","coordinates":[[13.31442,46.41396],[13.31452,46.41414]]},"properties":{}},{"type":"Feature","geometry":{"type":"LineString","coordinates":[[13.31452,46.41414],[13.31486,46.41458]]},"properties":{}},{"type":"Feature","geometry":{"type":"LineString","coordinates":[[13.31486,46.41458],[13.31547,46.41516],[13.31601,46.41576]]},"properties":{}},{"type":"Feature","geometry":{"type":"LineString","coordinates":[[13.31601,46.41576],[13.31652,46.41628]]},"properties":{}},{"type":"Feature","geometry":{"type":"LineString","coordinates":[[13.31652,46.41628],[13.31702,46.4168]]},"properties":{}},{"type":"Feature","geometry":{"type":"LineString","coordinates":[[13.31702,46.4168],[13.31748,46.41729],[13.31794,46.41772],[13.3195,46.41907]]},"properties":{}},{"type":"Feature","geometry":{"type":"LineString","coordinates":[[13.3195,46.41907],[13.31971,46.41927]]},"properties":{}},{"type":"Feature","geometry":{"type":"LineString","coordinates":[[13.31971,46.41927],[13.31988,46.41941]]},"properties":{}},{"type":"Feature","geometry":{"type":"LineString","coordinates":[[13.31988,46.41941],[13.32019,46.41976]]},"properties":{}},{"type":"Feature","geometry":{"type":"LineString","coordinates":[[13.32019,46.41976],[13.32036,46.42004],[13.32054,46.42048],[13.32065,46.42101],[13.32062,46.42161],[13.32046,46.42212]]},"properties":{}},{"type":"Feature","geometry":{"type":"LineString","coordinates":[[13.32046,46.42212],[13.31995,46.42331]]},"properties":{}},{"type":"Feature","geometry":{"type":"LineString","coordinates":[[13.31995,46.42331],[13.31968,46.42398]]},"properties":{}},{"type":"Feature","geometry":{"type":"LineString","coordinates":[[13.31968,46.42398],[13.31936,46.42472]]},"properties":{}},{"type":"Feature","geometry":{"type":"LineString","coordinates":[[13.31936,46.42472],[13.31879,46.42591]]},"properties":{}},{"type":"Feature","geometry":{"type":"LineString","coordinates":[[13.31879,46.42591],[13.3187,46.42607]]},"properties":{}},{"type":"Feature","geometry":{"type":"LineString","coordinates":[[13.3187,46.42607],[13.31768,46.42782]]},"properties":{}},{"type":"Feature","geometry":{"type":"LineString","coordinates":[[13.31768,46.42782],[13.31723,46.42861]]},"properties":{}},{"type":"Feature","geometry":{"type":"LineString","coordinates":[[13.31723,46.42861],[13.3162,46.43038]]},"properties":{}},{"type":"Feature","geometry":{"type":"LineString","coordinates":[[13.3162,46.43038],[13.31572,46.43121]]},"properties":{}},{"type":"Feature","geometry":{"type":"LineString","coordinates":[[13.31572,46.43121],[13.31559,46.43146]]},"properties":{}},{"type":"Feature","geometry":{"type":"LineString","coordinates":[[13.31559,46.43146],[13.31521,46.43212]]},"properties":{}},{"type":"Feature","geometry":{"type":"LineString","coordinates":[[13.31521,46.43212],[13.31489,46.43269]]},"properties":{}},{"type":"Feature","geometry":{"type":"LineString","coordinates":[[13.31489,46.43269],[13.31443,46.43351]]},"properties":{}},{"type":"Feature","geometry":{"type":"LineString","coordinates":[[13.31443,46.43351],[13.31395,46.43436]]},"properties":{}},{"type":"Feature","geometry":{"type":"LineString","coordinates":[[13.31395,46.43436],[13.31359,46.43507]]},"properties":{}},{"type":"Feature","geometry":{"type":"LineString","coordinates":[[13.31359,46.43507],[13.31321,46.43573]]},"properties":{}},{"type":"Feature","geometry":{"type":"LineString","coordinates":[[13.31321,46.43573],[13.31318,46.43578]]},"properties":{}},{"type":"Feature","geometry":{"type":"LineString","coordinates":[[13.31318,46.43578],[13.31261,46.43678]]},"properties":{}},{"type":"Feature","geometry":{"type":"LineString","coordinates":[[13.28685,46.40165],[13.28857,46.40283]]},"properties":{}},{"type":"Feature","geometry":{"type":"LineString","coordinates":[[13.28857,46.40283],[13.28864,46.40287]]},"properties":{}},{"type":"Feature","geometry":{"type":"LineString","coordinates":[[13.28864,46.40287],[13.28999,46.40387]]},"properties":{}},{"type":"Feature","geometry":{"type":"LineString","coordinates":[[13.28999,46.40387],[13.29141,46.40495]]},"properties":{}},{"type":"Feature","geometry":{"type":"LineString","coordinates":[[13.29141,46.40495],[13.29181,46.40519]]},"properties":{}},{"type":"Feature","geometry":{"type":"LineString","coordinates":[[13.29181,46.40519],[13.29203,46.40529]]},"properties":{}},{"type":"Feature","geometry":{"type":"LineString","coordinates":[[13.29376,46.46633],[13.29346,46.46666]]},"properties":{}},{"type":"Feature","geometry":{"type":"LineString","coordinates":[[13.29346,46.46666],[13.29339,46.46692],[13.29319,46.468],[13.29301,46.46987]]},"properties":{}},{"type":"Feature","geometry":{"type":"LineString","coordinates":[[13.29301,46.46987],[13.29297,46.47029],[13.29273,46.47127]]},"properties":{}},{"type":"Feature","geometry":{"type":"LineString","coordinates":[[13.29273,46.47127],[13.29268,46.47143]]},"properties":{}},{"type":"Feature","geometry":{"type":"LineString","coordinates":[[13.31261,46.43678],[13.31216,46.43755],[13.31193,46.43783]]},"properties":{}},{"type":"Feature","geometry":{"type":"LineString","coordinates":[[13.31193,46.43783],[13.31154,46.43844],[13.31145,46.43865],[13.31138,46.43898]]},"properties":{}},{"type":"Feature","geometry":{"type":"LineString","coordinates":[[13.31138,46.43898],[13.31137,46.43956],[13.31145,46.43989],[13.31162,46.44026],[13.31202,46.44076],[13.31324,46.44186],[13.31482,46.44314]]},"properties":{}},{"type":"Feature","geometry":{"type":"LineString","coordinates":[[13.31482,46.44314],[13.31526,46.44352]]},"properties":{}},{"type":"Feature","geometry":{"type":"LineString","coordinates":[[13.31526,46.44352],[13.31555,46.44381],[13.31712,46.44578]]},"properties":{}},{"type":"Feature","geometry":{"type":"LineString","coordinates":[[13.31712,46.44578],[13.31768,46.44647],[13.31811,46.44723]]},"properties":{}},{"type":"Feature","geometry":{"type":"LineString","coordinates":[[13.31811,46.44723],[13.3183,46.44767],[13.31843,46.44821]]},"properties":{}},{"type":"Feature","geometry":{"type":"LineString","coordinates":[[13.31843,46.44821],[13.31848,46.44885],[13.31847,46.44913],[13.31842,46.44934]]},"properties":{}},{"type":"Feature","geometry":{"type":"LineString","coordinates":[[13.31835,46.44968],[13.31842,46.44934]]},"properties":{}},{"type":"Feature","geometry":{"type":"LineString","coordinates":[[13.31787,46.4503],[13.31794,46.45024],[13.31803,46.44988],[13.31808,46.44978],[13.31818,46.4497],[13.31835,46.44968]]},"properties":{}},{"type":"Feature","geometry":{"type":"LineString","coordinates":[[13.31661,46.45097],[13.31691,46.45118],[13.31725,46.45109],[13.31758,46.45078],[13.31774,46.45058],[13.31787,46.4503]]},"properties":{}},{"type":"Feature","geometry":{"type":"LineString","coordinates":[[13.31708,46.45223],[13.31821,46.45009],[13.31835,46.44968]]},"properties":{}},{"type":"Feature","geometry":{"type":"LineString","coordinates":[[13.31708,46.45223],[13.31697,46.45243]]},"properties":{}},{"type":"Feature","geometry":{"type":"LineString","coordinates":[[13.31697,46.45243],[13.3168,46.45266]]},"properties":{}},{"type":"Feature","geometry":{"type":"LineString","coordinates":[[13.3168,46.45266],[13.31632,46.45316]]},"properties":{}},{"type":"Feature","geometry":{"type":"LineString","coordinates":[[13.31632,46.45316],[13.31616,46.4533]]},"properties":{}},{"type":"Feature","geometry":{"type":"LineString","coordinates":[[13.31616,46.4533],[13.31581,46.45355]]},"properties":{}},{"type":"Feature","geometry":{"type":"LineString","coordinates":[[13.31581,46.45355],[13.31302,46.45538]]},"properties":{}},{"type":"Feature","geometry":{"type":"LineString","coordinates":[[13.31302,46.45538],[13.31268,46.45559]]},"properties":{}},{"type":"Feature","geometry":{"type":"LineString","coordinates":[[13.31268,46.45559],[13.31197,46.45593],[13.31057,46.45638]]},"properties":{}},{"type":"Feature","geometry":{"type":"LineString","coordinates":[[13.31057,46.45638],[13.30983,46.45661]]},"properties":{}},{"type":"Feature","geometry":{"type":"LineString","coordinates":[[13.30983,46.45661],[13.30899,46.45688],[13.30843,46.45712],[13.30732,46.45767]]},"properties":{}},{"type":"Feature","geometry":{"type":"LineString","coordinates":[[13.30732,46.45767],[13.30673,46.45798]]},"properties":{}},{"type":"Feature","geometry":{"type":"LineString","coordinates":[[13.30673,46.45798],[13.30529,46.45871],[13.3047,46.45911]]},"properties":{}},{"type":"Feature","geometry":{"type":"LineString","coordinates":[[13.3047,46.45911],[13.30372,46.45989],[13.30321,46.46016]]},"properties":{}},{"type":"Feature","geometry":{"type":"LineString","coordinates":[[13.30321,46.46016],[13.3027,46.46037],[13.30235,46.46047],[13.30197,46.46055],[13.30091,46.46064]]},"properties":{}},{"type":"Feature","geometry":{"type":"LineString","coordinates":[[13.30091,46.46064],[13.30077,46.46064]]},"properties":{}},{"type":"Feature","geometry":{"type":"LineString","coordinates":[[13.30077,46.46064],[13.30057,46.46064]]},"properties":{}},{"type":"Feature","geometry":{"type":"LineString","coordinates":[[13.30057,46.46064],[13.29973,46.46072]]},"properties":{}},{"type":"Feature","geometry":{"type":"LineString","coordinates":[[13.29973,46.46072],[13.2988,46.46096],[13.2984,46.46111],[13.29788,46.46137]]},"properties":{}},{"type":"Feature","geometry":{"type":"LineString","coordinates":[[13.29788,46.46137],[13.29739,46.46172]]},"properties":{}},{"type":"Feature","geometry":{"type":"LineString","coordinates":[[13.29739,46.46172],[13.29708,46.46198],[13.29678,46.46232]]},"properties":{}},{"type":"Feature","geometry":{"type":"LineString","coordinates":[[13.29678,46.46232],[13.29602,46.46388],[13.29559,46.46472],[13.29542,46.46496],[13.29518,46.4652]]},"properties":{}},{"type":"Feature","geometry":{"type":"LineString","coordinates":[[13.29518,46.4652],[13.29514,46.46523]]},"properties":{}},{"type":"Feature","geometry":{"type":"LineString","coordinates":[[13.29514,46.46523],[13.29483,46.4655]]},"properties":{}},{"type":"Feature","geometry":{"type":"LineString","coordinates":[[13.29483,46.4655],[13.29413,46.46602]]},"properties":{}},{"type":"Feature","geometry":{"type":"LineString","coordinates":[[13.29413,46.46602],[13.29376,46.46633]]},"properties":{}},{"type":"Feature","geometry":{"type":"LineString","coordinates":[[13.29395,46.47652],[13.29379,46.4763]]},"properties":{}},{"type":"Feature","geometry":{"type":"LineString","coordinates":[[13.29395,46.47652],[13.29429,46.47696]]},"properties":{}},{"type":"Feature","geometry":{"type":"LineString","coordinates":[[13.29429,46.47696],[13.29446,46.47714]]},"properties":{}},{"type":"Feature","geometry":{"type":"LineString","coordinates":[[13.29268,46.47143],[13.2926,46.47175]]},"properties":{}},{"type":"Feature","geometry":{"type":"LineString","coordinates":[[13.2926,46.47175],[13.29256,46.47192]]},"properties":{}},{"type":"Feature","geometry":{"type":"LineString","coordinates":[[13.29256,46.47192],[13.29253,46.47203]]},"properties":{}},{"type":"Feature","geometry":{"type":"LineString","coordinates":[[13.29253,46.47203],[13.29235,46.47271],[13.29228,46.47311],[13.29228,46.47388]]},"properties":{}},{"type":"Feature","geometry":{"type":"LineString","coordinates":[[13.29228,46.47388],[13.29233,46.47404]]},"properties":{}},{"type":"Feature","geometry":{"type":"LineString","coordinates":[[13.29233,46.47404],[13.29244,46.47429]]},"properties":{}},{"type":"Feature","geometry":{"type":"LineString","coordinates":[[13.29244,46.47429],[13.29248,46.47436]]},"properties":{}},{"type":"Feature","geometry":{"type":"LineString","coordinates":[[13.29248,46.47436],[13.29253,46.47445]]},"properties":{}},{"type":"Feature","geometry":{"type":"LineString","coordinates":[[13.29331,46.47559],[13.29253,46.47445]]},"properties":{}},{"type":"Feature","geometry":{"type":"LineString","coordinates":[[13.29334,46.47564],[13.29331,46.47559]]},"properties":{}},{"type":"Feature","geometry":{"type":"LineString","coordinates":[[13.2934,46.47572],[13.29334,46.47564]]},"properties":{}},{"type":"Feature","geometry":{"type":"LineString","coordinates":[[13.29343,46.47577],[13.2934,46.47572]]},"properties":{}},{"type":"Feature","geometry":{"type":"LineString","coordinates":[[13.29379,46.4763],[13.29343,46.47577]]},"properties":{}},{"type":"Feature","geometry":{"type":"LineString","coordinates":[[13.29446,46.47714],[13.29465,46.47735]]},"properties":{}},{"type":"Feature","geometry":{"type":"LineString","coordinates":[[13.29465,46.47735],[13.29484,46.47755]]},"properties":{}},{"type":"Feature","geometry":{"type":"LineString","coordinates":[[13.29512,46.47786],[13.29484,46.47755]]},"properties":{}},{"type":"Feature","geometry":{"type":"LineString","coordinates":[[13.2952,46.47795],[13.29512,46.47786]]},"properties":{}},{"type":"Feature","geometry":{"type":"LineString","coordinates":[[13.29533,46.47795],[13.29551,46.47823],[13.29549,46.47832]]},"properties":{}},{"type":"Feature","geometry":{"type":"LineString","coordinates":[[13.29715,46.48003],[13.29666,46.47958],[13.29529,46.47811],[13.2952,46.47795]]},"properties":{}},{"type":"Feature","geometry":{"type":"LineString","coordinates":[[13.29713,46.47988],[13.29706,46.47992]]},"properties":{}},{"type":"Feature","geometry":{"type":"LineString","coordinates":[[13.29706,46.47992],[13.29697,46.47997]]},"properties":{}},{"type":"Feature","geometry":{"type":"LineString","coordinates":[[13.29697,46.47997],[13.29697,46.48]]},"properties":{}},{"type":"Feature","geometry":{"type":"LineString","coordinates":[[13.29705,46.48006],[13.29715,46.48003]]},"properties":{}},{"type":"Feature","geometry":{"type":"LineString","coordinates":[[13.29715,46.48003],[13.29752,46.4803],[13.29809,46.48079],[13.29838,46.48112],[13.29866,46.48158],[13.29883,46.48202],[13.29905,46.48275],[13.29952,46.4845],[13.29953,46.48496],[13.29949,46.48529]]},"properties":{}},{"type":"Feature","geometry":{"type":"LineString","coordinates":[[13.29949,46.48529],[13.2993,46.48651]]},"properties":{}},{"type":"Feature","geometry":{"type":"LineString","coordinates":[[13.2993,46.48651],[13.29915,46.48761],[13.29906,46.48802],[13.29834,46.48958],[13.29829,46.48981],[13.29826,46.4902]]},"properties":{}},{"type":"Feature","geometry":{"type":"LineString","coordinates":[[13.29826,46.4902],[13.29833,46.49058]]},"properties":{}},{"type":"Feature","geometry":{"type":"LineString","coordinates":[[13.29833,46.49058],[13.29841,46.49084],[13.29872,46.49147]]},"properties":{}},{"type":"Feature","geometry":{"type":"LineString","coordinates":[[13.29872,46.49147],[13.29873,46.49149]]},"properties":{}},{"type":"Feature","geometry":{"type":"LineString","coordinates":[[13.29872,46.49147],[13.29881,46.49146],[13.29936,46.4918],[13.29967,46.49223],[13.29981,46.49256],[13.30031,46.49331],[13.30042,46.49335]]},"properties":{}},{"type":"Feature","geometry":{"type":"LineString","coordinates":[[13.29907,46.49737],[13.29906,46.49721],[13.29913,46.49673],[13.2994,46.49565],[13.29943,46.49466],[13.29939,46.4937],[13.29936,46.49347],[13.29916,46.49274],[13.29873,46.49149]]},"properties":{}},{"type":"Feature","geometry":{"type":"LineString","coordinates":[[13.29934,46.49804],[13.29921,46.4978],[13.29907,46.49737]]},"properties":{}},{"type":"Feature","geometry":{"type":"LineString","coordinates":[[13.29972,46.49831],[13.29934,46.49804]]},"properties":{}},{"type":"Feature","geometry":{"type":"LineString","coordinates":[[13.29981,46.4984],[13.29972,46.49831]]},"properties":{}},{"type":"Feature","geometry":{"type":"LineString","coordinates":[[13.29996,46.49853],[13.2999,46.49851],[13.29981,46.4984]]},"properties":{}}]}