{"type":"FeatureCollection","features":[{"type":"Feature","geometry":{"type":"LineString","coordinates":[[13.432,45.682],[13.43193,45.68195]]},"properties":{}},{"type":"Feature","geometry":{"type":"LineString","coordinates":[[13.43185,45.68227],[13.43193,45.68195]]},"properties":{}},{"type":"Feature","geometry":{"type":"LineString","coordinates":[[13.43185,45.68227],[13.43183,45.68253]]},"properties":{}},{"type":"Feature","geometry":{"type":"LineString","coordinates":[[13.43148,45.68256],[13.43155,45.6825],[13.43165,45.68247]]},"properties":{}},{"type":"Feature","geometry":{"type":"LineString","coordinates":[[13.43148,45.68267],[13.43097,45.68249]]},"properties":{}},{"type":"Feature","geometry":{"type":"LineString","coordinates":[[13.3948,45.67737],[13.39485,45.67738]]},"properties":{}},{"type":"Feature","geometry":{"type":"LineString","coordinates":[[13.39732,45.67739],[13.39752,45.67742]]},"properties":{}},{"type":"Feature","geometry":{"type":"LineString","coordinates":[[13.38738,45.67791],[13.38837,45.67699]]},"properties":{}},{"type":"Feature","geometry":{"type":"LineString","coordinates":[[13.39752,45.67742],[13.39822,45.6775]]},"properties":{}},{"type":"Feature","geometry":{"type":"LineString","coordinates":[[13.38909,45.67735],[13.38883,45.67727],[13.3884,45.67704],[13.38745,45.67788],[13.38738,45.67791]]},"properties":{}},{"type":"Feature","geometry":{"type":"LineString","coordinates":[[13.42314,45.67764],[13.42582,45.67736]]},"properties":{}},{"type":"Feature","geometry":{"type":"LineString","coordinates":[[13.39822,45.6775],[13.40013,45.67773]]},"properties":{}},{"type":"Feature","geometry":{"type":"LineString","coordinates":[[13.39492,45.67735],[13.39485,45.67738],[13.39465,45.67799],[13.3946,45.67798]]},"properties":{}},{"type":"Feature","geometry":{"type":"LineString","coordinates":[[13.3946,45.67798],[13.38909,45.67735]]},"properties":{}},{"type":"Feature","geometry":{"type":"LineString","coordinates":[[13.40143,45.67785],[13.40117,45.67785],[13.40013,45.67773]]},"properties":{}},{"type":"Feature","geometry":{"type":"LineString","coordinates":[[13.4014,45.67789],[13.4014,45.67785]]},"properties":{}},{"type":"Feature","geometry":{"type":"LineString","coordinates":[[13.39461,45.67795],[13.3946,45.67798]]},"properties":{}},{"type":"Feature","geometry":{"type":"LineString","coordinates":[[13.40137,45.67794],[13.40135,45.678]]},"properties":{}},{"type":"Feature","geometry":{"type":"LineString","coordinates":[[13.39802,45.67879],[13.39492,45.67735]]},"properties":{}},{"type":"Feature","geometry":{"type":"LineString","coordinates":[[13.4058,45.67809],[13.40524,45.67828],[13.40506,45.67829],[13.40137,45.67794]]},"properties":{}},{"type":"Feature","geometry":{"type":"LineString","coordinates":[[13.39485,45.67738],[13.39808,45.67887]]},"properties":{}},{"type":"Feature","geometry":{"type":"LineString","coordinates":[[13.40984,45.67842],[13.40978,45.67839],[13.40585,45.67815],[13.40576,45.67804],[13.40511,45.67823],[13.40146,45.67789],[13.4014,45.67789],[13.40137,45.67794]]},"properties":{}},{"type":"Feature","geometry":{"type":"LineString","coordinates":[[13.39044,45.67816],[13.39057,45.67817]]},"properties":{}},{"type":"Feature","geometry":{"type":"LineString","coordinates":[[13.40998,45.67837],[13.40985,45.67834],[13.4058,45.67809]]},"properties":{}},{"type":"Feature","geometry":{"type":"LineString","coordinates":[[13.3903,45.67802],[13.39449,45.67852]]},"properties":{}},{"type":"Feature","geometry":{"type":"LineString","coordinates":[[13.38837,45.67699],[13.38884,45.67725],[13.3891,45.67732]]},"properties":{}},{"type":"Feature","geometry":{"type":"LineString","coordinates":[[13.38877,45.67858],[13.38951,45.67816],[13.3899,45.67806],[13.3903,45.67802]]},"properties":{}},{"type":"Feature","geometry":{"type":"LineString","coordinates":[[13.41005,45.67855],[13.41009,45.67852],[13.41016,45.67821]]},"properties":{}},{"type":"Feature","geometry":{"type":"LineString","coordinates":[[13.40996,45.67849],[13.40984,45.67842]]},"properties":{}},{"type":"Feature","geometry":{"type":"LineString","coordinates":[[13.41005,45.67855],[13.40996,45.67849]]},"properties":{}},{"type":"Feature","geometry":{"type":"LineString","coordinates":[[13.40135,45.678],[13.40117,45.67834],[13.4012,45.67843],[13.4009,45.67899],[13.40079,45.67903],[13.40033,45.67902]]},"properties":{}},{"type":"Feature","geometry":{"type":"LineString","coordinates":[[13.38832,45.67898],[13.38867,45.67878],[13.38871,45.67868],[13.3889,45.67857],[13.3891,45.67853],[13.3896,45.67826],[13.39013,45.67814],[13.39044,45.67816]]},"properties":{}},{"type":"Feature","geometry":{"type":"LineString","coordinates":[[13.39664,45.6793],[13.39628,45.67918],[13.39574,45.67895],[13.39473,45.67865],[13.39428,45.67859],[13.39411,45.6786],[13.39057,45.67817]]},"properties":{}},{"type":"Feature","geometry":{"type":"LineString","coordinates":[[13.3882,45.67893],[13.38834,45.6788],[13.38877,45.67858]]},"properties":{}},{"type":"Feature","geometry":{"type":"LineString","coordinates":[[13.38877,45.67858],[13.38842,45.67884],[13.38829,45.67897],[13.38825,45.67909]]},"properties":{}},{"type":"Feature","geometry":{"type":"LineString","coordinates":[[13.38784,45.67891],[13.38792,45.67895]]},"properties":{}},{"type":"Feature","geometry":{"type":"LineString","coordinates":[[13.38817,45.67892],[13.3882,45.67893]]},"properties":{}},{"type":"Feature","geometry":{"type":"LineString","coordinates":[[13.38792,45.67895],[13.38817,45.67892]]},"properties":{}},{"type":"Feature","geometry":{"type":"LineString","coordinates":[[13.40014,45.67909],[13.39958,45.67906],[13.39899,45.67898],[13.39802,45.67879]]},"properties":{}},{"type":"Feature","geometry":{"type":"LineString","coordinates":[[13.3882,45.67893],[13.38832,45.67898]]},"properties":{}},{"type":"Feature","geometry":{"type":"LineString","coordinates":[[13.3881,45.67901],[13.3882,45.67893]]},"properties":{}},{"type":"Feature","geometry":{"type":"LineString","coordinates":[[13.38792,45.67895],[13.38805,45.67901]]},"properties":{}},{"type":"Feature","geometry":{"type":"LineString","coordinates":[[13.41281,45.67946],[13.41276,45.67942],[13.40939,45.67922],[13.40933,45.67919],[13.40935,45.6791],[13.41005,45.67855]]},"properties":{}},{"type":"Feature","geometry":{"type":"LineString","coordinates":[[13.39808,45.67887],[13.39896,45.67901],[13.40014,45.67915]]},"properties":{}},{"type":"Feature","geometry":{"type":"LineString","coordinates":[[13.38805,45.67901],[13.3881,45.67901]]},"properties":{}},{"type":"Feature","geometry":{"type":"LineString","coordinates":[[13.38794,45.67907],[13.38788,45.67897]]},"properties":{}},{"type":"Feature","geometry":{"type":"LineString","coordinates":[[13.40033,45.67902],[13.40022,45.67902]]},"properties":{}},{"type":"Feature","geometry":{"type":"LineString","coordinates":[[13.38794,45.67907],[13.38805,45.67901]]},"properties":{}},{"type":"Feature","geometry":{"type":"LineString","coordinates":[[13.40998,45.67837],[13.40999,45.67843],[13.40996,45.67849],[13.40899,45.67927],[13.40833,45.67972]]},"properties":{}},{"type":"Feature","geometry":{"type":"LineString","coordinates":[[13.3881,45.67901],[13.38825,45.67909]]},"properties":{}},{"type":"Feature","geometry":{"type":"LineString","coordinates":[[13.40022,45.67902],[13.40014,45.67909]]},"properties":{}},{"type":"Feature","geometry":{"type":"LineString","coordinates":[[13.38832,45.67898],[13.38831,45.6791],[13.38839,45.6792]]},"properties":{}},{"type":"Feature","geometry":{"type":"LineString","coordinates":[[13.38825,45.67909],[13.38826,45.67913]]},"properties":{}},{"type":"Feature","geometry":{"type":"LineString","coordinates":[[13.38792,45.6793],[13.38785,45.67915],[13.38786,45.67899],[13.38792,45.67895]]},"properties":{}},{"type":"Feature","geometry":{"type":"LineString","coordinates":[[13.38794,45.6792],[13.38791,45.67914],[13.38794,45.67907]]},"properties":{}},{"type":"Feature","geometry":{"type":"LineString","coordinates":[[13.3897,45.67958],[13.38991,45.67871]]},"properties":{}},{"type":"Feature","geometry":{"type":"LineString","coordinates":[[13.40927,45.67904],[13.40926,45.67918],[13.40938,45.67928]]},"properties":{}},{"type":"Feature","geometry":{"type":"LineString","coordinates":[[13.38826,45.67913],[13.3882,45.67922]]},"properties":{}},{"type":"Feature","geometry":{"type":"LineString","coordinates":[[13.38826,45.67913],[13.38836,45.67924]]},"properties":{}},{"type":"Feature","geometry":{"type":"LineString","coordinates":[[13.38839,45.6792],[13.38841,45.67921]]},"properties":{}},{"type":"Feature","geometry":{"type":"LineString","coordinates":[[13.38815,45.67924],[13.38803,45.67925],[13.38794,45.6792]]},"properties":{}},{"type":"Feature","geometry":{"type":"LineString","coordinates":[[13.3882,45.67922],[13.38815,45.67924]]},"properties":{}},{"type":"Feature","geometry":{"type":"LineString","coordinates":[[13.38839,45.6792],[13.38833,45.67928]]},"properties":{}},{"type":"Feature","geometry":{"type":"LineString","coordinates":[[13.38796,45.67934],[13.38794,45.6792]]},"properties":{}},{"type":"Feature","geometry":{"type":"LineString","coordinates":[[13.38834,45.67929],[13.38833,45.67928]]},"properties":{}},{"type":"Feature","geometry":{"type":"LineString","coordinates":[[13.38833,45.67928],[13.38816,45.6793]]},"properties":{}},{"type":"Feature","geometry":{"type":"LineString","coordinates":[[13.38815,45.67924],[13.38805,45.67935]]},"properties":{}},{"type":"Feature","geometry":{"type":"LineString","coordinates":[[13.38841,45.67921],[13.3887,45.6794]]},"properties":{}},{"type":"Feature","geometry":{"type":"LineString","coordinates":[[13.38796,45.67934],[13.38791,45.67933],[13.38792,45.6793]]},"properties":{}},{"type":"Feature","geometry":{"type":"LineString","coordinates":[[13.38816,45.6793],[13.3881,45.67936]]},"properties":{}},{"type":"Feature","geometry":{"type":"LineString","coordinates":[[13.38796,45.67934],[13.38805,45.67935]]},"properties":{}},{"type":"Feature","geometry":{"type":"LineString","coordinates":[[13.38813,45.6794],[13.38816,45.6793]]},"properties":{}},{"type":"Feature","geometry":{"type":"LineString","coordinates":[[13.3881,45.67936],[13.38805,45.67935]]},"properties":{}},{"type":"Feature","geometry":{"type":"LineString","coordinates":[[13.38991,45.67871],[13.39019,45.67862],[13.39306,45.679],[13.39443,45.67926],[13.39521,45.67949],[13.39534,45.6796],[13.39539,45.67966],[13.39541,45.67985],[13.39537,45.67998],[13.39529,45.6801]]},"properties":{}},{"type":"Feature","geometry":{"type":"LineString","coordinates":[[13.41275,45.67945],[13.40922,45.67927]]},"properties":{}},{"type":"Feature","geometry":{"type":"LineString","coordinates":[[13.38867,45.67946],[13.38834,45.67929]]},"properties":{}},{"type":"Feature","geometry":{"type":"LineString","coordinates":[[13.38972,45.67947],[13.38986,45.67948],[13.39025,45.67937],[13.39072,45.67933]]},"properties":{}},{"type":"Feature","geometry":{"type":"LineString","coordinates":[[13.3887,45.6794],[13.38881,45.67945]]},"properties":{}},{"type":"Feature","geometry":{"type":"LineString","coordinates":[[13.39449,45.67852],[13.39508,45.67863],[13.39589,45.67892],[13.39903,45.68035]]},"properties":{}},{"type":"Feature","geometry":{"type":"LineString","coordinates":[[13.39072,45.67933],[13.39107,45.67937],[13.39162,45.67956]]},"properties":{}},{"type":"Feature","geometry":{"type":"LineString","coordinates":[[13.38875,45.6795],[13.38867,45.67946]]},"properties":{}},{"type":"Feature","geometry":{"type":"LineString","coordinates":[[13.38805,45.67935],[13.38803,45.67963]]},"properties":{}},{"type":"Feature","geometry":{"type":"LineString","coordinates":[[13.39747,45.67969],[13.39664,45.6793]]},"properties":{}},{"type":"Feature","geometry":{"type":"LineString","coordinates":[[13.3881,45.67967],[13.38813,45.6794]]},"properties":{}},{"type":"Feature","geometry":{"type":"LineString","coordinates":[[13.38683,45.67998],[13.38655,45.67956]]},"properties":{}},{"type":"Feature","geometry":{"type":"LineString","coordinates":[[13.38706,45.6796],[13.38683,45.67998]]},"properties":{}},{"type":"Feature","geometry":{"type":"LineString","coordinates":[[13.39206,45.67984],[13.39172,45.68019],[13.39146,45.68006],[13.39113,45.68004]]},"properties":{}},{"type":"Feature","geometry":{"type":"LineString","coordinates":[[13.3809,45.68013],[13.38154,45.68017]]},"properties":{}},{"type":"Feature","geometry":{"type":"LineString","coordinates":[[13.42438,45.6804],[13.42457,45.68032],[13.42465,45.68024]]},"properties":{}},{"type":"Feature","geometry":{"type":"LineString","coordinates":[[13.42421,45.68039],[13.42438,45.6804]]},"properties":{}},{"type":"Feature","geometry":{"type":"LineString","coordinates":[[13.38803,45.67963],[13.38787,45.68104],[13.38781,45.68113],[13.38772,45.6812]]},"properties":{}},{"type":"Feature","geometry":{"type":"LineString","coordinates":[[13.39903,45.68035],[13.39951,45.68058],[13.39973,45.68064]]},"properties":{}},{"type":"Feature","geometry":{"type":"LineString","coordinates":[[13.38154,45.68012],[13.38098,45.68008],[13.38076,45.68011],[13.37707,45.68152],[13.3771,45.68156]]},"properties":{}},{"type":"Feature","geometry":{"type":"LineString","coordinates":[[13.39973,45.68064],[13.40274,45.68105]]},"properties":{}},{"type":"Feature","geometry":{"type":"LineString","coordinates":[[13.39529,45.6801],[13.39391,45.68159]]},"properties":{}},{"type":"Feature","geometry":{"type":"LineString","coordinates":[[13.42458,45.68021],[13.42441,45.68033],[13.42315,45.68033],[13.42206,45.68047],[13.42093,45.68074],[13.41763,45.68163],[13.41744,45.68161],[13.4171,45.68142],[13.41695,45.68137]]},"properties":{}},{"type":"Feature","geometry":{"type":"LineString","coordinates":[[13.39747,45.67969],[13.39793,45.6799],[13.39811,45.68003],[13.39944,45.68063],[13.40252,45.68105],[13.40283,45.68113],[13.40646,45.68281]]},"properties":{}},{"type":"Feature","geometry":{"type":"LineString","coordinates":[[13.4065,45.68284],[13.40282,45.68116],[13.40248,45.68108],[13.39943,45.68066],[13.39805,45.68004],[13.39785,45.67989],[13.39747,45.67969]]},"properties":{}},{"type":"Feature","geometry":{"type":"LineString","coordinates":[[13.41555,45.68227],[13.42149,45.68066],[13.42208,45.68053],[13.42316,45.6804],[13.42421,45.68039]]},"properties":{}},{"type":"Feature","geometry":{"type":"LineString","coordinates":[[13.38764,45.68133],[13.38737,45.68146],[13.38729,45.68152],[13.38725,45.68178],[13.38718,45.68185],[13.38708,45.6819],[13.38693,45.6819]]},"properties":{}},{"type":"Feature","geometry":{"type":"LineString","coordinates":[[13.39391,45.68159],[13.39373,45.68176]]},"properties":{}},{"type":"Feature","geometry":{"type":"LineString","coordinates":[[13.40274,45.68105],[13.40635,45.6827]]},"properties":{}},{"type":"Feature","geometry":{"type":"LineString","coordinates":[[13.41641,45.68202],[13.4166,45.6818]]},"properties":{}},{"type":"Feature","geometry":{"type":"LineString","coordinates":[[13.39373,45.68176],[13.39335,45.68214],[13.39316,45.68221],[13.39292,45.68225],[13.39226,45.68214],[13.39149,45.68196]]},"properties":{}},{"type":"Feature","geometry":{"type":"LineString","coordinates":[[13.41515,45.68237],[13.41555,45.68227]]},"properties":{}},{"type":"Feature","geometry":{"type":"LineString","coordinates":[[13.41555,45.68227],[13.4153,45.68248]]},"properties":{}},{"type":"Feature","geometry":{"type":"LineString","coordinates":[[13.41503,45.6824],[13.41515,45.68237]]},"properties":{}},{"type":"Feature","geometry":{"type":"LineString","coordinates":[[13.41515,45.68237],[13.41525,45.6824],[13.4153,45.68248]]},"properties":{}},{"type":"Feature","geometry":{"type":"LineString","coordinates":[[13.41466,45.68249],[13.41503,45.6824]]},"properties":{}},{"type":"Feature","geometry":{"type":"LineString","coordinates":[[13.415,45.68253],[13.41499,45.68246],[13.41503,45.6824]]},"properties":{}},{"type":"Feature","geometry":{"type":"LineString","coordinates":[[13.40671,45.68273],[13.40685,45.68263],[13.40714,45.6823],[13.40737,45.68226]]},"properties":{}},{"type":"Feature","geometry":{"type":"LineString","coordinates":[[13.415,45.68253],[13.41466,45.68249]]},"properties":{}},{"type":"Feature","geometry":{"type":"LineString","coordinates":[[13.4153,45.68248],[13.41527,45.68254]]},"properties":{}},{"type":"Feature","geometry":{"type":"LineString","coordinates":[[13.40737,45.68226],[13.40698,45.68264],[13.40691,45.68279]]},"properties":{}},{"type":"Feature","geometry":{"type":"LineString","coordinates":[[13.41514,45.68259],[13.415,45.68253]]},"properties":{}},{"type":"Feature","geometry":{"type":"LineString","coordinates":[[13.41527,45.68254],[13.41514,45.68259]]},"properties":{}},{"type":"Feature","geometry":{"type":"LineString","coordinates":[[13.4166,45.6818],[13.41621,45.68201],[13.4138,45.68264],[13.4114,45.68322],[13.41041,45.68341],[13.40961,45.68346]]},"properties":{}},{"type":"Feature","geometry":{"type":"LineString","coordinates":[[13.41527,45.68254],[13.41533,45.68274]]},"properties":{}},{"type":"Feature","geometry":{"type":"LineString","coordinates":[[13.41533,45.68274],[13.41514,45.68259]]},"properties":{}},{"type":"Feature","geometry":{"type":"LineString","coordinates":[[13.40635,45.6827],[13.40667,45.68275]]},"properties":{}},{"type":"Feature","geometry":{"type":"LineString","coordinates":[[13.40667,45.68275],[13.40671,45.68273]]},"properties":{}},{"type":"Feature","geometry":{"type":"LineString","coordinates":[[13.40671,45.68273],[13.40683,45.68273],[13.40691,45.68279]]},"properties":{}},{"type":"Feature","geometry":{"type":"LineString","coordinates":[[13.40704,45.68291],[13.40707,45.68285],[13.40707,45.68276],[13.40701,45.68268],[13.40691,45.68263],[13.40666,45.68262],[13.4065,45.68273]]},"properties":{}},{"type":"Feature","geometry":{"type":"LineString","coordinates":[[13.4065,45.68273],[13.40646,45.68281]]},"properties":{}},{"type":"Feature","geometry":{"type":"LineString","coordinates":[[13.40663,45.68286],[13.40635,45.6827]]},"properties":{}},{"type":"Feature","geometry":{"type":"LineString","coordinates":[[13.40663,45.68284],[13.40667,45.68275]]},"properties":{}},{"type":"Feature","geometry":{"type":"LineString","coordinates":[[13.40691,45.68279],[13.40692,45.68283]]},"properties":{}},{"type":"Feature","geometry":{"type":"LineString","coordinates":[[13.40646,45.68281],[13.4065,45.68284]]},"properties":{}},{"type":"Feature","geometry":{"type":"LineString","coordinates":[[13.40663,45.68286],[13.40663,45.68284]]},"properties":{}},{"type":"Feature","geometry":{"type":"LineString","coordinates":[[13.40664,45.68288],[13.40663,45.68286]]},"properties":{}},{"type":"Feature","geometry":{"type":"LineString","coordinates":[[13.40692,45.68283],[13.40688,45.6829],[13.40678,45.68293]]},"properties":{}},{"type":"Feature","geometry":{"type":"LineString","coordinates":[[13.40676,45.68293],[13.40664,45.68288]]},"properties":{}},{"type":"Feature","geometry":{"type":"LineString","coordinates":[[13.40703,45.68293],[13.40704,45.68291]]},"properties":{}},{"type":"Feature","geometry":{"type":"LineString","coordinates":[[13.40678,45.68293],[13.40676,45.68293]]},"properties":{}},{"type":"Feature","geometry":{"type":"LineString","coordinates":[[13.4065,45.68284],[13.40659,45.68298],[13.40673,45.68303],[13.40694,45.683],[13.40703,45.68293]]},"properties":{}},{"type":"Feature","geometry":{"type":"LineString","coordinates":[[13.40692,45.68283],[13.40712,45.68307]]},"properties":{}},{"type":"Feature","geometry":{"type":"LineString","coordinates":[[13.40676,45.68293],[13.4066,45.68301]]},"properties":{}},{"type":"Feature","geometry":{"type":"LineString","coordinates":[[13.40712,45.68307],[13.40678,45.68293]]},"properties":{}},{"type":"Feature","geometry":{"type":"LineString","coordinates":[[13.40712,45.68307],[13.40783,45.68331],[13.40869,45.68348],[13.40945,45.68354],[13.41016,45.68352],[13.41062,45.68347],[13.41103,45.68338],[13.41466,45.68249]]},"properties":{}},{"type":"Feature","geometry":{"type":"LineString","coordinates":[[13.40961,45.68346],[13.40905,45.68344],[13.40827,45.68333],[13.40766,45.68317],[13.40703,45.68293]]},"properties":{}},{"type":"Feature","geometry":{"type":"LineString","coordinates":[[13.38631,45.68378],[13.38637,45.68377],[13.38641,45.68346],[13.38635,45.68345]]},"properties":{}},{"type":"Feature","geometry":{"type":"LineString","coordinates":[[13.38635,45.68345],[13.3863,45.68346],[13.38626,45.68376],[13.38631,45.68378]]},"properties":{}},{"type":"Feature","geometry":{"type":"LineString","coordinates":[[13.38512,45.68672],[13.38508,45.68666]]},"properties":{}},{"type":"Feature","geometry":{"type":"LineString","coordinates":[[13.38508,45.68666],[13.38498,45.6869],[13.38486,45.68771]]},"properties":{}},{"type":"Feature","geometry":{"type":"LineString","coordinates":[[13.38477,45.68889],[13.38488,45.68827],[13.38503,45.68702],[13.38512,45.68672]]},"properties":{}},{"type":"Feature","geometry":{"type":"LineString","coordinates":[[13.38468,45.6896],[13.38477,45.68889]]},"properties":{}},{"type":"Feature","geometry":{"type":"LineString","coordinates":[[13.43183,45.68253],[13.43187,45.68259],[13.43186,45.68267]]},"properties":{}},{"type":"Feature","geometry":{"type":"LineString","coordinates":[[13.43186,45.68267],[13.43202,45.68282],[13.43269,45.68322]]},"properties":{}},{"type":"Feature","geometry":{"type":"LineString","coordinates":[[13.44646,45.69067],[13.44648,45.69064],[13.44624,45.69027],[13.4461,45.69018],[13.43958,45.68726],[13.43837,45.68666],[13.43794,45.68638],[13.4376,45.68608],[13.43696,45.68562],[13.4364,45.68508],[13.4357,45.68456],[13.43511,45.68423],[13.43299,45.68325],[13.43204,45.68268],[13.43194,45.6826],[13.4319,45.68251],[13.432,45.68216],[13.432,45.682]]},"properties":{}},{"type":"Feature","geometry":{"type":"LineString","coordinates":[[13.43269,45.68322],[13.43491,45.68423],[13.43562,45.68462],[13.4362,45.68503],[13.43648,45.68527],[13.43725,45.68609],[13.4376,45.6864],[13.43793,45.68663],[13.43831,45.68685],[13.44007,45.68768],[13.44514,45.68997],[13.44561,45.6902],[13.44583,45.69035],[13.44608,45.69056]]},"properties":{}},{"type":"Feature","geometry":{"type":"LineString","coordinates":[[13.44608,45.69056],[13.44622,45.6907]]},"properties":{}},{"type":"Feature","geometry":{"type":"LineString","coordinates":[[13.44638,45.69072],[13.44646,45.69067]]},"properties":{}},{"type":"Feature","geometry":{"type":"LineString","coordinates":[[13.44622,45.6907],[13.44627,45.6908]]},"properties":{}},{"type":"Feature","geometry":{"type":"LineString","coordinates":[[13.44605,45.69098],[13.4461,45.69083],[13.44608,45.69056]]},"properties":{}},{"type":"Feature","geometry":{"type":"LineString","coordinates":[[13.44627,45.6908],[13.44639,45.69103]]},"properties":{}},{"type":"Feature","geometry":{"type":"LineString","coordinates":[[13.44639,45.69103],[13.4462,45.69096],[13.44605,45.69098]]},"properties":{}},{"type":"Feature","geometry":{"type":"LineString","coordinates":[[13.45027,45.69398],[13.44723,45.69196],[13.4469,45.6916],[13.44637,45.69078],[13.44638,45.69072]]},"properties":{}},{"type":"Feature","geometry":{"type":"LineString","coordinates":[[13.44639,45.69103],[13.4467,45.69158],[13.44697,45.6919],[13.44715,45.69205],[13.45201,45.69517],[13.45891,45.69844],[13.45957,45.69877],[13.4602,45.69915],[13.46063,45.69949],[13.46102,45.69988],[13.46247,45.70151],[13.46286,45.70201],[13.46317,45.70258],[13.46338,45.70306],[13.46355,45.70379],[13.46358,45.70433]]},"properties":{}},{"type":"Feature","geometry":{"type":"LineString","coordinates":[[13.46183,45.70955],[13.46247,45.70809],[13.46258,45.70798],[13.46275,45.70791],[13.46272,45.70777],[13.46261,45.70771],[13.46262,45.70764],[13.46341,45.70571],[13.46357,45.70513],[13.4636,45.7051],[13.46371,45.70509],[13.46397,45.70484],[13.46377,45.7047],[13.46369,45.70459],[13.46362,45.70367],[13.46352,45.70321],[13.46337,45.70278],[13.4631,45.70224],[13.46275,45.7017],[13.46111,45.69986],[13.46063,45.69939],[13.46003,45.69895],[13.45971,45.69875],[13.45792,45.69789],[13.45781,45.69777],[13.45782,45.69771],[13.45791,45.69762],[13.45775,45.69754],[13.4576,45.69764],[13.45749,45.69765],[13.45688,45.6974],[13.4556,45.6968],[13.45554,45.69674],[13.45559,45.69666],[13.45539,45.69645],[13.45511,45.69649],[13.45495,45.69646],[13.45445,45.69626],[13.45398,45.69604],[13.45375,45.69589],[13.45347,45.6958],[13.45232,45.69525],[13.45225,45.69514],[13.45226,45.6949],[13.45204,45.69488],[13.45195,45.69483],[13.45193,45.69476],[13.45145,45.69474],[13.45027,45.69398]]},"properties":{}},{"type":"Feature","geometry":{"type":"LineString","coordinates":[[13.48951,45.7063],[13.48888,45.70609],[13.48881,45.70612]]},"properties":{}},{"type":"Feature","geometry":{"type":"LineString","coordinates":[[13.48964,45.70631],[13.48951,45.7063]]},"properties":{}},{"type":"Feature","geometry":{"type":"LineString","coordinates":[[13.46354,45.7049],[13.46337,45.70552],[13.46242,45.70793]]},"properties":{}},{"type":"Feature","geometry":{"type":"LineString","coordinates":[[13.46242,45.70793],[13.46177,45.70954]]},"properties":{}},{"type":"Feature","geometry":{"type":"LineString","coordinates":[[13.46177,45.70954],[13.46109,45.71116]]},"properties":{}},{"type":"Feature","geometry":{"type":"LineString","coordinates":[[13.46116,45.71117],[13.46183,45.70955]]},"properties":{}},{"type":"Feature","geometry":{"type":"LineString","coordinates":[[13.48964,45.70631],[13.49395,45.7077],[13.49817,45.70952],[13.5,45.7102]]},"properties":{}},{"type":"Feature","geometry":{"type":"LineString","coordinates":[[13.38486,45.68771],[13.38273,45.7036],[13.38258,45.70493],[13.38256,45.70549],[13.38256,45.70625],[13.38261,45.70696],[13.38267,45.70746],[13.38285,45.70832],[13.38462,45.71545]]},"properties":{}},{"type":"Feature","geometry":{"type":"LineString","coordinates":[[13.38471,45.71545],[13.38461,45.71511],[13.38462,45.71487],[13.3845,45.71468],[13.38351,45.71069],[13.38349,45.71041],[13.38338,45.71012],[13.38285,45.70798],[13.3827,45.70703],[13.38263,45.70582],[13.38265,45.70502],[13.3827,45.70447],[13.38336,45.6995],[13.38345,45.69912],[13.38343,45.69894],[13.38405,45.69434],[13.38411,45.69417],[13.3841,45.69396],[13.38468,45.6896]]},"properties":{}},{"type":"Feature","geometry":{"type":"LineString","coordinates":[[13.38482,45.71589],[13.38471,45.71545]]},"properties":{}},{"type":"Feature","geometry":{"type":"LineString","coordinates":[[13.38462,45.71545],[13.38473,45.7159]]},"properties":{}},{"type":"Feature","geometry":{"type":"LineString","coordinates":[[13.38473,45.7159],[13.38523,45.71809],[13.38555,45.72048],[13.3862,45.72463]]},"properties":{}},{"type":"Feature","geometry":{"type":"LineString","coordinates":[[13.3863,45.72486],[13.3857,45.72101],[13.38532,45.71819],[13.38482,45.71589]]},"properties":{}},{"type":"Feature","geometry":{"type":"LineString","coordinates":[[13.3862,45.72463],[13.38621,45.72489]]},"properties":{}},{"type":"Feature","geometry":{"type":"LineString","coordinates":[[13.38622,45.72497],[13.38631,45.72496]]},"properties":{}},{"type":"Feature","geometry":{"type":"LineString","coordinates":[[13.3985,45.72631],[13.39868,45.72621]]},"properties":{}},{"type":"Feature","geometry":{"type":"LineString","coordinates":[[13.39846,45.72629],[13.39859,45.72636]]},"properties":{}},{"type":"Feature","geometry":{"type":"LineString","coordinates":[[13.46094,45.71201],[13.46116,45.71117]]},"properties":{}},{"type":"Feature","geometry":{"type":"LineString","coordinates":[[13.46087,45.71217],[13.46094,45.71201]]},"properties":{}},{"type":"Feature","geometry":{"type":"LineString","coordinates":[[13.46109,45.71116],[13.45869,45.71692]]},"properties":{}},{"type":"Feature","geometry":{"type":"LineString","coordinates":[[13.48881,45.70612],[13.49392,45.70777],[13.49782,45.70946],[13.5,45.71028]]},"properties":{}},{"type":"Feature","geometry":{"type":"LineString","coordinates":[[13.45901,45.71686],[13.45893,45.71682],[13.45893,45.71678],[13.46087,45.71217]]},"properties":{}},{"type":"Feature","geometry":{"type":"LineString","coordinates":[[13.47386,45.72045],[13.47085,45.71971],[13.46506,45.71836],[13.46494,45.71826],[13.46456,45.71815],[13.45901,45.71686]]},"properties":{}},{"type":"Feature","geometry":{"type":"LineString","coordinates":[[13.45869,45.71692],[13.47471,45.72069]]},"properties":{}},{"type":"Feature","geometry":{"type":"LineString","coordinates":[[13.4744,45.72058],[13.47386,45.72045]]},"properties":{}},{"type":"Feature","geometry":{"type":"LineString","coordinates":[[13.47577,45.72089],[13.4744,45.72058]]},"properties":{}},{"type":"Feature","geometry":{"type":"LineString","coordinates":[[13.39611,45.72636],[13.39617,45.72633]]},"properties":{}},{"type":"Feature","geometry":{"type":"LineString","coordinates":[[13.39617,45.72633],[13.39628,45.72627],[13.39648,45.72624],[13.39667,45.72625],[13.3975,45.72645],[13.39781,45.72647],[13.39815,45.72645],[13.3985,45.72631]]},"properties":{}},{"type":"Feature","geometry":{"type":"LineString","coordinates":[[13.39593,45.72682],[13.39611,45.72636]]},"properties":{}},{"type":"Feature","geometry":{"type":"LineString","coordinates":[[13.38812,45.72865],[13.38799,45.72835],[13.38636,45.72566],[13.38633,45.72557],[13.38634,45.72504],[13.3863,45.72486]]},"properties":{}},{"type":"Feature","geometry":{"type":"LineString","coordinates":[[13.39588,45.72691],[13.39593,45.72682]]},"properties":{}},{"type":"Feature","geometry":{"type":"LineString","coordinates":[[13.38621,45.72489],[13.38627,45.72572],[13.38635,45.72592],[13.38751,45.72781],[13.38797,45.72878],[13.38862,45.73105],[13.38866,45.7314]]},"properties":{}},{"type":"Feature","geometry":{"type":"LineString","coordinates":[[13.38978,45.72955],[13.38993,45.72946],[13.39013,45.72941],[13.39182,45.72929],[13.39245,45.72935],[13.39276,45.72945],[13.39289,45.72944],[13.39426,45.72975],[13.39457,45.72975],[13.39476,45.7296],[13.39588,45.72691]]},"properties":{}},{"type":"Feature","geometry":{"type":"LineString","coordinates":[[13.38826,45.72919],[13.38859,45.72923],[13.38983,45.72958]]},"properties":{}},{"type":"Feature","geometry":{"type":"LineString","coordinates":[[13.38891,45.73152],[13.38884,45.73103],[13.38862,45.7305],[13.38812,45.72865]]},"properties":{}},{"type":"Feature","geometry":{"type":"LineString","coordinates":[[13.38892,45.73154],[13.38904,45.73149],[13.3891,45.7314]]},"properties":{}},{"type":"Feature","geometry":{"type":"LineString","coordinates":[[13.38866,45.7314],[13.38874,45.73148],[13.38892,45.73154]]},"properties":{}},{"type":"Feature","geometry":{"type":"LineString","coordinates":[[13.3891,45.7314],[13.38911,45.7315],[13.38906,45.73158],[13.38891,45.73171]]},"properties":{}},{"type":"Feature","geometry":{"type":"LineString","coordinates":[[13.38864,45.73164],[13.38892,45.73154]]},"properties":{}},{"type":"Feature","geometry":{"type":"LineString","coordinates":[[13.3889,45.73174],[13.38891,45.73152]]},"properties":{}},{"type":"Feature","geometry":{"type":"LineString","coordinates":[[13.38891,45.73171],[13.38871,45.73168],[13.38864,45.73164]]},"properties":{}},{"type":"Feature","geometry":{"type":"LineString","coordinates":[[13.38891,45.73171],[13.38872,45.73182],[13.38856,45.73199]]},"properties":{}},{"type":"Feature","geometry":{"type":"LineString","coordinates":[[13.38856,45.73199],[13.38844,45.73229],[13.3879,45.73334]]},"properties":{}},{"type":"Feature","geometry":{"type":"LineString","coordinates":[[13.38647,45.73644],[13.3889,45.73174]]},"properties":{}},{"type":"Feature","geometry":{"type":"LineString","coordinates":[[13.3836,45.74206],[13.38647,45.73644]]},"properties":{}},{"type":"Feature","geometry":{"type":"LineString","coordinates":[[13.38358,45.74212],[13.3836,45.74206]]},"properties":{}},{"type":"Feature","geometry":{"type":"LineString","coordinates":[[13.47574,45.72094],[13.47471,45.72069]]},"properties":{}},{"type":"Feature","geometry":{"type":"LineString","coordinates":[[13.44817,45.74641],[13.44814,45.74628],[13.44805,45.74615],[13.44777,45.74593]]},"properties":{}},{"type":"Feature","geometry":{"type":"LineString","coordinates":[[13.44817,45.74641],[13.44842,45.74629]]},"properties":{}},{"type":"Feature","geometry":{"type":"LineString","coordinates":[[13.44842,45.74629],[13.44841,45.7464],[13.44829,45.74653]]},"properties":{}},{"type":"Feature","geometry":{"type":"LineString","coordinates":[[13.44807,45.74661],[13.44817,45.74641]]},"properties":{}},{"type":"Feature","geometry":{"type":"LineString","coordinates":[[13.44829,45.74653],[13.44807,45.74661]]},"properties":{}},{"type":"Feature","geometry":{"type":"LineString","coordinates":[[13.44915,45.74672],[13.44883,45.74658],[13.44864,45.74653],[13.44829,45.74653]]},"properties":{}},{"type":"Feature","geometry":{"type":"LineString","coordinates":[[13.37939,45.75],[13.38358,45.74212]]},"properties":{}}]}