{"type":"FeatureCollection","features":[{"type":"Feature","geometry":{"type":"LineString","coordinates":[[13.59112,42.83258],[13.59118,42.83261],[13.59117,42.8327],[13.59132,42.83282],[13.59122,42.83314],[13.59123,42.83327],[13.59141,42.83352],[13.59141,42.8336],[13.59134,42.83376],[13.5912,42.83382]]},"properties":{}},{"type":"Feature","geometry":{"type":"LineString","coordinates":[[13.73136,42.80984],[13.72939,42.8101],[13.72936,42.81008],[13.72937,42.80995],[13.72798,42.81005],[13.72795,42.81007],[13.72787,42.81036],[13.72777,42.81042]]},"properties":{}},{"type":"Feature","geometry":{"type":"LineString","coordinates":[[13.72753,42.81384],[13.72728,42.81368],[13.72732,42.81359],[13.72704,42.8134],[13.72679,42.81332],[13.72665,42.81307],[13.7279,42.81266],[13.72811,42.81265],[13.72809,42.81261],[13.72825,42.81256],[13.72827,42.81251],[13.72805,42.81203],[13.72807,42.812]]},"properties":{}},{"type":"Feature","geometry":{"type":"LineString","coordinates":[[13.72761,42.81389],[13.72753,42.81384]]},"properties":{}},{"type":"Feature","geometry":{"type":"LineString","coordinates":[[13.73021,42.81732],[13.73013,42.81725],[13.72972,42.81618],[13.72963,42.816],[13.7284,42.81395],[13.72834,42.81393],[13.72811,42.81408],[13.72793,42.81407],[13.72761,42.81389]]},"properties":{}},{"type":"Feature","geometry":{"type":"LineString","coordinates":[[13.69444,42.81866],[13.69447,42.81867],[13.69468,42.81853],[13.69484,42.81854],[13.69959,42.82124],[13.70017,42.8215],[13.70243,42.82239],[13.70248,42.82243],[13.70247,42.82251],[13.70402,42.82311],[13.70407,42.8231],[13.70496,42.82181],[13.70618,42.82225],[13.709,42.82352],[13.70909,42.82352],[13.71003,42.82299],[13.71193,42.82377],[13.71219,42.82364],[13.71244,42.8234],[13.71243,42.82335]]},"properties":{}},{"type":"Feature","geometry":{"type":"LineString","coordinates":[[13.72282,42.8235],[13.72277,42.82358],[13.72248,42.82381],[13.72089,42.82463],[13.7199,42.82478],[13.71943,42.82492],[13.71921,42.8251],[13.71917,42.82522],[13.71917,42.82538],[13.7191,42.82548],[13.71895,42.82556],[13.71874,42.82557]]},"properties":{}},{"type":"Feature","geometry":{"type":"LineString","coordinates":[[13.71874,42.82557],[13.71849,42.82555]]},"properties":{}},{"type":"Feature","geometry":{"type":"LineString","coordinates":[[13.71849,42.82555],[13.71835,42.82558],[13.71819,42.82568],[13.71804,42.82591],[13.71773,42.82622],[13.71765,42.82644],[13.71764,42.82691],[13.71757,42.82709],[13.71751,42.82714],[13.71732,42.82723],[13.71721,42.82725],[13.7162,42.82729]]},"properties":{}},{"type":"Feature","geometry":{"type":"LineString","coordinates":[[13.71607,42.82749],[13.7162,42.82729]]},"properties":{}},{"type":"Feature","geometry":{"type":"LineString","coordinates":[[13.7161,42.82752],[13.71589,42.82751],[13.71607,42.82749]]},"properties":{}},{"type":"Feature","geometry":{"type":"LineString","coordinates":[[13.63524,42.84839],[13.63534,42.84842]]},"properties":{}},{"type":"Feature","geometry":{"type":"LineString","coordinates":[[13.63534,42.84842],[13.636,42.84846],[13.63612,42.84882]]},"properties":{}},{"type":"Feature","geometry":{"type":"LineString","coordinates":[[13.63534,42.84842],[13.63543,42.84859],[13.63574,42.84883],[13.63592,42.84887],[13.63612,42.84882]]},"properties":{}},{"type":"Feature","geometry":{"type":"LineString","coordinates":[[13.63592,42.84887],[13.63597,42.84899]]},"properties":{}},{"type":"Feature","geometry":{"type":"LineString","coordinates":[[13.63612,42.84882],[13.63639,42.84913]]},"properties":{}},{"type":"Feature","geometry":{"type":"LineString","coordinates":[[13.64068,42.85189],[13.64065,42.85189],[13.64051,42.85215],[13.64044,42.8522],[13.6404,42.85219],[13.63938,42.85124],[13.63922,42.851],[13.6392,42.85067],[13.63915,42.8506],[13.63891,42.85045],[13.63871,42.85035],[13.63858,42.85036],[13.63844,42.85045],[13.63746,42.85056],[13.63735,42.85053],[13.6369,42.8497],[13.63673,42.8495],[13.63651,42.84931],[13.63647,42.84921],[13.63639,42.84913]]},"properties":{}},{"type":"Feature","geometry":{"type":"LineString","coordinates":[[13.71055,42.86171],[13.71078,42.86085],[13.71104,42.86008]]},"properties":{}},{"type":"Feature","geometry":{"type":"LineString","coordinates":[[13.62983,42.84647],[13.62978,42.84642],[13.62965,42.84584],[13.62967,42.84581]]},"properties":{}},{"type":"Feature","geometry":{"type":"LineString","coordinates":[[13.63014,42.84678],[13.63005,42.84666],[13.62983,42.84647]]},"properties":{}},{"type":"Feature","geometry":{"type":"LineString","coordinates":[[13.62968,42.84729],[13.6297,42.84725],[13.62977,42.84722],[13.63009,42.84722],[13.63023,42.84718],[13.63024,42.84711],[13.63014,42.84678]]},"properties":{}},{"type":"Feature","geometry":{"type":"LineString","coordinates":[[13.62942,42.8484],[13.62968,42.84729]]},"properties":{}},{"type":"Feature","geometry":{"type":"LineString","coordinates":[[13.6223,42.84853],[13.62241,42.84851],[13.62243,42.84829],[13.62253,42.84823],[13.62306,42.84816],[13.62347,42.84817],[13.62422,42.84805],[13.62449,42.84809],[13.62488,42.84826],[13.6249,42.84835],[13.62488,42.84858]]},"properties":{}},{"type":"Feature","geometry":{"type":"LineString","coordinates":[[13.62937,42.84856],[13.62942,42.8484]]},"properties":{}},{"type":"Feature","geometry":{"type":"LineString","coordinates":[[13.62246,42.84856],[13.62243,42.84846]]},"properties":{}},{"type":"Feature","geometry":{"type":"LineString","coordinates":[[13.62489,42.84852],[13.62496,42.84856]]},"properties":{}},{"type":"Feature","geometry":{"type":"LineString","coordinates":[[13.62769,42.84853],[13.62785,42.84857],[13.62882,42.8486]]},"properties":{}},{"type":"Feature","geometry":{"type":"LineString","coordinates":[[13.62889,42.84861],[13.62893,42.84858],[13.62937,42.84856]]},"properties":{}},{"type":"Feature","geometry":{"type":"LineString","coordinates":[[13.62265,42.84892],[13.6227,42.84898],[13.62402,42.84896],[13.62413,42.84892],[13.62433,42.84875],[13.62479,42.84868],[13.62488,42.84858],[13.62494,42.84856],[13.62529,42.84855],[13.62552,42.84851],[13.62625,42.8485],[13.62637,42.84848],[13.62681,42.8483],[13.6272,42.84835],[13.62744,42.84841],[13.62769,42.84853]]},"properties":{}},{"type":"Feature","geometry":{"type":"LineString","coordinates":[[13.63074,42.84903],[13.63075,42.84889],[13.63094,42.84878],[13.63138,42.84863],[13.63228,42.84841],[13.63392,42.84831],[13.63455,42.84833]]},"properties":{}},{"type":"Feature","geometry":{"type":"LineString","coordinates":[[13.62882,42.8486],[13.62889,42.84861],[13.62895,42.84866],[13.62974,42.84861],[13.62982,42.84864],[13.62994,42.84879]]},"properties":{}},{"type":"Feature","geometry":{"type":"LineString","coordinates":[[13.62236,42.84853],[13.62264,42.84868],[13.62265,42.84892]]},"properties":{}},{"type":"Feature","geometry":{"type":"LineString","coordinates":[[13.62216,42.84935],[13.62214,42.84857],[13.6223,42.84853]]},"properties":{}},{"type":"Feature","geometry":{"type":"LineString","coordinates":[[13.62994,42.84879],[13.63009,42.84888],[13.63012,42.84916],[13.6307,42.84913],[13.63074,42.84903]]},"properties":{}},{"type":"Feature","geometry":{"type":"LineString","coordinates":[[13.61314,42.85044],[13.61317,42.85044]]},"properties":{}},{"type":"Feature","geometry":{"type":"LineString","coordinates":[[13.61279,42.85045],[13.61314,42.85044]]},"properties":{}},{"type":"Feature","geometry":{"type":"LineString","coordinates":[[13.61237,42.85047],[13.61279,42.85045]]},"properties":{}},{"type":"Feature","geometry":{"type":"LineString","coordinates":[[13.61202,42.85051],[13.61237,42.85047]]},"properties":{}},{"type":"Feature","geometry":{"type":"LineString","coordinates":[[13.61191,42.85051],[13.61202,42.85051]]},"properties":{}},{"type":"Feature","geometry":{"type":"LineString","coordinates":[[13.61178,42.85052],[13.61191,42.85051]]},"properties":{}},{"type":"Feature","geometry":{"type":"LineString","coordinates":[[13.61189,42.85055],[13.61191,42.85051]]},"properties":{}},{"type":"Feature","geometry":{"type":"LineString","coordinates":[[13.61189,42.85055],[13.61178,42.85052]]},"properties":{}},{"type":"Feature","geometry":{"type":"LineString","coordinates":[[13.61368,42.85054],[13.61351,42.85054]]},"properties":{}},{"type":"Feature","geometry":{"type":"LineString","coordinates":[[13.61351,42.85054],[13.613,42.85055]]},"properties":{}},{"type":"Feature","geometry":{"type":"LineString","coordinates":[[13.61202,42.85051],[13.61204,42.85057],[13.612,42.8506]]},"properties":{}},{"type":"Feature","geometry":{"type":"LineString","coordinates":[[13.6119,42.85057],[13.61189,42.85055]]},"properties":{}},{"type":"Feature","geometry":{"type":"LineString","coordinates":[[13.613,42.85055],[13.612,42.8506]]},"properties":{}},{"type":"Feature","geometry":{"type":"LineString","coordinates":[[13.61197,42.8506],[13.6119,42.85057]]},"properties":{}},{"type":"Feature","geometry":{"type":"LineString","coordinates":[[13.612,42.8506],[13.61197,42.8506]]},"properties":{}},{"type":"Feature","geometry":{"type":"LineString","coordinates":[[13.58191,42.85274],[13.58223,42.85274]]},"properties":{}},{"type":"Feature","geometry":{"type":"LineString","coordinates":[[13.58171,42.85276],[13.58191,42.85274]]},"properties":{}},{"type":"Feature","geometry":{"type":"LineString","coordinates":[[13.58137,42.85281],[13.58171,42.85276]]},"properties":{}},{"type":"Feature","geometry":{"type":"LineString","coordinates":[[13.59902,42.85298],[13.59848,42.85328]]},"properties":{}},{"type":"Feature","geometry":{"type":"LineString","coordinates":[[13.59848,42.85328],[13.59797,42.85346]]},"properties":{}},{"type":"Feature","geometry":{"type":"LineString","coordinates":[[13.59797,42.85346],[13.5973,42.85359]]},"properties":{}},{"type":"Feature","geometry":{"type":"LineString","coordinates":[[13.5973,42.85359],[13.5971,42.85362]]},"properties":{}},{"type":"Feature","geometry":{"type":"LineString","coordinates":[[13.59506,42.85379],[13.59507,42.85381],[13.59576,42.85365],[13.59601,42.85353],[13.59614,42.8534],[13.59618,42.85342]]},"properties":{}},{"type":"Feature","geometry":{"type":"LineString","coordinates":[[13.59486,42.8539],[13.59501,42.8538],[13.59564,42.85364],[13.59588,42.85355],[13.59611,42.85337]]},"properties":{}},{"type":"Feature","geometry":{"type":"LineString","coordinates":[[13.71118,42.8601],[13.7107,42.86171]]},"properties":{}},{"type":"Feature","geometry":{"type":"LineString","coordinates":[[13.71075,42.86182],[13.71077,42.86193]]},"properties":{}},{"type":"Feature","geometry":{"type":"LineString","coordinates":[[13.71077,42.86193],[13.71063,42.86189]]},"properties":{}},{"type":"Feature","geometry":{"type":"LineString","coordinates":[[13.59445,42.85379],[13.59456,42.85368],[13.59482,42.85362],[13.59499,42.85364],[13.59506,42.85379]]},"properties":{}},{"type":"Feature","geometry":{"type":"LineString","coordinates":[[13.57938,42.85373],[13.57932,42.85369],[13.57918,42.85368],[13.579,42.85375]]},"properties":{}},{"type":"Feature","geometry":{"type":"LineString","coordinates":[[13.579,42.85375],[13.57883,42.85373]]},"properties":{}},{"type":"Feature","geometry":{"type":"LineString","coordinates":[[13.57928,42.85377],[13.579,42.85375]]},"properties":{}},{"type":"Feature","geometry":{"type":"LineString","coordinates":[[13.59463,42.85374],[13.59455,42.85382]]},"properties":{}},{"type":"Feature","geometry":{"type":"LineString","coordinates":[[13.58798,42.85372],[13.58796,42.85372],[13.58795,42.85388]]},"properties":{}},{"type":"Feature","geometry":{"type":"LineString","coordinates":[[13.59468,42.85393],[13.59463,42.85374],[13.5949,42.8537],[13.59496,42.85372],[13.59501,42.8538]]},"properties":{}},{"type":"Feature","geometry":{"type":"LineString","coordinates":[[13.58382,42.85391],[13.57938,42.85373]]},"properties":{}},{"type":"Feature","geometry":{"type":"LineString","coordinates":[[13.58406,42.85398],[13.57928,42.85377]]},"properties":{}},{"type":"Feature","geometry":{"type":"LineString","coordinates":[[13.59445,42.85381],[13.59451,42.8539],[13.59449,42.85398]]},"properties":{}},{"type":"Feature","geometry":{"type":"LineString","coordinates":[[13.58397,42.85391],[13.58382,42.85391]]},"properties":{}},{"type":"Feature","geometry":{"type":"LineString","coordinates":[[13.58417,42.85392],[13.58397,42.85391]]},"properties":{}},{"type":"Feature","geometry":{"type":"LineString","coordinates":[[13.58472,42.85394],[13.58417,42.85392]]},"properties":{}},{"type":"Feature","geometry":{"type":"LineString","coordinates":[[13.58505,42.85397],[13.58472,42.85394]]},"properties":{}},{"type":"Feature","geometry":{"type":"LineString","coordinates":[[13.58795,42.85388],[13.5877,42.85405],[13.58754,42.85402],[13.58685,42.85399]]},"properties":{}},{"type":"Feature","geometry":{"type":"LineString","coordinates":[[13.58685,42.85399],[13.58675,42.85399]]},"properties":{}},{"type":"Feature","geometry":{"type":"LineString","coordinates":[[13.58622,42.85401],[13.58505,42.85397]]},"properties":{}},{"type":"Feature","geometry":{"type":"LineString","coordinates":[[13.58675,42.85399],[13.58641,42.85398],[13.58622,42.85401]]},"properties":{}},{"type":"Feature","geometry":{"type":"LineString","coordinates":[[13.58472,42.85401],[13.58406,42.85398]]},"properties":{}},{"type":"Feature","geometry":{"type":"LineString","coordinates":[[13.58498,42.85402],[13.58472,42.85401]]},"properties":{}},{"type":"Feature","geometry":{"type":"LineString","coordinates":[[13.58505,42.85402],[13.58498,42.85402]]},"properties":{}},{"type":"Feature","geometry":{"type":"LineString","coordinates":[[13.58622,42.85406],[13.58505,42.85402]]},"properties":{}},{"type":"Feature","geometry":{"type":"LineString","coordinates":[[13.58677,42.85408],[13.58622,42.85406]]},"properties":{}},{"type":"Feature","geometry":{"type":"LineString","coordinates":[[13.58726,42.8541],[13.58677,42.85408]]},"properties":{}},{"type":"Feature","geometry":{"type":"LineString","coordinates":[[13.58759,42.85411],[13.58726,42.8541]]},"properties":{}},{"type":"Feature","geometry":{"type":"LineString","coordinates":[[13.58762,42.85412],[13.58759,42.85411]]},"properties":{}},{"type":"Feature","geometry":{"type":"LineString","coordinates":[[13.59449,42.85398],[13.59349,42.85424],[13.59316,42.85429]]},"properties":{}},{"type":"Feature","geometry":{"type":"LineString","coordinates":[[13.58783,42.85418],[13.58762,42.85412]]},"properties":{}},{"type":"Feature","geometry":{"type":"LineString","coordinates":[[13.58846,42.85414],[13.58821,42.85419]]},"properties":{}},{"type":"Feature","geometry":{"type":"LineString","coordinates":[[13.5879,42.85425],[13.58783,42.85418]]},"properties":{}},{"type":"Feature","geometry":{"type":"LineString","coordinates":[[13.58821,42.85419],[13.58809,42.85427]]},"properties":{}},{"type":"Feature","geometry":{"type":"LineString","coordinates":[[13.58809,42.85427],[13.5879,42.85425]]},"properties":{}},{"type":"Feature","geometry":{"type":"LineString","coordinates":[[13.59227,42.85428],[13.59206,42.85427]]},"properties":{}},{"type":"Feature","geometry":{"type":"LineString","coordinates":[[13.59316,42.85429],[13.59227,42.85428]]},"properties":{}},{"type":"Feature","geometry":{"type":"LineString","coordinates":[[13.59196,42.85537],[13.59205,42.85561],[13.59203,42.85566]]},"properties":{}},{"type":"Feature","geometry":{"type":"LineString","coordinates":[[13.59203,42.85566],[13.59197,42.85557],[13.59196,42.85537]]},"properties":{}},{"type":"Feature","geometry":{"type":"LineString","coordinates":[[13.59225,42.85632],[13.59248,42.8565]]},"properties":{}},{"type":"Feature","geometry":{"type":"LineString","coordinates":[[13.59226,42.85654],[13.59225,42.85632]]},"properties":{}},{"type":"Feature","geometry":{"type":"LineString","coordinates":[[13.59225,42.85657],[13.59226,42.85654]]},"properties":{}},{"type":"Feature","geometry":{"type":"LineString","coordinates":[[13.59248,42.8565],[13.59253,42.85659],[13.59249,42.85666]]},"properties":{}},{"type":"Feature","geometry":{"type":"LineString","coordinates":[[13.59215,42.85663],[13.59225,42.85657]]},"properties":{}},{"type":"Feature","geometry":{"type":"LineString","coordinates":[[13.59228,42.85666],[13.59225,42.85657]]},"properties":{}},{"type":"Feature","geometry":{"type":"LineString","coordinates":[[13.59228,42.85666],[13.59215,42.85663]]},"properties":{}},{"type":"Feature","geometry":{"type":"LineString","coordinates":[[13.59231,42.85667],[13.59228,42.85666]]},"properties":{}},{"type":"Feature","geometry":{"type":"LineString","coordinates":[[13.59249,42.85666],[13.59241,42.85687]]},"properties":{}},{"type":"Feature","geometry":{"type":"LineString","coordinates":[[13.59241,42.85687],[13.59231,42.85667]]},"properties":{}},{"type":"Feature","geometry":{"type":"LineString","coordinates":[[13.59276,42.85784],[13.59287,42.85796]]},"properties":{}},{"type":"Feature","geometry":{"type":"LineString","coordinates":[[13.59272,42.85801],[13.59276,42.85784]]},"properties":{}},{"type":"Feature","geometry":{"type":"LineString","coordinates":[[13.59287,42.85796],[13.59299,42.85801],[13.59301,42.85807],[13.59299,42.85813]]},"properties":{}},{"type":"Feature","geometry":{"type":"LineString","coordinates":[[13.59276,42.85816],[13.5927,42.85808],[13.59272,42.85801]]},"properties":{}},{"type":"Feature","geometry":{"type":"LineString","coordinates":[[13.59299,42.85813],[13.59296,42.85815]]},"properties":{}},{"type":"Feature","geometry":{"type":"LineString","coordinates":[[13.59296,42.85815],[13.5929,42.85839]]},"properties":{}},{"type":"Feature","geometry":{"type":"LineString","coordinates":[[13.5929,42.85839],[13.59276,42.85816]]},"properties":{}}]}