{"type":"FeatureCollection","features":[{"type":"Feature","geometry":{"type":"LineString","coordinates":[[13.74181,37.21416],[13.74188,37.21369],[13.74175,37.2134],[13.74159,37.21332],[13.74147,37.21332],[13.74141,37.21337],[13.74152,37.21361],[13.74149,37.21369],[13.74103,37.21397],[13.74081,37.21418],[13.74076,37.2142],[13.74064,37.21415],[13.74028,37.21411],[13.74009,37.21416],[13.73993,37.21438],[13.73971,37.2148],[13.73959,37.2149],[13.73949,37.21483],[13.73946,37.21436],[13.73919,37.21388],[13.73891,37.2139],[13.73836,37.21404],[13.73833,37.21412],[13.73834,37.2143],[13.73824,37.21437],[13.73782,37.21448],[13.73791,37.2147],[13.73814,37.21496],[13.73818,37.21509],[13.73779,37.21539],[13.73779,37.21542],[13.73853,37.21617],[13.73871,37.21629]]},"properties":{}},{"type":"Feature","geometry":{"type":"LineString","coordinates":[[13.72393,37.23476],[13.7238,37.23469],[13.72357,37.23491],[13.72325,37.23478]]},"properties":{}},{"type":"Feature","geometry":{"type":"LineString","coordinates":[[13.61231,37.24455],[13.61236,37.24461]]},"properties":{}},{"type":"Feature","geometry":{"type":"LineString","coordinates":[[13.60596,37.25],[13.60635,37.24977],[13.60676,37.24947],[13.61106,37.24552],[13.61231,37.24455]]},"properties":{}}]}