{"type":"FeatureCollection","features":[{"type":"Feature","geometry":{"type":"LineString","coordinates":[[13.724,45.5959],[13.72402,45.59525],[13.72407,45.59479]]},"properties":{}},{"type":"Feature","geometry":{"type":"LineString","coordinates":[[13.72412,45.59519],[13.72412,45.59558]]},"properties":{}},{"type":"Feature","geometry":{"type":"LineString","coordinates":[[13.72412,45.59558],[13.72425,45.5959],[13.72444,45.59608]]},"properties":{}},{"type":"Feature","geometry":{"type":"LineString","coordinates":[[13.72412,45.59558],[13.7241,45.59587],[13.72403,45.59611]]},"properties":{}},{"type":"Feature","geometry":{"type":"LineString","coordinates":[[13.724,45.5959],[13.7241,45.59587]]},"properties":{}},{"type":"Feature","geometry":{"type":"LineString","coordinates":[[13.7241,45.59587],[13.72425,45.5959]]},"properties":{}},{"type":"Feature","geometry":{"type":"LineString","coordinates":[[13.72407,45.59595],[13.724,45.5959]]},"properties":{}},{"type":"Feature","geometry":{"type":"LineString","coordinates":[[13.72436,45.59606],[13.72407,45.59595]]},"properties":{}},{"type":"Feature","geometry":{"type":"LineString","coordinates":[[13.72444,45.59608],[13.72436,45.59606]]},"properties":{}},{"type":"Feature","geometry":{"type":"LineString","coordinates":[[13.72436,45.59606],[13.72413,45.59607],[13.72403,45.59611]]},"properties":{}},{"type":"Feature","geometry":{"type":"LineString","coordinates":[[13.72399,45.59629],[13.724,45.5959]]},"properties":{}},{"type":"Feature","geometry":{"type":"LineString","coordinates":[[13.72403,45.59611],[13.72399,45.59629]]},"properties":{}},{"type":"Feature","geometry":{"type":"LineString","coordinates":[[13.72338,45.59734],[13.7236,45.59742]]},"properties":{}},{"type":"Feature","geometry":{"type":"LineString","coordinates":[[13.72356,45.5975],[13.7235,45.59747],[13.72338,45.59734]]},"properties":{}},{"type":"Feature","geometry":{"type":"LineString","coordinates":[[13.74322,45.60012],[13.74368,45.59998],[13.74419,45.59988],[13.74479,45.59963],[13.74496,45.59962],[13.74595,45.59939],[13.74714,45.5994],[13.74811,45.59963],[13.74841,45.59967],[13.7498,45.59964],[13.74986,45.5996],[13.74988,45.59946],[13.74992,45.59943],[13.75,45.59944]]},"properties":{}},{"type":"Feature","geometry":{"type":"LineString","coordinates":[[13.72407,45.59479],[13.72412,45.59519]]},"properties":{}},{"type":"Feature","geometry":{"type":"LineString","coordinates":[[13.51679,45.71825],[13.53138,45.72392],[13.53574,45.72815]]},"properties":{}},{"type":"Feature","geometry":{"type":"LineString","coordinates":[[13.53566,45.72816],[13.53126,45.72396],[13.52764,45.72254]]},"properties":{}},{"type":"Feature","geometry":{"type":"LineString","coordinates":[[13.74569,45.68763],[13.74252,45.68986],[13.7393,45.69241],[13.73617,45.69476]]},"properties":{}},{"type":"Feature","geometry":{"type":"LineString","coordinates":[[13.73617,45.69476],[13.73556,45.69523],[13.73366,45.69645],[13.73281,45.6968],[13.73205,45.69697],[13.73151,45.69715],[13.72909,45.69826],[13.72845,45.69852],[13.72826,45.6985]]},"properties":{}},{"type":"Feature","geometry":{"type":"LineString","coordinates":[[13.7263,45.69915],[13.72698,45.69892],[13.72766,45.69874]]},"properties":{}},{"type":"Feature","geometry":{"type":"LineString","coordinates":[[13.72648,45.69909],[13.72658,45.69913],[13.72658,45.69921]]},"properties":{}},{"type":"Feature","geometry":{"type":"LineString","coordinates":[[13.72641,45.69928],[13.7263,45.69915]]},"properties":{}},{"type":"Feature","geometry":{"type":"LineString","coordinates":[[13.71973,45.70199],[13.71979,45.70202],[13.71985,45.70211]]},"properties":{}},{"type":"Feature","geometry":{"type":"LineString","coordinates":[[13.71972,45.7022],[13.71973,45.70199]]},"properties":{}},{"type":"Feature","geometry":{"type":"LineString","coordinates":[[13.72007,45.7019],[13.71988,45.70206],[13.71977,45.7023]]},"properties":{}},{"type":"Feature","geometry":{"type":"LineString","coordinates":[[13.71977,45.7023],[13.71972,45.7022],[13.71965,45.70217],[13.71931,45.70212]]},"properties":{}},{"type":"Feature","geometry":{"type":"LineString","coordinates":[[13.71717,45.70397],[13.71682,45.70463]]},"properties":{}},{"type":"Feature","geometry":{"type":"LineString","coordinates":[[13.73314,45.70338],[13.73226,45.70548]]},"properties":{}},{"type":"Feature","geometry":{"type":"LineString","coordinates":[[13.71682,45.70463],[13.71647,45.70535]]},"properties":{}},{"type":"Feature","geometry":{"type":"LineString","coordinates":[[13.74529,45.70552],[13.74544,45.7055],[13.74568,45.70542]]},"properties":{}},{"type":"Feature","geometry":{"type":"LineString","coordinates":[[13.74498,45.70543],[13.74529,45.70552]]},"properties":{}},{"type":"Feature","geometry":{"type":"LineString","coordinates":[[13.74523,45.70559],[13.74498,45.70543]]},"properties":{}},{"type":"Feature","geometry":{"type":"LineString","coordinates":[[13.74529,45.70552],[13.74541,45.70555],[13.74552,45.70564]]},"properties":{}},{"type":"Feature","geometry":{"type":"LineString","coordinates":[[13.74552,45.70564],[13.74535,45.70563],[13.74523,45.70559]]},"properties":{}},{"type":"Feature","geometry":{"type":"LineString","coordinates":[[13.73226,45.70548],[13.73214,45.70588]]},"properties":{}},{"type":"Feature","geometry":{"type":"LineString","coordinates":[[13.71647,45.70535],[13.71624,45.70607]]},"properties":{}},{"type":"Feature","geometry":{"type":"LineString","coordinates":[[13.7453,45.70596],[13.74533,45.70572],[13.74523,45.70559]]},"properties":{}},{"type":"Feature","geometry":{"type":"LineString","coordinates":[[13.71624,45.70607],[13.71565,45.70791]]},"properties":{}},{"type":"Feature","geometry":{"type":"LineString","coordinates":[[13.71565,45.70791],[13.71537,45.70873]]},"properties":{}},{"type":"Feature","geometry":{"type":"LineString","coordinates":[[13.71537,45.70873],[13.71525,45.70912],[13.71503,45.70953],[13.71475,45.70989],[13.71446,45.71017],[13.71399,45.71049],[13.71145,45.71194]]},"properties":{}},{"type":"Feature","geometry":{"type":"LineString","coordinates":[[13.5,45.7102],[13.50695,45.71277],[13.50721,45.71292],[13.51034,45.71536],[13.51108,45.71587]]},"properties":{}},{"type":"Feature","geometry":{"type":"LineString","coordinates":[[13.5,45.71028],[13.50687,45.71281],[13.50717,45.71298],[13.51104,45.71594],[13.51176,45.71644],[13.51213,45.71659],[13.51288,45.7168],[13.52231,45.7205],[13.52764,45.72254]]},"properties":{}},{"type":"Feature","geometry":{"type":"LineString","coordinates":[[13.51108,45.71587],[13.51142,45.716],[13.51222,45.71654],[13.513,45.71678],[13.51679,45.71825]]},"properties":{}},{"type":"Feature","geometry":{"type":"LineString","coordinates":[[13.71145,45.71194],[13.7112,45.71208]]},"properties":{}},{"type":"Feature","geometry":{"type":"LineString","coordinates":[[13.7112,45.71208],[13.70996,45.7128],[13.70856,45.71379]]},"properties":{}},{"type":"Feature","geometry":{"type":"LineString","coordinates":[[13.72859,45.72553],[13.72939,45.72531]]},"properties":{}},{"type":"Feature","geometry":{"type":"LineString","coordinates":[[13.69379,45.72536],[13.69348,45.72571],[13.69306,45.72601]]},"properties":{}},{"type":"Feature","geometry":{"type":"LineString","coordinates":[[13.7294,45.72661],[13.72894,45.72677]]},"properties":{}},{"type":"Feature","geometry":{"type":"LineString","coordinates":[[13.68744,45.73031],[13.68718,45.73059],[13.68685,45.73086],[13.68592,45.73133],[13.68416,45.73255]]},"properties":{}},{"type":"Feature","geometry":{"type":"LineString","coordinates":[[13.68416,45.73255],[13.6835,45.73304],[13.68326,45.73326],[13.68187,45.73473],[13.68158,45.73499],[13.68036,45.73586],[13.67938,45.73677],[13.67845,45.73725],[13.67806,45.7375],[13.67705,45.73844]]},"properties":{}},{"type":"Feature","geometry":{"type":"LineString","coordinates":[[13.67705,45.73844],[13.67623,45.73907],[13.67471,45.74002],[13.67417,45.74032]]},"properties":{}},{"type":"Feature","geometry":{"type":"LineString","coordinates":[[13.67417,45.74032],[13.67213,45.74122],[13.66956,45.7422],[13.66918,45.74236]]},"properties":{}},{"type":"Feature","geometry":{"type":"LineString","coordinates":[[13.66918,45.74236],[13.66748,45.74317]]},"properties":{}},{"type":"Feature","geometry":{"type":"LineString","coordinates":[[13.66748,45.74317],[13.6667,45.74345],[13.66627,45.74365],[13.66529,45.74425]]},"properties":{}},{"type":"Feature","geometry":{"type":"LineString","coordinates":[[13.65848,45.75],[13.65978,45.74895],[13.66128,45.74746],[13.66185,45.74685],[13.6623,45.74645],[13.66279,45.74607],[13.66365,45.7455],[13.6646,45.74473]]},"properties":{}}]}