{"type":"FeatureCollection","features":[{"type":"Feature","geometry":{"type":"LineString","coordinates":[[13.59307,41.25052],[13.5911,41.25]]},"properties":{}},{"type":"Feature","geometry":{"type":"LineString","coordinates":[[13.60676,41.25447],[13.60686,41.25439],[13.60696,41.2542],[13.60727,41.25401]]},"properties":{}},{"type":"Feature","geometry":{"type":"LineString","coordinates":[[13.60733,41.25406],[13.60704,41.25423],[13.60697,41.25434],[13.60696,41.25447],[13.60702,41.25454]]},"properties":{}},{"type":"Feature","geometry":{"type":"LineString","coordinates":[[13.60633,41.25448],[13.60662,41.25451]]},"properties":{}},{"type":"Feature","geometry":{"type":"LineString","coordinates":[[13.73036,41.25125],[13.73069,41.25025],[13.73083,41.25]]},"properties":{}},{"type":"Feature","geometry":{"type":"LineString","coordinates":[[13.74182,41.25685],[13.74196,41.25676],[13.74203,41.25667]]},"properties":{}},{"type":"Feature","geometry":{"type":"LineString","coordinates":[[13.74203,41.25667],[13.74195,41.25691]]},"properties":{}},{"type":"Feature","geometry":{"type":"LineString","coordinates":[[13.60649,41.2547],[13.60633,41.25448]]},"properties":{}},{"type":"Feature","geometry":{"type":"LineString","coordinates":[[13.60668,41.25448],[13.60685,41.25447],[13.60702,41.25454],[13.60709,41.25468],[13.60704,41.25482],[13.60683,41.25492],[13.60657,41.25486],[13.6065,41.25475],[13.6065,41.25462],[13.60654,41.25456],[13.60668,41.25448]]},"properties":{}},{"type":"Feature","geometry":{"type":"LineString","coordinates":[[13.60708,41.25476],[13.60712,41.25488],[13.60721,41.25499]]},"properties":{}},{"type":"Feature","geometry":{"type":"LineString","coordinates":[[13.60721,41.25499],[13.60691,41.25491]]},"properties":{}},{"type":"Feature","geometry":{"type":"LineString","coordinates":[[13.61148,41.25739],[13.61316,41.25802]]},"properties":{}},{"type":"Feature","geometry":{"type":"LineString","coordinates":[[13.61879,41.26054],[13.61914,41.26047]]},"properties":{}},{"type":"Feature","geometry":{"type":"LineString","coordinates":[[13.61913,41.26068],[13.61879,41.26054]]},"properties":{}},{"type":"Feature","geometry":{"type":"LineString","coordinates":[[13.62,41.2606],[13.61994,41.26076],[13.61987,41.26083],[13.61958,41.2609],[13.61944,41.26088],[13.61921,41.26079],[13.61914,41.26073],[13.61912,41.26059],[13.61914,41.26047],[13.61922,41.2604],[13.61934,41.26034],[13.6195,41.26032],[13.61979,41.26038],[13.61994,41.26049],[13.62,41.2606]]},"properties":{}},{"type":"Feature","geometry":{"type":"LineString","coordinates":[[13.62,41.2606],[13.62004,41.26068],[13.62028,41.26083]]},"properties":{}},{"type":"Feature","geometry":{"type":"LineString","coordinates":[[13.62028,41.26083],[13.62011,41.26079],[13.61987,41.26083]]},"properties":{}},{"type":"Feature","geometry":{"type":"LineString","coordinates":[[13.69898,41.25861],[13.69882,41.25826],[13.6991,41.25612],[13.6991,41.25577],[13.6994,41.25513]]},"properties":{}},{"type":"Feature","geometry":{"type":"LineString","coordinates":[[13.74182,41.25701],[13.74175,41.25697],[13.74175,41.25689],[13.74182,41.25685],[13.74191,41.25686],[13.74195,41.25691],[13.74194,41.25696],[13.74182,41.25701]]},"properties":{}},{"type":"Feature","geometry":{"type":"LineString","coordinates":[[13.74195,41.25693],[13.74205,41.2571]]},"properties":{}},{"type":"Feature","geometry":{"type":"LineString","coordinates":[[13.74205,41.2571],[13.74184,41.25701]]},"properties":{}},{"type":"Feature","geometry":{"type":"LineString","coordinates":[[13.66546,41.26312],[13.66548,41.26328]]},"properties":{}},{"type":"Feature","geometry":{"type":"LineString","coordinates":[[13.6654,41.2633],[13.66546,41.26312]]},"properties":{}},{"type":"Feature","geometry":{"type":"LineString","coordinates":[[13.66548,41.26328],[13.66547,41.26342]]},"properties":{}},{"type":"Feature","geometry":{"type":"LineString","coordinates":[[13.66517,41.2634],[13.6654,41.2633]]},"properties":{}},{"type":"Feature","geometry":{"type":"LineString","coordinates":[[13.66548,41.26328],[13.66567,41.26343]]},"properties":{}},{"type":"Feature","geometry":{"type":"LineString","coordinates":[[13.66536,41.26341],[13.6654,41.2633]]},"properties":{}},{"type":"Feature","geometry":{"type":"LineString","coordinates":[[13.67853,41.26435],[13.67882,41.2644]]},"properties":{}},{"type":"Feature","geometry":{"type":"LineString","coordinates":[[13.67795,41.26443],[13.67823,41.26435]]},"properties":{}},{"type":"Feature","geometry":{"type":"LineString","coordinates":[[13.67827,41.26433],[13.67836,41.2643],[13.6785,41.26432],[13.67858,41.26441],[13.67856,41.26451],[13.67846,41.26458],[13.67828,41.26457],[13.67819,41.26446],[13.67821,41.26438],[13.67827,41.26433]]},"properties":{}},{"type":"Feature","geometry":{"type":"LineString","coordinates":[[13.67882,41.2644],[13.67856,41.26451]]},"properties":{}},{"type":"Feature","geometry":{"type":"LineString","coordinates":[[13.67822,41.26452],[13.67795,41.26443]]},"properties":{}},{"type":"Feature","geometry":{"type":"LineString","coordinates":[[13.67854,41.26454],[13.67853,41.26471],[13.67861,41.26483]]},"properties":{}},{"type":"Feature","geometry":{"type":"LineString","coordinates":[[13.67861,41.26483],[13.6785,41.26477],[13.67841,41.26465],[13.67832,41.26459]]},"properties":{}},{"type":"Feature","geometry":{"type":"LineString","coordinates":[[13.68124,41.26642],[13.6819,41.26681],[13.6821,41.26688],[13.68242,41.26689]]},"properties":{}},{"type":"Feature","geometry":{"type":"LineString","coordinates":[[13.6814,41.26733],[13.68145,41.26688],[13.68143,41.2667],[13.68137,41.26655],[13.68124,41.26642]]},"properties":{}},{"type":"Feature","geometry":{"type":"LineString","coordinates":[[13.67967,41.26787],[13.68059,41.26764],[13.68093,41.26746],[13.68107,41.26731],[13.68119,41.26709],[13.68124,41.26679],[13.68117,41.26651],[13.68091,41.26622]]},"properties":{}},{"type":"Feature","geometry":{"type":"LineString","coordinates":[[13.68242,41.26689],[13.68345,41.26675],[13.6839,41.26675],[13.68425,41.26694],[13.68442,41.26712],[13.68449,41.26739],[13.68445,41.26756],[13.68422,41.2678],[13.684,41.26791],[13.68361,41.26799],[13.6822,41.26797],[13.68169,41.26787],[13.68146,41.26771],[13.68142,41.26762],[13.6814,41.26733],[13.68159,41.26713],[13.68179,41.26702],[13.68242,41.26689]]},"properties":{}},{"type":"Feature","geometry":{"type":"LineString","coordinates":[[13.6733,41.26751],[13.67345,41.26753],[13.67354,41.26762],[13.67355,41.26769],[13.67347,41.26779],[13.67328,41.26781],[13.67316,41.26774],[13.67315,41.26761],[13.67321,41.26755],[13.6733,41.26751]]},"properties":{}},{"type":"Feature","geometry":{"type":"LineString","coordinates":[[13.6822,41.26797],[13.67981,41.26792],[13.67892,41.268]]},"properties":{}},{"type":"Feature","geometry":{"type":"LineString","coordinates":[[13.67267,41.26819],[13.673,41.26797]]},"properties":{}},{"type":"Feature","geometry":{"type":"LineString","coordinates":[[13.673,41.26797],[13.67295,41.26808],[13.67301,41.2682]]},"properties":{}},{"type":"Feature","geometry":{"type":"LineString","coordinates":[[13.67208,41.26828],[13.67236,41.26829],[13.67258,41.26824]]},"properties":{}},{"type":"Feature","geometry":{"type":"LineString","coordinates":[[13.67315,41.2683],[13.67334,41.26838],[13.67361,41.26842]]},"properties":{}},{"type":"Feature","geometry":{"type":"LineString","coordinates":[[13.67246,41.26847],[13.67234,41.26838],[13.67208,41.26828]]},"properties":{}},{"type":"Feature","geometry":{"type":"LineString","coordinates":[[13.67306,41.26822],[13.67317,41.26834],[13.6732,41.26844],[13.67314,41.26858],[13.67305,41.26866],[13.67293,41.26871],[13.67272,41.2687],[13.67259,41.26865],[13.6725,41.26857],[13.67246,41.26842],[13.6725,41.26832],[13.67258,41.26824],[13.67281,41.26816],[13.67306,41.26822]]},"properties":{}},{"type":"Feature","geometry":{"type":"LineString","coordinates":[[13.67361,41.26842],[13.67337,41.26844],[13.67317,41.26854]]},"properties":{}},{"type":"Feature","geometry":{"type":"LineString","coordinates":[[13.61884,41.26099],[13.61909,41.26088],[13.61914,41.26073]]},"properties":{}},{"type":"Feature","geometry":{"type":"LineString","coordinates":[[13.61944,41.26088],[13.61902,41.26098],[13.61884,41.26099]]},"properties":{}},{"type":"Feature","geometry":{"type":"LineString","coordinates":[[13.62065,41.26348],[13.6205,41.2629],[13.61975,41.26154],[13.61971,41.2614],[13.6197,41.26103],[13.61958,41.2609]]},"properties":{}},{"type":"Feature","geometry":{"type":"LineString","coordinates":[[13.61981,41.26086],[13.61978,41.26102],[13.61981,41.26144],[13.62057,41.26288],[13.62067,41.26312],[13.6208,41.26379],[13.62093,41.26404],[13.62108,41.26422],[13.62124,41.26435],[13.62172,41.26455],[13.62201,41.26461],[13.62231,41.26462],[13.62345,41.2645],[13.62452,41.2645],[13.62506,41.26455],[13.6261,41.26477]]},"properties":{}},{"type":"Feature","geometry":{"type":"LineString","coordinates":[[13.62287,41.26462],[13.62236,41.26469],[13.62202,41.26469],[13.6217,41.26463],[13.62142,41.26453],[13.62117,41.26439],[13.621,41.26425],[13.62085,41.26408],[13.62072,41.26382],[13.62065,41.26348]]},"properties":{}},{"type":"Feature","geometry":{"type":"LineString","coordinates":[[13.62615,41.26485],[13.62556,41.26471],[13.62449,41.26456],[13.62345,41.26456],[13.62287,41.26462]]},"properties":{}},{"type":"Feature","geometry":{"type":"LineString","coordinates":[[13.62657,41.26489],[13.62697,41.26503]]},"properties":{}},{"type":"Feature","geometry":{"type":"LineString","coordinates":[[13.62697,41.26503],[13.62648,41.26493]]},"properties":{}},{"type":"Feature","geometry":{"type":"LineString","coordinates":[[13.53401,41.29379],[13.53398,41.29372],[13.53354,41.29361],[13.53349,41.29361],[13.53346,41.29365],[13.53347,41.29369],[13.53394,41.29381],[13.53401,41.29379]]},"properties":{}},{"type":"Feature","geometry":{"type":"LineString","coordinates":[[13.67147,41.26885],[13.67161,41.26878],[13.67235,41.26862],[13.67248,41.26852]]},"properties":{}},{"type":"Feature","geometry":{"type":"LineString","coordinates":[[13.67203,41.26879],[13.67195,41.26869]]},"properties":{}},{"type":"Feature","geometry":{"type":"LineString","coordinates":[[13.67272,41.2687],[13.67147,41.26885]]},"properties":{}},{"type":"Feature","geometry":{"type":"LineString","coordinates":[[13.72177,41.49651],[13.72181,41.49655],[13.72187,41.49654],[13.72275,41.49621]]},"properties":{}},{"type":"Feature","geometry":{"type":"LineString","coordinates":[[13.71862,41.49768],[13.72043,41.49727],[13.72077,41.49716],[13.72076,41.49703],[13.72084,41.4969],[13.72117,41.49673],[13.72151,41.49664],[13.72156,41.49661],[13.72155,41.49657]]},"properties":{}}]}