{"type":"FeatureCollection","features":[{"type":"Feature","geometry":{"type":"LineString","coordinates":[[13.97343,42.75008],[13.97349,42.75]]},"properties":{}},{"type":"Feature","geometry":{"type":"LineString","coordinates":[[13.97343,42.75008],[13.97365,42.75015],[13.97387,42.75011],[13.97408,42.75]]},"properties":{}},{"type":"Feature","geometry":{"type":"LineString","coordinates":[[13.9722,42.75],[13.96978,42.75331],[13.96978,42.75336]]},"properties":{}},{"type":"Feature","geometry":{"type":"LineString","coordinates":[[13.97303,42.75023],[13.97315,42.75044],[13.97312,42.75063],[13.97223,42.75191],[13.97199,42.75241],[13.9707,42.75451],[13.97067,42.75469],[13.97062,42.75473],[13.9705,42.75474]]},"properties":{}},{"type":"Feature","geometry":{"type":"LineString","coordinates":[[13.96338,42.75217],[13.96225,42.7541]]},"properties":{}},{"type":"Feature","geometry":{"type":"LineString","coordinates":[[13.96896,42.75413],[13.96552,42.75288]]},"properties":{}},{"type":"Feature","geometry":{"type":"LineString","coordinates":[[13.96903,42.75418],[13.9655,42.7529]]},"properties":{}},{"type":"Feature","geometry":{"type":"LineString","coordinates":[[13.96978,42.75336],[13.96978,42.7534],[13.96942,42.7539]]},"properties":{}},{"type":"Feature","geometry":{"type":"LineString","coordinates":[[13.96942,42.7539],[13.9692,42.75417],[13.9692,42.75424]]},"properties":{}},{"type":"Feature","geometry":{"type":"LineString","coordinates":[[13.96903,42.75418],[13.9692,42.75424]]},"properties":{}},{"type":"Feature","geometry":{"type":"LineString","coordinates":[[13.9692,42.75424],[13.96931,42.75428]]},"properties":{}},{"type":"Feature","geometry":{"type":"LineString","coordinates":[[13.9693,42.75435],[13.96931,42.75428]]},"properties":{}},{"type":"Feature","geometry":{"type":"LineString","coordinates":[[13.96889,42.75444],[13.969,42.75428]]},"properties":{}},{"type":"Feature","geometry":{"type":"LineString","coordinates":[[13.96896,42.7549],[13.9693,42.75435]]},"properties":{}},{"type":"Feature","geometry":{"type":"LineString","coordinates":[[13.9705,42.75474],[13.97045,42.75469]]},"properties":{}},{"type":"Feature","geometry":{"type":"LineString","coordinates":[[13.96814,42.75561],[13.96889,42.75444]]},"properties":{}},{"type":"Feature","geometry":{"type":"LineString","coordinates":[[13.96814,42.75561],[13.96815,42.75574]]},"properties":{}},{"type":"Feature","geometry":{"type":"LineString","coordinates":[[13.968,42.75582],[13.96814,42.75561]]},"properties":{}},{"type":"Feature","geometry":{"type":"LineString","coordinates":[[13.968,42.75582],[13.96805,42.75577],[13.96815,42.75574]]},"properties":{}},{"type":"Feature","geometry":{"type":"LineString","coordinates":[[13.96815,42.75574],[13.96824,42.75577],[13.96826,42.75583]]},"properties":{}},{"type":"Feature","geometry":{"type":"LineString","coordinates":[[13.96798,42.75586],[13.968,42.75582]]},"properties":{}},{"type":"Feature","geometry":{"type":"LineString","coordinates":[[13.9679,42.75599],[13.96798,42.75586]]},"properties":{}},{"type":"Feature","geometry":{"type":"LineString","coordinates":[[13.96813,42.75607],[13.9679,42.75599]]},"properties":{}},{"type":"Feature","geometry":{"type":"LineString","coordinates":[[13.96755,42.75653],[13.9679,42.75599]]},"properties":{}},{"type":"Feature","geometry":{"type":"LineString","coordinates":[[13.96621,42.75727],[13.96626,42.75733],[13.96689,42.75755]]},"properties":{}},{"type":"Feature","geometry":{"type":"LineString","coordinates":[[13.96255,42.7607],[13.96127,42.76029]]},"properties":{}},{"type":"Feature","geometry":{"type":"LineString","coordinates":[[13.95676,42.77636],[13.95981,42.77008],[13.96044,42.76885],[13.96107,42.76775],[13.96517,42.76055],[13.96528,42.76045],[13.96568,42.76027],[13.96577,42.76019],[13.96573,42.76003],[13.96622,42.75916],[13.96896,42.7549]]},"properties":{}},{"type":"Feature","geometry":{"type":"LineString","coordinates":[[13.95821,42.76822],[13.95845,42.76781]]},"properties":{}},{"type":"Feature","geometry":{"type":"LineString","coordinates":[[13.95651,42.77641],[13.95663,42.77637],[13.9567,42.77631],[13.96034,42.76888],[13.9654,42.75998]]},"properties":{}},{"type":"Feature","geometry":{"type":"LineString","coordinates":[[13.95552,42.7791],[13.95555,42.77876],[13.95571,42.77823],[13.95582,42.77811],[13.95658,42.77658],[13.9567,42.77648],[13.95676,42.77636]]},"properties":{}},{"type":"Feature","geometry":{"type":"LineString","coordinates":[[13.95525,42.77999],[13.9555,42.77938],[13.95552,42.7791]]},"properties":{}},{"type":"Feature","geometry":{"type":"LineString","coordinates":[[13.95408,42.7799],[13.95515,42.78002],[13.95525,42.77999]]},"properties":{}},{"type":"Feature","geometry":{"type":"LineString","coordinates":[[13.95401,42.78034],[13.95411,42.77993],[13.95408,42.7799]]},"properties":{}},{"type":"Feature","geometry":{"type":"LineString","coordinates":[[13.95391,42.78076],[13.95401,42.78034]]},"properties":{}},{"type":"Feature","geometry":{"type":"LineString","coordinates":[[13.95361,42.78191],[13.95391,42.78076]]},"properties":{}},{"type":"Feature","geometry":{"type":"LineString","coordinates":[[13.95436,42.78206],[13.95361,42.78191]]},"properties":{}},{"type":"Feature","geometry":{"type":"LineString","coordinates":[[13.9542,42.78255],[13.95444,42.78216],[13.95442,42.7821],[13.95436,42.78206]]},"properties":{}},{"type":"Feature","geometry":{"type":"LineString","coordinates":[[13.95416,42.78263],[13.9542,42.78255]]},"properties":{}},{"type":"Feature","geometry":{"type":"LineString","coordinates":[[13.95378,42.78326],[13.95416,42.78263]]},"properties":{}},{"type":"Feature","geometry":{"type":"LineString","coordinates":[[13.95375,42.78331],[13.95378,42.78326]]},"properties":{}},{"type":"Feature","geometry":{"type":"LineString","coordinates":[[13.95337,42.78394],[13.95375,42.78331]]},"properties":{}},{"type":"Feature","geometry":{"type":"LineString","coordinates":[[13.95333,42.784],[13.95337,42.78394]]},"properties":{}},{"type":"Feature","geometry":{"type":"LineString","coordinates":[[13.95255,42.7847],[13.95294,42.78459],[13.95333,42.784]]},"properties":{}},{"type":"Feature","geometry":{"type":"LineString","coordinates":[[13.75668,42.83939],[13.7557,42.84003],[13.75486,42.8404],[13.75467,42.84055],[13.75462,42.84067],[13.75485,42.84139],[13.75469,42.84214],[13.75466,42.84217],[13.75397,42.84201],[13.75333,42.84173],[13.75214,42.84152],[13.75154,42.84137],[13.75136,42.84128],[13.75135,42.84121]]},"properties":{}},{"type":"Feature","geometry":{"type":"LineString","coordinates":[[13.95205,42.78614],[13.95255,42.7847]]},"properties":{}},{"type":"Feature","geometry":{"type":"LineString","coordinates":[[13.95128,42.78614],[13.95168,42.7862]]},"properties":{}},{"type":"Feature","geometry":{"type":"LineString","coordinates":[[13.95168,42.7862],[13.95171,42.78619]]},"properties":{}},{"type":"Feature","geometry":{"type":"LineString","coordinates":[[13.9516,42.78633],[13.95148,42.78624],[13.95128,42.78614]]},"properties":{}},{"type":"Feature","geometry":{"type":"LineString","coordinates":[[13.95171,42.78619],[13.95182,42.7862],[13.9519,42.78629]]},"properties":{}},{"type":"Feature","geometry":{"type":"LineString","coordinates":[[13.9516,42.78633],[13.9516,42.78627],[13.95168,42.7862]]},"properties":{}},{"type":"Feature","geometry":{"type":"LineString","coordinates":[[13.95189,42.78654],[13.95207,42.7864],[13.95209,42.78633],[13.95205,42.78614]]},"properties":{}},{"type":"Feature","geometry":{"type":"LineString","coordinates":[[13.9519,42.78629],[13.95189,42.78635],[13.95182,42.7864]]},"properties":{}},{"type":"Feature","geometry":{"type":"LineString","coordinates":[[13.95164,42.78638],[13.9516,42.78633]]},"properties":{}},{"type":"Feature","geometry":{"type":"LineString","coordinates":[[13.95182,42.7864],[13.95173,42.78641],[13.95164,42.78638]]},"properties":{}},{"type":"Feature","geometry":{"type":"LineString","coordinates":[[13.95167,42.78666],[13.95164,42.78638]]},"properties":{}},{"type":"Feature","geometry":{"type":"LineString","coordinates":[[13.95182,42.7864],[13.95167,42.78666]]},"properties":{}},{"type":"Feature","geometry":{"type":"LineString","coordinates":[[13.9515,42.78697],[13.95167,42.78666]]},"properties":{}},{"type":"Feature","geometry":{"type":"LineString","coordinates":[[13.94506,42.79943],[13.94554,42.79841],[13.94584,42.7983],[13.94607,42.79781],[13.94597,42.79758],[13.94601,42.79736],[13.947,42.79538],[13.94706,42.79532],[13.94732,42.79523],[13.9474,42.79517],[13.94746,42.79508],[13.94745,42.79492],[13.94734,42.79478],[13.94779,42.79379],[13.94823,42.79293],[13.94943,42.79079],[13.95189,42.78654]]},"properties":{}},{"type":"Feature","geometry":{"type":"LineString","coordinates":[[13.9431,42.80348],[13.94394,42.80148],[13.9449,42.7995],[13.94591,42.79725],[13.94733,42.79445],[13.94844,42.79229],[13.95123,42.78748],[13.9515,42.78697]]},"properties":{}},{"type":"Feature","geometry":{"type":"LineString","coordinates":[[13.9431,42.79714],[13.94568,42.79776]]},"properties":{}},{"type":"Feature","geometry":{"type":"LineString","coordinates":[[13.94467,42.80033],[13.94506,42.79943]]},"properties":{}},{"type":"Feature","geometry":{"type":"LineString","coordinates":[[13.94452,42.80089],[13.94456,42.8006],[13.94467,42.80033]]},"properties":{}},{"type":"Feature","geometry":{"type":"LineString","coordinates":[[13.94441,42.80142],[13.9444,42.80127],[13.94448,42.80118],[13.94452,42.80089]]},"properties":{}},{"type":"Feature","geometry":{"type":"LineString","coordinates":[[13.94415,42.80178],[13.94435,42.80155],[13.94441,42.80142]]},"properties":{}},{"type":"Feature","geometry":{"type":"LineString","coordinates":[[13.94409,42.80191],[13.94415,42.80178]]},"properties":{}},{"type":"Feature","geometry":{"type":"LineString","coordinates":[[13.9441,42.80215],[13.94409,42.80191]]},"properties":{}},{"type":"Feature","geometry":{"type":"LineString","coordinates":[[13.94394,42.80243],[13.94405,42.80232],[13.9441,42.80215]]},"properties":{}},{"type":"Feature","geometry":{"type":"LineString","coordinates":[[13.9437,42.80269],[13.94394,42.80243]]},"properties":{}},{"type":"Feature","geometry":{"type":"LineString","coordinates":[[13.93856,42.80279],[13.93891,42.80284]]},"properties":{}},{"type":"Feature","geometry":{"type":"LineString","coordinates":[[13.93891,42.80284],[13.93941,42.80294]]},"properties":{}},{"type":"Feature","geometry":{"type":"LineString","coordinates":[[13.94358,42.80315],[13.94366,42.80293],[13.9437,42.80269]]},"properties":{}},{"type":"Feature","geometry":{"type":"LineString","coordinates":[[13.93941,42.80294],[13.9397,42.803]]},"properties":{}},{"type":"Feature","geometry":{"type":"LineString","coordinates":[[13.9397,42.803],[13.94018,42.80312]]},"properties":{}},{"type":"Feature","geometry":{"type":"LineString","coordinates":[[13.94018,42.80312],[13.94054,42.80322]]},"properties":{}},{"type":"Feature","geometry":{"type":"LineString","coordinates":[[13.94353,42.80359],[13.94349,42.80335],[13.94358,42.80315]]},"properties":{}},{"type":"Feature","geometry":{"type":"LineString","coordinates":[[13.9435,42.80389],[13.94353,42.80378],[13.94353,42.80359]]},"properties":{}},{"type":"Feature","geometry":{"type":"LineString","coordinates":[[13.94322,42.80416],[13.94341,42.80402],[13.9435,42.80389]]},"properties":{}},{"type":"Feature","geometry":{"type":"LineString","coordinates":[[13.94292,42.80438],[13.94322,42.80416]]},"properties":{}},{"type":"Feature","geometry":{"type":"LineString","coordinates":[[13.94282,42.80479],[13.94292,42.80438]]},"properties":{}},{"type":"Feature","geometry":{"type":"LineString","coordinates":[[13.94267,42.8051],[13.94282,42.80479]]},"properties":{}},{"type":"Feature","geometry":{"type":"LineString","coordinates":[[13.94229,42.80569],[13.9424,42.80543],[13.94267,42.8051]]},"properties":{}},{"type":"Feature","geometry":{"type":"LineString","coordinates":[[13.94245,42.80588],[13.94243,42.80578],[13.94229,42.80569]]},"properties":{}},{"type":"Feature","geometry":{"type":"LineString","coordinates":[[13.94213,42.80615],[13.94236,42.80601],[13.94245,42.80588]]},"properties":{}},{"type":"Feature","geometry":{"type":"LineString","coordinates":[[13.93537,42.80761],[13.93633,42.80572],[13.93698,42.80462]]},"properties":{}},{"type":"Feature","geometry":{"type":"LineString","coordinates":[[13.94131,42.80785],[13.94204,42.80619],[13.94213,42.80615]]},"properties":{}},{"type":"Feature","geometry":{"type":"LineString","coordinates":[[13.93481,42.80877],[13.93537,42.80761]]},"properties":{}},{"type":"Feature","geometry":{"type":"LineString","coordinates":[[13.94071,42.80917],[13.94131,42.80785]]},"properties":{}},{"type":"Feature","geometry":{"type":"LineString","coordinates":[[13.93594,42.80904],[13.93474,42.80875]]},"properties":{}},{"type":"Feature","geometry":{"type":"LineString","coordinates":[[13.93717,42.80932],[13.93594,42.80904]]},"properties":{}},{"type":"Feature","geometry":{"type":"LineString","coordinates":[[13.93734,42.80936],[13.93717,42.80932]]},"properties":{}},{"type":"Feature","geometry":{"type":"LineString","coordinates":[[13.94022,42.81002],[13.93734,42.80936]]},"properties":{}},{"type":"Feature","geometry":{"type":"LineString","coordinates":[[13.86657,42.81091],[13.86651,42.81085],[13.86634,42.81082],[13.86391,42.81093],[13.86362,42.8109],[13.86306,42.8109],[13.86094,42.81096],[13.86086,42.81101],[13.86066,42.81139],[13.86031,42.81137]]},"properties":{}},{"type":"Feature","geometry":{"type":"LineString","coordinates":[[13.93867,42.8139],[13.93904,42.81297],[13.9402,42.81029],[13.94052,42.81019],[13.9406,42.81007],[13.94058,42.80996],[13.94044,42.80978],[13.94071,42.80917]]},"properties":{}},{"type":"Feature","geometry":{"type":"LineString","coordinates":[[13.86553,42.81258],[13.86555,42.81248],[13.86571,42.81223],[13.86657,42.81091]]},"properties":{}},{"type":"Feature","geometry":{"type":"LineString","coordinates":[[13.82948,42.81379],[13.83278,42.81344]]},"properties":{}},{"type":"Feature","geometry":{"type":"LineString","coordinates":[[13.82915,42.81383],[13.82948,42.81379]]},"properties":{}},{"type":"Feature","geometry":{"type":"LineString","coordinates":[[13.82885,42.81387],[13.82915,42.81383]]},"properties":{}},{"type":"Feature","geometry":{"type":"LineString","coordinates":[[13.8268,42.81409],[13.82885,42.81387]]},"properties":{}},{"type":"Feature","geometry":{"type":"LineString","coordinates":[[13.82654,42.81412],[13.8268,42.81409]]},"properties":{}},{"type":"Feature","geometry":{"type":"LineString","coordinates":[[13.82629,42.81415],[13.82654,42.81412]]},"properties":{}},{"type":"Feature","geometry":{"type":"LineString","coordinates":[[13.83278,42.81344],[13.83865,42.8128],[13.8391,42.81279],[13.83952,42.81285],[13.85285,42.8156]]},"properties":{}},{"type":"Feature","geometry":{"type":"LineString","coordinates":[[13.93847,42.8145],[13.93844,42.81444],[13.93856,42.81408],[13.93863,42.81402],[13.93867,42.8139]]},"properties":{}},{"type":"Feature","geometry":{"type":"LineString","coordinates":[[13.84785,42.8141],[13.84753,42.814],[13.84718,42.81443]]},"properties":{}},{"type":"Feature","geometry":{"type":"LineString","coordinates":[[13.82425,42.81441],[13.82466,42.81433],[13.82629,42.81415]]},"properties":{}},{"type":"Feature","geometry":{"type":"LineString","coordinates":[[13.84725,42.81437],[13.84758,42.81444],[13.84753,42.8145]]},"properties":{}},{"type":"Feature","geometry":{"type":"LineString","coordinates":[[13.8805,42.81646],[13.87977,42.81632],[13.87935,42.81631],[13.87895,42.81623],[13.87886,42.81626],[13.87878,42.81634],[13.87852,42.81686],[13.87838,42.81691],[13.8774,42.81644],[13.87514,42.81614],[13.87497,42.81606],[13.87446,42.81571],[13.8741,42.81556],[13.87393,42.81552],[13.87368,42.81555],[13.87309,42.81576],[13.87288,42.8158],[13.87211,42.8158],[13.87128,42.81594],[13.8709,42.8159],[13.87028,42.81534],[13.87005,42.81526],[13.86978,42.81521],[13.86921,42.81528],[13.86902,42.81527],[13.86844,42.81505],[13.86772,42.81502],[13.86745,42.81495],[13.86713,42.81485],[13.8668,42.81465],[13.86646,42.81437],[13.86628,42.81416],[13.86575,42.8132],[13.86558,42.81285],[13.86553,42.81258]]},"properties":{}},{"type":"Feature","geometry":{"type":"LineString","coordinates":[[13.85876,42.81551],[13.85861,42.81554],[13.85837,42.81552],[13.85763,42.81537],[13.85759,42.81535],[13.85751,42.81511],[13.85727,42.81504],[13.85569,42.81474],[13.85533,42.8148]]},"properties":{}},{"type":"Feature","geometry":{"type":"LineString","coordinates":[[13.82273,42.81595],[13.82203,42.81568],[13.8205,42.81487],[13.82018,42.81474],[13.81963,42.81462],[13.81923,42.81458],[13.8191,42.81465],[13.81897,42.81466],[13.81828,42.8144]]},"properties":{}},{"type":"Feature","geometry":{"type":"LineString","coordinates":[[13.85285,42.8156],[13.8529,42.81561]]},"properties":{}},{"type":"Feature","geometry":{"type":"LineString","coordinates":[[13.85361,42.81575],[13.85489,42.81601]]},"properties":{}},{"type":"Feature","geometry":{"type":"LineString","coordinates":[[13.8525,42.81605],[13.85281,42.81588]]},"properties":{}},{"type":"Feature","geometry":{"type":"LineString","coordinates":[[13.85489,42.81601],[13.85969,42.81699]]},"properties":{}},{"type":"Feature","geometry":{"type":"LineString","coordinates":[[13.85969,42.81699],[13.85979,42.81701]]},"properties":{}},{"type":"Feature","geometry":{"type":"LineString","coordinates":[[13.85979,42.81701],[13.85999,42.81705]]},"properties":{}},{"type":"Feature","geometry":{"type":"LineString","coordinates":[[13.84815,42.81845],[13.8525,42.81605]]},"properties":{}},{"type":"Feature","geometry":{"type":"LineString","coordinates":[[13.85215,42.81826],[13.85107,42.81838],[13.85096,42.81835],[13.85087,42.81825],[13.85089,42.81817],[13.85341,42.81678],[13.8536,42.81678],[13.85431,42.81692],[13.85443,42.817],[13.85445,42.81705],[13.85441,42.81711],[13.85423,42.81731],[13.85373,42.81768],[13.85289,42.81805],[13.85215,42.81826]]},"properties":{}},{"type":"Feature","geometry":{"type":"LineString","coordinates":[[13.88529,42.8187],[13.88509,42.81847],[13.8832,42.81777],[13.88303,42.8176],[13.88297,42.81745],[13.88292,42.81742],[13.88232,42.81724],[13.88171,42.81695],[13.88104,42.81682],[13.88064,42.81652],[13.8805,42.81646]]},"properties":{}},{"type":"Feature","geometry":{"type":"LineString","coordinates":[[13.85318,42.81802],[13.85373,42.81855]]},"properties":{}},{"type":"Feature","geometry":{"type":"LineString","coordinates":[[13.84734,42.8189],[13.84815,42.81845]]},"properties":{}},{"type":"Feature","geometry":{"type":"LineString","coordinates":[[13.89146,42.8198],[13.89076,42.81973],[13.88819,42.81887],[13.88797,42.81877],[13.88765,42.81854],[13.88758,42.81855],[13.88749,42.81862],[13.88738,42.81862],[13.88711,42.81848],[13.88653,42.81827],[13.88634,42.81825],[13.88608,42.8183],[13.88546,42.8186],[13.88535,42.81871],[13.88529,42.8187]]},"properties":{}},{"type":"Feature","geometry":{"type":"LineString","coordinates":[[13.81286,42.81925],[13.81224,42.82015]]},"properties":{}},{"type":"Feature","geometry":{"type":"LineString","coordinates":[[13.89202,42.82013],[13.89164,42.81986],[13.89146,42.8198]]},"properties":{}},{"type":"Feature","geometry":{"type":"LineString","coordinates":[[13.93498,42.82572],[13.93507,42.82567],[13.9354,42.82568],[13.93567,42.82487],[13.93606,42.82353],[13.93607,42.82333],[13.93614,42.82319],[13.93631,42.82307],[13.93651,42.82227],[13.93647,42.82208],[13.93651,42.82191],[13.93666,42.82173],[13.93696,42.82077],[13.9371,42.82017],[13.9371,42.82012],[13.93678,42.81988],[13.93673,42.81983],[13.93672,42.81976],[13.93746,42.81761],[13.93847,42.8145]]},"properties":{}},{"type":"Feature","geometry":{"type":"LineString","coordinates":[[13.93632,42.82056],[13.93272,42.81992]]},"properties":{}},{"type":"Feature","geometry":{"type":"LineString","coordinates":[[13.93237,42.82084],[13.93272,42.81992]]},"properties":{}},{"type":"Feature","geometry":{"type":"LineString","coordinates":[[13.85999,42.81705],[13.87321,42.81976],[13.87418,42.81998],[13.87462,42.82016],[13.88478,42.82531]]},"properties":{}},{"type":"Feature","geometry":{"type":"LineString","coordinates":[[13.93322,42.82103],[13.93456,42.82123],[13.93603,42.82153]]},"properties":{}},{"type":"Feature","geometry":{"type":"LineString","coordinates":[[13.83615,42.82564],[13.83628,42.82481],[13.83633,42.8247],[13.83643,42.82461],[13.83663,42.82451],[13.83956,42.8235],[13.84006,42.82329],[13.84566,42.81986],[13.84734,42.8189]]},"properties":{}},{"type":"Feature","geometry":{"type":"LineString","coordinates":[[13.9316,42.82276],[13.93031,42.82248],[13.92853,42.82218]]},"properties":{}},{"type":"Feature","geometry":{"type":"LineString","coordinates":[[13.92841,42.82228],[13.92815,42.82306]]},"properties":{}},{"type":"Feature","geometry":{"type":"LineString","coordinates":[[13.92829,42.82268],[13.92932,42.82296]]},"properties":{}},{"type":"Feature","geometry":{"type":"LineString","coordinates":[[13.92916,42.82332],[13.92958,42.82236]]},"properties":{}},{"type":"Feature","geometry":{"type":"LineString","coordinates":[[13.92887,42.824],[13.92916,42.82332]]},"properties":{}},{"type":"Feature","geometry":{"type":"LineString","coordinates":[[13.83646,42.82731],[13.83664,42.82704],[13.83676,42.82669],[13.83662,42.82585],[13.83665,42.82543],[13.83656,42.82522],[13.83659,42.82514],[13.83692,42.82488],[13.83723,42.82479],[13.83767,42.82474],[13.83798,42.82479],[13.83836,42.82494],[13.83882,42.82488],[13.83944,42.82487],[13.83972,42.82494],[13.8408,42.82483],[13.84108,42.82468],[13.84137,42.82446],[13.84157,42.8244],[13.84194,42.82418],[13.84201,42.82403],[13.84364,42.82315],[13.84455,42.82273],[13.84465,42.82271],[13.84493,42.82241],[13.84527,42.82232],[13.84573,42.82184],[13.84588,42.82147],[13.84589,42.82128],[13.8466,42.82089],[13.847,42.82047],[13.84751,42.82034],[13.84792,42.8204],[13.8483,42.82054],[13.84848,42.82071],[13.8493,42.82086],[13.85028,42.82162],[13.85037,42.82165],[13.85057,42.82167],[13.85077,42.82164],[13.85121,42.82135],[13.85138,42.82135],[13.85157,42.82144]]},"properties":{}},{"type":"Feature","geometry":{"type":"LineString","coordinates":[[13.93295,42.82374],[13.93461,42.82402],[13.9353,42.8241]]},"properties":{}},{"type":"Feature","geometry":{"type":"LineString","coordinates":[[13.92331,42.82644],[13.92704,42.82336],[13.92853,42.82218]]},"properties":{}},{"type":"Feature","geometry":{"type":"LineString","coordinates":[[13.93275,42.82299],[13.93232,42.82421],[13.93143,42.82697],[13.93012,42.82679]]},"properties":{}},{"type":"Feature","geometry":{"type":"LineString","coordinates":[[13.83613,42.82572],[13.83615,42.82564]]},"properties":{}},{"type":"Feature","geometry":{"type":"LineString","coordinates":[[13.9243,42.82562],[13.92445,42.82566],[13.93017,42.82659]]},"properties":{}},{"type":"Feature","geometry":{"type":"LineString","coordinates":[[13.80485,42.82588],[13.80548,42.82605],[13.80578,42.826],[13.80729,42.82667]]},"properties":{}},{"type":"Feature","geometry":{"type":"LineString","coordinates":[[13.92331,42.82644],[13.92294,42.82675],[13.92281,42.82681]]},"properties":{}},{"type":"Feature","geometry":{"type":"LineString","coordinates":[[13.91478,42.83328],[13.91475,42.83332],[13.91424,42.83317],[13.91416,42.83321],[13.91407,42.83444],[13.91402,42.8345],[13.91161,42.83364],[13.91146,42.83354],[13.91144,42.83348],[13.91142,42.83268],[13.91137,42.83256],[13.90948,42.83135],[13.90909,42.83128],[13.90805,42.83125],[13.90744,42.83127],[13.90728,42.83123],[13.90702,42.83092],[13.9066,42.82964],[13.90641,42.8294],[13.906,42.8291],[13.90565,42.82894],[13.90541,42.82887],[13.90439,42.82865],[13.90393,42.82858],[13.90321,42.82861],[13.90255,42.82871],[13.90249,42.82868],[13.90248,42.82862],[13.90254,42.82814],[13.90252,42.82809],[13.90246,42.82806],[13.90173,42.82807],[13.90158,42.82801],[13.90123,42.8278],[13.90101,42.82776],[13.90086,42.82786],[13.90074,42.82805],[13.90061,42.82811],[13.90021,42.82811],[13.8994,42.82795],[13.89776,42.82801],[13.89421,42.82809],[13.89414,42.82801],[13.89432,42.82639],[13.89465,42.82523],[13.89304,42.8245],[13.89298,42.82446],[13.89297,42.82441],[13.89508,42.82132],[13.89512,42.82119],[13.89497,42.82111],[13.8931,42.82052],[13.89202,42.82013]]},"properties":{}},{"type":"Feature","geometry":{"type":"LineString","coordinates":[[13.83212,42.83254],[13.83241,42.83205],[13.83246,42.83181],[13.83288,42.83101],[13.83307,42.83093],[13.83318,42.83059],[13.83346,42.83026],[13.83515,42.82885],[13.83555,42.82846],[13.83571,42.82844],[13.83591,42.82831],[13.836,42.8281],[13.83616,42.82786],[13.83634,42.82761],[13.83657,42.82737],[13.83658,42.82732]]},"properties":{}},{"type":"Feature","geometry":{"type":"LineString","coordinates":[[13.91666,42.83024],[13.91706,42.82976]]},"properties":{}},{"type":"Feature","geometry":{"type":"LineString","coordinates":[[13.88916,42.82992],[13.8889,42.83067],[13.88891,42.83074],[13.88903,42.83086]]},"properties":{}},{"type":"Feature","geometry":{"type":"LineString","coordinates":[[13.88903,42.83086],[13.88923,42.83097]]},"properties":{}},{"type":"Feature","geometry":{"type":"LineString","coordinates":[[13.88923,42.83097],[13.88975,42.83126]]},"properties":{}},{"type":"Feature","geometry":{"type":"LineString","coordinates":[[13.93116,42.83775],[13.93139,42.83773],[13.93155,42.83722],[13.93194,42.83716],[13.93203,42.83709],[13.9321,42.83697],[13.93207,42.83684],[13.93192,42.83669],[13.93188,42.83657],[13.93498,42.82572]]},"properties":{}},{"type":"Feature","geometry":{"type":"LineString","coordinates":[[13.92343,42.83297],[13.92207,42.83288]]},"properties":{}},{"type":"Feature","geometry":{"type":"LineString","coordinates":[[13.93068,42.83343],[13.93108,42.83244]]},"properties":{}},{"type":"Feature","geometry":{"type":"LineString","coordinates":[[13.9223,42.83217],[13.92164,42.8342]]},"properties":{}},{"type":"Feature","geometry":{"type":"LineString","coordinates":[[13.92335,42.83321],[13.92403,42.83333],[13.92472,42.8334]]},"properties":{}},{"type":"Feature","geometry":{"type":"LineString","coordinates":[[13.92275,42.83499],[13.92291,42.83455]]},"properties":{}},{"type":"Feature","geometry":{"type":"LineString","coordinates":[[13.9209,42.83505],[13.92105,42.83469]]},"properties":{}},{"type":"Feature","geometry":{"type":"LineString","coordinates":[[13.92327,42.83507],[13.92315,42.83545]]},"properties":{}},{"type":"Feature","geometry":{"type":"LineString","coordinates":[[13.91414,42.83605],[13.914,42.83586],[13.91374,42.83574]]},"properties":{}},{"type":"Feature","geometry":{"type":"LineString","coordinates":[[13.92052,42.83584],[13.92065,42.83588],[13.92073,42.83597]]},"properties":{}},{"type":"Feature","geometry":{"type":"LineString","coordinates":[[13.83149,42.83926],[13.83169,42.83896],[13.83216,42.83795],[13.83179,42.83645],[13.83155,42.83624],[13.83146,42.83589],[13.83128,42.83456],[13.83127,42.83429],[13.83148,42.83391],[13.8315,42.83376],[13.83219,42.83272],[13.83212,42.83254]]},"properties":{}},{"type":"Feature","geometry":{"type":"LineString","coordinates":[[13.92352,42.83551],[13.92307,42.83672]]},"properties":{}},{"type":"Feature","geometry":{"type":"LineString","coordinates":[[13.92686,42.83694],[13.92552,42.83672],[13.92433,42.83657],[13.92321,42.83633],[13.9218,42.83607]]},"properties":{}},{"type":"Feature","geometry":{"type":"LineString","coordinates":[[13.93185,42.83612],[13.93165,42.83691]]},"properties":{}},{"type":"Feature","geometry":{"type":"LineString","coordinates":[[13.93163,42.83696],[13.93157,42.83706]]},"properties":{}},{"type":"Feature","geometry":{"type":"LineString","coordinates":[[13.93122,42.83767],[13.93108,42.83768],[13.92686,42.83694]]},"properties":{}},{"type":"Feature","geometry":{"type":"LineString","coordinates":[[13.91916,42.83564],[13.92099,42.83603],[13.92139,42.83622],[13.92424,42.83876],[13.92444,42.83889],[13.92481,42.83901],[13.92537,42.83905],[13.93105,42.83775],[13.93116,42.83775]]},"properties":{}},{"type":"Feature","geometry":{"type":"LineString","coordinates":[[13.93113,42.8379],[13.93116,42.83775]]},"properties":{}},{"type":"Feature","geometry":{"type":"LineString","coordinates":[[13.93097,42.83849],[13.93113,42.8379]]},"properties":{}},{"type":"Feature","geometry":{"type":"LineString","coordinates":[[13.93128,42.8386],[13.93101,42.83858],[13.93097,42.83855],[13.93097,42.83849]]},"properties":{}},{"type":"Feature","geometry":{"type":"LineString","coordinates":[[13.92476,42.83899],[13.92479,42.83885]]},"properties":{}},{"type":"Feature","geometry":{"type":"LineString","coordinates":[[13.93128,42.8386],[13.9314,42.83865],[13.93149,42.83874],[13.93152,42.83883],[13.93149,42.83893],[13.93136,42.83904],[13.93101,42.83916],[13.9309,42.83928]]},"properties":{}},{"type":"Feature","geometry":{"type":"LineString","coordinates":[[13.9309,42.83928],[13.93021,42.8426],[13.93033,42.84266],[13.93038,42.8428],[13.93033,42.84286],[13.93015,42.84293],[13.93014,42.84297],[13.92866,42.84992]]},"properties":{}},{"type":"Feature","geometry":{"type":"LineString","coordinates":[[13.92858,42.85025],[13.92866,42.84992]]},"properties":{}},{"type":"Feature","geometry":{"type":"LineString","coordinates":[[13.92645,42.85843],[13.92538,42.85844]]},"properties":{}},{"type":"Feature","geometry":{"type":"LineString","coordinates":[[13.91983,42.85856],[13.92045,42.85845]]},"properties":{}},{"type":"Feature","geometry":{"type":"LineString","coordinates":[[13.9205,42.85855],[13.92062,42.85851],[13.92092,42.85855]]},"properties":{}},{"type":"Feature","geometry":{"type":"LineString","coordinates":[[13.9205,42.85855],[13.92014,42.85858],[13.91983,42.85856]]},"properties":{}},{"type":"Feature","geometry":{"type":"LineString","coordinates":[[13.92092,42.85855],[13.92052,42.85859]]},"properties":{}},{"type":"Feature","geometry":{"type":"LineString","coordinates":[[13.92313,42.87012],[13.92335,42.86926],[13.9236,42.86847],[13.92523,42.86402],[13.92605,42.86151],[13.92636,42.86038],[13.92678,42.85859]]},"properties":{}},{"type":"Feature","geometry":{"type":"LineString","coordinates":[[13.92858,42.85025],[13.92667,42.8594],[13.92623,42.8611],[13.92588,42.86223],[13.92482,42.86532],[13.92364,42.86847],[13.92321,42.87004],[13.92309,42.87055],[13.92327,42.87068],[13.9233,42.87079],[13.9232,42.87091],[13.923,42.87098],[13.92106,42.88058],[13.92091,42.88152],[13.92061,42.88413],[13.92022,42.88608],[13.92043,42.88616],[13.92049,42.88623],[13.92051,42.88633],[13.92041,42.88645],[13.92023,42.88649],[13.9202,42.88662]]},"properties":{}},{"type":"Feature","geometry":{"type":"LineString","coordinates":[[13.92065,42.88319],[13.92085,42.88152],[13.921,42.88057],[13.92298,42.87087]]},"properties":{}},{"type":"Feature","geometry":{"type":"LineString","coordinates":[[13.83765,42.88513],[13.83772,42.88489],[13.83782,42.88475],[13.83811,42.88445]]},"properties":{}},{"type":"Feature","geometry":{"type":"LineString","coordinates":[[13.90236,42.88971],[13.90262,42.88967]]},"properties":{}},{"type":"Feature","geometry":{"type":"LineString","coordinates":[[13.90262,42.88967],[13.90234,42.88976]]},"properties":{}},{"type":"Feature","geometry":{"type":"LineString","coordinates":[[13.90221,42.88974],[13.90236,42.88971]]},"properties":{}},{"type":"Feature","geometry":{"type":"LineString","coordinates":[[13.90234,42.88976],[13.90218,42.88979]]},"properties":{}},{"type":"Feature","geometry":{"type":"LineString","coordinates":[[13.90189,42.88983],[13.90221,42.88974]]},"properties":{}},{"type":"Feature","geometry":{"type":"LineString","coordinates":[[13.90218,42.88979],[13.90189,42.88983]]},"properties":{}},{"type":"Feature","geometry":{"type":"LineString","coordinates":[[13.9202,42.88662],[13.91902,42.89284],[13.91915,42.89307],[13.9193,42.89309],[13.91931,42.89312]]},"properties":{}},{"type":"Feature","geometry":{"type":"LineString","coordinates":[[13.89798,42.89771],[13.89803,42.89776],[13.89835,42.8978]]},"properties":{}},{"type":"Feature","geometry":{"type":"LineString","coordinates":[[13.89835,42.8978],[13.89851,42.89782]]},"properties":{}},{"type":"Feature","geometry":{"type":"LineString","coordinates":[[13.89851,42.89782],[13.89888,42.89787],[13.89905,42.89785]]},"properties":{}},{"type":"Feature","geometry":{"type":"LineString","coordinates":[[13.89472,42.9023],[13.89581,42.89935]]},"properties":{}},{"type":"Feature","geometry":{"type":"LineString","coordinates":[[13.89367,42.90478],[13.89582,42.89909]]},"properties":{}},{"type":"Feature","geometry":{"type":"LineString","coordinates":[[13.89365,42.9052],[13.89472,42.9023]]},"properties":{}},{"type":"Feature","geometry":{"type":"LineString","coordinates":[[13.89354,42.90546],[13.89365,42.9052]]},"properties":{}},{"type":"Feature","geometry":{"type":"LineString","coordinates":[[13.89352,42.9055],[13.89354,42.90546]]},"properties":{}},{"type":"Feature","geometry":{"type":"LineString","coordinates":[[13.89352,42.9055],[13.89332,42.90606]]},"properties":{}},{"type":"Feature","geometry":{"type":"LineString","coordinates":[[13.89332,42.90606],[13.89322,42.90636]]},"properties":{}},{"type":"Feature","geometry":{"type":"LineString","coordinates":[[13.89322,42.90636],[13.89298,42.90706]]},"properties":{}},{"type":"Feature","geometry":{"type":"LineString","coordinates":[[13.89298,42.90706],[13.89295,42.90713]]},"properties":{}},{"type":"Feature","geometry":{"type":"LineString","coordinates":[[13.89295,42.90713],[13.89291,42.90725]]},"properties":{}},{"type":"Feature","geometry":{"type":"LineString","coordinates":[[13.89255,42.90822],[13.89258,42.90815]]},"properties":{}},{"type":"Feature","geometry":{"type":"LineString","coordinates":[[13.89246,42.90847],[13.89249,42.90839]]},"properties":{}},{"type":"Feature","geometry":{"type":"LineString","coordinates":[[13.89237,42.90868],[13.89241,42.90859]]},"properties":{}},{"type":"Feature","geometry":{"type":"LineString","coordinates":[[13.89772,42.9093],[13.89786,42.90912]]},"properties":{}},{"type":"Feature","geometry":{"type":"LineString","coordinates":[[13.89586,42.90934],[13.89612,42.90933]]},"properties":{}},{"type":"Feature","geometry":{"type":"LineString","coordinates":[[13.89754,42.90942],[13.89762,42.9094],[13.89772,42.9093]]},"properties":{}},{"type":"Feature","geometry":{"type":"LineString","coordinates":[[13.89612,42.90933],[13.89754,42.90942]]},"properties":{}},{"type":"Feature","geometry":{"type":"LineString","coordinates":[[13.89298,42.9096],[13.89445,42.90936],[13.89586,42.90934]]},"properties":{}},{"type":"Feature","geometry":{"type":"LineString","coordinates":[[13.89797,42.90915],[13.89806,42.90914],[13.90049,42.90991]]},"properties":{}},{"type":"Feature","geometry":{"type":"LineString","coordinates":[[13.89287,42.9096],[13.89298,42.9096]]},"properties":{}},{"type":"Feature","geometry":{"type":"LineString","coordinates":[[13.90049,42.90991],[13.90061,42.90995]]},"properties":{}},{"type":"Feature","geometry":{"type":"LineString","coordinates":[[13.90095,42.91422],[13.90077,42.91454],[13.90038,42.91446],[13.89897,42.91394],[13.8988,42.91379],[13.89878,42.91366],[13.8989,42.91296],[13.89898,42.9128],[13.90061,42.90995],[13.90071,42.90985]]},"properties":{}},{"type":"Feature","geometry":{"type":"LineString","coordinates":[[13.89873,42.91307],[13.89884,42.91307]]},"properties":{}},{"type":"Feature","geometry":{"type":"LineString","coordinates":[[13.89882,42.91294],[13.89884,42.91307],[13.89873,42.91374],[13.89899,42.914]]},"properties":{}},{"type":"Feature","geometry":{"type":"LineString","coordinates":[[13.89873,42.91374],[13.89869,42.91384],[13.89859,42.91391]]},"properties":{}},{"type":"Feature","geometry":{"type":"LineString","coordinates":[[13.89899,42.914],[13.89859,42.91391]]},"properties":{}},{"type":"Feature","geometry":{"type":"LineString","coordinates":[[13.90102,42.91424],[13.90095,42.91422]]},"properties":{}},{"type":"Feature","geometry":{"type":"LineString","coordinates":[[13.89899,42.914],[13.90035,42.91452]]},"properties":{}},{"type":"Feature","geometry":{"type":"LineString","coordinates":[[13.90102,42.91422],[13.90342,42.91499]]},"properties":{}},{"type":"Feature","geometry":{"type":"LineString","coordinates":[[13.90426,42.91529],[13.90246,42.91468],[13.90102,42.91424]]},"properties":{}},{"type":"Feature","geometry":{"type":"LineString","coordinates":[[13.90435,42.91532],[13.90426,42.91529]]},"properties":{}},{"type":"Feature","geometry":{"type":"LineString","coordinates":[[13.90391,42.91601],[13.90435,42.91532]]},"properties":{}},{"type":"Feature","geometry":{"type":"LineString","coordinates":[[13.90269,42.91625],[13.90369,42.91635],[13.90379,42.9163]]},"properties":{}},{"type":"Feature","geometry":{"type":"LineString","coordinates":[[13.90379,42.9163],[13.90391,42.91631]]},"properties":{}},{"type":"Feature","geometry":{"type":"LineString","coordinates":[[13.89568,42.91764],[13.89592,42.91767]]},"properties":{}},{"type":"Feature","geometry":{"type":"LineString","coordinates":[[13.89573,42.91986],[13.89303,42.9195],[13.89293,42.91953],[13.89281,42.91975]]},"properties":{}},{"type":"Feature","geometry":{"type":"LineString","coordinates":[[13.89501,42.92355],[13.89517,42.92358]]},"properties":{}},{"type":"Feature","geometry":{"type":"LineString","coordinates":[[13.89517,42.92358],[13.89532,42.92361]]},"properties":{}},{"type":"Feature","geometry":{"type":"LineString","coordinates":[[13.89532,42.92361],[13.8956,42.92366]]},"properties":{}},{"type":"Feature","geometry":{"type":"LineString","coordinates":[[13.89499,42.93137],[13.89519,42.93094],[13.89525,42.93091],[13.89549,42.93044],[13.89745,42.92722],[13.89746,42.92713],[13.89768,42.92671],[13.89877,42.925],[13.8988,42.9249],[13.90177,42.92003],[13.90179,42.91994],[13.90186,42.91988],[13.90225,42.91918],[13.9034,42.91738],[13.90351,42.91715],[13.90358,42.91708],[13.90382,42.91668],[13.9039,42.91666],[13.90402,42.91653],[13.90403,42.91645],[13.90391,42.91631],[13.90391,42.91601]]},"properties":{}},{"type":"Feature","geometry":{"type":"LineString","coordinates":[[13.8958,42.92364],[13.89583,42.92369],[13.89549,42.9246],[13.89765,42.92503]]},"properties":{}},{"type":"Feature","geometry":{"type":"LineString","coordinates":[[13.89591,42.91552],[13.89611,42.91557],[13.89617,42.91561],[13.89617,42.91565],[13.89603,42.91635],[13.89594,42.91717],[13.89601,42.91725],[13.89597,42.91748],[13.89594,42.91754],[13.89553,42.9218],[13.89546,42.92197],[13.89546,42.92218],[13.89528,42.92284],[13.89523,42.92314],[13.89515,42.92333],[13.89506,42.92342],[13.89501,42.92355],[13.89504,42.92365],[13.89499,42.92382],[13.89426,42.9256],[13.89413,42.92565],[13.89407,42.92577],[13.8941,42.92592],[13.89359,42.92712],[13.89348,42.92729],[13.89344,42.92747],[13.89269,42.92928],[13.8925,42.9298],[13.89243,42.9299],[13.89233,42.93022],[13.89171,42.93167],[13.89171,42.93176],[13.89164,42.9318],[13.89162,42.93194],[13.89153,42.93197],[13.89145,42.93228],[13.89114,42.93293],[13.89083,42.93343],[13.89075,42.93346]]},"properties":{}},{"type":"Feature","geometry":{"type":"LineString","coordinates":[[13.89776,42.92504],[13.89786,42.92485],[13.89791,42.92482],[13.89863,42.92502]]},"properties":{}},{"type":"Feature","geometry":{"type":"LineString","coordinates":[[13.89765,42.92503],[13.89776,42.92504]]},"properties":{}},{"type":"Feature","geometry":{"type":"LineString","coordinates":[[13.89217,42.93133],[13.89234,42.93129]]},"properties":{}},{"type":"Feature","geometry":{"type":"LineString","coordinates":[[13.89499,42.93137],[13.89488,42.93154]]},"properties":{}},{"type":"Feature","geometry":{"type":"LineString","coordinates":[[13.89324,42.93407],[13.89312,42.93399],[13.89228,42.93372],[13.89185,42.93353],[13.89154,42.93333],[13.89146,42.93322],[13.89145,42.93309],[13.89228,42.93108]]},"properties":{}},{"type":"Feature","geometry":{"type":"LineString","coordinates":[[13.89075,42.93346],[13.88998,42.93468],[13.88988,42.93474]]},"properties":{}},{"type":"Feature","geometry":{"type":"LineString","coordinates":[[13.88988,42.93474],[13.88984,42.93483]]},"properties":{}},{"type":"Feature","geometry":{"type":"LineString","coordinates":[[13.88984,42.93483],[13.8895,42.93564],[13.88951,42.9357],[13.88938,42.93577]]},"properties":{}},{"type":"Feature","geometry":{"type":"LineString","coordinates":[[13.89488,42.93154],[13.89467,42.93184],[13.89435,42.93251],[13.89254,42.93568],[13.88947,42.94183],[13.88884,42.94321],[13.8864,42.94928]]},"properties":{}},{"type":"Feature","geometry":{"type":"LineString","coordinates":[[13.87791,42.94874],[13.8798,42.94892]]},"properties":{}},{"type":"Feature","geometry":{"type":"LineString","coordinates":[[13.87993,42.94894],[13.88179,42.94911]]},"properties":{}},{"type":"Feature","geometry":{"type":"LineString","coordinates":[[13.87785,42.94848],[13.87777,42.94862],[13.87762,42.94866],[13.87689,42.94866],[13.87654,42.94869],[13.87426,42.9489],[13.8722,42.94913],[13.8713,42.94911],[13.86926,42.94868],[13.86885,42.94865],[13.86846,42.94871],[13.86823,42.94882],[13.86807,42.94896],[13.86747,42.94973],[13.86712,42.94994],[13.86691,42.95002]]},"properties":{}},{"type":"Feature","geometry":{"type":"LineString","coordinates":[[13.8864,42.94928],[13.88611,42.94922]]},"properties":{}},{"type":"Feature","geometry":{"type":"LineString","coordinates":[[13.8864,42.94928],[13.88623,42.94969]]},"properties":{}},{"type":"Feature","geometry":{"type":"LineString","coordinates":[[13.88623,42.94969],[13.88616,42.94993],[13.88619,42.94999],[13.88626,42.95002]]},"properties":{}},{"type":"Feature","geometry":{"type":"LineString","coordinates":[[13.88626,42.95002],[13.8869,42.95024]]},"properties":{}},{"type":"Feature","geometry":{"type":"LineString","coordinates":[[13.88582,42.94981],[13.88568,42.95001],[13.88462,42.94971],[13.88455,42.94972],[13.8836,42.9517]]},"properties":{}},{"type":"Feature","geometry":{"type":"LineString","coordinates":[[13.8869,42.95024],[13.8876,42.9505],[13.88862,42.95079],[13.88896,42.95097],[13.88909,42.95117],[13.88959,42.95222],[13.88951,42.95224]]},"properties":{}},{"type":"Feature","geometry":{"type":"LineString","coordinates":[[13.88959,42.95222],[13.88983,42.9527]]},"properties":{}},{"type":"Feature","geometry":{"type":"LineString","coordinates":[[13.88641,42.95309],[13.88653,42.953],[13.88678,42.95255],[13.8869,42.95245],[13.88901,42.95213],[13.88906,42.95232],[13.88951,42.95224]]},"properties":{}},{"type":"Feature","geometry":{"type":"LineString","coordinates":[[13.88261,42.95263],[13.88288,42.95268]]},"properties":{}},{"type":"Feature","geometry":{"type":"LineString","coordinates":[[13.88286,42.95273],[13.88261,42.95263]]},"properties":{}},{"type":"Feature","geometry":{"type":"LineString","coordinates":[[13.88288,42.95268],[13.8831,42.95273]]},"properties":{}},{"type":"Feature","geometry":{"type":"LineString","coordinates":[[13.88308,42.95277],[13.88286,42.95273]]},"properties":{}},{"type":"Feature","geometry":{"type":"LineString","coordinates":[[13.8831,42.95273],[13.8833,42.95277],[13.88335,42.95281]]},"properties":{}},{"type":"Feature","geometry":{"type":"LineString","coordinates":[[13.88335,42.95281],[13.88308,42.95277]]},"properties":{}},{"type":"Feature","geometry":{"type":"LineString","coordinates":[[13.88311,42.95529],[13.88424,42.95554],[13.88457,42.95477],[13.88524,42.95344],[13.88532,42.95334],[13.88538,42.95334],[13.88603,42.95344],[13.88612,42.9534],[13.88641,42.95309]]},"properties":{}},{"type":"Feature","geometry":{"type":"LineString","coordinates":[[13.88195,42.95705],[13.88284,42.95497],[13.88366,42.95288]]},"properties":{}},{"type":"Feature","geometry":{"type":"LineString","coordinates":[[13.8832,42.95526],[13.88255,42.95682]]},"properties":{}},{"type":"Feature","geometry":{"type":"LineString","coordinates":[[13.88255,42.95682],[13.88207,42.95803]]},"properties":{}},{"type":"Feature","geometry":{"type":"LineString","coordinates":[[13.88207,42.95803],[13.8816,42.9591]]},"properties":{}},{"type":"Feature","geometry":{"type":"LineString","coordinates":[[13.8816,42.9591],[13.88104,42.95898]]},"properties":{}},{"type":"Feature","geometry":{"type":"LineString","coordinates":[[13.8816,42.9591],[13.88162,42.95918],[13.88207,42.95931],[13.88209,42.95937]]},"properties":{}},{"type":"Feature","geometry":{"type":"LineString","coordinates":[[13.88195,42.95953],[13.88148,42.96059],[13.88117,42.96136],[13.88091,42.96141]]},"properties":{}},{"type":"Feature","geometry":{"type":"LineString","coordinates":[[13.79106,42.97592],[13.79128,42.97614],[13.79151,42.97626],[13.79302,42.97693],[13.7936,42.97715],[13.7948,42.97788],[13.79532,42.97804],[13.79686,42.97828],[13.79863,42.97875],[13.80073,42.97907],[13.80465,42.97976],[13.80532,42.97986],[13.80633,42.97994],[13.80744,42.97999],[13.80777,42.97999],[13.81244,42.97956],[13.81514,42.97934],[13.81578,42.97935],[13.81652,42.9795],[13.81766,42.97965],[13.8215,42.98025],[13.82325,42.98044],[13.82399,42.98044],[13.82488,42.98034],[13.82695,42.97986],[13.82816,42.97951],[13.83094,42.97904],[13.83698,42.97774],[13.84059,42.97721],[13.84466,42.97673],[13.85176,42.97741],[13.85421,42.9776],[13.85497,42.9777],[13.85512,42.97774],[13.85526,42.97784],[13.85538,42.97799]]},"properties":{}},{"type":"Feature","geometry":{"type":"LineString","coordinates":[[13.85538,42.97799],[13.85586,42.97863]]},"properties":{}},{"type":"Feature","geometry":{"type":"LineString","coordinates":[[13.85586,42.97863],[13.85592,42.97879],[13.85584,42.97889],[13.85541,42.97899],[13.85531,42.97907],[13.85535,42.97915],[13.85553,42.97922]]},"properties":{}},{"type":"Feature","geometry":{"type":"LineString","coordinates":[[13.87588,42.97843],[13.87542,42.97966]]},"properties":{}},{"type":"Feature","geometry":{"type":"LineString","coordinates":[[13.87122,42.97933],[13.87062,42.97945],[13.8705,42.97944],[13.87039,42.97933],[13.87042,42.97924],[13.87051,42.97918]]},"properties":{}},{"type":"Feature","geometry":{"type":"LineString","coordinates":[[13.87051,42.97918],[13.87243,42.97938],[13.87257,42.97949],[13.87258,42.9796],[13.87248,42.9797],[13.87233,42.97973],[13.87216,42.97969],[13.87192,42.97958],[13.87174,42.97956],[13.87134,42.97965],[13.87057,42.97971],[13.87044,42.97967],[13.87036,42.97956],[13.8704,42.97944],[13.87046,42.97939],[13.8706,42.97936],[13.8711,42.97959],[13.87126,42.97959],[13.87137,42.97956],[13.87143,42.97949],[13.87142,42.9794],[13.87134,42.97934],[13.87122,42.97933]]},"properties":{}},{"type":"Feature","geometry":{"type":"LineString","coordinates":[[13.87211,42.97977],[13.87206,42.97964]]},"properties":{}},{"type":"Feature","geometry":{"type":"LineString","coordinates":[[13.87502,42.98032],[13.87535,42.97969]]},"properties":{}},{"type":"Feature","geometry":{"type":"LineString","coordinates":[[13.78462,42.8695],[13.78458,42.86939],[13.7846,42.86923],[13.78525,42.86775],[13.7853,42.8677]]},"properties":{}},{"type":"Feature","geometry":{"type":"LineString","coordinates":[[13.79178,42.86993],[13.79244,42.86921],[13.79258,42.86911]]},"properties":{}},{"type":"Feature","geometry":{"type":"LineString","coordinates":[[13.77144,42.86958],[13.77104,42.8702],[13.77156,42.87038],[13.77168,42.87045],[13.77234,42.87067],[13.77345,42.87027]]},"properties":{}},{"type":"Feature","geometry":{"type":"LineString","coordinates":[[13.77345,42.87027],[13.77364,42.87028]]},"properties":{}},{"type":"Feature","geometry":{"type":"LineString","coordinates":[[13.77364,42.87028],[13.77387,42.87029],[13.77569,42.86963],[13.77579,42.86962],[13.77724,42.87022],[13.7774,42.87022],[13.77752,42.87017],[13.77847,42.8689],[13.77852,42.8689],[13.78014,42.86945],[13.7834,42.87043],[13.78362,42.87046],[13.78383,42.87045],[13.78404,42.87035],[13.78462,42.8695],[13.78469,42.86947],[13.78485,42.86947],[13.78502,42.86952],[13.78725,42.87019],[13.78801,42.87051],[13.78822,42.87055],[13.7884,42.87052],[13.78891,42.87028],[13.78952,42.86983],[13.78971,42.86975],[13.79054,42.86963],[13.79103,42.8696],[13.79149,42.86962],[13.79154,42.86964],[13.79168,42.86979],[13.79188,42.87012],[13.79226,42.87115],[13.79256,42.8718],[13.79265,42.87229],[13.79298,42.87276],[13.79303,42.87294],[13.793,42.87336],[13.79309,42.87349],[13.79346,42.87376],[13.79372,42.87399],[13.79413,42.87447],[13.79494,42.87529],[13.79571,42.87563],[13.79657,42.87581],[13.79717,42.87583],[13.79742,42.87579],[13.79777,42.87568],[13.79807,42.87546],[13.79835,42.87517],[13.79921,42.87473],[13.79939,42.8747],[13.79968,42.87472],[13.80086,42.8749],[13.80117,42.87456],[13.80118,42.8745],[13.80106,42.87442],[13.80106,42.87439],[13.8012,42.87379],[13.80134,42.87346],[13.80153,42.87321],[13.80222,42.87264],[13.80523,42.87348]]},"properties":{}},{"type":"Feature","geometry":{"type":"LineString","coordinates":[[13.87535,42.97969],[13.87521,42.98029],[13.87522,42.98036]]},"properties":{}},{"type":"Feature","geometry":{"type":"LineString","coordinates":[[13.85613,42.97932],[13.85656,42.97921],[13.85673,42.97921],[13.85758,42.97961],[13.8589,42.98031],[13.85989,42.98072],[13.86124,42.98157],[13.86196,42.98209]]},"properties":{}},{"type":"Feature","geometry":{"type":"LineString","coordinates":[[13.87542,42.97966],[13.87544,42.97971],[13.87527,42.98028],[13.87532,42.98043],[13.87531,42.9805],[13.87513,42.98063],[13.87438,42.98255],[13.87402,42.98335],[13.87384,42.98368]]},"properties":{}},{"type":"Feature","geometry":{"type":"LineString","coordinates":[[13.84988,42.98313],[13.84745,42.98293],[13.84709,42.98284],[13.84621,42.98247],[13.84534,42.98207],[13.84483,42.98178],[13.84439,42.98162],[13.84337,42.98138],[13.84203,42.98115],[13.84159,42.98114],[13.8409,42.98122],[13.84029,42.9814],[13.83893,42.98187],[13.83844,42.98197],[13.83768,42.98205],[13.83714,42.98204],[13.83214,42.98165],[13.82948,42.98163],[13.82899,42.98166],[13.82842,42.98175],[13.82735,42.98205],[13.8246,42.98291],[13.82405,42.98297],[13.82271,42.98281]]},"properties":{}},{"type":"Feature","geometry":{"type":"LineString","coordinates":[[13.86398,42.98235],[13.86424,42.98221],[13.86449,42.98214]]},"properties":{}},{"type":"Feature","geometry":{"type":"LineString","coordinates":[[13.86242,42.98233],[13.86268,42.98243],[13.86308,42.98249],[13.86347,42.98246],[13.86398,42.98235]]},"properties":{}},{"type":"Feature","geometry":{"type":"LineString","coordinates":[[13.86398,42.98235],[13.86397,42.98253],[13.86428,42.98321],[13.86435,42.98362]]},"properties":{}},{"type":"Feature","geometry":{"type":"LineString","coordinates":[[13.86548,42.98383],[13.86526,42.98342],[13.86505,42.98313],[13.86496,42.98283],[13.8648,42.98267],[13.86449,42.98214]]},"properties":{}},{"type":"Feature","geometry":{"type":"LineString","coordinates":[[13.87346,42.98421],[13.87312,42.98476],[13.87273,42.98567],[13.87273,42.98582]]},"properties":{}},{"type":"Feature","geometry":{"type":"LineString","coordinates":[[13.8722,42.98689],[13.87262,42.98597]]},"properties":{}},{"type":"Feature","geometry":{"type":"LineString","coordinates":[[13.8722,42.98689],[13.87196,42.98685]]},"properties":{}},{"type":"Feature","geometry":{"type":"LineString","coordinates":[[13.8712,42.98872],[13.87196,42.98685]]},"properties":{}},{"type":"Feature","geometry":{"type":"LineString","coordinates":[[13.86801,42.98871],[13.86805,42.98873]]},"properties":{}},{"type":"Feature","geometry":{"type":"LineString","coordinates":[[13.86805,42.98873],[13.8704,42.98874]]},"properties":{}},{"type":"Feature","geometry":{"type":"LineString","coordinates":[[13.87117,42.98884],[13.8712,42.98872]]},"properties":{}},{"type":"Feature","geometry":{"type":"LineString","coordinates":[[13.87109,42.98961],[13.87117,42.98884]]},"properties":{}},{"type":"Feature","geometry":{"type":"LineString","coordinates":[[13.87109,42.98963],[13.87109,42.98961]]},"properties":{}},{"type":"Feature","geometry":{"type":"LineString","coordinates":[[13.87109,42.98967],[13.87109,42.98963]]},"properties":{}},{"type":"Feature","geometry":{"type":"LineString","coordinates":[[13.87058,42.99173],[13.8705,42.99173]]},"properties":{}},{"type":"Feature","geometry":{"type":"LineString","coordinates":[[13.8705,42.99173],[13.86981,42.99174]]},"properties":{}},{"type":"Feature","geometry":{"type":"LineString","coordinates":[[13.87088,42.99175],[13.87058,42.99173]]},"properties":{}},{"type":"Feature","geometry":{"type":"LineString","coordinates":[[13.86989,42.99212],[13.86987,42.9937],[13.8698,42.99374]]},"properties":{}},{"type":"Feature","geometry":{"type":"LineString","coordinates":[[13.87051,42.99605],[13.87031,42.99697],[13.87012,42.99814],[13.87012,42.99825]]},"properties":{}},{"type":"Feature","geometry":{"type":"LineString","coordinates":[[13.87008,42.99857],[13.86988,42.99875],[13.86964,43.0]]},"properties":{}}]}