{"type":"FeatureCollection","features":[{"type":"Feature","geometry":{"type":"LineString","coordinates":[[13.92409,38.00931],[13.92486,38.0094]]},"properties":{}},{"type":"Feature","geometry":{"type":"LineString","coordinates":[[13.92486,38.0094],[13.92528,38.00937]]},"properties":{}},{"type":"Feature","geometry":{"type":"LineString","coordinates":[[13.92528,38.00937],[13.92508,38.00944]]},"properties":{}},{"type":"Feature","geometry":{"type":"LineString","coordinates":[[13.92474,38.00955],[13.92474,38.00947],[13.92486,38.0094]]},"properties":{}},{"type":"Feature","geometry":{"type":"LineString","coordinates":[[13.92508,38.00944],[13.92474,38.00955]]},"properties":{}},{"type":"Feature","geometry":{"type":"LineString","coordinates":[[13.92508,38.00944],[13.925,38.00953],[13.92507,38.00967]]},"properties":{}},{"type":"Feature","geometry":{"type":"LineString","coordinates":[[13.97557,38.02592],[13.97489,38.02614]]},"properties":{}},{"type":"Feature","geometry":{"type":"LineString","coordinates":[[13.97404,38.02628],[13.97521,38.02598],[13.97557,38.02592]]},"properties":{}},{"type":"Feature","geometry":{"type":"LineString","coordinates":[[13.97437,38.02628],[13.97437,38.02625],[13.97475,38.02614],[13.97487,38.02607]]},"properties":{}},{"type":"Feature","geometry":{"type":"LineString","coordinates":[[13.97489,38.02614],[13.97437,38.02628]]},"properties":{}},{"type":"Feature","geometry":{"type":"LineString","coordinates":[[13.97364,38.02639],[13.97404,38.02628]]},"properties":{}},{"type":"Feature","geometry":{"type":"LineString","coordinates":[[13.97436,38.02645],[13.97437,38.02628]]},"properties":{}},{"type":"Feature","geometry":{"type":"LineString","coordinates":[[13.97437,38.02628],[13.97358,38.02648]]},"properties":{}},{"type":"Feature","geometry":{"type":"LineString","coordinates":[[13.97489,38.02614],[13.97461,38.02632],[13.97451,38.02645],[13.97442,38.02667]]},"properties":{}},{"type":"Feature","geometry":{"type":"LineString","coordinates":[[13.9727,38.02651],[13.97327,38.02647],[13.97364,38.02639]]},"properties":{}},{"type":"Feature","geometry":{"type":"LineString","coordinates":[[13.97102,38.02647],[13.97265,38.02652]]},"properties":{}},{"type":"Feature","geometry":{"type":"LineString","coordinates":[[13.97265,38.02652],[13.9727,38.02651]]},"properties":{}},{"type":"Feature","geometry":{"type":"LineString","coordinates":[[13.97358,38.02648],[13.97299,38.02657]]},"properties":{}},{"type":"Feature","geometry":{"type":"LineString","coordinates":[[13.97299,38.02657],[13.97218,38.02659],[13.97102,38.02647]]},"properties":{}}]}