{"type":"FeatureCollection","features":[{"type":"Feature","geometry":{"type":"LineString","coordinates":[[13.89108,40.75159],[13.89118,40.75187],[13.89129,40.75205]]},"properties":{}},{"type":"Feature","geometry":{"type":"LineString","coordinates":[[13.8805,40.75293],[13.88077,40.75286],[13.88103,40.75275]]},"properties":{}},{"type":"Feature","geometry":{"type":"LineString","coordinates":[[13.88003,40.75281],[13.8805,40.75293]]},"properties":{}},{"type":"Feature","geometry":{"type":"LineString","coordinates":[[13.88103,40.75275],[13.88054,40.75299]]},"properties":{}},{"type":"Feature","geometry":{"type":"LineString","coordinates":[[13.88031,40.75307],[13.88034,40.75298],[13.8805,40.75293]]},"properties":{}},{"type":"Feature","geometry":{"type":"LineString","coordinates":[[13.88054,40.75299],[13.88031,40.75307]]},"properties":{}},{"type":"Feature","geometry":{"type":"LineString","coordinates":[[13.88054,40.75299],[13.88043,40.75312],[13.88043,40.75324]]},"properties":{}}]}