{"type":"FeatureCollection","features":[{"type":"Feature","geometry":{"type":"LineString","coordinates":[[14.21831,37.30446],[14.21819,37.30491]]},"properties":{}},{"type":"Feature","geometry":{"type":"LineString","coordinates":[[14.21816,37.30499],[14.21819,37.30491],[14.2183,37.30487],[14.2193,37.30477],[14.2196,37.30482],[14.21984,37.30497],[14.21994,37.30498],[14.22098,37.30467],[14.22125,37.30463]]},"properties":{}},{"type":"Feature","geometry":{"type":"LineString","coordinates":[[14.12896,37.41431],[14.12906,37.4142],[14.12907,37.41414],[14.12901,37.41397]]},"properties":{}},{"type":"Feature","geometry":{"type":"LineString","coordinates":[[14.12901,37.41397],[14.12943,37.41441]]},"properties":{}},{"type":"Feature","geometry":{"type":"LineString","coordinates":[[14.12833,37.41418],[14.12874,37.4143],[14.12893,37.41431]]},"properties":{}},{"type":"Feature","geometry":{"type":"LineString","coordinates":[[14.12879,37.41454],[14.12863,37.41436],[14.12833,37.41418]]},"properties":{}},{"type":"Feature","geometry":{"type":"LineString","coordinates":[[14.12893,37.41431],[14.12923,37.41433],[14.12943,37.41441],[14.12965,37.41465],[14.12968,37.41476],[14.12964,37.41487],[14.12955,37.41494],[14.12939,37.41495],[14.1292,37.41492],[14.12899,37.41481],[14.12885,37.41468],[14.12879,37.41454],[14.12881,37.41441],[14.12893,37.41431]]},"properties":{}},{"type":"Feature","geometry":{"type":"LineString","coordinates":[[14.12965,37.41465],[14.1298,37.41484],[14.13009,37.41506]]},"properties":{}},{"type":"Feature","geometry":{"type":"LineString","coordinates":[[14.13009,37.41506],[14.12981,37.41497],[14.12947,37.41495]]},"properties":{}},{"type":"Feature","geometry":{"type":"LineString","coordinates":[[14.14095,37.41957],[14.14103,37.4195],[14.14124,37.41814],[14.14145,37.41727],[14.142,37.41504],[14.14208,37.41497]]},"properties":{}},{"type":"Feature","geometry":{"type":"LineString","coordinates":[[14.21852,37.38043],[14.21862,37.38058]]},"properties":{}},{"type":"Feature","geometry":{"type":"LineString","coordinates":[[14.21862,37.38058],[14.21845,37.3805]]},"properties":{}},{"type":"Feature","geometry":{"type":"LineString","coordinates":[[14.21819,37.38077],[14.21828,37.38055],[14.21828,37.38044]]},"properties":{}},{"type":"Feature","geometry":{"type":"LineString","coordinates":[[14.21843,37.3805],[14.21819,37.38077]]},"properties":{}},{"type":"Feature","geometry":{"type":"LineString","coordinates":[[14.22879,37.37634],[14.22859,37.3763],[14.22829,37.37608]]},"properties":{}},{"type":"Feature","geometry":{"type":"LineString","coordinates":[[14.22853,37.37627],[14.22856,37.37618]]},"properties":{}},{"type":"Feature","geometry":{"type":"LineString","coordinates":[[14.22856,37.37618],[14.22867,37.37629],[14.22873,37.37631]]},"properties":{}},{"type":"Feature","geometry":{"type":"LineString","coordinates":[[14.22875,37.3762],[14.22872,37.37629],[14.22879,37.37634]]},"properties":{}},{"type":"Feature","geometry":{"type":"LineString","coordinates":[[14.21842,37.38031],[14.21866,37.3801]]},"properties":{}},{"type":"Feature","geometry":{"type":"LineString","coordinates":[[14.21804,37.38016],[14.21837,37.38031]]},"properties":{}},{"type":"Feature","geometry":{"type":"LineString","coordinates":[[14.21866,37.3801],[14.21852,37.3804]]},"properties":{}},{"type":"Feature","geometry":{"type":"LineString","coordinates":[[14.21832,37.38028],[14.21848,37.38027]]},"properties":{}},{"type":"Feature","geometry":{"type":"LineString","coordinates":[[14.21828,37.38041],[14.21804,37.38016]]},"properties":{}},{"type":"Feature","geometry":{"type":"LineString","coordinates":[[14.21828,37.38041],[14.21831,37.38034],[14.2184,37.38031],[14.21849,37.38034],[14.21852,37.3804],[14.21848,37.38048],[14.2184,37.38051],[14.21833,37.38049],[14.21828,37.38041]]},"properties":{}},{"type":"Feature","geometry":{"type":"LineString","coordinates":[[14.14208,37.41497],[14.1421,37.41506],[14.14133,37.41811],[14.14112,37.41956],[14.14105,37.41964]]},"properties":{}},{"type":"Feature","geometry":{"type":"LineString","coordinates":[[14.17471,37.41896],[14.1741,37.41917],[14.17381,37.41938]]},"properties":{}},{"type":"Feature","geometry":{"type":"LineString","coordinates":[[14.17371,37.41915],[14.17381,37.41927],[14.17381,37.41938]]},"properties":{}},{"type":"Feature","geometry":{"type":"LineString","coordinates":[[14.17363,37.4195],[14.17371,37.41915]]},"properties":{}},{"type":"Feature","geometry":{"type":"LineString","coordinates":[[14.17363,37.4195],[14.17357,37.41935],[14.17349,37.41929],[14.17328,37.41925]]},"properties":{}},{"type":"Feature","geometry":{"type":"LineString","coordinates":[[14.17381,37.41938],[14.17359,37.4196]]},"properties":{}},{"type":"Feature","geometry":{"type":"LineString","coordinates":[[14.17359,37.4196],[14.17363,37.4195]]},"properties":{}},{"type":"Feature","geometry":{"type":"LineString","coordinates":[[14.10707,37.4548],[14.10953,37.45473],[14.1098,37.45463],[14.11029,37.45415],[14.11043,37.45409]]},"properties":{}},{"type":"Feature","geometry":{"type":"LineString","coordinates":[[14.10503,37.45418],[14.10523,37.45425],[14.10583,37.45464],[14.10615,37.45477],[14.10656,37.45481],[14.10707,37.4548]]},"properties":{}},{"type":"Feature","geometry":{"type":"LineString","coordinates":[[14.11043,37.45409],[14.11039,37.45421],[14.11007,37.45454],[14.10995,37.45474],[14.1099,37.45488],[14.10989,37.45504],[14.10991,37.45519],[14.1104,37.45685]]},"properties":{}},{"type":"Feature","geometry":{"type":"LineString","coordinates":[[14.10824,37.45631],[14.10834,37.45612],[14.1086,37.45585],[14.10877,37.4556],[14.10883,37.4554],[14.10875,37.45515],[14.10856,37.45497],[14.1083,37.45488],[14.10812,37.45486],[14.10781,37.45494],[14.10759,37.4551]]},"properties":{}},{"type":"Feature","geometry":{"type":"LineString","coordinates":[[14.10655,37.45713],[14.10605,37.45528],[14.1059,37.45495],[14.10583,37.45483],[14.10515,37.45432],[14.10503,37.45418]]},"properties":{}},{"type":"Feature","geometry":{"type":"LineString","coordinates":[[14.10759,37.4551],[14.10749,37.45531],[14.10748,37.45545],[14.1075,37.45557],[14.10756,37.45572],[14.10773,37.45589],[14.10803,37.45609],[14.10829,37.45631]]},"properties":{}},{"type":"Feature","geometry":{"type":"LineString","coordinates":[[14.10992,37.45652],[14.11005,37.45629],[14.11007,37.45616],[14.11003,37.45602],[14.10984,37.45579],[14.10971,37.45571],[14.10956,37.45566],[14.10923,37.45565],[14.10904,37.45571],[14.10872,37.45593],[14.10848,37.45618],[14.10824,37.45631]]},"properties":{}},{"type":"Feature","geometry":{"type":"LineString","coordinates":[[14.10829,37.45631],[14.10754,37.45592],[14.10724,37.45585],[14.10695,37.45588],[14.10664,37.45607],[14.10653,37.45625],[14.10651,37.45651],[14.10661,37.4567]]},"properties":{}},{"type":"Feature","geometry":{"type":"LineString","coordinates":[[14.10829,37.45631],[14.1086,37.45643]]},"properties":{}},{"type":"Feature","geometry":{"type":"LineString","coordinates":[[14.10851,37.45653],[14.10829,37.45631]]},"properties":{}},{"type":"Feature","geometry":{"type":"LineString","coordinates":[[14.10661,37.4567],[14.10675,37.45682],[14.10698,37.45691],[14.10713,37.45693],[14.10739,37.4569],[14.10765,37.45677],[14.108,37.45646],[14.10824,37.45631]]},"properties":{}},{"type":"Feature","geometry":{"type":"LineString","coordinates":[[14.10883,37.45657],[14.10919,37.45671],[14.10946,37.45673],[14.10971,37.45667],[14.10992,37.45652]]},"properties":{}},{"type":"Feature","geometry":{"type":"LineString","coordinates":[[14.10824,37.45631],[14.10813,37.45653],[14.10788,37.45679],[14.10778,37.45694],[14.10774,37.45706],[14.10775,37.45728],[14.10788,37.45749],[14.10797,37.45758]]},"properties":{}},{"type":"Feature","geometry":{"type":"LineString","coordinates":[[14.03382,37.46192],[14.0338,37.46199],[14.03396,37.46232],[14.03421,37.46303],[14.0344,37.46338],[14.03476,37.46389],[14.03716,37.46685],[14.03739,37.46775],[14.03752,37.46773],[14.03763,37.46817],[14.03822,37.46946],[14.03835,37.46961],[14.03875,37.47047],[14.03913,37.47102],[14.03991,37.47177]]},"properties":{}},{"type":"Feature","geometry":{"type":"LineString","coordinates":[[14.02947,37.47038],[14.02958,37.47024],[14.02959,37.46996]]},"properties":{}},{"type":"Feature","geometry":{"type":"LineString","coordinates":[[14.02959,37.46996],[14.02978,37.47015],[14.02995,37.47028],[14.03023,37.4704]]},"properties":{}},{"type":"Feature","geometry":{"type":"LineString","coordinates":[[14.02971,37.47039],[14.02964,37.47029],[14.0296,37.47012]]},"properties":{}},{"type":"Feature","geometry":{"type":"LineString","coordinates":[[14.02975,37.47012],[14.02977,37.47027],[14.02971,37.47039]]},"properties":{}},{"type":"Feature","geometry":{"type":"LineString","coordinates":[[14.055,37.47152],[14.05492,37.47107],[14.05487,37.47094],[14.05465,37.47064],[14.05444,37.47051],[14.05415,37.47041],[14.05316,37.47017],[14.05301,37.47011]]},"properties":{}},{"type":"Feature","geometry":{"type":"LineString","coordinates":[[14.05517,37.47068],[14.05551,37.47074],[14.05617,37.47095]]},"properties":{}},{"type":"Feature","geometry":{"type":"LineString","coordinates":[[14.05641,37.47103],[14.05679,37.47112],[14.057,37.47113],[14.0572,37.47109],[14.05745,37.47096],[14.05765,37.47073]]},"properties":{}},{"type":"Feature","geometry":{"type":"LineString","coordinates":[[14.05616,37.47101],[14.05562,37.47094],[14.05532,37.47099],[14.05511,37.47115],[14.05504,37.4713],[14.055,37.47152]]},"properties":{}},{"type":"Feature","geometry":{"type":"LineString","coordinates":[[14.05765,37.47073],[14.05765,37.47109],[14.05776,37.4714],[14.05833,37.47201]]},"properties":{}},{"type":"Feature","geometry":{"type":"LineString","coordinates":[[14.00775,37.47148],[14.00801,37.4714],[14.00811,37.4713]]},"properties":{}},{"type":"Feature","geometry":{"type":"LineString","coordinates":[[14.00813,37.47161],[14.00808,37.47153],[14.00807,37.47142],[14.00813,37.4712]]},"properties":{}},{"type":"Feature","geometry":{"type":"LineString","coordinates":[[14.00813,37.4712],[14.00819,37.47144],[14.00829,37.47166]]},"properties":{}},{"type":"Feature","geometry":{"type":"LineString","coordinates":[[14.00818,37.47139],[14.00813,37.47161]]},"properties":{}},{"type":"Feature","geometry":{"type":"LineString","coordinates":[[14.03945,37.47165],[14.03952,37.47148]]},"properties":{}},{"type":"Feature","geometry":{"type":"LineString","coordinates":[[14.05597,37.4719],[14.05614,37.47177],[14.05621,37.47165],[14.05633,37.47125]]},"properties":{}},{"type":"Feature","geometry":{"type":"LineString","coordinates":[[14.03945,37.47165],[14.03969,37.47163]]},"properties":{}},{"type":"Feature","geometry":{"type":"LineString","coordinates":[[14.01633,37.47173],[14.01647,37.47165],[14.01658,37.47168],[14.01664,37.47174]]},"properties":{}},{"type":"Feature","geometry":{"type":"LineString","coordinates":[[14.03969,37.47163],[14.03963,37.47171],[14.03952,37.47178]]},"properties":{}},{"type":"Feature","geometry":{"type":"LineString","coordinates":[[14.01664,37.47174],[14.01694,37.47182]]},"properties":{}},{"type":"Feature","geometry":{"type":"LineString","coordinates":[[14.01635,37.47187],[14.01631,37.47182],[14.01633,37.47173]]},"properties":{}},{"type":"Feature","geometry":{"type":"LineString","coordinates":[[14.01664,37.47174],[14.01666,37.4718],[14.01662,37.47187]]},"properties":{}},{"type":"Feature","geometry":{"type":"LineString","coordinates":[[14.0158,37.4719],[14.01633,37.47173]]},"properties":{}},{"type":"Feature","geometry":{"type":"LineString","coordinates":[[14.04005,37.47197],[14.03989,37.47188],[14.03926,37.47171]]},"properties":{}},{"type":"Feature","geometry":{"type":"LineString","coordinates":[[14.01694,37.47182],[14.01675,37.47182],[14.01662,37.47187]]},"properties":{}},{"type":"Feature","geometry":{"type":"LineString","coordinates":[[14.01635,37.47187],[14.0158,37.4719]]},"properties":{}},{"type":"Feature","geometry":{"type":"LineString","coordinates":[[14.01662,37.47187],[14.01657,37.47191]]},"properties":{}},{"type":"Feature","geometry":{"type":"LineString","coordinates":[[14.01657,37.47191],[14.01645,37.47192],[14.01635,37.47187]]},"properties":{}},{"type":"Feature","geometry":{"type":"LineString","coordinates":[[14.03991,37.47177],[14.03997,37.47178],[14.0401,37.47189],[14.04018,37.47198],[14.0402,37.47206]]},"properties":{}},{"type":"Feature","geometry":{"type":"LineString","coordinates":[[14.0402,37.47206],[14.03991,37.47177]]},"properties":{}},{"type":"Feature","geometry":{"type":"LineString","coordinates":[[14.0402,37.47206],[14.04057,37.47249],[14.0408,37.47291]]},"properties":{}},{"type":"Feature","geometry":{"type":"LineString","coordinates":[[14.04035,37.47231],[14.04065,37.47266],[14.04076,37.47292]]},"properties":{}},{"type":"Feature","geometry":{"type":"LineString","coordinates":[[14.0406,37.47295],[14.04035,37.47231]]},"properties":{}},{"type":"Feature","geometry":{"type":"LineString","coordinates":[[14.02582,37.47309],[14.02754,37.47292],[14.02911,37.47284],[14.02936,37.47279],[14.02966,37.47266]]},"properties":{}},{"type":"Feature","geometry":{"type":"LineString","coordinates":[[14.0408,37.47291],[14.04083,37.47308]]},"properties":{}},{"type":"Feature","geometry":{"type":"LineString","coordinates":[[14.02756,37.4735],[14.02762,37.47335],[14.02769,37.47325],[14.02802,37.47305],[14.02925,37.47284],[14.02969,37.47268]]},"properties":{}},{"type":"Feature","geometry":{"type":"LineString","coordinates":[[14.02931,37.47291],[14.02817,37.47343],[14.02767,37.47354]]},"properties":{}},{"type":"Feature","geometry":{"type":"LineString","coordinates":[[14.10797,37.45758],[14.10825,37.45771],[14.1086,37.45771],[14.10891,37.45757],[14.10902,37.45746],[14.10909,37.45734],[14.10912,37.4572],[14.1091,37.45706],[14.10904,37.45693],[14.10894,37.45682],[14.10873,37.45667]]},"properties":{}},{"type":"Feature","geometry":{"type":"LineString","coordinates":[[14.10606,37.45859],[14.10613,37.45846],[14.10658,37.45799],[14.10667,37.45783],[14.10668,37.45761],[14.10655,37.45713]]},"properties":{}},{"type":"Feature","geometry":{"type":"LineString","coordinates":[[14.11164,37.45837],[14.1113,37.45824],[14.1109,37.458],[14.11072,37.45793],[14.11023,37.45783],[14.1078,37.45786]]},"properties":{}},{"type":"Feature","geometry":{"type":"LineString","coordinates":[[14.1078,37.45786],[14.10716,37.45788],[14.10694,37.45792],[14.10665,37.45807],[14.10619,37.4585],[14.10606,37.45859]]},"properties":{}},{"type":"Feature","geometry":{"type":"LineString","coordinates":[[14.11996,37.48987],[14.11996,37.48976],[14.12,37.48971],[14.12011,37.48965]]},"properties":{}},{"type":"Feature","geometry":{"type":"LineString","coordinates":[[14.12011,37.48965],[14.12017,37.48979],[14.12013,37.48993]]},"properties":{}},{"type":"Feature","geometry":{"type":"LineString","coordinates":[[14.12006,37.49001],[14.11987,37.4898],[14.11965,37.48969],[14.11953,37.48966]]},"properties":{}},{"type":"Feature","geometry":{"type":"LineString","coordinates":[[14.06317,37.48963],[14.06315,37.49004]]},"properties":{}},{"type":"Feature","geometry":{"type":"LineString","coordinates":[[14.12045,37.48985],[14.12019,37.48989],[14.12006,37.49001]]},"properties":{}},{"type":"Feature","geometry":{"type":"LineString","coordinates":[[14.15002,37.49126],[14.14993,37.49154],[14.14946,37.49225],[14.14943,37.49237],[14.14947,37.49254],[14.14952,37.49261],[14.14979,37.49279]]},"properties":{}},{"type":"Feature","geometry":{"type":"LineString","coordinates":[[14.04081,37.47308],[14.04084,37.47343],[14.04092,37.47356],[14.04109,37.47374]]},"properties":{}},{"type":"Feature","geometry":{"type":"LineString","coordinates":[[14.04109,37.47374],[14.04097,37.47367],[14.0408,37.4735],[14.04072,37.47336],[14.04064,37.47311]]},"properties":{}},{"type":"Feature","geometry":{"type":"LineString","coordinates":[[14.02931,37.47291],[14.02874,37.47326],[14.02856,37.47345],[14.02841,37.47368],[14.02833,37.47395],[14.02833,37.47408],[14.02844,37.4746]]},"properties":{}},{"type":"Feature","geometry":{"type":"LineString","coordinates":[[14.02832,37.47482],[14.0281,37.47434],[14.0279,37.47409],[14.02764,37.47385],[14.02755,37.47362]]},"properties":{}},{"type":"Feature","geometry":{"type":"LineString","coordinates":[[14.02582,37.47309],[14.0264,37.47313],[14.02708,37.4733],[14.02756,37.47354],[14.02799,37.47389],[14.02821,37.47418],[14.02844,37.4746],[14.02887,37.47581]]},"properties":{}},{"type":"Feature","geometry":{"type":"LineString","coordinates":[[14.02887,37.47581],[14.02832,37.47482],[14.02811,37.47451],[14.02787,37.47425],[14.02744,37.47389],[14.02694,37.4736],[14.02624,37.47336],[14.02552,37.47325],[14.02488,37.47325]]},"properties":{}},{"type":"Feature","geometry":{"type":"LineString","coordinates":[[14.04083,37.47308],[14.04086,37.47339],[14.04091,37.4735],[14.0412,37.47378],[14.04173,37.47407],[14.04278,37.47441],[14.04519,37.47467],[14.04641,37.47459],[14.04788,37.4744],[14.04832,37.47445],[14.04881,37.4746],[14.04906,37.47469],[14.04925,37.47483],[14.04988,37.47562],[14.05024,37.47582],[14.05037,37.4762],[14.05062,37.47645]]},"properties":{}},{"type":"Feature","geometry":{"type":"LineString","coordinates":[[14.058,37.47698],[14.05728,37.47618],[14.057,37.47571],[14.05688,37.47546],[14.05679,37.47517],[14.05666,37.47455],[14.05657,37.47346]]},"properties":{}},{"type":"Feature","geometry":{"type":"LineString","coordinates":[[14.04984,37.47564],[14.05017,37.47589],[14.05032,37.47618],[14.05059,37.47646]]},"properties":{}},{"type":"Feature","geometry":{"type":"LineString","coordinates":[[14.05042,37.47656],[14.05013,37.47602],[14.04984,37.47564]]},"properties":{}},{"type":"Feature","geometry":{"type":"LineString","coordinates":[[14.05062,37.47645],[14.05077,37.47661],[14.05073,37.47682],[14.05083,37.477]]},"properties":{}},{"type":"Feature","geometry":{"type":"LineString","coordinates":[[14.05083,37.477],[14.05069,37.47705]]},"properties":{}},{"type":"Feature","geometry":{"type":"LineString","coordinates":[[14.03024,37.47835],[14.02999,37.47805],[14.02985,37.47778],[14.02962,37.47758],[14.02946,37.47729]]},"properties":{}},{"type":"Feature","geometry":{"type":"LineString","coordinates":[[14.0507,37.47672],[14.05071,37.4769],[14.05076,37.477],[14.05246,37.47986]]},"properties":{}},{"type":"Feature","geometry":{"type":"LineString","coordinates":[[14.05297,37.48091],[14.05049,37.47672]]},"properties":{}},{"type":"Feature","geometry":{"type":"LineString","coordinates":[[14.05246,37.47986],[14.05306,37.48087]]},"properties":{}},{"type":"Feature","geometry":{"type":"LineString","coordinates":[[14.05297,37.48091],[14.05306,37.48087]]},"properties":{}},{"type":"Feature","geometry":{"type":"LineString","coordinates":[[14.05306,37.48087],[14.05365,37.4819]]},"properties":{}},{"type":"Feature","geometry":{"type":"LineString","coordinates":[[14.05619,37.48475],[14.05411,37.48277],[14.0537,37.48219],[14.05297,37.48091]]},"properties":{}},{"type":"Feature","geometry":{"type":"LineString","coordinates":[[14.05365,37.4819],[14.05389,37.4823],[14.0542,37.48272],[14.05627,37.4847]]},"properties":{}},{"type":"Feature","geometry":{"type":"LineString","coordinates":[[14.05627,37.4847],[14.05619,37.48475]]},"properties":{}},{"type":"Feature","geometry":{"type":"LineString","coordinates":[[14.05627,37.4847],[14.05746,37.48582],[14.05761,37.48602],[14.05779,37.48636],[14.05787,37.48657],[14.05798,37.48739]]},"properties":{}},{"type":"Feature","geometry":{"type":"LineString","coordinates":[[14.0579,37.48762],[14.05778,37.48669],[14.05773,37.48648],[14.05762,37.48625],[14.05727,37.48578],[14.05619,37.48475]]},"properties":{}},{"type":"Feature","geometry":{"type":"LineString","coordinates":[[14.05798,37.48739],[14.05799,37.48754]]},"properties":{}},{"type":"Feature","geometry":{"type":"LineString","coordinates":[[14.05798,37.48822],[14.05793,37.48812],[14.0579,37.48762]]},"properties":{}},{"type":"Feature","geometry":{"type":"LineString","coordinates":[[14.05801,37.48769],[14.05802,37.48811],[14.05798,37.48822]]},"properties":{}},{"type":"Feature","geometry":{"type":"LineString","coordinates":[[14.058,37.48849],[14.0585,37.4885]]},"properties":{}},{"type":"Feature","geometry":{"type":"LineString","coordinates":[[14.05816,37.48946],[14.058,37.48849]]},"properties":{}},{"type":"Feature","geometry":{"type":"LineString","coordinates":[[14.0585,37.4885],[14.05868,37.4899]]},"properties":{}},{"type":"Feature","geometry":{"type":"LineString","coordinates":[[14.0593,37.4885],[14.05953,37.49005],[14.05965,37.49023],[14.06022,37.49061]]},"properties":{}},{"type":"Feature","geometry":{"type":"LineString","coordinates":[[14.03889,37.49095],[14.03944,37.49128],[14.03961,37.49132],[14.03986,37.49132]]},"properties":{}},{"type":"Feature","geometry":{"type":"LineString","coordinates":[[14.04062,37.49144],[14.04049,37.49146],[14.04041,37.49142]]},"properties":{}},{"type":"Feature","geometry":{"type":"LineString","coordinates":[[14.04014,37.49216],[14.04045,37.49161],[14.04041,37.49142]]},"properties":{}},{"type":"Feature","geometry":{"type":"LineString","coordinates":[[14.05838,37.49202],[14.05878,37.4922],[14.05889,37.49229],[14.05897,37.49237],[14.05912,37.49269]]},"properties":{}},{"type":"Feature","geometry":{"type":"LineString","coordinates":[[14.05912,37.49269],[14.0592,37.49276]]},"properties":{}},{"type":"Feature","geometry":{"type":"LineString","coordinates":[[14.0592,37.49276],[14.05933,37.49328]]},"properties":{}},{"type":"Feature","geometry":{"type":"LineString","coordinates":[[14.05933,37.49328],[14.05951,37.49402]]},"properties":{}},{"type":"Feature","geometry":{"type":"LineString","coordinates":[[14.06027,37.49327],[14.06026,37.49407]]},"properties":{}},{"type":"Feature","geometry":{"type":"LineString","coordinates":[[14.05703,37.49557],[14.05716,37.49528]]},"properties":{}},{"type":"Feature","geometry":{"type":"LineString","coordinates":[[14.05716,37.49528],[14.05715,37.4956]]},"properties":{}},{"type":"Feature","geometry":{"type":"LineString","coordinates":[[14.05703,37.49557],[14.05715,37.4956]]},"properties":{}},{"type":"Feature","geometry":{"type":"LineString","coordinates":[[14.05715,37.4956],[14.05716,37.49561]]},"properties":{}},{"type":"Feature","geometry":{"type":"LineString","coordinates":[[14.05707,37.4957],[14.05699,37.49566],[14.05699,37.49561],[14.05703,37.49557]]},"properties":{}},{"type":"Feature","geometry":{"type":"LineString","coordinates":[[14.05716,37.49561],[14.05744,37.49567]]},"properties":{}},{"type":"Feature","geometry":{"type":"LineString","coordinates":[[14.05716,37.49561],[14.05715,37.49567],[14.0571,37.4957]]},"properties":{}},{"type":"Feature","geometry":{"type":"LineString","coordinates":[[14.05744,37.49567],[14.0571,37.4957]]},"properties":{}},{"type":"Feature","geometry":{"type":"LineString","coordinates":[[14.14907,37.49259],[14.14939,37.49215],[14.14944,37.49203],[14.14945,37.49193],[14.14932,37.4917],[14.14921,37.49161],[14.14903,37.49152]]},"properties":{}},{"type":"Feature","geometry":{"type":"LineString","coordinates":[[14.14979,37.49279],[14.15017,37.49275],[14.15049,37.49265]]},"properties":{}},{"type":"Feature","geometry":{"type":"LineString","coordinates":[[14.14958,37.49278],[14.1495,37.49273]]},"properties":{}},{"type":"Feature","geometry":{"type":"LineString","coordinates":[[14.14972,37.49278],[14.14958,37.49278]]},"properties":{}},{"type":"Feature","geometry":{"type":"LineString","coordinates":[[14.14943,37.49337],[14.14966,37.49317],[14.14974,37.49303],[14.14969,37.49288],[14.14958,37.49278]]},"properties":{}},{"type":"Feature","geometry":{"type":"LineString","coordinates":[[14.14958,37.49278],[14.14932,37.49281],[14.14922,37.49285],[14.14817,37.49379],[14.1479,37.49395]]},"properties":{}},{"type":"Feature","geometry":{"type":"LineString","coordinates":[[14.06379,37.49979],[14.06395,37.49992]]},"properties":{}},{"type":"Feature","geometry":{"type":"LineString","coordinates":[[14.06395,37.49992],[14.06398,37.49996]]},"properties":{}},{"type":"Feature","geometry":{"type":"LineString","coordinates":[[14.06378,37.5],[14.06379,37.49998]]},"properties":{}},{"type":"Feature","geometry":{"type":"LineString","coordinates":[[14.06398,37.49996],[14.06405,37.5]]},"properties":{}},{"type":"Feature","geometry":{"type":"LineString","coordinates":[[14.0571,37.4957],[14.05707,37.4957]]},"properties":{}},{"type":"Feature","geometry":{"type":"LineString","coordinates":[[14.05679,37.49714],[14.05692,37.49701],[14.057,37.49698]]},"properties":{}},{"type":"Feature","geometry":{"type":"LineString","coordinates":[[14.057,37.49698],[14.05689,37.49715]]},"properties":{}},{"type":"Feature","geometry":{"type":"LineString","coordinates":[[14.05677,37.49715],[14.05679,37.49714]]},"properties":{}},{"type":"Feature","geometry":{"type":"LineString","coordinates":[[14.05679,37.49726],[14.05674,37.49721],[14.05677,37.49715]]},"properties":{}},{"type":"Feature","geometry":{"type":"LineString","coordinates":[[14.05689,37.49718],[14.05683,37.49726]]},"properties":{}},{"type":"Feature","geometry":{"type":"LineString","coordinates":[[14.05683,37.49726],[14.05679,37.49726]]},"properties":{}},{"type":"Feature","geometry":{"type":"LineString","coordinates":[[14.05689,37.49715],[14.05711,37.49723],[14.05836,37.49748],[14.05964,37.4976],[14.06001,37.49767],[14.0605,37.49782],[14.06232,37.49866],[14.06379,37.49979]]},"properties":{}},{"type":"Feature","geometry":{"type":"LineString","coordinates":[[14.0638,37.49995],[14.0637,37.49982],[14.06227,37.49873],[14.06076,37.49801],[14.06001,37.49776],[14.05962,37.49769],[14.05834,37.49756],[14.05683,37.49726]]},"properties":{}}]}