{"type":"FeatureCollection","features":[{"type":"Feature","geometry":{"type":"LineString","coordinates":[[14.09963,41.78107],[14.09935,41.78083],[14.0993,41.78076],[14.0992,41.78044],[14.09911,41.78031],[14.09892,41.77973],[14.09876,41.77942],[14.09876,41.77926],[14.09863,41.77919],[14.09829,41.77864],[14.09828,41.77848],[14.09808,41.77824],[14.09783,41.77819],[14.0976,41.77795],[14.09647,41.77694],[14.09636,41.77675],[14.09632,41.77657],[14.09634,41.77627],[14.09652,41.77538],[14.0965,41.77495],[14.09656,41.77484],[14.0967,41.7748],[14.09676,41.77473],[14.09672,41.77431],[14.09677,41.77428],[14.09743,41.77426],[14.09747,41.77429],[14.09747,41.77436],[14.0975,41.77441],[14.09766,41.77444],[14.09762,41.7742],[14.09731,41.77357],[14.09706,41.77296],[14.09689,41.77214],[14.09684,41.7717],[14.09664,41.77125],[14.09652,41.77106],[14.09606,41.77062],[14.0959,41.7704],[14.09559,41.76937],[14.09536,41.76894],[14.09496,41.76868],[14.09442,41.76843],[14.0939,41.76793],[14.09365,41.76734],[14.09343,41.76667],[14.09306,41.76621],[14.09285,41.76605],[14.09253,41.76587],[14.0924,41.76573],[14.09224,41.76549],[14.092,41.76485],[14.09181,41.7645],[14.0915,41.76407],[14.09099,41.76372],[14.09054,41.76349],[14.09013,41.76296],[14.0899,41.76283],[14.08943,41.76271],[14.08927,41.76255],[14.08909,41.76221],[14.08908,41.76209],[14.08911,41.76197],[14.0892,41.76181],[14.08958,41.76147],[14.08961,41.76141],[14.08947,41.76099],[14.08938,41.76014],[14.08907,41.75962],[14.08893,41.7595],[14.08857,41.75932],[14.08835,41.75928],[14.08746,41.75977],[14.08637,41.76071],[14.0861,41.76073],[14.08572,41.76059],[14.08547,41.76041],[14.08541,41.76032],[14.08536,41.76022],[14.08528,41.75979],[14.08496,41.75933],[14.08487,41.75897],[14.08448,41.75857],[14.08433,41.75834],[14.08374,41.75761],[14.08349,41.75744],[14.08304,41.75696],[14.08283,41.75657],[14.08256,41.75626],[14.08206,41.75598],[14.08168,41.75559],[14.08111,41.75523],[14.08027,41.75497],[14.07986,41.75479],[14.0794,41.7545],[14.07875,41.75415],[14.07839,41.75403],[14.07763,41.75387],[14.07718,41.7539],[14.07589,41.75383],[14.07486,41.7534],[14.07438,41.75306],[14.07414,41.75276],[14.0739,41.7526],[14.07317,41.75236],[14.07267,41.7523],[14.07191,41.75212],[14.071,41.75174],[14.07063,41.75149],[14.07036,41.75097],[14.06983,41.75011],[14.06967,41.75]]},"properties":{}},{"type":"Feature","geometry":{"type":"LineString","coordinates":[[14.07465,41.77116],[14.07443,41.77082],[14.07435,41.7706],[14.0744,41.7704],[14.0744,41.77012],[14.07422,41.76971],[14.07392,41.76936],[14.07358,41.76906],[14.07344,41.76901],[14.07281,41.769],[14.07213,41.76892],[14.07196,41.76884],[14.07189,41.76865],[14.07155,41.76826]]},"properties":{}},{"type":"Feature","geometry":{"type":"LineString","coordinates":[[14.09766,41.77444],[14.09775,41.77444]]},"properties":{}},{"type":"Feature","geometry":{"type":"LineString","coordinates":[[14.09799,41.77566],[14.09809,41.77562]]},"properties":{}},{"type":"Feature","geometry":{"type":"LineString","coordinates":[[14.10155,41.77842],[14.10155,41.77836],[14.10183,41.77795],[14.10182,41.77787],[14.10105,41.77749],[14.10082,41.77722],[14.1005,41.777],[14.09939,41.7765],[14.09901,41.77652],[14.09876,41.77631],[14.09865,41.77626],[14.09809,41.77562]]},"properties":{}},{"type":"Feature","geometry":{"type":"LineString","coordinates":[[14.12282,41.77966],[14.12283,41.7796],[14.12255,41.77941],[14.12175,41.77898],[14.11968,41.77818],[14.11966,41.77811],[14.11975,41.77801],[14.11969,41.77789],[14.11999,41.77777],[14.12003,41.77768],[14.12002,41.77756],[14.11934,41.77711],[14.11894,41.77678],[14.11761,41.77592],[14.11746,41.77591],[14.11742,41.77593],[14.1174,41.77598]]},"properties":{}},{"type":"Feature","geometry":{"type":"LineString","coordinates":[[14.10155,41.77842],[14.10169,41.77845],[14.10187,41.77854],[14.10194,41.77852]]},"properties":{}},{"type":"Feature","geometry":{"type":"LineString","coordinates":[[14.0999,41.78306],[14.09978,41.78222],[14.0997,41.78203],[14.09957,41.78191],[14.09893,41.78141],[14.09867,41.78108],[14.09819,41.77972],[14.09739,41.77845],[14.09714,41.77819],[14.09628,41.77741],[14.09596,41.77709],[14.0958,41.77672],[14.09579,41.77635],[14.09598,41.77535],[14.0959,41.77492]]},"properties":{}},{"type":"Feature","geometry":{"type":"LineString","coordinates":[[14.10416,41.7795],[14.10194,41.77852]]},"properties":{}},{"type":"Feature","geometry":{"type":"LineString","coordinates":[[14.10351,41.78035],[14.10365,41.78029],[14.1042,41.77956],[14.10416,41.7795]]},"properties":{}},{"type":"Feature","geometry":{"type":"LineString","coordinates":[[14.10075,41.78172],[14.10081,41.78122],[14.10084,41.78118],[14.10107,41.78114]]},"properties":{}},{"type":"Feature","geometry":{"type":"LineString","coordinates":[[14.10351,41.78035],[14.10324,41.78043],[14.10313,41.78054],[14.10386,41.78217],[14.10397,41.78216],[14.10399,41.78221],[14.10389,41.78225],[14.10403,41.78253],[14.10414,41.78252],[14.10416,41.78257],[14.10407,41.78261],[14.10446,41.78356],[14.10438,41.78358]]},"properties":{}},{"type":"Feature","geometry":{"type":"LineString","coordinates":[[14.10099,41.78322],[14.10075,41.78172],[14.10044,41.78164],[14.09963,41.78107]]},"properties":{}},{"type":"Feature","geometry":{"type":"LineString","coordinates":[[14.10278,41.78431],[14.10232,41.78351],[14.10201,41.78317],[14.10186,41.78314],[14.10099,41.78322]]},"properties":{}},{"type":"Feature","geometry":{"type":"LineString","coordinates":[[14.10438,41.78358],[14.10399,41.78377],[14.10343,41.78393]]},"properties":{}},{"type":"Feature","geometry":{"type":"LineString","coordinates":[[14.10166,41.78484],[14.10131,41.78436],[14.10134,41.78421],[14.1013,41.7841],[14.10087,41.78372],[14.10081,41.78364],[14.10085,41.7835],[14.101,41.78339],[14.10099,41.78322]]},"properties":{}},{"type":"Feature","geometry":{"type":"LineString","coordinates":[[14.10343,41.78393],[14.10321,41.784],[14.10312,41.78414],[14.10278,41.78431]]},"properties":{}},{"type":"Feature","geometry":{"type":"LineString","coordinates":[[14.10278,41.78431],[14.10193,41.78474],[14.10164,41.78485]]},"properties":{}},{"type":"Feature","geometry":{"type":"LineString","coordinates":[[14.10164,41.78485],[14.101,41.78508]]},"properties":{}},{"type":"Feature","geometry":{"type":"LineString","coordinates":[[14.101,41.78508],[14.10047,41.78527]]},"properties":{}},{"type":"Feature","geometry":{"type":"LineString","coordinates":[[14.1032,41.78511],[14.10333,41.78506],[14.10353,41.78488],[14.10392,41.78471],[14.10411,41.78471],[14.10422,41.78482],[14.10419,41.78543],[14.10421,41.7857],[14.10435,41.78609],[14.10456,41.78621],[14.10463,41.78629],[14.10467,41.78652],[14.10484,41.7868],[14.1046,41.78729],[14.10449,41.78733],[14.10429,41.78723],[14.10416,41.78726],[14.1036,41.78705],[14.1031,41.78677],[14.10291,41.78659],[14.10166,41.78484]]},"properties":{}},{"type":"Feature","geometry":{"type":"LineString","coordinates":[[14.10424,41.78812],[14.1042,41.788],[14.10344,41.7877],[14.10301,41.78749],[14.10279,41.78728],[14.10239,41.78699],[14.10218,41.78679],[14.10156,41.78594],[14.10146,41.78572],[14.10112,41.78536],[14.1009,41.78528],[14.10053,41.7853],[14.10051,41.78519],[14.1007,41.78499],[14.1008,41.78487],[14.1008,41.78481],[14.10057,41.78447],[14.1003,41.784]]},"properties":{}},{"type":"Feature","geometry":{"type":"LineString","coordinates":[[14.10413,41.78738],[14.10411,41.78731],[14.10376,41.78718],[14.1036,41.78705]]},"properties":{}},{"type":"Feature","geometry":{"type":"LineString","coordinates":[[14.10389,41.78776],[14.10413,41.78738]]},"properties":{}},{"type":"Feature","geometry":{"type":"LineString","coordinates":[[14.10383,41.78784],[14.10389,41.78776]]},"properties":{}},{"type":"Feature","geometry":{"type":"LineString","coordinates":[[14.07967,41.84717],[14.07979,41.84682],[14.07985,41.84674],[14.08002,41.84666]]},"properties":{}},{"type":"Feature","geometry":{"type":"LineString","coordinates":[[14.07742,41.8503],[14.07839,41.84982],[14.07867,41.8496],[14.07938,41.84849],[14.07954,41.84815],[14.07967,41.84762]]},"properties":{}},{"type":"Feature","geometry":{"type":"LineString","coordinates":[[14.0744,41.85427],[14.07454,41.85402]]},"properties":{}},{"type":"Feature","geometry":{"type":"LineString","coordinates":[[14.05465,41.86896],[14.05537,41.86889],[14.05592,41.86876],[14.05678,41.86848],[14.05715,41.86829],[14.05849,41.86774],[14.05889,41.86761],[14.05943,41.86749],[14.06127,41.86735],[14.06302,41.86712],[14.06386,41.86712],[14.06542,41.86692]]},"properties":{}},{"type":"Feature","geometry":{"type":"LineString","coordinates":[[14.08537,41.85586],[14.0851,41.85649],[14.08477,41.85709],[14.08452,41.8574]]},"properties":{}},{"type":"Feature","geometry":{"type":"LineString","coordinates":[[14.0836,41.85844],[14.08418,41.85774],[14.08452,41.8574]]},"properties":{}},{"type":"Feature","geometry":{"type":"LineString","coordinates":[[14.0744,41.85427],[14.07341,41.85418],[14.07321,41.85417],[14.07304,41.85421],[14.06854,41.85716],[14.0673,41.85787],[14.06411,41.86028],[14.06307,41.86097],[14.0612,41.86204],[14.06076,41.86233],[14.06008,41.86288],[14.05959,41.86318],[14.05894,41.86351],[14.05656,41.8645],[14.05526,41.86489],[14.05504,41.8649],[14.05428,41.86518],[14.05336,41.86546],[14.05286,41.86569]]},"properties":{}},{"type":"Feature","geometry":{"type":"LineString","coordinates":[[14.07143,41.86525],[14.07162,41.86525],[14.07194,41.86516],[14.07271,41.86484],[14.07314,41.8646],[14.07352,41.86428],[14.07433,41.86341],[14.07453,41.86323],[14.07481,41.86306],[14.07534,41.86294],[14.07623,41.86286],[14.07684,41.8627],[14.07754,41.8624],[14.078,41.86211],[14.07864,41.86187],[14.07982,41.86131],[14.08157,41.8602],[14.08234,41.8596],[14.08274,41.85926],[14.08351,41.85844]]},"properties":{}},{"type":"Feature","geometry":{"type":"LineString","coordinates":[[14.08351,41.85844],[14.08411,41.8585],[14.08437,41.85859],[14.08479,41.85887],[14.08484,41.85905],[14.08483,41.85918],[14.08466,41.8595],[14.08468,41.85973],[14.08465,41.85984],[14.08441,41.86016],[14.08427,41.86043],[14.08388,41.86148],[14.0837,41.86177],[14.08311,41.86298],[14.08269,41.86348],[14.08198,41.86411],[14.08132,41.86508],[14.08117,41.86542],[14.08101,41.86566],[14.08096,41.86587],[14.08092,41.8668],[14.08088,41.86698],[14.08075,41.86728],[14.08028,41.86785],[14.07901,41.86909],[14.07892,41.86926],[14.07825,41.87091],[14.07815,41.87108],[14.07804,41.87122],[14.07733,41.87182],[14.07713,41.87207]]},"properties":{}},{"type":"Feature","geometry":{"type":"LineString","coordinates":[[14.0685,41.86614],[14.06948,41.86568],[14.07001,41.86549],[14.07061,41.86535],[14.07143,41.86525]]},"properties":{}},{"type":"Feature","geometry":{"type":"LineString","coordinates":[[14.06542,41.86692],[14.06769,41.8664],[14.06809,41.8663],[14.0685,41.86614]]},"properties":{}}]}