{"type":"FeatureCollection","features":[{"type":"Feature","geometry":{"type":"LineString","coordinates":[[14.19349,42.21425],[14.19332,42.21437]]},"properties":{}},{"type":"Feature","geometry":{"type":"LineString","coordinates":[[14.18901,42.21471],[14.18821,42.21462]]},"properties":{}},{"type":"Feature","geometry":{"type":"LineString","coordinates":[[14.19332,42.21437],[14.19253,42.21518],[14.19237,42.21518],[14.19216,42.2151],[14.19174,42.21502],[14.18901,42.21471]]},"properties":{}},{"type":"Feature","geometry":{"type":"LineString","coordinates":[[14.04903,42.00814],[14.04919,42.0081],[14.04971,42.00774],[14.05034,42.00719],[14.05045,42.00713],[14.05189,42.00665],[14.05262,42.00612],[14.05319,42.0058],[14.05449,42.00519],[14.05511,42.0051],[14.05531,42.00504],[14.056,42.00469],[14.05609,42.00457],[14.05607,42.00451]]},"properties":{}},{"type":"Feature","geometry":{"type":"LineString","coordinates":[[14.0255,42.21133],[14.02535,42.2115]]},"properties":{}},{"type":"Feature","geometry":{"type":"LineString","coordinates":[[14.02534,42.21154],[14.0253,42.21133]]},"properties":{}},{"type":"Feature","geometry":{"type":"LineString","coordinates":[[14.02544,42.21136],[14.02537,42.21145],[14.02534,42.21154]]},"properties":{}},{"type":"Feature","geometry":{"type":"LineString","coordinates":[[14.0253,42.21177],[14.02534,42.21154]]},"properties":{}},{"type":"Feature","geometry":{"type":"LineString","coordinates":[[14.02175,42.24301],[14.02202,42.24287]]},"properties":{}},{"type":"Feature","geometry":{"type":"LineString","coordinates":[[14.02118,42.24322],[14.02175,42.24301]]},"properties":{}},{"type":"Feature","geometry":{"type":"LineString","coordinates":[[14.01897,42.24353],[14.01928,42.24346],[14.02045,42.24348],[14.02098,42.24333],[14.02118,42.24322]]},"properties":{}},{"type":"Feature","geometry":{"type":"LineString","coordinates":[[14.01445,42.24797],[14.01451,42.24792],[14.01551,42.24748],[14.01577,42.24732],[14.01609,42.24694],[14.01647,42.24611],[14.0169,42.24576],[14.01783,42.24481],[14.01823,42.24426],[14.01846,42.24387],[14.01857,42.24376],[14.01897,42.24353]]},"properties":{}},{"type":"Feature","geometry":{"type":"LineString","coordinates":[[14.0152,42.24761],[14.01512,42.24746]]},"properties":{}},{"type":"Feature","geometry":{"type":"LineString","coordinates":[[14.01445,42.24797],[14.015,42.2478],[14.01542,42.24763],[14.01563,42.2476],[14.01575,42.24762]]},"properties":{}},{"type":"Feature","geometry":{"type":"LineString","coordinates":[[14.01283,42.25],[14.01301,42.24961],[14.01332,42.24868],[14.01341,42.24848],[14.01377,42.24824],[14.014,42.24812],[14.01445,42.24797]]},"properties":{}},{"type":"Feature","geometry":{"type":"LineString","coordinates":[[14.21131,42.20977],[14.21134,42.20961],[14.21131,42.20951],[14.2074,42.20313],[14.20699,42.20258],[14.20635,42.20196]]},"properties":{}},{"type":"Feature","geometry":{"type":"LineString","coordinates":[[14.21131,42.20977],[14.21139,42.2098]]},"properties":{}},{"type":"Feature","geometry":{"type":"LineString","coordinates":[[14.20879,42.21124],[14.20883,42.21118],[14.20928,42.21085],[14.21119,42.20986],[14.21131,42.20977]]},"properties":{}},{"type":"Feature","geometry":{"type":"LineString","coordinates":[[14.20879,42.21124],[14.20647,42.21214],[14.20624,42.21227],[14.20421,42.21371],[14.20267,42.21441]]},"properties":{}},{"type":"Feature","geometry":{"type":"LineString","coordinates":[[14.20267,42.21441],[14.2018,42.21498],[14.2017,42.21501],[14.20113,42.21494],[14.20061,42.21493],[14.20012,42.21489],[14.19925,42.21499],[14.19815,42.21473],[14.19612,42.21441],[14.19563,42.21417],[14.19544,42.21403],[14.19519,42.21373],[14.19504,42.21369],[14.19495,42.21373],[14.19492,42.21379],[14.19446,42.21503],[14.19435,42.2151],[14.19421,42.21503],[14.19394,42.21441],[14.19384,42.21429],[14.19368,42.21422],[14.19349,42.21425]]},"properties":{}},{"type":"Feature","geometry":{"type":"LineString","coordinates":[[14.15581,42.22073],[14.15583,42.22077],[14.1573,42.22133],[14.15868,42.22216],[14.1593,42.22255],[14.16018,42.22342],[14.16181,42.22439],[14.16239,42.22477],[14.16339,42.2258],[14.16399,42.2265],[14.16423,42.22673],[14.16497,42.22728],[14.16619,42.22827],[14.16669,42.22877],[14.16724,42.22942],[14.16757,42.22975],[14.16979,42.23132],[14.16996,42.23142],[14.17038,42.23157],[14.17143,42.23184],[14.1717,42.23188],[14.17207,42.23183],[14.17289,42.23155]]},"properties":{}},{"type":"Feature","geometry":{"type":"LineString","coordinates":[[14.18254,42.23982],[14.18268,42.2401]]},"properties":{}},{"type":"Feature","geometry":{"type":"LineString","coordinates":[[14.18268,42.2401],[14.18246,42.23993],[14.18237,42.2399]]},"properties":{}}]}