{"type":"FeatureCollection","features":[{"type":"Feature","geometry":{"type":"LineString","coordinates":[[14.24214,37.06619],[14.24277,37.06607]]},"properties":{}},{"type":"Feature","geometry":{"type":"LineString","coordinates":[[14.24277,37.06607],[14.24219,37.06626]]},"properties":{}},{"type":"Feature","geometry":{"type":"LineString","coordinates":[[14.24188,37.06626],[14.24206,37.0662]]},"properties":{}},{"type":"Feature","geometry":{"type":"LineString","coordinates":[[14.24262,37.06613],[14.24215,37.06635]]},"properties":{}},{"type":"Feature","geometry":{"type":"LineString","coordinates":[[14.24203,37.06628],[14.24206,37.0662]]},"properties":{}},{"type":"Feature","geometry":{"type":"LineString","coordinates":[[14.24203,37.06628],[14.24188,37.06626]]},"properties":{}},{"type":"Feature","geometry":{"type":"LineString","coordinates":[[14.24213,37.06632],[14.24207,37.06637]]},"properties":{}},{"type":"Feature","geometry":{"type":"LineString","coordinates":[[14.24197,37.0664],[14.24203,37.06635],[14.24204,37.0663]]},"properties":{}},{"type":"Feature","geometry":{"type":"LineString","coordinates":[[14.24215,37.06635],[14.24207,37.06637]]},"properties":{}},{"type":"Feature","geometry":{"type":"LineString","coordinates":[[14.24207,37.06637],[14.24197,37.0664]]},"properties":{}},{"type":"Feature","geometry":{"type":"LineString","coordinates":[[14.23432,37.06705],[14.23489,37.06712],[14.23525,37.06713]]},"properties":{}},{"type":"Feature","geometry":{"type":"LineString","coordinates":[[14.23428,37.06717],[14.2342,37.06714],[14.23419,37.06708]]},"properties":{}},{"type":"Feature","geometry":{"type":"LineString","coordinates":[[14.23525,37.06713],[14.23477,37.06717],[14.23433,37.06716]]},"properties":{}},{"type":"Feature","geometry":{"type":"LineString","coordinates":[[14.232,37.06788],[14.23419,37.06708]]},"properties":{}},{"type":"Feature","geometry":{"type":"LineString","coordinates":[[14.23428,37.06717],[14.23386,37.06727],[14.23231,37.06781],[14.232,37.06788]]},"properties":{}},{"type":"Feature","geometry":{"type":"LineString","coordinates":[[14.23125,37.07175],[14.23264,37.07134],[14.23301,37.07127],[14.23334,37.07127],[14.2339,37.07133],[14.2345,37.07134],[14.23659,37.07114]]},"properties":{}},{"type":"Feature","geometry":{"type":"LineString","coordinates":[[14.23057,37.07186],[14.23064,37.07186],[14.23067,37.0719]]},"properties":{}},{"type":"Feature","geometry":{"type":"LineString","coordinates":[[14.23054,37.07191],[14.23057,37.07186]]},"properties":{}},{"type":"Feature","geometry":{"type":"LineString","coordinates":[[14.23067,37.0719],[14.23066,37.07195]]},"properties":{}},{"type":"Feature","geometry":{"type":"LineString","coordinates":[[14.23066,37.07195],[14.23057,37.07195],[14.23054,37.07191]]},"properties":{}},{"type":"Feature","geometry":{"type":"LineString","coordinates":[[14.21753,37.0789],[14.21937,37.07675],[14.22,37.07617],[14.22105,37.07545],[14.22112,37.07537],[14.22157,37.07471],[14.22222,37.07386],[14.22254,37.07363],[14.22312,37.07338]]},"properties":{}},{"type":"Feature","geometry":{"type":"LineString","coordinates":[[14.22312,37.07338],[14.22244,37.07379],[14.22228,37.07393],[14.22122,37.07539],[14.22111,37.0755],[14.22021,37.07614],[14.21961,37.07667],[14.21755,37.07907]]},"properties":{}},{"type":"Feature","geometry":{"type":"LineString","coordinates":[[14.21142,37.07808],[14.21155,37.078]]},"properties":{}},{"type":"Feature","geometry":{"type":"LineString","coordinates":[[14.21073,37.07852],[14.21142,37.07808]]},"properties":{}},{"type":"Feature","geometry":{"type":"LineString","coordinates":[[14.21755,37.07907],[14.21722,37.07951],[14.21717,37.07964],[14.21718,37.07971]]},"properties":{}},{"type":"Feature","geometry":{"type":"LineString","coordinates":[[14.20756,37.08221],[14.2081,37.08204],[14.20818,37.08195],[14.20836,37.0819],[14.20852,37.0819],[14.20879,37.08179],[14.20914,37.0816],[14.20927,37.08165],[14.20964,37.08152],[14.20974,37.08122],[14.20972,37.08105],[14.20962,37.08089],[14.20999,37.08073],[14.21007,37.08034],[14.21027,37.08024],[14.21109,37.08037],[14.2112,37.08043],[14.21159,37.08027],[14.21178,37.08024],[14.21211,37.08049],[14.21253,37.08018],[14.21276,37.08007],[14.21283,37.08002],[14.21285,37.07996],[14.21273,37.07979],[14.21271,37.07954],[14.21294,37.07936],[14.21306,37.07914],[14.21323,37.07894],[14.21321,37.07886],[14.213,37.07866],[14.21299,37.0786],[14.21313,37.07845],[14.21339,37.07839],[14.21368,37.07824],[14.21373,37.0781],[14.21371,37.078],[14.21362,37.0779],[14.21343,37.07781],[14.21327,37.07779],[14.21314,37.07771],[14.213,37.07754],[14.21301,37.07751],[14.21342,37.0772],[14.21354,37.07705],[14.21365,37.07699],[14.21373,37.07698],[14.21387,37.07705],[14.21412,37.07695],[14.21438,37.07707],[14.21451,37.07703],[14.21485,37.07681],[14.21504,37.07672],[14.21522,37.07665],[14.21534,37.07665]]},"properties":{}},{"type":"Feature","geometry":{"type":"LineString","coordinates":[[14.22329,37.07976],[14.22346,37.07963]]},"properties":{}},{"type":"Feature","geometry":{"type":"LineString","coordinates":[[14.22346,37.07963],[14.22339,37.07982]]},"properties":{}},{"type":"Feature","geometry":{"type":"LineString","coordinates":[[14.22319,37.0798],[14.22329,37.07976],[14.22339,37.07982]]},"properties":{}},{"type":"Feature","geometry":{"type":"LineString","coordinates":[[14.22339,37.07982],[14.2234,37.07984]]},"properties":{}},{"type":"Feature","geometry":{"type":"LineString","coordinates":[[14.22285,37.0799],[14.22319,37.0798]]},"properties":{}},{"type":"Feature","geometry":{"type":"LineString","coordinates":[[14.22324,37.07992],[14.22318,37.07988],[14.22319,37.0798]]},"properties":{}},{"type":"Feature","geometry":{"type":"LineString","coordinates":[[14.2234,37.07984],[14.22334,37.07992],[14.22324,37.07992]]},"properties":{}},{"type":"Feature","geometry":{"type":"LineString","coordinates":[[14.22324,37.07992],[14.22285,37.0799]]},"properties":{}},{"type":"Feature","geometry":{"type":"LineString","coordinates":[[14.2234,37.07984],[14.22356,37.08003]]},"properties":{}},{"type":"Feature","geometry":{"type":"LineString","coordinates":[[14.22356,37.08003],[14.22327,37.07993]]},"properties":{}},{"type":"Feature","geometry":{"type":"LineString","coordinates":[[14.21719,37.07973],[14.21787,37.07999],[14.21802,37.08007],[14.21852,37.08052]]},"properties":{}},{"type":"Feature","geometry":{"type":"LineString","coordinates":[[14.21821,37.08062],[14.21813,37.08042],[14.21804,37.08031],[14.21779,37.08013],[14.2175,37.08001],[14.217,37.07998]]},"properties":{}},{"type":"Feature","geometry":{"type":"LineString","coordinates":[[14.21854,37.08054],[14.21883,37.08057],[14.21903,37.08056]]},"properties":{}},{"type":"Feature","geometry":{"type":"LineString","coordinates":[[14.2182,37.08065],[14.21824,37.08057],[14.21833,37.08051],[14.21846,37.0805],[14.21854,37.08054]]},"properties":{}},{"type":"Feature","geometry":{"type":"LineString","coordinates":[[14.21854,37.08054],[14.21861,37.08063],[14.2186,37.08074]]},"properties":{}},{"type":"Feature","geometry":{"type":"LineString","coordinates":[[14.21903,37.08056],[14.2186,37.08074]]},"properties":{}},{"type":"Feature","geometry":{"type":"LineString","coordinates":[[14.21836,37.08083],[14.21824,37.08076],[14.2182,37.08065]]},"properties":{}},{"type":"Feature","geometry":{"type":"LineString","coordinates":[[14.2186,37.08074],[14.21858,37.08076]]},"properties":{}},{"type":"Feature","geometry":{"type":"LineString","coordinates":[[14.21858,37.08076],[14.2185,37.08082],[14.21836,37.08083]]},"properties":{}},{"type":"Feature","geometry":{"type":"LineString","coordinates":[[14.20792,37.08276],[14.20818,37.08274],[14.20857,37.08265],[14.2096,37.08221],[14.20997,37.08214],[14.21038,37.08218],[14.21108,37.08242],[14.2114,37.08245],[14.21179,37.08242],[14.21215,37.08234],[14.21273,37.0821],[14.21309,37.08191],[14.21445,37.08103]]},"properties":{}},{"type":"Feature","geometry":{"type":"LineString","coordinates":[[14.21282,37.08223],[14.2123,37.08239],[14.21175,37.08251],[14.20787,37.08288]]},"properties":{}},{"type":"Feature","geometry":{"type":"LineString","coordinates":[[14.20769,37.08248],[14.20787,37.08271]]},"properties":{}},{"type":"Feature","geometry":{"type":"LineString","coordinates":[[14.20772,37.08274],[14.20769,37.08248]]},"properties":{}},{"type":"Feature","geometry":{"type":"LineString","coordinates":[[14.20769,37.08278],[14.20772,37.08274]]},"properties":{}},{"type":"Feature","geometry":{"type":"LineString","coordinates":[[14.20772,37.08274],[14.20781,37.0827],[14.2079,37.08273],[14.20793,37.08281],[14.20787,37.08288]]},"properties":{}},{"type":"Feature","geometry":{"type":"LineString","coordinates":[[14.20723,37.08283],[14.20769,37.08278]]},"properties":{}},{"type":"Feature","geometry":{"type":"LineString","coordinates":[[14.20787,37.08288],[14.20774,37.08287],[14.20769,37.08278]]},"properties":{}},{"type":"Feature","geometry":{"type":"LineString","coordinates":[[14.20662,37.08288],[14.20723,37.08283]]},"properties":{}},{"type":"Feature","geometry":{"type":"LineString","coordinates":[[14.20776,37.08288],[14.20724,37.08292]]},"properties":{}},{"type":"Feature","geometry":{"type":"LineString","coordinates":[[14.20724,37.08292],[14.20663,37.08296]]},"properties":{}},{"type":"Feature","geometry":{"type":"LineString","coordinates":[[14.20457,37.08331],[14.20477,37.08333],[14.20592,37.08298],[14.20662,37.08288]]},"properties":{}},{"type":"Feature","geometry":{"type":"LineString","coordinates":[[14.20431,37.08307],[14.20442,37.0832],[14.20455,37.08329]]},"properties":{}},{"type":"Feature","geometry":{"type":"LineString","coordinates":[[14.20433,37.08335],[14.20431,37.08307]]},"properties":{}},{"type":"Feature","geometry":{"type":"LineString","coordinates":[[14.20663,37.08296],[14.20597,37.08306],[14.20455,37.08351]]},"properties":{}},{"type":"Feature","geometry":{"type":"LineString","coordinates":[[14.20431,37.0834],[14.2044,37.08329],[14.2045,37.08328],[14.20457,37.08331]]},"properties":{}},{"type":"Feature","geometry":{"type":"LineString","coordinates":[[14.20457,37.08331],[14.20463,37.08341],[14.20459,37.08348],[14.20453,37.08352],[14.20438,37.0835],[14.20431,37.0834]]},"properties":{}},{"type":"Feature","geometry":{"type":"LineString","coordinates":[[14.21544,37.0846],[14.2156,37.08437],[14.21601,37.08392],[14.2162,37.08376],[14.21694,37.08338],[14.21739,37.0832],[14.21904,37.08268],[14.21921,37.08253]]},"properties":{}},{"type":"Feature","geometry":{"type":"LineString","coordinates":[[14.20419,37.08376],[14.20431,37.0834]]},"properties":{}},{"type":"Feature","geometry":{"type":"LineString","coordinates":[[14.20453,37.08352],[14.2043,37.08363],[14.20419,37.08376]]},"properties":{}},{"type":"Feature","geometry":{"type":"LineString","coordinates":[[14.21936,37.08262],[14.21928,37.0827],[14.21747,37.08327],[14.21701,37.08348],[14.2162,37.08393],[14.21557,37.08465]]},"properties":{}},{"type":"Feature","geometry":{"type":"LineString","coordinates":[[14.20766,37.08405],[14.20762,37.08414],[14.20763,37.08433],[14.2075,37.08423],[14.20746,37.08411]]},"properties":{}},{"type":"Feature","geometry":{"type":"LineString","coordinates":[[14.2075,37.08423],[14.2073,37.08416]]},"properties":{}},{"type":"Feature","geometry":{"type":"LineString","coordinates":[[14.07828,37.1199],[14.07814,37.12004],[14.07818,37.11986]]},"properties":{}},{"type":"Feature","geometry":{"type":"LineString","coordinates":[[14.07785,37.11992],[14.07818,37.11986],[14.07828,37.11979],[14.07828,37.1199],[14.0784,37.12016]]},"properties":{}}]}