{"type":"FeatureCollection","features":[{"type":"Feature","geometry":{"type":"LineString","coordinates":[[14.38039,41.80674],[14.38205,41.80586],[14.38218,41.80573],[14.38227,41.80544],[14.38254,41.80526],[14.38334,41.80493],[14.38343,41.80486],[14.38352,41.80468],[14.38356,41.80444],[14.38325,41.80367],[14.38199,41.80271],[14.38193,41.80258],[14.38194,41.80224],[14.38203,41.80179],[14.38222,41.80125],[14.38218,41.80111],[14.38125,41.80039],[14.38102,41.80007],[14.38067,41.79927],[14.38016,41.79875],[14.37998,41.79864],[14.37981,41.79861],[14.37963,41.79863],[14.37944,41.79873],[14.37926,41.79905],[14.37914,41.79939],[14.37911,41.7999],[14.37899,41.80039],[14.37884,41.80075],[14.3788,41.80099],[14.37871,41.80119],[14.37857,41.8013],[14.37839,41.80137],[14.37778,41.80147],[14.37728,41.80168],[14.37714,41.80186],[14.37702,41.80212],[14.37722,41.8028],[14.37723,41.80302],[14.37711,41.80314],[14.37687,41.80329],[14.37632,41.80346],[14.37615,41.80354]]},"properties":{}},{"type":"Feature","geometry":{"type":"LineString","coordinates":[[14.29572,41.86783],[14.2962,41.86802],[14.29622,41.86814],[14.29615,41.86832],[14.29596,41.86854],[14.29545,41.86887],[14.29537,41.86897],[14.29421,41.87084],[14.29407,41.8712],[14.2938,41.87141],[14.29364,41.87164],[14.29359,41.87185],[14.29403,41.87278]]},"properties":{}}]}