{"type":"FeatureCollection","features":[{"type":"Feature","geometry":{"type":"LineString","coordinates":[[14.49358,36.78971],[14.49392,36.78966]]},"properties":{}},{"type":"Feature","geometry":{"type":"LineString","coordinates":[[14.49392,36.78966],[14.4936,36.78981]]},"properties":{}},{"type":"Feature","geometry":{"type":"LineString","coordinates":[[14.49355,36.78985],[14.49349,36.78985],[14.49341,36.78981],[14.49343,36.78971],[14.49352,36.78968],[14.4936,36.78973],[14.49361,36.78979],[14.49355,36.78985]]},"properties":{}},{"type":"Feature","geometry":{"type":"LineString","coordinates":[[14.49346,36.79015],[14.49341,36.78981]]},"properties":{}},{"type":"Feature","geometry":{"type":"LineString","coordinates":[[14.49357,36.78984],[14.49351,36.78994],[14.49346,36.79015]]},"properties":{}},{"type":"Feature","geometry":{"type":"LineString","coordinates":[[14.49292,36.79276],[14.49292,36.79258],[14.49296,36.79246],[14.49355,36.79186],[14.4937,36.79159]]},"properties":{}},{"type":"Feature","geometry":{"type":"LineString","coordinates":[[14.49638,36.79508],[14.4964,36.79488],[14.49638,36.79478],[14.49624,36.79465]]},"properties":{}},{"type":"Feature","geometry":{"type":"LineString","coordinates":[[14.49662,36.79485],[14.49657,36.79502],[14.49643,36.79515]]},"properties":{}},{"type":"Feature","geometry":{"type":"LineString","coordinates":[[14.49623,36.79526],[14.49647,36.79496],[14.49662,36.79485]]},"properties":{}},{"type":"Feature","geometry":{"type":"LineString","coordinates":[[14.49754,36.79545],[14.4973,36.79535],[14.49689,36.79512],[14.49657,36.79512],[14.49643,36.79515],[14.49623,36.79526]]},"properties":{}},{"type":"Feature","geometry":{"type":"LineString","coordinates":[[14.45907,36.85034],[14.45924,36.85039],[14.45957,36.85037],[14.45936,36.85056],[14.4593,36.85074]]},"properties":{}},{"type":"Feature","geometry":{"type":"LineString","coordinates":[[14.46305,36.86439],[14.46337,36.86407]]},"properties":{}},{"type":"Feature","geometry":{"type":"LineString","coordinates":[[14.46337,36.86407],[14.46315,36.86439],[14.4631,36.86451]]},"properties":{}},{"type":"Feature","geometry":{"type":"LineString","coordinates":[[14.46257,36.86495],[14.46305,36.86439]]},"properties":{}},{"type":"Feature","geometry":{"type":"LineString","coordinates":[[14.4631,36.86451],[14.46304,36.86473],[14.46299,36.86478],[14.4627,36.86487],[14.46257,36.86495]]},"properties":{}},{"type":"Feature","geometry":{"type":"LineString","coordinates":[[14.46309,36.86507],[14.46298,36.8647],[14.46301,36.8645],[14.46305,36.86439]]},"properties":{}},{"type":"Feature","geometry":{"type":"LineString","coordinates":[[14.46274,36.86474],[14.46294,36.86474],[14.46309,36.86483]]},"properties":{}},{"type":"Feature","geometry":{"type":"LineString","coordinates":[[14.46309,36.86507],[14.46286,36.86489],[14.4627,36.86487]]},"properties":{}},{"type":"Feature","geometry":{"type":"LineString","coordinates":[[14.4631,36.86451],[14.46309,36.86483],[14.46334,36.86551]]},"properties":{}},{"type":"Feature","geometry":{"type":"LineString","coordinates":[[14.46334,36.86551],[14.46309,36.86507]]},"properties":{}},{"type":"Feature","geometry":{"type":"LineString","coordinates":[[14.43976,36.8779],[14.43975,36.87773],[14.43979,36.87771],[14.43982,36.87774],[14.43976,36.8779]]},"properties":{}},{"type":"Feature","geometry":{"type":"LineString","coordinates":[[14.43235,36.8877],[14.43238,36.88745],[14.43244,36.88737],[14.43403,36.88647],[14.43468,36.88631],[14.43491,36.88618],[14.43573,36.88547],[14.43611,36.88511],[14.43626,36.88493],[14.43646,36.88457],[14.43703,36.88376],[14.43761,36.88281],[14.4388,36.88074],[14.43906,36.88012],[14.43976,36.8779]]},"properties":{}},{"type":"Feature","geometry":{"type":"LineString","coordinates":[[14.44018,36.88942],[14.44007,36.88946],[14.44003,36.88942],[14.44002,36.88938],[14.44013,36.88934],[14.44017,36.88937],[14.44018,36.88942]]},"properties":{}},{"type":"Feature","geometry":{"type":"LineString","coordinates":[[14.42783,36.89346],[14.42777,36.89344]]},"properties":{}},{"type":"Feature","geometry":{"type":"LineString","coordinates":[[14.42752,36.89401],[14.42758,36.89403]]},"properties":{}},{"type":"Feature","geometry":{"type":"LineString","coordinates":[[14.42592,36.89683],[14.42587,36.8968],[14.42616,36.89619],[14.42677,36.89515],[14.42756,36.89393],[14.42777,36.89344],[14.42799,36.8928],[14.42798,36.89275],[14.42786,36.89258],[14.42787,36.89254]]},"properties":{}},{"type":"Feature","geometry":{"type":"LineString","coordinates":[[14.42686,36.89513],[14.42681,36.8951]]},"properties":{}},{"type":"Feature","geometry":{"type":"LineString","coordinates":[[14.43148,36.89634],[14.43061,36.89592],[14.43023,36.89568],[14.42913,36.89511]]},"properties":{}},{"type":"Feature","geometry":{"type":"LineString","coordinates":[[14.40887,36.94445],[14.40883,36.94467],[14.4089,36.9448]]},"properties":{}},{"type":"Feature","geometry":{"type":"LineString","coordinates":[[14.40871,36.94474],[14.40881,36.94473],[14.40902,36.94489]]},"properties":{}},{"type":"Feature","geometry":{"type":"LineString","coordinates":[[14.40902,36.94489],[14.40876,36.94482],[14.40871,36.94474]]},"properties":{}},{"type":"Feature","geometry":{"type":"LineString","coordinates":[[14.40886,36.94485],[14.40868,36.94488],[14.40857,36.94496]]},"properties":{}},{"type":"Feature","geometry":{"type":"LineString","coordinates":[[14.37837,36.98481],[14.37862,36.98469],[14.37886,36.98441]]},"properties":{}},{"type":"Feature","geometry":{"type":"LineString","coordinates":[[14.37886,36.98441],[14.37868,36.98479],[14.37867,36.98493]]},"properties":{}},{"type":"Feature","geometry":{"type":"LineString","coordinates":[[14.37774,36.98503],[14.37804,36.98499],[14.3782,36.98491]]},"properties":{}},{"type":"Feature","geometry":{"type":"LineString","coordinates":[[14.37849,36.9848],[14.3786,36.98485],[14.37867,36.98493],[14.37869,36.985],[14.37866,36.98511],[14.37849,36.98521],[14.37829,36.98518],[14.37821,36.98512],[14.37817,36.98504],[14.3782,36.98491],[14.37832,36.98482],[14.37849,36.9848]]},"properties":{}},{"type":"Feature","geometry":{"type":"LineString","coordinates":[[14.37868,36.98495],[14.37883,36.98504],[14.379,36.98508]]},"properties":{}},{"type":"Feature","geometry":{"type":"LineString","coordinates":[[14.37821,36.98512],[14.37803,36.98505],[14.37774,36.98503]]},"properties":{}},{"type":"Feature","geometry":{"type":"LineString","coordinates":[[14.379,36.98508],[14.37862,36.98515]]},"properties":{}},{"type":"Feature","geometry":{"type":"LineString","coordinates":[[14.3783,36.98543],[14.3783,36.98529],[14.37823,36.98514]]},"properties":{}},{"type":"Feature","geometry":{"type":"LineString","coordinates":[[14.37856,36.98519],[14.37839,36.98529],[14.3783,36.98543]]},"properties":{}}]}