{"type":"FeatureCollection","features":[{"type":"Feature","geometry":{"type":"LineString","coordinates":[[14.44054,42.07484],[14.44075,42.07476],[14.44131,42.07471],[14.44276,42.07492],[14.44353,42.07499],[14.44378,42.07498],[14.44578,42.07453]]},"properties":{}},{"type":"Feature","geometry":{"type":"LineString","coordinates":[[14.44012,42.07521],[14.44054,42.07484]]},"properties":{}},{"type":"Feature","geometry":{"type":"LineString","coordinates":[[14.43808,42.08557],[14.43821,42.08545],[14.43851,42.08528],[14.43873,42.0852],[14.43902,42.08514],[14.43997,42.08511],[14.44099,42.08518],[14.44142,42.08511],[14.44168,42.085],[14.44202,42.08474],[14.44214,42.08453],[14.44218,42.08437],[14.44218,42.08412],[14.44208,42.08354],[14.44202,42.08334],[14.44193,42.08319],[14.4411,42.08253],[14.44098,42.08243],[14.44086,42.08221],[14.44083,42.08202],[14.44084,42.08184],[14.44089,42.08168],[14.44117,42.08123],[14.44125,42.08102],[14.44126,42.08063],[14.4411,42.08037],[14.44066,42.07997],[14.44053,42.07978],[14.44046,42.0795],[14.44051,42.07929],[14.44081,42.07863],[14.44084,42.07829],[14.44082,42.07767],[14.44078,42.07742],[14.44068,42.0772],[14.4401,42.07655],[14.43999,42.07628],[14.43996,42.07559],[14.44001,42.0754],[14.44012,42.07521]]},"properties":{}},{"type":"Feature","geometry":{"type":"LineString","coordinates":[[14.37057,42.10691],[14.37087,42.10723],[14.37174,42.10773],[14.37214,42.10801]]},"properties":{}},{"type":"Feature","geometry":{"type":"LineString","coordinates":[[14.39395,42.11707],[14.39395,42.11629],[14.3939,42.11592],[14.3937,42.11562],[14.39287,42.11491],[14.39126,42.11344],[14.39075,42.11292],[14.39051,42.11276],[14.39007,42.11254],[14.38955,42.11238],[14.38815,42.11227],[14.38756,42.11216],[14.38113,42.11093],[14.38093,42.11091],[14.37913,42.111],[14.37855,42.111],[14.37793,42.11093],[14.37752,42.11083],[14.37669,42.11045],[14.37564,42.10984],[14.37214,42.10801]]},"properties":{}},{"type":"Feature","geometry":{"type":"LineString","coordinates":[[14.41579,42.12807],[14.416,42.12789],[14.41779,42.12505],[14.41806,42.12473],[14.41837,42.12452],[14.41881,42.12429],[14.42072,42.12336],[14.42112,42.12323],[14.42311,42.12272],[14.42338,42.12261],[14.42376,42.12236],[14.42805,42.11851],[14.42826,42.11826],[14.42907,42.11706],[14.43007,42.11298],[14.43177,42.1102]]},"properties":{}},{"type":"Feature","geometry":{"type":"LineString","coordinates":[[14.40795,42.12546],[14.40822,42.12559],[14.40872,42.12598],[14.40906,42.12617],[14.41377,42.12833],[14.41426,42.12843],[14.41484,42.1284],[14.41525,42.12831],[14.41571,42.12814],[14.41579,42.12807]]},"properties":{}},{"type":"Feature","geometry":{"type":"LineString","coordinates":[[14.32865,42.16899],[14.32851,42.16886],[14.32855,42.16879],[14.32867,42.1688],[14.32881,42.16894],[14.32875,42.16901],[14.32865,42.16899]]},"properties":{}},{"type":"Feature","geometry":{"type":"LineString","coordinates":[[14.42606,42.21524],[14.42608,42.21518],[14.42599,42.21511],[14.42598,42.21501],[14.42606,42.21492],[14.42646,42.21482],[14.42689,42.21478],[14.4275,42.21474],[14.4363,42.21456],[14.4363,42.21447]]},"properties":{}},{"type":"Feature","geometry":{"type":"LineString","coordinates":[[14.40085,42.22368],[14.40087,42.22356],[14.40096,42.2235],[14.40108,42.2235],[14.4012,42.22357]]},"properties":{}},{"type":"Feature","geometry":{"type":"LineString","coordinates":[[14.4012,42.22357],[14.40122,42.22366],[14.40112,42.22376]]},"properties":{}},{"type":"Feature","geometry":{"type":"LineString","coordinates":[[14.40094,42.22376],[14.40085,42.22368]]},"properties":{}},{"type":"Feature","geometry":{"type":"LineString","coordinates":[[14.40112,42.22376],[14.40094,42.22376]]},"properties":{}},{"type":"Feature","geometry":{"type":"LineString","coordinates":[[14.38902,42.22473],[14.3891,42.22481],[14.38925,42.22485]]},"properties":{}},{"type":"Feature","geometry":{"type":"LineString","coordinates":[[14.38906,42.22498],[14.38902,42.22473]]},"properties":{}},{"type":"Feature","geometry":{"type":"LineString","coordinates":[[14.40587,42.22513],[14.40605,42.22508]]},"properties":{}},{"type":"Feature","geometry":{"type":"LineString","coordinates":[[14.40605,42.22508],[14.40644,42.225],[14.40665,42.22504],[14.40679,42.22515],[14.40699,42.22542]]},"properties":{}},{"type":"Feature","geometry":{"type":"LineString","coordinates":[[14.40468,42.22539],[14.4054,42.22526],[14.40562,42.22518],[14.40587,42.22513]]},"properties":{}},{"type":"Feature","geometry":{"type":"LineString","coordinates":[[14.4039,42.22528],[14.40408,42.22529]]},"properties":{}},{"type":"Feature","geometry":{"type":"LineString","coordinates":[[14.40408,42.22529],[14.4045,42.22541]]},"properties":{}},{"type":"Feature","geometry":{"type":"LineString","coordinates":[[14.4045,42.22541],[14.40468,42.22539]]},"properties":{}},{"type":"Feature","geometry":{"type":"LineString","coordinates":[[14.40699,42.22542],[14.40705,42.22549]]},"properties":{}},{"type":"Feature","geometry":{"type":"LineString","coordinates":[[14.28133,42.22453],[14.28199,42.22516],[14.28342,42.22638],[14.28371,42.22652],[14.28489,42.22688]]},"properties":{}},{"type":"Feature","geometry":{"type":"LineString","coordinates":[[14.40705,42.22549],[14.40726,42.22576],[14.40751,42.22629]]},"properties":{}},{"type":"Feature","geometry":{"type":"LineString","coordinates":[[14.28489,42.22688],[14.28526,42.22698]]},"properties":{}},{"type":"Feature","geometry":{"type":"LineString","coordinates":[[14.40399,42.22516],[14.40397,42.22528],[14.40424,42.22662],[14.40448,42.22728],[14.4048,42.22793],[14.40529,42.22876],[14.40575,42.22997]]},"properties":{}},{"type":"Feature","geometry":{"type":"LineString","coordinates":[[14.39851,42.22772],[14.39877,42.22762]]},"properties":{}},{"type":"Feature","geometry":{"type":"LineString","coordinates":[[14.39877,42.22762],[14.39859,42.2278]]},"properties":{}},{"type":"Feature","geometry":{"type":"LineString","coordinates":[[14.28526,42.22698],[14.28629,42.2273],[14.29083,42.22856],[14.29117,42.22867],[14.29144,42.22879]]},"properties":{}},{"type":"Feature","geometry":{"type":"LineString","coordinates":[[14.40406,42.22519],[14.40403,42.22528],[14.4043,42.2265],[14.40458,42.22731],[14.40541,42.22889],[14.40628,42.23096]]},"properties":{}},{"type":"Feature","geometry":{"type":"LineString","coordinates":[[14.40781,42.22667],[14.40803,42.22711],[14.40826,42.22737],[14.40929,42.22833],[14.40948,42.22855],[14.40987,42.22889],[14.41019,42.22928],[14.41037,42.22942],[14.4106,42.22951],[14.41297,42.23019],[14.41314,42.2303],[14.4134,42.23038],[14.41353,42.23078],[14.41366,42.23146]]},"properties":{}},{"type":"Feature","geometry":{"type":"LineString","coordinates":[[14.39591,42.22929],[14.39579,42.22948]]},"properties":{}},{"type":"Feature","geometry":{"type":"LineString","coordinates":[[14.40575,42.22997],[14.40609,42.23077]]},"properties":{}},{"type":"Feature","geometry":{"type":"LineString","coordinates":[[14.29144,42.22879],[14.29173,42.22901],[14.29563,42.23276]]},"properties":{}},{"type":"Feature","geometry":{"type":"LineString","coordinates":[[14.40628,42.23102],[14.40628,42.23096]]},"properties":{}},{"type":"Feature","geometry":{"type":"LineString","coordinates":[[14.39611,42.23006],[14.39637,42.23038],[14.39733,42.23145],[14.39743,42.23164],[14.39757,42.23224],[14.39754,42.23252],[14.39742,42.23295]]},"properties":{}},{"type":"Feature","geometry":{"type":"LineString","coordinates":[[14.41366,42.23146],[14.41371,42.23208],[14.41367,42.23224],[14.41342,42.2324],[14.4133,42.23266],[14.41264,42.23326]]},"properties":{}},{"type":"Feature","geometry":{"type":"LineString","coordinates":[[14.29563,42.23276],[14.29591,42.23304]]},"properties":{}},{"type":"Feature","geometry":{"type":"LineString","coordinates":[[14.40628,42.23102],[14.40633,42.23129],[14.4066,42.23197],[14.40691,42.23241],[14.40759,42.23323],[14.40882,42.23437],[14.40946,42.2352]]},"properties":{}},{"type":"Feature","geometry":{"type":"LineString","coordinates":[[14.39606,42.23336],[14.39658,42.23314],[14.39742,42.23295]]},"properties":{}},{"type":"Feature","geometry":{"type":"LineString","coordinates":[[14.29591,42.23304],[14.29629,42.23341]]},"properties":{}},{"type":"Feature","geometry":{"type":"LineString","coordinates":[[14.29629,42.23341],[14.29677,42.23386]]},"properties":{}},{"type":"Feature","geometry":{"type":"LineString","coordinates":[[14.29677,42.23386],[14.297,42.23408]]},"properties":{}},{"type":"Feature","geometry":{"type":"LineString","coordinates":[[14.41116,42.23336],[14.41122,42.2334],[14.41136,42.23393],[14.41131,42.23414],[14.41108,42.23464],[14.4111,42.23483],[14.41108,42.23489],[14.40998,42.23511]]},"properties":{}},{"type":"Feature","geometry":{"type":"LineString","coordinates":[[14.40998,42.23511],[14.40967,42.23511]]},"properties":{}},{"type":"Feature","geometry":{"type":"LineString","coordinates":[[14.40967,42.23511],[14.40932,42.23518]]},"properties":{}},{"type":"Feature","geometry":{"type":"LineString","coordinates":[[14.40765,42.23551],[14.4078,42.23556]]},"properties":{}},{"type":"Feature","geometry":{"type":"LineString","coordinates":[[14.40771,42.23562],[14.40765,42.23551]]},"properties":{}},{"type":"Feature","geometry":{"type":"LineString","coordinates":[[14.40793,42.2357],[14.40787,42.23574],[14.40778,42.23574],[14.40772,42.23569],[14.4077,42.23563],[14.40776,42.23557],[14.40787,42.23556],[14.40795,42.23562],[14.40793,42.2357]]},"properties":{}},{"type":"Feature","geometry":{"type":"LineString","coordinates":[[14.40793,42.2357],[14.40798,42.23582]]},"properties":{}},{"type":"Feature","geometry":{"type":"LineString","coordinates":[[14.40798,42.23582],[14.40783,42.23574]]},"properties":{}},{"type":"Feature","geometry":{"type":"LineString","coordinates":[[14.297,42.23408],[14.29798,42.23498],[14.29835,42.23524],[14.30324,42.23691],[14.30458,42.23734],[14.30497,42.23748],[14.30529,42.23768]]},"properties":{}},{"type":"Feature","geometry":{"type":"LineString","coordinates":[[14.39742,42.23295],[14.39568,42.23897]]},"properties":{}},{"type":"Feature","geometry":{"type":"LineString","coordinates":[[14.39242,42.23864],[14.39442,42.23769],[14.39534,42.23606]]},"properties":{}},{"type":"Feature","geometry":{"type":"LineString","coordinates":[[14.39439,42.23769],[14.39442,42.23764]]},"properties":{}},{"type":"Feature","geometry":{"type":"LineString","coordinates":[[14.39502,42.23963],[14.39512,42.23882],[14.39507,42.23868],[14.39474,42.23821],[14.39442,42.23769]]},"properties":{}},{"type":"Feature","geometry":{"type":"LineString","coordinates":[[14.39568,42.23897],[14.3952,42.24061]]},"properties":{}},{"type":"Feature","geometry":{"type":"LineString","coordinates":[[14.45257,42.23783],[14.45611,42.24075],[14.45717,42.24209]]},"properties":{}},{"type":"Feature","geometry":{"type":"LineString","coordinates":[[14.39489,42.24064],[14.39502,42.23963]]},"properties":{}},{"type":"Feature","geometry":{"type":"LineString","coordinates":[[14.4112,42.24143],[14.4114,42.24134]]},"properties":{}},{"type":"Feature","geometry":{"type":"LineString","coordinates":[[14.4109,42.24136],[14.41116,42.24144]]},"properties":{}},{"type":"Feature","geometry":{"type":"LineString","coordinates":[[14.4114,42.24134],[14.41134,42.24141],[14.41134,42.24148]]},"properties":{}},{"type":"Feature","geometry":{"type":"LineString","coordinates":[[14.41107,42.24152],[14.41101,42.24143],[14.4109,42.24136]]},"properties":{}},{"type":"Feature","geometry":{"type":"LineString","coordinates":[[14.41136,42.24154],[14.4113,42.24162],[14.41122,42.24164],[14.41112,42.24162],[14.41107,42.24154],[14.4111,42.24147],[14.4112,42.24143],[14.41131,42.24146],[14.41136,42.24154]]},"properties":{}},{"type":"Feature","geometry":{"type":"LineString","coordinates":[[14.41136,42.24154],[14.41142,42.24165]]},"properties":{}},{"type":"Feature","geometry":{"type":"LineString","coordinates":[[14.41142,42.24165],[14.41127,42.24164]]},"properties":{}},{"type":"Feature","geometry":{"type":"LineString","coordinates":[[14.41115,42.24179],[14.41112,42.24162]]},"properties":{}},{"type":"Feature","geometry":{"type":"LineString","coordinates":[[14.41125,42.24164],[14.41115,42.24179]]},"properties":{}},{"type":"Feature","geometry":{"type":"LineString","coordinates":[[14.41937,42.24724],[14.41951,42.24722],[14.41963,42.24726],[14.4197,42.24735],[14.41968,42.24745],[14.41954,42.24755],[14.41943,42.24755],[14.41933,42.24752],[14.41927,42.24745],[14.41925,42.24738],[14.41929,42.24729],[14.41937,42.24724]]},"properties":{}},{"type":"Feature","geometry":{"type":"LineString","coordinates":[[14.42022,42.25],[14.42014,42.24962],[14.41955,42.2483]]},"properties":{}}]}