{"type":"FeatureCollection","features":[{"type":"Feature","geometry":{"type":"LineString","coordinates":[[14.37109,37.01083],[14.37137,37.01051]]},"properties":{}},{"type":"Feature","geometry":{"type":"LineString","coordinates":[[14.37137,37.01051],[14.37129,37.01071],[14.37133,37.01086]]},"properties":{}},{"type":"Feature","geometry":{"type":"LineString","coordinates":[[14.37075,37.01097],[14.37103,37.01086]]},"properties":{}},{"type":"Feature","geometry":{"type":"LineString","coordinates":[[14.37133,37.01086],[14.37139,37.01099],[14.3713,37.01112],[14.37112,37.01114],[14.37099,37.01106],[14.37097,37.01095],[14.37103,37.01086],[14.37119,37.01081],[14.37133,37.01086]]},"properties":{}},{"type":"Feature","geometry":{"type":"LineString","coordinates":[[14.37099,37.01106],[14.37075,37.01097]]},"properties":{}},{"type":"Feature","geometry":{"type":"LineString","coordinates":[[14.37138,37.01094],[14.37168,37.01143]]},"properties":{}},{"type":"Feature","geometry":{"type":"LineString","coordinates":[[14.37168,37.01143],[14.37151,37.01128],[14.37124,37.01114]]},"properties":{}},{"type":"Feature","geometry":{"type":"LineString","coordinates":[[14.31353,37.05266],[14.3137,37.05261],[14.31381,37.05254],[14.31388,37.05246]]},"properties":{}},{"type":"Feature","geometry":{"type":"LineString","coordinates":[[14.31388,37.05246],[14.31389,37.05254],[14.31395,37.05263],[14.31408,37.05271]]},"properties":{}},{"type":"Feature","geometry":{"type":"LineString","coordinates":[[14.31382,37.05269],[14.31381,37.05254]]},"properties":{}},{"type":"Feature","geometry":{"type":"LineString","coordinates":[[14.31389,37.05254],[14.31382,37.05269]]},"properties":{}},{"type":"Feature","geometry":{"type":"LineString","coordinates":[[14.31388,37.05282],[14.313,37.05275],[14.31131,37.05244]]},"properties":{}},{"type":"Feature","geometry":{"type":"LineString","coordinates":[[14.31813,37.0531],[14.31836,37.05308],[14.31929,37.05315],[14.31969,37.05305],[14.31991,37.0529],[14.31996,37.05282]]},"properties":{}},{"type":"Feature","geometry":{"type":"LineString","coordinates":[[14.32013,37.05282],[14.3203,37.05309],[14.32055,37.05328],[14.32142,37.05338],[14.32178,37.05346]]},"properties":{}},{"type":"Feature","geometry":{"type":"LineString","coordinates":[[14.32024,37.05331],[14.31987,37.05332],[14.31922,37.05326],[14.31866,37.05326],[14.31778,37.05317]]},"properties":{}},{"type":"Feature","geometry":{"type":"LineString","coordinates":[[14.31778,37.05317],[14.31738,37.05315],[14.31701,37.05319],[14.31639,37.05335]]},"properties":{}},{"type":"Feature","geometry":{"type":"LineString","coordinates":[[14.31464,37.05459],[14.31536,37.0536],[14.31541,37.05336],[14.31537,37.05324],[14.31526,37.05307],[14.31499,37.05292],[14.31388,37.05282]]},"properties":{}},{"type":"Feature","geometry":{"type":"LineString","coordinates":[[14.31196,37.05732],[14.31268,37.05687],[14.31326,37.05637],[14.31395,37.05555],[14.31464,37.05459],[14.31541,37.05385],[14.31604,37.05344],[14.31877,37.05202],[14.31901,37.05193],[14.31945,37.05194],[14.31962,37.052],[14.31982,37.05212],[14.31995,37.05225],[14.32002,37.05238],[14.32013,37.05282]]},"properties":{}},{"type":"Feature","geometry":{"type":"LineString","coordinates":[[14.31996,37.05282],[14.32002,37.05265],[14.31999,37.05244],[14.3199,37.05226],[14.31979,37.05214],[14.3196,37.05203],[14.31943,37.05198],[14.31902,37.05198],[14.3188,37.05206],[14.31577,37.0537],[14.31518,37.05418],[14.31483,37.05453],[14.31408,37.05557],[14.31365,37.0561],[14.31335,37.05642],[14.31311,37.05665],[14.31274,37.05694],[14.31202,37.05739]]},"properties":{}},{"type":"Feature","geometry":{"type":"LineString","coordinates":[[14.27105,37.06229],[14.2733,37.06171],[14.27409,37.06145],[14.27432,37.06143],[14.27473,37.06152]]},"properties":{}},{"type":"Feature","geometry":{"type":"LineString","coordinates":[[14.26595,37.06485],[14.26616,37.06477],[14.26626,37.06464]]},"properties":{}},{"type":"Feature","geometry":{"type":"LineString","coordinates":[[14.26644,37.06494],[14.26622,37.06492],[14.266,37.06496]]},"properties":{}},{"type":"Feature","geometry":{"type":"LineString","coordinates":[[14.26511,37.06508],[14.26595,37.06485]]},"properties":{}},{"type":"Feature","geometry":{"type":"LineString","coordinates":[[14.266,37.06496],[14.26515,37.06519]]},"properties":{}},{"type":"Feature","geometry":{"type":"LineString","coordinates":[[14.26769,37.06542],[14.26724,37.06511],[14.26708,37.06505]]},"properties":{}},{"type":"Feature","geometry":{"type":"LineString","coordinates":[[14.26302,37.06565],[14.26511,37.06508]]},"properties":{}},{"type":"Feature","geometry":{"type":"LineString","coordinates":[[14.26515,37.06519],[14.26307,37.06574]]},"properties":{}},{"type":"Feature","geometry":{"type":"LineString","coordinates":[[14.26788,37.06507],[14.26829,37.0659]]},"properties":{}},{"type":"Feature","geometry":{"type":"LineString","coordinates":[[14.26829,37.0659],[14.26769,37.06542]]},"properties":{}},{"type":"Feature","geometry":{"type":"LineString","coordinates":[[14.26307,37.06576],[14.26321,37.06586],[14.26375,37.0664],[14.264,37.06654],[14.26442,37.06667]]},"properties":{}},{"type":"Feature","geometry":{"type":"LineString","coordinates":[[14.26364,37.06696],[14.26369,37.06673],[14.26367,37.06662],[14.26361,37.06651],[14.26295,37.06582]]},"properties":{}},{"type":"Feature","geometry":{"type":"LineString","coordinates":[[14.25798,37.06719],[14.25988,37.06653],[14.26269,37.06573],[14.26285,37.06571]]},"properties":{}},{"type":"Feature","geometry":{"type":"LineString","coordinates":[[14.2629,37.06581],[14.25976,37.06671],[14.25808,37.06734]]},"properties":{}},{"type":"Feature","geometry":{"type":"LineString","coordinates":[[14.26449,37.06669],[14.26527,37.06665]]},"properties":{}},{"type":"Feature","geometry":{"type":"LineString","coordinates":[[14.26364,37.06696],[14.26371,37.06688],[14.26398,37.06676],[14.26442,37.06667]]},"properties":{}},{"type":"Feature","geometry":{"type":"LineString","coordinates":[[14.26527,37.06665],[14.26495,37.06678],[14.26461,37.06699]]},"properties":{}},{"type":"Feature","geometry":{"type":"LineString","coordinates":[[14.26442,37.06667],[14.26456,37.06671],[14.26461,37.06677],[14.26465,37.06688],[14.26461,37.06699]]},"properties":{}},{"type":"Feature","geometry":{"type":"LineString","coordinates":[[14.26461,37.06699],[14.26457,37.06702]]},"properties":{}},{"type":"Feature","geometry":{"type":"LineString","coordinates":[[14.26377,37.0672],[14.26367,37.06716],[14.26362,37.0671],[14.26361,37.067]]},"properties":{}},{"type":"Feature","geometry":{"type":"LineString","coordinates":[[14.26457,37.06702],[14.26437,37.06712],[14.26387,37.06721]]},"properties":{}},{"type":"Feature","geometry":{"type":"LineString","coordinates":[[14.26301,37.06733],[14.26361,37.067]]},"properties":{}},{"type":"Feature","geometry":{"type":"LineString","coordinates":[[14.26387,37.06721],[14.26377,37.0672]]},"properties":{}},{"type":"Feature","geometry":{"type":"LineString","coordinates":[[14.26377,37.0672],[14.26301,37.06733]]},"properties":{}},{"type":"Feature","geometry":{"type":"LineString","coordinates":[[14.26457,37.06702],[14.26449,37.06734],[14.26451,37.06742],[14.26465,37.0677]]},"properties":{}},{"type":"Feature","geometry":{"type":"LineString","coordinates":[[14.26465,37.0677],[14.26422,37.06733],[14.26404,37.06724],[14.26387,37.06721]]},"properties":{}},{"type":"Feature","geometry":{"type":"LineString","coordinates":[[14.26331,37.0756],[14.26356,37.07561],[14.26368,37.07559]]},"properties":{}},{"type":"Feature","geometry":{"type":"LineString","coordinates":[[14.26368,37.07559],[14.26351,37.07573],[14.26347,37.07584]]},"properties":{}},{"type":"Feature","geometry":{"type":"LineString","coordinates":[[14.26339,37.07596],[14.26331,37.07612],[14.26327,37.07631]]},"properties":{}},{"type":"Feature","geometry":{"type":"LineString","coordinates":[[14.26327,37.07631],[14.26315,37.0761],[14.26302,37.07598]]},"properties":{}},{"type":"Feature","geometry":{"type":"LineString","coordinates":[[14.29374,37.05647],[14.29367,37.05662],[14.29371,37.05672],[14.29357,37.05666],[14.29325,37.0566]]},"properties":{}},{"type":"Feature","geometry":{"type":"LineString","coordinates":[[14.28866,37.11842],[14.28893,37.11859],[14.28904,37.1186]]},"properties":{}},{"type":"Feature","geometry":{"type":"LineString","coordinates":[[14.28881,37.11876],[14.28878,37.11861],[14.28866,37.11842]]},"properties":{}},{"type":"Feature","geometry":{"type":"LineString","coordinates":[[14.28881,37.11876],[14.28886,37.11869],[14.28904,37.1186]]},"properties":{}},{"type":"Feature","geometry":{"type":"LineString","coordinates":[[14.28904,37.1186],[14.28925,37.11863],[14.28937,37.11877]]},"properties":{}},{"type":"Feature","geometry":{"type":"LineString","coordinates":[[14.28937,37.11877],[14.28958,37.11897]]},"properties":{}},{"type":"Feature","geometry":{"type":"LineString","coordinates":[[14.28937,37.11877],[14.28936,37.11891],[14.28926,37.11902]]},"properties":{}},{"type":"Feature","geometry":{"type":"LineString","coordinates":[[14.28926,37.11902],[14.28906,37.11906],[14.28896,37.11903],[14.28882,37.11892],[14.28881,37.11876]]},"properties":{}},{"type":"Feature","geometry":{"type":"LineString","coordinates":[[14.28958,37.11897],[14.28926,37.11902]]},"properties":{}},{"type":"Feature","geometry":{"type":"LineString","coordinates":[[14.28923,37.11903],[14.28914,37.11917],[14.28911,37.1194]]},"properties":{}},{"type":"Feature","geometry":{"type":"LineString","coordinates":[[14.28911,37.1194],[14.28903,37.11913],[14.28896,37.11903]]},"properties":{}},{"type":"Feature","geometry":{"type":"LineString","coordinates":[[14.2981,37.12448],[14.29782,37.12417]]},"properties":{}},{"type":"Feature","geometry":{"type":"LineString","coordinates":[[14.29886,37.12525],[14.2981,37.12448]]},"properties":{}},{"type":"Feature","geometry":{"type":"LineString","coordinates":[[14.29782,37.12417],[14.30001,37.126],[14.30111,37.12704]]},"properties":{}},{"type":"Feature","geometry":{"type":"LineString","coordinates":[[14.29964,37.12615],[14.29975,37.12598],[14.29989,37.12596],[14.30001,37.126],[14.30005,37.12611],[14.30001,37.12619],[14.2998,37.12628]]},"properties":{}},{"type":"Feature","geometry":{"type":"LineString","coordinates":[[14.3022,37.128],[14.30088,37.12701],[14.29971,37.12622],[14.29886,37.12525]]},"properties":{}},{"type":"Feature","geometry":{"type":"LineString","coordinates":[[14.30111,37.12704],[14.3022,37.128]]},"properties":{}},{"type":"Feature","geometry":{"type":"LineString","coordinates":[[14.31016,37.13508],[14.31039,37.13532],[14.31089,37.13614]]},"properties":{}},{"type":"Feature","geometry":{"type":"LineString","coordinates":[[14.31089,37.13614],[14.31008,37.13557],[14.3098,37.13526]]},"properties":{}},{"type":"Feature","geometry":{"type":"LineString","coordinates":[[14.31587,37.14996],[14.31581,37.15004],[14.31572,37.1501],[14.31554,37.15013],[14.31535,37.15005],[14.31528,37.14993],[14.31528,37.14986],[14.31535,37.14973],[14.31542,37.14969],[14.3155,37.14966],[14.31568,37.14967],[14.31582,37.14975],[14.31586,37.14982],[14.31587,37.14996]]},"properties":{}},{"type":"Feature","geometry":{"type":"LineString","coordinates":[[14.34251,37.17178],[14.34284,37.17196]]},"properties":{}},{"type":"Feature","geometry":{"type":"LineString","coordinates":[[14.34249,37.17206],[14.34251,37.17178]]},"properties":{}},{"type":"Feature","geometry":{"type":"LineString","coordinates":[[14.34292,37.17235],[14.34283,37.17252],[14.34279,37.17268]]},"properties":{}},{"type":"Feature","geometry":{"type":"LineString","coordinates":[[14.34279,37.17268],[14.34272,37.17251],[14.34262,37.17238]]},"properties":{}}]}