{"type":"FeatureCollection","features":[{"type":"Feature","geometry":{"type":"LineString","coordinates":[[14.42084,42.25712],[14.42078,42.25666],[14.42075,42.25419],[14.42071,42.25308],[14.42022,42.25]]},"properties":{}},{"type":"Feature","geometry":{"type":"LineString","coordinates":[[14.43303,42.2686],[14.43263,42.26763],[14.4315,42.26443],[14.42834,42.25531]]},"properties":{}},{"type":"Feature","geometry":{"type":"LineString","coordinates":[[14.43587,42.26494],[14.43603,42.26511]]},"properties":{}},{"type":"Feature","geometry":{"type":"LineString","coordinates":[[14.43591,42.26515],[14.43587,42.26494]]},"properties":{}},{"type":"Feature","geometry":{"type":"LineString","coordinates":[[14.30489,42.2634],[14.30486,42.26305],[14.30477,42.26297],[14.30463,42.26299],[14.30451,42.26313],[14.30445,42.26334],[14.30443,42.26369],[14.30398,42.26455],[14.30385,42.26521],[14.3037,42.26555],[14.30371,42.26573],[14.30398,42.26652],[14.30434,42.26721],[14.30429,42.26734],[14.30422,42.26739],[14.30388,42.26756],[14.30373,42.26768]]},"properties":{}},{"type":"Feature","geometry":{"type":"LineString","coordinates":[[14.43273,42.26637],[14.43283,42.26661]]},"properties":{}},{"type":"Feature","geometry":{"type":"LineString","coordinates":[[14.43283,42.26661],[14.43334,42.26785]]},"properties":{}},{"type":"Feature","geometry":{"type":"LineString","coordinates":[[14.43334,42.26785],[14.43348,42.26812],[14.43361,42.26821]]},"properties":{}},{"type":"Feature","geometry":{"type":"LineString","coordinates":[[14.4334,42.26831],[14.43334,42.26785]]},"properties":{}},{"type":"Feature","geometry":{"type":"LineString","coordinates":[[14.43361,42.26821],[14.43378,42.26824]]},"properties":{}},{"type":"Feature","geometry":{"type":"LineString","coordinates":[[14.5,42.27323],[14.49985,42.27331]]},"properties":{}},{"type":"Feature","geometry":{"type":"LineString","coordinates":[[14.49349,42.27708],[14.49623,42.27507],[14.49763,42.27419],[14.49985,42.27331]]},"properties":{}},{"type":"Feature","geometry":{"type":"LineString","coordinates":[[14.49341,42.27714],[14.49349,42.27708]]},"properties":{}},{"type":"Feature","geometry":{"type":"LineString","coordinates":[[14.4334,42.26831],[14.43351,42.26823],[14.43361,42.26821]]},"properties":{}},{"type":"Feature","geometry":{"type":"LineString","coordinates":[[14.43378,42.26824],[14.43387,42.26832],[14.43389,42.26845]]},"properties":{}},{"type":"Feature","geometry":{"type":"LineString","coordinates":[[14.43346,42.26856],[14.43337,42.26844],[14.4334,42.26831]]},"properties":{}},{"type":"Feature","geometry":{"type":"LineString","coordinates":[[14.43389,42.26845],[14.43385,42.26852],[14.43373,42.26859]]},"properties":{}},{"type":"Feature","geometry":{"type":"LineString","coordinates":[[14.43338,42.26848],[14.43303,42.2686]]},"properties":{}},{"type":"Feature","geometry":{"type":"LineString","coordinates":[[14.43373,42.26859],[14.43356,42.2686],[14.43346,42.26856]]},"properties":{}},{"type":"Feature","geometry":{"type":"LineString","coordinates":[[14.30373,42.26768],[14.30371,42.26792],[14.30382,42.26826],[14.304,42.26855],[14.30408,42.26892],[14.30398,42.26921],[14.30397,42.2694],[14.30421,42.26964]]},"properties":{}},{"type":"Feature","geometry":{"type":"LineString","coordinates":[[14.43372,42.26915],[14.43346,42.26856]]},"properties":{}},{"type":"Feature","geometry":{"type":"LineString","coordinates":[[14.43373,42.26859],[14.43368,42.26873],[14.43372,42.26915]]},"properties":{}},{"type":"Feature","geometry":{"type":"LineString","coordinates":[[14.43372,42.26915],[14.43398,42.26971]]},"properties":{}},{"type":"Feature","geometry":{"type":"LineString","coordinates":[[14.48508,42.28299],[14.48684,42.28193],[14.48737,42.28166]]},"properties":{}},{"type":"Feature","geometry":{"type":"LineString","coordinates":[[14.48016,42.28756],[14.481,42.28719],[14.48253,42.28659],[14.48351,42.28588],[14.48403,42.28539],[14.48485,42.2845],[14.48554,42.28388],[14.4862,42.28335],[14.48687,42.2829],[14.48881,42.28185],[14.48971,42.28111],[14.49038,42.28029],[14.49106,42.27927],[14.49165,42.27855],[14.49236,42.27792],[14.49341,42.27714]]},"properties":{}},{"type":"Feature","geometry":{"type":"LineString","coordinates":[[14.48511,42.28301],[14.48508,42.28299],[14.48479,42.28309],[14.48449,42.28346],[14.48335,42.2843]]},"properties":{}},{"type":"Feature","geometry":{"type":"LineString","coordinates":[[14.48016,42.28756],[14.47867,42.28833],[14.47548,42.29023]]},"properties":{}},{"type":"Feature","geometry":{"type":"LineString","coordinates":[[14.47548,42.29023],[14.47531,42.29033]]},"properties":{}},{"type":"Feature","geometry":{"type":"LineString","coordinates":[[14.47531,42.29033],[14.47376,42.29126],[14.47268,42.29215],[14.47226,42.29254]]},"properties":{}},{"type":"Feature","geometry":{"type":"LineString","coordinates":[[14.47216,42.29259],[14.47226,42.29254]]},"properties":{}},{"type":"Feature","geometry":{"type":"LineString","coordinates":[[14.47131,42.29322],[14.47216,42.29259]]},"properties":{}},{"type":"Feature","geometry":{"type":"LineString","coordinates":[[14.47131,42.29322],[14.47104,42.29348],[14.47042,42.2939],[14.46981,42.29424],[14.46846,42.29493],[14.46727,42.29545]]},"properties":{}},{"type":"Feature","geometry":{"type":"LineString","coordinates":[[14.46665,42.29566],[14.46727,42.29545]]},"properties":{}},{"type":"Feature","geometry":{"type":"LineString","coordinates":[[14.43398,42.26971],[14.43446,42.27056]]},"properties":{}},{"type":"Feature","geometry":{"type":"LineString","coordinates":[[14.43446,42.27056],[14.43452,42.27066]]},"properties":{}},{"type":"Feature","geometry":{"type":"LineString","coordinates":[[14.43452,42.27066],[14.43472,42.271]]},"properties":{}},{"type":"Feature","geometry":{"type":"LineString","coordinates":[[14.44457,42.29623],[14.44447,42.29554],[14.4444,42.29468],[14.44468,42.29271],[14.44464,42.29228]]},"properties":{}},{"type":"Feature","geometry":{"type":"LineString","coordinates":[[14.44472,42.29685],[14.44457,42.29623]]},"properties":{}},{"type":"Feature","geometry":{"type":"LineString","coordinates":[[14.46166,42.29862],[14.46423,42.2971]]},"properties":{}},{"type":"Feature","geometry":{"type":"LineString","coordinates":[[14.46166,42.29862],[14.46153,42.2987]]},"properties":{}},{"type":"Feature","geometry":{"type":"LineString","coordinates":[[14.46153,42.2987],[14.45935,42.29996]]},"properties":{}},{"type":"Feature","geometry":{"type":"LineString","coordinates":[[14.45935,42.29996],[14.45117,42.30505]]},"properties":{}},{"type":"Feature","geometry":{"type":"LineString","coordinates":[[14.44773,42.30761],[14.45056,42.30554],[14.45117,42.30505]]},"properties":{}},{"type":"Feature","geometry":{"type":"LineString","coordinates":[[14.46665,42.29566],[14.46487,42.29671]]},"properties":{}},{"type":"Feature","geometry":{"type":"LineString","coordinates":[[14.46437,42.29702],[14.46487,42.29671]]},"properties":{}},{"type":"Feature","geometry":{"type":"LineString","coordinates":[[14.46423,42.2971],[14.46437,42.29702]]},"properties":{}},{"type":"Feature","geometry":{"type":"LineString","coordinates":[[14.44773,42.30761],[14.44716,42.30799],[14.44674,42.3082],[14.44617,42.30841]]},"properties":{}},{"type":"Feature","geometry":{"type":"LineString","coordinates":[[14.44683,42.30803],[14.44692,42.30811]]},"properties":{}},{"type":"Feature","geometry":{"type":"LineString","coordinates":[[14.44407,42.30951],[14.44438,42.3093],[14.44503,42.30892],[14.44617,42.30841]]},"properties":{}},{"type":"Feature","geometry":{"type":"LineString","coordinates":[[14.4438,42.30971],[14.44407,42.30951]]},"properties":{}},{"type":"Feature","geometry":{"type":"LineString","coordinates":[[14.42464,42.32835],[14.42487,42.32723],[14.42511,42.32664],[14.42547,42.32608],[14.42595,42.32554],[14.42716,42.32438],[14.42747,42.32412],[14.42816,42.32356],[14.42929,42.32273],[14.43393,42.31897],[14.43578,42.31753],[14.43616,42.31717],[14.43669,42.31655],[14.43719,42.31577],[14.43757,42.31508],[14.43778,42.31477],[14.43852,42.31406],[14.43926,42.31343],[14.44208,42.31126],[14.44354,42.30991],[14.4438,42.30971]]},"properties":{}},{"type":"Feature","geometry":{"type":"LineString","coordinates":[[14.42455,42.3288],[14.42464,42.32835]]},"properties":{}},{"type":"Feature","geometry":{"type":"LineString","coordinates":[[14.424,42.33165],[14.42418,42.33061],[14.42455,42.3288]]},"properties":{}},{"type":"Feature","geometry":{"type":"LineString","coordinates":[[14.42207,42.33584],[14.42284,42.33477],[14.42342,42.33384],[14.42376,42.33284],[14.424,42.33165]]},"properties":{}},{"type":"Feature","geometry":{"type":"LineString","coordinates":[[14.41896,42.33806],[14.42207,42.33584]]},"properties":{}},{"type":"Feature","geometry":{"type":"LineString","coordinates":[[14.41801,42.33872],[14.41896,42.33806]]},"properties":{}},{"type":"Feature","geometry":{"type":"LineString","coordinates":[[14.27885,42.35897],[14.27866,42.35921]]},"properties":{}},{"type":"Feature","geometry":{"type":"LineString","coordinates":[[14.4168,42.33965],[14.41801,42.33872]]},"properties":{}},{"type":"Feature","geometry":{"type":"LineString","coordinates":[[14.416,42.3404],[14.4168,42.33965]]},"properties":{}},{"type":"Feature","geometry":{"type":"LineString","coordinates":[[14.41282,42.34299],[14.41297,42.34283],[14.41458,42.34165],[14.41556,42.34087],[14.416,42.3404]]},"properties":{}},{"type":"Feature","geometry":{"type":"LineString","coordinates":[[14.41062,42.3429],[14.41065,42.34306]]},"properties":{}},{"type":"Feature","geometry":{"type":"LineString","coordinates":[[14.41064,42.34321],[14.41049,42.3432],[14.41046,42.34315],[14.41047,42.34309],[14.41055,42.34305],[14.41067,42.34307],[14.4107,42.34314],[14.41064,42.34321]]},"properties":{}},{"type":"Feature","geometry":{"type":"LineString","coordinates":[[14.41034,42.34323],[14.41046,42.34315]]},"properties":{}},{"type":"Feature","geometry":{"type":"LineString","coordinates":[[14.4107,42.34314],[14.41075,42.34325]]},"properties":{}},{"type":"Feature","geometry":{"type":"LineString","coordinates":[[14.41049,42.3432],[14.41034,42.34323]]},"properties":{}},{"type":"Feature","geometry":{"type":"LineString","coordinates":[[14.41075,42.34325],[14.4106,42.34322]]},"properties":{}},{"type":"Feature","geometry":{"type":"LineString","coordinates":[[14.41246,42.34357],[14.41245,42.34353],[14.41279,42.34307],[14.41282,42.34299]]},"properties":{}},{"type":"Feature","geometry":{"type":"LineString","coordinates":[[14.41181,42.34397],[14.41282,42.34299]]},"properties":{}},{"type":"Feature","geometry":{"type":"LineString","coordinates":[[14.32202,42.34336],[14.32224,42.34369]]},"properties":{}},{"type":"Feature","geometry":{"type":"LineString","coordinates":[[14.41248,42.3436],[14.41246,42.34357]]},"properties":{}},{"type":"Feature","geometry":{"type":"LineString","coordinates":[[14.32224,42.34369],[14.32226,42.34375]]},"properties":{}},{"type":"Feature","geometry":{"type":"LineString","coordinates":[[14.32226,42.34375],[14.32228,42.34382]]},"properties":{}},{"type":"Feature","geometry":{"type":"LineString","coordinates":[[14.4049,42.34468],[14.40474,42.34442],[14.404,42.34401]]},"properties":{}},{"type":"Feature","geometry":{"type":"LineString","coordinates":[[14.41057,42.34533],[14.4107,42.34527],[14.41114,42.34481],[14.4112,42.34476],[14.41134,42.34479],[14.41139,42.34477],[14.41164,42.34448],[14.41186,42.34413],[14.41246,42.34357]]},"properties":{}},{"type":"Feature","geometry":{"type":"LineString","coordinates":[[14.4049,42.34468],[14.40498,42.34454],[14.40508,42.34446]]},"properties":{}},{"type":"Feature","geometry":{"type":"LineString","coordinates":[[14.40508,42.34446],[14.405,42.34464],[14.40501,42.3448]]},"properties":{}},{"type":"Feature","geometry":{"type":"LineString","coordinates":[[14.4057,42.34474],[14.40547,42.34472],[14.40524,42.34465],[14.40515,42.34465],[14.40507,42.34468],[14.40501,42.3448]]},"properties":{}},{"type":"Feature","geometry":{"type":"LineString","coordinates":[[14.32228,42.34382],[14.32229,42.34405],[14.32223,42.34433],[14.32181,42.34529],[14.32149,42.34576]]},"properties":{}},{"type":"Feature","geometry":{"type":"LineString","coordinates":[[14.4051,42.34493],[14.40496,42.34484],[14.4049,42.34468]]},"properties":{}},{"type":"Feature","geometry":{"type":"LineString","coordinates":[[14.40501,42.3448],[14.4051,42.34493]]},"properties":{}},{"type":"Feature","geometry":{"type":"LineString","coordinates":[[14.32184,42.34536],[14.32181,42.34529]]},"properties":{}},{"type":"Feature","geometry":{"type":"LineString","coordinates":[[14.41016,42.34586],[14.41057,42.34533]]},"properties":{}},{"type":"Feature","geometry":{"type":"LineString","coordinates":[[14.32184,42.34536],[14.32127,42.34616]]},"properties":{}},{"type":"Feature","geometry":{"type":"LineString","coordinates":[[14.32149,42.34576],[14.32118,42.34617]]},"properties":{}},{"type":"Feature","geometry":{"type":"LineString","coordinates":[[14.32127,42.34616],[14.32118,42.34617]]},"properties":{}},{"type":"Feature","geometry":{"type":"LineString","coordinates":[[14.40968,42.34663],[14.41003,42.34603],[14.41016,42.34586]]},"properties":{}},{"type":"Feature","geometry":{"type":"LineString","coordinates":[[14.32127,42.34616],[14.32245,42.34677],[14.3237,42.34759],[14.32412,42.34735],[14.32341,42.34621],[14.32263,42.34577],[14.32228,42.34609],[14.32224,42.34609],[14.32187,42.34588],[14.32199,42.3457],[14.32216,42.34554],[14.32184,42.34536]]},"properties":{}},{"type":"Feature","geometry":{"type":"LineString","coordinates":[[14.38723,42.34854],[14.38752,42.34855],[14.38773,42.34851],[14.38801,42.34815]]},"properties":{}},{"type":"Feature","geometry":{"type":"LineString","coordinates":[[14.38801,42.34815],[14.388,42.34841],[14.38802,42.34849],[14.38809,42.34857],[14.38831,42.34866]]},"properties":{}},{"type":"Feature","geometry":{"type":"LineString","coordinates":[[14.38797,42.34826],[14.38798,42.34834],[14.38767,42.34904]]},"properties":{}},{"type":"Feature","geometry":{"type":"LineString","coordinates":[[14.38767,42.34904],[14.38766,42.34899],[14.38791,42.34833],[14.38797,42.34826]]},"properties":{}},{"type":"Feature","geometry":{"type":"LineString","coordinates":[[14.38589,42.34876],[14.38631,42.34861]]},"properties":{}},{"type":"Feature","geometry":{"type":"LineString","coordinates":[[14.38631,42.34861],[14.3862,42.3487],[14.38608,42.34888]]},"properties":{}},{"type":"Feature","geometry":{"type":"LineString","coordinates":[[14.38532,42.34883],[14.3857,42.34883]]},"properties":{}},{"type":"Feature","geometry":{"type":"LineString","coordinates":[[14.38761,42.34918],[14.38765,42.34888],[14.38761,42.34874],[14.38747,42.34862],[14.38723,42.34854]]},"properties":{}},{"type":"Feature","geometry":{"type":"LineString","coordinates":[[14.3857,42.34899],[14.38544,42.34891],[14.38532,42.34883]]},"properties":{}},{"type":"Feature","geometry":{"type":"LineString","coordinates":[[14.38831,42.34866],[14.38802,42.34864],[14.3879,42.3487],[14.38761,42.34918]]},"properties":{}},{"type":"Feature","geometry":{"type":"LineString","coordinates":[[14.38574,42.34902],[14.38567,42.34891],[14.3857,42.34883],[14.38578,42.34878],[14.38595,42.34877],[14.38608,42.34888],[14.38606,42.34899],[14.38597,42.34905],[14.38585,42.34906],[14.38574,42.34902]]},"properties":{}},{"type":"Feature","geometry":{"type":"LineString","coordinates":[[14.38606,42.34899],[14.38606,42.34915],[14.38619,42.34931]]},"properties":{}},{"type":"Feature","geometry":{"type":"LineString","coordinates":[[14.38619,42.34931],[14.38605,42.34924],[14.38585,42.34906]]},"properties":{}},{"type":"Feature","geometry":{"type":"LineString","coordinates":[[14.40747,42.35754],[14.40759,42.35738],[14.40767,42.3569],[14.40781,42.35549],[14.4078,42.355],[14.40804,42.35303],[14.40828,42.35069],[14.40843,42.34974],[14.40854,42.34934],[14.40881,42.34862],[14.40968,42.34663]]},"properties":{}},{"type":"Feature","geometry":{"type":"LineString","coordinates":[[14.40077,42.35561],[14.39998,42.35628],[14.39957,42.35632]]},"properties":{}},{"type":"Feature","geometry":{"type":"LineString","coordinates":[[14.39957,42.35632],[14.39909,42.35632]]},"properties":{}},{"type":"Feature","geometry":{"type":"LineString","coordinates":[[14.39957,42.35632],[14.39958,42.35726]]},"properties":{}},{"type":"Feature","geometry":{"type":"LineString","coordinates":[[14.40011,42.35824],[14.39964,42.35768],[14.39958,42.35726]]},"properties":{}},{"type":"Feature","geometry":{"type":"LineString","coordinates":[[14.40747,42.35754],[14.40744,42.35761],[14.40746,42.35777],[14.40755,42.35792],[14.40763,42.35829],[14.4077,42.35836]]},"properties":{}},{"type":"Feature","geometry":{"type":"LineString","coordinates":[[14.4077,42.35836],[14.40785,42.35852]]},"properties":{}},{"type":"Feature","geometry":{"type":"LineString","coordinates":[[14.40785,42.35852],[14.4083,42.35887]]},"properties":{}},{"type":"Feature","geometry":{"type":"LineString","coordinates":[[14.4083,42.35887],[14.40824,42.35891]]},"properties":{}},{"type":"Feature","geometry":{"type":"LineString","coordinates":[[14.40824,42.35891],[14.40819,42.35896]]},"properties":{}},{"type":"Feature","geometry":{"type":"LineString","coordinates":[[14.40819,42.35896],[14.40801,42.35916],[14.40808,42.35924],[14.40806,42.35931],[14.40702,42.35992],[14.40655,42.36005],[14.40582,42.36006]]},"properties":{}},{"type":"Feature","geometry":{"type":"LineString","coordinates":[[14.40582,42.36006],[14.40564,42.36008],[14.40496,42.36025]]},"properties":{}},{"type":"Feature","geometry":{"type":"LineString","coordinates":[[14.38298,42.36128],[14.3831,42.36098]]},"properties":{}},{"type":"Feature","geometry":{"type":"LineString","coordinates":[[14.3831,42.36098],[14.38315,42.36131]]},"properties":{}},{"type":"Feature","geometry":{"type":"LineString","coordinates":[[14.38239,42.36122],[14.38295,42.36129]]},"properties":{}},{"type":"Feature","geometry":{"type":"LineString","coordinates":[[14.38287,42.3614],[14.38239,42.36122]]},"properties":{}},{"type":"Feature","geometry":{"type":"LineString","coordinates":[[14.38298,42.36128],[14.38307,42.36128],[14.38317,42.36133],[14.38319,42.36141],[14.38317,42.36146],[14.383,42.36151],[14.38289,42.36146],[14.38287,42.36135],[14.38298,42.36128]]},"properties":{}},{"type":"Feature","geometry":{"type":"LineString","coordinates":[[14.38318,42.36135],[14.38348,42.36145]]},"properties":{}},{"type":"Feature","geometry":{"type":"LineString","coordinates":[[14.38348,42.36145],[14.38359,42.36151]]},"properties":{}},{"type":"Feature","geometry":{"type":"LineString","coordinates":[[14.38359,42.36151],[14.3833,42.36147],[14.38313,42.36149]]},"properties":{}},{"type":"Feature","geometry":{"type":"LineString","coordinates":[[14.40496,42.36025],[14.40422,42.36049],[14.40321,42.36089],[14.40225,42.3614],[14.40068,42.36235],[14.39993,42.36274]]},"properties":{}},{"type":"Feature","geometry":{"type":"LineString","coordinates":[[14.38298,42.36177],[14.38292,42.36149]]},"properties":{}},{"type":"Feature","geometry":{"type":"LineString","coordinates":[[14.38309,42.36151],[14.38298,42.36177]]},"properties":{}},{"type":"Feature","geometry":{"type":"LineString","coordinates":[[14.39993,42.36274],[14.39973,42.36286]]},"properties":{}},{"type":"Feature","geometry":{"type":"LineString","coordinates":[[14.30347,42.36292],[14.30321,42.36298]]},"properties":{}},{"type":"Feature","geometry":{"type":"LineString","coordinates":[[14.39973,42.36286],[14.39912,42.36328],[14.39868,42.36363],[14.39822,42.36406],[14.39582,42.36654]]},"properties":{}},{"type":"Feature","geometry":{"type":"LineString","coordinates":[[14.39582,42.36654],[14.39541,42.36697],[14.39428,42.36842]]},"properties":{}},{"type":"Feature","geometry":{"type":"LineString","coordinates":[[14.25,42.39072],[14.25088,42.3918],[14.25269,42.39388],[14.25346,42.39502]]},"properties":{}},{"type":"Feature","geometry":{"type":"LineString","coordinates":[[14.25346,42.39502],[14.25465,42.397],[14.25709,42.40093],[14.25769,42.40196],[14.25779,42.40219],[14.25789,42.40249],[14.25798,42.40292],[14.25835,42.40605],[14.25864,42.40783]]},"properties":{}},{"type":"Feature","geometry":{"type":"LineString","coordinates":[[14.25864,42.40783],[14.25867,42.40792]]},"properties":{}},{"type":"Feature","geometry":{"type":"LineString","coordinates":[[14.25851,42.40823],[14.25864,42.40804],[14.25864,42.40783]]},"properties":{}},{"type":"Feature","geometry":{"type":"LineString","coordinates":[[14.39428,42.36842],[14.39325,42.3702],[14.39273,42.37078]]},"properties":{}},{"type":"Feature","geometry":{"type":"LineString","coordinates":[[14.39273,42.37078],[14.39273,42.3709],[14.39176,42.37148]]},"properties":{}},{"type":"Feature","geometry":{"type":"LineString","coordinates":[[14.33935,42.39397],[14.33953,42.3939]]},"properties":{}},{"type":"Feature","geometry":{"type":"LineString","coordinates":[[14.33898,42.39419],[14.33899,42.39414]]},"properties":{}},{"type":"Feature","geometry":{"type":"LineString","coordinates":[[14.33899,42.39414],[14.33905,42.39418],[14.33904,42.39426]]},"properties":{}},{"type":"Feature","geometry":{"type":"LineString","coordinates":[[14.29653,42.39505],[14.29652,42.39512],[14.29657,42.39525],[14.29671,42.39548],[14.29684,42.39553],[14.29696,42.3955],[14.29693,42.39513],[14.29685,42.39509],[14.29653,42.39505]]},"properties":{}},{"type":"Feature","geometry":{"type":"LineString","coordinates":[[14.29653,42.39505],[14.29614,42.39488],[14.29568,42.39475]]},"properties":{}},{"type":"Feature","geometry":{"type":"LineString","coordinates":[[14.29755,42.39552],[14.29692,42.39552]]},"properties":{}},{"type":"Feature","geometry":{"type":"LineString","coordinates":[[14.32151,42.40325],[14.32172,42.40338]]},"properties":{}},{"type":"Feature","geometry":{"type":"LineString","coordinates":[[14.32161,42.40344],[14.32151,42.40325]]},"properties":{}},{"type":"Feature","geometry":{"type":"LineString","coordinates":[[14.32178,42.40338],[14.322,42.40336]]},"properties":{}},{"type":"Feature","geometry":{"type":"LineString","coordinates":[[14.32172,42.40338],[14.32178,42.40338]]},"properties":{}},{"type":"Feature","geometry":{"type":"LineString","coordinates":[[14.32161,42.40348],[14.32163,42.40342],[14.32172,42.40338]]},"properties":{}},{"type":"Feature","geometry":{"type":"LineString","coordinates":[[14.322,42.40336],[14.32186,42.4035]]},"properties":{}},{"type":"Feature","geometry":{"type":"LineString","coordinates":[[14.32178,42.40338],[14.32184,42.40342],[14.32186,42.4035]]},"properties":{}},{"type":"Feature","geometry":{"type":"LineString","coordinates":[[14.32169,42.40356],[14.32161,42.40348]]},"properties":{}},{"type":"Feature","geometry":{"type":"LineString","coordinates":[[14.32186,42.4035],[14.32178,42.40356],[14.32169,42.40356]]},"properties":{}},{"type":"Feature","geometry":{"type":"LineString","coordinates":[[14.32144,42.40362],[14.32161,42.40348]]},"properties":{}},{"type":"Feature","geometry":{"type":"LineString","coordinates":[[14.32169,42.40356],[14.32144,42.40362]]},"properties":{}},{"type":"Feature","geometry":{"type":"LineString","coordinates":[[14.32055,42.40402],[14.3199,42.40433]]},"properties":{}},{"type":"Feature","geometry":{"type":"LineString","coordinates":[[14.3199,42.40433],[14.31943,42.40459],[14.31501,42.40735]]},"properties":{}},{"type":"Feature","geometry":{"type":"LineString","coordinates":[[14.3134,42.40845],[14.31346,42.40837],[14.31715,42.40612],[14.31924,42.4048],[14.31994,42.40438],[14.32052,42.4041],[14.32055,42.40402]]},"properties":{}},{"type":"Feature","geometry":{"type":"LineString","coordinates":[[14.31489,42.40743],[14.31501,42.40735]]},"properties":{}},{"type":"Feature","geometry":{"type":"LineString","coordinates":[[14.31436,42.40777],[14.31226,42.40904]]},"properties":{}},{"type":"Feature","geometry":{"type":"LineString","coordinates":[[14.31226,42.40904],[14.31107,42.40969]]},"properties":{}},{"type":"Feature","geometry":{"type":"LineString","coordinates":[[14.30611,42.41235],[14.31074,42.40994],[14.31216,42.40918],[14.3134,42.40845]]},"properties":{}},{"type":"Feature","geometry":{"type":"LineString","coordinates":[[14.31107,42.40969],[14.30656,42.41201]]},"properties":{}},{"type":"Feature","geometry":{"type":"LineString","coordinates":[[14.30555,42.41287],[14.30615,42.41252],[14.3061,42.41241],[14.30611,42.41235]]},"properties":{}},{"type":"Feature","geometry":{"type":"LineString","coordinates":[[14.30472,42.41329],[14.30501,42.41324],[14.30542,42.41302],[14.30555,42.41287]]},"properties":{}},{"type":"Feature","geometry":{"type":"LineString","coordinates":[[14.30344,42.41398],[14.30345,42.41399]]},"properties":{}},{"type":"Feature","geometry":{"type":"LineString","coordinates":[[14.30071,42.41557],[14.3021,42.41475],[14.30472,42.41329]]},"properties":{}},{"type":"Feature","geometry":{"type":"LineString","coordinates":[[14.25867,42.40792],[14.25875,42.40812],[14.25883,42.40822]]},"properties":{}},{"type":"Feature","geometry":{"type":"LineString","coordinates":[[14.27758,42.42163],[14.27788,42.42155]]},"properties":{}},{"type":"Feature","geometry":{"type":"LineString","coordinates":[[14.27788,42.42155],[14.27804,42.42177]]},"properties":{}},{"type":"Feature","geometry":{"type":"LineString","coordinates":[[14.27554,42.42299],[14.27582,42.42295],[14.27608,42.42285]]},"properties":{}},{"type":"Feature","geometry":{"type":"LineString","coordinates":[[14.27608,42.42285],[14.27567,42.4232]]},"properties":{}},{"type":"Feature","geometry":{"type":"LineString","coordinates":[[14.27535,42.42324],[14.27529,42.42315],[14.27535,42.42302],[14.27554,42.42299],[14.27567,42.42307],[14.27569,42.42316],[14.2756,42.42325],[14.27547,42.42328],[14.27535,42.42324]]},"properties":{}},{"type":"Feature","geometry":{"type":"LineString","coordinates":[[14.28023,42.42342],[14.28075,42.42328]]},"properties":{}},{"type":"Feature","geometry":{"type":"LineString","coordinates":[[14.30215,42.41472],[14.30212,42.4147]]},"properties":{}},{"type":"Feature","geometry":{"type":"LineString","coordinates":[[14.2978,42.41488],[14.29747,42.41462],[14.29734,42.4146],[14.29694,42.4148],[14.29609,42.4153]]},"properties":{}},{"type":"Feature","geometry":{"type":"LineString","coordinates":[[14.29609,42.4153],[14.2958,42.41568],[14.29519,42.41606],[14.29446,42.41679],[14.29446,42.41682]]},"properties":{}},{"type":"Feature","geometry":{"type":"LineString","coordinates":[[14.29179,42.41681],[14.2918,42.41673],[14.2919,42.41659],[14.29299,42.41594],[14.29311,42.41575]]},"properties":{}},{"type":"Feature","geometry":{"type":"LineString","coordinates":[[14.2916,42.41755],[14.29207,42.41698]]},"properties":{}},{"type":"Feature","geometry":{"type":"LineString","coordinates":[[14.29131,42.41717],[14.29084,42.41758]]},"properties":{}},{"type":"Feature","geometry":{"type":"LineString","coordinates":[[14.29241,42.41716],[14.29196,42.41765],[14.29183,42.41773]]},"properties":{}},{"type":"Feature","geometry":{"type":"LineString","coordinates":[[14.29144,42.41739],[14.2916,42.41755]]},"properties":{}},{"type":"Feature","geometry":{"type":"LineString","coordinates":[[14.29084,42.41758],[14.2904,42.41789]]},"properties":{}},{"type":"Feature","geometry":{"type":"LineString","coordinates":[[14.2916,42.41755],[14.29233,42.41813]]},"properties":{}},{"type":"Feature","geometry":{"type":"LineString","coordinates":[[14.29183,42.41773],[14.29146,42.41796]]},"properties":{}},{"type":"Feature","geometry":{"type":"LineString","coordinates":[[14.2907,42.41815],[14.2916,42.41755]]},"properties":{}},{"type":"Feature","geometry":{"type":"LineString","coordinates":[[14.29261,42.4202],[14.29721,42.41764],[14.2984,42.41691],[14.30071,42.41557]]},"properties":{}},{"type":"Feature","geometry":{"type":"LineString","coordinates":[[14.29284,42.41774],[14.29233,42.41813]]},"properties":{}},{"type":"Feature","geometry":{"type":"LineString","coordinates":[[14.29146,42.41796],[14.29134,42.41804]]},"properties":{}},{"type":"Feature","geometry":{"type":"LineString","coordinates":[[14.29134,42.41804],[14.29103,42.41823]]},"properties":{}},{"type":"Feature","geometry":{"type":"LineString","coordinates":[[14.29103,42.41823],[14.2909,42.41823],[14.2907,42.41815]]},"properties":{}},{"type":"Feature","geometry":{"type":"LineString","coordinates":[[14.29233,42.41813],[14.29197,42.41835]]},"properties":{}},{"type":"Feature","geometry":{"type":"LineString","coordinates":[[14.29562,42.4185],[14.29564,42.41852]]},"properties":{}},{"type":"Feature","geometry":{"type":"LineString","coordinates":[[14.29197,42.41835],[14.29176,42.41845],[14.29141,42.41855],[14.29093,42.41884],[14.29082,42.41887],[14.29014,42.41882]]},"properties":{}},{"type":"Feature","geometry":{"type":"LineString","coordinates":[[14.28991,42.42001],[14.29,42.42001],[14.29005,42.42005]]},"properties":{}},{"type":"Feature","geometry":{"type":"LineString","coordinates":[[14.28999,42.42007],[14.28991,42.42001]]},"properties":{}},{"type":"Feature","geometry":{"type":"LineString","coordinates":[[14.29248,42.42023],[14.29261,42.4202]]},"properties":{}},{"type":"Feature","geometry":{"type":"LineString","coordinates":[[14.29005,42.42005],[14.29043,42.42054]]},"properties":{}},{"type":"Feature","geometry":{"type":"LineString","coordinates":[[14.29037,42.42056],[14.28999,42.42007]]},"properties":{}},{"type":"Feature","geometry":{"type":"LineString","coordinates":[[14.29261,42.4202],[14.2925,42.42044],[14.29211,42.4206]]},"properties":{}},{"type":"Feature","geometry":{"type":"LineString","coordinates":[[14.29043,42.42054],[14.29048,42.42064]]},"properties":{}},{"type":"Feature","geometry":{"type":"LineString","coordinates":[[14.29048,42.42064],[14.29037,42.42056]]},"properties":{}},{"type":"Feature","geometry":{"type":"LineString","coordinates":[[14.28877,42.42177],[14.29216,42.41991]]},"properties":{}},{"type":"Feature","geometry":{"type":"LineString","coordinates":[[14.28628,42.421],[14.28647,42.42089]]},"properties":{}},{"type":"Feature","geometry":{"type":"LineString","coordinates":[[14.28647,42.42089],[14.28644,42.42098],[14.28638,42.42102]]},"properties":{}},{"type":"Feature","geometry":{"type":"LineString","coordinates":[[14.29055,42.42078],[14.29094,42.42117]]},"properties":{}},{"type":"Feature","geometry":{"type":"LineString","coordinates":[[14.28638,42.42102],[14.28661,42.421]]},"properties":{}},{"type":"Feature","geometry":{"type":"LineString","coordinates":[[14.28661,42.421],[14.2864,42.42108]]},"properties":{}},{"type":"Feature","geometry":{"type":"LineString","coordinates":[[14.28621,42.42106],[14.2863,42.42099],[14.28636,42.42101],[14.2864,42.42106],[14.28637,42.42112],[14.28631,42.42113],[14.28623,42.42111],[14.28621,42.42106]]},"properties":{}},{"type":"Feature","geometry":{"type":"LineString","coordinates":[[14.28601,42.42123],[14.28621,42.42108]]},"properties":{}},{"type":"Feature","geometry":{"type":"LineString","coordinates":[[14.28628,42.42113],[14.28601,42.42123]]},"properties":{}},{"type":"Feature","geometry":{"type":"LineString","coordinates":[[14.28808,42.42168],[14.28832,42.42159]]},"properties":{}},{"type":"Feature","geometry":{"type":"LineString","coordinates":[[14.28791,42.42175],[14.28808,42.42168]]},"properties":{}},{"type":"Feature","geometry":{"type":"LineString","coordinates":[[14.28825,42.42178],[14.28808,42.42168]]},"properties":{}},{"type":"Feature","geometry":{"type":"LineString","coordinates":[[14.27989,42.42332],[14.28002,42.42332],[14.28018,42.42341]]},"properties":{}},{"type":"Feature","geometry":{"type":"LineString","coordinates":[[14.28006,42.42345],[14.28,42.42337],[14.27989,42.42332]]},"properties":{}},{"type":"Feature","geometry":{"type":"LineString","coordinates":[[14.28075,42.42328],[14.28028,42.42351]]},"properties":{}},{"type":"Feature","geometry":{"type":"LineString","coordinates":[[14.27971,42.4237],[14.28005,42.42349]]},"properties":{}},{"type":"Feature","geometry":{"type":"LineString","coordinates":[[14.28026,42.42354],[14.28035,42.42368]]},"properties":{}},{"type":"Feature","geometry":{"type":"LineString","coordinates":[[14.27523,42.42403],[14.27532,42.42393],[14.27539,42.42374],[14.27537,42.42343],[14.27531,42.4232]]},"properties":{}},{"type":"Feature","geometry":{"type":"LineString","coordinates":[[14.28035,42.42368],[14.28017,42.42358]]},"properties":{}},{"type":"Feature","geometry":{"type":"LineString","coordinates":[[14.2801,42.42357],[14.27971,42.4237]]},"properties":{}},{"type":"Feature","geometry":{"type":"LineString","coordinates":[[14.2756,42.42325],[14.2755,42.42338],[14.27546,42.42354],[14.27552,42.42405]]},"properties":{}},{"type":"Feature","geometry":{"type":"LineString","coordinates":[[14.28104,42.42436],[14.28245,42.42362]]},"properties":{}},{"type":"Feature","geometry":{"type":"LineString","coordinates":[[14.28832,42.42159],[14.28858,42.42187]]},"properties":{}},{"type":"Feature","geometry":{"type":"LineString","coordinates":[[14.28824,42.42207],[14.28877,42.42177]]},"properties":{}},{"type":"Feature","geometry":{"type":"LineString","coordinates":[[14.28707,42.42216],[14.28791,42.42175]]},"properties":{}},{"type":"Feature","geometry":{"type":"LineString","coordinates":[[14.28512,42.42259],[14.28569,42.42234],[14.28672,42.42215],[14.28707,42.42216]]},"properties":{}},{"type":"Feature","geometry":{"type":"LineString","coordinates":[[14.28595,42.42231],[14.28627,42.42263]]},"properties":{}},{"type":"Feature","geometry":{"type":"LineString","coordinates":[[14.28594,42.42443],[14.28608,42.42448],[14.28617,42.42444],[14.28876,42.42267],[14.28882,42.42262],[14.28884,42.42256],[14.29002,42.42186],[14.28994,42.42177]]},"properties":{}},{"type":"Feature","geometry":{"type":"LineString","coordinates":[[14.28594,42.42443],[14.28403,42.42594],[14.2835,42.42628]]},"properties":{}},{"type":"Feature","geometry":{"type":"LineString","coordinates":[[14.28202,42.4254],[14.28211,42.42535],[14.28219,42.42538]]},"properties":{}},{"type":"Feature","geometry":{"type":"LineString","coordinates":[[14.28205,42.42548],[14.28202,42.4254]]},"properties":{}},{"type":"Feature","geometry":{"type":"LineString","coordinates":[[14.28207,42.42549],[14.28205,42.42548]]},"properties":{}},{"type":"Feature","geometry":{"type":"LineString","coordinates":[[14.25981,42.44042],[14.25948,42.44016]]},"properties":{}},{"type":"Feature","geometry":{"type":"LineString","coordinates":[[14.2598,42.44039],[14.25979,42.4404]]},"properties":{}},{"type":"Feature","geometry":{"type":"LineString","coordinates":[[14.25259,42.44101],[14.25283,42.44092]]},"properties":{}},{"type":"Feature","geometry":{"type":"LineString","coordinates":[[14.25283,42.44092],[14.25271,42.44107]]},"properties":{}},{"type":"Feature","geometry":{"type":"LineString","coordinates":[[14.27516,42.42418],[14.2752,42.42405],[14.27536,42.424],[14.27549,42.42403],[14.27556,42.42414],[14.27551,42.42424],[14.27538,42.42429],[14.27524,42.42427],[14.27516,42.42418]]},"properties":{}},{"type":"Feature","geometry":{"type":"LineString","coordinates":[[14.27467,42.42425],[14.275,42.42418],[14.27518,42.42407]]},"properties":{}},{"type":"Feature","geometry":{"type":"LineString","coordinates":[[14.28093,42.42425],[14.28081,42.42413]]},"properties":{}},{"type":"Feature","geometry":{"type":"LineString","coordinates":[[14.27555,42.42411],[14.27563,42.42422],[14.27587,42.42435]]},"properties":{}},{"type":"Feature","geometry":{"type":"LineString","coordinates":[[14.27528,42.42428],[14.27467,42.42425]]},"properties":{}},{"type":"Feature","geometry":{"type":"LineString","coordinates":[[14.27587,42.42435],[14.27538,42.42429]]},"properties":{}},{"type":"Feature","geometry":{"type":"LineString","coordinates":[[14.27736,42.42476],[14.27762,42.42473],[14.27783,42.42465]]},"properties":{}},{"type":"Feature","geometry":{"type":"LineString","coordinates":[[14.27694,42.42469],[14.27724,42.42476]]},"properties":{}},{"type":"Feature","geometry":{"type":"LineString","coordinates":[[14.27783,42.42465],[14.27753,42.42486],[14.27744,42.42488]]},"properties":{}},{"type":"Feature","geometry":{"type":"LineString","coordinates":[[14.27715,42.42484],[14.27694,42.42469]]},"properties":{}},{"type":"Feature","geometry":{"type":"LineString","coordinates":[[14.28205,42.42536],[14.28093,42.42425]]},"properties":{}},{"type":"Feature","geometry":{"type":"LineString","coordinates":[[14.27743,42.4249],[14.27735,42.42496],[14.27724,42.42496],[14.27716,42.4249],[14.27715,42.42484],[14.27724,42.42476],[14.27733,42.42475],[14.27743,42.42481],[14.27743,42.4249]]},"properties":{}},{"type":"Feature","geometry":{"type":"LineString","coordinates":[[14.27697,42.42515],[14.27708,42.42503],[14.27715,42.42487]]},"properties":{}},{"type":"Feature","geometry":{"type":"LineString","coordinates":[[14.27728,42.42497],[14.27697,42.42515]]},"properties":{}},{"type":"Feature","geometry":{"type":"LineString","coordinates":[[14.27797,42.42529],[14.27818,42.42542]]},"properties":{}},{"type":"Feature","geometry":{"type":"LineString","coordinates":[[14.27813,42.42546],[14.27797,42.42529]]},"properties":{}},{"type":"Feature","geometry":{"type":"LineString","coordinates":[[14.27818,42.42542],[14.2783,42.4255]]},"properties":{}},{"type":"Feature","geometry":{"type":"LineString","coordinates":[[14.27825,42.42553],[14.27813,42.42546]]},"properties":{}},{"type":"Feature","geometry":{"type":"LineString","coordinates":[[14.2783,42.4255],[14.27838,42.42558]]},"properties":{}},{"type":"Feature","geometry":{"type":"LineString","coordinates":[[14.27838,42.42558],[14.27825,42.42553]]},"properties":{}},{"type":"Feature","geometry":{"type":"LineString","coordinates":[[14.28249,42.42686],[14.2835,42.42628]]},"properties":{}},{"type":"Feature","geometry":{"type":"LineString","coordinates":[[14.282,42.42715],[14.28249,42.42686]]},"properties":{}},{"type":"Feature","geometry":{"type":"LineString","coordinates":[[14.28154,42.42742],[14.282,42.42715]]},"properties":{}},{"type":"Feature","geometry":{"type":"LineString","coordinates":[[14.27832,42.42565],[14.27837,42.42569]]},"properties":{}},{"type":"Feature","geometry":{"type":"LineString","coordinates":[[14.27832,42.42565],[14.27776,42.42596],[14.27566,42.42721]]},"properties":{}},{"type":"Feature","geometry":{"type":"LineString","coordinates":[[14.28114,42.42771],[14.28154,42.42742]]},"properties":{}},{"type":"Feature","geometry":{"type":"LineString","coordinates":[[14.27603,42.42708],[14.27731,42.42808]]},"properties":{}},{"type":"Feature","geometry":{"type":"LineString","coordinates":[[14.28114,42.42771],[14.28111,42.42769]]},"properties":{}},{"type":"Feature","geometry":{"type":"LineString","coordinates":[[14.27257,42.42804],[14.27215,42.42776]]},"properties":{}},{"type":"Feature","geometry":{"type":"LineString","coordinates":[[14.27566,42.42721],[14.27523,42.42747],[14.27487,42.42774],[14.27347,42.42859],[14.27351,42.42864]]},"properties":{}},{"type":"Feature","geometry":{"type":"LineString","coordinates":[[14.27655,42.42864],[14.27705,42.42883],[14.27727,42.429]]},"properties":{}},{"type":"Feature","geometry":{"type":"LineString","coordinates":[[14.27225,42.42943],[14.27347,42.42865]]},"properties":{}},{"type":"Feature","geometry":{"type":"LineString","coordinates":[[14.2756,42.42944],[14.27599,42.42976]]},"properties":{}},{"type":"Feature","geometry":{"type":"LineString","coordinates":[[14.27151,42.4299],[14.27225,42.42943]]},"properties":{}},{"type":"Feature","geometry":{"type":"LineString","coordinates":[[14.27586,42.42982],[14.27552,42.42951]]},"properties":{}},{"type":"Feature","geometry":{"type":"LineString","coordinates":[[14.27599,42.42976],[14.27627,42.43004],[14.27615,42.4301],[14.27586,42.42982]]},"properties":{}},{"type":"Feature","geometry":{"type":"LineString","coordinates":[[14.2687,42.43155],[14.2734,42.42865]]},"properties":{}},{"type":"Feature","geometry":{"type":"LineString","coordinates":[[14.26826,42.43495],[14.27408,42.43147],[14.27637,42.43016],[14.27695,42.42984],[14.27715,42.42983],[14.27972,42.42858],[14.28114,42.42771]]},"properties":{}},{"type":"Feature","geometry":{"type":"LineString","coordinates":[[14.27111,42.43147],[14.27184,42.43213]]},"properties":{}},{"type":"Feature","geometry":{"type":"LineString","coordinates":[[14.27146,42.43236],[14.27075,42.43171]]},"properties":{}},{"type":"Feature","geometry":{"type":"LineString","coordinates":[[14.26971,42.43236],[14.27041,42.43298]]},"properties":{}},{"type":"Feature","geometry":{"type":"LineString","coordinates":[[14.26522,42.43284],[14.26513,42.4329]]},"properties":{}},{"type":"Feature","geometry":{"type":"LineString","coordinates":[[14.26825,42.43321],[14.26826,42.43323],[14.26701,42.43401]]},"properties":{}},{"type":"Feature","geometry":{"type":"LineString","coordinates":[[14.26538,42.43396],[14.26608,42.43458]]},"properties":{}},{"type":"Feature","geometry":{"type":"LineString","coordinates":[[14.25986,42.43614],[14.2589,42.43516],[14.25886,42.43504],[14.25888,42.43494],[14.2591,42.43457]]},"properties":{}},{"type":"Feature","geometry":{"type":"LineString","coordinates":[[14.2657,42.43653],[14.26826,42.43495]]},"properties":{}},{"type":"Feature","geometry":{"type":"LineString","coordinates":[[14.26023,42.43606],[14.2606,42.43585]]},"properties":{}},{"type":"Feature","geometry":{"type":"LineString","coordinates":[[14.2606,42.43585],[14.26049,42.43599],[14.26047,42.43612]]},"properties":{}},{"type":"Feature","geometry":{"type":"LineString","coordinates":[[14.26005,42.43619],[14.26019,42.4361]]},"properties":{}},{"type":"Feature","geometry":{"type":"LineString","coordinates":[[14.26025,42.43625],[14.26017,42.43616],[14.26023,42.43606],[14.26035,42.43604],[14.26046,42.4361],[14.26047,42.43617],[14.26043,42.43623],[14.26035,42.43626],[14.26025,42.43625]]},"properties":{}},{"type":"Feature","geometry":{"type":"LineString","coordinates":[[14.25994,42.43626],[14.25986,42.43614]]},"properties":{}},{"type":"Feature","geometry":{"type":"LineString","coordinates":[[14.25994,42.43626],[14.26005,42.43619]]},"properties":{}},{"type":"Feature","geometry":{"type":"LineString","coordinates":[[14.26048,42.43615],[14.2607,42.43631]]},"properties":{}},{"type":"Feature","geometry":{"type":"LineString","coordinates":[[14.25619,42.43655],[14.25579,42.43595]]},"properties":{}},{"type":"Feature","geometry":{"type":"LineString","coordinates":[[14.26008,42.43629],[14.25994,42.43626]]},"properties":{}},{"type":"Feature","geometry":{"type":"LineString","coordinates":[[14.26029,42.43626],[14.26008,42.43629]]},"properties":{}},{"type":"Feature","geometry":{"type":"LineString","coordinates":[[14.2607,42.43631],[14.26032,42.43627]]},"properties":{}},{"type":"Feature","geometry":{"type":"LineString","coordinates":[[14.25974,42.43641],[14.25994,42.43626]]},"properties":{}},{"type":"Feature","geometry":{"type":"LineString","coordinates":[[14.2607,42.43631],[14.26163,42.43636]]},"properties":{}},{"type":"Feature","geometry":{"type":"LineString","coordinates":[[14.26008,42.43629],[14.25974,42.43641]]},"properties":{}},{"type":"Feature","geometry":{"type":"LineString","coordinates":[[14.26382,42.43681],[14.26362,42.43666]]},"properties":{}},{"type":"Feature","geometry":{"type":"LineString","coordinates":[[14.26399,42.43673],[14.26405,42.43678],[14.26404,42.43684]]},"properties":{}},{"type":"Feature","geometry":{"type":"LineString","coordinates":[[14.26489,42.43705],[14.2657,42.43653]]},"properties":{}},{"type":"Feature","geometry":{"type":"LineString","coordinates":[[14.26404,42.43684],[14.26399,42.43688]]},"properties":{}},{"type":"Feature","geometry":{"type":"LineString","coordinates":[[14.26399,42.43688],[14.26391,42.43688],[14.26384,42.43684]]},"properties":{}},{"type":"Feature","geometry":{"type":"LineString","coordinates":[[14.26374,42.43708],[14.26384,42.43684]]},"properties":{}},{"type":"Feature","geometry":{"type":"LineString","coordinates":[[14.26399,42.43688],[14.26374,42.43708]]},"properties":{}},{"type":"Feature","geometry":{"type":"LineString","coordinates":[[14.25732,42.43798],[14.25727,42.43794],[14.25723,42.43784]]},"properties":{}},{"type":"Feature","geometry":{"type":"LineString","coordinates":[[14.26333,42.43801],[14.26336,42.43803]]},"properties":{}},{"type":"Feature","geometry":{"type":"LineString","coordinates":[[14.25981,42.44042],[14.26221,42.43878],[14.26489,42.43705]]},"properties":{}},{"type":"Feature","geometry":{"type":"LineString","coordinates":[[14.25272,42.44112],[14.25267,42.44118],[14.25256,42.4412],[14.25247,42.44115],[14.25245,42.44109],[14.25249,42.44103],[14.25259,42.44101],[14.25269,42.44105],[14.25272,42.44112]]},"properties":{}},{"type":"Feature","geometry":{"type":"LineString","coordinates":[[14.25222,42.44132],[14.25247,42.44105]]},"properties":{}},{"type":"Feature","geometry":{"type":"LineString","coordinates":[[14.25256,42.4412],[14.25238,42.44124],[14.25222,42.44132]]},"properties":{}},{"type":"Feature","geometry":{"type":"LineString","coordinates":[[14.25948,42.44016],[14.25942,42.44017],[14.25432,42.44375],[14.25325,42.44457]]},"properties":{}},{"type":"Feature","geometry":{"type":"LineString","coordinates":[[14.25787,42.44118],[14.25437,42.44364],[14.25316,42.44456]]},"properties":{}},{"type":"Feature","geometry":{"type":"LineString","coordinates":[[14.2513,42.44344],[14.25134,42.44341]]},"properties":{}},{"type":"Feature","geometry":{"type":"LineString","coordinates":[[14.25316,42.44456],[14.25266,42.44493]]},"properties":{}},{"type":"Feature","geometry":{"type":"LineString","coordinates":[[14.25325,42.44457],[14.25266,42.44506]]},"properties":{}},{"type":"Feature","geometry":{"type":"LineString","coordinates":[[14.25,42.447],[14.25266,42.44506]]},"properties":{}},{"type":"Feature","geometry":{"type":"LineString","coordinates":[[14.25,42.44689],[14.25266,42.44493]]},"properties":{}}]}