{"type":"FeatureCollection","features":[{"type":"Feature","geometry":{"type":"LineString","coordinates":[[14.88412,37.06398],[14.88392,37.06386]]},"properties":{}},{"type":"Feature","geometry":{"type":"LineString","coordinates":[[14.88392,37.06386],[14.88353,37.06374],[14.88305,37.06375],[14.8827,37.06387],[14.88198,37.06429],[14.88162,37.0644],[14.88143,37.06442]]},"properties":{}},{"type":"Feature","geometry":{"type":"LineString","coordinates":[[14.88068,37.06421],[14.88032,37.0641],[14.87985,37.06405],[14.87967,37.064]]},"properties":{}},{"type":"Feature","geometry":{"type":"LineString","coordinates":[[14.88095,37.06433],[14.88068,37.06421]]},"properties":{}},{"type":"Feature","geometry":{"type":"LineString","coordinates":[[14.88143,37.06442],[14.88112,37.06438],[14.88095,37.06433]]},"properties":{}},{"type":"Feature","geometry":{"type":"LineString","coordinates":[[14.8953,37.06888],[14.89455,37.06904],[14.89302,37.06925],[14.89262,37.06925],[14.89235,37.06921],[14.89145,37.06877],[14.89126,37.06871],[14.8902,37.06855],[14.88997,37.06847],[14.88904,37.06792],[14.88869,37.06767],[14.88859,37.06754],[14.88849,37.06731],[14.88829,37.0667],[14.88819,37.06651],[14.88806,37.06632],[14.88775,37.06603],[14.88752,37.06588],[14.88722,37.06575],[14.88529,37.06543],[14.88503,37.06533],[14.8848,37.06518],[14.8846,37.06492],[14.88441,37.06432],[14.88427,37.06411],[14.88412,37.06398]]},"properties":{}},{"type":"Feature","geometry":{"type":"LineString","coordinates":[[14.8974,37.06835],[14.89712,37.06837]]},"properties":{}},{"type":"Feature","geometry":{"type":"LineString","coordinates":[[14.89712,37.06837],[14.89681,37.06843],[14.89607,37.06868],[14.89547,37.06883]]},"properties":{}},{"type":"Feature","geometry":{"type":"LineString","coordinates":[[14.89882,37.06899],[14.89775,37.06841],[14.8974,37.06835]]},"properties":{}},{"type":"Feature","geometry":{"type":"LineString","coordinates":[[14.89547,37.06883],[14.8953,37.06888]]},"properties":{}},{"type":"Feature","geometry":{"type":"LineString","coordinates":[[14.90862,37.07214],[14.9076,37.07188],[14.90718,37.07171],[14.90686,37.0715],[14.9053,37.07102],[14.905,37.07096],[14.90422,37.07089],[14.90378,37.07076],[14.90343,37.07058],[14.90323,37.07044],[14.9028,37.07003],[14.90226,37.06961],[14.90189,37.06943],[14.89956,37.06925],[14.89906,37.06912],[14.89882,37.06899]]},"properties":{}},{"type":"Feature","geometry":{"type":"LineString","coordinates":[[14.90932,37.07239],[14.90909,37.07227],[14.90862,37.07214]]},"properties":{}},{"type":"Feature","geometry":{"type":"LineString","coordinates":[[14.93472,37.07699],[14.9344,37.07704],[14.93415,37.07716],[14.93328,37.07782],[14.93288,37.07801],[14.93253,37.0781],[14.93206,37.07805],[14.93117,37.07771],[14.93062,37.07756],[14.92831,37.0772],[14.92657,37.07688],[14.92549,37.0769],[14.92466,37.07712],[14.924,37.07726],[14.92346,37.07732],[14.92285,37.07728],[14.9222,37.07714],[14.92182,37.077],[14.92143,37.07682],[14.9209,37.0765],[14.9205,37.07634],[14.91854,37.07626],[14.91819,37.07621],[14.91756,37.07606],[14.91595,37.07548],[14.91418,37.07461],[14.91297,37.07427],[14.91098,37.07342],[14.91076,37.07329],[14.91046,37.07305],[14.90932,37.07239]]},"properties":{}},{"type":"Feature","geometry":{"type":"LineString","coordinates":[[14.93504,37.077],[14.93472,37.07699]]},"properties":{}},{"type":"Feature","geometry":{"type":"LineString","coordinates":[[14.94289,37.07907],[14.94265,37.0791],[14.94231,37.07923],[14.94117,37.08023],[14.94091,37.08033],[14.94048,37.08037],[14.93922,37.08013],[14.93904,37.08006],[14.93881,37.07991],[14.93856,37.07963],[14.9385,37.07944],[14.93854,37.07866],[14.93844,37.07834],[14.9382,37.0781],[14.93777,37.0779],[14.93706,37.07775],[14.93567,37.0772],[14.93504,37.077]]},"properties":{}},{"type":"Feature","geometry":{"type":"LineString","coordinates":[[14.94308,37.07907],[14.94289,37.07907]]},"properties":{}},{"type":"Feature","geometry":{"type":"LineString","coordinates":[[14.94429,37.08005],[14.94376,37.07934],[14.94352,37.07917],[14.94308,37.07907]]},"properties":{}},{"type":"Feature","geometry":{"type":"LineString","coordinates":[[14.9444,37.08019],[14.94429,37.08005]]},"properties":{}},{"type":"Feature","geometry":{"type":"LineString","coordinates":[[14.94731,37.08118],[14.94485,37.08057],[14.94458,37.08038],[14.9444,37.08019]]},"properties":{}},{"type":"Feature","geometry":{"type":"LineString","coordinates":[[14.94745,37.08123],[14.94731,37.08118]]},"properties":{}},{"type":"Feature","geometry":{"type":"LineString","coordinates":[[14.94826,37.08415],[14.94852,37.08326],[14.94842,37.0825],[14.94834,37.08231],[14.94791,37.0816],[14.94773,37.08141],[14.94745,37.08123]]},"properties":{}},{"type":"Feature","geometry":{"type":"LineString","coordinates":[[14.94828,37.08478],[14.94821,37.08448],[14.94826,37.08415]]},"properties":{}},{"type":"Feature","geometry":{"type":"LineString","coordinates":[[14.94834,37.08495],[14.94828,37.08478]]},"properties":{}},{"type":"Feature","geometry":{"type":"LineString","coordinates":[[14.9483,37.08516],[14.94834,37.08495]]},"properties":{}},{"type":"Feature","geometry":{"type":"LineString","coordinates":[[14.94735,37.08646],[14.94747,37.08622],[14.94825,37.08527],[14.9483,37.08516]]},"properties":{}},{"type":"Feature","geometry":{"type":"LineString","coordinates":[[14.94734,37.08677],[14.94735,37.08646]]},"properties":{}},{"type":"Feature","geometry":{"type":"LineString","coordinates":[[14.94755,37.08721],[14.94741,37.087],[14.94734,37.08677]]},"properties":{}},{"type":"Feature","geometry":{"type":"LineString","coordinates":[[14.94758,37.08726],[14.94755,37.08721]]},"properties":{}},{"type":"Feature","geometry":{"type":"LineString","coordinates":[[14.94585,37.09508],[14.94591,37.09492],[14.94613,37.09454],[14.94647,37.09421],[14.94693,37.0939],[14.94854,37.09319],[14.94879,37.09298],[14.94892,37.09277],[14.94895,37.09265],[14.94897,37.09235],[14.94888,37.09204],[14.94858,37.09133],[14.94804,37.09025],[14.94762,37.08911],[14.94763,37.08885],[14.94789,37.088],[14.94784,37.08772],[14.94775,37.08751],[14.94758,37.08726]]},"properties":{}},{"type":"Feature","geometry":{"type":"LineString","coordinates":[[14.94582,37.09523],[14.94585,37.09508]]},"properties":{}},{"type":"Feature","geometry":{"type":"LineString","coordinates":[[14.949,37.09746],[14.94863,37.09726],[14.94762,37.0969],[14.94685,37.09656],[14.94662,37.09642],[14.94595,37.09579],[14.94585,37.09554],[14.94582,37.09523]]},"properties":{}},{"type":"Feature","geometry":{"type":"LineString","coordinates":[[14.9491,37.09751],[14.949,37.09746]]},"properties":{}},{"type":"Feature","geometry":{"type":"LineString","coordinates":[[14.95263,37.09937],[14.9491,37.09751]]},"properties":{}},{"type":"Feature","geometry":{"type":"LineString","coordinates":[[14.95284,37.09947],[14.95263,37.09937]]},"properties":{}},{"type":"Feature","geometry":{"type":"LineString","coordinates":[[14.95559,37.10178],[14.95455,37.10048],[14.95424,37.10004],[14.95412,37.09993],[14.95386,37.09972],[14.95368,37.09963],[14.95349,37.09956],[14.95284,37.09947]]},"properties":{}},{"type":"Feature","geometry":{"type":"LineString","coordinates":[[14.96443,37.12621],[14.96542,37.12683],[14.96823,37.1276],[14.96928,37.12771],[14.96966,37.12767],[14.97028,37.1275],[14.97089,37.12728],[14.97117,37.12722],[14.97148,37.12722],[14.97185,37.12735],[14.97242,37.12767],[14.97269,37.1279],[14.97312,37.12803],[14.97377,37.12788],[14.97411,37.12785],[14.97542,37.12808],[14.97592,37.12836],[14.97616,37.12842],[14.97668,37.12837],[14.97724,37.12821],[14.97766,37.12831],[14.97817,37.12856],[14.97855,37.12861],[14.97889,37.12852],[14.97919,37.12839],[14.97961,37.12807],[14.97984,37.12795],[14.98017,37.12789],[14.98045,37.12789],[14.98218,37.12823],[14.98262,37.12824],[14.98331,37.12804],[14.9835,37.12804],[14.98382,37.12816],[14.98402,37.12831],[14.98436,37.12869],[14.98489,37.12917],[14.98558,37.12965],[14.9857,37.1298],[14.98572,37.12998],[14.98568,37.13021],[14.9857,37.13047],[14.98566,37.13099],[14.98573,37.13112],[14.986,37.13128]]},"properties":{}},{"type":"Feature","geometry":{"type":"LineString","coordinates":[[14.986,37.13128],[14.98617,37.13146],[14.98627,37.13178],[14.98639,37.13184],[14.98659,37.13187],[14.98693,37.13174],[14.98706,37.13172],[14.98735,37.13176],[14.9875,37.13183],[14.9883,37.13243],[14.98944,37.13317],[14.98985,37.13348],[14.9901,37.13374],[14.99034,37.1341],[14.99055,37.13414],[14.991,37.13401],[14.99127,37.134],[14.99198,37.13438],[14.99214,37.13449],[14.99229,37.13487]]},"properties":{}},{"type":"Feature","geometry":{"type":"LineString","coordinates":[[14.99229,37.13487],[14.9925,37.13532],[14.99262,37.1355],[14.99305,37.13581],[14.99317,37.13594],[14.99341,37.13635],[14.99351,37.13668],[14.99351,37.13683],[14.99343,37.13709],[14.99349,37.13728],[14.99366,37.13744],[14.99397,37.1376],[14.99427,37.13785],[14.99497,37.13806],[14.99577,37.13837],[14.99698,37.13862],[14.99829,37.13874],[15.0,37.13882]]},"properties":{}},{"type":"Feature","geometry":{"type":"LineString","coordinates":[[14.85875,37.21894],[14.85875,37.21884],[14.85883,37.21875]]},"properties":{}},{"type":"Feature","geometry":{"type":"LineString","coordinates":[[14.85883,37.21875],[14.85895,37.21883],[14.859,37.21895]]},"properties":{}},{"type":"Feature","geometry":{"type":"LineString","coordinates":[[14.75448,37.18541],[14.75462,37.1854]]},"properties":{}},{"type":"Feature","geometry":{"type":"LineString","coordinates":[[14.75462,37.1854],[14.75472,37.18544],[14.75476,37.1855]]},"properties":{}},{"type":"Feature","geometry":{"type":"LineString","coordinates":[[14.75475,37.18542],[14.75476,37.1855]]},"properties":{}},{"type":"Feature","geometry":{"type":"LineString","coordinates":[[14.75435,37.18565],[14.75434,37.18554],[14.75448,37.18541]]},"properties":{}},{"type":"Feature","geometry":{"type":"LineString","coordinates":[[14.75476,37.1855],[14.75478,37.18562],[14.75475,37.18568],[14.75463,37.18576]]},"properties":{}},{"type":"Feature","geometry":{"type":"LineString","coordinates":[[14.85904,37.21917],[14.85875,37.21894],[14.85839,37.21872]]},"properties":{}},{"type":"Feature","geometry":{"type":"LineString","coordinates":[[14.8593,37.21878],[14.85911,37.21885],[14.859,37.21895],[14.85904,37.21917]]},"properties":{}},{"type":"Feature","geometry":{"type":"LineString","coordinates":[[14.89747,37.23432],[14.89749,37.2345],[14.8976,37.23454],[14.89772,37.23454]]},"properties":{}},{"type":"Feature","geometry":{"type":"LineString","coordinates":[[14.89749,37.2345],[14.89757,37.23467]]},"properties":{}},{"type":"Feature","geometry":{"type":"LineString","coordinates":[[14.89757,37.23467],[14.89746,37.23463],[14.89741,37.23456]]},"properties":{}},{"type":"Feature","geometry":{"type":"LineString","coordinates":[[14.89723,37.23498],[14.89741,37.23456],[14.89747,37.23432]]},"properties":{}},{"type":"Feature","geometry":{"type":"LineString","coordinates":[[14.89771,37.23471],[14.89734,37.23487]]},"properties":{}},{"type":"Feature","geometry":{"type":"LineString","coordinates":[[14.89718,37.24191],[14.89732,37.242],[14.89755,37.24201]]},"properties":{}},{"type":"Feature","geometry":{"type":"LineString","coordinates":[[14.89755,37.24201],[14.89743,37.24211],[14.89737,37.24226]]},"properties":{}},{"type":"Feature","geometry":{"type":"LineString","coordinates":[[14.89747,37.24292],[14.89749,37.24245]]},"properties":{}},{"type":"Feature","geometry":{"type":"LineString","coordinates":[[14.75435,37.18575],[14.75435,37.18565]]},"properties":{}},{"type":"Feature","geometry":{"type":"LineString","coordinates":[[14.75455,37.18577],[14.75445,37.18574],[14.75435,37.18565]]},"properties":{}},{"type":"Feature","geometry":{"type":"LineString","coordinates":[[14.75463,37.18576],[14.75455,37.18577]]},"properties":{}},{"type":"Feature","geometry":{"type":"LineString","coordinates":[[14.75455,37.18577],[14.75441,37.18578]]},"properties":{}}]}