{"type":"FeatureCollection","features":[{"type":"Feature","geometry":{"type":"LineString","coordinates":[[15.00822,36.72026],[15.00716,36.71767],[15.00711,36.71737],[15.00716,36.71717],[15.00883,36.71433],[15.00899,36.71408],[15.00921,36.71389],[15.00949,36.71378],[15.00984,36.71374],[15.01759,36.71489],[15.01779,36.71491],[15.01817,36.71482]]},"properties":{}},{"type":"Feature","geometry":{"type":"LineString","coordinates":[[15.00961,36.7237],[15.00921,36.72266],[15.00822,36.72026]]},"properties":{}},{"type":"Feature","geometry":{"type":"LineString","coordinates":[[15.11667,36.74376],[15.11739,36.74225],[15.11757,36.74205]]},"properties":{}}]}