{"type":"FeatureCollection","features":[{"type":"Feature","geometry":{"type":"LineString","coordinates":[[15.20415,37.25],[15.20418,37.25001]]},"properties":{}},{"type":"Feature","geometry":{"type":"LineString","coordinates":[[15.20379,37.25039],[15.20327,37.25]]},"properties":{}},{"type":"Feature","geometry":{"type":"LineString","coordinates":[[15.22209,37.25],[15.22209,37.25]]},"properties":{}},{"type":"Feature","geometry":{"type":"LineString","coordinates":[[15.22154,37.25004],[15.22127,37.25]]},"properties":{}},{"type":"Feature","geometry":{"type":"LineString","coordinates":[[15.21803,37.25],[15.21797,37.25006]]},"properties":{}},{"type":"Feature","geometry":{"type":"LineString","coordinates":[[15.21546,37.25],[15.2156,37.25002]]},"properties":{}},{"type":"Feature","geometry":{"type":"LineString","coordinates":[[15.22154,37.25004],[15.22151,37.25]]},"properties":{}},{"type":"Feature","geometry":{"type":"LineString","coordinates":[[15.22245,37.25],[15.2224,37.25]]},"properties":{}},{"type":"Feature","geometry":{"type":"LineString","coordinates":[[15.2221,37.25],[15.22209,37.25]]},"properties":{}},{"type":"Feature","geometry":{"type":"LineString","coordinates":[[15.2176,37.25005],[15.21761,37.25]]},"properties":{}},{"type":"Feature","geometry":{"type":"LineString","coordinates":[[15.21796,37.25],[15.21797,37.25006]]},"properties":{}},{"type":"Feature","geometry":{"type":"LineString","coordinates":[[15.21638,37.25009],[15.2172,37.25]]},"properties":{}},{"type":"Feature","geometry":{"type":"LineString","coordinates":[[15.22209,37.25],[15.22192,37.25006]]},"properties":{}},{"type":"Feature","geometry":{"type":"LineString","coordinates":[[15.2156,37.25002],[15.21638,37.25009]]},"properties":{}},{"type":"Feature","geometry":{"type":"LineString","coordinates":[[15.22163,37.25008],[15.22154,37.25004]]},"properties":{}},{"type":"Feature","geometry":{"type":"LineString","coordinates":[[15.22192,37.25006],[15.22163,37.25008]]},"properties":{}},{"type":"Feature","geometry":{"type":"LineString","coordinates":[[15.20449,37.25014],[15.20462,37.25014],[15.20481,37.25004]]},"properties":{}},{"type":"Feature","geometry":{"type":"LineString","coordinates":[[15.21779,37.25019],[15.21768,37.25016],[15.2176,37.25005]]},"properties":{}},{"type":"Feature","geometry":{"type":"LineString","coordinates":[[15.21797,37.25006],[15.21791,37.25015],[15.21779,37.25019]]},"properties":{}},{"type":"Feature","geometry":{"type":"LineString","coordinates":[[15.2156,37.25002],[15.21573,37.25008],[15.21578,37.25015],[15.21577,37.25024]]},"properties":{}},{"type":"Feature","geometry":{"type":"LineString","coordinates":[[15.21744,37.25023],[15.21744,37.25012],[15.21737,37.25007]]},"properties":{}},{"type":"Feature","geometry":{"type":"LineString","coordinates":[[15.20379,37.25039],[15.20368,37.25026],[15.20364,37.25013],[15.20365,37.25008],[15.20374,37.25]]},"properties":{}},{"type":"Feature","geometry":{"type":"LineString","coordinates":[[15.20412,37.25],[15.20418,37.25001]]},"properties":{}},{"type":"Feature","geometry":{"type":"LineString","coordinates":[[15.20481,37.25004],[15.2048,37.25019],[15.20489,37.25031]]},"properties":{}},{"type":"Feature","geometry":{"type":"LineString","coordinates":[[15.22192,37.25006],[15.22185,37.25019],[15.22193,37.25031]]},"properties":{}},{"type":"Feature","geometry":{"type":"LineString","coordinates":[[15.22193,37.25031],[15.22163,37.25008]]},"properties":{}},{"type":"Feature","geometry":{"type":"LineString","coordinates":[[15.21731,37.25037],[15.2176,37.25005]]},"properties":{}},{"type":"Feature","geometry":{"type":"LineString","coordinates":[[15.21779,37.25019],[15.21758,37.25022],[15.21731,37.25037]]},"properties":{}},{"type":"Feature","geometry":{"type":"LineString","coordinates":[[15.20418,37.25001],[15.2057,37.25064]]},"properties":{}},{"type":"Feature","geometry":{"type":"LineString","coordinates":[[15.21764,37.25013],[15.21748,37.25007],[15.2173,37.25007],[15.21674,37.25012],[15.20945,37.25099],[15.20834,37.25109]]},"properties":{}},{"type":"Feature","geometry":{"type":"LineString","coordinates":[[15.20727,37.25107],[15.20766,37.25108],[15.20888,37.25096],[15.21245,37.25053],[15.21267,37.25046],[15.21293,37.25033]]},"properties":{}},{"type":"Feature","geometry":{"type":"LineString","coordinates":[[15.20834,37.25109],[15.20676,37.25122],[15.20587,37.25116],[15.2048,37.25088],[15.20429,37.25066],[15.20379,37.25039]]},"properties":{}},{"type":"Feature","geometry":{"type":"LineString","coordinates":[[15.20435,37.25102],[15.2044,37.25083],[15.20429,37.25066]]},"properties":{}},{"type":"Feature","geometry":{"type":"LineString","coordinates":[[15.2057,37.25064],[15.20664,37.25097],[15.20727,37.25107]]},"properties":{}},{"type":"Feature","geometry":{"type":"LineString","coordinates":[[15.2057,37.25064],[15.20592,37.2508],[15.20595,37.25085],[15.20593,37.25097],[15.20579,37.25108],[15.20544,37.25107]]},"properties":{}},{"type":"Feature","geometry":{"type":"LineString","coordinates":[[15.2048,37.25088],[15.20452,37.25089],[15.20435,37.25102]]},"properties":{}},{"type":"Feature","geometry":{"type":"LineString","coordinates":[[15.20834,37.25109],[15.20779,37.25122],[15.20615,37.25134],[15.20548,37.25142]]},"properties":{}},{"type":"Feature","geometry":{"type":"LineString","coordinates":[[15.20407,37.25131],[15.20403,37.25142],[15.20408,37.25152],[15.20425,37.25157]]},"properties":{}},{"type":"Feature","geometry":{"type":"LineString","coordinates":[[15.20381,37.25151],[15.20408,37.25152]]},"properties":{}},{"type":"Feature","geometry":{"type":"LineString","coordinates":[[15.20384,37.25162],[15.20379,37.25158],[15.20381,37.25151]]},"properties":{}},{"type":"Feature","geometry":{"type":"LineString","coordinates":[[15.20425,37.25157],[15.20343,37.25166]]},"properties":{}},{"type":"Feature","geometry":{"type":"LineString","coordinates":[[15.21776,37.2633],[15.21796,37.26295],[15.21823,37.26269],[15.21879,37.2624],[15.21944,37.26214]]},"properties":{}},{"type":"Feature","geometry":{"type":"LineString","coordinates":[[15.21944,37.26214],[15.21899,37.26237],[15.21776,37.2633]]},"properties":{}},{"type":"Feature","geometry":{"type":"LineString","coordinates":[[15.19917,37.26663],[15.19931,37.2668]]},"properties":{}},{"type":"Feature","geometry":{"type":"LineString","coordinates":[[15.19923,37.26685],[15.19917,37.26672],[15.19917,37.26663]]},"properties":{}},{"type":"Feature","geometry":{"type":"LineString","coordinates":[[15.1995,37.26648],[15.19935,37.26667],[15.19931,37.2668],[15.19934,37.26701]]},"properties":{}},{"type":"Feature","geometry":{"type":"LineString","coordinates":[[15.19934,37.26701],[15.19923,37.26685],[15.19913,37.26679],[15.19887,37.26674]]},"properties":{}},{"type":"Feature","geometry":{"type":"LineString","coordinates":[[15.18663,37.27228],[15.18672,37.27219],[15.18674,37.27205]]},"properties":{}},{"type":"Feature","geometry":{"type":"LineString","coordinates":[[15.18674,37.27205],[15.18682,37.27229]]},"properties":{}},{"type":"Feature","geometry":{"type":"LineString","coordinates":[[15.18632,37.2724],[15.18643,37.27239],[15.18654,37.27234]]},"properties":{}},{"type":"Feature","geometry":{"type":"LineString","coordinates":[[15.1869,37.27237],[15.18697,37.27242],[15.18718,37.27246]]},"properties":{}},{"type":"Feature","geometry":{"type":"LineString","coordinates":[[15.18669,37.27257],[15.18659,37.27254],[15.18653,37.27247],[15.18652,37.27238],[15.18658,37.2723],[15.18676,37.27227],[15.18687,37.27232],[15.1869,37.27237]]},"properties":{}},{"type":"Feature","geometry":{"type":"LineString","coordinates":[[15.18653,37.27247],[15.18632,37.2724]]},"properties":{}},{"type":"Feature","geometry":{"type":"LineString","coordinates":[[15.1869,37.27237],[15.18688,37.2725]]},"properties":{}},{"type":"Feature","geometry":{"type":"LineString","coordinates":[[15.18718,37.27246],[15.18688,37.2725]]},"properties":{}},{"type":"Feature","geometry":{"type":"LineString","coordinates":[[15.18688,37.2725],[15.18686,37.27252]]},"properties":{}},{"type":"Feature","geometry":{"type":"LineString","coordinates":[[15.18686,37.27252],[15.18669,37.27257]]},"properties":{}},{"type":"Feature","geometry":{"type":"LineString","coordinates":[[15.19924,37.27342],[15.19935,37.27328],[15.19941,37.27303]]},"properties":{}},{"type":"Feature","geometry":{"type":"LineString","coordinates":[[15.19941,37.27303],[15.19945,37.27314],[15.19941,37.27333],[15.19943,37.27342]]},"properties":{}},{"type":"Feature","geometry":{"type":"LineString","coordinates":[[15.19944,37.27344],[15.19958,37.27349],[15.19996,37.27353]]},"properties":{}},{"type":"Feature","geometry":{"type":"LineString","coordinates":[[15.19996,37.27353],[15.1994,37.27357]]},"properties":{}},{"type":"Feature","geometry":{"type":"LineString","coordinates":[[15.19891,37.27393],[15.19921,37.27347]]},"properties":{}},{"type":"Feature","geometry":{"type":"LineString","coordinates":[[15.19937,37.27358],[15.19912,37.27372],[15.19891,37.27393]]},"properties":{}},{"type":"Feature","geometry":{"type":"LineString","coordinates":[[15.18941,37.27477],[15.1901,37.2749]]},"properties":{}},{"type":"Feature","geometry":{"type":"LineString","coordinates":[[15.1901,37.2749],[15.18958,37.27489],[15.18936,37.27485]]},"properties":{}},{"type":"Feature","geometry":{"type":"LineString","coordinates":[[15.1981,37.27511],[15.19844,37.27471]]},"properties":{}},{"type":"Feature","geometry":{"type":"LineString","coordinates":[[15.19844,37.27471],[15.19823,37.27515]]},"properties":{}},{"type":"Feature","geometry":{"type":"LineString","coordinates":[[15.19771,37.27537],[15.19807,37.27512]]},"properties":{}},{"type":"Feature","geometry":{"type":"LineString","coordinates":[[15.1981,37.27523],[15.19796,37.27525],[15.19771,37.27537]]},"properties":{}},{"type":"Feature","geometry":{"type":"LineString","coordinates":[[15.21118,37.27704],[15.21124,37.277],[15.21128,37.27703],[15.21125,37.27707],[15.21118,37.27704]]},"properties":{}},{"type":"Feature","geometry":{"type":"LineString","coordinates":[[15.18848,37.28138],[15.1879,37.28128]]},"properties":{}},{"type":"Feature","geometry":{"type":"LineString","coordinates":[[15.18757,37.28256],[15.18818,37.28025],[15.1885,37.28025]]},"properties":{}},{"type":"Feature","geometry":{"type":"LineString","coordinates":[[15.18847,37.28182],[15.18845,37.28216],[15.18814,37.28353],[15.18797,37.28393],[15.18771,37.28435]]},"properties":{}},{"type":"Feature","geometry":{"type":"LineString","coordinates":[[15.18673,37.2849],[15.18707,37.28414],[15.18735,37.28336],[15.18757,37.28256]]},"properties":{}},{"type":"Feature","geometry":{"type":"LineString","coordinates":[[15.18771,37.28435],[15.18732,37.28507]]},"properties":{}},{"type":"Feature","geometry":{"type":"LineString","coordinates":[[15.1871,37.28504],[15.18673,37.2849]]},"properties":{}},{"type":"Feature","geometry":{"type":"LineString","coordinates":[[15.18732,37.28507],[15.18729,37.28511],[15.1871,37.28504]]},"properties":{}},{"type":"Feature","geometry":{"type":"LineString","coordinates":[[15.0085,37.298],[15.00812,37.29824],[15.0078,37.29833],[15.00707,37.29846],[15.00694,37.29853],[15.00605,37.29951],[15.00482,37.3007]]},"properties":{}},{"type":"Feature","geometry":{"type":"LineString","coordinates":[[15.05557,37.44249],[15.05814,37.44249]]},"properties":{}},{"type":"Feature","geometry":{"type":"LineString","coordinates":[[15.06564,37.44254],[15.05819,37.4426],[15.057,37.44256]]},"properties":{}},{"type":"Feature","geometry":{"type":"LineString","coordinates":[[15.05819,37.4426],[15.05536,37.44265]]},"properties":{}},{"type":"Feature","geometry":{"type":"LineString","coordinates":[[15.04493,37.44531],[15.04504,37.44559],[15.04516,37.44571],[15.0453,37.44578]]},"properties":{}},{"type":"Feature","geometry":{"type":"LineString","coordinates":[[15.04482,37.44584],[15.0449,37.4457],[15.04493,37.44553],[15.04493,37.44531]]},"properties":{}},{"type":"Feature","geometry":{"type":"LineString","coordinates":[[15.04482,37.44584],[15.04505,37.44578],[15.0453,37.44578]]},"properties":{}},{"type":"Feature","geometry":{"type":"LineString","coordinates":[[15.0453,37.44578],[15.04551,37.44584],[15.04573,37.44598]]},"properties":{}},{"type":"Feature","geometry":{"type":"LineString","coordinates":[[15.04573,37.44598],[15.04599,37.44607],[15.04647,37.44609]]},"properties":{}},{"type":"Feature","geometry":{"type":"LineString","coordinates":[[15.04647,37.44609],[15.0462,37.44616],[15.04608,37.44623],[15.04597,37.44634],[15.04592,37.44646]]},"properties":{}},{"type":"Feature","geometry":{"type":"LineString","coordinates":[[15.04573,37.44598],[15.04586,37.44614],[15.04592,37.44632],[15.04591,37.44651],[15.04579,37.44672]]},"properties":{}},{"type":"Feature","geometry":{"type":"LineString","coordinates":[[15.04536,37.44696],[15.04506,37.44697],[15.04478,37.44689],[15.04456,37.44674],[15.04445,37.44657],[15.04441,37.44634],[15.04446,37.44615],[15.04458,37.44599],[15.04482,37.44584]]},"properties":{}},{"type":"Feature","geometry":{"type":"LineString","coordinates":[[15.04579,37.44672],[15.04557,37.44688],[15.04536,37.44696]]},"properties":{}},{"type":"Feature","geometry":{"type":"LineString","coordinates":[[15.04579,37.44672],[15.04576,37.44687],[15.04582,37.44718]]},"properties":{}},{"type":"Feature","geometry":{"type":"LineString","coordinates":[[15.04582,37.44718],[15.0456,37.447],[15.04536,37.44696]]},"properties":{}},{"type":"Feature","geometry":{"type":"LineString","coordinates":[[15.03334,37.45931],[15.03056,37.45699],[15.03036,37.45686],[15.03013,37.45678]]},"properties":{}},{"type":"Feature","geometry":{"type":"LineString","coordinates":[[15.03044,37.45657],[15.03047,37.45671],[15.03063,37.45689],[15.03127,37.45745],[15.03406,37.45978]]},"properties":{}},{"type":"Feature","geometry":{"type":"LineString","coordinates":[[15.03525,37.46076],[15.03441,37.46021],[15.03334,37.45931]]},"properties":{}},{"type":"Feature","geometry":{"type":"LineString","coordinates":[[15.03406,37.45978],[15.03448,37.46015],[15.03492,37.46046],[15.0361,37.46112],[15.04233,37.46392]]},"properties":{}},{"type":"Feature","geometry":{"type":"LineString","coordinates":[[15.04158,37.46367],[15.03606,37.46118],[15.03525,37.46076]]},"properties":{}},{"type":"Feature","geometry":{"type":"LineString","coordinates":[[15.04549,37.46543],[15.04158,37.46367]]},"properties":{}},{"type":"Feature","geometry":{"type":"LineString","coordinates":[[15.04233,37.46392],[15.0455,37.46535]]},"properties":{}},{"type":"Feature","geometry":{"type":"LineString","coordinates":[[15.0455,37.46535],[15.04581,37.46549]]},"properties":{}},{"type":"Feature","geometry":{"type":"LineString","coordinates":[[15.0458,37.46557],[15.04549,37.46543]]},"properties":{}},{"type":"Feature","geometry":{"type":"LineString","coordinates":[[15.04581,37.46549],[15.04731,37.46617]]},"properties":{}},{"type":"Feature","geometry":{"type":"LineString","coordinates":[[15.04731,37.46627],[15.0458,37.46557]]},"properties":{}},{"type":"Feature","geometry":{"type":"LineString","coordinates":[[15.04731,37.46617],[15.0476,37.46631]]},"properties":{}},{"type":"Feature","geometry":{"type":"LineString","coordinates":[[15.04758,37.46639],[15.04731,37.46627]]},"properties":{}},{"type":"Feature","geometry":{"type":"LineString","coordinates":[[15.05156,37.46898],[15.05071,37.46831],[15.04985,37.46769],[15.04865,37.46695],[15.04758,37.46639]]},"properties":{}},{"type":"Feature","geometry":{"type":"LineString","coordinates":[[15.0476,37.46631],[15.04871,37.46689],[15.0499,37.46762],[15.05079,37.46826],[15.05187,37.46911]]},"properties":{}},{"type":"Feature","geometry":{"type":"LineString","coordinates":[[15.06873,37.47094],[15.06873,37.47099]]},"properties":{}},{"type":"Feature","geometry":{"type":"LineString","coordinates":[[15.04225,37.47116],[15.04228,37.47101],[15.04241,37.47091]]},"properties":{}},{"type":"Feature","geometry":{"type":"LineString","coordinates":[[15.06882,37.47106],[15.06889,37.47107]]},"properties":{}},{"type":"Feature","geometry":{"type":"LineString","coordinates":[[15.06883,37.47109],[15.06881,37.47115],[15.06871,37.4712],[15.06859,37.47117],[15.06855,37.4711],[15.0686,37.47101],[15.06867,37.47098],[15.06878,37.47101],[15.06883,37.47109]]},"properties":{}},{"type":"Feature","geometry":{"type":"LineString","coordinates":[[15.06886,37.47104],[15.069,37.47119]]},"properties":{}},{"type":"Feature","geometry":{"type":"LineString","coordinates":[[15.04283,37.47108],[15.04279,37.47123],[15.0427,37.47131]]},"properties":{}},{"type":"Feature","geometry":{"type":"LineString","coordinates":[[15.069,37.47119],[15.07063,37.4726]]},"properties":{}},{"type":"Feature","geometry":{"type":"LineString","coordinates":[[15.06603,37.4723],[15.06594,37.47231]]},"properties":{}},{"type":"Feature","geometry":{"type":"LineString","coordinates":[[15.05986,37.47576],[15.05917,37.47509],[15.05856,37.47456],[15.05156,37.46898]]},"properties":{}},{"type":"Feature","geometry":{"type":"LineString","coordinates":[[15.06604,37.47276],[15.06603,37.4724]]},"properties":{}},{"type":"Feature","geometry":{"type":"LineString","coordinates":[[15.06598,37.47252],[15.06598,37.47268]]},"properties":{}},{"type":"Feature","geometry":{"type":"LineString","coordinates":[[15.07063,37.4726],[15.0707,37.47265]]},"properties":{}},{"type":"Feature","geometry":{"type":"LineString","coordinates":[[15.05187,37.46911],[15.05863,37.47451],[15.05975,37.47552],[15.06034,37.47614]]},"properties":{}},{"type":"Feature","geometry":{"type":"LineString","coordinates":[[15.07044,37.47272],[15.07048,37.47262],[15.07063,37.4726]]},"properties":{}},{"type":"Feature","geometry":{"type":"LineString","coordinates":[[15.0707,37.47265],[15.07072,37.47273],[15.07064,37.47281],[15.07051,37.47281],[15.07044,37.47272]]},"properties":{}},{"type":"Feature","geometry":{"type":"LineString","coordinates":[[15.04739,37.4727],[15.04759,37.47263],[15.04775,37.47266],[15.04788,37.47275],[15.04792,37.47291]]},"properties":{}},{"type":"Feature","geometry":{"type":"LineString","coordinates":[[15.06598,37.47268],[15.06597,37.4731]]},"properties":{}},{"type":"Feature","geometry":{"type":"LineString","coordinates":[[15.04775,37.4731],[15.04753,37.47313],[15.04734,37.47302],[15.04729,37.47287],[15.04731,37.47279],[15.04739,37.4727]]},"properties":{}},{"type":"Feature","geometry":{"type":"LineString","coordinates":[[15.04792,37.47291],[15.04791,37.47294]]},"properties":{}},{"type":"Feature","geometry":{"type":"LineString","coordinates":[[15.04791,37.47294],[15.04784,37.47305],[15.04775,37.4731]]},"properties":{}},{"type":"Feature","geometry":{"type":"LineString","coordinates":[[15.04791,37.47294],[15.048,37.47306],[15.04818,37.47315]]},"properties":{}},{"type":"Feature","geometry":{"type":"LineString","coordinates":[[15.04818,37.47315],[15.04794,37.4731],[15.04775,37.4731]]},"properties":{}},{"type":"Feature","geometry":{"type":"LineString","coordinates":[[15.06597,37.4731],[15.06597,37.47324]]},"properties":{}},{"type":"Feature","geometry":{"type":"LineString","coordinates":[[15.06605,37.47363],[15.06604,37.47276]]},"properties":{}},{"type":"Feature","geometry":{"type":"LineString","coordinates":[[15.06597,37.47324],[15.06597,37.47358],[15.06592,37.47367],[15.06576,37.47382],[15.06563,37.47383]]},"properties":{}},{"type":"Feature","geometry":{"type":"LineString","coordinates":[[15.066,37.47372],[15.06605,37.47363]]},"properties":{}},{"type":"Feature","geometry":{"type":"LineString","coordinates":[[15.06605,37.47363],[15.06615,37.47373]]},"properties":{}},{"type":"Feature","geometry":{"type":"LineString","coordinates":[[15.066,37.47372],[15.06615,37.47373],[15.06624,37.47381]]},"properties":{}},{"type":"Feature","geometry":{"type":"LineString","coordinates":[[15.06585,37.47382],[15.06589,37.47377],[15.066,37.47372]]},"properties":{}},{"type":"Feature","geometry":{"type":"LineString","coordinates":[[15.06587,37.47396],[15.06585,37.47382]]},"properties":{}},{"type":"Feature","geometry":{"type":"LineString","coordinates":[[15.07221,37.474],[15.07233,37.47395]]},"properties":{}},{"type":"Feature","geometry":{"type":"LineString","coordinates":[[15.07233,37.47395],[15.07246,37.474]]},"properties":{}},{"type":"Feature","geometry":{"type":"LineString","coordinates":[[15.06623,37.47396],[15.06614,37.47403]]},"properties":{}},{"type":"Feature","geometry":{"type":"LineString","coordinates":[[15.06599,37.47404],[15.06587,37.47396]]},"properties":{}},{"type":"Feature","geometry":{"type":"LineString","coordinates":[[15.07221,37.47401],[15.07221,37.474]]},"properties":{}},{"type":"Feature","geometry":{"type":"LineString","coordinates":[[15.07225,37.4741],[15.07221,37.47401]]},"properties":{}},{"type":"Feature","geometry":{"type":"LineString","coordinates":[[15.07246,37.474],[15.07245,37.47406],[15.0724,37.4741]]},"properties":{}},{"type":"Feature","geometry":{"type":"LineString","coordinates":[[15.0724,37.4741],[15.07225,37.4741]]},"properties":{}},{"type":"Feature","geometry":{"type":"LineString","coordinates":[[15.06034,37.47614],[15.06164,37.47725]]},"properties":{}},{"type":"Feature","geometry":{"type":"LineString","coordinates":[[15.05613,37.47702],[15.05627,37.47691],[15.05632,37.47682],[15.05631,37.47674],[15.05624,37.47663]]},"properties":{}},{"type":"Feature","geometry":{"type":"LineString","coordinates":[[15.05613,37.47702],[15.05659,37.47678]]},"properties":{}},{"type":"Feature","geometry":{"type":"LineString","coordinates":[[15.05659,37.47678],[15.05659,37.47686],[15.05623,37.47709]]},"properties":{}},{"type":"Feature","geometry":{"type":"LineString","coordinates":[[15.05706,37.47699],[15.05678,37.47694],[15.05659,37.47695],[15.05623,37.47709]]},"properties":{}},{"type":"Feature","geometry":{"type":"LineString","coordinates":[[15.06034,37.47614],[15.06184,37.4779]]},"properties":{}},{"type":"Feature","geometry":{"type":"LineString","coordinates":[[15.06125,37.47773],[15.06108,37.47741],[15.06065,37.47677],[15.06052,37.47662]]},"properties":{}},{"type":"Feature","geometry":{"type":"LineString","coordinates":[[15.06265,37.47877],[15.06238,37.47856],[15.06186,37.47805],[15.06087,37.47687],[15.05986,37.47576]]},"properties":{}},{"type":"Feature","geometry":{"type":"LineString","coordinates":[[15.05452,37.47793],[15.05478,37.47783],[15.05613,37.47702]]},"properties":{}},{"type":"Feature","geometry":{"type":"LineString","coordinates":[[15.06164,37.47725],[15.06185,37.47738],[15.06214,37.4775],[15.06308,37.47763],[15.06335,37.47777]]},"properties":{}},{"type":"Feature","geometry":{"type":"LineString","coordinates":[[15.05623,37.47709],[15.05486,37.47791],[15.05474,37.47807]]},"properties":{}},{"type":"Feature","geometry":{"type":"LineString","coordinates":[[15.05447,37.47794],[15.05452,37.47793]]},"properties":{}},{"type":"Feature","geometry":{"type":"LineString","coordinates":[[15.05452,37.47793],[15.05468,37.47797],[15.05474,37.47807]]},"properties":{}},{"type":"Feature","geometry":{"type":"LineString","coordinates":[[15.06184,37.4779],[15.06205,37.47813]]},"properties":{}},{"type":"Feature","geometry":{"type":"LineString","coordinates":[[15.05445,37.47819],[15.05437,37.47808],[15.05441,37.47799],[15.05447,37.47794]]},"properties":{}},{"type":"Feature","geometry":{"type":"LineString","coordinates":[[15.05474,37.47807],[15.05474,37.4781]]},"properties":{}},{"type":"Feature","geometry":{"type":"LineString","coordinates":[[15.05474,37.4781],[15.05464,37.4782],[15.05448,37.47821]]},"properties":{}},{"type":"Feature","geometry":{"type":"LineString","coordinates":[[15.05448,37.47821],[15.05445,37.47819]]},"properties":{}},{"type":"Feature","geometry":{"type":"LineString","coordinates":[[15.06205,37.47813],[15.06259,37.47847],[15.06283,37.47854],[15.06296,37.47853],[15.06319,37.47844],[15.06333,37.47827],[15.06335,37.47808],[15.06324,37.47789]]},"properties":{}},{"type":"Feature","geometry":{"type":"LineString","coordinates":[[15.06205,37.47813],[15.06245,37.4785],[15.06273,37.47872]]},"properties":{}},{"type":"Feature","geometry":{"type":"LineString","coordinates":[[15.04981,37.47813],[15.05065,37.47886],[15.05107,37.47889]]},"properties":{}},{"type":"Feature","geometry":{"type":"LineString","coordinates":[[15.06089,37.47938],[15.06163,37.47838],[15.06184,37.47815],[15.06214,37.47792],[15.06247,37.47775],[15.06275,37.47769],[15.06304,37.47771],[15.06329,37.47783]]},"properties":{}},{"type":"Feature","geometry":{"type":"LineString","coordinates":[[15.06089,37.47938],[15.06121,37.47873],[15.0613,37.47847],[15.06134,37.47812],[15.06125,37.47773]]},"properties":{}},{"type":"Feature","geometry":{"type":"LineString","coordinates":[[15.06324,37.47789],[15.06305,37.47779],[15.06279,37.47776],[15.06247,37.47784],[15.06217,37.478],[15.06188,37.47823],[15.06167,37.47848],[15.06101,37.47943]]},"properties":{}},{"type":"Feature","geometry":{"type":"LineString","coordinates":[[15.06273,37.47872],[15.06286,37.47881]]},"properties":{}},{"type":"Feature","geometry":{"type":"LineString","coordinates":[[15.06277,37.47885],[15.06265,37.47877]]},"properties":{}},{"type":"Feature","geometry":{"type":"LineString","coordinates":[[15.06286,37.47881],[15.06344,37.47914],[15.06389,37.47932]]},"properties":{}},{"type":"Feature","geometry":{"type":"LineString","coordinates":[[15.06389,37.4794],[15.06324,37.47913],[15.06277,37.47885]]},"properties":{}},{"type":"Feature","geometry":{"type":"LineString","coordinates":[[15.06226,37.47891],[15.06195,37.47887],[15.06163,37.47892],[15.06127,37.47914],[15.06101,37.47943]]},"properties":{}},{"type":"Feature","geometry":{"type":"LineString","coordinates":[[15.06389,37.4794],[15.06367,37.47936],[15.06273,37.47905]]},"properties":{}},{"type":"Feature","geometry":{"type":"LineString","coordinates":[[15.05116,37.47883],[15.05192,37.47884],[15.053,37.47975],[15.05349,37.47975]]},"properties":{}},{"type":"Feature","geometry":{"type":"LineString","coordinates":[[15.05474,37.4781],[15.05477,37.47822],[15.05485,37.47832],[15.05588,37.4792],[15.05611,37.47935],[15.05655,37.47948],[15.05769,37.47952],[15.05815,37.47962],[15.05849,37.47978],[15.05936,37.48052],[15.05952,37.48058]]},"properties":{}},{"type":"Feature","geometry":{"type":"LineString","coordinates":[[15.05935,37.48071],[15.05924,37.48057],[15.05844,37.47989],[15.05814,37.47973],[15.05768,37.47963],[15.05651,37.47958],[15.0563,37.47953],[15.05599,37.47941],[15.055,37.47859],[15.05448,37.47821]]},"properties":{}},{"type":"Feature","geometry":{"type":"LineString","coordinates":[[15.06389,37.47932],[15.06454,37.4795],[15.06554,37.47963]]},"properties":{}},{"type":"Feature","geometry":{"type":"LineString","coordinates":[[15.0671,37.47977],[15.065,37.47966],[15.06451,37.47958],[15.06389,37.4794]]},"properties":{}},{"type":"Feature","geometry":{"type":"LineString","coordinates":[[15.06312,37.47984],[15.06263,37.47993],[15.06232,37.47987],[15.06215,37.47978],[15.0616,37.47929]]},"properties":{}},{"type":"Feature","geometry":{"type":"LineString","coordinates":[[15.06554,37.47963],[15.06716,37.4797]]},"properties":{}},{"type":"Feature","geometry":{"type":"LineString","coordinates":[[15.04892,37.4798],[15.04891,37.47976],[15.04864,37.47954]]},"properties":{}},{"type":"Feature","geometry":{"type":"LineString","coordinates":[[15.05349,37.47975],[15.05358,37.47975]]},"properties":{}},{"type":"Feature","geometry":{"type":"LineString","coordinates":[[15.06745,37.47971],[15.07198,37.47993],[15.07318,37.47997],[15.07531,37.47998]]},"properties":{}},{"type":"Feature","geometry":{"type":"LineString","coordinates":[[15.05349,37.47975],[15.05384,37.48007]]},"properties":{}},{"type":"Feature","geometry":{"type":"LineString","coordinates":[[15.07586,37.48006],[15.07305,37.48005],[15.0671,37.47977]]},"properties":{}},{"type":"Feature","geometry":{"type":"LineString","coordinates":[[15.07531,37.47998],[15.07715,37.48001]]},"properties":{}},{"type":"Feature","geometry":{"type":"LineString","coordinates":[[15.06312,37.47984],[15.06216,37.48012],[15.06072,37.48022]]},"properties":{}},{"type":"Feature","geometry":{"type":"LineString","coordinates":[[15.07713,37.4801],[15.07586,37.48006]]},"properties":{}},{"type":"Feature","geometry":{"type":"LineString","coordinates":[[15.05957,37.48059],[15.0598,37.48055],[15.05995,37.48047],[15.06041,37.48005],[15.06058,37.47983]]},"properties":{}},{"type":"Feature","geometry":{"type":"LineString","coordinates":[[15.06068,37.47988],[15.06037,37.48025],[15.05989,37.48069]]},"properties":{}},{"type":"Feature","geometry":{"type":"LineString","coordinates":[[15.07715,37.48001],[15.07758,37.48008],[15.07799,37.48025],[15.07836,37.48053],[15.07858,37.48087]]},"properties":{}},{"type":"Feature","geometry":{"type":"LineString","coordinates":[[15.06072,37.48022],[15.06043,37.48033],[15.05989,37.48069]]},"properties":{}},{"type":"Feature","geometry":{"type":"LineString","coordinates":[[15.05333,37.48046],[15.05351,37.48047]]},"properties":{}},{"type":"Feature","geometry":{"type":"LineString","coordinates":[[15.05386,37.48006],[15.05355,37.48029],[15.0535,37.48038],[15.0535,37.48052],[15.05322,37.48077],[15.05311,37.48094],[15.05301,37.48114],[15.0528,37.48173],[15.05257,37.48214],[15.05258,37.48221],[15.05266,37.48235],[15.05287,37.48244],[15.05305,37.48241],[15.05325,37.48226]]},"properties":{}},{"type":"Feature","geometry":{"type":"LineString","coordinates":[[15.06382,37.48298],[15.06405,37.48294],[15.06544,37.48193]]},"properties":{}},{"type":"Feature","geometry":{"type":"LineString","coordinates":[[15.07989,37.48496],[15.07859,37.48112],[15.07844,37.4808],[15.07824,37.48053],[15.07796,37.48032],[15.07755,37.48016],[15.07713,37.4801]]},"properties":{}},{"type":"Feature","geometry":{"type":"LineString","coordinates":[[15.06555,37.482],[15.06409,37.48305],[15.06398,37.48317]]},"properties":{}},{"type":"Feature","geometry":{"type":"LineString","coordinates":[[15.06358,37.48307],[15.06368,37.48299],[15.06382,37.48298]]},"properties":{}},{"type":"Feature","geometry":{"type":"LineString","coordinates":[[15.06119,37.48302],[15.06125,37.48304]]},"properties":{}},{"type":"Feature","geometry":{"type":"LineString","coordinates":[[15.06382,37.48298],[15.06393,37.48304],[15.06398,37.48317]]},"properties":{}},{"type":"Feature","geometry":{"type":"LineString","coordinates":[[15.06097,37.48314],[15.06105,37.48304],[15.06119,37.48302]]},"properties":{}},{"type":"Feature","geometry":{"type":"LineString","coordinates":[[15.06125,37.48304],[15.06159,37.48311],[15.06335,37.48314],[15.06345,37.48313],[15.06358,37.48307]]},"properties":{}},{"type":"Feature","geometry":{"type":"LineString","coordinates":[[15.06125,37.48304],[15.06133,37.48315],[15.06126,37.48326]]},"properties":{}},{"type":"Feature","geometry":{"type":"LineString","coordinates":[[15.06098,37.48319],[15.06097,37.48314]]},"properties":{}},{"type":"Feature","geometry":{"type":"LineString","coordinates":[[15.06364,37.48328],[15.06356,37.48319],[15.06358,37.48307]]},"properties":{}},{"type":"Feature","geometry":{"type":"LineString","coordinates":[[15.06398,37.48317],[15.06396,37.48321]]},"properties":{}},{"type":"Feature","geometry":{"type":"LineString","coordinates":[[15.06118,37.48329],[15.06105,37.48327],[15.06098,37.48319]]},"properties":{}},{"type":"Feature","geometry":{"type":"LineString","coordinates":[[15.06364,37.48328],[15.06336,37.48324],[15.06159,37.48322],[15.06126,37.48326]]},"properties":{}},{"type":"Feature","geometry":{"type":"LineString","coordinates":[[15.06396,37.48321],[15.06385,37.4833],[15.06371,37.48331]]},"properties":{}},{"type":"Feature","geometry":{"type":"LineString","coordinates":[[15.04827,37.4827],[15.04876,37.48272],[15.0491,37.48301],[15.04911,37.48308],[15.049,37.48316],[15.049,37.48319],[15.0495,37.48363],[15.0506,37.48366],[15.05079,37.48383]]},"properties":{}},{"type":"Feature","geometry":{"type":"LineString","coordinates":[[15.06126,37.48326],[15.06118,37.48329]]},"properties":{}},{"type":"Feature","geometry":{"type":"LineString","coordinates":[[15.06371,37.48331],[15.06364,37.48328]]},"properties":{}},{"type":"Feature","geometry":{"type":"LineString","coordinates":[[15.08349,37.47983],[15.08359,37.48127],[15.08365,37.48158],[15.08363,37.48167],[15.08371,37.48223],[15.08371,37.48245],[15.08379,37.4827],[15.08381,37.48287],[15.08378,37.48312],[15.08383,37.48332],[15.08394,37.4843],[15.08393,37.48458],[15.08401,37.48477],[15.08403,37.48505],[15.084,37.48519],[15.08422,37.4868],[15.08417,37.48684]]},"properties":{}},{"type":"Feature","geometry":{"type":"LineString","coordinates":[[15.04157,37.48797],[15.04119,37.48748],[15.041,37.48733],[15.04038,37.48698],[15.04023,37.48693],[15.03987,37.48692],[15.03947,37.48705],[15.0394,37.48703],[15.03938,37.48697],[15.03941,37.48691],[15.03971,37.48674],[15.03989,37.48668],[15.04032,37.48666],[15.04109,37.48674],[15.0412,37.48672],[15.04124,37.48664],[15.04124,37.48629],[15.04129,37.48624],[15.04132,37.48501],[15.04136,37.48497],[15.04137,37.48471],[15.04133,37.48467],[15.04133,37.48445],[15.04271,37.48347],[15.04272,37.48337],[15.04279,37.48337],[15.04294,37.48355],[15.04388,37.48289],[15.04572,37.48293],[15.04647,37.48237],[15.04652,37.48162],[15.04892,37.4798],[15.04947,37.47981],[15.05051,37.47905],[15.05058,37.47903],[15.05087,37.47904],[15.05116,37.47883]]},"properties":{}},{"type":"Feature","geometry":{"type":"LineString","coordinates":[[15.04618,37.48259],[15.04816,37.48264],[15.04827,37.4827],[15.04825,37.48346],[15.04792,37.48372],[15.04791,37.48391],[15.04805,37.48402],[15.048,37.48485]]},"properties":{}},{"type":"Feature","geometry":{"type":"LineString","coordinates":[[15.04208,37.48389],[15.04216,37.48382],[15.04216,37.48356]]},"properties":{}},{"type":"Feature","geometry":{"type":"LineString","coordinates":[[15.07858,37.48087],[15.08024,37.48568],[15.08055,37.48627],[15.08086,37.48667],[15.08127,37.48708]]},"properties":{}},{"type":"Feature","geometry":{"type":"LineString","coordinates":[[15.04291,37.48354],[15.04285,37.48363],[15.04208,37.4842],[15.04206,37.48423],[15.04207,37.48467],[15.04222,37.48475],[15.0427,37.48477],[15.04273,37.48444]]},"properties":{}},{"type":"Feature","geometry":{"type":"LineString","coordinates":[[15.05322,37.48278],[15.05324,37.48285],[15.05347,37.48314],[15.05448,37.48411],[15.0549,37.48458],[15.05582,37.48579],[15.05593,37.48586],[15.05608,37.4859]]},"properties":{}},{"type":"Feature","geometry":{"type":"LineString","coordinates":[[15.04387,37.48446],[15.04257,37.48443]]},"properties":{}},{"type":"Feature","geometry":{"type":"LineString","coordinates":[[15.05615,37.4859],[15.05835,37.48428],[15.05862,37.48413],[15.05894,37.48406],[15.05965,37.48406],[15.05991,37.48399],[15.0608,37.48336],[15.06098,37.48319]]},"properties":{}},{"type":"Feature","geometry":{"type":"LineString","coordinates":[[15.06118,37.48329],[15.06088,37.48344],[15.0602,37.48395],[15.05996,37.48408],[15.05967,37.48417],[15.0588,37.48418],[15.05857,37.48427],[15.05808,37.4846],[15.0562,37.48605]]},"properties":{}},{"type":"Feature","geometry":{"type":"LineString","coordinates":[[15.0427,37.48477],[15.04265,37.48484],[15.04225,37.48483]]},"properties":{}},{"type":"Feature","geometry":{"type":"LineString","coordinates":[[15.05528,37.48654],[15.05529,37.48641],[15.05502,37.48576],[15.05465,37.48519],[15.05433,37.48479],[15.05362,37.48406],[15.05332,37.48381],[15.05313,37.48366],[15.05247,37.48331]]},"properties":{}},{"type":"Feature","geometry":{"type":"LineString","coordinates":[[15.04133,37.48449],[15.04126,37.48453],[15.04125,37.48471],[15.04019,37.4855],[15.04004,37.48541]]},"properties":{}},{"type":"Feature","geometry":{"type":"LineString","coordinates":[[15.08117,37.48712],[15.08078,37.48673],[15.08046,37.48631],[15.08014,37.4857],[15.07989,37.48496]]},"properties":{}},{"type":"Feature","geometry":{"type":"LineString","coordinates":[[15.04129,37.4861],[15.04124,37.48616],[15.04124,37.48629]]},"properties":{}},{"type":"Feature","geometry":{"type":"LineString","coordinates":[[15.07222,37.48679],[15.07156,37.48599],[15.07135,37.48582]]},"properties":{}},{"type":"Feature","geometry":{"type":"LineString","coordinates":[[15.04196,37.48652],[15.04189,37.48677],[15.04176,37.48683],[15.04174,37.48689],[15.04199,37.48713]]},"properties":{}},{"type":"Feature","geometry":{"type":"LineString","coordinates":[[15.04488,37.48718],[15.04469,37.48702],[15.04441,37.48699]]},"properties":{}},{"type":"Feature","geometry":{"type":"LineString","coordinates":[[15.04229,37.48719],[15.04241,37.48724]]},"properties":{}},{"type":"Feature","geometry":{"type":"LineString","coordinates":[[15.04491,37.48727],[15.04488,37.48718]]},"properties":{}},{"type":"Feature","geometry":{"type":"LineString","coordinates":[[15.04488,37.48718],[15.04497,37.48728]]},"properties":{}},{"type":"Feature","geometry":{"type":"LineString","coordinates":[[15.04241,37.48724],[15.04235,37.48727]]},"properties":{}},{"type":"Feature","geometry":{"type":"LineString","coordinates":[[15.04492,37.48735],[15.0449,37.48728],[15.04498,37.48728],[15.04498,37.48733],[15.04492,37.48735]]},"properties":{}},{"type":"Feature","geometry":{"type":"LineString","coordinates":[[15.04478,37.48736],[15.04458,37.48738],[15.04272,37.48731],[15.04241,37.48724]]},"properties":{}},{"type":"Feature","geometry":{"type":"LineString","coordinates":[[15.04478,37.48736],[15.04489,37.4873]]},"properties":{}},{"type":"Feature","geometry":{"type":"LineString","coordinates":[[15.04492,37.48735],[15.04478,37.48736]]},"properties":{}},{"type":"Feature","geometry":{"type":"LineString","coordinates":[[15.04499,37.4873],[15.04509,37.48744]]},"properties":{}},{"type":"Feature","geometry":{"type":"LineString","coordinates":[[15.04199,37.48752],[15.04192,37.48739],[15.04192,37.48718],[15.04199,37.48713],[15.04212,37.48711],[15.0422,37.48713],[15.04233,37.48723],[15.04242,37.48741],[15.0424,37.48761],[15.04229,37.48767],[15.04221,37.48767],[15.04199,37.48752]]},"properties":{}},{"type":"Feature","geometry":{"type":"LineString","coordinates":[[15.04509,37.48744],[15.04494,37.48735]]},"properties":{}},{"type":"Feature","geometry":{"type":"LineString","coordinates":[[15.05615,37.48611],[15.05614,37.48623],[15.05626,37.48649],[15.05663,37.48755],[15.05742,37.48928]]},"properties":{}},{"type":"Feature","geometry":{"type":"LineString","coordinates":[[15.08153,37.4873],[15.08183,37.48751],[15.08276,37.48803],[15.08303,37.48816],[15.08321,37.48819]]},"properties":{}},{"type":"Feature","geometry":{"type":"LineString","coordinates":[[15.04157,37.48797],[15.04176,37.48801],[15.04204,37.48792],[15.0422,37.48777],[15.04221,37.48773],[15.04215,37.48764]]},"properties":{}},{"type":"Feature","geometry":{"type":"LineString","coordinates":[[15.0424,37.48761],[15.04233,37.4878],[15.0422,37.48793],[15.04204,37.48803],[15.0418,37.48809],[15.04157,37.48797]]},"properties":{}},{"type":"Feature","geometry":{"type":"LineString","coordinates":[[15.05121,37.48852],[15.05127,37.48796],[15.0507,37.48771],[15.05064,37.48772],[15.05052,37.48781],[15.05041,37.48783],[15.04858,37.48777],[15.04833,37.48779],[15.04782,37.48795],[15.04756,37.4881],[15.04725,37.48836],[15.04715,37.48839],[15.04667,37.48848],[15.04618,37.48848],[15.046,37.48843],[15.04582,37.48831],[15.04509,37.48744]]},"properties":{}},{"type":"Feature","geometry":{"type":"LineString","coordinates":[[15.08417,37.48813],[15.08418,37.48798],[15.08414,37.48794]]},"properties":{}},{"type":"Feature","geometry":{"type":"LineString","coordinates":[[15.08364,37.4882],[15.08504,37.48802]]},"properties":{}},{"type":"Feature","geometry":{"type":"LineString","coordinates":[[15.08416,37.48824],[15.08417,37.48813]]},"properties":{}},{"type":"Feature","geometry":{"type":"LineString","coordinates":[[15.08418,37.48844],[15.08416,37.48824]]},"properties":{}},{"type":"Feature","geometry":{"type":"LineString","coordinates":[[15.08251,37.48865],[15.08254,37.48852],[15.08267,37.48837],[15.08282,37.48831],[15.08329,37.48824]]},"properties":{}},{"type":"Feature","geometry":{"type":"LineString","coordinates":[[15.08564,37.48831],[15.08564,37.48849],[15.08551,37.48862],[15.08499,37.48873]]},"properties":{}},{"type":"Feature","geometry":{"type":"LineString","coordinates":[[15.085,37.48878],[15.08428,37.48886],[15.08418,37.48844]]},"properties":{}},{"type":"Feature","geometry":{"type":"LineString","coordinates":[[15.08252,37.48868],[15.08251,37.48865]]},"properties":{}},{"type":"Feature","geometry":{"type":"LineString","coordinates":[[15.07218,37.48862],[15.07247,37.48888]]},"properties":{}},{"type":"Feature","geometry":{"type":"LineString","coordinates":[[15.07229,37.48894],[15.07218,37.48862]]},"properties":{}},{"type":"Feature","geometry":{"type":"LineString","coordinates":[[15.08499,37.48873],[15.08393,37.48885]]},"properties":{}},{"type":"Feature","geometry":{"type":"LineString","coordinates":[[15.08325,37.48893],[15.08289,37.48896],[15.08274,37.48893],[15.08263,37.48886],[15.08252,37.48868]]},"properties":{}},{"type":"Feature","geometry":{"type":"LineString","coordinates":[[15.08393,37.48885],[15.08325,37.48893]]},"properties":{}},{"type":"Feature","geometry":{"type":"LineString","coordinates":[[15.07229,37.48894],[15.07236,37.48888],[15.07247,37.48888]]},"properties":{}},{"type":"Feature","geometry":{"type":"LineString","coordinates":[[15.07537,37.48985],[15.07433,37.48897],[15.07412,37.48871],[15.07402,37.48852],[15.0739,37.48815]]},"properties":{}},{"type":"Feature","geometry":{"type":"LineString","coordinates":[[15.08567,37.4894],[15.08566,37.48932],[15.0853,37.48888],[15.0851,37.48879],[15.085,37.48878]]},"properties":{}},{"type":"Feature","geometry":{"type":"LineString","coordinates":[[15.08474,37.48943],[15.0847,37.48927],[15.08461,37.48916],[15.08417,37.48892],[15.08393,37.48885]]},"properties":{}},{"type":"Feature","geometry":{"type":"LineString","coordinates":[[15.08618,37.48914],[15.08597,37.48921],[15.08585,37.48922],[15.08556,37.48909]]},"properties":{}},{"type":"Feature","geometry":{"type":"LineString","coordinates":[[15.08575,37.48945],[15.08567,37.4894]]},"properties":{}},{"type":"Feature","geometry":{"type":"LineString","coordinates":[[15.08325,37.48893],[15.08284,37.48902],[15.07587,37.48989],[15.07576,37.48991],[15.07564,37.49]]},"properties":{}},{"type":"Feature","geometry":{"type":"LineString","coordinates":[[15.086,37.48958],[15.08597,37.48959],[15.08575,37.48945]]},"properties":{}},{"type":"Feature","geometry":{"type":"LineString","coordinates":[[15.0862,37.48885],[15.08643,37.48899],[15.08671,37.48909],[15.08908,37.49048],[15.08925,37.49061],[15.08967,37.49106]]},"properties":{}},{"type":"Feature","geometry":{"type":"LineString","coordinates":[[15.07247,37.48888],[15.07262,37.4891],[15.0729,37.49001],[15.0732,37.49113]]},"properties":{}},{"type":"Feature","geometry":{"type":"LineString","coordinates":[[15.07302,37.49116],[15.07281,37.49044],[15.07229,37.48894]]},"properties":{}},{"type":"Feature","geometry":{"type":"LineString","coordinates":[[15.08958,37.4911],[15.08933,37.49075],[15.08906,37.49051],[15.08748,37.48958],[15.08658,37.48909],[15.08638,37.48907],[15.08618,37.48914]]},"properties":{}},{"type":"Feature","geometry":{"type":"LineString","coordinates":[[15.0752,37.49242],[15.07576,37.49212],[15.07585,37.49203],[15.07589,37.49193],[15.07544,37.49003],[15.07547,37.48992],[15.07557,37.48985],[15.07576,37.4898],[15.08219,37.48899],[15.08233,37.48897],[15.0824,37.48892],[15.08252,37.48868]]},"properties":{}},{"type":"Feature","geometry":{"type":"LineString","coordinates":[[15.08969,37.49253],[15.08945,37.49149],[15.08927,37.49117],[15.0889,37.49078],[15.08852,37.49055],[15.08827,37.49045],[15.08629,37.48971],[15.08605,37.48957],[15.08576,37.48934],[15.08535,37.48885],[15.08524,37.48878],[15.08499,37.48873]]},"properties":{}},{"type":"Feature","geometry":{"type":"LineString","coordinates":[[15.08489,37.49282],[15.0847,37.49185],[15.08495,37.49056],[15.08474,37.48943]]},"properties":{}},{"type":"Feature","geometry":{"type":"LineString","coordinates":[[15.07564,37.49],[15.0756,37.49017],[15.07602,37.49198],[15.076,37.49205],[15.07589,37.49217],[15.07526,37.4925]]},"properties":{}},{"type":"Feature","geometry":{"type":"LineString","coordinates":[[15.0732,37.49113],[15.07354,37.49277],[15.07363,37.49345],[15.07354,37.49364],[15.07322,37.49382]]},"properties":{}},{"type":"Feature","geometry":{"type":"LineString","coordinates":[[15.07322,37.49382],[15.07332,37.49295],[15.07322,37.49211],[15.07302,37.49116]]},"properties":{}},{"type":"Feature","geometry":{"type":"LineString","coordinates":[[15.08618,37.48914],[15.08612,37.48925],[15.08612,37.48939],[15.08617,37.4895],[15.08629,37.48961],[15.08859,37.49048],[15.08897,37.49072],[15.08936,37.49113],[15.08947,37.49131],[15.08959,37.4916],[15.09055,37.4961]]},"properties":{}},{"type":"Feature","geometry":{"type":"LineString","coordinates":[[15.08491,37.49291],[15.08508,37.49294],[15.08517,37.49305]]},"properties":{}},{"type":"Feature","geometry":{"type":"LineString","coordinates":[[15.08474,37.4931],[15.08478,37.49298],[15.08491,37.49291]]},"properties":{}},{"type":"Feature","geometry":{"type":"LineString","coordinates":[[15.08517,37.49305],[15.08512,37.49318],[15.08499,37.49325]]},"properties":{}},{"type":"Feature","geometry":{"type":"LineString","coordinates":[[15.08499,37.49325],[15.08482,37.49321],[15.08474,37.4931]]},"properties":{}},{"type":"Feature","geometry":{"type":"LineString","coordinates":[[15.07237,37.4944],[15.07263,37.49425],[15.073,37.49394],[15.07322,37.49382]]},"properties":{}},{"type":"Feature","geometry":{"type":"LineString","coordinates":[[15.07322,37.49382],[15.07315,37.49446]]},"properties":{}},{"type":"Feature","geometry":{"type":"LineString","coordinates":[[15.09045,37.49612],[15.08969,37.49253]]},"properties":{}},{"type":"Feature","geometry":{"type":"LineString","coordinates":[[15.07315,37.49446],[15.07262,37.49441]]},"properties":{}},{"type":"Feature","geometry":{"type":"LineString","coordinates":[[15.08816,37.5],[15.089,37.49915],[15.08945,37.49848],[15.08961,37.49849],[15.08985,37.49807],[15.09063,37.49691],[15.09064,37.4968],[15.08957,37.49171],[15.08946,37.49138],[15.08931,37.49113],[15.08894,37.49075],[15.08851,37.4905],[15.08645,37.48973],[15.08612,37.48956],[15.086,37.48958]]},"properties":{}},{"type":"Feature","geometry":{"type":"LineString","coordinates":[[15.07068,37.49858],[15.07092,37.4976],[15.07103,37.49694],[15.07117,37.49552],[15.07122,37.49536],[15.0713,37.49518],[15.07155,37.49489],[15.07237,37.4944]]},"properties":{}},{"type":"Feature","geometry":{"type":"LineString","coordinates":[[15.05925,37.49369],[15.05973,37.49431],[15.06039,37.49492],[15.06184,37.49596],[15.06612,37.49889],[15.06658,37.49928],[15.06692,37.49975]]},"properties":{}},{"type":"Feature","geometry":{"type":"LineString","coordinates":[[15.06849,37.49814],[15.06951,37.49834]]},"properties":{}},{"type":"Feature","geometry":{"type":"LineString","coordinates":[[15.2278,37.25698],[15.22782,37.25692],[15.22821,37.2565],[15.22858,37.25599],[15.22865,37.25582],[15.22856,37.2556],[15.22882,37.25535]]},"properties":{}}]}