{"type":"FeatureCollection","features":[{"type":"Feature","geometry":{"type":"LineString","coordinates":[[15.15672,37.09096],[15.15639,37.09068],[15.15586,37.09042],[15.15528,37.09029],[15.15469,37.09028],[15.15519,37.09166],[15.15513,37.09174],[15.15451,37.09189],[15.15442,37.09185],[15.15297,37.09054],[15.15286,37.09052],[15.15275,37.09059],[15.15261,37.09087],[15.15252,37.09117],[15.15251,37.09157],[15.1524,37.09174],[15.15232,37.09178],[15.15194,37.09184],[15.15173,37.09195],[15.15138,37.09227],[15.15125,37.09245],[15.15113,37.09269],[15.15032,37.0925],[15.15033,37.09204],[15.15084,37.09205],[15.15146,37.09199],[15.15171,37.0919],[15.1517,37.0918],[15.15177,37.09172],[15.15218,37.09172],[15.1523,37.09168],[15.15235,37.0916],[15.15236,37.09119],[15.1524,37.09101],[15.15261,37.09042],[15.1526,37.09029],[15.151,37.08896],[15.15103,37.08887],[15.15108,37.08882],[15.15391,37.08809],[15.15413,37.08867],[15.15503,37.08817],[15.15544,37.08871],[15.15655,37.08807],[15.15802,37.08757],[15.15834,37.08803],[15.15856,37.08798],[15.15906,37.08794],[15.15924,37.08789],[15.15928,37.08783],[15.16281,37.08687],[15.16313,37.08758],[15.16139,37.08804],[15.16136,37.08809],[15.15984,37.08851],[15.1598,37.08848],[15.15946,37.08855],[15.15896,37.08857],[15.15679,37.0895],[15.15634,37.08982],[15.15703,37.09044],[15.1571,37.09055],[15.15709,37.09067],[15.15705,37.09073],[15.15672,37.09096]]},"properties":{}},{"type":"Feature","geometry":{"type":"LineString","coordinates":[[15.2382,37.11171],[15.23867,37.11129],[15.23928,37.11094],[15.25,37.10625]]},"properties":{}},{"type":"Feature","geometry":{"type":"LineString","coordinates":[[15.25,37.10631],[15.23935,37.11097],[15.23871,37.11133],[15.23825,37.11174]]},"properties":{}},{"type":"Feature","geometry":{"type":"LineString","coordinates":[[15.0,37.13882],[15.00052,37.13887],[15.00173,37.1389],[15.00242,37.13912],[15.0027,37.13917],[15.00297,37.13917],[15.0042,37.13902],[15.00461,37.13894],[15.00492,37.13885],[15.00547,37.13864],[15.00585,37.13838],[15.00656,37.13827]]},"properties":{}},{"type":"Feature","geometry":{"type":"LineString","coordinates":[[15.16526,37.15605],[15.16536,37.15578],[15.16554,37.15504],[15.16576,37.15452],[15.16697,37.15289],[15.16772,37.15208],[15.16865,37.15128],[15.16895,37.15105],[15.17075,37.14986],[15.17115,37.14964],[15.17208,37.14929],[15.17229,37.14917]]},"properties":{}},{"type":"Feature","geometry":{"type":"LineString","coordinates":[[15.23204,37.1173],[15.23224,37.11725],[15.2324,37.11716],[15.2338,37.11606],[15.23453,37.11538],[15.23617,37.11374],[15.23631,37.11346],[15.23631,37.11332]]},"properties":{}},{"type":"Feature","geometry":{"type":"LineString","coordinates":[[15.23673,37.11324],[15.23458,37.11542],[15.23385,37.11611],[15.23329,37.11658],[15.23211,37.11745]]},"properties":{}},{"type":"Feature","geometry":{"type":"LineString","coordinates":[[15.22649,37.11558],[15.22659,37.11556],[15.2269,37.11567],[15.227,37.11567],[15.22717,37.11554]]},"properties":{}},{"type":"Feature","geometry":{"type":"LineString","coordinates":[[15.23204,37.1173],[15.23212,37.11734],[15.23214,37.11741],[15.23208,37.11747],[15.23199,37.11747],[15.23194,37.11744],[15.23192,37.11736],[15.23196,37.11732],[15.23204,37.1173]]},"properties":{}},{"type":"Feature","geometry":{"type":"LineString","coordinates":[[15.22878,37.1199],[15.23174,37.11767],[15.23192,37.11741]]},"properties":{}},{"type":"Feature","geometry":{"type":"LineString","coordinates":[[15.23208,37.11747],[15.22997,37.11914],[15.22796,37.12065],[15.2272,37.12115]]},"properties":{}},{"type":"Feature","geometry":{"type":"LineString","coordinates":[[15.2272,37.12115],[15.22789,37.12056],[15.2287,37.11997]]},"properties":{}},{"type":"Feature","geometry":{"type":"LineString","coordinates":[[15.22462,37.22137],[15.22422,37.22049]]},"properties":{}},{"type":"Feature","geometry":{"type":"LineString","coordinates":[[15.22545,37.22112],[15.22462,37.22137]]},"properties":{}},{"type":"Feature","geometry":{"type":"LineString","coordinates":[[15.22444,37.2217],[15.22474,37.22161]]},"properties":{}},{"type":"Feature","geometry":{"type":"LineString","coordinates":[[15.22055,37.21958],[15.22214,37.21962]]},"properties":{}},{"type":"Feature","geometry":{"type":"LineString","coordinates":[[15.22214,37.21962],[15.22198,37.22012]]},"properties":{}},{"type":"Feature","geometry":{"type":"LineString","coordinates":[[15.22049,37.2221],[15.22055,37.21958]]},"properties":{}},{"type":"Feature","geometry":{"type":"LineString","coordinates":[[15.22129,37.22212],[15.22109,37.22274],[15.22083,37.22306],[15.22064,37.22324]]},"properties":{}},{"type":"Feature","geometry":{"type":"LineString","coordinates":[[15.22046,37.22338],[15.22048,37.22275]]},"properties":{}},{"type":"Feature","geometry":{"type":"LineString","coordinates":[[15.22264,37.22323],[15.22175,37.22333]]},"properties":{}},{"type":"Feature","geometry":{"type":"LineString","coordinates":[[15.22064,37.22324],[15.2205,37.22331],[15.22046,37.22338]]},"properties":{}},{"type":"Feature","geometry":{"type":"LineString","coordinates":[[15.22175,37.22333],[15.2215,37.2235]]},"properties":{}},{"type":"Feature","geometry":{"type":"LineString","coordinates":[[15.22046,37.22345],[15.21954,37.22359]]},"properties":{}},{"type":"Feature","geometry":{"type":"LineString","coordinates":[[15.21954,37.22359],[15.21929,37.22371]]},"properties":{}},{"type":"Feature","geometry":{"type":"LineString","coordinates":[[15.21929,37.22371],[15.21893,37.22375]]},"properties":{}},{"type":"Feature","geometry":{"type":"LineString","coordinates":[[15.2193,37.22378],[15.21929,37.22371]]},"properties":{}},{"type":"Feature","geometry":{"type":"LineString","coordinates":[[15.21893,37.22375],[15.21894,37.22402]]},"properties":{}},{"type":"Feature","geometry":{"type":"LineString","coordinates":[[15.21955,37.22524],[15.22322,37.22489]]},"properties":{}},{"type":"Feature","geometry":{"type":"LineString","coordinates":[[15.21889,37.22938],[15.21893,37.22911],[15.21942,37.22781],[15.2195,37.22737],[15.21957,37.22661],[15.21954,37.22516],[15.2193,37.22378]]},"properties":{}},{"type":"Feature","geometry":{"type":"LineString","coordinates":[[15.22311,37.22676],[15.22132,37.22664],[15.21957,37.22661]]},"properties":{}},{"type":"Feature","geometry":{"type":"LineString","coordinates":[[15.22155,37.23198],[15.22171,37.23089],[15.22264,37.22323]]},"properties":{}},{"type":"Feature","geometry":{"type":"LineString","coordinates":[[15.2215,37.2235],[15.22114,37.22946],[15.22112,37.23031],[15.22105,37.23098],[15.22099,37.23199]]},"properties":{}},{"type":"Feature","geometry":{"type":"LineString","coordinates":[[15.2203,37.23211],[15.22045,37.22351]]},"properties":{}},{"type":"Feature","geometry":{"type":"LineString","coordinates":[[15.22322,37.22489],[15.22321,37.22569],[15.22311,37.22676],[15.22264,37.23043],[15.2225,37.23137],[15.22242,37.23163],[15.22228,37.23193]]},"properties":{}},{"type":"Feature","geometry":{"type":"LineString","coordinates":[[15.21872,37.22885],[15.21865,37.22934],[15.21889,37.22938]]},"properties":{}},{"type":"Feature","geometry":{"type":"LineString","coordinates":[[15.22387,37.22957],[15.21889,37.22938]]},"properties":{}},{"type":"Feature","geometry":{"type":"LineString","coordinates":[[15.21889,37.22938],[15.21879,37.23091]]},"properties":{}},{"type":"Feature","geometry":{"type":"LineString","coordinates":[[15.21812,37.23145],[15.21805,37.23126],[15.21798,37.23117],[15.21796,37.23107],[15.21797,37.23044],[15.21805,37.2302],[15.21862,37.22895],[15.21872,37.22885]]},"properties":{}},{"type":"Feature","geometry":{"type":"LineString","coordinates":[[15.21835,37.23085],[15.21879,37.23091]]},"properties":{}},{"type":"Feature","geometry":{"type":"LineString","coordinates":[[15.21879,37.23091],[15.22105,37.23098],[15.22169,37.23105]]},"properties":{}},{"type":"Feature","geometry":{"type":"LineString","coordinates":[[15.21812,37.23145],[15.21823,37.23094],[15.21835,37.23085]]},"properties":{}},{"type":"Feature","geometry":{"type":"LineString","coordinates":[[15.22214,37.2312],[15.22253,37.23125]]},"properties":{}},{"type":"Feature","geometry":{"type":"LineString","coordinates":[[15.2248,37.22174],[15.22476,37.22178],[15.22468,37.22179],[15.22444,37.2217]]},"properties":{}},{"type":"Feature","geometry":{"type":"LineString","coordinates":[[15.22354,37.23885],[15.22369,37.23896]]},"properties":{}},{"type":"Feature","geometry":{"type":"LineString","coordinates":[[15.22356,37.2392],[15.22358,37.23897],[15.22354,37.23885]]},"properties":{}},{"type":"Feature","geometry":{"type":"LineString","coordinates":[[15.22369,37.23896],[15.22376,37.23914]]},"properties":{}},{"type":"Feature","geometry":{"type":"LineString","coordinates":[[15.22376,37.23914],[15.22383,37.23913]]},"properties":{}},{"type":"Feature","geometry":{"type":"LineString","coordinates":[[15.22369,37.23896],[15.22404,37.23934]]},"properties":{}},{"type":"Feature","geometry":{"type":"LineString","coordinates":[[15.22356,37.2392],[15.22362,37.23916],[15.22376,37.23914]]},"properties":{}},{"type":"Feature","geometry":{"type":"LineString","coordinates":[[15.22404,37.23934],[15.22386,37.23928],[15.22365,37.23934],[15.22355,37.23926]]},"properties":{}},{"type":"Feature","geometry":{"type":"LineString","coordinates":[[15.22349,37.23967],[15.22356,37.2392]]},"properties":{}},{"type":"Feature","geometry":{"type":"LineString","coordinates":[[15.22376,37.23914],[15.22377,37.23931],[15.22361,37.24037]]},"properties":{}},{"type":"Feature","geometry":{"type":"LineString","coordinates":[[15.21879,37.23091],[15.21877,37.23161],[15.21915,37.23244]]},"properties":{}},{"type":"Feature","geometry":{"type":"LineString","coordinates":[[15.21799,37.23192],[15.21812,37.23145]]},"properties":{}},{"type":"Feature","geometry":{"type":"LineString","coordinates":[[15.22218,37.23215],[15.2221,37.23203],[15.22195,37.23199],[15.22129,37.23197],[15.22099,37.23199],[15.2203,37.23211]]},"properties":{}},{"type":"Feature","geometry":{"type":"LineString","coordinates":[[15.21928,37.23232],[15.2192,37.23238],[15.21914,37.23249]]},"properties":{}},{"type":"Feature","geometry":{"type":"LineString","coordinates":[[15.2189,37.23352],[15.21802,37.23212],[15.21799,37.23192]]},"properties":{}},{"type":"Feature","geometry":{"type":"LineString","coordinates":[[15.21914,37.23249],[15.2192,37.23332],[15.2192,37.2334],[15.21913,37.23351]]},"properties":{}},{"type":"Feature","geometry":{"type":"LineString","coordinates":[[15.21978,37.23526],[15.22004,37.23563],[15.22009,37.23573]]},"properties":{}},{"type":"Feature","geometry":{"type":"LineString","coordinates":[[15.22012,37.23602],[15.22003,37.23594],[15.21996,37.23579],[15.21978,37.23526]]},"properties":{}},{"type":"Feature","geometry":{"type":"LineString","coordinates":[[15.22009,37.23573],[15.22009,37.23577]]},"properties":{}},{"type":"Feature","geometry":{"type":"LineString","coordinates":[[15.22009,37.23577],[15.22012,37.23602]]},"properties":{}},{"type":"Feature","geometry":{"type":"LineString","coordinates":[[15.18838,37.23712],[15.18847,37.23714],[15.18847,37.23718],[15.18842,37.2372]]},"properties":{}},{"type":"Feature","geometry":{"type":"LineString","coordinates":[[15.18663,37.23749],[15.18838,37.23712]]},"properties":{}},{"type":"Feature","geometry":{"type":"LineString","coordinates":[[15.18842,37.2372],[15.18666,37.23757]]},"properties":{}},{"type":"Feature","geometry":{"type":"LineString","coordinates":[[15.18346,37.23817],[15.18663,37.23749]]},"properties":{}},{"type":"Feature","geometry":{"type":"LineString","coordinates":[[15.18666,37.23757],[15.1835,37.23825]]},"properties":{}},{"type":"Feature","geometry":{"type":"LineString","coordinates":[[15.22347,37.24036],[15.22363,37.23956]]},"properties":{}},{"type":"Feature","geometry":{"type":"LineString","coordinates":[[15.22363,37.23956],[15.22362,37.23988],[15.22355,37.24037]]},"properties":{}},{"type":"Feature","geometry":{"type":"LineString","coordinates":[[15.2234,37.24036],[15.22349,37.23967]]},"properties":{}},{"type":"Feature","geometry":{"type":"LineString","coordinates":[[15.22338,37.24114],[15.2234,37.24036]]},"properties":{}},{"type":"Feature","geometry":{"type":"LineString","coordinates":[[15.22338,37.24114],[15.22347,37.24036]]},"properties":{}},{"type":"Feature","geometry":{"type":"LineString","coordinates":[[15.22355,37.24037],[15.22348,37.24115]]},"properties":{}},{"type":"Feature","geometry":{"type":"LineString","coordinates":[[15.22361,37.24037],[15.22354,37.24096],[15.22348,37.24115]]},"properties":{}},{"type":"Feature","geometry":{"type":"LineString","coordinates":[[15.22513,37.24055],[15.22587,37.24128],[15.22599,37.24153],[15.22603,37.24184],[15.2262,37.24209]]},"properties":{}},{"type":"Feature","geometry":{"type":"LineString","coordinates":[[15.2262,37.24209],[15.2259,37.24189],[15.22546,37.24169],[15.22463,37.24143],[15.2244,37.24137],[15.22319,37.24124]]},"properties":{}},{"type":"Feature","geometry":{"type":"LineString","coordinates":[[15.226,37.24161],[15.22598,37.24176],[15.22593,37.24182],[15.22583,37.24183],[15.22565,37.24177]]},"properties":{}},{"type":"Feature","geometry":{"type":"LineString","coordinates":[[15.22315,37.24272],[15.22338,37.24114]]},"properties":{}},{"type":"Feature","geometry":{"type":"LineString","coordinates":[[15.22348,37.24115],[15.22326,37.24273]]},"properties":{}},{"type":"Feature","geometry":{"type":"LineString","coordinates":[[15.23918,37.24195],[15.23916,37.24207],[15.2391,37.24216]]},"properties":{}},{"type":"Feature","geometry":{"type":"LineString","coordinates":[[15.22398,37.24567],[15.22403,37.24556],[15.22441,37.24323],[15.2245,37.24309],[15.22455,37.2428],[15.22491,37.24283],[15.22496,37.24279],[15.22494,37.24268],[15.22343,37.24252],[15.22359,37.24147],[15.22298,37.24143],[15.22228,37.24147],[15.22177,37.24155],[15.22117,37.24172]]},"properties":{}},{"type":"Feature","geometry":{"type":"LineString","coordinates":[[15.24435,37.24362],[15.24434,37.24366],[15.24426,37.2437],[15.24421,37.24369],[15.24416,37.24362],[15.24418,37.24358],[15.24428,37.24356],[15.24435,37.24362]]},"properties":{}},{"type":"Feature","geometry":{"type":"LineString","coordinates":[[15.2227,37.24552],[15.22275,37.24537],[15.22315,37.24272]]},"properties":{}},{"type":"Feature","geometry":{"type":"LineString","coordinates":[[15.22326,37.24273],[15.22285,37.24537],[15.22286,37.24554]]},"properties":{}},{"type":"Feature","geometry":{"type":"LineString","coordinates":[[15.2338,37.24422],[15.23399,37.24435]]},"properties":{}},{"type":"Feature","geometry":{"type":"LineString","coordinates":[[15.23378,37.24441],[15.2338,37.24422]]},"properties":{}},{"type":"Feature","geometry":{"type":"LineString","coordinates":[[15.23392,37.24441],[15.23386,37.24437]]},"properties":{}},{"type":"Feature","geometry":{"type":"LineString","coordinates":[[15.22104,37.24158],[15.22033,37.24155]]},"properties":{}},{"type":"Feature","geometry":{"type":"LineString","coordinates":[[15.2227,37.24552],[15.22278,37.24551],[15.22286,37.24554]]},"properties":{}},{"type":"Feature","geometry":{"type":"LineString","coordinates":[[15.22264,37.24559],[15.2227,37.24552]]},"properties":{}},{"type":"Feature","geometry":{"type":"LineString","coordinates":[[15.22268,37.24568],[15.22264,37.24559]]},"properties":{}},{"type":"Feature","geometry":{"type":"LineString","coordinates":[[15.22284,37.24568],[15.22276,37.2457],[15.22268,37.24568]]},"properties":{}},{"type":"Feature","geometry":{"type":"LineString","coordinates":[[15.1703,37.2419],[15.17154,37.24326],[15.17215,37.24385],[15.17303,37.24455],[15.17349,37.24485],[15.1743,37.2453],[15.17499,37.2456],[15.17552,37.24579],[15.17627,37.246],[15.17737,37.24624],[15.17851,37.2464],[15.18499,37.24722],[15.18762,37.24759],[15.18989,37.248],[15.19734,37.24952],[15.19853,37.24958],[15.19912,37.24955],[15.2009,37.24932],[15.20173,37.24929],[15.20254,37.24941],[15.20301,37.24955],[15.20415,37.25]]},"properties":{}},{"type":"Feature","geometry":{"type":"LineString","coordinates":[[15.20327,37.25],[15.20298,37.24978],[15.20266,37.24961],[15.20222,37.24945],[15.20179,37.24938],[15.20091,37.24939],[15.19892,37.24964],[15.19833,37.24967],[15.19773,37.24964],[15.19719,37.24958],[15.18986,37.24807],[15.1876,37.24766],[15.18569,37.24738],[15.17892,37.24654],[15.17751,37.24633],[15.17632,37.24609],[15.17539,37.24581],[15.17464,37.24553],[15.1742,37.24534],[15.17329,37.24482],[15.17259,37.24432],[15.17177,37.24361],[15.17023,37.24196]]},"properties":{}},{"type":"Feature","geometry":{"type":"LineString","coordinates":[[15.22284,37.24568],[15.22242,37.24827]]},"properties":{}},{"type":"Feature","geometry":{"type":"LineString","coordinates":[[15.22228,37.24853],[15.22269,37.24581],[15.22268,37.24568]]},"properties":{}},{"type":"Feature","geometry":{"type":"LineString","coordinates":[[15.22242,37.24827],[15.22221,37.24961],[15.22224,37.24976]]},"properties":{}},{"type":"Feature","geometry":{"type":"LineString","coordinates":[[15.22188,37.24965],[15.22206,37.2495],[15.22216,37.24925],[15.22228,37.24853]]},"properties":{}},{"type":"Feature","geometry":{"type":"LineString","coordinates":[[15.21922,37.24911],[15.21926,37.24934],[15.21938,37.24947]]},"properties":{}},{"type":"Feature","geometry":{"type":"LineString","coordinates":[[15.21913,37.2495],[15.21922,37.24911]]},"properties":{}},{"type":"Feature","geometry":{"type":"LineString","coordinates":[[15.21913,37.2495],[15.21928,37.24945],[15.21938,37.24947]]},"properties":{}},{"type":"Feature","geometry":{"type":"LineString","coordinates":[[15.21938,37.24947],[15.21943,37.24951]]},"properties":{}},{"type":"Feature","geometry":{"type":"LineString","coordinates":[[15.21909,37.24955],[15.21913,37.2495]]},"properties":{}},{"type":"Feature","geometry":{"type":"LineString","coordinates":[[15.21943,37.24951],[15.21947,37.24961],[15.21945,37.24967],[15.21934,37.24974]]},"properties":{}},{"type":"Feature","geometry":{"type":"LineString","coordinates":[[15.21922,37.24974],[15.21912,37.24969],[15.21909,37.24955]]},"properties":{}},{"type":"Feature","geometry":{"type":"LineString","coordinates":[[15.21314,37.2495],[15.21367,37.24969],[15.2142,37.24981]]},"properties":{}},{"type":"Feature","geometry":{"type":"LineString","coordinates":[[15.22188,37.24965],[15.22208,37.24965],[15.22224,37.24976]]},"properties":{}},{"type":"Feature","geometry":{"type":"LineString","coordinates":[[15.21943,37.24951],[15.22006,37.24978],[15.22129,37.24989],[15.22151,37.2498]]},"properties":{}},{"type":"Feature","geometry":{"type":"LineString","coordinates":[[15.22151,37.2498],[15.22158,37.24975],[15.22188,37.24965]]},"properties":{}},{"type":"Feature","geometry":{"type":"LineString","coordinates":[[15.21786,37.24991],[15.21874,37.24979],[15.21892,37.24971],[15.21909,37.24955]]},"properties":{}},{"type":"Feature","geometry":{"type":"LineString","coordinates":[[15.21934,37.24974],[15.21922,37.24974]]},"properties":{}},{"type":"Feature","geometry":{"type":"LineString","coordinates":[[15.22225,37.24978],[15.22237,37.2499],[15.22244,37.24993],[15.22297,37.24991]]},"properties":{}},{"type":"Feature","geometry":{"type":"LineString","coordinates":[[15.22224,37.24976],[15.22223,37.24988],[15.22209,37.25]]},"properties":{}},{"type":"Feature","geometry":{"type":"LineString","coordinates":[[15.22127,37.25],[15.22005,37.24986],[15.21964,37.24974],[15.21934,37.24974]]},"properties":{}},{"type":"Feature","geometry":{"type":"LineString","coordinates":[[15.21922,37.24974],[15.21905,37.24975],[15.21863,37.24986],[15.21818,37.24993],[15.21803,37.25]]},"properties":{}},{"type":"Feature","geometry":{"type":"LineString","coordinates":[[15.2142,37.24981],[15.21546,37.25]]},"properties":{}},{"type":"Feature","geometry":{"type":"LineString","coordinates":[[15.22151,37.25],[15.22147,37.2499],[15.22151,37.2498]]},"properties":{}},{"type":"Feature","geometry":{"type":"LineString","coordinates":[[15.22297,37.24991],[15.22277,37.24997],[15.22245,37.25]]},"properties":{}},{"type":"Feature","geometry":{"type":"LineString","coordinates":[[15.2224,37.25],[15.22222,37.24997],[15.2221,37.25]]},"properties":{}},{"type":"Feature","geometry":{"type":"LineString","coordinates":[[15.21761,37.25],[15.2177,37.24991],[15.21786,37.24991]]},"properties":{}},{"type":"Feature","geometry":{"type":"LineString","coordinates":[[15.21786,37.24991],[15.21796,37.25]]},"properties":{}},{"type":"Feature","geometry":{"type":"LineString","coordinates":[[15.2172,37.25],[15.21766,37.24993]]},"properties":{}},{"type":"Feature","geometry":{"type":"LineString","coordinates":[[15.20374,37.25],[15.20391,37.24996],[15.20412,37.25]]},"properties":{}},{"type":"Feature","geometry":{"type":"LineString","coordinates":[[15.23386,37.24437],[15.23384,37.24442]]},"properties":{}},{"type":"Feature","geometry":{"type":"LineString","coordinates":[[15.23368,37.24451],[15.23378,37.24441],[15.23394,37.24435],[15.23418,37.24446]]},"properties":{}},{"type":"Feature","geometry":{"type":"LineString","coordinates":[[15.23418,37.24446],[15.23392,37.24441]]},"properties":{}},{"type":"Feature","geometry":{"type":"LineString","coordinates":[[15.23392,37.24441],[15.23368,37.24451]]},"properties":{}},{"type":"Feature","geometry":{"type":"LineString","coordinates":[[15.22286,37.24554],[15.22289,37.24562],[15.22284,37.24568]]},"properties":{}}]}