{"type":"FeatureCollection","features":[{"type":"Feature","geometry":{"type":"LineString","coordinates":[[15.25674,37.03636],[15.25683,37.03632],[15.25694,37.03634]]},"properties":{}},{"type":"Feature","geometry":{"type":"LineString","coordinates":[[15.25694,37.03634],[15.25703,37.03641],[15.25704,37.03649]]},"properties":{}},{"type":"Feature","geometry":{"type":"LineString","coordinates":[[15.25678,37.0366],[15.25668,37.03649],[15.25674,37.03636]]},"properties":{}},{"type":"Feature","geometry":{"type":"LineString","coordinates":[[15.25704,37.03649],[15.257,37.03656]]},"properties":{}},{"type":"Feature","geometry":{"type":"LineString","coordinates":[[15.257,37.03656],[15.25689,37.03661],[15.25678,37.0366]]},"properties":{}},{"type":"Feature","geometry":{"type":"LineString","coordinates":[[15.29457,37.0555],[15.29537,37.05553],[15.29541,37.05562]]},"properties":{}},{"type":"Feature","geometry":{"type":"LineString","coordinates":[[15.29319,37.05724],[15.29348,37.05693],[15.29391,37.05634],[15.29423,37.05559]]},"properties":{}},{"type":"Feature","geometry":{"type":"LineString","coordinates":[[15.29541,37.05562],[15.29521,37.05631],[15.29481,37.05699],[15.2948,37.05711],[15.29489,37.05737],[15.29523,37.0576]]},"properties":{}},{"type":"Feature","geometry":{"type":"LineString","coordinates":[[15.29753,37.05814],[15.29764,37.05827],[15.29766,37.05851],[15.29781,37.05861],[15.29793,37.05876],[15.29797,37.05897],[15.29794,37.05927]]},"properties":{}},{"type":"Feature","geometry":{"type":"LineString","coordinates":[[15.29423,37.06102],[15.29702,37.06078],[15.29782,37.06091],[15.298,37.06096],[15.29825,37.06107]]},"properties":{}},{"type":"Feature","geometry":{"type":"LineString","coordinates":[[15.29168,37.06178],[15.29199,37.0613],[15.29206,37.0608],[15.29202,37.0605]]},"properties":{}},{"type":"Feature","geometry":{"type":"LineString","coordinates":[[15.29365,37.06147],[15.29374,37.06139],[15.29392,37.06137],[15.29399,37.06133],[15.29407,37.06111],[15.29423,37.06102]]},"properties":{}},{"type":"Feature","geometry":{"type":"LineString","coordinates":[[15.29261,37.06349],[15.29266,37.06347],[15.29365,37.06147]]},"properties":{}},{"type":"Feature","geometry":{"type":"LineString","coordinates":[[15.29113,37.06404],[15.29131,37.06398]]},"properties":{}},{"type":"Feature","geometry":{"type":"LineString","coordinates":[[15.29101,37.06404],[15.29113,37.06404]]},"properties":{}},{"type":"Feature","geometry":{"type":"LineString","coordinates":[[15.2905,37.06422],[15.29101,37.06404]]},"properties":{}},{"type":"Feature","geometry":{"type":"LineString","coordinates":[[15.28981,37.06442],[15.2905,37.06422]]},"properties":{}},{"type":"Feature","geometry":{"type":"LineString","coordinates":[[15.29165,37.06453],[15.29158,37.06455]]},"properties":{}},{"type":"Feature","geometry":{"type":"LineString","coordinates":[[15.29165,37.06453],[15.2916,37.06459]]},"properties":{}},{"type":"Feature","geometry":{"type":"LineString","coordinates":[[15.29158,37.06455],[15.2911,37.06469]]},"properties":{}},{"type":"Feature","geometry":{"type":"LineString","coordinates":[[15.2916,37.06459],[15.29111,37.06472]]},"properties":{}},{"type":"Feature","geometry":{"type":"LineString","coordinates":[[15.28987,37.06444],[15.29011,37.06497]]},"properties":{}},{"type":"Feature","geometry":{"type":"LineString","coordinates":[[15.2911,37.06469],[15.29068,37.06481]]},"properties":{}},{"type":"Feature","geometry":{"type":"LineString","coordinates":[[15.29111,37.06472],[15.29073,37.06483]]},"properties":{}},{"type":"Feature","geometry":{"type":"LineString","coordinates":[[15.29068,37.06481],[15.29034,37.0649]]},"properties":{}},{"type":"Feature","geometry":{"type":"LineString","coordinates":[[15.29073,37.06483],[15.29038,37.06493]]},"properties":{}},{"type":"Feature","geometry":{"type":"LineString","coordinates":[[15.29038,37.06493],[15.29004,37.06502]]},"properties":{}},{"type":"Feature","geometry":{"type":"LineString","coordinates":[[15.28587,37.06555],[15.28981,37.06442]]},"properties":{}},{"type":"Feature","geometry":{"type":"LineString","coordinates":[[15.29289,37.06487],[15.29329,37.06561]]},"properties":{}},{"type":"Feature","geometry":{"type":"LineString","coordinates":[[15.29163,37.06521],[15.29159,37.06529],[15.29154,37.06561],[15.29147,37.06562]]},"properties":{}},{"type":"Feature","geometry":{"type":"LineString","coordinates":[[15.29004,37.06502],[15.28723,37.06582]]},"properties":{}},{"type":"Feature","geometry":{"type":"LineString","coordinates":[[15.29147,37.06562],[15.29102,37.06557]]},"properties":{}},{"type":"Feature","geometry":{"type":"LineString","coordinates":[[15.29102,37.06557],[15.29095,37.06559],[15.29092,37.06578],[15.29086,37.0658]]},"properties":{}},{"type":"Feature","geometry":{"type":"LineString","coordinates":[[15.28613,37.06613],[15.28587,37.06555]]},"properties":{}},{"type":"Feature","geometry":{"type":"LineString","coordinates":[[15.28723,37.06582],[15.28613,37.06613]]},"properties":{}},{"type":"Feature","geometry":{"type":"LineString","coordinates":[[15.28613,37.06613],[15.28571,37.06625]]},"properties":{}},{"type":"Feature","geometry":{"type":"LineString","coordinates":[[15.28562,37.06625],[15.28569,37.0663]]},"properties":{}},{"type":"Feature","geometry":{"type":"LineString","coordinates":[[15.28571,37.06625],[15.28569,37.0663]]},"properties":{}},{"type":"Feature","geometry":{"type":"LineString","coordinates":[[15.28631,37.0676],[15.2866,37.06714],[15.28613,37.06613]]},"properties":{}},{"type":"Feature","geometry":{"type":"LineString","coordinates":[[15.28569,37.0663],[15.28608,37.06717],[15.28592,37.06743],[15.28595,37.06745]]},"properties":{}},{"type":"Feature","geometry":{"type":"LineString","coordinates":[[15.28595,37.06745],[15.28631,37.0676]]},"properties":{}},{"type":"Feature","geometry":{"type":"LineString","coordinates":[[15.28807,37.06771],[15.28812,37.0678]]},"properties":{}},{"type":"Feature","geometry":{"type":"LineString","coordinates":[[15.28798,37.06778],[15.28807,37.06777],[15.28812,37.0678]]},"properties":{}},{"type":"Feature","geometry":{"type":"LineString","coordinates":[[15.28795,37.06783],[15.28798,37.06778]]},"properties":{}},{"type":"Feature","geometry":{"type":"LineString","coordinates":[[15.28812,37.0678],[15.28814,37.06785]]},"properties":{}},{"type":"Feature","geometry":{"type":"LineString","coordinates":[[15.28598,37.0681],[15.28631,37.0676]]},"properties":{}},{"type":"Feature","geometry":{"type":"LineString","coordinates":[[15.28803,37.06791],[15.28797,37.06788],[15.28795,37.06783]]},"properties":{}},{"type":"Feature","geometry":{"type":"LineString","coordinates":[[15.28814,37.06785],[15.28809,37.0679],[15.28803,37.06791]]},"properties":{}},{"type":"Feature","geometry":{"type":"LineString","coordinates":[[15.28598,37.0681],[15.28609,37.06812]]},"properties":{}},{"type":"Feature","geometry":{"type":"LineString","coordinates":[[15.28609,37.06812],[15.28673,37.06823],[15.28759,37.06848]]},"properties":{}},{"type":"Feature","geometry":{"type":"LineString","coordinates":[[15.28767,37.06848],[15.28759,37.06848]]},"properties":{}},{"type":"Feature","geometry":{"type":"LineString","coordinates":[[15.28778,37.06855],[15.28772,37.06854],[15.28773,37.06849],[15.28767,37.06848]]},"properties":{}},{"type":"Feature","geometry":{"type":"LineString","coordinates":[[15.28786,37.06857],[15.28778,37.06855]]},"properties":{}},{"type":"Feature","geometry":{"type":"LineString","coordinates":[[15.29036,37.06971],[15.28986,37.06951],[15.28965,37.06938],[15.28935,37.06929],[15.28826,37.06883],[15.288,37.06863],[15.28786,37.06857]]},"properties":{}},{"type":"Feature","geometry":{"type":"LineString","coordinates":[[15.29036,37.06971],[15.2904,37.06973]]},"properties":{}},{"type":"Feature","geometry":{"type":"LineString","coordinates":[[15.29077,37.06998],[15.29038,37.0698]]},"properties":{}},{"type":"Feature","geometry":{"type":"LineString","coordinates":[[15.29092,37.07002],[15.29148,37.07034],[15.29219,37.07081]]},"properties":{}},{"type":"Feature","geometry":{"type":"LineString","coordinates":[[15.29203,37.07082],[15.29194,37.0708],[15.291,37.0702],[15.29094,37.07014]]},"properties":{}},{"type":"Feature","geometry":{"type":"LineString","coordinates":[[15.28175,37.07353],[15.28262,37.07208],[15.2847,37.06845],[15.28473,37.06815]]},"properties":{}},{"type":"Feature","geometry":{"type":"LineString","coordinates":[[15.28407,37.07552],[15.28407,37.07539],[15.28439,37.07538],[15.28449,37.07535],[15.28452,37.0753],[15.28429,37.07338],[15.28416,37.07318],[15.28416,37.07312],[15.2842,37.07313],[15.28492,37.07136],[15.28483,37.07115],[15.28473,37.07112],[15.28484,37.07106],[15.28498,37.07108],[15.28651,37.06829]]},"properties":{}},{"type":"Feature","geometry":{"type":"LineString","coordinates":[[15.29533,37.07734],[15.29497,37.0766],[15.29448,37.07501],[15.29425,37.07438],[15.29385,37.07304],[15.29368,37.07267],[15.29344,37.07225],[15.29295,37.07155],[15.29275,37.07132],[15.2923,37.07091]]},"properties":{}},{"type":"Feature","geometry":{"type":"LineString","coordinates":[[15.27875,37.0755],[15.27869,37.0755],[15.27851,37.0754],[15.27853,37.07536]]},"properties":{}},{"type":"Feature","geometry":{"type":"LineString","coordinates":[[15.28148,37.07553],[15.28017,37.07564],[15.27893,37.07544]]},"properties":{}},{"type":"Feature","geometry":{"type":"LineString","coordinates":[[15.28149,37.0756],[15.28143,37.07557],[15.28019,37.07569],[15.27888,37.07549],[15.27875,37.0755]]},"properties":{}},{"type":"Feature","geometry":{"type":"LineString","coordinates":[[15.28789,37.07855],[15.28745,37.077],[15.28729,37.07585],[15.28716,37.07554],[15.28713,37.07551],[15.28682,37.07545],[15.28571,37.07548],[15.28569,37.07563],[15.28565,37.07565],[15.28446,37.07565],[15.2842,37.07553],[15.28322,37.07551],[15.28178,37.07554],[15.28169,37.07555],[15.28166,37.07559],[15.28149,37.0756]]},"properties":{}},{"type":"Feature","geometry":{"type":"LineString","coordinates":[[15.29551,37.07729],[15.2958,37.07772],[15.29579,37.07779]]},"properties":{}},{"type":"Feature","geometry":{"type":"LineString","coordinates":[[15.29579,37.07779],[15.29573,37.07784]]},"properties":{}},{"type":"Feature","geometry":{"type":"LineString","coordinates":[[15.29583,37.07796],[15.29573,37.07784]]},"properties":{}},{"type":"Feature","geometry":{"type":"LineString","coordinates":[[15.2715,37.08531],[15.27161,37.08527],[15.27192,37.08529],[15.27336,37.08573],[15.27353,37.08569],[15.27498,37.0827],[15.27507,37.08256],[15.27538,37.0822],[15.27985,37.0835],[15.28014,37.08347],[15.28032,37.08332],[15.28048,37.08339],[15.28033,37.08363],[15.28034,37.08369],[15.28023,37.08393],[15.28025,37.08396],[15.28,37.08439],[15.27997,37.08449],[15.27999,37.08455],[15.28007,37.08459],[15.28046,37.08471],[15.28072,37.08468],[15.28483,37.08355],[15.28566,37.08347],[15.28644,37.08329],[15.28668,37.08315],[15.28685,37.08294],[15.28717,37.08191],[15.28788,37.08057],[15.28805,37.08015],[15.28811,37.07978],[15.28811,37.07936],[15.28796,37.07879],[15.28787,37.07874],[15.28786,37.07861],[15.28789,37.07855],[15.28803,37.07852],[15.28822,37.07868],[15.28871,37.07886],[15.28923,37.07897],[15.28933,37.07895],[15.28937,37.07891],[15.28951,37.07892],[15.2896,37.079],[15.2898,37.07899],[15.29305,37.07811],[15.29329,37.078],[15.29359,37.07781],[15.29368,37.07766],[15.29382,37.07771],[15.2942,37.07771],[15.29522,37.07762],[15.29549,37.07779],[15.29551,37.07774],[15.29533,37.07734]]},"properties":{}},{"type":"Feature","geometry":{"type":"LineString","coordinates":[[15.29525,37.07778],[15.29474,37.07776],[15.29385,37.07784],[15.29311,37.07822],[15.29116,37.07872],[15.28941,37.07923],[15.28934,37.07917],[15.28891,37.07915],[15.28824,37.07896],[15.28821,37.07901],[15.28826,37.0797],[15.28818,37.08021],[15.28804,37.08059],[15.28734,37.08192],[15.28701,37.08288],[15.287,37.08299],[15.28703,37.08308],[15.2874,37.08341],[15.28732,37.08346],[15.28724,37.08338],[15.28691,37.08331],[15.28596,37.08351],[15.28589,37.08358],[15.28583,37.08359],[15.28498,37.08363],[15.28072,37.08481],[15.28068,37.08479],[15.28053,37.08484],[15.28034,37.08483],[15.27984,37.08469],[15.27979,37.0847],[15.27964,37.08493],[15.27907,37.08619],[15.27899,37.08646],[15.27907,37.08655],[15.27907,37.08665],[15.27896,37.08677]]},"properties":{}},{"type":"Feature","geometry":{"type":"LineString","coordinates":[[15.28694,37.08265],[15.28707,37.08268]]},"properties":{}},{"type":"Feature","geometry":{"type":"LineString","coordinates":[[15.2867,37.08335],[15.28659,37.08322]]},"properties":{}},{"type":"Feature","geometry":{"type":"LineString","coordinates":[[15.27981,37.08364],[15.27987,37.0835]]},"properties":{}},{"type":"Feature","geometry":{"type":"LineString","coordinates":[[15.28732,37.08346],[15.28782,37.08398],[15.28922,37.08445]]},"properties":{}},{"type":"Feature","geometry":{"type":"LineString","coordinates":[[15.27977,37.08426],[15.28003,37.08435]]},"properties":{}},{"type":"Feature","geometry":{"type":"LineString","coordinates":[[15.27974,37.08474],[15.27958,37.08469]]},"properties":{}},{"type":"Feature","geometry":{"type":"LineString","coordinates":[[15.27856,37.0868],[15.27863,37.08663],[15.2786,37.08657],[15.27851,37.0865]]},"properties":{}},{"type":"Feature","geometry":{"type":"LineString","coordinates":[[15.27854,37.08685],[15.27856,37.0868]]},"properties":{}},{"type":"Feature","geometry":{"type":"LineString","coordinates":[[15.27896,37.08677],[15.27881,37.08705]]},"properties":{}},{"type":"Feature","geometry":{"type":"LineString","coordinates":[[15.27848,37.08698],[15.27854,37.08685]]},"properties":{}},{"type":"Feature","geometry":{"type":"LineString","coordinates":[[15.29672,37.08727],[15.29752,37.08742]]},"properties":{}},{"type":"Feature","geometry":{"type":"LineString","coordinates":[[15.27881,37.08705],[15.27786,37.08912]]},"properties":{}},{"type":"Feature","geometry":{"type":"LineString","coordinates":[[15.29633,37.09159],[15.29628,37.09148],[15.29591,37.09156],[15.29571,37.09153],[15.29556,37.09141],[15.29554,37.09129],[15.29664,37.08743],[15.29673,37.08725],[15.29689,37.08704],[15.29716,37.08674],[15.29733,37.08639],[15.2974,37.08589],[15.29744,37.08583],[15.29753,37.08485],[15.2976,37.08482],[15.29769,37.08484],[15.29772,37.08475],[15.29937,37.08519]]},"properties":{}},{"type":"Feature","geometry":{"type":"LineString","coordinates":[[15.27851,37.0865],[15.27863,37.08636],[15.27873,37.08638],[15.27879,37.08635],[15.27976,37.08428],[15.27997,37.08386],[15.28003,37.08381],[15.28003,37.08371],[15.27589,37.0825],[15.27554,37.08252],[15.27538,37.08258],[15.27523,37.08268],[15.27511,37.08281],[15.27372,37.08571],[15.27373,37.08591],[15.27359,37.086],[15.27354,37.08608],[15.27038,37.09266],[15.27036,37.09282],[15.27042,37.09295],[15.27049,37.09301],[15.27043,37.09312],[15.27024,37.09317],[15.27007,37.0933],[15.26923,37.09503],[15.2691,37.09499],[15.26964,37.09385],[15.2699,37.09321],[15.2699,37.09312],[15.26984,37.093],[15.26976,37.09294],[15.26887,37.09269],[15.26855,37.09256],[15.26791,37.09236],[15.2654,37.09164],[15.2652,37.0916],[15.26489,37.09165],[15.2648,37.09164],[15.26462,37.09153],[15.26312,37.0911],[15.26221,37.09063],[15.26151,37.09002],[15.26078,37.08922],[15.26049,37.08897],[15.2604,37.0888],[15.26015,37.0885],[15.26004,37.08829],[15.25932,37.08593],[15.25924,37.08586],[15.25911,37.08582],[15.25615,37.08592],[15.25583,37.08599],[15.25553,37.08609],[15.25547,37.08601],[15.2558,37.08589],[15.25615,37.08582],[15.2591,37.08571],[15.25915,37.08576],[15.25945,37.08573],[15.26026,37.08834],[15.26043,37.0886],[15.26074,37.08884],[15.26081,37.08905],[15.26142,37.08973],[15.26204,37.09034],[15.26235,37.09056],[15.26272,37.09079],[15.26301,37.09092],[15.26382,37.0912],[15.26454,37.09136],[15.26492,37.09135],[15.26596,37.09168],[15.26995,37.0928],[15.27015,37.09271],[15.27031,37.09243],[15.2734,37.08599],[15.2734,37.08591],[15.27335,37.08585],[15.27187,37.08539],[15.27151,37.08537]]},"properties":{}},{"type":"Feature","geometry":{"type":"LineString","coordinates":[[15.2765,37.09121],[15.27663,37.09101],[15.27725,37.08969],[15.27737,37.08955],[15.27744,37.0892],[15.27754,37.08904],[15.27847,37.08706],[15.27845,37.08705],[15.27848,37.08698]]},"properties":{}},{"type":"Feature","geometry":{"type":"LineString","coordinates":[[15.27786,37.08912],[15.27774,37.08935]]},"properties":{}},{"type":"Feature","geometry":{"type":"LineString","coordinates":[[15.26099,37.09199],[15.26136,37.09155],[15.26215,37.09074],[15.26218,37.09061]]},"properties":{}},{"type":"Feature","geometry":{"type":"LineString","coordinates":[[15.27638,37.09145],[15.2765,37.09121]]},"properties":{}},{"type":"Feature","geometry":{"type":"LineString","coordinates":[[15.26243,37.09077],[15.26228,37.09077],[15.26219,37.09081],[15.26172,37.09125],[15.26107,37.09204]]},"properties":{}},{"type":"Feature","geometry":{"type":"LineString","coordinates":[[15.27634,37.09154],[15.27638,37.09145]]},"properties":{}},{"type":"Feature","geometry":{"type":"LineString","coordinates":[[15.27587,37.09191],[15.27618,37.09179],[15.27634,37.09154]]},"properties":{}},{"type":"Feature","geometry":{"type":"LineString","coordinates":[[15.27903,37.0865],[15.2798,37.08656],[15.28001,37.0866],[15.2822,37.08721],[15.28257,37.0873],[15.28265,37.08728],[15.28272,37.0873],[15.28273,37.08734],[15.28318,37.08746],[15.28298,37.0879],[15.28292,37.08797],[15.28247,37.08785],[15.28217,37.08854],[15.28213,37.08874],[15.28205,37.09025],[15.28203,37.09107],[15.28205,37.09108],[15.28204,37.09149],[15.28202,37.09151],[15.28205,37.09157],[15.28812,37.09245],[15.28843,37.09253],[15.28913,37.09287],[15.29082,37.09375],[15.29103,37.09392],[15.29128,37.09422],[15.29139,37.09448],[15.29143,37.09477],[15.29121,37.09649],[15.29129,37.09665],[15.29141,37.09672],[15.29164,37.09676],[15.29186,37.09676],[15.2921,37.0967],[15.29226,37.09672],[15.29239,37.09677],[15.29258,37.09696],[15.29267,37.09701],[15.29273,37.09699]]},"properties":{}},{"type":"Feature","geometry":{"type":"LineString","coordinates":[[15.29476,37.09216],[15.29505,37.09202],[15.29583,37.09181],[15.29633,37.09159]]},"properties":{}},{"type":"Feature","geometry":{"type":"LineString","coordinates":[[15.27588,37.09203],[15.27587,37.09191]]},"properties":{}},{"type":"Feature","geometry":{"type":"LineString","coordinates":[[15.27774,37.08935],[15.27769,37.08944],[15.27769,37.08953],[15.27761,37.08963],[15.27663,37.09177],[15.27668,37.09194],[15.27662,37.09202],[15.27665,37.09203],[15.27663,37.09258],[15.27658,37.0926],[15.27658,37.09265],[15.27662,37.09267],[15.27659,37.09404],[15.2767,37.09462],[15.27647,37.09465],[15.27636,37.0941],[15.27642,37.09209],[15.2764,37.09203],[15.27634,37.09201]]},"properties":{}},{"type":"Feature","geometry":{"type":"LineString","coordinates":[[15.26097,37.09198],[15.26108,37.09204]]},"properties":{}},{"type":"Feature","geometry":{"type":"LineString","coordinates":[[15.27634,37.09201],[15.27588,37.09203]]},"properties":{}},{"type":"Feature","geometry":{"type":"LineString","coordinates":[[15.26078,37.0921],[15.26097,37.09198]]},"properties":{}},{"type":"Feature","geometry":{"type":"LineString","coordinates":[[15.26108,37.09204],[15.26102,37.09221]]},"properties":{}},{"type":"Feature","geometry":{"type":"LineString","coordinates":[[15.29431,37.0977],[15.29277,37.09739],[15.29269,37.09734],[15.2924,37.09732],[15.29214,37.09737],[15.29198,37.09735],[15.2918,37.09725],[15.29172,37.09708],[15.2916,37.09697],[15.29118,37.09674],[15.29107,37.09659],[15.29105,37.09644],[15.29126,37.09491],[15.29126,37.09474],[15.29121,37.09446],[15.29106,37.09417],[15.29071,37.09383],[15.28987,37.09342],[15.28851,37.09268],[15.28811,37.09254],[15.28186,37.09163],[15.28187,37.0913],[15.28194,37.09122],[15.28204,37.08874],[15.28223,37.0882],[15.28261,37.08737],[15.28003,37.08666],[15.27935,37.08657],[15.27916,37.08659],[15.27907,37.08665]]},"properties":{}},{"type":"Feature","geometry":{"type":"LineString","coordinates":[[15.26067,37.09224],[15.26078,37.0921]]},"properties":{}},{"type":"Feature","geometry":{"type":"LineString","coordinates":[[15.26102,37.09221],[15.26088,37.09234]]},"properties":{}},{"type":"Feature","geometry":{"type":"LineString","coordinates":[[15.26062,37.09242],[15.26066,37.09233],[15.26067,37.09224]]},"properties":{}},{"type":"Feature","geometry":{"type":"LineString","coordinates":[[15.26088,37.09234],[15.26072,37.09247]]},"properties":{}},{"type":"Feature","geometry":{"type":"LineString","coordinates":[[15.2947,37.09272],[15.29452,37.09243],[15.29476,37.09216]]},"properties":{}},{"type":"Feature","geometry":{"type":"LineString","coordinates":[[15.26072,37.09247],[15.26062,37.09242]]},"properties":{}},{"type":"Feature","geometry":{"type":"LineString","coordinates":[[15.26072,37.09251],[15.26073,37.09248]]},"properties":{}},{"type":"Feature","geometry":{"type":"LineString","coordinates":[[15.29403,37.09355],[15.29409,37.0933],[15.29422,37.09308],[15.29435,37.09294],[15.2947,37.09272]]},"properties":{}},{"type":"Feature","geometry":{"type":"LineString","coordinates":[[15.25994,37.09387],[15.25996,37.09379],[15.25983,37.09371],[15.2598,37.09367],[15.2598,37.09358],[15.25991,37.09345],[15.25997,37.09345],[15.26072,37.09251]]},"properties":{}},{"type":"Feature","geometry":{"type":"LineString","coordinates":[[15.25998,37.10426],[15.26476,37.10457],[15.2655,37.10464],[15.26616,37.10476],[15.26706,37.10504],[15.27131,37.10682],[15.2719,37.10697],[15.27243,37.10704],[15.27334,37.10703],[15.27366,37.10698],[15.2742,37.10685],[15.27466,37.10669],[15.27591,37.10608],[15.27664,37.10585],[15.27725,37.10575],[15.27756,37.10573],[15.2779,37.10573],[15.27843,37.10578],[15.27882,37.10586],[15.2792,37.10598],[15.27984,37.10625],[15.28023,37.10648],[15.2821,37.10789],[15.28282,37.1083],[15.28328,37.10848],[15.28395,37.10868],[15.28457,37.10879],[15.28514,37.10884],[15.28581,37.10882],[15.28641,37.10875],[15.28705,37.1086],[15.28766,37.10839],[15.28842,37.10801],[15.29052,37.10684],[15.29149,37.10621],[15.29259,37.10529],[15.29516,37.10291],[15.2957,37.10235],[15.29613,37.10182],[15.29647,37.10133],[15.29682,37.10074],[15.29721,37.09989],[15.29738,37.09943],[15.29753,37.09888],[15.29767,37.09811],[15.29891,37.08683],[15.29897,37.08649],[15.2991,37.08605],[15.29931,37.08558],[15.30011,37.08409],[15.3002,37.08383],[15.30034,37.08321],[15.30036,37.08286],[15.30032,37.08236],[15.30023,37.08191],[15.29999,37.0813],[15.2998,37.08096],[15.29951,37.08057],[15.29905,37.08009],[15.29874,37.07985],[15.29828,37.07954],[15.29668,37.07866],[15.29614,37.07826],[15.29583,37.07796]]},"properties":{}},{"type":"Feature","geometry":{"type":"LineString","coordinates":[[15.29426,37.09443],[15.29439,37.09451],[15.29454,37.09436],[15.29436,37.09423],[15.29418,37.09403],[15.2941,37.09385],[15.29403,37.09355]]},"properties":{}},{"type":"Feature","geometry":{"type":"LineString","coordinates":[[15.25902,37.09482],[15.25897,37.09489],[15.25715,37.09389],[15.25712,37.09383],[15.25634,37.09338],[15.25623,37.0935],[15.25599,37.09337],[15.25602,37.09333]]},"properties":{}},{"type":"Feature","geometry":{"type":"LineString","coordinates":[[15.25902,37.09482],[15.25914,37.09455],[15.2593,37.0944],[15.25943,37.09421],[15.25961,37.09413],[15.25978,37.09417],[15.25984,37.09416],[15.25994,37.09387]]},"properties":{}},{"type":"Feature","geometry":{"type":"LineString","coordinates":[[15.29413,37.09433],[15.29421,37.09439]]},"properties":{}},{"type":"Feature","geometry":{"type":"LineString","coordinates":[[15.29343,37.09455],[15.29353,37.09436],[15.2937,37.09426],[15.29394,37.09425],[15.29413,37.09433]]},"properties":{}},{"type":"Feature","geometry":{"type":"LineString","coordinates":[[15.29421,37.09439],[15.29426,37.09443]]},"properties":{}},{"type":"Feature","geometry":{"type":"LineString","coordinates":[[15.26921,37.09509],[15.26923,37.09503]]},"properties":{}},{"type":"Feature","geometry":{"type":"LineString","coordinates":[[15.29343,37.09455],[15.29245,37.09659]]},"properties":{}},{"type":"Feature","geometry":{"type":"LineString","coordinates":[[15.27333,37.0966],[15.27443,37.09475],[15.27448,37.09475],[15.27458,37.09462],[15.27608,37.0947],[15.27644,37.0947],[15.27648,37.09469],[15.27647,37.09465]]},"properties":{}},{"type":"Feature","geometry":{"type":"LineString","coordinates":[[15.27281,37.09687],[15.27062,37.0962],[15.27059,37.09614],[15.27085,37.09561]]},"properties":{}},{"type":"Feature","geometry":{"type":"LineString","coordinates":[[15.27281,37.09687],[15.27287,37.09675],[15.27298,37.09676],[15.27321,37.09656],[15.27333,37.0966]]},"properties":{}},{"type":"Feature","geometry":{"type":"LineString","coordinates":[[15.27333,37.0966],[15.27327,37.09672],[15.2733,37.09676],[15.27325,37.09684]]},"properties":{}},{"type":"Feature","geometry":{"type":"LineString","coordinates":[[15.29245,37.09659],[15.29245,37.09672],[15.29249,37.09682],[15.29271,37.09698]]},"properties":{}},{"type":"Feature","geometry":{"type":"LineString","coordinates":[[15.29172,37.09708],[15.29175,37.09691],[15.29191,37.09675]]},"properties":{}},{"type":"Feature","geometry":{"type":"LineString","coordinates":[[15.29253,37.09693],[15.29255,37.09704],[15.29252,37.09717],[15.29242,37.09728],[15.29231,37.09734]]},"properties":{}},{"type":"Feature","geometry":{"type":"LineString","coordinates":[[15.29271,37.09698],[15.29456,37.09734],[15.29548,37.09744],[15.29552,37.09749]]},"properties":{}},{"type":"Feature","geometry":{"type":"LineString","coordinates":[[15.25569,37.10571],[15.25567,37.1059],[15.25571,37.10598],[15.2559,37.10612],[15.25607,37.10615],[15.25627,37.10612],[15.25691,37.10579],[15.25737,37.10564]]},"properties":{}},{"type":"Feature","geometry":{"type":"LineString","coordinates":[[15.25,37.10625],[15.25315,37.10487],[15.2544,37.10425],[15.25517,37.10396],[15.25574,37.10369],[15.25602,37.10359],[15.25694,37.1032],[15.25741,37.10309],[15.25785,37.10305],[15.26344,37.10291],[15.26373,37.1028],[15.26413,37.10252],[15.26445,37.1024],[15.26485,37.10235],[15.26544,37.10242],[15.26564,37.10229]]},"properties":{}},{"type":"Feature","geometry":{"type":"LineString","coordinates":[[15.26577,37.10236],[15.26547,37.10246],[15.26485,37.1024],[15.26447,37.10245],[15.26409,37.10261],[15.26366,37.10291],[15.26345,37.10296],[15.2596,37.10305],[15.25805,37.10316],[15.25749,37.10334],[15.25718,37.1035],[15.25687,37.10368],[15.25637,37.10411],[15.25611,37.10416],[15.25585,37.10405],[15.25558,37.10398],[15.25539,37.10399],[15.25514,37.10405],[15.25,37.10631]]},"properties":{}},{"type":"Feature","geometry":{"type":"LineString","coordinates":[[15.25267,37.10799],[15.25255,37.10809],[15.25071,37.10899],[15.25017,37.10919]]},"properties":{}}]}