{"type":"FeatureCollection","features":[{"type":"Feature","geometry":{"type":"LineString","coordinates":[[15.47365,38.26498],[15.47386,38.26485],[15.47392,38.26467]]},"properties":{}},{"type":"Feature","geometry":{"type":"LineString","coordinates":[[15.47392,38.26467],[15.47395,38.26498],[15.47392,38.26518]]},"properties":{}},{"type":"Feature","geometry":{"type":"LineString","coordinates":[[15.48584,38.2728],[15.48599,38.27257]]},"properties":{}},{"type":"Feature","geometry":{"type":"LineString","coordinates":[[15.48599,38.27257],[15.48595,38.27289]]},"properties":{}}]}