{"type":"FeatureCollection","features":[{"type":"Feature","geometry":{"type":"LineString","coordinates":[[15.50374,40.84591],[15.50373,40.84584],[15.50368,40.8458],[15.50311,40.84565],[15.50277,40.84563],[15.5017,40.84576],[15.50077,40.84603],[15.50046,40.84604],[15.5,40.84595]]},"properties":{}},{"type":"Feature","geometry":{"type":"LineString","coordinates":[[15.56828,40.94773],[15.5689,40.94757],[15.56938,40.94751],[15.56968,40.94752],[15.56995,40.94759],[15.57022,40.94771],[15.57052,40.94792],[15.57061,40.94803]]},"properties":{}},{"type":"Feature","geometry":{"type":"LineString","coordinates":[[15.6481,40.99325],[15.64786,40.99315],[15.64737,40.99312],[15.64684,40.99291],[15.64575,40.99273],[15.64557,40.99277],[15.64508,40.99312]]},"properties":{}},{"type":"Feature","geometry":{"type":"LineString","coordinates":[[15.64508,40.99312],[15.64499,40.99317]]},"properties":{}},{"type":"Feature","geometry":{"type":"LineString","coordinates":[[15.64811,40.99325],[15.6481,40.99325]]},"properties":{}},{"type":"Feature","geometry":{"type":"LineString","coordinates":[[15.64821,40.99326],[15.64811,40.99325]]},"properties":{}},{"type":"Feature","geometry":{"type":"LineString","coordinates":[[15.658,40.99351],[15.65808,40.99364]]},"properties":{}},{"type":"Feature","geometry":{"type":"LineString","coordinates":[[15.64499,40.99317],[15.64471,40.99332],[15.64466,40.99344],[15.64468,40.99356],[15.64491,40.99388],[15.64486,40.99403],[15.64475,40.99411],[15.64409,40.99422],[15.64378,40.99435],[15.64371,40.99435],[15.64337,40.99421],[15.64314,40.99421],[15.64282,40.99431],[15.64257,40.99463],[15.64251,40.99465],[15.64194,40.9946]]},"properties":{}},{"type":"Feature","geometry":{"type":"LineString","coordinates":[[15.65677,40.99426],[15.6575,40.99383],[15.65808,40.99364]]},"properties":{}},{"type":"Feature","geometry":{"type":"LineString","coordinates":[[15.64967,40.99468],[15.64983,40.99396],[15.64982,40.99387],[15.64889,40.99355],[15.64876,40.99347],[15.64821,40.99326]]},"properties":{}},{"type":"Feature","geometry":{"type":"LineString","coordinates":[[15.65738,40.99429],[15.65699,40.99412]]},"properties":{}},{"type":"Feature","geometry":{"type":"LineString","coordinates":[[15.65857,40.99415],[15.65825,40.99415],[15.65754,40.99433],[15.65738,40.99429]]},"properties":{}},{"type":"Feature","geometry":{"type":"LineString","coordinates":[[15.65467,40.99502],[15.6552,40.99507],[15.65556,40.99497],[15.65586,40.99471],[15.65623,40.99416],[15.65642,40.99396],[15.65666,40.99377],[15.65692,40.99364],[15.65759,40.99347],[15.65786,40.99346],[15.65797,40.99348],[15.658,40.99351]]},"properties":{}},{"type":"Feature","geometry":{"type":"LineString","coordinates":[[15.65641,40.99477],[15.65658,40.99447],[15.65677,40.99426]]},"properties":{}},{"type":"Feature","geometry":{"type":"LineString","coordinates":[[15.64194,40.9946],[15.64182,40.99457]]},"properties":{}},{"type":"Feature","geometry":{"type":"LineString","coordinates":[[15.65738,40.99429],[15.65689,40.99472],[15.6565,40.99516],[15.65627,40.99508]]},"properties":{}},{"type":"Feature","geometry":{"type":"LineString","coordinates":[[15.64981,40.99478],[15.64982,40.99471],[15.64967,40.99468]]},"properties":{}},{"type":"Feature","geometry":{"type":"LineString","coordinates":[[15.6498,40.99484],[15.64981,40.99478]]},"properties":{}},{"type":"Feature","geometry":{"type":"LineString","coordinates":[[15.65426,40.99476],[15.65467,40.99502]]},"properties":{}},{"type":"Feature","geometry":{"type":"LineString","coordinates":[[15.64973,40.99499],[15.6498,40.99484]]},"properties":{}},{"type":"Feature","geometry":{"type":"LineString","coordinates":[[15.65641,40.99477],[15.65627,40.99508],[15.65594,40.9955]]},"properties":{}},{"type":"Feature","geometry":{"type":"LineString","coordinates":[[15.65509,40.99539],[15.65467,40.99502]]},"properties":{}},{"type":"Feature","geometry":{"type":"LineString","coordinates":[[15.65724,40.99543],[15.65746,40.99525],[15.65788,40.99504],[15.65839,40.99508]]},"properties":{}},{"type":"Feature","geometry":{"type":"LineString","coordinates":[[15.65718,40.99547],[15.6567,40.99534],[15.65653,40.99523],[15.65649,40.99519],[15.6565,40.99516]]},"properties":{}},{"type":"Feature","geometry":{"type":"LineString","coordinates":[[15.64973,40.99499],[15.64954,40.99533],[15.64946,40.99569]]},"properties":{}},{"type":"Feature","geometry":{"type":"LineString","coordinates":[[15.65617,40.99521],[15.657,40.99559],[15.65724,40.99543]]},"properties":{}},{"type":"Feature","geometry":{"type":"LineString","coordinates":[[15.65724,40.99543],[15.65786,40.99574],[15.65819,40.99597]]},"properties":{}},{"type":"Feature","geometry":{"type":"LineString","coordinates":[[15.65815,40.9963],[15.65752,40.99628],[15.65641,40.99635]]},"properties":{}},{"type":"Feature","geometry":{"type":"LineString","coordinates":[[15.65804,40.99666],[15.65755,40.99652],[15.65712,40.99631]]},"properties":{}},{"type":"Feature","geometry":{"type":"LineString","coordinates":[[15.65817,40.99606],[15.65815,40.9963],[15.658,40.99684],[15.65786,40.99705]]},"properties":{}},{"type":"Feature","geometry":{"type":"LineString","coordinates":[[15.65587,40.99714],[15.65585,40.99683],[15.65592,40.99651]]},"properties":{}},{"type":"Feature","geometry":{"type":"LineString","coordinates":[[15.65428,40.99731],[15.65462,40.99739],[15.65466,40.99725],[15.65506,40.9973],[15.65576,40.99722],[15.65585,40.99719],[15.65587,40.99714]]},"properties":{}},{"type":"Feature","geometry":{"type":"LineString","coordinates":[[15.64916,40.99565],[15.64916,40.99581],[15.6492,40.99592],[15.64939,40.99619],[15.64936,40.99626],[15.64921,40.99642],[15.64916,40.99656],[15.64915,40.99673],[15.6492,40.9969],[15.64926,40.99697],[15.64954,40.99712],[15.64971,40.99736],[15.64987,40.99793],[15.65013,40.99844],[15.65001,40.99871],[15.65003,40.99877],[15.65022,40.99897],[15.65032,40.99924],[15.65093,40.99948],[15.65101,40.99954],[15.65104,40.99965],[15.65103,41.0]]},"properties":{}}]}