{"type":"FeatureCollection","features":[{"type":"Feature","geometry":{"type":"LineString","coordinates":[[15.73517,41.25943],[15.73535,41.25953],[15.73724,41.26139],[15.73819,41.26208],[15.75,41.27137]]},"properties":{}},{"type":"Feature","geometry":{"type":"LineString","coordinates":[[15.73815,41.34538],[15.73844,41.34534],[15.73866,41.34522]]},"properties":{}},{"type":"Feature","geometry":{"type":"LineString","coordinates":[[15.73782,41.34524],[15.73815,41.34538]]},"properties":{}},{"type":"Feature","geometry":{"type":"LineString","coordinates":[[15.60577,41.37044],[15.60573,41.37046]]},"properties":{}},{"type":"Feature","geometry":{"type":"LineString","coordinates":[[15.62781,41.37851],[15.62624,41.37845],[15.62535,41.3783],[15.62479,41.37812],[15.61746,41.37471],[15.61192,41.37227],[15.60907,41.3714],[15.60577,41.37044]]},"properties":{}},{"type":"Feature","geometry":{"type":"LineString","coordinates":[[15.60573,41.37046],[15.60548,41.37116],[15.60534,41.37134],[15.60518,41.37142],[15.60514,41.37159],[15.60514,41.3721],[15.60252,41.37892],[15.60239,41.37904],[15.60223,41.37898],[15.60183,41.37857],[15.60177,41.37854],[15.60174,41.37863],[15.60167,41.37863],[15.60159,41.37853],[15.60093,41.37702],[15.60076,41.37675],[15.60026,41.37617],[15.59996,41.37599],[15.59969,41.37587],[15.59941,41.37584],[15.59818,41.3759],[15.59724,41.37588],[15.59697,41.37583],[15.59657,41.37558],[15.59639,41.37539],[15.59618,41.37508],[15.59557,41.37418],[15.59549,41.374],[15.59545,41.37387],[15.59543,41.37308],[15.59493,41.37138],[15.59492,41.37124]]},"properties":{}},{"type":"Feature","geometry":{"type":"LineString","coordinates":[[15.60252,41.37892],[15.60233,41.37943]]},"properties":{}},{"type":"Feature","geometry":{"type":"LineString","coordinates":[[15.71142,41.41958],[15.71157,41.41978]]},"properties":{}},{"type":"Feature","geometry":{"type":"LineString","coordinates":[[15.7115,41.4198],[15.71142,41.41958]]},"properties":{}},{"type":"Feature","geometry":{"type":"LineString","coordinates":[[15.71157,41.41978],[15.71167,41.42002]]},"properties":{}},{"type":"Feature","geometry":{"type":"LineString","coordinates":[[15.71167,41.42002],[15.7115,41.4198]]},"properties":{}},{"type":"Feature","geometry":{"type":"LineString","coordinates":[[15.70831,41.42069],[15.70891,41.42049],[15.7103,41.42009]]},"properties":{}},{"type":"Feature","geometry":{"type":"LineString","coordinates":[[15.71034,41.42015],[15.70831,41.42069]]},"properties":{}},{"type":"Feature","geometry":{"type":"LineString","coordinates":[[15.57193,41.43633],[15.57375,41.43428]]},"properties":{}},{"type":"Feature","geometry":{"type":"LineString","coordinates":[[15.57054,41.43803],[15.57193,41.43633]]},"properties":{}},{"type":"Feature","geometry":{"type":"LineString","coordinates":[[15.54402,41.4405],[15.54425,41.44032],[15.54431,41.44004],[15.54442,41.43991],[15.54457,41.43981],[15.54474,41.43975],[15.54485,41.43966],[15.54504,41.43752],[15.54546,41.43458],[15.54541,41.4345]]},"properties":{}},{"type":"Feature","geometry":{"type":"LineString","coordinates":[[15.56547,41.43761],[15.56423,41.43766],[15.56419,41.43769]]},"properties":{}},{"type":"Feature","geometry":{"type":"LineString","coordinates":[[15.56547,41.43771],[15.56547,41.43761]]},"properties":{}},{"type":"Feature","geometry":{"type":"LineString","coordinates":[[15.56372,41.43768],[15.56423,41.43766]]},"properties":{}},{"type":"Feature","geometry":{"type":"LineString","coordinates":[[15.57019,41.43808],[15.56972,41.43772],[15.56954,41.43767],[15.56718,41.43771],[15.56547,41.43771]]},"properties":{}},{"type":"Feature","geometry":{"type":"LineString","coordinates":[[15.57029,41.43801],[15.57046,41.43798]]},"properties":{}},{"type":"Feature","geometry":{"type":"LineString","coordinates":[[15.57046,41.43798],[15.57054,41.43803]]},"properties":{}},{"type":"Feature","geometry":{"type":"LineString","coordinates":[[15.57019,41.43808],[15.57029,41.43801]]},"properties":{}},{"type":"Feature","geometry":{"type":"LineString","coordinates":[[15.57019,41.43808],[15.5701,41.43814]]},"properties":{}},{"type":"Feature","geometry":{"type":"LineString","coordinates":[[15.56372,41.43768],[15.56311,41.4377],[15.56117,41.43727],[15.55962,41.43676],[15.55953,41.43693],[15.55937,41.43688],[15.5578,41.43952],[15.55778,41.4396]]},"properties":{}},{"type":"Feature","geometry":{"type":"LineString","coordinates":[[15.5701,41.43814],[15.57002,41.4382],[15.57002,41.4383],[15.57008,41.43833]]},"properties":{}},{"type":"Feature","geometry":{"type":"LineString","coordinates":[[15.57008,41.43833],[15.57025,41.43839]]},"properties":{}},{"type":"Feature","geometry":{"type":"LineString","coordinates":[[15.57048,41.43844],[15.57055,41.43839]]},"properties":{}},{"type":"Feature","geometry":{"type":"LineString","coordinates":[[15.57025,41.43839],[15.57037,41.43847]]},"properties":{}},{"type":"Feature","geometry":{"type":"LineString","coordinates":[[15.57037,41.43847],[15.57048,41.43844]]},"properties":{}},{"type":"Feature","geometry":{"type":"LineString","coordinates":[[15.57055,41.43839],[15.57058,41.43837],[15.57144,41.43911]]},"properties":{}},{"type":"Feature","geometry":{"type":"LineString","coordinates":[[15.54537,41.44123],[15.54587,41.44112],[15.54606,41.44105],[15.5463,41.44076],[15.54673,41.44071],[15.54691,41.44065],[15.54698,41.4405],[15.54691,41.43986],[15.54695,41.43969],[15.54703,41.43958],[15.54727,41.43935],[15.54971,41.43789],[15.5516,41.4367],[15.55172,41.43667]]},"properties":{}},{"type":"Feature","geometry":{"type":"LineString","coordinates":[[15.56742,41.43989],[15.56713,41.4402],[15.56691,41.44024],[15.56504,41.43885],[15.56477,41.43866],[15.56432,41.43848],[15.56349,41.43845],[15.56309,41.43859],[15.56315,41.43869]]},"properties":{}},{"type":"Feature","geometry":{"type":"LineString","coordinates":[[15.55777,41.4396],[15.55778,41.43971]]},"properties":{}},{"type":"Feature","geometry":{"type":"LineString","coordinates":[[15.55778,41.43971],[15.55779,41.43977],[15.5575,41.44013],[15.55758,41.44023]]},"properties":{}},{"type":"Feature","geometry":{"type":"LineString","coordinates":[[15.52594,41.44378],[15.52313,41.43926],[15.52305,41.43904],[15.52316,41.43886],[15.52318,41.43872],[15.52418,41.43809],[15.5258,41.43696],[15.52635,41.43655],[15.52647,41.43651],[15.52681,41.43652],[15.52701,41.43666],[15.52859,41.4385],[15.5287,41.43851]]},"properties":{}},{"type":"Feature","geometry":{"type":"LineString","coordinates":[[15.55758,41.44023],[15.55767,41.44027]]},"properties":{}},{"type":"Feature","geometry":{"type":"LineString","coordinates":[[15.55767,41.44027],[15.55768,41.44032],[15.55775,41.44036]]},"properties":{}},{"type":"Feature","geometry":{"type":"LineString","coordinates":[[15.55766,41.44054],[15.55775,41.44036]]},"properties":{}},{"type":"Feature","geometry":{"type":"LineString","coordinates":[[15.55749,41.44058],[15.55766,41.44054]]},"properties":{}},{"type":"Feature","geometry":{"type":"LineString","coordinates":[[15.55735,41.44054],[15.55749,41.44058]]},"properties":{}},{"type":"Feature","geometry":{"type":"LineString","coordinates":[[15.54417,41.44068],[15.54402,41.4405]]},"properties":{}},{"type":"Feature","geometry":{"type":"LineString","coordinates":[[15.56846,41.44075],[15.56829,41.44061]]},"properties":{}},{"type":"Feature","geometry":{"type":"LineString","coordinates":[[15.56177,41.44076],[15.56266,41.44077],[15.56274,41.4408]]},"properties":{}},{"type":"Feature","geometry":{"type":"LineString","coordinates":[[15.54495,41.44081],[15.54507,41.44089]]},"properties":{}},{"type":"Feature","geometry":{"type":"LineString","coordinates":[[15.54298,41.44125],[15.54327,41.44113],[15.54344,41.44104],[15.54351,41.44096],[15.54384,41.4408],[15.54424,41.44066],[15.54444,41.44063],[15.54476,41.44068],[15.54495,41.44081]]},"properties":{}},{"type":"Feature","geometry":{"type":"LineString","coordinates":[[15.54513,41.44115],[15.54537,41.44123]]},"properties":{}},{"type":"Feature","geometry":{"type":"LineString","coordinates":[[15.54507,41.44089],[15.54514,41.44114],[15.54508,41.44127],[15.54492,41.44149]]},"properties":{}},{"type":"Feature","geometry":{"type":"LineString","coordinates":[[15.54272,41.44133],[15.5428,41.44133],[15.54298,41.44125]]},"properties":{}},{"type":"Feature","geometry":{"type":"LineString","coordinates":[[15.57068,41.442],[15.56992,41.4414],[15.56846,41.44075]]},"properties":{}},{"type":"Feature","geometry":{"type":"LineString","coordinates":[[15.5379,41.44176],[15.54159,41.44157],[15.54219,41.4415],[15.54272,41.44133]]},"properties":{}},{"type":"Feature","geometry":{"type":"LineString","coordinates":[[15.53765,41.44177],[15.53776,41.4418],[15.5379,41.44176]]},"properties":{}},{"type":"Feature","geometry":{"type":"LineString","coordinates":[[15.56357,41.44355],[15.56125,41.44197],[15.56017,41.44132],[15.55935,41.44095],[15.55771,41.44044]]},"properties":{}},{"type":"Feature","geometry":{"type":"LineString","coordinates":[[15.57051,41.44224],[15.57063,41.44212],[15.57068,41.442]]},"properties":{}},{"type":"Feature","geometry":{"type":"LineString","coordinates":[[15.5,41.44191],[15.50017,41.44173]]},"properties":{}},{"type":"Feature","geometry":{"type":"LineString","coordinates":[[15.50017,41.44173],[15.5,41.44205]]},"properties":{}},{"type":"Feature","geometry":{"type":"LineString","coordinates":[[15.55735,41.44054],[15.55709,41.44108],[15.55567,41.44347],[15.55559,41.44374],[15.55545,41.44457]]},"properties":{}},{"type":"Feature","geometry":{"type":"LineString","coordinates":[[15.53331,41.44352],[15.53308,41.44289],[15.53308,41.44273],[15.53319,41.44264],[15.53322,41.44245],[15.5334,41.44231],[15.53397,41.44207],[15.5342,41.44201],[15.53471,41.44197],[15.5349,41.44191],[15.53765,41.44177]]},"properties":{}},{"type":"Feature","geometry":{"type":"LineString","coordinates":[[15.54494,41.44436],[15.54492,41.44149]]},"properties":{}},{"type":"Feature","geometry":{"type":"LineString","coordinates":[[15.5,41.44321],[15.50001,41.44321]]},"properties":{}},{"type":"Feature","geometry":{"type":"LineString","coordinates":[[15.50001,41.44321],[15.5,41.44321]]},"properties":{}},{"type":"Feature","geometry":{"type":"LineString","coordinates":[[15.5637,41.44345],[15.56378,41.44347],[15.56392,41.44342]]},"properties":{}},{"type":"Feature","geometry":{"type":"LineString","coordinates":[[15.56392,41.44342],[15.56407,41.44351]]},"properties":{}},{"type":"Feature","geometry":{"type":"LineString","coordinates":[[15.56357,41.44355],[15.5637,41.44345]]},"properties":{}},{"type":"Feature","geometry":{"type":"LineString","coordinates":[[15.56407,41.44351],[15.56419,41.44361]]},"properties":{}},{"type":"Feature","geometry":{"type":"LineString","coordinates":[[15.53336,41.44362],[15.53331,41.44352]]},"properties":{}},{"type":"Feature","geometry":{"type":"LineString","coordinates":[[15.5637,41.44381],[15.56385,41.44372],[15.56394,41.4436]]},"properties":{}},{"type":"Feature","geometry":{"type":"LineString","coordinates":[[15.56419,41.44361],[15.56418,41.44379]]},"properties":{}},{"type":"Feature","geometry":{"type":"LineString","coordinates":[[15.56639,41.44539],[15.56652,41.4454],[15.57051,41.44224]]},"properties":{}},{"type":"Feature","geometry":{"type":"LineString","coordinates":[[15.56418,41.44379],[15.56409,41.44387]]},"properties":{}},{"type":"Feature","geometry":{"type":"LineString","coordinates":[[15.5341,41.44436],[15.53391,41.44434],[15.53372,41.44419],[15.53336,41.44362]]},"properties":{}},{"type":"Feature","geometry":{"type":"LineString","coordinates":[[15.55773,41.44975],[15.55771,41.44973],[15.55954,41.4476],[15.56209,41.44549],[15.56317,41.44432],[15.5637,41.44381],[15.56379,41.44367],[15.56396,41.44358],[15.56813,41.44076],[15.56844,41.44047],[15.56876,41.44012],[15.56949,41.43922],[15.57025,41.43839]]},"properties":{}},{"type":"Feature","geometry":{"type":"LineString","coordinates":[[15.52594,41.44378],[15.52652,41.44472]]},"properties":{}},{"type":"Feature","geometry":{"type":"LineString","coordinates":[[15.56409,41.44387],[15.5653,41.44473]]},"properties":{}},{"type":"Feature","geometry":{"type":"LineString","coordinates":[[15.53425,41.44443],[15.5341,41.44436]]},"properties":{}},{"type":"Feature","geometry":{"type":"LineString","coordinates":[[15.54493,41.44453],[15.54494,41.44433]]},"properties":{}},{"type":"Feature","geometry":{"type":"LineString","coordinates":[[15.53436,41.44457],[15.53425,41.44443]]},"properties":{}},{"type":"Feature","geometry":{"type":"LineString","coordinates":[[15.55545,41.44457],[15.55529,41.44456]]},"properties":{}},{"type":"Feature","geometry":{"type":"LineString","coordinates":[[15.53434,41.44471],[15.53436,41.44457]]},"properties":{}},{"type":"Feature","geometry":{"type":"LineString","coordinates":[[15.56538,41.44468],[15.56548,41.44472]]},"properties":{}},{"type":"Feature","geometry":{"type":"LineString","coordinates":[[15.5653,41.44473],[15.56538,41.44468]]},"properties":{}},{"type":"Feature","geometry":{"type":"LineString","coordinates":[[15.56548,41.44472],[15.5656,41.44479]]},"properties":{}},{"type":"Feature","geometry":{"type":"LineString","coordinates":[[15.55521,41.44496],[15.55529,41.44456]]},"properties":{}},{"type":"Feature","geometry":{"type":"LineString","coordinates":[[15.5342,41.44487],[15.53434,41.44471]]},"properties":{}},{"type":"Feature","geometry":{"type":"LineString","coordinates":[[15.5656,41.44479],[15.56566,41.44488]]},"properties":{}},{"type":"Feature","geometry":{"type":"LineString","coordinates":[[15.534,41.44496],[15.5342,41.44487]]},"properties":{}},{"type":"Feature","geometry":{"type":"LineString","coordinates":[[15.56566,41.44488],[15.56557,41.44496]]},"properties":{}},{"type":"Feature","geometry":{"type":"LineString","coordinates":[[15.55539,41.44497],[15.55521,41.44496]]},"properties":{}},{"type":"Feature","geometry":{"type":"LineString","coordinates":[[15.56557,41.44496],[15.5663,41.44544]]},"properties":{}},{"type":"Feature","geometry":{"type":"LineString","coordinates":[[15.529,41.44581],[15.53012,41.44586],[15.53091,41.44579],[15.53134,41.44566],[15.53353,41.44489],[15.534,41.44496]]},"properties":{}},{"type":"Feature","geometry":{"type":"LineString","coordinates":[[15.5663,41.44544],[15.56639,41.44539]]},"properties":{}},{"type":"Feature","geometry":{"type":"LineString","coordinates":[[15.56652,41.4454],[15.56664,41.44547]]},"properties":{}},{"type":"Feature","geometry":{"type":"LineString","coordinates":[[15.56664,41.44547],[15.56669,41.44559]]},"properties":{}},{"type":"Feature","geometry":{"type":"LineString","coordinates":[[15.56669,41.44559],[15.56659,41.44566]]},"properties":{}},{"type":"Feature","geometry":{"type":"LineString","coordinates":[[15.55558,41.44618],[15.55567,41.44615],[15.55625,41.44544]]},"properties":{}},{"type":"Feature","geometry":{"type":"LineString","coordinates":[[15.52728,41.44588],[15.52743,41.44577],[15.52858,41.4458]]},"properties":{}},{"type":"Feature","geometry":{"type":"LineString","coordinates":[[15.52858,41.4458],[15.52872,41.44586],[15.52889,41.44587],[15.529,41.44581]]},"properties":{}},{"type":"Feature","geometry":{"type":"LineString","coordinates":[[15.52716,41.44594],[15.52728,41.44588]]},"properties":{}},{"type":"Feature","geometry":{"type":"LineString","coordinates":[[15.55809,41.44658],[15.55625,41.44544]]},"properties":{}},{"type":"Feature","geometry":{"type":"LineString","coordinates":[[15.55521,41.44612],[15.55558,41.44618]]},"properties":{}},{"type":"Feature","geometry":{"type":"LineString","coordinates":[[15.55847,41.44687],[15.55809,41.44658]]},"properties":{}},{"type":"Feature","geometry":{"type":"LineString","coordinates":[[15.55539,41.44497],[15.55515,41.44644],[15.55446,41.44763],[15.554,41.44824],[15.55387,41.44833],[15.55345,41.44852]]},"properties":{}},{"type":"Feature","geometry":{"type":"LineString","coordinates":[[15.56659,41.44566],[15.56851,41.44708],[15.56925,41.44789]]},"properties":{}},{"type":"Feature","geometry":{"type":"LineString","coordinates":[[15.55847,41.44687],[15.55896,41.44716]]},"properties":{}},{"type":"Feature","geometry":{"type":"LineString","coordinates":[[15.55896,41.44716],[15.55881,41.44729],[15.55939,41.44756]]},"properties":{}},{"type":"Feature","geometry":{"type":"LineString","coordinates":[[15.55939,41.44756],[15.55952,41.44762]]},"properties":{}},{"type":"Feature","geometry":{"type":"LineString","coordinates":[[15.54461,41.45082],[15.54426,41.45079],[15.54416,41.4507],[15.54419,41.45068],[15.54424,41.4503],[15.54434,41.45023],[15.54493,41.44453]]},"properties":{}},{"type":"Feature","geometry":{"type":"LineString","coordinates":[[15.56937,41.44783],[15.56941,41.44787],[15.56951,41.44787]]},"properties":{}},{"type":"Feature","geometry":{"type":"LineString","coordinates":[[15.56925,41.44789],[15.56937,41.44783]]},"properties":{}},{"type":"Feature","geometry":{"type":"LineString","coordinates":[[15.56951,41.44787],[15.56959,41.44797]]},"properties":{}},{"type":"Feature","geometry":{"type":"LineString","coordinates":[[15.56925,41.44789],[15.56914,41.44795]]},"properties":{}},{"type":"Feature","geometry":{"type":"LineString","coordinates":[[15.56959,41.44797],[15.56956,41.44802],[15.56958,41.44807]]},"properties":{}},{"type":"Feature","geometry":{"type":"LineString","coordinates":[[15.56958,41.44807],[15.56949,41.44812]]},"properties":{}},{"type":"Feature","geometry":{"type":"LineString","coordinates":[[15.56949,41.44812],[15.57023,41.44892]]},"properties":{}},{"type":"Feature","geometry":{"type":"LineString","coordinates":[[15.52716,41.44594],[15.52707,41.44596],[15.52682,41.44592],[15.52668,41.44586],[15.52658,41.44576],[15.52649,41.44574],[15.52537,41.44571],[15.52509,41.44575],[15.52486,41.44571],[15.52407,41.44569],[15.52345,41.44576],[15.52301,41.44588],[15.52244,41.44614],[15.52209,41.4464],[15.52186,41.44662],[15.52125,41.44736],[15.51836,41.45108],[15.51832,41.45117],[15.51835,41.45138],[15.51847,41.45151]]},"properties":{}},{"type":"Feature","geometry":{"type":"LineString","coordinates":[[15.55345,41.44852],[15.55355,41.44865],[15.55342,41.44878]]},"properties":{}},{"type":"Feature","geometry":{"type":"LineString","coordinates":[[15.55342,41.44878],[15.55424,41.44928],[15.55474,41.45043]]},"properties":{}},{"type":"Feature","geometry":{"type":"LineString","coordinates":[[15.56914,41.44795],[15.56917,41.44801],[15.56495,41.45051],[15.5635,41.45143],[15.56271,41.45164],[15.56239,41.45183]]},"properties":{}},{"type":"Feature","geometry":{"type":"LineString","coordinates":[[15.56003,41.44991],[15.55989,41.4499],[15.55979,41.44994],[15.55915,41.4499],[15.55869,41.44994],[15.55795,41.45016],[15.5578,41.44982],[15.55773,41.44975]]},"properties":{}},{"type":"Feature","geometry":{"type":"LineString","coordinates":[[15.53711,41.45022],[15.53789,41.44993],[15.53816,41.44986],[15.54036,41.45008]]},"properties":{}},{"type":"Feature","geometry":{"type":"LineString","coordinates":[[15.55771,41.44973],[15.55713,41.45036],[15.55704,41.45039]]},"properties":{}},{"type":"Feature","geometry":{"type":"LineString","coordinates":[[15.54036,41.45008],[15.54059,41.4501]]},"properties":{}},{"type":"Feature","geometry":{"type":"LineString","coordinates":[[15.54059,41.4501],[15.54182,41.45022],[15.54317,41.45026],[15.54423,41.45038]]},"properties":{}},{"type":"Feature","geometry":{"type":"LineString","coordinates":[[15.53684,41.45033],[15.53711,41.45022]]},"properties":{}},{"type":"Feature","geometry":{"type":"LineString","coordinates":[[15.55704,41.45039],[15.55734,41.45038],[15.55797,41.4502],[15.55795,41.45016]]},"properties":{}},{"type":"Feature","geometry":{"type":"LineString","coordinates":[[15.55704,41.45039],[15.55501,41.45095],[15.55474,41.45043],[15.554,41.45052],[15.55303,41.44998],[15.55248,41.45048]]},"properties":{}},{"type":"Feature","geometry":{"type":"LineString","coordinates":[[15.54785,41.45077],[15.54782,41.45035],[15.54787,41.45034],[15.54992,41.45031],[15.55142,41.45024],[15.55199,41.45027],[15.55213,41.45039],[15.55248,41.45048]]},"properties":{}},{"type":"Feature","geometry":{"type":"LineString","coordinates":[[15.53393,41.45146],[15.53684,41.45033]]},"properties":{}},{"type":"Feature","geometry":{"type":"LineString","coordinates":[[15.56003,41.44991],[15.5602,41.44993],[15.5602,41.44998],[15.56047,41.45019],[15.56088,41.45042],[15.5611,41.45059],[15.56246,41.45189]]},"properties":{}},{"type":"Feature","geometry":{"type":"LineString","coordinates":[[15.54653,41.4515],[15.54687,41.45135],[15.54653,41.45094],[15.54651,41.45088],[15.54657,41.4508],[15.549,41.45075]]},"properties":{}},{"type":"Feature","geometry":{"type":"LineString","coordinates":[[15.54065,41.45131],[15.54068,41.45118],[15.54078,41.45119],[15.5408,41.45103],[15.54119,41.45106],[15.54117,41.45114]]},"properties":{}},{"type":"Feature","geometry":{"type":"LineString","coordinates":[[15.54653,41.4515],[15.54627,41.45161],[15.54579,41.45141],[15.54571,41.45141],[15.54559,41.45149],[15.5455,41.45151],[15.54501,41.45139],[15.54497,41.45136],[15.54496,41.45118],[15.54461,41.45082]]},"properties":{}},{"type":"Feature","geometry":{"type":"LineString","coordinates":[[15.54117,41.45114],[15.54115,41.45121],[15.54239,41.45132],[15.54286,41.45132],[15.54288,41.45124]]},"properties":{}},{"type":"Feature","geometry":{"type":"LineString","coordinates":[[15.54288,41.45124],[15.54298,41.45125]]},"properties":{}},{"type":"Feature","geometry":{"type":"LineString","coordinates":[[15.54298,41.45125],[15.54431,41.45133]]},"properties":{}},{"type":"Feature","geometry":{"type":"LineString","coordinates":[[15.54431,41.45133],[15.54498,41.45138]]},"properties":{}},{"type":"Feature","geometry":{"type":"LineString","coordinates":[[15.53384,41.45136],[15.53393,41.45146]]},"properties":{}},{"type":"Feature","geometry":{"type":"LineString","coordinates":[[15.51836,41.45166],[15.51847,41.45151]]},"properties":{}},{"type":"Feature","geometry":{"type":"LineString","coordinates":[[15.53312,41.45183],[15.53329,41.45179],[15.53384,41.45136]]},"properties":{}},{"type":"Feature","geometry":{"type":"LineString","coordinates":[[15.54057,41.45195],[15.54054,41.4519],[15.54065,41.45131]]},"properties":{}},{"type":"Feature","geometry":{"type":"LineString","coordinates":[[15.53887,41.45304],[15.53711,41.45046]]},"properties":{}},{"type":"Feature","geometry":{"type":"LineString","coordinates":[[15.53286,41.45202],[15.53312,41.45183]]},"properties":{}},{"type":"Feature","geometry":{"type":"LineString","coordinates":[[15.51836,41.45166],[15.52053,41.45263]]},"properties":{}},{"type":"Feature","geometry":{"type":"LineString","coordinates":[[15.54014,41.45259],[15.54023,41.45252],[15.54057,41.45195]]},"properties":{}},{"type":"Feature","geometry":{"type":"LineString","coordinates":[[15.5481,41.45336],[15.54653,41.4515]]},"properties":{}},{"type":"Feature","geometry":{"type":"LineString","coordinates":[[15.53198,41.45287],[15.53285,41.45215],[15.53286,41.45202]]},"properties":{}},{"type":"Feature","geometry":{"type":"LineString","coordinates":[[15.52053,41.45263],[15.52067,41.4527]]},"properties":{}},{"type":"Feature","geometry":{"type":"LineString","coordinates":[[15.53895,41.45301],[15.53894,41.45299],[15.54014,41.45259]]},"properties":{}},{"type":"Feature","geometry":{"type":"LineString","coordinates":[[15.52067,41.4527],[15.52137,41.45302]]},"properties":{}},{"type":"Feature","geometry":{"type":"LineString","coordinates":[[15.5319,41.45293],[15.53198,41.45287]]},"properties":{}},{"type":"Feature","geometry":{"type":"LineString","coordinates":[[15.53182,41.45304],[15.5319,41.45293]]},"properties":{}},{"type":"Feature","geometry":{"type":"LineString","coordinates":[[15.55901,41.45568],[15.55881,41.45461],[15.55867,41.45428],[15.55847,41.45412],[15.55268,41.45066],[15.55246,41.45055],[15.55212,41.45046],[15.55213,41.45039]]},"properties":{}},{"type":"Feature","geometry":{"type":"LineString","coordinates":[[15.53189,41.4531],[15.53182,41.45304]]},"properties":{}},{"type":"Feature","geometry":{"type":"LineString","coordinates":[[15.52137,41.45302],[15.52176,41.45319]]},"properties":{}},{"type":"Feature","geometry":{"type":"LineString","coordinates":[[15.51565,41.45464],[15.51576,41.45432],[15.51603,41.45393],[15.51704,41.45266],[15.5179,41.45166],[15.51809,41.4516],[15.51836,41.45166]]},"properties":{}},{"type":"Feature","geometry":{"type":"LineString","coordinates":[[15.52176,41.45319],[15.52181,41.45321]]},"properties":{}},{"type":"Feature","geometry":{"type":"LineString","coordinates":[[15.53952,41.45376],[15.53895,41.45301]]},"properties":{}},{"type":"Feature","geometry":{"type":"LineString","coordinates":[[15.52181,41.45321],[15.52334,41.4539]]},"properties":{}},{"type":"Feature","geometry":{"type":"LineString","coordinates":[[15.56246,41.45189],[15.56374,41.45312],[15.56361,41.45322],[15.56405,41.45379],[15.56409,41.45396],[15.56403,41.45467],[15.56361,41.45495],[15.56377,41.45508],[15.56359,41.45519],[15.56365,41.45524]]},"properties":{}},{"type":"Feature","geometry":{"type":"LineString","coordinates":[[15.53952,41.45376],[15.53942,41.45382]]},"properties":{}},{"type":"Feature","geometry":{"type":"LineString","coordinates":[[15.52334,41.4539],[15.52341,41.45394]]},"properties":{}},{"type":"Feature","geometry":{"type":"LineString","coordinates":[[15.52942,41.45513],[15.52998,41.45447],[15.53189,41.4531]]},"properties":{}},{"type":"Feature","geometry":{"type":"LineString","coordinates":[[15.53641,41.45517],[15.53671,41.45497],[15.53666,41.45458],[15.53942,41.45382]]},"properties":{}},{"type":"Feature","geometry":{"type":"LineString","coordinates":[[15.52341,41.45394],[15.52585,41.45502],[15.52637,41.45529]]},"properties":{}},{"type":"Feature","geometry":{"type":"LineString","coordinates":[[15.51547,41.45504],[15.51554,41.45495],[15.51568,41.45485],[15.51565,41.45464]]},"properties":{}},{"type":"Feature","geometry":{"type":"LineString","coordinates":[[15.53639,41.45524],[15.53641,41.45517]]},"properties":{}},{"type":"Feature","geometry":{"type":"LineString","coordinates":[[15.52637,41.45529],[15.52647,41.45533]]},"properties":{}},{"type":"Feature","geometry":{"type":"LineString","coordinates":[[15.52647,41.45533],[15.52804,41.4561],[15.52808,41.45634]]},"properties":{}},{"type":"Feature","geometry":{"type":"LineString","coordinates":[[15.52808,41.45634],[15.52826,41.45642]]},"properties":{}},{"type":"Feature","geometry":{"type":"LineString","coordinates":[[15.56366,41.45524],[15.56373,41.4553],[15.56374,41.45543],[15.5636,41.45564],[15.56317,41.45581],[15.56234,41.45677],[15.56212,41.45696],[15.56168,41.45722],[15.56129,41.45739],[15.56026,41.45752],[15.56015,41.45745]]},"properties":{}},{"type":"Feature","geometry":{"type":"LineString","coordinates":[[15.56043,41.45732],[15.55901,41.45568]]},"properties":{}},{"type":"Feature","geometry":{"type":"LineString","coordinates":[[15.52826,41.45642],[15.52836,41.4565],[15.52858,41.45659]]},"properties":{}},{"type":"Feature","geometry":{"type":"LineString","coordinates":[[15.52879,41.45665],[15.52911,41.45654]]},"properties":{}},{"type":"Feature","geometry":{"type":"LineString","coordinates":[[15.52858,41.45659],[15.52879,41.45665]]},"properties":{}},{"type":"Feature","geometry":{"type":"LineString","coordinates":[[15.53387,41.45813],[15.53572,41.4561],[15.53636,41.45533],[15.53639,41.45524]]},"properties":{}},{"type":"Feature","geometry":{"type":"LineString","coordinates":[[15.52783,41.45697],[15.52828,41.45644]]},"properties":{}},{"type":"Feature","geometry":{"type":"LineString","coordinates":[[15.52778,41.45705],[15.52783,41.45697]]},"properties":{}},{"type":"Feature","geometry":{"type":"LineString","coordinates":[[15.55967,41.45688],[15.55858,41.45741]]},"properties":{}},{"type":"Feature","geometry":{"type":"LineString","coordinates":[[15.53184,41.45777],[15.52911,41.45654]]},"properties":{}},{"type":"Feature","geometry":{"type":"LineString","coordinates":[[15.52747,41.45733],[15.52778,41.45705]]},"properties":{}},{"type":"Feature","geometry":{"type":"LineString","coordinates":[[15.5481,41.45336],[15.54817,41.4534],[15.54864,41.45397],[15.54887,41.45409],[15.55297,41.45898],[15.55296,41.45906],[15.55336,41.45953],[15.55342,41.46054],[15.55305,41.46108],[15.55298,41.46111]]},"properties":{}},{"type":"Feature","geometry":{"type":"LineString","coordinates":[[15.52731,41.45728],[15.52747,41.45733]]},"properties":{}},{"type":"Feature","geometry":{"type":"LineString","coordinates":[[15.52707,41.45744],[15.52716,41.45745],[15.52731,41.45728]]},"properties":{}},{"type":"Feature","geometry":{"type":"LineString","coordinates":[[15.56019,41.45748],[15.56043,41.45732]]},"properties":{}},{"type":"Feature","geometry":{"type":"LineString","coordinates":[[15.52695,41.45764],[15.52707,41.45744]]},"properties":{}},{"type":"Feature","geometry":{"type":"LineString","coordinates":[[15.55074,41.45622],[15.55311,41.45904]]},"properties":{}},{"type":"Feature","geometry":{"type":"LineString","coordinates":[[15.53184,41.45777],[15.53196,41.45762]]},"properties":{}},{"type":"Feature","geometry":{"type":"LineString","coordinates":[[15.52689,41.45782],[15.52697,41.45771],[15.52695,41.45764]]},"properties":{}},{"type":"Feature","geometry":{"type":"LineString","coordinates":[[15.52701,41.45786],[15.52689,41.45782]]},"properties":{}},{"type":"Feature","geometry":{"type":"LineString","coordinates":[[15.53196,41.45762],[15.5336,41.45835]]},"properties":{}},{"type":"Feature","geometry":{"type":"LineString","coordinates":[[15.56365,41.45524],[15.56388,41.4551],[15.56402,41.45514],[15.5642,41.46085],[15.55916,41.46106],[15.55895,41.46092],[15.55892,41.46094]]},"properties":{}},{"type":"Feature","geometry":{"type":"LineString","coordinates":[[15.5336,41.45835],[15.53368,41.45832],[15.53387,41.45813]]},"properties":{}},{"type":"Feature","geometry":{"type":"LineString","coordinates":[[15.53133,41.45935],[15.53192,41.45862],[15.53131,41.45834],[15.53184,41.45777]]},"properties":{}},{"type":"Feature","geometry":{"type":"LineString","coordinates":[[15.51184,41.46304],[15.5115,41.46286],[15.51124,41.46265],[15.51101,41.46242],[15.51079,41.46211],[15.51066,41.4618],[15.5106,41.46156],[15.51056,41.46126],[15.51059,41.46098],[15.5107,41.46064],[15.51086,41.46033],[15.51109,41.46],[15.51144,41.45954],[15.513,41.45736],[15.51397,41.45608],[15.51466,41.45542],[15.51494,41.4552],[15.51547,41.45504]]},"properties":{}},{"type":"Feature","geometry":{"type":"LineString","coordinates":[[15.54827,41.45671],[15.55213,41.46141]]},"properties":{}},{"type":"Feature","geometry":{"type":"LineString","coordinates":[[15.55042,41.46128],[15.54992,41.4607],[15.54673,41.45735]]},"properties":{}},{"type":"Feature","geometry":{"type":"LineString","coordinates":[[15.52483,41.46194],[15.5257,41.4608],[15.52506,41.46049],[15.52679,41.45821],[15.52701,41.45786]]},"properties":{}},{"type":"Feature","geometry":{"type":"LineString","coordinates":[[15.52887,41.46126],[15.5288,41.46123],[15.53007,41.45961],[15.5305,41.45897],[15.53245,41.45986]]},"properties":{}},{"type":"Feature","geometry":{"type":"LineString","coordinates":[[15.55305,41.46108],[15.5531,41.4611]]},"properties":{}},{"type":"Feature","geometry":{"type":"LineString","coordinates":[[15.5578,41.46128],[15.55868,41.46125],[15.55995,41.46112],[15.56433,41.46094]]},"properties":{}},{"type":"Feature","geometry":{"type":"LineString","coordinates":[[15.5531,41.4611],[15.55333,41.46134],[15.55839,41.46123],[15.55844,41.46116],[15.55864,41.46115],[15.55864,41.46091],[15.55886,41.4609],[15.55892,41.46094]]},"properties":{}},{"type":"Feature","geometry":{"type":"LineString","coordinates":[[15.55298,41.46111],[15.55289,41.46115],[15.55276,41.4613]]},"properties":{}},{"type":"Feature","geometry":{"type":"LineString","coordinates":[[15.55276,41.4613],[15.5522,41.46134]]},"properties":{}},{"type":"Feature","geometry":{"type":"LineString","coordinates":[[15.55442,41.46137],[15.5578,41.46128]]},"properties":{}},{"type":"Feature","geometry":{"type":"LineString","coordinates":[[15.55213,41.46141],[15.55227,41.46159]]},"properties":{}},{"type":"Feature","geometry":{"type":"LineString","coordinates":[[15.54887,41.46195],[15.55042,41.46128]]},"properties":{}},{"type":"Feature","geometry":{"type":"LineString","coordinates":[[15.55216,41.46236],[15.55187,41.46189],[15.55213,41.46141],[15.55288,41.46138]]},"properties":{}},{"type":"Feature","geometry":{"type":"LineString","coordinates":[[15.5522,41.46134],[15.552,41.46141],[15.55182,41.46182],[15.5518,41.46195],[15.55209,41.46238],[15.5522,41.46242]]},"properties":{}},{"type":"Feature","geometry":{"type":"LineString","coordinates":[[15.54541,41.4617],[15.54517,41.4618],[15.54485,41.46209]]},"properties":{}},{"type":"Feature","geometry":{"type":"LineString","coordinates":[[15.55239,41.46199],[15.55234,41.46193],[15.55233,41.46183]]},"properties":{}},{"type":"Feature","geometry":{"type":"LineString","coordinates":[[15.55291,41.46235],[15.55216,41.46236]]},"properties":{}},{"type":"Feature","geometry":{"type":"LineString","coordinates":[[15.53282,41.46385],[15.53279,41.46385],[15.53278,41.46381],[15.53275,41.46305],[15.53288,41.46202],[15.53292,41.46188],[15.53265,41.46166],[15.53177,41.46123],[15.53101,41.46219],[15.53088,41.46216],[15.52887,41.46126]]},"properties":{}},{"type":"Feature","geometry":{"type":"LineString","coordinates":[[15.53783,41.46308],[15.53772,41.46305],[15.53713,41.46248],[15.53708,41.46236]]},"properties":{}},{"type":"Feature","geometry":{"type":"LineString","coordinates":[[15.53789,41.46313],[15.53863,41.46276]]},"properties":{}},{"type":"Feature","geometry":{"type":"LineString","coordinates":[[15.5121,41.46311],[15.51191,41.46303],[15.51184,41.46304]]},"properties":{}},{"type":"Feature","geometry":{"type":"LineString","coordinates":[[15.53093,41.46217],[15.52959,41.46387],[15.52986,41.46415]]},"properties":{}},{"type":"Feature","geometry":{"type":"LineString","coordinates":[[15.53797,41.46322],[15.53789,41.46313]]},"properties":{}},{"type":"Feature","geometry":{"type":"LineString","coordinates":[[15.53794,41.46332],[15.53791,41.46328],[15.53797,41.46322]]},"properties":{}},{"type":"Feature","geometry":{"type":"LineString","coordinates":[[15.53759,41.4633],[15.53767,41.46338]]},"properties":{}},{"type":"Feature","geometry":{"type":"LineString","coordinates":[[15.52771,41.46398],[15.52775,41.46394],[15.52499,41.4627]]},"properties":{}},{"type":"Feature","geometry":{"type":"LineString","coordinates":[[15.53781,41.46337],[15.53794,41.46332]]},"properties":{}},{"type":"Feature","geometry":{"type":"LineString","coordinates":[[15.53767,41.46338],[15.53774,41.46335],[15.53781,41.46337]]},"properties":{}},{"type":"Feature","geometry":{"type":"LineString","coordinates":[[15.51556,41.46397],[15.51258,41.46331],[15.51214,41.46319],[15.5121,41.46311]]},"properties":{}},{"type":"Feature","geometry":{"type":"LineString","coordinates":[[15.55496,41.465],[15.55498,41.46494],[15.55451,41.46435],[15.55285,41.46239],[15.5522,41.46242]]},"properties":{}},{"type":"Feature","geometry":{"type":"LineString","coordinates":[[15.53282,41.46385],[15.53304,41.46383]]},"properties":{}},{"type":"Feature","geometry":{"type":"LineString","coordinates":[[15.53304,41.46383],[15.5331,41.46386]]},"properties":{}},{"type":"Feature","geometry":{"type":"LineString","coordinates":[[15.5331,41.46386],[15.53308,41.46392]]},"properties":{}},{"type":"Feature","geometry":{"type":"LineString","coordinates":[[15.51556,41.46397],[15.5157,41.46395],[15.51581,41.46398],[15.51584,41.46406]]},"properties":{}},{"type":"Feature","geometry":{"type":"LineString","coordinates":[[15.52821,41.46421],[15.52775,41.46394]]},"properties":{}},{"type":"Feature","geometry":{"type":"LineString","coordinates":[[15.53359,41.46511],[15.53565,41.46438],[15.53759,41.4633]]},"properties":{}},{"type":"Feature","geometry":{"type":"LineString","coordinates":[[15.52988,41.46427],[15.52986,41.46415]]},"properties":{}},{"type":"Feature","geometry":{"type":"LineString","coordinates":[[15.52813,41.46425],[15.52821,41.46421]]},"properties":{}},{"type":"Feature","geometry":{"type":"LineString","coordinates":[[15.528,41.46429],[15.52813,41.46425]]},"properties":{}},{"type":"Feature","geometry":{"type":"LineString","coordinates":[[15.52988,41.46427],[15.52982,41.46427],[15.52982,41.46434]]},"properties":{}},{"type":"Feature","geometry":{"type":"LineString","coordinates":[[15.528,41.46429],[15.52757,41.46436]]},"properties":{}},{"type":"Feature","geometry":{"type":"LineString","coordinates":[[15.52757,41.46436],[15.5275,41.46432]]},"properties":{}},{"type":"Feature","geometry":{"type":"LineString","coordinates":[[15.52982,41.46434],[15.52947,41.46437]]},"properties":{}},{"type":"Feature","geometry":{"type":"LineString","coordinates":[[15.52947,41.46437],[15.52928,41.46433],[15.52844,41.46439]]},"properties":{}},{"type":"Feature","geometry":{"type":"LineString","coordinates":[[15.52806,41.46447],[15.528,41.46429]]},"properties":{}},{"type":"Feature","geometry":{"type":"LineString","coordinates":[[15.52844,41.46439],[15.52833,41.46442]]},"properties":{}},{"type":"Feature","geometry":{"type":"LineString","coordinates":[[15.52833,41.46442],[15.52806,41.46447]]},"properties":{}},{"type":"Feature","geometry":{"type":"LineString","coordinates":[[15.5275,41.46432],[15.52698,41.46437],[15.52488,41.46444],[15.52341,41.46461],[15.52174,41.46474],[15.51881,41.46508]]},"properties":{}},{"type":"Feature","geometry":{"type":"LineString","coordinates":[[15.53308,41.46392],[15.53314,41.46403],[15.53333,41.46477],[15.53349,41.46503],[15.53355,41.46507],[15.5337,41.46526],[15.5342,41.46572],[15.53413,41.46581],[15.53434,41.46598],[15.53445,41.46602],[15.5346,41.46604],[15.53466,41.46613],[15.53528,41.46605],[15.53536,41.46602],[15.53547,41.46604],[15.53569,41.46621],[15.53589,41.46624]]},"properties":{}},{"type":"Feature","geometry":{"type":"LineString","coordinates":[[15.55456,41.46526],[15.55516,41.46502]]},"properties":{}},{"type":"Feature","geometry":{"type":"LineString","coordinates":[[15.55582,41.46476],[15.55584,41.46493],[15.55591,41.46506],[15.55589,41.46518],[15.55585,41.46523],[15.55508,41.46556],[15.5548,41.46564]]},"properties":{}},{"type":"Feature","geometry":{"type":"LineString","coordinates":[[15.53362,41.46527],[15.53368,41.46524]]},"properties":{}},{"type":"Feature","geometry":{"type":"LineString","coordinates":[[15.53331,41.46522],[15.53337,41.46534]]},"properties":{}},{"type":"Feature","geometry":{"type":"LineString","coordinates":[[15.52965,41.46435],[15.52994,41.46623]]},"properties":{}},{"type":"Feature","geometry":{"type":"LineString","coordinates":[[15.53345,41.46534],[15.53362,41.46527]]},"properties":{}},{"type":"Feature","geometry":{"type":"LineString","coordinates":[[15.53337,41.46534],[15.53345,41.46534]]},"properties":{}},{"type":"Feature","geometry":{"type":"LineString","coordinates":[[15.5185,41.46684],[15.51818,41.4667],[15.51806,41.46648],[15.51805,41.46628],[15.51786,41.46606],[15.51744,41.46518],[15.5172,41.46487],[15.51691,41.46461],[15.51659,41.46439],[15.51621,41.46418],[15.51584,41.46406]]},"properties":{}},{"type":"Feature","geometry":{"type":"LineString","coordinates":[[15.5548,41.46564],[15.55456,41.46526]]},"properties":{}},{"type":"Feature","geometry":{"type":"LineString","coordinates":[[15.55452,41.46592],[15.55496,41.46575],[15.555,41.46569],[15.55525,41.4656],[15.55527,41.46553],[15.55536,41.4655],[15.55496,41.465]]},"properties":{}},{"type":"Feature","geometry":{"type":"LineString","coordinates":[[15.55192,41.46616],[15.55424,41.46527]]},"properties":{}},{"type":"Feature","geometry":{"type":"LineString","coordinates":[[15.55446,41.46529],[15.5519,41.46627]]},"properties":{}},{"type":"Feature","geometry":{"type":"LineString","coordinates":[[15.53019,41.46642],[15.53331,41.46522]]},"properties":{}},{"type":"Feature","geometry":{"type":"LineString","coordinates":[[15.54132,41.4662],[15.54205,41.46611],[15.54219,41.46611],[15.54223,41.46617]]},"properties":{}},{"type":"Feature","geometry":{"type":"LineString","coordinates":[[15.55178,41.46619],[15.55192,41.46616]]},"properties":{}},{"type":"Feature","geometry":{"type":"LineString","coordinates":[[15.53589,41.46624],[15.53603,41.46628],[15.53617,41.46627],[15.53719,41.46609]]},"properties":{}},{"type":"Feature","geometry":{"type":"LineString","coordinates":[[15.53719,41.46609],[15.53726,41.46608],[15.53736,41.46631]]},"properties":{}},{"type":"Feature","geometry":{"type":"LineString","coordinates":[[15.55165,41.46623],[15.55178,41.46619]]},"properties":{}},{"type":"Feature","geometry":{"type":"LineString","coordinates":[[15.52994,41.46623],[15.53011,41.46621]]},"properties":{}},{"type":"Feature","geometry":{"type":"LineString","coordinates":[[15.55178,41.46619],[15.55186,41.46623],[15.5519,41.4663]]},"properties":{}},{"type":"Feature","geometry":{"type":"LineString","coordinates":[[15.53011,41.46621],[15.53012,41.46625],[15.53023,41.46629]]},"properties":{}},{"type":"Feature","geometry":{"type":"LineString","coordinates":[[15.55164,41.46637],[15.55161,41.4663],[15.55165,41.46623]]},"properties":{}},{"type":"Feature","geometry":{"type":"LineString","coordinates":[[15.55496,41.465],[15.55451,41.46518],[15.55439,41.46518],[15.55427,41.46522],[15.55192,41.46611],[15.54981,41.46639],[15.54987,41.46659],[15.54937,41.46669],[15.54888,41.46687],[15.54779,41.46741],[15.54754,41.4675],[15.54741,41.46761]]},"properties":{}},{"type":"Feature","geometry":{"type":"LineString","coordinates":[[15.5519,41.4663],[15.55188,41.46636],[15.55181,41.46641]]},"properties":{}},{"type":"Feature","geometry":{"type":"LineString","coordinates":[[15.53023,41.46629],[15.53035,41.46647]]},"properties":{}},{"type":"Feature","geometry":{"type":"LineString","coordinates":[[15.55181,41.46641],[15.55171,41.46641],[15.55164,41.46637]]},"properties":{}},{"type":"Feature","geometry":{"type":"LineString","coordinates":[[15.5491,41.46656],[15.54982,41.46641],[15.55133,41.46623],[15.55165,41.46623]]},"properties":{}},{"type":"Feature","geometry":{"type":"LineString","coordinates":[[15.55164,41.46637],[15.55156,41.46633],[15.55135,41.46632],[15.54985,41.46651],[15.54913,41.46664]]},"properties":{}},{"type":"Feature","geometry":{"type":"LineString","coordinates":[[15.549,41.46661],[15.54903,41.46657],[15.5491,41.46656]]},"properties":{}},{"type":"Feature","geometry":{"type":"LineString","coordinates":[[15.5491,41.46656],[15.54914,41.46661],[15.54911,41.46666],[15.54902,41.46666],[15.549,41.46661]]},"properties":{}},{"type":"Feature","geometry":{"type":"LineString","coordinates":[[15.54867,41.46677],[15.54875,41.46659],[15.54871,41.46648]]},"properties":{}},{"type":"Feature","geometry":{"type":"LineString","coordinates":[[15.53035,41.46647],[15.53023,41.46651],[15.53012,41.46684],[15.53015,41.46689]]},"properties":{}},{"type":"Feature","geometry":{"type":"LineString","coordinates":[[15.54781,41.46607],[15.54727,41.46676],[15.54688,41.46732]]},"properties":{}},{"type":"Feature","geometry":{"type":"LineString","coordinates":[[15.54111,41.46675],[15.54101,41.46675]]},"properties":{}},{"type":"Feature","geometry":{"type":"LineString","coordinates":[[15.54815,41.46704],[15.549,41.46661]]},"properties":{}},{"type":"Feature","geometry":{"type":"LineString","coordinates":[[15.54101,41.46675],[15.54,41.46697]]},"properties":{}},{"type":"Feature","geometry":{"type":"LineString","coordinates":[[15.54138,41.46704],[15.54133,41.46704],[15.54111,41.46675]]},"properties":{}},{"type":"Feature","geometry":{"type":"LineString","coordinates":[[15.54909,41.46667],[15.54822,41.46714]]},"properties":{}},{"type":"Feature","geometry":{"type":"LineString","coordinates":[[15.51856,41.46702],[15.5185,41.46684]]},"properties":{}},{"type":"Feature","geometry":{"type":"LineString","coordinates":[[15.53015,41.46689],[15.52967,41.46698]]},"properties":{}},{"type":"Feature","geometry":{"type":"LineString","coordinates":[[15.54,41.46697],[15.53987,41.46699]]},"properties":{}},{"type":"Feature","geometry":{"type":"LineString","coordinates":[[15.52967,41.46698],[15.52907,41.46711]]},"properties":{}},{"type":"Feature","geometry":{"type":"LineString","coordinates":[[15.54806,41.46708],[15.54815,41.46704]]},"properties":{}},{"type":"Feature","geometry":{"type":"LineString","coordinates":[[15.5415,41.46709],[15.54138,41.46704]]},"properties":{}},{"type":"Feature","geometry":{"type":"LineString","coordinates":[[15.52907,41.46711],[15.52911,41.46725]]},"properties":{}},{"type":"Feature","geometry":{"type":"LineString","coordinates":[[15.53873,41.46718],[15.53864,41.46721]]},"properties":{}},{"type":"Feature","geometry":{"type":"LineString","coordinates":[[15.54688,41.46732],[15.54713,41.46724],[15.54746,41.46729],[15.54766,41.46726],[15.54806,41.46708]]},"properties":{}},{"type":"Feature","geometry":{"type":"LineString","coordinates":[[15.53987,41.46699],[15.53964,41.46706],[15.53928,41.46753]]},"properties":{}},{"type":"Feature","geometry":{"type":"LineString","coordinates":[[15.52911,41.46725],[15.52874,41.46732]]},"properties":{}},{"type":"Feature","geometry":{"type":"LineString","coordinates":[[15.53864,41.46721],[15.53788,41.46737]]},"properties":{}},{"type":"Feature","geometry":{"type":"LineString","coordinates":[[15.52874,41.46732],[15.52863,41.46734]]},"properties":{}},{"type":"Feature","geometry":{"type":"LineString","coordinates":[[15.53919,41.46752],[15.53891,41.46737],[15.53873,41.46718]]},"properties":{}},{"type":"Feature","geometry":{"type":"LineString","coordinates":[[15.54694,41.46748],[15.54688,41.46732]]},"properties":{}},{"type":"Feature","geometry":{"type":"LineString","coordinates":[[15.54709,41.46735],[15.54701,41.46739],[15.54694,41.46748],[15.54687,41.4675]]},"properties":{}},{"type":"Feature","geometry":{"type":"LineString","coordinates":[[15.53736,41.46631],[15.53766,41.46708],[15.53777,41.46729],[15.53845,41.46786],[15.53843,41.46803],[15.53853,41.46816],[15.53833,41.46848],[15.53838,41.46854]]},"properties":{}},{"type":"Feature","geometry":{"type":"LineString","coordinates":[[15.54066,41.46819],[15.54179,41.46672]]},"properties":{}},{"type":"Feature","geometry":{"type":"LineString","coordinates":[[15.5473,41.46756],[15.54709,41.46735]]},"properties":{}},{"type":"Feature","geometry":{"type":"LineString","coordinates":[[15.54694,41.46748],[15.54679,41.46748]]},"properties":{}},{"type":"Feature","geometry":{"type":"LineString","coordinates":[[15.52863,41.46734],[15.52736,41.4676]]},"properties":{}},{"type":"Feature","geometry":{"type":"LineString","coordinates":[[15.54815,41.46717],[15.54736,41.46754],[15.54733,41.4677],[15.54735,41.46779]]},"properties":{}},{"type":"Feature","geometry":{"type":"LineString","coordinates":[[15.53928,41.46753],[15.53919,41.46752]]},"properties":{}},{"type":"Feature","geometry":{"type":"LineString","coordinates":[[15.54741,41.46761],[15.5473,41.46756]]},"properties":{}},{"type":"Feature","geometry":{"type":"LineString","coordinates":[[15.52736,41.4676],[15.52702,41.46765]]},"properties":{}},{"type":"Feature","geometry":{"type":"LineString","coordinates":[[15.54639,41.46798],[15.54667,41.46782],[15.54666,41.4677],[15.54687,41.4675]]},"properties":{}},{"type":"Feature","geometry":{"type":"LineString","coordinates":[[15.52702,41.46765],[15.52432,41.4682]]},"properties":{}},{"type":"Feature","geometry":{"type":"LineString","coordinates":[[15.54505,41.46863],[15.5461,41.46801],[15.54688,41.46732]]},"properties":{}},{"type":"Feature","geometry":{"type":"LineString","coordinates":[[15.54688,41.46732],[15.54679,41.46748],[15.54616,41.46806],[15.54552,41.46843],[15.54505,41.46863]]},"properties":{}},{"type":"Feature","geometry":{"type":"LineString","coordinates":[[15.51974,41.46899],[15.51943,41.46903],[15.51928,41.46902],[15.51899,41.46887],[15.51845,41.46739],[15.51841,41.46719],[15.51856,41.46702]]},"properties":{}},{"type":"Feature","geometry":{"type":"LineString","coordinates":[[15.52432,41.4682],[15.52419,41.46822]]},"properties":{}},{"type":"Feature","geometry":{"type":"LineString","coordinates":[[15.54061,41.46827],[15.54066,41.46819]]},"properties":{}},{"type":"Feature","geometry":{"type":"LineString","coordinates":[[15.52419,41.46822],[15.52408,41.46824]]},"properties":{}},{"type":"Feature","geometry":{"type":"LineString","coordinates":[[15.52408,41.46824],[15.52395,41.46827]]},"properties":{}},{"type":"Feature","geometry":{"type":"LineString","coordinates":[[15.52395,41.46827],[15.52359,41.46834]]},"properties":{}},{"type":"Feature","geometry":{"type":"LineString","coordinates":[[15.52359,41.46834],[15.52341,41.46837]]},"properties":{}},{"type":"Feature","geometry":{"type":"LineString","coordinates":[[15.52341,41.46837],[15.5233,41.4684]]},"properties":{}},{"type":"Feature","geometry":{"type":"LineString","coordinates":[[15.5233,41.4684],[15.52314,41.46843]]},"properties":{}},{"type":"Feature","geometry":{"type":"LineString","coordinates":[[15.52314,41.46843],[15.52299,41.46846]]},"properties":{}},{"type":"Feature","geometry":{"type":"LineString","coordinates":[[15.52299,41.46846],[15.5206,41.46894]]},"properties":{}},{"type":"Feature","geometry":{"type":"LineString","coordinates":[[15.53986,41.46921],[15.54061,41.46827]]},"properties":{}},{"type":"Feature","geometry":{"type":"LineString","coordinates":[[15.5206,41.46894],[15.51978,41.46911]]},"properties":{}},{"type":"Feature","geometry":{"type":"LineString","coordinates":[[15.51978,41.46911],[15.51974,41.46899]]},"properties":{}},{"type":"Feature","geometry":{"type":"LineString","coordinates":[[15.54639,41.46798],[15.54637,41.46804],[15.54562,41.46847],[15.54173,41.47039],[15.54141,41.47001],[15.53943,41.46909],[15.53941,41.46905],[15.5393,41.46901],[15.53932,41.46898]]},"properties":{}},{"type":"Feature","geometry":{"type":"LineString","coordinates":[[15.53981,41.46926],[15.53986,41.46921]]},"properties":{}},{"type":"Feature","geometry":{"type":"LineString","coordinates":[[15.50641,41.46846],[15.50661,41.4687],[15.50707,41.46942],[15.50759,41.47037],[15.50778,41.47054],[15.50804,41.47068]]},"properties":{}},{"type":"Feature","geometry":{"type":"LineString","coordinates":[[15.53981,41.46926],[15.53914,41.47016]]},"properties":{}},{"type":"Feature","geometry":{"type":"LineString","coordinates":[[15.50694,41.47098],[15.50703,41.47073],[15.50703,41.47048],[15.50641,41.46846]]},"properties":{}},{"type":"Feature","geometry":{"type":"LineString","coordinates":[[15.53902,41.47012],[15.53894,41.47012]]},"properties":{}},{"type":"Feature","geometry":{"type":"LineString","coordinates":[[15.53914,41.47016],[15.53902,41.47012]]},"properties":{}},{"type":"Feature","geometry":{"type":"LineString","coordinates":[[15.53894,41.47012],[15.53881,41.47017]]},"properties":{}},{"type":"Feature","geometry":{"type":"LineString","coordinates":[[15.53267,41.47013],[15.5326,41.4702]]},"properties":{}},{"type":"Feature","geometry":{"type":"LineString","coordinates":[[15.53666,41.47088],[15.53279,41.47003],[15.53267,41.47013]]},"properties":{}},{"type":"Feature","geometry":{"type":"LineString","coordinates":[[15.5326,41.4702],[15.53237,41.47077]]},"properties":{}},{"type":"Feature","geometry":{"type":"LineString","coordinates":[[15.53881,41.47017],[15.53875,41.47018],[15.53877,41.47035],[15.53853,41.47067],[15.53831,41.47066],[15.53789,41.47124],[15.5369,41.47085]]},"properties":{}},{"type":"Feature","geometry":{"type":"LineString","coordinates":[[15.50804,41.47068],[15.50885,41.47099]]},"properties":{}},{"type":"Feature","geometry":{"type":"LineString","coordinates":[[15.5369,41.47085],[15.53683,41.47089],[15.53666,41.47088]]},"properties":{}},{"type":"Feature","geometry":{"type":"LineString","coordinates":[[15.53237,41.47077],[15.53232,41.47103]]},"properties":{}},{"type":"Feature","geometry":{"type":"LineString","coordinates":[[15.50885,41.47099],[15.50913,41.47104],[15.50975,41.47102]]},"properties":{}},{"type":"Feature","geometry":{"type":"LineString","coordinates":[[15.50671,41.47128],[15.50694,41.47098]]},"properties":{}},{"type":"Feature","geometry":{"type":"LineString","coordinates":[[15.50885,41.47099],[15.50899,41.4712],[15.50903,41.47132],[15.509,41.47148]]},"properties":{}},{"type":"Feature","geometry":{"type":"LineString","coordinates":[[15.50975,41.47102],[15.50945,41.4711],[15.50919,41.47125],[15.509,41.47148]]},"properties":{}},{"type":"Feature","geometry":{"type":"LineString","coordinates":[[15.53232,41.47103],[15.53229,41.47153]]},"properties":{}},{"type":"Feature","geometry":{"type":"LineString","coordinates":[[15.53875,41.47148],[15.53817,41.47144],[15.53803,41.47148]]},"properties":{}},{"type":"Feature","geometry":{"type":"LineString","coordinates":[[15.53885,41.47148],[15.53875,41.47148]]},"properties":{}},{"type":"Feature","geometry":{"type":"LineString","coordinates":[[15.5069,41.47198],[15.50675,41.47188],[15.50666,41.47178],[15.5066,41.47163],[15.5066,41.4715],[15.50671,41.47128]]},"properties":{}},{"type":"Feature","geometry":{"type":"LineString","coordinates":[[15.509,41.47148],[15.50867,41.47212]]},"properties":{}},{"type":"Feature","geometry":{"type":"LineString","coordinates":[[15.50768,41.4723],[15.5069,41.47198]]},"properties":{}},{"type":"Feature","geometry":{"type":"LineString","coordinates":[[15.50867,41.47212],[15.50865,41.47241],[15.50872,41.47267],[15.50915,41.4737],[15.5092,41.47422]]},"properties":{}},{"type":"Feature","geometry":{"type":"LineString","coordinates":[[15.5092,41.47422],[15.50889,41.47388],[15.50854,41.47331],[15.50801,41.47255],[15.50768,41.4723]]},"properties":{}},{"type":"Feature","geometry":{"type":"LineString","coordinates":[[15.55779,41.48035],[15.55701,41.47997],[15.55573,41.47947],[15.55505,41.47925],[15.5545,41.47899],[15.55402,41.47864],[15.55364,41.47824],[15.55221,41.47641],[15.55,41.47374],[15.54964,41.47319],[15.54952,41.47288],[15.54951,41.47254],[15.54976,41.47163]]},"properties":{}},{"type":"Feature","geometry":{"type":"LineString","coordinates":[[15.55778,41.47969],[15.55783,41.47985],[15.55776,41.47999],[15.55751,41.4801],[15.55723,41.48007]]},"properties":{}},{"type":"Feature","geometry":{"type":"LineString","coordinates":[[15.55779,41.48035],[15.5577,41.4802],[15.55772,41.48013],[15.55779,41.48006],[15.55796,41.48004],[15.55818,41.48014]]},"properties":{}},{"type":"Feature","geometry":{"type":"LineString","coordinates":[[15.55818,41.48014],[15.56591,41.48889]]},"properties":{}},{"type":"Feature","geometry":{"type":"LineString","coordinates":[[15.5658,41.48894],[15.55905,41.48131],[15.55859,41.4809],[15.55779,41.48035]]},"properties":{}},{"type":"Feature","geometry":{"type":"LineString","coordinates":[[15.52296,41.49015],[15.52302,41.49025],[15.52312,41.49033],[15.52345,41.4904]]},"properties":{}},{"type":"Feature","geometry":{"type":"LineString","coordinates":[[15.52345,41.4904],[15.52369,41.49031]]},"properties":{}},{"type":"Feature","geometry":{"type":"LineString","coordinates":[[15.52369,41.49031],[15.52353,41.49057],[15.52344,41.49064]]},"properties":{}},{"type":"Feature","geometry":{"type":"LineString","coordinates":[[15.52291,41.49062],[15.52308,41.49052],[15.52345,41.4904]]},"properties":{}},{"type":"Feature","geometry":{"type":"LineString","coordinates":[[15.52344,41.49064],[15.52333,41.49073]]},"properties":{}},{"type":"Feature","geometry":{"type":"LineString","coordinates":[[15.52344,41.49064],[15.52312,41.49077],[15.52298,41.49077],[15.52289,41.49072]]},"properties":{}},{"type":"Feature","geometry":{"type":"LineString","coordinates":[[15.52333,41.49073],[15.5228,41.49117]]},"properties":{}},{"type":"Feature","geometry":{"type":"LineString","coordinates":[[15.52018,41.4961],[15.52001,41.49668],[15.51998,41.49688],[15.52004,41.49711],[15.52017,41.49732],[15.5204,41.49753],[15.52069,41.49768],[15.52113,41.49777],[15.5218,41.49786]]},"properties":{}},{"type":"Feature","geometry":{"type":"LineString","coordinates":[[15.51731,41.4984],[15.51741,41.49856],[15.51762,41.49872],[15.51775,41.49878],[15.51796,41.49883],[15.51823,41.49881],[15.5184,41.49876],[15.51863,41.49861],[15.51882,41.49843],[15.51922,41.49794]]},"properties":{}},{"type":"Feature","geometry":{"type":"LineString","coordinates":[[15.5218,41.49786],[15.52109,41.49787],[15.52033,41.49793],[15.52,41.49798],[15.51968,41.49808],[15.51937,41.49824],[15.51911,41.49846],[15.5186,41.49912]]},"properties":{}},{"type":"Feature","geometry":{"type":"LineString","coordinates":[[15.51801,41.5],[15.51804,41.49971],[15.51795,41.49938],[15.51787,41.49924],[15.51742,41.49867],[15.51731,41.4984]]},"properties":{}}]}