{"type":"FeatureCollection","features":[{"type":"Feature","geometry":{"type":"LineString","coordinates":[[15.84123,38.31005],[15.84153,38.31006]]},"properties":{}},{"type":"Feature","geometry":{"type":"LineString","coordinates":[[15.84153,38.31006],[15.84128,38.31017]]},"properties":{}},{"type":"Feature","geometry":{"type":"LineString","coordinates":[[15.84051,38.3102],[15.84095,38.31009]]},"properties":{}},{"type":"Feature","geometry":{"type":"LineString","coordinates":[[15.84127,38.31021],[15.84119,38.31027],[15.84107,38.31028],[15.84097,38.31023],[15.84094,38.31013],[15.84103,38.31003],[15.84119,38.31002],[15.84127,38.31008],[15.84127,38.31021]]},"properties":{}},{"type":"Feature","geometry":{"type":"LineString","coordinates":[[15.84095,38.3102],[15.84051,38.3102]]},"properties":{}},{"type":"Feature","geometry":{"type":"LineString","coordinates":[[15.8449,38.31014],[15.84509,38.31024],[15.84566,38.31072]]},"properties":{}},{"type":"Feature","geometry":{"type":"LineString","coordinates":[[15.84548,38.31081],[15.84541,38.31064],[15.8449,38.31014]]},"properties":{}},{"type":"Feature","geometry":{"type":"LineString","coordinates":[[15.84577,38.31075],[15.846,38.31079]]},"properties":{}},{"type":"Feature","geometry":{"type":"LineString","coordinates":[[15.846,38.31079],[15.84582,38.31089]]},"properties":{}},{"type":"Feature","geometry":{"type":"LineString","coordinates":[[15.84553,38.31095],[15.84547,38.31085],[15.8455,38.31078],[15.84557,38.31073],[15.84573,38.31074],[15.84582,38.31082],[15.84582,38.31089],[15.84574,38.31097],[15.84562,38.31099],[15.84553,38.31095]]},"properties":{}},{"type":"Feature","geometry":{"type":"LineString","coordinates":[[15.84574,38.31097],[15.84565,38.31126]]},"properties":{}},{"type":"Feature","geometry":{"type":"LineString","coordinates":[[15.84565,38.31126],[15.84563,38.31111],[15.84556,38.31098]]},"properties":{}},{"type":"Feature","geometry":{"type":"LineString","coordinates":[[15.84559,38.31155],[15.84565,38.31167],[15.84575,38.31178]]},"properties":{}},{"type":"Feature","geometry":{"type":"LineString","coordinates":[[15.84575,38.31178],[15.84596,38.31182]]},"properties":{}},{"type":"Feature","geometry":{"type":"LineString","coordinates":[[15.84553,38.31184],[15.84575,38.31178]]},"properties":{}},{"type":"Feature","geometry":{"type":"LineString","coordinates":[[15.84596,38.31182],[15.8457,38.31191]]},"properties":{}},{"type":"Feature","geometry":{"type":"LineString","coordinates":[[15.8457,38.31191],[15.84553,38.31184]]},"properties":{}},{"type":"Feature","geometry":{"type":"LineString","coordinates":[[15.8457,38.31191],[15.84556,38.312],[15.84548,38.3121]]},"properties":{}},{"type":"Feature","geometry":{"type":"LineString","coordinates":[[15.84715,38.31251],[15.84696,38.3122],[15.84669,38.31196],[15.84647,38.31187],[15.8461,38.3118]]},"properties":{}},{"type":"Feature","geometry":{"type":"LineString","coordinates":[[15.84774,38.33362],[15.84772,38.33371],[15.84762,38.33377]]},"properties":{}},{"type":"Feature","geometry":{"type":"LineString","coordinates":[[15.84762,38.33377],[15.84765,38.33367],[15.84774,38.33362]]},"properties":{}},{"type":"Feature","geometry":{"type":"LineString","coordinates":[[15.85823,38.36518],[15.85835,38.36526]]},"properties":{}},{"type":"Feature","geometry":{"type":"LineString","coordinates":[[15.85826,38.36531],[15.85823,38.36518]]},"properties":{}},{"type":"Feature","geometry":{"type":"LineString","coordinates":[[15.85825,38.36534],[15.85835,38.36526],[15.85848,38.36526],[15.85858,38.36534],[15.85859,38.36542],[15.85853,38.3655],[15.85837,38.36553],[15.85826,38.36547],[15.85823,38.3654],[15.85825,38.36534]]},"properties":{}},{"type":"Feature","geometry":{"type":"LineString","coordinates":[[15.86111,38.36888],[15.86116,38.36877],[15.86117,38.36864]]},"properties":{}},{"type":"Feature","geometry":{"type":"LineString","coordinates":[[15.86132,38.36882],[15.86129,38.36888],[15.86119,38.36892]]},"properties":{}},{"type":"Feature","geometry":{"type":"LineString","coordinates":[[15.86104,38.36892],[15.86132,38.36882]]},"properties":{}},{"type":"Feature","geometry":{"type":"LineString","coordinates":[[15.86155,38.36911],[15.8613,38.36893],[15.86104,38.36892]]},"properties":{}},{"type":"Feature","geometry":{"type":"LineString","coordinates":[[15.93813,38.39695],[15.93795,38.39699],[15.93782,38.39708],[15.93651,38.39824],[15.93643,38.39826]]},"properties":{}},{"type":"Feature","geometry":{"type":"LineString","coordinates":[[15.91817,38.40772],[15.9178,38.40804],[15.91772,38.40818],[15.9177,38.40829]]},"properties":{}},{"type":"Feature","geometry":{"type":"LineString","coordinates":[[15.9177,38.40829],[15.91777,38.40849]]},"properties":{}},{"type":"Feature","geometry":{"type":"LineString","coordinates":[[15.9008,38.42259],[15.90093,38.42252],[15.9011,38.42234]]},"properties":{}},{"type":"Feature","geometry":{"type":"LineString","coordinates":[[15.9011,38.42234],[15.90097,38.42254],[15.90093,38.42266]]},"properties":{}},{"type":"Feature","geometry":{"type":"LineString","coordinates":[[15.90051,38.42254],[15.90076,38.4226]]},"properties":{}},{"type":"Feature","geometry":{"type":"LineString","coordinates":[[15.90076,38.4226],[15.9008,38.42259]]},"properties":{}},{"type":"Feature","geometry":{"type":"LineString","coordinates":[[15.90067,38.42271],[15.90051,38.42254]]},"properties":{}},{"type":"Feature","geometry":{"type":"LineString","coordinates":[[15.9008,38.42259],[15.90088,38.42261],[15.90093,38.42266]]},"properties":{}},{"type":"Feature","geometry":{"type":"LineString","coordinates":[[15.90067,38.42271],[15.90069,38.42264],[15.90076,38.4226]]},"properties":{}},{"type":"Feature","geometry":{"type":"LineString","coordinates":[[15.90093,38.42266],[15.90092,38.42275],[15.90084,38.4228],[15.90071,38.42277],[15.90067,38.42271]]},"properties":{}},{"type":"Feature","geometry":{"type":"LineString","coordinates":[[15.90094,38.4227],[15.90099,38.42279],[15.90122,38.42295]]},"properties":{}},{"type":"Feature","geometry":{"type":"LineString","coordinates":[[15.90122,38.42295],[15.90085,38.4228]]},"properties":{}},{"type":"Feature","geometry":{"type":"LineString","coordinates":[[15.90394,38.42484],[15.9043,38.42484]]},"properties":{}},{"type":"Feature","geometry":{"type":"LineString","coordinates":[[15.9043,38.42484],[15.90422,38.42502],[15.90421,38.42514]]},"properties":{}},{"type":"Feature","geometry":{"type":"LineString","coordinates":[[15.88007,38.42513],[15.88061,38.42622],[15.88249,38.42942]]},"properties":{}},{"type":"Feature","geometry":{"type":"LineString","coordinates":[[15.90472,38.42829],[15.90516,38.428]]},"properties":{}},{"type":"Feature","geometry":{"type":"LineString","coordinates":[[15.88286,38.43007],[15.88305,38.43029],[15.8836,38.43082],[15.88459,38.43163]]},"properties":{}},{"type":"Feature","geometry":{"type":"LineString","coordinates":[[15.91297,38.47807],[15.91291,38.47812],[15.91292,38.47819],[15.91349,38.48241],[15.91358,38.48283],[15.91594,38.49031],[15.91598,38.49034]]},"properties":{}},{"type":"Feature","geometry":{"type":"LineString","coordinates":[[15.97271,38.48509],[15.97295,38.48528]]},"properties":{}},{"type":"Feature","geometry":{"type":"LineString","coordinates":[[15.97275,38.48532],[15.97271,38.48509]]},"properties":{}},{"type":"Feature","geometry":{"type":"LineString","coordinates":[[15.97275,38.48532],[15.97286,38.48527],[15.97295,38.48528]]},"properties":{}},{"type":"Feature","geometry":{"type":"LineString","coordinates":[[15.97295,38.48528],[15.973,38.48532]]},"properties":{}},{"type":"Feature","geometry":{"type":"LineString","coordinates":[[15.97273,38.48538],[15.97275,38.48532]]},"properties":{}},{"type":"Feature","geometry":{"type":"LineString","coordinates":[[15.973,38.48532],[15.97302,38.48539]]},"properties":{}},{"type":"Feature","geometry":{"type":"LineString","coordinates":[[15.973,38.48532],[15.97316,38.48537],[15.97337,38.48539]]},"properties":{}},{"type":"Feature","geometry":{"type":"LineString","coordinates":[[15.97302,38.48539],[15.97295,38.48547]]},"properties":{}},{"type":"Feature","geometry":{"type":"LineString","coordinates":[[15.97288,38.48549],[15.97276,38.48544],[15.97273,38.48538]]},"properties":{}},{"type":"Feature","geometry":{"type":"LineString","coordinates":[[15.97337,38.48539],[15.97295,38.48547]]},"properties":{}},{"type":"Feature","geometry":{"type":"LineString","coordinates":[[15.97295,38.48547],[15.97288,38.48549]]},"properties":{}},{"type":"Feature","geometry":{"type":"LineString","coordinates":[[15.97263,38.4858],[15.97273,38.48538]]},"properties":{}},{"type":"Feature","geometry":{"type":"LineString","coordinates":[[15.97288,38.48549],[15.97277,38.48557],[15.97263,38.4858]]},"properties":{}}]}