{"type":"FeatureCollection","features":[{"type":"Feature","geometry":{"type":"LineString","coordinates":[[16.18067,39.83374],[16.18124,39.83368],[16.18166,39.8336],[16.18213,39.83341],[16.18253,39.83312],[16.18345,39.83232],[16.18514,39.83106],[16.18549,39.83071],[16.18568,39.83045],[16.18582,39.83018],[16.18596,39.82976],[16.18623,39.82838],[16.18691,39.8265],[16.18719,39.8261],[16.18758,39.82581],[16.18802,39.8256],[16.18904,39.82541],[16.18959,39.82512],[16.1901,39.82497],[16.19107,39.8245],[16.19382,39.82141],[16.19409,39.82106],[16.19475,39.82006]]},"properties":{}},{"type":"Feature","geometry":{"type":"LineString","coordinates":[[16.18052,39.83375],[16.18067,39.83374]]},"properties":{}},{"type":"Feature","geometry":{"type":"LineString","coordinates":[[16.14806,39.84451],[16.14833,39.8443],[16.14853,39.84408],[16.14868,39.84385],[16.14875,39.84365],[16.14881,39.84332],[16.14865,39.84224],[16.14869,39.84191],[16.14878,39.84166],[16.14894,39.84141],[16.14931,39.8411],[16.15028,39.8406],[16.15095,39.84016],[16.15261,39.83859],[16.15281,39.83848],[16.15309,39.83841],[16.1535,39.83839],[16.15467,39.83876],[16.15506,39.83883],[16.15532,39.83883],[16.15573,39.83873],[16.15598,39.83861],[16.1562,39.83846],[16.15771,39.83723],[16.15799,39.83707],[16.15931,39.83652],[16.1596,39.83623],[16.15979,39.83588],[16.15984,39.83543],[16.15973,39.83499],[16.15953,39.83456],[16.15949,39.83439],[16.15955,39.83407],[16.15963,39.83393],[16.15997,39.83361],[16.16098,39.83324],[16.16133,39.83301],[16.16147,39.83283],[16.16178,39.83218],[16.16191,39.83201],[16.16208,39.83187],[16.1623,39.83177],[16.16252,39.8317],[16.16294,39.83166],[16.16337,39.83175],[16.16356,39.83184],[16.16391,39.83215],[16.16415,39.8328],[16.16428,39.83308],[16.16438,39.8332],[16.1645,39.83331],[16.16474,39.83346],[16.16525,39.83357],[16.1657,39.83354],[16.16601,39.8334],[16.16621,39.83324],[16.16668,39.83274],[16.16702,39.83255],[16.16755,39.83241],[16.16799,39.83244],[16.16828,39.83253],[16.17014,39.83348],[16.17049,39.83357],[16.17071,39.8336],[16.17093,39.83359],[16.17129,39.8335],[16.17303,39.83301],[16.17371,39.83289],[16.17423,39.8329],[16.17466,39.83297],[16.17603,39.8334],[16.1777,39.834],[16.17812,39.8341],[16.17848,39.83412],[16.17874,39.8341],[16.17973,39.83383],[16.18,39.83378],[16.18052,39.83375]]},"properties":{}},{"type":"Feature","geometry":{"type":"LineString","coordinates":[[16.12249,39.84788],[16.12275,39.84769]]},"properties":{}},{"type":"Feature","geometry":{"type":"LineString","coordinates":[[16.11703,39.84816],[16.11713,39.84831]]},"properties":{}},{"type":"Feature","geometry":{"type":"LineString","coordinates":[[16.11713,39.84831],[16.1179,39.84938]]},"properties":{}},{"type":"Feature","geometry":{"type":"LineString","coordinates":[[16.12026,39.85169],[16.12092,39.85154],[16.12138,39.85128],[16.12159,39.85102],[16.12178,39.85068],[16.12173,39.85027],[16.12128,39.84941],[16.12124,39.84923],[16.12129,39.84901],[16.12148,39.84868],[16.12249,39.84788]]},"properties":{}},{"type":"Feature","geometry":{"type":"LineString","coordinates":[[16.1179,39.84938],[16.119,39.85074],[16.11998,39.85164],[16.12026,39.85169]]},"properties":{}},{"type":"Feature","geometry":{"type":"LineString","coordinates":[[16.11426,39.85592],[16.11459,39.85362],[16.11471,39.85326],[16.11475,39.8529],[16.11473,39.85258],[16.11462,39.85226],[16.11438,39.85202]]},"properties":{}},{"type":"Feature","geometry":{"type":"LineString","coordinates":[[16.11428,39.85603],[16.11426,39.85592]]},"properties":{}},{"type":"Feature","geometry":{"type":"LineString","coordinates":[[16.11391,39.86059],[16.11409,39.86047],[16.11425,39.86032],[16.11501,39.85935],[16.11525,39.85882],[16.11543,39.85832],[16.11543,39.85803],[16.11539,39.85776],[16.11518,39.8573],[16.11428,39.85603]]},"properties":{}},{"type":"Feature","geometry":{"type":"LineString","coordinates":[[16.09014,39.86077],[16.09097,39.86055],[16.09142,39.86037],[16.09196,39.86011],[16.09272,39.8596],[16.09345,39.85918],[16.09389,39.85907],[16.09435,39.85906],[16.09475,39.85917],[16.09497,39.85929]]},"properties":{}},{"type":"Feature","geometry":{"type":"LineString","coordinates":[[16.09497,39.85929],[16.09569,39.85975],[16.09661,39.86046],[16.09738,39.86094],[16.09828,39.86143]]},"properties":{}},{"type":"Feature","geometry":{"type":"LineString","coordinates":[[16.11259,39.86123],[16.11318,39.86099],[16.11391,39.86059]]},"properties":{}},{"type":"Feature","geometry":{"type":"LineString","coordinates":[[16.08539,39.86133],[16.08671,39.86093],[16.08722,39.86083],[16.08812,39.86076],[16.0898,39.86081],[16.09014,39.86077]]},"properties":{}},{"type":"Feature","geometry":{"type":"LineString","coordinates":[[16.08501,39.86147],[16.08539,39.86133]]},"properties":{}},{"type":"Feature","geometry":{"type":"LineString","coordinates":[[16.09828,39.86143],[16.09871,39.86171],[16.09894,39.86192],[16.09912,39.86216],[16.0993,39.86261],[16.09935,39.86287],[16.09921,39.86459],[16.09922,39.86512],[16.09941,39.86546],[16.09968,39.86575],[16.0999,39.86591],[16.10015,39.86604],[16.10066,39.86618],[16.10096,39.86619],[16.10172,39.86606],[16.10288,39.86572],[16.10339,39.8655],[16.10381,39.86525],[16.10608,39.86357],[16.10643,39.8633],[16.10693,39.86276],[16.10735,39.86248],[16.10936,39.86165],[16.10992,39.86146],[16.11022,39.86142],[16.11171,39.86149],[16.11221,39.86138],[16.11259,39.86123]]},"properties":{}},{"type":"Feature","geometry":{"type":"LineString","coordinates":[[16.06485,39.87283],[16.06796,39.86925],[16.06911,39.86799],[16.06948,39.86777],[16.06994,39.8676],[16.07061,39.86745],[16.07118,39.86746],[16.07257,39.86785],[16.07363,39.86808],[16.07426,39.86801],[16.0747,39.86787],[16.07511,39.86767],[16.07541,39.86745],[16.07853,39.8643],[16.07915,39.86373],[16.07964,39.86339],[16.08157,39.8626],[16.08357,39.86197],[16.08501,39.86147]]},"properties":{}},{"type":"Feature","geometry":{"type":"LineString","coordinates":[[16.06378,39.87392],[16.06407,39.87357]]},"properties":{}},{"type":"Feature","geometry":{"type":"LineString","coordinates":[[16.06224,39.87545],[16.06255,39.87529],[16.06287,39.87499],[16.06378,39.87392]]},"properties":{}},{"type":"Feature","geometry":{"type":"LineString","coordinates":[[16.05882,39.87733],[16.05921,39.87711],[16.06004,39.87611],[16.06041,39.87585],[16.06081,39.87571]]},"properties":{}},{"type":"Feature","geometry":{"type":"LineString","coordinates":[[16.05686,39.87763],[16.05812,39.87754],[16.05863,39.87743],[16.05882,39.87733]]},"properties":{}},{"type":"Feature","geometry":{"type":"LineString","coordinates":[[16.01031,39.88234],[16.01132,39.88272],[16.01176,39.88296],[16.01243,39.88321]]},"properties":{}},{"type":"Feature","geometry":{"type":"LineString","coordinates":[[16.01243,39.88321],[16.0139,39.88354],[16.01473,39.88383],[16.0154,39.88398],[16.01919,39.88461],[16.01943,39.88469],[16.01982,39.88491]]},"properties":{}},{"type":"Feature","geometry":{"type":"LineString","coordinates":[[16.01982,39.88491],[16.02018,39.88518],[16.02059,39.88538],[16.021,39.88554],[16.02133,39.88561],[16.02157,39.88563],[16.02268,39.88542]]},"properties":{}},{"type":"Feature","geometry":{"type":"LineString","coordinates":[[16.02268,39.88542],[16.02294,39.88538],[16.02333,39.88538],[16.02429,39.88581],[16.02483,39.88599],[16.02658,39.88675]]},"properties":{}},{"type":"Feature","geometry":{"type":"LineString","coordinates":[[16.02658,39.88675],[16.02682,39.88683],[16.02711,39.88688],[16.02716,39.88693]]},"properties":{}},{"type":"Feature","geometry":{"type":"LineString","coordinates":[[16.02716,39.88693],[16.02726,39.88704]]},"properties":{}},{"type":"Feature","geometry":{"type":"LineString","coordinates":[[16.02726,39.88704],[16.02745,39.88725]]},"properties":{}},{"type":"Feature","geometry":{"type":"LineString","coordinates":[[16.02745,39.88725],[16.02789,39.88742]]},"properties":{}},{"type":"Feature","geometry":{"type":"LineString","coordinates":[[16.1092,39.84183],[16.10968,39.84156]]},"properties":{}},{"type":"Feature","geometry":{"type":"LineString","coordinates":[[16.10968,39.84156],[16.11012,39.84144],[16.11054,39.84141],[16.11106,39.84148],[16.11138,39.84159],[16.11203,39.84202],[16.11221,39.84239],[16.11225,39.84272]]},"properties":{}},{"type":"Feature","geometry":{"type":"LineString","coordinates":[[16.11225,39.84272],[16.1122,39.84354]]},"properties":{}},{"type":"Feature","geometry":{"type":"LineString","coordinates":[[16.1122,39.84354],[16.11239,39.84403],[16.11266,39.84425],[16.11314,39.8445]]},"properties":{}},{"type":"Feature","geometry":{"type":"LineString","coordinates":[[16.11314,39.8445],[16.1138,39.84483],[16.11408,39.84502],[16.1144,39.84542],[16.11539,39.84694],[16.1158,39.84725],[16.11647,39.84756],[16.11673,39.84778],[16.11703,39.84816]]},"properties":{}},{"type":"Feature","geometry":{"type":"LineString","coordinates":[[16.12692,39.84664],[16.12695,39.84669],[16.12704,39.84672],[16.12724,39.84669],[16.12775,39.84678]]},"properties":{}},{"type":"Feature","geometry":{"type":"LineString","coordinates":[[16.11438,39.85202],[16.11349,39.85147],[16.1132,39.85122],[16.11289,39.85059],[16.11273,39.85014],[16.11256,39.84986],[16.11192,39.84921],[16.11167,39.84888],[16.11157,39.84864],[16.1115,39.84816],[16.11157,39.84782],[16.11188,39.84687],[16.11236,39.84607],[16.11243,39.84575],[16.11244,39.84546],[16.11224,39.84515],[16.11191,39.84495],[16.11142,39.8448],[16.1105,39.84465],[16.11006,39.84446],[16.10967,39.84416],[16.10893,39.84339],[16.10876,39.84295],[16.10877,39.84256],[16.10885,39.84224],[16.109,39.84203],[16.1092,39.84183]]},"properties":{}},{"type":"Feature","geometry":{"type":"LineString","coordinates":[[16.12365,39.84724],[16.12382,39.84712]]},"properties":{}},{"type":"Feature","geometry":{"type":"LineString","coordinates":[[16.12775,39.84678],[16.12934,39.84727],[16.13006,39.84743],[16.13171,39.84738],[16.13212,39.8474],[16.13238,39.84746],[16.13269,39.84758],[16.13341,39.84799]]},"properties":{}},{"type":"Feature","geometry":{"type":"LineString","coordinates":[[16.12275,39.84769],[16.12309,39.84745],[16.12345,39.84729],[16.12365,39.84724]]},"properties":{}}]}