{"type":"FeatureCollection","features":[{"type":"Feature","geometry":{"type":"LineString","coordinates":[[16.10646,39.54453],[16.10635,39.54464],[16.10608,39.54473],[16.10596,39.54467],[16.10581,39.54464],[16.10555,39.54463],[16.10505,39.54469],[16.10451,39.54462],[16.10371,39.54456],[16.10321,39.54446],[16.10235,39.54414],[16.10207,39.54399],[16.10173,39.54373],[16.10156,39.5437],[16.10139,39.54373],[16.10121,39.54382],[16.10098,39.54387],[16.10063,39.5438],[16.10035,39.54381],[16.10019,39.54385],[16.10016,39.54383],[16.10019,39.54368],[16.10006,39.54348],[16.09995,39.54312],[16.09996,39.54294],[16.10004,39.54273],[16.10003,39.54268],[16.09997,39.54261],[16.09953,39.54239],[16.0987,39.54202],[16.09833,39.54172],[16.09797,39.54112],[16.09792,39.54095],[16.098,39.5407],[16.09798,39.54058],[16.09779,39.5402],[16.0972,39.5399],[16.09683,39.53983],[16.09666,39.53989],[16.09629,39.53993],[16.09627,39.53985],[16.0961,39.53972],[16.09548,39.53941],[16.09503,39.53938],[16.09434,39.53943],[16.09504,39.53906],[16.0951,39.539],[16.09529,39.53868],[16.09534,39.53844],[16.09541,39.53834],[16.0955,39.53829],[16.09573,39.53828],[16.09604,39.53845],[16.09633,39.53845],[16.0973,39.53806],[16.09766,39.53776],[16.09802,39.53756],[16.0984,39.53749]]},"properties":{}},{"type":"Feature","geometry":{"type":"LineString","coordinates":[[16.02182,39.55601],[16.02202,39.55563],[16.02201,39.55528],[16.02186,39.55431],[16.02169,39.55387],[16.02152,39.55371],[16.02134,39.55334],[16.02143,39.55295],[16.02142,39.55256]]},"properties":{}},{"type":"Feature","geometry":{"type":"LineString","coordinates":[[16.02298,39.55925],[16.023,39.55897],[16.02267,39.55875],[16.02252,39.55858],[16.02219,39.55796],[16.02208,39.55766],[16.02202,39.55747],[16.02204,39.55734],[16.022,39.5572],[16.0221,39.55681],[16.02202,39.55656],[16.02183,39.5562],[16.02182,39.55601]]},"properties":{}},{"type":"Feature","geometry":{"type":"LineString","coordinates":[[16.22011,39.71597],[16.22011,39.71626]]},"properties":{}},{"type":"Feature","geometry":{"type":"LineString","coordinates":[[16.17893,39.72141],[16.17903,39.72127],[16.1794,39.72098],[16.17961,39.72086],[16.18045,39.72051],[16.18127,39.72029],[16.18178,39.72005],[16.18202,39.71989],[16.18208,39.71979],[16.18208,39.71968],[16.18194,39.71931],[16.18205,39.71831],[16.18215,39.71805],[16.18232,39.71794],[16.18254,39.71791],[16.1836,39.71793],[16.18417,39.71785],[16.18438,39.71785],[16.18461,39.71791],[16.18498,39.71813],[16.18528,39.71819],[16.18555,39.71817],[16.18577,39.7181],[16.18634,39.71773],[16.18686,39.71745],[16.18726,39.7171],[16.18757,39.71692],[16.18776,39.71672],[16.18802,39.71627],[16.18809,39.71621],[16.18824,39.71616],[16.18838,39.71617],[16.18867,39.71623],[16.18887,39.71631],[16.18962,39.71677],[16.19003,39.71724],[16.19022,39.71739],[16.1905,39.71753],[16.19107,39.71801],[16.19274,39.71912],[16.19298,39.71918],[16.19325,39.7192],[16.19359,39.71914],[16.1942,39.71893],[16.19441,39.71883],[16.19473,39.71857],[16.19498,39.71844],[16.19542,39.7183],[16.19566,39.71819],[16.19606,39.71789],[16.19727,39.71729],[16.19762,39.71708],[16.19815,39.71671],[16.19913,39.71629],[16.19942,39.71612],[16.19972,39.71573],[16.20001,39.71552],[16.20035,39.71545],[16.20086,39.71561],[16.20109,39.71559],[16.20293,39.71517],[16.20353,39.71493],[16.20374,39.71478],[16.20384,39.71463],[16.20386,39.71447],[16.20384,39.7143],[16.20369,39.71402],[16.20334,39.71377],[16.20332,39.71372],[16.20336,39.7137],[16.20345,39.71371],[16.20407,39.71394],[16.2045,39.71417],[16.20484,39.7144],[16.20494,39.71457],[16.20499,39.71493],[16.20514,39.71515],[16.20518,39.71535],[16.20517,39.71545],[16.20505,39.71572],[16.20487,39.716],[16.20467,39.71615],[16.20416,39.71632],[16.20378,39.71636],[16.20362,39.7164],[16.20297,39.7168],[16.20246,39.71686],[16.20225,39.71703],[16.2022,39.71714],[16.20224,39.71721],[16.20235,39.7172],[16.20263,39.71705],[16.20312,39.71697],[16.20357,39.7168],[16.20373,39.71677],[16.20453,39.71678],[16.20482,39.71676],[16.20547,39.71654],[16.20602,39.71642],[16.20664,39.71618],[16.20684,39.71616],[16.20709,39.71621],[16.20751,39.71633],[16.20804,39.71629],[16.20841,39.71613],[16.20903,39.71577],[16.2093,39.71554],[16.20953,39.71525],[16.20969,39.71517],[16.20988,39.71513],[16.21008,39.71512],[16.2107,39.71521],[16.21105,39.71521],[16.21139,39.71514],[16.21224,39.71485],[16.2135,39.71458],[16.21405,39.71463],[16.21469,39.71474],[16.21621,39.71518],[16.21701,39.71533],[16.2176,39.71538],[16.21796,39.71537],[16.2187,39.71523],[16.21962,39.7152],[16.21987,39.71526],[16.22003,39.71539],[16.2201,39.71549],[16.22011,39.71597]]},"properties":{}},{"type":"Feature","geometry":{"type":"LineString","coordinates":[[16.22011,39.71626],[16.22014,39.71638],[16.22037,39.71652],[16.2236,39.71749],[16.22441,39.71767],[16.22476,39.71772],[16.2259,39.71774],[16.22622,39.71778],[16.22804,39.71812],[16.22873,39.71828],[16.22937,39.71849],[16.23033,39.71888],[16.2314,39.71908]]},"properties":{}},{"type":"Feature","geometry":{"type":"LineString","coordinates":[[16.17152,39.72188],[16.17174,39.72176],[16.17204,39.72142],[16.17236,39.72121],[16.17278,39.72104],[16.17305,39.72099],[16.17403,39.72061],[16.17443,39.72059],[16.17475,39.7207],[16.17557,39.72133],[16.17577,39.72139],[16.17596,39.72134],[16.1765,39.72098],[16.17674,39.72087],[16.17728,39.72072],[16.17757,39.72069],[16.1779,39.7208],[16.17825,39.721],[16.17854,39.72121],[16.17881,39.72137],[16.17893,39.72141]]},"properties":{}},{"type":"Feature","geometry":{"type":"LineString","coordinates":[[16.23185,39.71933],[16.23186,39.71921],[16.23191,39.71914],[16.23209,39.71906],[16.23229,39.71911],[16.23238,39.71925],[16.23235,39.71937],[16.23219,39.71947],[16.23198,39.71945],[16.23185,39.71933]]},"properties":{}},{"type":"Feature","geometry":{"type":"LineString","coordinates":[[16.23238,39.71925],[16.23255,39.71942],[16.2328,39.71958]]},"properties":{}},{"type":"Feature","geometry":{"type":"LineString","coordinates":[[16.2328,39.71958],[16.23251,39.71948],[16.23224,39.71945]]},"properties":{}},{"type":"Feature","geometry":{"type":"LineString","coordinates":[[16.2328,39.71958],[16.23373,39.71999],[16.23482,39.7204]]},"properties":{}}]}