{"type":"FeatureCollection","features":[{"type":"Feature","geometry":{"type":"LineString","coordinates":[[16.22921,41.30036],[16.22942,41.30036],[16.22977,41.30026]]},"properties":{}},{"type":"Feature","geometry":{"type":"LineString","coordinates":[[16.22896,41.30031],[16.22921,41.30036]]},"properties":{}},{"type":"Feature","geometry":{"type":"LineString","coordinates":[[16.22913,41.30045],[16.22896,41.30031]]},"properties":{}},{"type":"Feature","geometry":{"type":"LineString","coordinates":[[16.22949,41.30057],[16.22913,41.30045]]},"properties":{}},{"type":"Feature","geometry":{"type":"LineString","coordinates":[[16.22917,41.30091],[16.22923,41.30064],[16.22921,41.30052],[16.22913,41.30045]]},"properties":{}},{"type":"Feature","geometry":{"type":"LineString","coordinates":[[16.24492,41.3209],[16.25,41.3199]]},"properties":{}},{"type":"Feature","geometry":{"type":"LineString","coordinates":[[16.24492,41.3209],[16.2437,41.32102],[16.24369,41.32096]]},"properties":{}},{"type":"Feature","geometry":{"type":"LineString","coordinates":[[16.24522,41.3224],[16.24492,41.3209]]},"properties":{}},{"type":"Feature","geometry":{"type":"LineString","coordinates":[[16.0689,41.29903],[16.06894,41.29902],[16.07035,41.29587],[16.07441,41.29739],[16.07454,41.29731],[16.07467,41.2973],[16.07479,41.29738],[16.07482,41.29747]]},"properties":{}},{"type":"Feature","geometry":{"type":"LineString","coordinates":[[16.20065,41.33639],[16.19996,41.33696],[16.1995,41.33729]]},"properties":{}},{"type":"Feature","geometry":{"type":"LineString","coordinates":[[16.1995,41.33729],[16.19966,41.337]]},"properties":{}},{"type":"Feature","geometry":{"type":"LineString","coordinates":[[16.199,41.33726],[16.19911,41.33728],[16.19921,41.33733],[16.19926,41.33739],[16.19925,41.33748]]},"properties":{}},{"type":"Feature","geometry":{"type":"LineString","coordinates":[[16.19905,41.33764],[16.19909,41.33749],[16.19901,41.33741],[16.19835,41.3374]]},"properties":{}},{"type":"Feature","geometry":{"type":"LineString","coordinates":[[16.09648,41.35574],[16.09635,41.3558],[16.09168,41.35696]]},"properties":{}},{"type":"Feature","geometry":{"type":"LineString","coordinates":[[16.09654,41.35573],[16.097,41.35689],[16.09749,41.35855]]},"properties":{}},{"type":"Feature","geometry":{"type":"LineString","coordinates":[[16.08899,41.36325],[16.08933,41.36413],[16.09331,41.36334],[16.09308,41.36258],[16.09293,41.36231],[16.09287,41.36212],[16.09244,41.36019],[16.09772,41.35932],[16.0975,41.35859]]},"properties":{}},{"type":"Feature","geometry":{"type":"LineString","coordinates":[[16.1687,41.36276],[16.16924,41.36248],[16.16964,41.36219]]},"properties":{}},{"type":"Feature","geometry":{"type":"LineString","coordinates":[[16.16964,41.36219],[16.16916,41.36275],[16.16916,41.36301]]},"properties":{}},{"type":"Feature","geometry":{"type":"LineString","coordinates":[[16.1687,41.36276],[16.16886,41.36275],[16.16901,41.3628],[16.16912,41.36289],[16.16916,41.36301]]},"properties":{}},{"type":"Feature","geometry":{"type":"LineString","coordinates":[[16.16783,41.36303],[16.16856,41.36282]]},"properties":{}},{"type":"Feature","geometry":{"type":"LineString","coordinates":[[16.16855,41.36319],[16.16847,41.36307],[16.16846,41.36295],[16.16856,41.36282],[16.1687,41.36276]]},"properties":{}},{"type":"Feature","geometry":{"type":"LineString","coordinates":[[16.16916,41.36301],[16.16913,41.36312]]},"properties":{}},{"type":"Feature","geometry":{"type":"LineString","coordinates":[[16.16849,41.36312],[16.16812,41.36304],[16.16783,41.36303]]},"properties":{}},{"type":"Feature","geometry":{"type":"LineString","coordinates":[[16.16913,41.36312],[16.16904,41.36321]]},"properties":{}},{"type":"Feature","geometry":{"type":"LineString","coordinates":[[16.16904,41.36321],[16.16881,41.36327],[16.16868,41.36326],[16.16855,41.36319]]},"properties":{}},{"type":"Feature","geometry":{"type":"LineString","coordinates":[[16.08277,41.36317],[16.08277,41.3633],[16.0826,41.36334]]},"properties":{}},{"type":"Feature","geometry":{"type":"LineString","coordinates":[[16.08904,41.36324],[16.08796,41.36346],[16.08728,41.36356],[16.08656,41.36361],[16.08598,41.36359],[16.08505,41.36347],[16.08367,41.36324],[16.08274,41.36317]]},"properties":{}},{"type":"Feature","geometry":{"type":"LineString","coordinates":[[16.08277,41.3633],[16.08297,41.36391],[16.08315,41.36399],[16.08314,41.36401]]},"properties":{}},{"type":"Feature","geometry":{"type":"LineString","coordinates":[[16.16707,41.36471],[16.16711,41.36461],[16.16809,41.36381],[16.16852,41.36331],[16.16855,41.36319]]},"properties":{}},{"type":"Feature","geometry":{"type":"LineString","coordinates":[[16.1689,41.36338],[16.16844,41.36386],[16.16724,41.36468],[16.16707,41.36471]]},"properties":{}},{"type":"Feature","geometry":{"type":"LineString","coordinates":[[16.0813,41.36184],[16.0813,41.36196],[16.08184,41.36244],[16.08183,41.36251],[16.08241,41.36304],[16.08272,41.36356],[16.08285,41.36407],[16.08285,41.36427],[16.08275,41.36436],[16.08276,41.36449],[16.08282,41.36458],[16.08283,41.36713],[16.08277,41.36726]]},"properties":{}},{"type":"Feature","geometry":{"type":"LineString","coordinates":[[16.15009,41.37363],[16.15,41.37369],[16.14878,41.3726],[16.14576,41.37029],[16.14114,41.3668],[16.13849,41.36493],[16.13765,41.36427],[16.1365,41.36331],[16.13331,41.36103],[16.13289,41.36078],[16.1326,41.36066],[16.12954,41.35958],[16.12927,41.35944],[16.12897,41.35922]]},"properties":{}},{"type":"Feature","geometry":{"type":"LineString","coordinates":[[16.08283,41.36852],[16.08373,41.36845],[16.08425,41.36844],[16.08481,41.36848],[16.0879,41.36908],[16.0914,41.36985]]},"properties":{}},{"type":"Feature","geometry":{"type":"LineString","coordinates":[[16.08277,41.36726],[16.08283,41.36852],[16.08289,41.36883],[16.083,41.36913],[16.08322,41.36952],[16.08437,41.37134],[16.08451,41.37142]]},"properties":{}},{"type":"Feature","geometry":{"type":"LineString","coordinates":[[16.08437,41.37134],[16.08431,41.37147],[16.08412,41.37157],[16.07361,41.37688],[16.06749,41.37626],[16.0671,41.37618],[16.06646,41.37594],[16.06403,41.37501],[16.06371,41.37483],[16.05814,41.36863],[16.05648,41.367]]},"properties":{}},{"type":"Feature","geometry":{"type":"LineString","coordinates":[[16.08451,41.37142],[16.09262,41.37758],[16.0952,41.37958],[16.10301,41.38693],[16.10635,41.39099]]},"properties":{}},{"type":"Feature","geometry":{"type":"LineString","coordinates":[[16.1071,41.39171],[16.10737,41.39172],[16.10962,41.39147],[16.11194,41.39082],[16.11258,41.39059],[16.11341,41.39041],[16.11366,41.39032],[16.11516,41.38959],[16.11559,41.38932],[16.11585,41.38919],[16.11628,41.38905],[16.11696,41.38874],[16.1185,41.38814],[16.1194,41.38782],[16.12063,41.38746],[16.1229,41.38689],[16.12444,41.38657],[16.12509,41.38636],[16.12548,41.38633],[16.12633,41.38617],[16.12791,41.38594],[16.12825,41.38591],[16.12839,41.38593],[16.12875,41.38591]]},"properties":{}},{"type":"Feature","geometry":{"type":"LineString","coordinates":[[16.10635,41.39099],[16.10666,41.3914],[16.10676,41.39166],[16.10686,41.39169]]},"properties":{}},{"type":"Feature","geometry":{"type":"LineString","coordinates":[[16.10686,41.39169],[16.1071,41.39171]]},"properties":{}}]}