{"type":"FeatureCollection","features":[{"type":"Feature","geometry":{"type":"LineString","coordinates":[[16.27714,39.27815],[16.27698,39.27826]]},"properties":{}},{"type":"Feature","geometry":{"type":"LineString","coordinates":[[16.27698,39.27826],[16.27649,39.27872],[16.27648,39.27884],[16.27634,39.27906],[16.27595,39.27993],[16.27585,39.27996],[16.27537,39.2807],[16.2755,39.28086],[16.27492,39.28197],[16.27477,39.28215],[16.27457,39.28231],[16.27405,39.28249],[16.27277,39.28263],[16.27243,39.28274],[16.27222,39.28286]]},"properties":{}},{"type":"Feature","geometry":{"type":"LineString","coordinates":[[16.2704,39.28411],[16.27045,39.284],[16.27145,39.28336],[16.27205,39.2827],[16.27292,39.28238],[16.27397,39.28167],[16.27458,39.28146],[16.27491,39.28129],[16.27502,39.28115],[16.27513,39.28093],[16.27513,39.28068],[16.27502,39.28033],[16.27505,39.28023],[16.27546,39.27982],[16.27579,39.27965],[16.27594,39.27951],[16.27605,39.27926],[16.27598,39.27885],[16.27609,39.27858],[16.27631,39.27842],[16.27707,39.2781]]},"properties":{}},{"type":"Feature","geometry":{"type":"LineString","coordinates":[[16.27116,39.28418],[16.2728,39.28315],[16.27303,39.28304],[16.27335,39.28298],[16.27457,39.28299],[16.27494,39.28301],[16.27498,39.28308]]},"properties":{}},{"type":"Feature","geometry":{"type":"LineString","coordinates":[[16.27059,39.284],[16.27069,39.28413],[16.27093,39.28398]]},"properties":{}},{"type":"Feature","geometry":{"type":"LineString","coordinates":[[16.2709,39.28395],[16.27116,39.28418]]},"properties":{}},{"type":"Feature","geometry":{"type":"LineString","coordinates":[[16.26798,39.28556],[16.26795,39.28552],[16.26884,39.28511],[16.26901,39.28496],[16.26948,39.2847],[16.26966,39.28465],[16.27007,39.2844],[16.27019,39.28424],[16.27096,39.28377],[16.27114,39.28372],[16.27198,39.28319],[16.27222,39.28286]]},"properties":{}},{"type":"Feature","geometry":{"type":"LineString","coordinates":[[16.26577,39.28664],[16.26798,39.2856],[16.26798,39.28556]]},"properties":{}},{"type":"Feature","geometry":{"type":"LineString","coordinates":[[16.26334,39.28905],[16.26333,39.28896],[16.26443,39.28783],[16.26469,39.28757],[16.26497,39.28738],[16.26691,39.2864],[16.26945,39.28524],[16.27116,39.28418]]},"properties":{}},{"type":"Feature","geometry":{"type":"LineString","coordinates":[[16.26519,39.28688],[16.26521,39.28691],[16.26577,39.28664]]},"properties":{}},{"type":"Feature","geometry":{"type":"LineString","coordinates":[[16.26197,39.28892],[16.26271,39.289]]},"properties":{}},{"type":"Feature","geometry":{"type":"LineString","coordinates":[[16.25174,39.29262],[16.25675,39.29377]]},"properties":{}},{"type":"Feature","geometry":{"type":"LineString","coordinates":[[16.25677,39.2943],[16.25678,39.29462],[16.25682,39.2947],[16.25696,39.29481]]},"properties":{}},{"type":"Feature","geometry":{"type":"LineString","coordinates":[[16.27358,39.29482],[16.27409,39.29485],[16.27422,39.29481],[16.2744,39.29468],[16.27435,39.29482],[16.27436,39.29488],[16.27441,39.29496],[16.27458,39.29507]]},"properties":{}},{"type":"Feature","geometry":{"type":"LineString","coordinates":[[16.25503,39.29591],[16.25541,39.29516],[16.25557,39.29521],[16.25559,39.29516],[16.25543,39.29511],[16.25566,39.29468],[16.25537,39.2946],[16.25525,39.29484],[16.25513,39.29481],[16.25508,39.29492],[16.25521,39.29495],[16.2547,39.29596],[16.25497,39.29604],[16.25503,39.29591]]},"properties":{}},{"type":"Feature","geometry":{"type":"LineString","coordinates":[[16.26698,39.29627],[16.26749,39.29633],[16.26822,39.29614]]},"properties":{}},{"type":"Feature","geometry":{"type":"LineString","coordinates":[[16.25408,39.29757],[16.2542,39.29765],[16.25465,39.29665],[16.25497,39.29604],[16.2547,39.29596],[16.25429,39.29697],[16.25408,39.29757]]},"properties":{}},{"type":"Feature","geometry":{"type":"LineString","coordinates":[[16.25601,39.2936],[16.25483,39.296],[16.25426,39.2973],[16.25334,39.30005],[16.25301,39.30091]]},"properties":{}},{"type":"Feature","geometry":{"type":"LineString","coordinates":[[16.25831,39.29863],[16.25841,39.29859],[16.25851,39.29848],[16.25852,39.29841],[16.25858,39.29838],[16.25866,39.29839],[16.25869,39.29847],[16.2588,39.29847]]},"properties":{}},{"type":"Feature","geometry":{"type":"LineString","coordinates":[[16.2573,39.29866],[16.25731,39.29872],[16.25742,39.29877],[16.25831,39.29863]]},"properties":{}},{"type":"Feature","geometry":{"type":"LineString","coordinates":[[16.2573,39.29866],[16.25713,39.29871],[16.25704,39.29881],[16.25695,39.29885],[16.25649,39.29881],[16.25646,39.29887]]},"properties":{}},{"type":"Feature","geometry":{"type":"LineString","coordinates":[[16.25222,39.29885],[16.25258,39.2989],[16.25276,39.29937]]},"properties":{}},{"type":"Feature","geometry":{"type":"LineString","coordinates":[[16.25209,39.29998],[16.25223,39.29879]]},"properties":{}},{"type":"Feature","geometry":{"type":"LineString","coordinates":[[16.25385,39.29826],[16.25367,39.29871],[16.25368,39.29873],[16.25316,39.30047],[16.25303,39.30045],[16.25291,39.30083],[16.25292,39.30097],[16.25278,39.30129],[16.25238,39.30183],[16.25253,39.30192],[16.2528,39.30158],[16.25315,39.3009],[16.25325,39.30059],[16.25328,39.3006],[16.25331,39.30051],[16.25326,39.3005],[16.254,39.29827],[16.25385,39.29826]]},"properties":{}},{"type":"Feature","geometry":{"type":"LineString","coordinates":[[16.25198,39.30082],[16.25209,39.29998]]},"properties":{}},{"type":"Feature","geometry":{"type":"LineString","coordinates":[[16.25186,39.30188],[16.25198,39.30082]]},"properties":{}},{"type":"Feature","geometry":{"type":"LineString","coordinates":[[16.25186,39.30184],[16.25173,39.30185],[16.25173,39.30191],[16.25,39.30197]]},"properties":{}},{"type":"Feature","geometry":{"type":"LineString","coordinates":[[16.25,39.30285],[16.25158,39.30281],[16.25158,39.30285]]},"properties":{}},{"type":"Feature","geometry":{"type":"LineString","coordinates":[[16.25001,39.30197],[16.25002,39.30284]]},"properties":{}},{"type":"Feature","geometry":{"type":"LineString","coordinates":[[16.25402,39.30873],[16.25389,39.30933],[16.25391,39.30939],[16.25401,39.30942],[16.25408,39.30939],[16.25418,39.30894],[16.2541,39.3088],[16.25402,39.30873]]},"properties":{}},{"type":"Feature","geometry":{"type":"LineString","coordinates":[[16.25402,39.30873],[16.25452,39.30628],[16.25441,39.30606],[16.25441,39.30596],[16.25481,39.30509],[16.25523,39.30307],[16.25521,39.30301],[16.25526,39.30273],[16.25607,39.29887]]},"properties":{}},{"type":"Feature","geometry":{"type":"LineString","coordinates":[[16.25607,39.29887],[16.25654,39.29655],[16.25661,39.29651],[16.25711,39.29665],[16.25712,39.29667],[16.25647,39.29788],[16.25643,39.29822],[16.25632,39.29876],[16.25607,39.29887]]},"properties":{}},{"type":"Feature","geometry":{"type":"LineString","coordinates":[[16.25231,39.30296],[16.25224,39.30296],[16.25214,39.304]]},"properties":{}},{"type":"Feature","geometry":{"type":"LineString","coordinates":[[16.25158,39.30285],[16.25158,39.3029],[16.25171,39.30293],[16.2504,39.30479]]},"properties":{}},{"type":"Feature","geometry":{"type":"LineString","coordinates":[[16.25214,39.304],[16.252,39.30523]]},"properties":{}},{"type":"Feature","geometry":{"type":"LineString","coordinates":[[16.252,39.30523],[16.25199,39.30583]]},"properties":{}},{"type":"Feature","geometry":{"type":"LineString","coordinates":[[16.26242,39.31059],[16.2626,39.30941],[16.26267,39.30866]]},"properties":{}},{"type":"Feature","geometry":{"type":"LineString","coordinates":[[16.2628,39.30926],[16.26288,39.30928],[16.26296,39.30938],[16.26301,39.30989],[16.26302,39.31102],[16.26288,39.31129],[16.26289,39.31133]]},"properties":{}},{"type":"Feature","geometry":{"type":"LineString","coordinates":[[16.26259,39.31141],[16.26233,39.31015],[16.26238,39.30947]]},"properties":{}},{"type":"Feature","geometry":{"type":"LineString","coordinates":[[16.25366,39.31099],[16.25362,39.31092]]},"properties":{}},{"type":"Feature","geometry":{"type":"LineString","coordinates":[[16.25366,39.31099],[16.25358,39.3114]]},"properties":{}},{"type":"Feature","geometry":{"type":"LineString","coordinates":[[16.26268,39.31155],[16.26259,39.31146],[16.26264,39.31133],[16.26279,39.31129],[16.26292,39.31136],[16.26294,39.31147],[16.26289,39.31154],[16.26278,39.31157],[16.26268,39.31155]]},"properties":{}},{"type":"Feature","geometry":{"type":"LineString","coordinates":[[16.25882,39.31383],[16.25964,39.31322],[16.26032,39.3128]]},"properties":{}},{"type":"Feature","geometry":{"type":"LineString","coordinates":[[16.25783,39.31354],[16.25848,39.31364],[16.25869,39.31362],[16.25892,39.31357],[16.25964,39.31322]]},"properties":{}},{"type":"Feature","geometry":{"type":"LineString","coordinates":[[16.25783,39.31354],[16.25892,39.31414],[16.25901,39.31426]]},"properties":{}},{"type":"Feature","geometry":{"type":"LineString","coordinates":[[16.25858,39.31412],[16.25882,39.31383]]},"properties":{}},{"type":"Feature","geometry":{"type":"LineString","coordinates":[[16.25834,39.31451],[16.25836,39.31426],[16.25834,39.31412],[16.25829,39.31399],[16.2582,39.31385],[16.25783,39.31354]]},"properties":{}},{"type":"Feature","geometry":{"type":"LineString","coordinates":[[16.25834,39.31451],[16.25858,39.31412]]},"properties":{}},{"type":"Feature","geometry":{"type":"LineString","coordinates":[[16.25358,39.3114],[16.25353,39.31164],[16.25344,39.31185],[16.2534,39.31245],[16.25326,39.31272],[16.25323,39.31311],[16.25305,39.3136],[16.25308,39.31382],[16.25299,39.31393],[16.25296,39.31402],[16.25295,39.31416],[16.25298,39.31425],[16.25287,39.31463],[16.25285,39.31493],[16.25273,39.31513],[16.25271,39.31555],[16.25258,39.31622],[16.25255,39.31638],[16.25246,39.31651],[16.25238,39.31699],[16.25239,39.31714],[16.25226,39.31765]]},"properties":{}},{"type":"Feature","geometry":{"type":"LineString","coordinates":[[16.258,39.31573],[16.2581,39.31569],[16.25827,39.31569],[16.25842,39.31582]]},"properties":{}},{"type":"Feature","geometry":{"type":"LineString","coordinates":[[16.25258,39.31622],[16.25249,39.31632],[16.25246,39.31651]]},"properties":{}},{"type":"Feature","geometry":{"type":"LineString","coordinates":[[16.2508,39.32417],[16.25113,39.32401],[16.25139,39.32208],[16.25365,39.3115]]},"properties":{}},{"type":"Feature","geometry":{"type":"LineString","coordinates":[[16.25206,39.31801],[16.25229,39.31809]]},"properties":{}},{"type":"Feature","geometry":{"type":"LineString","coordinates":[[16.25196,39.31893],[16.25211,39.31895]]},"properties":{}},{"type":"Feature","geometry":{"type":"LineString","coordinates":[[16.25194,39.31908],[16.25185,39.31907]]},"properties":{}},{"type":"Feature","geometry":{"type":"LineString","coordinates":[[16.2573,39.31963],[16.25752,39.31963],[16.25771,39.31937],[16.25824,39.3188],[16.25836,39.31886]]},"properties":{}},{"type":"Feature","geometry":{"type":"LineString","coordinates":[[16.25217,39.31805],[16.25202,39.31856],[16.25168,39.3204]]},"properties":{}},{"type":"Feature","geometry":{"type":"LineString","coordinates":[[16.25168,39.31985],[16.25192,39.31988]]},"properties":{}},{"type":"Feature","geometry":{"type":"LineString","coordinates":[[16.25173,39.32102],[16.25442,39.3215],[16.25655,39.32181],[16.25655,39.32167],[16.25669,39.32106],[16.25693,39.32013],[16.25713,39.31968],[16.25721,39.31963],[16.2573,39.31963]]},"properties":{}},{"type":"Feature","geometry":{"type":"LineString","coordinates":[[16.25165,39.32047],[16.25144,39.3215]]},"properties":{}},{"type":"Feature","geometry":{"type":"LineString","coordinates":[[16.2514,39.32111],[16.25164,39.32114]]},"properties":{}},{"type":"Feature","geometry":{"type":"LineString","coordinates":[[16.25655,39.32181],[16.25655,39.32194]]},"properties":{}},{"type":"Feature","geometry":{"type":"LineString","coordinates":[[16.25143,39.32155],[16.25113,39.32295],[16.25108,39.32341],[16.251,39.3237],[16.25098,39.324]]},"properties":{}},{"type":"Feature","geometry":{"type":"LineString","coordinates":[[16.25,39.32466],[16.25036,39.32498]]},"properties":{}},{"type":"Feature","geometry":{"type":"LineString","coordinates":[[16.25098,39.324],[16.25101,39.32403],[16.25098,39.32405],[16.25096,39.32402],[16.25098,39.324]]},"properties":{}},{"type":"Feature","geometry":{"type":"LineString","coordinates":[[16.2508,39.32417],[16.2506,39.32415],[16.25055,39.3244],[16.25043,39.32457]]},"properties":{}},{"type":"Feature","geometry":{"type":"LineString","coordinates":[[16.25043,39.32457],[16.2504,39.32493]]},"properties":{}},{"type":"Feature","geometry":{"type":"LineString","coordinates":[[16.25036,39.32498],[16.2504,39.32493],[16.25042,39.32499],[16.25057,39.3251],[16.25063,39.32519],[16.25062,39.3253]]},"properties":{}},{"type":"Feature","geometry":{"type":"LineString","coordinates":[[16.25062,39.3253],[16.25053,39.32566]]},"properties":{}},{"type":"Feature","geometry":{"type":"LineString","coordinates":[[16.25053,39.32566],[16.2505,39.32591],[16.25043,39.32596],[16.25041,39.32609]]},"properties":{}},{"type":"Feature","geometry":{"type":"LineString","coordinates":[[16.25041,39.32609],[16.25027,39.32666],[16.25,39.32716]]},"properties":{}},{"type":"Feature","geometry":{"type":"LineString","coordinates":[[16.25,39.32768],[16.25005,39.32797],[16.25,39.32816]]},"properties":{}},{"type":"Feature","geometry":{"type":"LineString","coordinates":[[16.25,39.32899],[16.25004,39.3292],[16.25,39.32933]]},"properties":{}},{"type":"Feature","geometry":{"type":"LineString","coordinates":[[16.26086,39.44706],[16.2608,39.44705],[16.2614,39.44336],[16.26168,39.44104],[16.26191,39.43956],[16.26189,39.4395],[16.2618,39.43949],[16.26164,39.43953],[16.26132,39.4397],[16.26111,39.4399],[16.261,39.44014],[16.26084,39.44023],[16.2572,39.44055],[16.25652,39.44049],[16.25509,39.4407],[16.25502,39.44076],[16.25479,39.44219],[16.25471,39.44219]]},"properties":{}},{"type":"Feature","geometry":{"type":"LineString","coordinates":[[16.3818,39.49345],[16.38212,39.49432],[16.38215,39.49451],[16.38217,39.49568],[16.3822,39.49571]]},"properties":{}},{"type":"Feature","geometry":{"type":"LineString","coordinates":[[16.3807,39.49544],[16.38073,39.4959]]},"properties":{}}]}