{"type":"FeatureCollection","features":[{"type":"Feature","geometry":{"type":"LineString","coordinates":[[16.462,39.75683],[16.46219,39.75684],[16.46236,39.75674]]},"properties":{}},{"type":"Feature","geometry":{"type":"LineString","coordinates":[[16.46236,39.75674],[16.4624,39.75696],[16.46259,39.75706]]},"properties":{}},{"type":"Feature","geometry":{"type":"LineString","coordinates":[[16.48813,39.75714],[16.48852,39.75737]]},"properties":{}},{"type":"Feature","geometry":{"type":"LineString","coordinates":[[16.48852,39.75737],[16.48867,39.75724]]},"properties":{}},{"type":"Feature","geometry":{"type":"LineString","coordinates":[[16.32052,39.78811],[16.32109,39.78749]]},"properties":{}},{"type":"Feature","geometry":{"type":"LineString","coordinates":[[16.47878,39.7907],[16.4789,39.79075],[16.47891,39.79083],[16.47886,39.79087],[16.47876,39.79088],[16.47868,39.79081],[16.47869,39.79075],[16.47878,39.7907]]},"properties":{}},{"type":"Feature","geometry":{"type":"LineString","coordinates":[[16.48127,39.79511],[16.48126,39.79514],[16.48083,39.7953],[16.48084,39.79545],[16.4815,39.79661],[16.4818,39.79669],[16.48188,39.79676],[16.4821,39.79728],[16.48268,39.79831]]},"properties":{}},{"type":"Feature","geometry":{"type":"LineString","coordinates":[[16.48268,39.79831],[16.48301,39.79888]]},"properties":{}},{"type":"Feature","geometry":{"type":"LineString","coordinates":[[16.48301,39.79888],[16.48311,39.79907],[16.48359,39.7993],[16.48457,39.80099]]},"properties":{}},{"type":"Feature","geometry":{"type":"LineString","coordinates":[[16.49286,39.81571],[16.49298,39.81569],[16.49302,39.81573],[16.49303,39.81578],[16.49296,39.81584],[16.49287,39.81583],[16.49283,39.81576],[16.49286,39.81571]]},"properties":{}},{"type":"Feature","geometry":{"type":"LineString","coordinates":[[16.49787,39.82514],[16.49794,39.82485]]},"properties":{}},{"type":"Feature","geometry":{"type":"LineString","coordinates":[[16.49768,39.82526],[16.49799,39.82507]]},"properties":{}},{"type":"Feature","geometry":{"type":"LineString","coordinates":[[16.49804,39.82519],[16.49768,39.82526]]},"properties":{}},{"type":"Feature","geometry":{"type":"LineString","coordinates":[[16.49822,39.82535],[16.4979,39.82521]]},"properties":{}}]}