{"type":"FeatureCollection","features":[{"type":"Feature","geometry":{"type":"LineString","coordinates":[[16.48993,41.11274],[16.4899,41.11271],[16.48681,41.11391],[16.48677,41.11385],[16.48657,41.11393],[16.48646,41.11404],[16.48649,41.11411],[16.48641,41.11416],[16.48636,41.11425],[16.48638,41.11425]]},"properties":{}},{"type":"Feature","geometry":{"type":"LineString","coordinates":[[16.48638,41.11425],[16.48611,41.11457]]},"properties":{}},{"type":"Feature","geometry":{"type":"LineString","coordinates":[[16.4857,41.11515],[16.48611,41.11457]]},"properties":{}},{"type":"Feature","geometry":{"type":"LineString","coordinates":[[16.49484,41.11692],[16.495,41.11681],[16.49511,41.11651],[16.4953,41.11617],[16.49567,41.11574],[16.49584,41.11563]]},"properties":{}},{"type":"Feature","geometry":{"type":"LineString","coordinates":[[16.48285,41.11763],[16.48371,41.11725],[16.48371,41.1172],[16.48376,41.11717],[16.4844,41.11697],[16.48456,41.11684],[16.48474,41.11663],[16.48532,41.11551],[16.4857,41.11515]]},"properties":{}},{"type":"Feature","geometry":{"type":"LineString","coordinates":[[16.49371,41.11638],[16.49358,41.11645],[16.49352,41.11657],[16.49356,41.11663],[16.49352,41.11667],[16.49336,41.11672],[16.49318,41.11672],[16.49316,41.11675],[16.49293,41.11679],[16.49262,41.11676],[16.49254,41.11685],[16.49247,41.11686],[16.49247,41.11695],[16.49238,41.11723],[16.49266,41.11731]]},"properties":{}},{"type":"Feature","geometry":{"type":"LineString","coordinates":[[16.49503,41.11697],[16.49465,41.11773]]},"properties":{}},{"type":"Feature","geometry":{"type":"LineString","coordinates":[[16.49013,41.11734],[16.48939,41.11748]]},"properties":{}},{"type":"Feature","geometry":{"type":"LineString","coordinates":[[16.48608,41.11707],[16.48604,41.11721],[16.486,41.11777]]},"properties":{}},{"type":"Feature","geometry":{"type":"LineString","coordinates":[[16.48939,41.11748],[16.48864,41.11763]]},"properties":{}},{"type":"Feature","geometry":{"type":"LineString","coordinates":[[16.4883,41.11769],[16.48864,41.11763]]},"properties":{}},{"type":"Feature","geometry":{"type":"LineString","coordinates":[[16.486,41.11777],[16.48609,41.1178],[16.48611,41.11806]]},"properties":{}},{"type":"Feature","geometry":{"type":"LineString","coordinates":[[16.48611,41.11806],[16.48612,41.11808]]},"properties":{}},{"type":"Feature","geometry":{"type":"LineString","coordinates":[[16.47786,41.11899],[16.4793,41.11875],[16.48102,41.11837],[16.48285,41.11763]]},"properties":{}},{"type":"Feature","geometry":{"type":"LineString","coordinates":[[16.49213,41.11851],[16.49192,41.11846]]},"properties":{}},{"type":"Feature","geometry":{"type":"LineString","coordinates":[[16.48072,41.11879],[16.47773,41.12034]]},"properties":{}},{"type":"Feature","geometry":{"type":"LineString","coordinates":[[16.49099,41.12044],[16.49119,41.12049]]},"properties":{}},{"type":"Feature","geometry":{"type":"LineString","coordinates":[[16.49371,41.11638],[16.49377,41.11645],[16.49394,41.11652],[16.49395,41.11659],[16.49404,41.11662],[16.49397,41.11673],[16.49369,41.11674],[16.49293,41.11698],[16.49281,41.11706],[16.49267,41.11729],[16.49207,41.11867],[16.49206,41.11873],[16.4906,41.12162],[16.49032,41.12272],[16.49005,41.12279],[16.48964,41.12276],[16.48836,41.12356],[16.48744,41.12405],[16.4867,41.12438],[16.48599,41.12463],[16.48575,41.12469],[16.48508,41.12475],[16.48319,41.12483],[16.48203,41.12494],[16.48144,41.12494],[16.48116,41.1249],[16.48087,41.12482],[16.47955,41.12419],[16.47699,41.1229],[16.47692,41.12282],[16.47608,41.1224],[16.47564,41.12228],[16.47514,41.12222],[16.47466,41.12224],[16.47422,41.12235]]},"properties":{}},{"type":"Feature","geometry":{"type":"LineString","coordinates":[[16.4875,41.12207],[16.48767,41.12189],[16.48774,41.1217],[16.48746,41.12126]]},"properties":{}},{"type":"Feature","geometry":{"type":"LineString","coordinates":[[16.48679,41.12237],[16.48704,41.12236],[16.48719,41.12226],[16.48733,41.12229],[16.48748,41.12224],[16.48763,41.12211],[16.48776,41.12193],[16.48763,41.12166],[16.48767,41.12159],[16.48765,41.12137]]},"properties":{}},{"type":"Feature","geometry":{"type":"LineString","coordinates":[[16.48684,41.12219],[16.48671,41.12217],[16.48675,41.12208],[16.48687,41.12209],[16.48704,41.12202],[16.4872,41.12184]]},"properties":{}},{"type":"Feature","geometry":{"type":"LineString","coordinates":[[16.48704,41.12202],[16.48715,41.1221],[16.4875,41.12207],[16.4877,41.12214]]},"properties":{}},{"type":"Feature","geometry":{"type":"LineString","coordinates":[[16.49005,41.12279],[16.48976,41.12233],[16.48971,41.1223]]},"properties":{}},{"type":"Feature","geometry":{"type":"LineString","coordinates":[[16.47681,41.12276],[16.47692,41.12262]]},"properties":{}},{"type":"Feature","geometry":{"type":"LineString","coordinates":[[16.4772,41.123],[16.47734,41.12285]]},"properties":{}},{"type":"Feature","geometry":{"type":"LineString","coordinates":[[16.48971,41.1223],[16.48947,41.12266],[16.48921,41.12285],[16.48822,41.12347],[16.48763,41.12381],[16.48739,41.1239],[16.48701,41.12392],[16.48693,41.12396],[16.48688,41.12411],[16.4868,41.12415],[16.48591,41.12448],[16.48518,41.12458],[16.48458,41.12462],[16.48286,41.1247],[16.48275,41.12464],[16.48259,41.12465],[16.48233,41.12476],[16.48197,41.12479],[16.48141,41.12476],[16.48084,41.12461],[16.47813,41.12326],[16.47636,41.12231],[16.47562,41.12173],[16.47551,41.12162],[16.47557,41.12154],[16.47551,41.12148],[16.47377,41.12237],[16.47388,41.12245],[16.47422,41.12235]]},"properties":{}},{"type":"Feature","geometry":{"type":"LineString","coordinates":[[16.47862,41.12373],[16.47876,41.12357]]},"properties":{}},{"type":"Feature","geometry":{"type":"LineString","coordinates":[[16.47925,41.12404],[16.47939,41.12388]]},"properties":{}},{"type":"Feature","geometry":{"type":"LineString","coordinates":[[16.48741,41.12406],[16.48737,41.12391]]},"properties":{}},{"type":"Feature","geometry":{"type":"LineString","coordinates":[[16.47958,41.12421],[16.47969,41.12411],[16.47972,41.12405]]},"properties":{}},{"type":"Feature","geometry":{"type":"LineString","coordinates":[[16.48689,41.12421],[16.48682,41.12414]]},"properties":{}},{"type":"Feature","geometry":{"type":"LineString","coordinates":[[16.48689,41.12421],[16.48694,41.12426]]},"properties":{}},{"type":"Feature","geometry":{"type":"LineString","coordinates":[[16.48238,41.12478],[16.48236,41.12474]]},"properties":{}},{"type":"Feature","geometry":{"type":"LineString","coordinates":[[16.48291,41.12486],[16.48291,41.1247]]},"properties":{}},{"type":"Feature","geometry":{"type":"LineString","coordinates":[[16.48239,41.12485],[16.48238,41.12478]]},"properties":{}},{"type":"Feature","geometry":{"type":"LineString","coordinates":[[16.4824,41.1249],[16.48239,41.12485]]},"properties":{}},{"type":"Feature","geometry":{"type":"LineString","coordinates":[[16.44828,41.13548],[16.44838,41.13541],[16.44841,41.13527],[16.44852,41.13517],[16.44897,41.13513]]},"properties":{}},{"type":"Feature","geometry":{"type":"LineString","coordinates":[[16.44874,41.13565],[16.44884,41.13563],[16.44883,41.13555],[16.44893,41.13526],[16.44903,41.13519],[16.44897,41.13513]]},"properties":{}},{"type":"Feature","geometry":{"type":"LineString","coordinates":[[16.44828,41.13548],[16.44833,41.13554],[16.44859,41.13552],[16.44874,41.13565]]},"properties":{}},{"type":"Feature","geometry":{"type":"LineString","coordinates":[[16.41216,41.14876],[16.41199,41.14874]]},"properties":{}},{"type":"Feature","geometry":{"type":"LineString","coordinates":[[16.41224,41.14877],[16.41216,41.14876]]},"properties":{}},{"type":"Feature","geometry":{"type":"LineString","coordinates":[[16.41199,41.14874],[16.4116,41.14885]]},"properties":{}},{"type":"Feature","geometry":{"type":"LineString","coordinates":[[16.41901,41.14886],[16.41924,41.14877],[16.41944,41.14873],[16.42085,41.14875],[16.42109,41.14878],[16.42137,41.14892]]},"properties":{}},{"type":"Feature","geometry":{"type":"LineString","coordinates":[[16.4116,41.14885],[16.41154,41.1489]]},"properties":{}},{"type":"Feature","geometry":{"type":"LineString","coordinates":[[16.42137,41.14892],[16.42157,41.14909],[16.42179,41.1491],[16.42182,41.14913]]},"properties":{}},{"type":"Feature","geometry":{"type":"LineString","coordinates":[[16.41509,41.14963],[16.41224,41.14877]]},"properties":{}},{"type":"Feature","geometry":{"type":"LineString","coordinates":[[16.41154,41.1489],[16.40885,41.14961]]},"properties":{}},{"type":"Feature","geometry":{"type":"LineString","coordinates":[[16.40885,41.14961],[16.40877,41.14973]]},"properties":{}},{"type":"Feature","geometry":{"type":"LineString","coordinates":[[16.4189,41.15065],[16.41833,41.15001],[16.41817,41.14989],[16.41818,41.14983],[16.41828,41.14972],[16.4183,41.1496],[16.41836,41.14952],[16.41821,41.14942],[16.41819,41.14936],[16.41901,41.14886]]},"properties":{}},{"type":"Feature","geometry":{"type":"LineString","coordinates":[[16.40877,41.14973],[16.40874,41.14985]]},"properties":{}},{"type":"Feature","geometry":{"type":"LineString","coordinates":[[16.41224,41.15085],[16.4116,41.14885]]},"properties":{}},{"type":"Feature","geometry":{"type":"LineString","coordinates":[[16.41669,41.15176],[16.4162,41.15115],[16.41521,41.14974],[16.41509,41.14963]]},"properties":{}},{"type":"Feature","geometry":{"type":"LineString","coordinates":[[16.40874,41.14985],[16.40736,41.15171]]},"properties":{}},{"type":"Feature","geometry":{"type":"LineString","coordinates":[[16.41225,41.15098],[16.41224,41.15085]]},"properties":{}},{"type":"Feature","geometry":{"type":"LineString","coordinates":[[16.41157,41.15128],[16.41203,41.15106],[16.41232,41.15098],[16.41281,41.15169]]},"properties":{}},{"type":"Feature","geometry":{"type":"LineString","coordinates":[[16.41064,41.15167],[16.41157,41.15128]]},"properties":{}},{"type":"Feature","geometry":{"type":"LineString","coordinates":[[16.41281,41.15169],[16.41317,41.15223]]},"properties":{}},{"type":"Feature","geometry":{"type":"LineString","coordinates":[[16.40917,41.15255],[16.4094,41.1523],[16.40958,41.15216],[16.41064,41.15167]]},"properties":{}},{"type":"Feature","geometry":{"type":"LineString","coordinates":[[16.41317,41.15223],[16.41327,41.15261],[16.41325,41.15331]]},"properties":{}},{"type":"Feature","geometry":{"type":"LineString","coordinates":[[16.40736,41.15171],[16.40735,41.15389]]},"properties":{}},{"type":"Feature","geometry":{"type":"LineString","coordinates":[[16.40979,41.15399],[16.40938,41.15358],[16.40925,41.15336],[16.40905,41.15286],[16.40907,41.15274],[16.40917,41.15255]]},"properties":{}},{"type":"Feature","geometry":{"type":"LineString","coordinates":[[16.41325,41.15331],[16.41325,41.15345],[16.41321,41.15355]]},"properties":{}},{"type":"Feature","geometry":{"type":"LineString","coordinates":[[16.41392,41.15353],[16.4139,41.15341]]},"properties":{}},{"type":"Feature","geometry":{"type":"LineString","coordinates":[[16.41472,41.15355],[16.41431,41.15357],[16.41392,41.15353]]},"properties":{}},{"type":"Feature","geometry":{"type":"LineString","coordinates":[[16.41674,41.15359],[16.41525,41.15359],[16.41472,41.15355]]},"properties":{}},{"type":"Feature","geometry":{"type":"LineString","coordinates":[[16.41661,41.15544],[16.41669,41.15176]]},"properties":{}},{"type":"Feature","geometry":{"type":"LineString","coordinates":[[16.41321,41.15355],[16.41249,41.15397],[16.41159,41.15432]]},"properties":{}},{"type":"Feature","geometry":{"type":"LineString","coordinates":[[16.40996,41.15414],[16.40979,41.15399]]},"properties":{}},{"type":"Feature","geometry":{"type":"LineString","coordinates":[[16.41129,41.1544],[16.41025,41.15421],[16.40996,41.15414]]},"properties":{}},{"type":"Feature","geometry":{"type":"LineString","coordinates":[[16.41159,41.15432],[16.41155,41.15435]]},"properties":{}},{"type":"Feature","geometry":{"type":"LineString","coordinates":[[16.41155,41.15435],[16.41129,41.1544]]},"properties":{}},{"type":"Feature","geometry":{"type":"LineString","coordinates":[[16.40735,41.15389],[16.40734,41.15539]]},"properties":{}},{"type":"Feature","geometry":{"type":"LineString","coordinates":[[16.40979,41.15399],[16.40946,41.15411],[16.40913,41.15429],[16.40734,41.15539]]},"properties":{}},{"type":"Feature","geometry":{"type":"LineString","coordinates":[[16.40734,41.15539],[16.40726,41.15544]]},"properties":{}},{"type":"Feature","geometry":{"type":"LineString","coordinates":[[16.41667,41.15551],[16.41739,41.15652]]},"properties":{}},{"type":"Feature","geometry":{"type":"LineString","coordinates":[[16.40734,41.15539],[16.40894,41.15757]]},"properties":{}},{"type":"Feature","geometry":{"type":"LineString","coordinates":[[16.41202,41.1584],[16.41503,41.15756],[16.41661,41.15544]]},"properties":{}},{"type":"Feature","geometry":{"type":"LineString","coordinates":[[16.40894,41.15757],[16.41189,41.15837]]},"properties":{}},{"type":"Feature","geometry":{"type":"LineString","coordinates":[[16.41199,41.15837],[16.41203,41.15842],[16.412,41.15848],[16.41192,41.1585],[16.41186,41.15846],[16.41185,41.15841],[16.41189,41.15837],[16.41199,41.15837]]},"properties":{}},{"type":"Feature","geometry":{"type":"LineString","coordinates":[[16.41216,41.16231],[16.41216,41.1624],[16.41203,41.1625],[16.41156,41.16273],[16.41137,41.16285],[16.41124,41.163],[16.41116,41.16322]]},"properties":{}},{"type":"Feature","geometry":{"type":"LineString","coordinates":[[16.41116,41.16322],[16.41115,41.16345]]},"properties":{}},{"type":"Feature","geometry":{"type":"LineString","coordinates":[[16.41115,41.16345],[16.41129,41.16402],[16.41134,41.16412],[16.41149,41.16428],[16.41172,41.16437],[16.41221,41.16444],[16.41226,41.16443],[16.4123,41.16435],[16.41235,41.16435]]},"properties":{}},{"type":"Feature","geometry":{"type":"LineString","coordinates":[[16.26627,41.21459],[16.26641,41.21476],[16.26655,41.21484],[16.26689,41.21489],[16.26729,41.21486]]},"properties":{}},{"type":"Feature","geometry":{"type":"LineString","coordinates":[[16.26568,41.21516],[16.26598,41.21503],[16.26617,41.2149],[16.26626,41.21474],[16.26627,41.21459]]},"properties":{}},{"type":"Feature","geometry":{"type":"LineString","coordinates":[[16.26535,41.21604],[16.2653,41.21589],[16.26535,41.21559]]},"properties":{}},{"type":"Feature","geometry":{"type":"LineString","coordinates":[[16.26535,41.21559],[16.26544,41.21581],[16.2658,41.21619]]},"properties":{}},{"type":"Feature","geometry":{"type":"LineString","coordinates":[[16.26544,41.21581],[16.26543,41.21595],[16.26535,41.21604]]},"properties":{}},{"type":"Feature","geometry":{"type":"LineString","coordinates":[[16.31397,41.22502],[16.3141,41.2249]]},"properties":{}},{"type":"Feature","geometry":{"type":"LineString","coordinates":[[16.31585,41.22582],[16.31586,41.22576],[16.3158,41.22569],[16.31537,41.22546],[16.31533,41.22546],[16.31517,41.2256],[16.31506,41.22561],[16.31427,41.22519],[16.31456,41.22489]]},"properties":{}},{"type":"Feature","geometry":{"type":"LineString","coordinates":[[16.3162,41.22744],[16.31673,41.22688],[16.31677,41.2268],[16.31673,41.22672],[16.31576,41.22618],[16.31572,41.22605],[16.31574,41.22597],[16.31585,41.22582]]},"properties":{}},{"type":"Feature","geometry":{"type":"LineString","coordinates":[[16.31622,41.22746],[16.3162,41.22744]]},"properties":{}},{"type":"Feature","geometry":{"type":"LineString","coordinates":[[16.31631,41.22751],[16.31622,41.22746]]},"properties":{}},{"type":"Feature","geometry":{"type":"LineString","coordinates":[[16.31634,41.22752],[16.31631,41.22751]]},"properties":{}},{"type":"Feature","geometry":{"type":"LineString","coordinates":[[16.30962,41.22878],[16.31058,41.22838],[16.31101,41.22814],[16.31144,41.22784],[16.31188,41.22739]]},"properties":{}},{"type":"Feature","geometry":{"type":"LineString","coordinates":[[16.31445,41.22851],[16.31452,41.22847],[16.31494,41.22868],[16.3152,41.22876],[16.31527,41.22874],[16.31536,41.22863],[16.31537,41.22855],[16.31634,41.22752]]},"properties":{}},{"type":"Feature","geometry":{"type":"LineString","coordinates":[[16.30051,41.22855],[16.30045,41.22851],[16.30046,41.22848]]},"properties":{}},{"type":"Feature","geometry":{"type":"LineString","coordinates":[[16.30104,41.22893],[16.30051,41.22855]]},"properties":{}},{"type":"Feature","geometry":{"type":"LineString","coordinates":[[16.30922,41.22893],[16.30962,41.22878]]},"properties":{}},{"type":"Feature","geometry":{"type":"LineString","coordinates":[[16.30112,41.22899],[16.30104,41.22893]]},"properties":{}},{"type":"Feature","geometry":{"type":"LineString","coordinates":[[16.30163,41.22939],[16.30112,41.22899]]},"properties":{}},{"type":"Feature","geometry":{"type":"LineString","coordinates":[[16.30314,41.23049],[16.30368,41.23016],[16.30378,41.23003],[16.30432,41.22831]]},"properties":{}},{"type":"Feature","geometry":{"type":"LineString","coordinates":[[16.30181,41.22953],[16.30163,41.22939]]},"properties":{}},{"type":"Feature","geometry":{"type":"LineString","coordinates":[[16.30777,41.22957],[16.30778,41.22958]]},"properties":{}},{"type":"Feature","geometry":{"type":"LineString","coordinates":[[16.30572,41.23062],[16.30563,41.23054],[16.30566,41.23049],[16.30922,41.22893],[16.30935,41.22881],[16.30945,41.22861]]},"properties":{}},{"type":"Feature","geometry":{"type":"LineString","coordinates":[[16.30213,41.22978],[16.30181,41.22953]]},"properties":{}},{"type":"Feature","geometry":{"type":"LineString","coordinates":[[16.30226,41.22987],[16.30213,41.22978]]},"properties":{}},{"type":"Feature","geometry":{"type":"LineString","coordinates":[[16.30273,41.23023],[16.30226,41.22987]]},"properties":{}},{"type":"Feature","geometry":{"type":"LineString","coordinates":[[16.30282,41.2303],[16.30273,41.23023]]},"properties":{}},{"type":"Feature","geometry":{"type":"LineString","coordinates":[[16.30306,41.23048],[16.30282,41.2303]]},"properties":{}},{"type":"Feature","geometry":{"type":"LineString","coordinates":[[16.30316,41.23055],[16.30306,41.23048]]},"properties":{}},{"type":"Feature","geometry":{"type":"LineString","coordinates":[[16.30552,41.23054],[16.30563,41.23053]]},"properties":{}},{"type":"Feature","geometry":{"type":"LineString","coordinates":[[16.30572,41.23067],[16.30572,41.23062]]},"properties":{}},{"type":"Feature","geometry":{"type":"LineString","coordinates":[[16.30494,41.2307],[16.30505,41.23073]]},"properties":{}},{"type":"Feature","geometry":{"type":"LineString","coordinates":[[16.30496,41.2309],[16.3051,41.23093],[16.30572,41.23067]]},"properties":{}},{"type":"Feature","geometry":{"type":"LineString","coordinates":[[16.30393,41.23112],[16.30316,41.23055]]},"properties":{}},{"type":"Feature","geometry":{"type":"LineString","coordinates":[[16.30488,41.2308],[16.30496,41.2309]]},"properties":{}},{"type":"Feature","geometry":{"type":"LineString","coordinates":[[16.30401,41.23108],[16.30421,41.23108],[16.30488,41.2308],[16.30489,41.23074],[16.30494,41.2307]]},"properties":{}},{"type":"Feature","geometry":{"type":"LineString","coordinates":[[16.30401,41.23108],[16.30393,41.23112]]},"properties":{}},{"type":"Feature","geometry":{"type":"LineString","coordinates":[[16.30421,41.23108],[16.30431,41.23119]]},"properties":{}},{"type":"Feature","geometry":{"type":"LineString","coordinates":[[16.30393,41.23112],[16.3039,41.23116]]},"properties":{}},{"type":"Feature","geometry":{"type":"LineString","coordinates":[[16.30392,41.2312],[16.3039,41.23116]]},"properties":{}},{"type":"Feature","geometry":{"type":"LineString","coordinates":[[16.30398,41.23126],[16.30403,41.23131]]},"properties":{}},{"type":"Feature","geometry":{"type":"LineString","coordinates":[[16.30403,41.23131],[16.30412,41.23131]]},"properties":{}},{"type":"Feature","geometry":{"type":"LineString","coordinates":[[16.30236,41.23177],[16.30392,41.2312],[16.30398,41.23126]]},"properties":{}},{"type":"Feature","geometry":{"type":"LineString","coordinates":[[16.30236,41.23177],[16.3022,41.23183]]},"properties":{}},{"type":"Feature","geometry":{"type":"LineString","coordinates":[[16.3022,41.23183],[16.3022,41.23186],[16.3019,41.23196]]},"properties":{}},{"type":"Feature","geometry":{"type":"LineString","coordinates":[[16.3018,41.23227],[16.30232,41.23204],[16.30236,41.23201],[16.3023,41.23192]]},"properties":{}},{"type":"Feature","geometry":{"type":"LineString","coordinates":[[16.30893,41.23489],[16.30875,41.23484],[16.30412,41.23131]]},"properties":{}},{"type":"Feature","geometry":{"type":"LineString","coordinates":[[16.30539,41.23229],[16.30536,41.23238],[16.30347,41.23384],[16.30324,41.23407],[16.30311,41.23433],[16.30307,41.23455],[16.3032,41.23553]]},"properties":{}},{"type":"Feature","geometry":{"type":"LineString","coordinates":[[16.42223,41.23373],[16.42208,41.2338],[16.42143,41.23398],[16.42118,41.23412],[16.42081,41.2344]]},"properties":{}},{"type":"Feature","geometry":{"type":"LineString","coordinates":[[16.30022,41.23295],[16.30027,41.23301],[16.30021,41.23305],[16.30083,41.23395],[16.30079,41.23399],[16.29761,41.2352],[16.29711,41.23457],[16.29663,41.23474]]},"properties":{}},{"type":"Feature","geometry":{"type":"LineString","coordinates":[[16.42059,41.23404],[16.42079,41.23421],[16.42081,41.2344]]},"properties":{}},{"type":"Feature","geometry":{"type":"LineString","coordinates":[[16.30301,41.2353],[16.30293,41.23527],[16.30286,41.23478],[16.30286,41.23447],[16.303,41.23406],[16.30325,41.23375],[16.30351,41.23355],[16.30353,41.2335],[16.3035,41.23343],[16.30316,41.2333],[16.30259,41.23323],[16.30242,41.23326],[16.30216,41.23337],[16.30163,41.23367]]},"properties":{}},{"type":"Feature","geometry":{"type":"LineString","coordinates":[[16.4204,41.23451],[16.42043,41.23429],[16.4205,41.23413],[16.42059,41.23404]]},"properties":{}},{"type":"Feature","geometry":{"type":"LineString","coordinates":[[16.41571,41.23414],[16.4156,41.23432],[16.41555,41.23446],[16.41558,41.2346]]},"properties":{}},{"type":"Feature","geometry":{"type":"LineString","coordinates":[[16.4204,41.23451],[16.42018,41.23432],[16.41993,41.23424],[16.41905,41.23433]]},"properties":{}},{"type":"Feature","geometry":{"type":"LineString","coordinates":[[16.41514,41.2347],[16.41571,41.23414]]},"properties":{}},{"type":"Feature","geometry":{"type":"LineString","coordinates":[[16.3054,41.23422],[16.30631,41.23485],[16.30629,41.2349]]},"properties":{}},{"type":"Feature","geometry":{"type":"LineString","coordinates":[[16.42081,41.2344],[16.42027,41.23483]]},"properties":{}},{"type":"Feature","geometry":{"type":"LineString","coordinates":[[16.42027,41.23483],[16.4204,41.23451]]},"properties":{}},{"type":"Feature","geometry":{"type":"LineString","coordinates":[[16.41558,41.2346],[16.41582,41.23478],[16.41599,41.23484],[16.41616,41.23486],[16.41646,41.23483]]},"properties":{}},{"type":"Feature","geometry":{"type":"LineString","coordinates":[[16.41558,41.2346],[16.41564,41.23475],[16.41563,41.23484],[16.41544,41.23502]]},"properties":{}},{"type":"Feature","geometry":{"type":"LineString","coordinates":[[16.41544,41.23502],[16.41528,41.23497],[16.41515,41.23487],[16.41512,41.23476],[16.41514,41.2347]]},"properties":{}},{"type":"Feature","geometry":{"type":"LineString","coordinates":[[16.41412,41.23527],[16.41477,41.23499],[16.41514,41.2347]]},"properties":{}},{"type":"Feature","geometry":{"type":"LineString","coordinates":[[16.30122,41.23392],[16.30047,41.2343],[16.29797,41.23527],[16.29796,41.23532],[16.29811,41.23544],[16.29827,41.23566],[16.29828,41.23572],[16.29893,41.23654]]},"properties":{}},{"type":"Feature","geometry":{"type":"LineString","coordinates":[[16.41774,41.23545],[16.41787,41.23588],[16.41808,41.23606],[16.41821,41.23611],[16.41836,41.23614],[16.41854,41.23613],[16.41867,41.23608],[16.41904,41.23583]]},"properties":{}},{"type":"Feature","geometry":{"type":"LineString","coordinates":[[16.49999,41.23599],[16.49985,41.23604],[16.4997,41.23603],[16.49958,41.23595],[16.49954,41.23583],[16.4996,41.23572],[16.49975,41.23565],[16.49984,41.23565],[16.5,41.23571]]},"properties":{}},{"type":"Feature","geometry":{"type":"LineString","coordinates":[[16.5,41.23598],[16.49999,41.23599]]},"properties":{}},{"type":"Feature","geometry":{"type":"LineString","coordinates":[[16.49301,41.2359],[16.49298,41.23601],[16.49292,41.23606]]},"properties":{}},{"type":"Feature","geometry":{"type":"LineString","coordinates":[[16.49292,41.23606],[16.49287,41.23591]]},"properties":{}},{"type":"Feature","geometry":{"type":"LineString","coordinates":[[16.29884,41.23642],[16.29925,41.23627]]},"properties":{}},{"type":"Feature","geometry":{"type":"LineString","coordinates":[[16.30322,41.23567],[16.30331,41.23606],[16.30339,41.23615],[16.30341,41.23645],[16.30337,41.23658],[16.30341,41.237],[16.30355,41.23726],[16.30368,41.23728],[16.30371,41.23734]]},"properties":{}},{"type":"Feature","geometry":{"type":"LineString","coordinates":[[16.41904,41.23583],[16.4183,41.23646],[16.41809,41.23675],[16.41796,41.23703],[16.41789,41.23734]]},"properties":{}},{"type":"Feature","geometry":{"type":"LineString","coordinates":[[16.30313,41.23665],[16.30338,41.23665]]},"properties":{}},{"type":"Feature","geometry":{"type":"LineString","coordinates":[[16.30294,41.23676],[16.30307,41.23675],[16.30312,41.23672],[16.30313,41.23665]]},"properties":{}},{"type":"Feature","geometry":{"type":"LineString","coordinates":[[16.29453,41.23764],[16.2952,41.23765],[16.29577,41.2374],[16.29678,41.23684],[16.29771,41.2365],[16.29838,41.23617],[16.29823,41.23595],[16.29827,41.23587]]},"properties":{}},{"type":"Feature","geometry":{"type":"LineString","coordinates":[[16.29893,41.23654],[16.29935,41.23707]]},"properties":{}},{"type":"Feature","geometry":{"type":"LineString","coordinates":[[16.30291,41.23691],[16.30294,41.23676]]},"properties":{}},{"type":"Feature","geometry":{"type":"LineString","coordinates":[[16.30332,41.23747],[16.3033,41.23742],[16.30336,41.23738],[16.30337,41.23733],[16.30318,41.23707],[16.30304,41.23695],[16.30291,41.23691],[16.30156,41.23669],[16.30144,41.23675],[16.30032,41.23659],[16.30024,41.23651],[16.29952,41.2364],[16.29924,41.2364],[16.29893,41.23654]]},"properties":{}},{"type":"Feature","geometry":{"type":"LineString","coordinates":[[16.49292,41.23606],[16.4928,41.23638],[16.49277,41.23654],[16.49277,41.23691],[16.49286,41.23726],[16.49295,41.23743],[16.49327,41.23782]]},"properties":{}},{"type":"Feature","geometry":{"type":"LineString","coordinates":[[16.30341,41.237],[16.30318,41.23707]]},"properties":{}},{"type":"Feature","geometry":{"type":"LineString","coordinates":[[16.29901,41.23703],[16.29899,41.23698],[16.29902,41.23694],[16.29852,41.23631],[16.29848,41.23631],[16.29817,41.23643],[16.29756,41.23675],[16.29689,41.23697],[16.29618,41.23737],[16.29527,41.2378],[16.29451,41.2378]]},"properties":{}},{"type":"Feature","geometry":{"type":"LineString","coordinates":[[16.29445,41.23742],[16.29445,41.23737],[16.29456,41.23727]]},"properties":{}},{"type":"Feature","geometry":{"type":"LineString","coordinates":[[16.47759,41.23749],[16.47801,41.23754]]},"properties":{}},{"type":"Feature","geometry":{"type":"LineString","coordinates":[[16.47801,41.23754],[16.47806,41.23753]]},"properties":{}},{"type":"Feature","geometry":{"type":"LineString","coordinates":[[16.47806,41.23753],[16.47816,41.23754],[16.47823,41.23759]]},"properties":{}},{"type":"Feature","geometry":{"type":"LineString","coordinates":[[16.47792,41.23766],[16.47759,41.23749]]},"properties":{}},{"type":"Feature","geometry":{"type":"LineString","coordinates":[[16.47792,41.23766],[16.47794,41.23759],[16.47801,41.23754]]},"properties":{}},{"type":"Feature","geometry":{"type":"LineString","coordinates":[[16.47823,41.23759],[16.47825,41.2377],[16.47814,41.23778]]},"properties":{}},{"type":"Feature","geometry":{"type":"LineString","coordinates":[[16.47814,41.23778],[16.47799,41.23776],[16.47792,41.23766]]},"properties":{}},{"type":"Feature","geometry":{"type":"LineString","coordinates":[[16.49327,41.23782],[16.49342,41.23794]]},"properties":{}},{"type":"Feature","geometry":{"type":"LineString","coordinates":[[16.49335,41.23797],[16.49327,41.23782]]},"properties":{}},{"type":"Feature","geometry":{"type":"LineString","coordinates":[[16.49342,41.23794],[16.49361,41.23817]]},"properties":{}},{"type":"Feature","geometry":{"type":"LineString","coordinates":[[16.49353,41.2382],[16.49335,41.23797]]},"properties":{}},{"type":"Feature","geometry":{"type":"LineString","coordinates":[[16.49361,41.23817],[16.49383,41.23833]]},"properties":{}},{"type":"Feature","geometry":{"type":"LineString","coordinates":[[16.49372,41.23844],[16.49353,41.2382]]},"properties":{}},{"type":"Feature","geometry":{"type":"LineString","coordinates":[[16.29663,41.23474],[16.29653,41.23459],[16.29647,41.23457],[16.29311,41.23603],[16.29293,41.2361],[16.29266,41.2361],[16.29214,41.23641],[16.29193,41.23659],[16.29159,41.23696],[16.29162,41.23708],[16.29147,41.23714],[16.2912,41.23745],[16.29116,41.2376],[16.2909,41.23795],[16.29095,41.23802],[16.29089,41.23815],[16.29032,41.23893],[16.29017,41.23896],[16.28971,41.23962],[16.28965,41.23964],[16.28914,41.24038],[16.28925,41.24043],[16.2881,41.24207]]},"properties":{}},{"type":"Feature","geometry":{"type":"LineString","coordinates":[[16.49376,41.23877],[16.49382,41.23859]]},"properties":{}},{"type":"Feature","geometry":{"type":"LineString","coordinates":[[16.49396,41.23869],[16.49376,41.23877]]},"properties":{}},{"type":"Feature","geometry":{"type":"LineString","coordinates":[[16.49464,41.23921],[16.49428,41.23878]]},"properties":{}},{"type":"Feature","geometry":{"type":"LineString","coordinates":[[16.29225,41.24077],[16.29419,41.24019],[16.29424,41.24015],[16.29445,41.23742]]},"properties":{}},{"type":"Feature","geometry":{"type":"LineString","coordinates":[[16.49464,41.23921],[16.49476,41.23927],[16.49489,41.23942],[16.49491,41.2395]]},"properties":{}},{"type":"Feature","geometry":{"type":"LineString","coordinates":[[16.49491,41.2395],[16.49482,41.23945],[16.49464,41.23921]]},"properties":{}},{"type":"Feature","geometry":{"type":"LineString","coordinates":[[16.48916,41.241],[16.48965,41.24048],[16.49001,41.24016],[16.49371,41.23873],[16.49376,41.23877],[16.49377,41.23882],[16.49009,41.24022],[16.48924,41.24106]]},"properties":{}},{"type":"Feature","geometry":{"type":"LineString","coordinates":[[16.48928,41.24094],[16.48919,41.24124]]},"properties":{}},{"type":"Feature","geometry":{"type":"LineString","coordinates":[[16.48885,41.24131],[16.48916,41.241]]},"properties":{}},{"type":"Feature","geometry":{"type":"LineString","coordinates":[[16.48919,41.24124],[16.4892,41.24126]]},"properties":{}},{"type":"Feature","geometry":{"type":"LineString","coordinates":[[16.48882,41.24138],[16.48885,41.24131]]},"properties":{}},{"type":"Feature","geometry":{"type":"LineString","coordinates":[[16.4892,41.24126],[16.48929,41.24138],[16.48945,41.24148]]},"properties":{}},{"type":"Feature","geometry":{"type":"LineString","coordinates":[[16.48863,41.2416],[16.48877,41.24154],[16.48882,41.24138]]},"properties":{}},{"type":"Feature","geometry":{"type":"LineString","coordinates":[[16.4894,41.24156],[16.48951,41.24144]]},"properties":{}},{"type":"Feature","geometry":{"type":"LineString","coordinates":[[16.4894,41.24156],[16.48926,41.24154],[16.48894,41.24159],[16.48828,41.24187]]},"properties":{}},{"type":"Feature","geometry":{"type":"LineString","coordinates":[[16.48775,41.24202],[16.48779,41.24196],[16.48863,41.2416]]},"properties":{}},{"type":"Feature","geometry":{"type":"LineString","coordinates":[[16.48784,41.24199],[16.4887,41.24163]]},"properties":{}},{"type":"Feature","geometry":{"type":"LineString","coordinates":[[16.48828,41.24187],[16.48814,41.24194]]},"properties":{}},{"type":"Feature","geometry":{"type":"LineString","coordinates":[[16.48784,41.24199],[16.48759,41.24218]]},"properties":{}},{"type":"Feature","geometry":{"type":"LineString","coordinates":[[16.48739,41.24219],[16.48716,41.24208]]},"properties":{}},{"type":"Feature","geometry":{"type":"LineString","coordinates":[[16.48814,41.24194],[16.48778,41.24209],[16.48768,41.24216],[16.48761,41.24227],[16.48759,41.24238]]},"properties":{}},{"type":"Feature","geometry":{"type":"LineString","coordinates":[[16.48741,41.24221],[16.48739,41.24219]]},"properties":{}},{"type":"Feature","geometry":{"type":"LineString","coordinates":[[16.48758,41.2422],[16.48754,41.24237]]},"properties":{}},{"type":"Feature","geometry":{"type":"LineString","coordinates":[[16.48742,41.24237],[16.48741,41.24221]]},"properties":{}},{"type":"Feature","geometry":{"type":"LineString","coordinates":[[16.48735,41.24237],[16.48764,41.24238]]},"properties":{}},{"type":"Feature","geometry":{"type":"LineString","coordinates":[[16.48737,41.24352],[16.48745,41.24237]]},"properties":{}},{"type":"Feature","geometry":{"type":"LineString","coordinates":[[16.4875,41.24237],[16.48742,41.24352]]},"properties":{}},{"type":"Feature","geometry":{"type":"LineString","coordinates":[[16.48752,41.24369],[16.48827,41.24371],[16.48838,41.24364],[16.48839,41.2436],[16.48831,41.24338],[16.48865,41.24328]]},"properties":{}},{"type":"Feature","geometry":{"type":"LineString","coordinates":[[16.48754,41.24237],[16.48737,41.2445],[16.48739,41.24477]]},"properties":{}},{"type":"Feature","geometry":{"type":"LineString","coordinates":[[16.48724,41.24479],[16.48742,41.24237]]},"properties":{}},{"type":"Feature","geometry":{"type":"LineString","coordinates":[[16.48735,41.24379],[16.48737,41.24352]]},"properties":{}},{"type":"Feature","geometry":{"type":"LineString","coordinates":[[16.48742,41.24352],[16.48739,41.2438]]},"properties":{}},{"type":"Feature","geometry":{"type":"LineString","coordinates":[[16.48739,41.2438],[16.48735,41.24458]]},"properties":{}},{"type":"Feature","geometry":{"type":"LineString","coordinates":[[16.48729,41.24459],[16.48735,41.24379]]},"properties":{}},{"type":"Feature","geometry":{"type":"LineString","coordinates":[[16.4872,41.24462],[16.48735,41.24458]]},"properties":{}},{"type":"Feature","geometry":{"type":"LineString","coordinates":[[16.48796,41.24473],[16.48803,41.24483]]},"properties":{}},{"type":"Feature","geometry":{"type":"LineString","coordinates":[[16.488,41.24479],[16.4877,41.24487]]},"properties":{}},{"type":"Feature","geometry":{"type":"LineString","coordinates":[[16.48682,41.24508],[16.48697,41.24502],[16.48708,41.2449],[16.48719,41.24471],[16.4872,41.24462]]},"properties":{}},{"type":"Feature","geometry":{"type":"LineString","coordinates":[[16.4877,41.24487],[16.48749,41.24491]]},"properties":{}},{"type":"Feature","geometry":{"type":"LineString","coordinates":[[16.4864,41.24538],[16.48711,41.24515],[16.48717,41.24521],[16.48729,41.24516],[16.48726,41.24509],[16.48884,41.24455],[16.48891,41.24449]]},"properties":{}},{"type":"Feature","geometry":{"type":"LineString","coordinates":[[16.48682,41.24508],[16.48692,41.24521]]},"properties":{}},{"type":"Feature","geometry":{"type":"LineString","coordinates":[[16.48689,41.24514],[16.48659,41.24526]]},"properties":{}},{"type":"Feature","geometry":{"type":"LineString","coordinates":[[16.48656,41.24521],[16.48662,41.24531]]},"properties":{}},{"type":"Feature","geometry":{"type":"LineString","coordinates":[[16.4864,41.24538],[16.48529,41.24576],[16.48519,41.24585],[16.48477,41.24593],[16.483,41.24659],[16.4826,41.24682],[16.48003,41.24853],[16.47922,41.24898],[16.47615,41.24995]]},"properties":{}},{"type":"Feature","geometry":{"type":"LineString","coordinates":[[16.5,41.24795],[16.49978,41.24805],[16.49935,41.24834],[16.49899,41.24851],[16.49733,41.24903],[16.49712,41.24915]]},"properties":{}},{"type":"Feature","geometry":{"type":"LineString","coordinates":[[16.47615,41.24995],[16.4761,41.24988]]},"properties":{}},{"type":"Feature","geometry":{"type":"LineString","coordinates":[[16.48711,41.25],[16.48781,41.24985],[16.48924,41.24969],[16.49062,41.25]]},"properties":{}},{"type":"Feature","geometry":{"type":"LineString","coordinates":[[16.49074,41.25],[16.49123,41.24998],[16.49193,41.25]]},"properties":{}},{"type":"Feature","geometry":{"type":"LineString","coordinates":[[16.49209,41.25],[16.49276,41.2499],[16.49372,41.24995],[16.49425,41.24981],[16.49499,41.24986],[16.49543,41.25]]},"properties":{}},{"type":"Feature","geometry":{"type":"LineString","coordinates":[[16.49622,41.25],[16.49642,41.24984],[16.49695,41.24926],[16.49712,41.24915]]},"properties":{}},{"type":"Feature","geometry":{"type":"LineString","coordinates":[[16.42657,41.25],[16.42703,41.24987],[16.42715,41.2499],[16.42725,41.25]]},"properties":{}},{"type":"Feature","geometry":{"type":"LineString","coordinates":[[16.42689,41.25],[16.42702,41.24997],[16.42709,41.25]]},"properties":{}}]}