{"type":"FeatureCollection","features":[{"type":"Feature","geometry":{"type":"LineString","coordinates":[[16.56215,40.81374],[16.56207,40.8137],[16.56165,40.8142]]},"properties":{}},{"type":"Feature","geometry":{"type":"LineString","coordinates":[[16.56165,40.8142],[16.5615,40.81441]]},"properties":{}},{"type":"Feature","geometry":{"type":"LineString","coordinates":[[16.5615,40.81441],[16.56137,40.81456]]},"properties":{}},{"type":"Feature","geometry":{"type":"LineString","coordinates":[[16.56137,40.81456],[16.56122,40.81475]]},"properties":{}},{"type":"Feature","geometry":{"type":"LineString","coordinates":[[16.56122,40.81475],[16.56094,40.81507],[16.56071,40.81543],[16.56071,40.8156],[16.56084,40.81588],[16.5609,40.81609],[16.5607,40.81647],[16.56082,40.81651]]},"properties":{}},{"type":"Feature","geometry":{"type":"LineString","coordinates":[[16.54028,40.81954],[16.54022,40.81948]]},"properties":{}},{"type":"Feature","geometry":{"type":"LineString","coordinates":[[16.54035,40.81962],[16.54028,40.81954]]},"properties":{}},{"type":"Feature","geometry":{"type":"LineString","coordinates":[[16.54039,40.81968],[16.54035,40.81962]]},"properties":{}},{"type":"Feature","geometry":{"type":"LineString","coordinates":[[16.54298,40.82587],[16.54277,40.82604],[16.54269,40.82621],[16.54262,40.82628],[16.54238,40.82636],[16.54225,40.82636],[16.54207,40.82629],[16.542,40.82622],[16.54192,40.82608],[16.5418,40.82602],[16.53844,40.82572],[16.53824,40.82582]]},"properties":{}},{"type":"Feature","geometry":{"type":"LineString","coordinates":[[16.5485,40.82898],[16.5523,40.82937],[16.55381,40.82961]]},"properties":{}},{"type":"Feature","geometry":{"type":"LineString","coordinates":[[16.54494,40.83561],[16.54569,40.83683],[16.54584,40.83699],[16.54599,40.8371],[16.54634,40.83725],[16.54658,40.8373],[16.547,40.83732],[16.55133,40.83733]]},"properties":{}},{"type":"Feature","geometry":{"type":"LineString","coordinates":[[16.55133,40.83733],[16.5523,40.83738],[16.55356,40.83738]]},"properties":{}},{"type":"Feature","geometry":{"type":"LineString","coordinates":[[16.5606,40.83801],[16.55654,40.83753],[16.55479,40.83743]]},"properties":{}},{"type":"Feature","geometry":{"type":"LineString","coordinates":[[16.61413,40.88527],[16.61418,40.88519],[16.6143,40.88518],[16.61551,40.88553],[16.61572,40.88554],[16.61605,40.88544],[16.61628,40.88557]]},"properties":{}},{"type":"Feature","geometry":{"type":"LineString","coordinates":[[16.72591,40.88548],[16.72513,40.88549],[16.72439,40.88559],[16.72327,40.88549]]},"properties":{}},{"type":"Feature","geometry":{"type":"LineString","coordinates":[[16.61628,40.88557],[16.61648,40.88572]]},"properties":{}},{"type":"Feature","geometry":{"type":"LineString","coordinates":[[16.61648,40.88572],[16.61662,40.88582],[16.61705,40.88602],[16.61727,40.88602],[16.61742,40.88598],[16.61755,40.88602],[16.61764,40.88611],[16.61766,40.88629],[16.61771,40.88634],[16.6178,40.88634],[16.61811,40.88612]]},"properties":{}},{"type":"Feature","geometry":{"type":"LineString","coordinates":[[16.74923,40.89258],[16.7492,40.89252],[16.74825,40.89228],[16.74705,40.89225],[16.74667,40.8921],[16.74608,40.89197],[16.74544,40.89187],[16.74415,40.89176],[16.74341,40.89174],[16.74304,40.89179],[16.74172,40.89183],[16.74047,40.89193],[16.74001,40.89192],[16.73972,40.89186],[16.73933,40.89165],[16.73844,40.89066],[16.73662,40.88944],[16.73549,40.88894],[16.7313,40.88739],[16.73106,40.88727],[16.72921,40.88603],[16.7281,40.88548],[16.7278,40.88536],[16.72763,40.88533],[16.72747,40.88533],[16.72714,40.8854]]},"properties":{}},{"type":"Feature","geometry":{"type":"LineString","coordinates":[[16.56102,40.83804],[16.56092,40.83806],[16.5606,40.83801]]},"properties":{}},{"type":"Feature","geometry":{"type":"LineString","coordinates":[[16.6653,40.95269],[16.66544,40.95271],[16.6664,40.95333],[16.66729,40.95394],[16.66779,40.95421],[16.66919,40.95458],[16.67079,40.95513],[16.67132,40.95527],[16.67312,40.95565],[16.67429,40.95615],[16.67548,40.95648],[16.67699,40.95685],[16.6773,40.95696],[16.67757,40.9571],[16.67828,40.95757],[16.67899,40.95792],[16.67924,40.95809],[16.6795,40.95836],[16.68038,40.95946],[16.68072,40.95978],[16.68096,40.95995],[16.68124,40.96013],[16.68181,40.96039],[16.68329,40.96081],[16.68354,40.96096],[16.68376,40.96114],[16.68628,40.96404],[16.68648,40.96433],[16.68721,40.96567],[16.68742,40.96632],[16.68809,40.96756],[16.68828,40.968],[16.68839,40.9682],[16.68886,40.96883],[16.68935,40.96983],[16.68974,40.97051],[16.68977,40.9712],[16.69057,40.97345],[16.69079,40.97437],[16.69098,40.97497],[16.69145,40.9761],[16.69211,40.97754],[16.69232,40.97835],[16.69281,40.97933],[16.69293,40.9798],[16.69296,40.98023],[16.69305,40.9807],[16.69317,40.98093],[16.69427,40.98253],[16.69444,40.98286],[16.69479,40.98452],[16.69475,40.98457]]},"properties":{}},{"type":"Feature","geometry":{"type":"LineString","coordinates":[[16.70413,41.0],[16.70382,40.99946],[16.70355,40.99867],[16.70327,40.99815],[16.70313,40.99794],[16.70273,40.99754],[16.70005,40.99505],[16.69895,40.99355],[16.69884,40.99327],[16.6985,40.99194],[16.69846,40.99146],[16.69848,40.99054],[16.69837,40.9901],[16.69818,40.98975],[16.69713,40.98812],[16.69671,40.98716],[16.69645,40.98675],[16.69586,40.9861],[16.69515,40.98541],[16.695,40.98522],[16.69487,40.98498],[16.6948,40.9848],[16.69445,40.98313],[16.69435,40.98278],[16.69389,40.98206],[16.69318,40.98105],[16.69302,40.98075],[16.69295,40.98054],[16.69287,40.97977],[16.6928,40.9795],[16.69268,40.97917],[16.69226,40.97837],[16.69208,40.97764],[16.69199,40.97739],[16.69121,40.97569],[16.69093,40.97498],[16.69071,40.97427],[16.69045,40.97325],[16.68972,40.97122],[16.68969,40.97054],[16.68919,40.96964],[16.68882,40.96888],[16.68824,40.96804],[16.68794,40.96737],[16.68737,40.96632],[16.68711,40.96557],[16.6868,40.96498],[16.68622,40.96405],[16.68368,40.96114],[16.68347,40.96097],[16.68313,40.9608],[16.68228,40.96059],[16.68164,40.96037],[16.68104,40.96007],[16.68041,40.95957],[16.67932,40.95824],[16.6791,40.95804],[16.67844,40.95772],[16.67773,40.95724],[16.67736,40.95704],[16.67689,40.95687],[16.6743,40.9562],[16.67314,40.9557],[16.67084,40.95519],[16.66907,40.9546],[16.66806,40.95436],[16.66742,40.95407],[16.66587,40.95305],[16.6655,40.95291]]},"properties":{}},{"type":"Feature","geometry":{"type":"LineString","coordinates":[[16.7042,41.0],[16.70384,40.99936],[16.70358,40.99859],[16.70324,40.998],[16.70271,40.99745],[16.7001,40.99502],[16.69899,40.9935],[16.69881,40.99294],[16.69856,40.99195],[16.69852,40.99168],[16.69854,40.9911],[16.69876,40.99079],[16.69879,40.99067],[16.69878,40.99052],[16.69833,40.98989],[16.69723,40.98817],[16.69697,40.98766],[16.69675,40.987],[16.6959,40.98597],[16.69555,40.9857],[16.69542,40.98568]]},"properties":{}}]}