{"type":"FeatureCollection","features":[{"type":"Feature","geometry":{"type":"LineString","coordinates":[[16.70472,41.00098],[16.70413,41.0]]},"properties":{}},{"type":"Feature","geometry":{"type":"LineString","coordinates":[[16.70669,41.00608],[16.70649,41.00615],[16.70625,41.00612],[16.7058,41.00613],[16.70556,41.00605],[16.705,41.00496],[16.70493,41.00478],[16.70489,41.00448],[16.70507,41.00322],[16.70503,41.00278],[16.70493,41.00229],[16.70489,41.00186],[16.70496,41.00151],[16.70507,41.00127],[16.70503,41.00119],[16.70481,41.00103],[16.7042,41.0]]},"properties":{}},{"type":"Feature","geometry":{"type":"LineString","coordinates":[[16.70486,41.00162],[16.70484,41.002],[16.70501,41.00303],[16.70502,41.00325],[16.70485,41.00433],[16.70486,41.00467],[16.70495,41.00498],[16.70546,41.00601]]},"properties":{}},{"type":"Feature","geometry":{"type":"LineString","coordinates":[[16.74028,41.03471],[16.74035,41.03461]]},"properties":{}},{"type":"Feature","geometry":{"type":"LineString","coordinates":[[16.74039,41.0349],[16.74028,41.03471]]},"properties":{}},{"type":"Feature","geometry":{"type":"LineString","coordinates":[[16.74026,41.03671],[16.73977,41.03669],[16.74034,41.03518],[16.7404,41.03498],[16.74039,41.0349]]},"properties":{}},{"type":"Feature","geometry":{"type":"LineString","coordinates":[[16.73565,41.03724],[16.73547,41.03722],[16.73526,41.03709],[16.73518,41.03694],[16.73521,41.03683],[16.73527,41.03676],[16.73606,41.03642],[16.73646,41.03616],[16.7366,41.03599],[16.73676,41.03556],[16.73686,41.03544],[16.73699,41.03535],[16.73782,41.03494],[16.73832,41.03474],[16.73934,41.03443],[16.73978,41.03443],[16.74035,41.03461]]},"properties":{}},{"type":"Feature","geometry":{"type":"LineString","coordinates":[[16.7366,41.03714],[16.73565,41.03724],[16.7356,41.03711]]},"properties":{}},{"type":"Feature","geometry":{"type":"LineString","coordinates":[[16.74725,41.04197],[16.74618,41.04212]]},"properties":{}},{"type":"Feature","geometry":{"type":"LineString","coordinates":[[16.74618,41.04212],[16.74665,41.04371]]},"properties":{}},{"type":"Feature","geometry":{"type":"LineString","coordinates":[[16.74585,41.04434],[16.74637,41.04407],[16.74651,41.04396],[16.74652,41.04387],[16.74647,41.04377],[16.74725,41.04345],[16.74756,41.04346]]},"properties":{}},{"type":"Feature","geometry":{"type":"LineString","coordinates":[[16.74469,41.04507],[16.745,41.04489],[16.74546,41.04456],[16.74585,41.04434]]},"properties":{}},{"type":"Feature","geometry":{"type":"LineString","coordinates":[[16.74622,41.0451],[16.74589,41.04431]]},"properties":{}},{"type":"Feature","geometry":{"type":"LineString","coordinates":[[16.74519,41.04535],[16.74609,41.04479]]},"properties":{}},{"type":"Feature","geometry":{"type":"LineString","coordinates":[[16.69817,41.09937],[16.69689,41.09908],[16.69669,41.09907],[16.69652,41.0991],[16.69626,41.09922],[16.69612,41.09935],[16.69604,41.09949]]},"properties":{}},{"type":"Feature","geometry":{"type":"LineString","coordinates":[[16.69842,41.09923],[16.69844,41.09926],[16.69858,41.09933],[16.69891,41.09939],[16.69895,41.09954]]},"properties":{}},{"type":"Feature","geometry":{"type":"LineString","coordinates":[[16.6957,41.09959],[16.69575,41.09948],[16.69592,41.09944],[16.69604,41.09949],[16.69608,41.09959],[16.69604,41.09968],[16.69586,41.09973],[16.69575,41.09968],[16.6957,41.09959]]},"properties":{}},{"type":"Feature","geometry":{"type":"LineString","coordinates":[[16.71013,41.1012],[16.7076,41.10172]]},"properties":{}},{"type":"Feature","geometry":{"type":"LineString","coordinates":[[16.70735,41.1017],[16.70732,41.10153],[16.7071,41.10143]]},"properties":{}},{"type":"Feature","geometry":{"type":"LineString","coordinates":[[16.70735,41.1017],[16.70757,41.10144]]},"properties":{}},{"type":"Feature","geometry":{"type":"LineString","coordinates":[[16.70757,41.10144],[16.70767,41.10157],[16.70766,41.10165],[16.7076,41.10172]]},"properties":{}},{"type":"Feature","geometry":{"type":"LineString","coordinates":[[16.70724,41.10176],[16.70735,41.1017]]},"properties":{}},{"type":"Feature","geometry":{"type":"LineString","coordinates":[[16.7076,41.10172],[16.70724,41.10176]]},"properties":{}},{"type":"Feature","geometry":{"type":"LineString","coordinates":[[16.68875,41.10408],[16.68867,41.10412],[16.68782,41.10508],[16.68698,41.10537],[16.68693,41.10541],[16.68689,41.1055],[16.68693,41.10554]]},"properties":{}},{"type":"Feature","geometry":{"type":"LineString","coordinates":[[16.69135,41.10803],[16.69192,41.10742],[16.69217,41.10701],[16.69226,41.10695],[16.69248,41.10691],[16.69268,41.107],[16.69277,41.10715],[16.69277,41.10722],[16.69273,41.1073],[16.69259,41.10742],[16.69222,41.10754],[16.69164,41.108]]},"properties":{}},{"type":"Feature","geometry":{"type":"LineString","coordinates":[[16.73759,41.10558],[16.73709,41.1062],[16.73703,41.10635],[16.73688,41.10651],[16.73681,41.10676],[16.73715,41.10689],[16.73758,41.10724],[16.73764,41.10735],[16.73767,41.10746],[16.73755,41.10778],[16.73767,41.10789],[16.73768,41.10801],[16.73775,41.10808],[16.73776,41.1082],[16.73787,41.10828],[16.73798,41.10832],[16.73832,41.10816],[16.73833,41.10824],[16.73818,41.10833],[16.73814,41.10843],[16.73838,41.10858],[16.73867,41.10891],[16.73883,41.10903],[16.73857,41.10924],[16.73841,41.10926],[16.73816,41.10942]]},"properties":{}},{"type":"Feature","geometry":{"type":"LineString","coordinates":[[16.69931,41.10845],[16.69921,41.10839],[16.69633,41.10811],[16.69212,41.10761]]},"properties":{}},{"type":"Feature","geometry":{"type":"LineString","coordinates":[[16.70204,41.10617],[16.70788,41.10731],[16.7079,41.10732],[16.70774,41.10765],[16.70652,41.11015]]},"properties":{}},{"type":"Feature","geometry":{"type":"LineString","coordinates":[[16.69926,41.10806],[16.69937,41.10835],[16.69945,41.10839]]},"properties":{}},{"type":"Feature","geometry":{"type":"LineString","coordinates":[[16.69932,41.10843],[16.69926,41.10806]]},"properties":{}},{"type":"Feature","geometry":{"type":"LineString","coordinates":[[16.69947,41.1084],[16.69967,41.10844]]},"properties":{}},{"type":"Feature","geometry":{"type":"LineString","coordinates":[[16.69967,41.10844],[16.69982,41.10854],[16.7009,41.10877]]},"properties":{}},{"type":"Feature","geometry":{"type":"LineString","coordinates":[[16.69571,41.10825],[16.69644,41.10848],[16.69755,41.10902]]},"properties":{}},{"type":"Feature","geometry":{"type":"LineString","coordinates":[[16.69947,41.10852],[16.69943,41.10858],[16.69942,41.10866],[16.69947,41.10888],[16.69953,41.10893]]},"properties":{}},{"type":"Feature","geometry":{"type":"LineString","coordinates":[[16.6994,41.10896],[16.69933,41.10851]]},"properties":{}},{"type":"Feature","geometry":{"type":"LineString","coordinates":[[16.69144,41.10891],[16.69212,41.10885]]},"properties":{}},{"type":"Feature","geometry":{"type":"LineString","coordinates":[[16.68934,41.1094],[16.69011,41.10879],[16.68997,41.10867]]},"properties":{}},{"type":"Feature","geometry":{"type":"LineString","coordinates":[[16.68371,41.11014],[16.68887,41.10984]]},"properties":{}},{"type":"Feature","geometry":{"type":"LineString","coordinates":[[16.69551,41.10965],[16.69556,41.10969],[16.69769,41.11016],[16.6987,41.11047]]},"properties":{}},{"type":"Feature","geometry":{"type":"LineString","coordinates":[[16.6915,41.11272],[16.69152,41.11062],[16.69144,41.10891]]},"properties":{}},{"type":"Feature","geometry":{"type":"LineString","coordinates":[[16.67961,41.11152],[16.67967,41.11095],[16.67943,41.11042]]},"properties":{}},{"type":"Feature","geometry":{"type":"LineString","coordinates":[[16.67961,41.11152],[16.68026,41.11114]]},"properties":{}},{"type":"Feature","geometry":{"type":"LineString","coordinates":[[16.68887,41.10984],[16.68487,41.11305]]},"properties":{}},{"type":"Feature","geometry":{"type":"LineString","coordinates":[[16.68514,41.11202],[16.68579,41.11156]]},"properties":{}},{"type":"Feature","geometry":{"type":"LineString","coordinates":[[16.69428,41.11119],[16.6915,41.11272]]},"properties":{}},{"type":"Feature","geometry":{"type":"LineString","coordinates":[[16.68026,41.11114],[16.68315,41.11169],[16.68375,41.1123],[16.68451,41.11287]]},"properties":{}},{"type":"Feature","geometry":{"type":"LineString","coordinates":[[16.68313,41.11267],[16.6847,41.11171]]},"properties":{}},{"type":"Feature","geometry":{"type":"LineString","coordinates":[[16.70652,41.11015],[16.70649,41.1102],[16.70641,41.11018],[16.7058,41.11138],[16.70573,41.11176],[16.70465,41.11383],[16.70446,41.11409],[16.70431,41.11439],[16.70331,41.11407],[16.70354,41.11367],[16.70351,41.11363],[16.7026,41.11337]]},"properties":{}},{"type":"Feature","geometry":{"type":"LineString","coordinates":[[16.68514,41.11202],[16.68386,41.11291]]},"properties":{}},{"type":"Feature","geometry":{"type":"LineString","coordinates":[[16.68487,41.11305],[16.68449,41.113]]},"properties":{}},{"type":"Feature","geometry":{"type":"LineString","coordinates":[[16.69149,41.11355],[16.6915,41.11272]]},"properties":{}},{"type":"Feature","geometry":{"type":"LineString","coordinates":[[16.68868,41.11576],[16.68862,41.11593]]},"properties":{}},{"type":"Feature","geometry":{"type":"LineString","coordinates":[[16.68763,41.11594],[16.68824,41.11599],[16.68837,41.11597],[16.68848,41.11592],[16.68868,41.11576]]},"properties":{}},{"type":"Feature","geometry":{"type":"LineString","coordinates":[[16.68849,41.11613],[16.68854,41.11591],[16.68868,41.11576]]},"properties":{}},{"type":"Feature","geometry":{"type":"LineString","coordinates":[[16.68862,41.11593],[16.68857,41.11606],[16.68849,41.11613]]},"properties":{}},{"type":"Feature","geometry":{"type":"LineString","coordinates":[[16.68862,41.11593],[16.68869,41.11608],[16.68905,41.11626]]},"properties":{}},{"type":"Feature","geometry":{"type":"LineString","coordinates":[[16.74484,41.12258],[16.74542,41.12106],[16.74573,41.12048],[16.74614,41.11995],[16.74627,41.11959],[16.74671,41.11954],[16.74737,41.11966],[16.74759,41.11979],[16.74768,41.11956],[16.74769,41.11944],[16.74725,41.11911],[16.74679,41.11892],[16.74679,41.11881],[16.74688,41.11866],[16.74694,41.11847],[16.74703,41.11841],[16.74715,41.11843],[16.74749,41.11856],[16.74755,41.11852],[16.74748,41.11844],[16.74714,41.11812],[16.74635,41.11765],[16.74608,41.11744],[16.74608,41.11732],[16.74568,41.11704],[16.74543,41.117],[16.74523,41.1168],[16.74531,41.11639],[16.74526,41.11612],[16.74516,41.11585],[16.74506,41.11573],[16.74501,41.11552],[16.74507,41.11537]]},"properties":{}},{"type":"Feature","geometry":{"type":"LineString","coordinates":[[16.55624,41.12827],[16.55627,41.1283],[16.55841,41.12728],[16.57551,41.11917],[16.57724,41.11832],[16.57888,41.11756],[16.57888,41.11751]]},"properties":{}},{"type":"Feature","geometry":{"type":"LineString","coordinates":[[16.54708,41.12462],[16.54744,41.12466]]},"properties":{}},{"type":"Feature","geometry":{"type":"LineString","coordinates":[[16.54823,41.12696],[16.5483,41.12678],[16.54865,41.12686],[16.54858,41.12703]]},"properties":{}},{"type":"Feature","geometry":{"type":"LineString","coordinates":[[16.55267,41.12757],[16.55364,41.1276],[16.55446,41.12752],[16.55462,41.12757]]},"properties":{}},{"type":"Feature","geometry":{"type":"LineString","coordinates":[[16.55267,41.12757],[16.55247,41.12752],[16.55229,41.1276],[16.552,41.12762]]},"properties":{}},{"type":"Feature","geometry":{"type":"LineString","coordinates":[[16.55676,41.12893],[16.55661,41.12867],[16.55662,41.12856],[16.55676,41.12846],[16.55711,41.12838]]},"properties":{}},{"type":"Feature","geometry":{"type":"LineString","coordinates":[[16.55617,41.12855],[16.55601,41.12852],[16.55578,41.12854],[16.55516,41.12883],[16.55501,41.12885]]},"properties":{}},{"type":"Feature","geometry":{"type":"LineString","coordinates":[[16.53889,41.12876],[16.53812,41.12868],[16.53753,41.12892],[16.53762,41.129],[16.53739,41.12907],[16.53725,41.12906]]},"properties":{}},{"type":"Feature","geometry":{"type":"LineString","coordinates":[[16.55669,41.12931],[16.55645,41.12883],[16.55629,41.12863],[16.55617,41.12855]]},"properties":{}},{"type":"Feature","geometry":{"type":"LineString","coordinates":[[16.55695,41.12941],[16.55685,41.12908],[16.55676,41.12893]]},"properties":{}},{"type":"Feature","geometry":{"type":"LineString","coordinates":[[16.53725,41.12906],[16.53724,41.12906]]},"properties":{}},{"type":"Feature","geometry":{"type":"LineString","coordinates":[[16.53724,41.12906],[16.53693,41.12945],[16.53679,41.12948],[16.53544,41.12908],[16.53543,41.12903],[16.53634,41.1289],[16.53724,41.12906]]},"properties":{}},{"type":"Feature","geometry":{"type":"LineString","coordinates":[[16.53524,41.12926],[16.53528,41.12918],[16.53538,41.12913]]},"properties":{}},{"type":"Feature","geometry":{"type":"LineString","coordinates":[[16.5543,41.12941],[16.55424,41.12937]]},"properties":{}},{"type":"Feature","geometry":{"type":"LineString","coordinates":[[16.55673,41.12952],[16.55669,41.12931]]},"properties":{}},{"type":"Feature","geometry":{"type":"LineString","coordinates":[[16.55507,41.13065],[16.55624,41.13072],[16.55639,41.13067],[16.55646,41.13059],[16.55673,41.12952]]},"properties":{}},{"type":"Feature","geometry":{"type":"LineString","coordinates":[[16.55742,41.13089],[16.55684,41.13079],[16.55672,41.13068],[16.55673,41.13058],[16.55694,41.12969],[16.55695,41.12941]]},"properties":{}},{"type":"Feature","geometry":{"type":"LineString","coordinates":[[16.53563,41.12921],[16.53599,41.12988],[16.53615,41.13008],[16.53683,41.13118]]},"properties":{}},{"type":"Feature","geometry":{"type":"LineString","coordinates":[[16.55265,41.13059],[16.55262,41.13049]]},"properties":{}},{"type":"Feature","geometry":{"type":"LineString","coordinates":[[16.55025,41.13143],[16.54971,41.13104],[16.54968,41.13098],[16.5497,41.13094]]},"properties":{}},{"type":"Feature","geometry":{"type":"LineString","coordinates":[[16.53683,41.13118],[16.53713,41.13169]]},"properties":{}},{"type":"Feature","geometry":{"type":"LineString","coordinates":[[16.53713,41.13169],[16.53738,41.13181]]},"properties":{}},{"type":"Feature","geometry":{"type":"LineString","coordinates":[[16.53727,41.13192],[16.5369,41.13159]]},"properties":{}},{"type":"Feature","geometry":{"type":"LineString","coordinates":[[16.53735,41.13199],[16.53727,41.13192],[16.53729,41.13184],[16.53738,41.13181],[16.53748,41.13183],[16.53751,41.13188],[16.53749,41.13195],[16.53735,41.13199]]},"properties":{}},{"type":"Feature","geometry":{"type":"LineString","coordinates":[[16.53749,41.13195],[16.53767,41.1321],[16.54003,41.13356],[16.54075,41.13395],[16.5411,41.13403],[16.54159,41.13409],[16.54337,41.134],[16.54352,41.13402]]},"properties":{}},{"type":"Feature","geometry":{"type":"LineString","coordinates":[[16.54352,41.13402],[16.54337,41.13407],[16.54165,41.13416],[16.54125,41.13413],[16.54072,41.13402],[16.54046,41.13391],[16.53997,41.13362],[16.53738,41.13199]]},"properties":{}},{"type":"Feature","geometry":{"type":"LineString","coordinates":[[16.7436,41.14784],[16.74337,41.14772],[16.74326,41.14746],[16.74317,41.14744],[16.74245,41.14765],[16.74189,41.14787],[16.74161,41.14803]]},"properties":{}},{"type":"Feature","geometry":{"type":"LineString","coordinates":[[16.74381,41.14815],[16.74384,41.14808],[16.74381,41.14796],[16.74365,41.14787]]},"properties":{}},{"type":"Feature","geometry":{"type":"LineString","coordinates":[[16.74391,41.14842],[16.74387,41.14827],[16.74382,41.14821]]},"properties":{}},{"type":"Feature","geometry":{"type":"LineString","coordinates":[[16.74379,41.14848],[16.74378,41.14844],[16.74391,41.14842]]},"properties":{}},{"type":"Feature","geometry":{"type":"LineString","coordinates":[[16.74401,41.14895],[16.74402,41.14901]]},"properties":{}},{"type":"Feature","geometry":{"type":"LineString","coordinates":[[16.74535,41.14952],[16.74513,41.14945],[16.7443,41.14955],[16.74421,41.14954],[16.74413,41.14947],[16.74405,41.14926],[16.74402,41.14901]]},"properties":{}},{"type":"Feature","geometry":{"type":"LineString","coordinates":[[16.74551,41.1496],[16.74535,41.14952]]},"properties":{}},{"type":"Feature","geometry":{"type":"LineString","coordinates":[[16.7405,41.1549],[16.74022,41.15462],[16.73986,41.15422],[16.7396,41.15383],[16.73936,41.15341],[16.73905,41.15247],[16.73899,41.1521],[16.73895,41.15165]]},"properties":{}},{"type":"Feature","geometry":{"type":"LineString","coordinates":[[16.59377,41.18573],[16.59374,41.18564]]},"properties":{}},{"type":"Feature","geometry":{"type":"LineString","coordinates":[[16.74864,41.16438],[16.7487,41.16433],[16.74872,41.16416],[16.74894,41.16391],[16.74909,41.16379],[16.74947,41.1636],[16.75,41.16347]]},"properties":{}},{"type":"Feature","geometry":{"type":"LineString","coordinates":[[16.74844,41.16568],[16.74845,41.16532],[16.74848,41.16529],[16.74853,41.16499],[16.74849,41.16491],[16.74853,41.16464],[16.74857,41.16439],[16.74864,41.16438]]},"properties":{}},{"type":"Feature","geometry":{"type":"LineString","coordinates":[[16.74766,41.16648],[16.74829,41.16613],[16.74842,41.16599],[16.74845,41.16588],[16.74844,41.16568]]},"properties":{}},{"type":"Feature","geometry":{"type":"LineString","coordinates":[[16.73013,41.16681],[16.73012,41.16677],[16.71744,41.16935],[16.70638,41.17228],[16.70571,41.17249],[16.70442,41.17299],[16.6868,41.17999],[16.6864,41.18011],[16.68606,41.18017],[16.68164,41.18071]]},"properties":{}},{"type":"Feature","geometry":{"type":"LineString","coordinates":[[16.67258,41.17766],[16.67255,41.17792],[16.67259,41.17813]]},"properties":{}},{"type":"Feature","geometry":{"type":"LineString","coordinates":[[16.67237,41.17814],[16.67236,41.17809],[16.67245,41.17783],[16.67258,41.17766]]},"properties":{}},{"type":"Feature","geometry":{"type":"LineString","coordinates":[[16.67169,41.17827],[16.67223,41.17815],[16.67233,41.17817]]},"properties":{}},{"type":"Feature","geometry":{"type":"LineString","coordinates":[[16.6727,41.17829],[16.67264,41.17837],[16.67248,41.17842],[16.67233,41.17835],[16.67229,41.17826],[16.67237,41.17814],[16.67254,41.17811],[16.67268,41.1782],[16.6727,41.17829]]},"properties":{}},{"type":"Feature","geometry":{"type":"LineString","coordinates":[[16.67233,41.17835],[16.67207,41.1783],[16.67169,41.17827]]},"properties":{}},{"type":"Feature","geometry":{"type":"LineString","coordinates":[[16.68405,41.17983],[16.6842,41.17997],[16.68439,41.18026],[16.68433,41.18042]]},"properties":{}},{"type":"Feature","geometry":{"type":"LineString","coordinates":[[16.68433,41.18042],[16.68421,41.18028],[16.68416,41.18008]]},"properties":{}},{"type":"Feature","geometry":{"type":"LineString","coordinates":[[16.68164,41.18071],[16.68162,41.18071],[16.68163,41.18075]]},"properties":{}},{"type":"Feature","geometry":{"type":"LineString","coordinates":[[16.67363,41.182],[16.6736,41.18192],[16.67367,41.18185],[16.67377,41.18185],[16.67384,41.18191],[16.67382,41.18199],[16.67376,41.18202],[16.67363,41.182]]},"properties":{}},{"type":"Feature","geometry":{"type":"LineString","coordinates":[[16.66873,41.18223],[16.66952,41.18218]]},"properties":{}},{"type":"Feature","geometry":{"type":"LineString","coordinates":[[16.67379,41.18201],[16.67377,41.18248]]},"properties":{}},{"type":"Feature","geometry":{"type":"LineString","coordinates":[[16.67377,41.18248],[16.67366,41.18201]]},"properties":{}},{"type":"Feature","geometry":{"type":"LineString","coordinates":[[16.66976,41.18121],[16.6697,41.18135],[16.6696,41.18137],[16.66953,41.18172],[16.66951,41.18261],[16.66946,41.18266],[16.66945,41.18327],[16.6701,41.18497],[16.66955,41.18523],[16.6695,41.18528],[16.67004,41.18632],[16.6701,41.18634],[16.67059,41.18619],[16.67107,41.18728]]},"properties":{}},{"type":"Feature","geometry":{"type":"LineString","coordinates":[[16.65609,41.18463],[16.6561,41.1847],[16.65703,41.18463],[16.65702,41.18457]]},"properties":{}},{"type":"Feature","geometry":{"type":"LineString","coordinates":[[16.67345,41.18587],[16.67351,41.18577],[16.67391,41.18427],[16.67402,41.1838],[16.67401,41.18342]]},"properties":{}},{"type":"Feature","geometry":{"type":"LineString","coordinates":[[16.67601,41.18727],[16.67637,41.18693],[16.67681,41.18658],[16.67691,41.18643],[16.67746,41.18592],[16.67781,41.18566],[16.679,41.18507],[16.67911,41.18504],[16.67956,41.18506],[16.67981,41.18499],[16.68041,41.18468],[16.68073,41.18447],[16.68085,41.18435],[16.68092,41.18424],[16.68104,41.18395],[16.6811,41.18365],[16.68111,41.18345],[16.68104,41.18331],[16.6804,41.18286]]},"properties":{}},{"type":"Feature","geometry":{"type":"LineString","coordinates":[[16.66426,41.18701],[16.66488,41.18691],[16.66467,41.1859],[16.6647,41.18582],[16.66535,41.18591],[16.66591,41.18596],[16.66703,41.18595]]},"properties":{}},{"type":"Feature","geometry":{"type":"LineString","coordinates":[[16.65829,41.18892],[16.65839,41.18891],[16.65821,41.1881],[16.65823,41.18791],[16.65817,41.18768],[16.65809,41.1876],[16.65783,41.18642],[16.65765,41.18644],[16.65731,41.18489],[16.6574,41.18488]]},"properties":{}},{"type":"Feature","geometry":{"type":"LineString","coordinates":[[16.66366,41.18704],[16.66136,41.18733],[16.66138,41.1874]]},"properties":{}},{"type":"Feature","geometry":{"type":"LineString","coordinates":[[16.66097,41.18741],[16.66096,41.18737],[16.6603,41.18746],[16.66031,41.18751],[16.65992,41.18756],[16.65991,41.18751],[16.65911,41.18761],[16.6591,41.18766],[16.6582,41.18777]]},"properties":{}},{"type":"Feature","geometry":{"type":"LineString","coordinates":[[16.59259,41.18594],[16.59272,41.18591],[16.59291,41.18592],[16.59297,41.18596],[16.59303,41.18612],[16.59327,41.18604]]},"properties":{}},{"type":"Feature","geometry":{"type":"LineString","coordinates":[[16.59166,41.18627],[16.59189,41.18618],[16.59219,41.18611],[16.59233,41.18597],[16.59259,41.18594]]},"properties":{}},{"type":"Feature","geometry":{"type":"LineString","coordinates":[[16.59265,41.18561],[16.59258,41.18585],[16.59259,41.18594],[16.59252,41.18622],[16.59199,41.1863],[16.5919,41.18636],[16.59185,41.18645],[16.59182,41.18671]]},"properties":{}},{"type":"Feature","geometry":{"type":"LineString","coordinates":[[16.59377,41.18575],[16.59391,41.18577],[16.59396,41.1858],[16.59403,41.18598],[16.59376,41.18614],[16.59359,41.1863],[16.59361,41.18643],[16.59369,41.18653],[16.59376,41.18657],[16.59384,41.18652],[16.59384,41.18636],[16.59381,41.18633],[16.59371,41.18633],[16.59375,41.1865],[16.59368,41.18647],[16.59364,41.18636],[16.59388,41.18615],[16.59406,41.18607],[16.59427,41.18608],[16.59437,41.18617],[16.59437,41.18629],[16.59431,41.18636],[16.59389,41.1866],[16.59379,41.18662],[16.59362,41.18653],[16.59346,41.18636],[16.59341,41.18612],[16.59336,41.18605],[16.5934,41.18603],[16.59351,41.18605],[16.59367,41.18599],[16.59369,41.18597],[16.59367,41.18582]]},"properties":{}},{"type":"Feature","geometry":{"type":"LineString","coordinates":[[16.59377,41.18573],[16.59375,41.18579],[16.59327,41.18604],[16.59325,41.18628],[16.59311,41.18646],[16.59295,41.18651],[16.59286,41.18639],[16.59278,41.1864],[16.59242,41.18668],[16.59193,41.1869]]},"properties":{}},{"type":"Feature","geometry":{"type":"LineString","coordinates":[[16.59437,41.1862],[16.59458,41.18629],[16.59472,41.18643]]},"properties":{}},{"type":"Feature","geometry":{"type":"LineString","coordinates":[[16.59458,41.18629],[16.59446,41.18644]]},"properties":{}},{"type":"Feature","geometry":{"type":"LineString","coordinates":[[16.59467,41.18647],[16.5946,41.18639],[16.59442,41.18647],[16.59435,41.18647],[16.59425,41.18641]]},"properties":{}},{"type":"Feature","geometry":{"type":"LineString","coordinates":[[16.59406,41.18651],[16.59408,41.18662],[16.59402,41.18671],[16.5939,41.18679],[16.59376,41.18683]]},"properties":{}},{"type":"Feature","geometry":{"type":"LineString","coordinates":[[16.59317,41.18727],[16.59288,41.18751],[16.5927,41.18741],[16.59235,41.18741],[16.59213,41.1872],[16.59195,41.18693],[16.59177,41.18661],[16.59166,41.18627],[16.59143,41.18624],[16.59105,41.18632]]},"properties":{}},{"type":"Feature","geometry":{"type":"LineString","coordinates":[[16.59389,41.1866],[16.59365,41.1867],[16.59365,41.18674],[16.59376,41.18683],[16.59337,41.187],[16.59325,41.1869],[16.59314,41.18694],[16.59318,41.187],[16.59328,41.18707],[16.59323,41.18712],[16.59317,41.18727]]},"properties":{}},{"type":"Feature","geometry":{"type":"LineString","coordinates":[[16.59441,41.18725],[16.59402,41.18755],[16.59377,41.18762]]},"properties":{}},{"type":"Feature","geometry":{"type":"LineString","coordinates":[[16.59371,41.1875],[16.59386,41.18745],[16.59384,41.18742],[16.59387,41.18739],[16.59395,41.18739],[16.59443,41.18765],[16.5947,41.18773]]},"properties":{}},{"type":"Feature","geometry":{"type":"LineString","coordinates":[[16.59385,41.18681],[16.59441,41.18725],[16.59459,41.18734],[16.59466,41.18749],[16.59473,41.18757],[16.59467,41.18766],[16.5947,41.18773],[16.59509,41.1879],[16.59523,41.18808],[16.59534,41.18835],[16.59558,41.18848]]},"properties":{}},{"type":"Feature","geometry":{"type":"LineString","coordinates":[[16.59377,41.18771],[16.59374,41.18788],[16.59366,41.18799],[16.59363,41.18812],[16.5935,41.1882],[16.59317,41.18784],[16.59317,41.18775],[16.59288,41.18751]]},"properties":{}},{"type":"Feature","geometry":{"type":"LineString","coordinates":[[16.5939,41.18759],[16.59394,41.18767],[16.59427,41.18782],[16.59438,41.18794],[16.59471,41.18849]]},"properties":{}},{"type":"Feature","geometry":{"type":"LineString","coordinates":[[16.59676,41.18988],[16.59662,41.18961],[16.59665,41.18956],[16.59683,41.18952],[16.59687,41.18945],[16.59696,41.18938],[16.59696,41.18933],[16.59685,41.18926],[16.59683,41.18921],[16.59693,41.18907],[16.59621,41.18805],[16.59598,41.18777],[16.59568,41.1875],[16.595,41.18702],[16.59448,41.18675],[16.59443,41.18666],[16.59486,41.18632]]},"properties":{}},{"type":"Feature","geometry":{"type":"LineString","coordinates":[[16.59558,41.18848],[16.59567,41.18856],[16.59572,41.18868],[16.59567,41.18878],[16.59563,41.18879],[16.59551,41.18874],[16.59548,41.18862],[16.5955,41.18856],[16.59521,41.18843],[16.59496,41.18842],[16.59478,41.18848],[16.59458,41.1885]]},"properties":{}},{"type":"Feature","geometry":{"type":"LineString","coordinates":[[16.59478,41.18848],[16.5951,41.18888],[16.59532,41.18905],[16.59543,41.18906],[16.59576,41.18891],[16.59578,41.18884],[16.59567,41.18878]]},"properties":{}},{"type":"Feature","geometry":{"type":"LineString","coordinates":[[16.59425,41.18942],[16.59463,41.18934],[16.59479,41.18936],[16.59494,41.18932],[16.59524,41.18908],[16.59527,41.18903]]},"properties":{}},{"type":"Feature","geometry":{"type":"LineString","coordinates":[[16.66159,41.1888],[16.66183,41.18883],[16.66249,41.18878]]},"properties":{}},{"type":"Feature","geometry":{"type":"LineString","coordinates":[[16.66155,41.1889],[16.66143,41.18888],[16.66141,41.18883],[16.66143,41.18879],[16.66152,41.18876],[16.66158,41.18879],[16.6616,41.18885],[16.66155,41.1889]]},"properties":{}},{"type":"Feature","geometry":{"type":"LineString","coordinates":[[16.66249,41.18878],[16.66156,41.1889]]},"properties":{}},{"type":"Feature","geometry":{"type":"LineString","coordinates":[[16.65845,41.18921],[16.65871,41.18923],[16.66101,41.18894],[16.66131,41.18887],[16.66141,41.18881]]},"properties":{}},{"type":"Feature","geometry":{"type":"LineString","coordinates":[[16.66148,41.18891],[16.65894,41.18925]]},"properties":{}},{"type":"Feature","geometry":{"type":"LineString","coordinates":[[16.65843,41.18919],[16.65845,41.18923],[16.65842,41.18929],[16.65835,41.18931],[16.65828,41.18927],[16.65831,41.18918],[16.65843,41.18919]]},"properties":{}},{"type":"Feature","geometry":{"type":"LineString","coordinates":[[16.65894,41.18925],[16.65844,41.18928]]},"properties":{}},{"type":"Feature","geometry":{"type":"LineString","coordinates":[[16.65659,41.18953],[16.65811,41.18931],[16.65827,41.18923]]},"properties":{}},{"type":"Feature","geometry":{"type":"LineString","coordinates":[[16.65835,41.18931],[16.65823,41.18935],[16.65659,41.18953]]},"properties":{}},{"type":"Feature","geometry":{"type":"LineString","coordinates":[[16.66786,41.1897],[16.66785,41.18968]]},"properties":{}},{"type":"Feature","geometry":{"type":"LineString","coordinates":[[16.65914,41.19],[16.65805,41.18997],[16.65748,41.18986],[16.6574,41.18979],[16.65733,41.18947]]},"properties":{}},{"type":"Feature","geometry":{"type":"LineString","coordinates":[[16.66381,41.19034],[16.6638,41.19038]]},"properties":{}},{"type":"Feature","geometry":{"type":"LineString","coordinates":[[16.64837,41.19033],[16.64857,41.19043],[16.64899,41.19048]]},"properties":{}},{"type":"Feature","geometry":{"type":"LineString","coordinates":[[16.66366,41.1904],[16.66373,41.19042]]},"properties":{}},{"type":"Feature","geometry":{"type":"LineString","coordinates":[[16.6475,41.19067],[16.64803,41.19048],[16.64823,41.19029]]},"properties":{}},{"type":"Feature","geometry":{"type":"LineString","coordinates":[[16.67173,41.18922],[16.67174,41.18924],[16.67159,41.18958],[16.67148,41.18966],[16.67136,41.18969],[16.66979,41.18982],[16.66775,41.1897],[16.66694,41.18998],[16.66644,41.19052],[16.66595,41.1907],[16.66567,41.19074],[16.66534,41.19071],[16.66441,41.19035],[16.6638,41.19038],[16.66348,41.19055],[16.66262,41.19161],[16.66238,41.19183],[16.66222,41.19192],[16.6619,41.19199],[16.6617,41.19199],[16.66114,41.19189],[16.66073,41.19178],[16.66067,41.19172]]},"properties":{}},{"type":"Feature","geometry":{"type":"LineString","coordinates":[[16.63496,41.19221],[16.63498,41.19221]]},"properties":{}},{"type":"Feature","geometry":{"type":"LineString","coordinates":[[16.63443,41.19228],[16.63446,41.19227]]},"properties":{}},{"type":"Feature","geometry":{"type":"LineString","coordinates":[[16.65733,41.18947],[16.63533,41.19219],[16.63345,41.19244],[16.62853,41.19319],[16.62005,41.19528],[16.62004,41.19524]]},"properties":{}},{"type":"Feature","geometry":{"type":"LineString","coordinates":[[16.62612,41.19399],[16.62603,41.19393],[16.62567,41.19384]]},"properties":{}},{"type":"Feature","geometry":{"type":"LineString","coordinates":[[16.59654,41.18994],[16.59614,41.18991],[16.59595,41.18981],[16.59571,41.18943],[16.59563,41.18938],[16.59556,41.18938],[16.59539,41.18949]]},"properties":{}},{"type":"Feature","geometry":{"type":"LineString","coordinates":[[16.59741,41.19033],[16.59732,41.18993],[16.59679,41.18994],[16.59676,41.18988],[16.59655,41.1899]]},"properties":{}},{"type":"Feature","geometry":{"type":"LineString","coordinates":[[16.5829,41.19119],[16.5841,41.19497],[16.58415,41.19499],[16.58512,41.19482],[16.58516,41.19483],[16.58529,41.1953]]},"properties":{}},{"type":"Feature","geometry":{"type":"LineString","coordinates":[[16.60639,41.1948],[16.60631,41.19466],[16.60619,41.19466],[16.60603,41.1946],[16.60589,41.19447],[16.60554,41.19404],[16.60283,41.19473],[16.60156,41.19501],[16.60001,41.19574],[16.59988,41.19563],[16.5982,41.19602]]},"properties":{}},{"type":"Feature","geometry":{"type":"LineString","coordinates":[[16.58529,41.1953],[16.5847,41.19628],[16.58472,41.1963]]},"properties":{}},{"type":"Feature","geometry":{"type":"LineString","coordinates":[[16.58486,41.19635],[16.58505,41.19622],[16.58532,41.19616],[16.58534,41.19618]]},"properties":{}},{"type":"Feature","geometry":{"type":"LineString","coordinates":[[16.58534,41.19618],[16.58569,41.1961],[16.58593,41.19636],[16.58614,41.1965]]},"properties":{}},{"type":"Feature","geometry":{"type":"LineString","coordinates":[[16.58472,41.1963],[16.58486,41.19635]]},"properties":{}},{"type":"Feature","geometry":{"type":"LineString","coordinates":[[16.58898,41.19771],[16.58916,41.19762],[16.58928,41.19759],[16.58937,41.19761],[16.59435,41.19642]]},"properties":{}},{"type":"Feature","geometry":{"type":"LineString","coordinates":[[16.58614,41.1965],[16.58542,41.19766]]},"properties":{}},{"type":"Feature","geometry":{"type":"LineString","coordinates":[[16.62586,41.19429],[16.62607,41.19416],[16.62612,41.19399]]},"properties":{}},{"type":"Feature","geometry":{"type":"LineString","coordinates":[[16.60846,41.19472],[16.60804,41.19458],[16.60772,41.19455]]},"properties":{}},{"type":"Feature","geometry":{"type":"LineString","coordinates":[[16.60772,41.19455],[16.60728,41.19456],[16.60639,41.1948]]},"properties":{}},{"type":"Feature","geometry":{"type":"LineString","coordinates":[[16.60957,41.19516],[16.60846,41.19472]]},"properties":{}},{"type":"Feature","geometry":{"type":"LineString","coordinates":[[16.62008,41.19599],[16.62077,41.19586],[16.62148,41.19567],[16.62216,41.19545],[16.62467,41.1948],[16.62486,41.19474],[16.62586,41.19429]]},"properties":{}},{"type":"Feature","geometry":{"type":"LineString","coordinates":[[16.61024,41.19543],[16.60957,41.19516]]},"properties":{}},{"type":"Feature","geometry":{"type":"LineString","coordinates":[[16.60639,41.1948],[16.60442,41.1953],[16.60262,41.19593]]},"properties":{}},{"type":"Feature","geometry":{"type":"LineString","coordinates":[[16.61046,41.19552],[16.61024,41.19543]]},"properties":{}},{"type":"Feature","geometry":{"type":"LineString","coordinates":[[16.61209,41.19616],[16.61046,41.19552]]},"properties":{}},{"type":"Feature","geometry":{"type":"LineString","coordinates":[[16.61356,41.19672],[16.61209,41.19616]]},"properties":{}},{"type":"Feature","geometry":{"type":"LineString","coordinates":[[16.61606,41.19716],[16.61627,41.19704],[16.61662,41.19691],[16.61983,41.1961],[16.62001,41.19602]]},"properties":{}},{"type":"Feature","geometry":{"type":"LineString","coordinates":[[16.61376,41.19759],[16.61338,41.19709],[16.6136,41.19674],[16.61356,41.19672]]},"properties":{}},{"type":"Feature","geometry":{"type":"LineString","coordinates":[[16.61457,41.19728],[16.61378,41.19762],[16.61376,41.19759]]},"properties":{}},{"type":"Feature","geometry":{"type":"LineString","coordinates":[[16.58542,41.19766],[16.58566,41.19775]]},"properties":{}},{"type":"Feature","geometry":{"type":"LineString","coordinates":[[16.58566,41.19775],[16.58563,41.19788],[16.58584,41.19826],[16.58597,41.19825]]},"properties":{}},{"type":"Feature","geometry":{"type":"LineString","coordinates":[[16.58605,41.1984],[16.58613,41.19838],[16.58621,41.19843],[16.5865,41.19838],[16.5889,41.19775],[16.58901,41.1977]]},"properties":{}},{"type":"Feature","geometry":{"type":"LineString","coordinates":[[16.58577,41.19813],[16.58568,41.19816]]},"properties":{}},{"type":"Feature","geometry":{"type":"LineString","coordinates":[[16.58568,41.19816],[16.58561,41.19824]]},"properties":{}},{"type":"Feature","geometry":{"type":"LineString","coordinates":[[16.58597,41.19825],[16.58605,41.1984]]},"properties":{}},{"type":"Feature","geometry":{"type":"LineString","coordinates":[[16.58561,41.19824],[16.58574,41.19845]]},"properties":{}},{"type":"Feature","geometry":{"type":"LineString","coordinates":[[16.58574,41.19845],[16.5857,41.19861]]},"properties":{}},{"type":"Feature","geometry":{"type":"LineString","coordinates":[[16.5857,41.19861],[16.58574,41.1987]]},"properties":{}},{"type":"Feature","geometry":{"type":"LineString","coordinates":[[16.58574,41.1987],[16.58579,41.19877]]},"properties":{}},{"type":"Feature","geometry":{"type":"LineString","coordinates":[[16.58579,41.19877],[16.58582,41.19883]]},"properties":{}},{"type":"Feature","geometry":{"type":"LineString","coordinates":[[16.58582,41.19883],[16.58595,41.19891]]},"properties":{}},{"type":"Feature","geometry":{"type":"LineString","coordinates":[[16.58595,41.19891],[16.58597,41.19899]]},"properties":{}},{"type":"Feature","geometry":{"type":"LineString","coordinates":[[16.58597,41.19899],[16.58666,41.20046]]},"properties":{}},{"type":"Feature","geometry":{"type":"LineString","coordinates":[[16.58666,41.20046],[16.5867,41.20054]]},"properties":{}},{"type":"Feature","geometry":{"type":"LineString","coordinates":[[16.5867,41.20054],[16.58687,41.20058]]},"properties":{}},{"type":"Feature","geometry":{"type":"LineString","coordinates":[[16.58692,41.20066],[16.58687,41.20058]]},"properties":{}},{"type":"Feature","geometry":{"type":"LineString","coordinates":[[16.58692,41.20066],[16.58744,41.20188]]},"properties":{}},{"type":"Feature","geometry":{"type":"LineString","coordinates":[[16.58744,41.20188],[16.58748,41.20199]]},"properties":{}},{"type":"Feature","geometry":{"type":"LineString","coordinates":[[16.58757,41.20197],[16.58687,41.20217],[16.58738,41.20333]]},"properties":{}},{"type":"Feature","geometry":{"type":"LineString","coordinates":[[16.58738,41.20333],[16.58748,41.20355]]},"properties":{}},{"type":"Feature","geometry":{"type":"LineString","coordinates":[[16.60098,41.20401],[16.60069,41.20401],[16.60051,41.20395]]},"properties":{}},{"type":"Feature","geometry":{"type":"LineString","coordinates":[[16.58771,41.20552],[16.58774,41.20558],[16.58773,41.20565],[16.58794,41.20608],[16.58699,41.20633]]},"properties":{}},{"type":"Feature","geometry":{"type":"LineString","coordinates":[[16.58129,41.20833],[16.58251,41.20783],[16.5849,41.20709],[16.585,41.20705],[16.58506,41.20691]]},"properties":{}},{"type":"Feature","geometry":{"type":"LineString","coordinates":[[16.52842,41.22956],[16.52808,41.22922]]},"properties":{}},{"type":"Feature","geometry":{"type":"LineString","coordinates":[[16.52808,41.22922],[16.52842,41.22943],[16.52859,41.2296]]},"properties":{}},{"type":"Feature","geometry":{"type":"LineString","coordinates":[[16.52852,41.22969],[16.52842,41.22956]]},"properties":{}},{"type":"Feature","geometry":{"type":"LineString","coordinates":[[16.52859,41.2296],[16.5287,41.22969]]},"properties":{}},{"type":"Feature","geometry":{"type":"LineString","coordinates":[[16.5287,41.22969],[16.52906,41.22973]]},"properties":{}},{"type":"Feature","geometry":{"type":"LineString","coordinates":[[16.52877,41.22986],[16.52852,41.22969]]},"properties":{}},{"type":"Feature","geometry":{"type":"LineString","coordinates":[[16.5287,41.22969],[16.52877,41.22986]]},"properties":{}},{"type":"Feature","geometry":{"type":"LineString","coordinates":[[16.52842,41.23002],[16.52852,41.22982],[16.52852,41.22969]]},"properties":{}},{"type":"Feature","geometry":{"type":"LineString","coordinates":[[16.51327,41.23328],[16.51326,41.23321],[16.51331,41.23318],[16.51342,41.23322],[16.51341,41.23328],[16.51337,41.2333],[16.51327,41.23328]]},"properties":{}},{"type":"Feature","geometry":{"type":"LineString","coordinates":[[16.50653,41.23461],[16.50973,41.23337],[16.51172,41.23327]]},"properties":{}},{"type":"Feature","geometry":{"type":"LineString","coordinates":[[16.51166,41.23337],[16.50975,41.23344],[16.50655,41.23468]]},"properties":{}},{"type":"Feature","geometry":{"type":"LineString","coordinates":[[16.50498,41.23371],[16.50646,41.23458]]},"properties":{}},{"type":"Feature","geometry":{"type":"LineString","coordinates":[[16.50631,41.23464],[16.50623,41.23448],[16.50491,41.23375]]},"properties":{}},{"type":"Feature","geometry":{"type":"LineString","coordinates":[[16.50628,41.23479],[16.50623,41.23471],[16.50631,41.23464],[16.50641,41.23459],[16.50653,41.23461],[16.50655,41.23468],[16.50652,41.23472],[16.50628,41.23479]]},"properties":{}},{"type":"Feature","geometry":{"type":"LineString","coordinates":[[16.5,41.23571],[16.50007,41.23585],[16.5,41.23598]]},"properties":{}},{"type":"Feature","geometry":{"type":"LineString","coordinates":[[16.51749,41.24309],[16.51761,41.24311],[16.51793,41.24306],[16.5201,41.24232],[16.52066,41.24209],[16.52081,41.24196],[16.52086,41.24186],[16.52082,41.24182]]},"properties":{}},{"type":"Feature","geometry":{"type":"LineString","coordinates":[[16.50463,41.24479],[16.50457,41.2448]]},"properties":{}},{"type":"Feature","geometry":{"type":"LineString","coordinates":[[16.50485,41.24654],[16.50509,41.24621],[16.50534,41.24573],[16.50538,41.24546],[16.50527,41.24506],[16.5052,41.24491],[16.50515,41.24488],[16.50463,41.24479]]},"properties":{}},{"type":"Feature","geometry":{"type":"LineString","coordinates":[[16.50485,41.24654],[16.50472,41.24668],[16.50397,41.24718],[16.5024,41.24796],[16.50207,41.24803],[16.50172,41.24803],[16.50086,41.24785],[16.50052,41.24782],[16.50034,41.24784],[16.5,41.24795]]},"properties":{}}]}