{"type":"FeatureCollection","features":[{"type":"Feature","geometry":{"type":"LineString","coordinates":[[16.94071,39.48619],[16.94062,39.48631],[16.9406,39.48645],[16.94072,39.48726],[16.94081,39.48762],[16.94089,39.48775],[16.94117,39.48789],[16.94136,39.48804],[16.94174,39.48859],[16.94219,39.48909],[16.94225,39.48927],[16.9423,39.48961],[16.94252,39.48973],[16.94286,39.49005],[16.94353,39.49091],[16.9441,39.49139],[16.94423,39.49148],[16.94501,39.49165],[16.94559,39.49199],[16.94685,39.49288],[16.94704,39.49313],[16.94707,39.49335],[16.9468,39.4939],[16.94674,39.4943],[16.94676,39.49467],[16.94663,39.4949],[16.94663,39.49496],[16.94666,39.49499]]},"properties":{}},{"type":"Feature","geometry":{"type":"LineString","coordinates":[[16.9534,39.49452],[16.95356,39.49455],[16.95383,39.49452]]},"properties":{}},{"type":"Feature","geometry":{"type":"LineString","coordinates":[[16.9534,39.49452],[16.95344,39.49456],[16.95367,39.49465]]},"properties":{}},{"type":"Feature","geometry":{"type":"LineString","coordinates":[[16.95366,39.4947],[16.95347,39.49465],[16.9534,39.49452]]},"properties":{}},{"type":"Feature","geometry":{"type":"LineString","coordinates":[[16.95366,39.49486],[16.95347,39.49465]]},"properties":{}},{"type":"Feature","geometry":{"type":"LineString","coordinates":[[16.94666,39.49499],[16.94743,39.49497]]},"properties":{}},{"type":"Feature","geometry":{"type":"LineString","coordinates":[[16.94743,39.49497],[16.94759,39.49495],[16.94766,39.495],[16.94785,39.49535],[16.94821,39.49577],[16.94823,39.49582],[16.94816,39.49592],[16.94788,39.49597],[16.94753,39.49609],[16.94752,39.49618],[16.94761,39.4962],[16.94789,39.49607],[16.94806,39.49608],[16.94819,39.49616],[16.94835,39.49609],[16.94843,39.49596],[16.94833,39.49554],[16.94837,39.49545],[16.9485,39.49539],[16.95036,39.49579],[16.95117,39.49576],[16.95218,39.49566],[16.95267,39.49557],[16.95293,39.49545],[16.95317,39.49521],[16.95323,39.49486],[16.9531,39.49428],[16.95312,39.49418],[16.95325,39.49413],[16.95336,39.49418],[16.9534,39.49452]]},"properties":{}}]}