{"type":"FeatureCollection","features":[{"type":"Feature","geometry":{"type":"LineString","coordinates":[[16.75,38.90012],[16.75006,38.90014]]},"properties":{}},{"type":"Feature","geometry":{"type":"LineString","coordinates":[[16.75006,38.90014],[16.75,38.90013]]},"properties":{}},{"type":"Feature","geometry":{"type":"LineString","coordinates":[[16.86125,38.9221],[16.86521,38.92272],[16.86875,38.92376]]},"properties":{}},{"type":"Feature","geometry":{"type":"LineString","coordinates":[[16.86872,38.92382],[16.86518,38.92278],[16.86125,38.92217]]},"properties":{}},{"type":"Feature","geometry":{"type":"LineString","coordinates":[[16.84083,38.9311],[16.84085,38.93121],[16.84081,38.93134]]},"properties":{}},{"type":"Feature","geometry":{"type":"LineString","coordinates":[[16.84066,38.93134],[16.84071,38.93121],[16.84083,38.9311]]},"properties":{}},{"type":"Feature","geometry":{"type":"LineString","coordinates":[[16.84065,38.93153],[16.84066,38.93134],[16.84062,38.93121],[16.84035,38.93099]]},"properties":{}},{"type":"Feature","geometry":{"type":"LineString","coordinates":[[16.84131,38.93122],[16.84108,38.93123],[16.84087,38.9313],[16.84078,38.93136],[16.84065,38.93153]]},"properties":{}},{"type":"Feature","geometry":{"type":"LineString","coordinates":[[16.85571,38.9333],[16.85562,38.93323],[16.85563,38.93314],[16.85574,38.93308],[16.85586,38.93312],[16.85589,38.93319],[16.85587,38.93325],[16.8558,38.9333],[16.85571,38.9333]]},"properties":{}},{"type":"Feature","geometry":{"type":"LineString","coordinates":[[16.86926,38.93793],[16.86948,38.9379],[16.86978,38.9377]]},"properties":{}},{"type":"Feature","geometry":{"type":"LineString","coordinates":[[16.8696,38.938],[16.86962,38.93785],[16.86978,38.9377]]},"properties":{}},{"type":"Feature","geometry":{"type":"LineString","coordinates":[[16.86978,38.9377],[16.86975,38.93779],[16.86976,38.9379],[16.86982,38.93798],[16.86995,38.93808]]},"properties":{}},{"type":"Feature","geometry":{"type":"LineString","coordinates":[[16.99173,38.93717],[16.99177,38.9372]]},"properties":{}},{"type":"Feature","geometry":{"type":"LineString","coordinates":[[16.99148,38.93734],[16.99146,38.93727],[16.99152,38.93717],[16.9916,38.93714],[16.99173,38.93717]]},"properties":{}},{"type":"Feature","geometry":{"type":"LineString","coordinates":[[16.99177,38.9372],[16.99179,38.93729]]},"properties":{}},{"type":"Feature","geometry":{"type":"LineString","coordinates":[[16.99179,38.93729],[16.99176,38.93735]]},"properties":{}},{"type":"Feature","geometry":{"type":"LineString","coordinates":[[16.99154,38.93738],[16.99148,38.93734]]},"properties":{}},{"type":"Feature","geometry":{"type":"LineString","coordinates":[[16.99176,38.93735],[16.99166,38.9374],[16.99154,38.93738]]},"properties":{}},{"type":"Feature","geometry":{"type":"LineString","coordinates":[[16.93114,38.94474],[16.93118,38.94491],[16.93125,38.945]]},"properties":{}},{"type":"Feature","geometry":{"type":"LineString","coordinates":[[16.9309,38.94501],[16.93107,38.94486],[16.93114,38.94474]]},"properties":{}},{"type":"Feature","geometry":{"type":"LineString","coordinates":[[16.93135,38.94505],[16.93142,38.94511],[16.93149,38.94528],[16.93148,38.94537],[16.93135,38.94553],[16.93113,38.94561],[16.931,38.9456],[16.93088,38.94556],[16.93072,38.94543],[16.93068,38.94527],[16.93075,38.94512],[16.93081,38.94506],[16.93101,38.94498],[16.93113,38.94498],[16.93135,38.94505]]},"properties":{}},{"type":"Feature","geometry":{"type":"LineString","coordinates":[[16.93032,38.94543],[16.93053,38.94536],[16.93068,38.94527]]},"properties":{}},{"type":"Feature","geometry":{"type":"LineString","coordinates":[[16.93149,38.94528],[16.93157,38.9455],[16.93169,38.94563]]},"properties":{}},{"type":"Feature","geometry":{"type":"LineString","coordinates":[[16.93078,38.9455],[16.93032,38.94543]]},"properties":{}},{"type":"Feature","geometry":{"type":"LineString","coordinates":[[16.93169,38.94563],[16.93147,38.94557],[16.93125,38.94558]]},"properties":{}},{"type":"Feature","geometry":{"type":"LineString","coordinates":[[16.94453,38.94685],[16.94469,38.94685]]},"properties":{}},{"type":"Feature","geometry":{"type":"LineString","coordinates":[[16.94447,38.94689],[16.94453,38.94685]]},"properties":{}},{"type":"Feature","geometry":{"type":"LineString","coordinates":[[16.94443,38.947],[16.94442,38.94696],[16.94447,38.94689]]},"properties":{}},{"type":"Feature","geometry":{"type":"LineString","coordinates":[[16.94469,38.94685],[16.94477,38.9469],[16.94479,38.94696],[16.94478,38.94703],[16.94472,38.94709]]},"properties":{}},{"type":"Feature","geometry":{"type":"LineString","coordinates":[[16.94455,38.94711],[16.94443,38.947]]},"properties":{}},{"type":"Feature","geometry":{"type":"LineString","coordinates":[[16.94472,38.94709],[16.94468,38.94711]]},"properties":{}},{"type":"Feature","geometry":{"type":"LineString","coordinates":[[16.94468,38.94711],[16.94455,38.94711]]},"properties":{}}]}