{"type":"FeatureCollection","features":[{"type":"Feature","geometry":{"type":"LineString","coordinates":[[17.23518,40.76977],[17.2357,40.76943],[17.23604,40.7691],[17.23627,40.76899],[17.23647,40.76896],[17.23707,40.76899],[17.23777,40.76912],[17.23876,40.76937],[17.239,40.76937],[17.24075,40.76877],[17.24197,40.76778],[17.24217,40.76771],[17.24234,40.7677],[17.24276,40.76785],[17.24351,40.76822],[17.24371,40.76842],[17.24404,40.76904],[17.24422,40.76917],[17.25,40.77011]]},"properties":{}},{"type":"Feature","geometry":{"type":"LineString","coordinates":[[17.23511,40.76985],[17.23518,40.76977]]},"properties":{}},{"type":"Feature","geometry":{"type":"LineString","coordinates":[[17.23447,40.77198],[17.2345,40.77181],[17.23459,40.77156],[17.23487,40.77104],[17.23494,40.77081],[17.23501,40.77057],[17.23511,40.76985]]},"properties":{}},{"type":"Feature","geometry":{"type":"LineString","coordinates":[[17.23447,40.77198],[17.23456,40.77219],[17.23474,40.773],[17.23511,40.77361],[17.23515,40.77387],[17.23508,40.77469],[17.23506,40.77578],[17.23499,40.77615],[17.23499,40.77638],[17.23514,40.77707],[17.23522,40.77721],[17.23561,40.77751],[17.23573,40.77764],[17.23579,40.77794]]},"properties":{}},{"type":"Feature","geometry":{"type":"LineString","coordinates":[[17.23579,40.77794],[17.23589,40.77813]]},"properties":{}},{"type":"Feature","geometry":{"type":"LineString","coordinates":[[17.24464,40.78546],[17.24396,40.78529]]},"properties":{}},{"type":"Feature","geometry":{"type":"LineString","coordinates":[[17.24025,40.78552],[17.24086,40.7865]]},"properties":{}},{"type":"Feature","geometry":{"type":"LineString","coordinates":[[17.24025,40.78552],[17.24073,40.78576],[17.24184,40.78649],[17.24185,40.78656],[17.24176,40.78659]]},"properties":{}},{"type":"Feature","geometry":{"type":"LineString","coordinates":[[17.24396,40.78529],[17.24302,40.78737]]},"properties":{}},{"type":"Feature","geometry":{"type":"LineString","coordinates":[[17.23596,40.78681],[17.23591,40.78665],[17.23597,40.78645],[17.23592,40.78639]]},"properties":{}},{"type":"Feature","geometry":{"type":"LineString","coordinates":[[17.23596,40.78681],[17.23602,40.78694],[17.23601,40.78704],[17.23681,40.78743],[17.23702,40.78757]]},"properties":{}},{"type":"Feature","geometry":{"type":"LineString","coordinates":[[17.2413,40.78814],[17.24128,40.78807],[17.24138,40.78785],[17.24136,40.78761],[17.24086,40.7865]]},"properties":{}},{"type":"Feature","geometry":{"type":"LineString","coordinates":[[17.24143,40.78824],[17.2416,40.78782],[17.24186,40.7874],[17.2423,40.7869],[17.24372,40.78788]]},"properties":{}},{"type":"Feature","geometry":{"type":"LineString","coordinates":[[17.24183,40.78901],[17.24271,40.78889],[17.24383,40.78884]]},"properties":{}},{"type":"Feature","geometry":{"type":"LineString","coordinates":[[17.18377,40.80143],[17.18178,40.80101],[17.18138,40.80088],[17.18107,40.80061],[17.17985,40.79993],[17.17902,40.79962],[17.17615,40.79882],[17.1755,40.79872],[17.17475,40.79867],[17.1741,40.79869],[17.17347,40.79881],[17.17227,40.79872],[17.17062,40.79781],[17.17001,40.79755],[17.16916,40.79698],[17.16842,40.79658],[17.16769,40.79589],[17.16672,40.79536],[17.16606,40.79513],[17.1645,40.79453],[17.16243,40.79415],[17.16159,40.79395],[17.16024,40.79322],[17.15969,40.79301],[17.15943,40.79296],[17.15923,40.79296],[17.15863,40.79302],[17.15801,40.7929],[17.15707,40.7926],[17.15636,40.79234],[17.15505,40.79202],[17.15422,40.7919],[17.15306,40.79189],[17.1521,40.79214],[17.1517,40.79213],[17.15094,40.792],[17.14982,40.7919],[17.14816,40.79161],[17.14777,40.7917],[17.1475,40.79168],[17.14679,40.79156],[17.14645,40.79135],[17.14604,40.79096]]},"properties":{}},{"type":"Feature","geometry":{"type":"LineString","coordinates":[[17.18236,40.80693],[17.18276,40.80682],[17.183,40.8062],[17.18318,40.80445],[17.18311,40.80403],[17.18328,40.80347],[17.1833,40.80279],[17.18336,40.8025],[17.18373,40.80168],[17.18377,40.80143]]},"properties":{}},{"type":"Feature","geometry":{"type":"LineString","coordinates":[[17.1294,40.7886],[17.13008,40.78865]]},"properties":{}},{"type":"Feature","geometry":{"type":"LineString","coordinates":[[17.12904,40.78865],[17.1294,40.7886]]},"properties":{}},{"type":"Feature","geometry":{"type":"LineString","coordinates":[[17.13008,40.78865],[17.12945,40.7887]]},"properties":{}},{"type":"Feature","geometry":{"type":"LineString","coordinates":[[17.12945,40.7887],[17.12904,40.78865]]},"properties":{}},{"type":"Feature","geometry":{"type":"LineString","coordinates":[[17.13197,40.78883],[17.13234,40.78891]]},"properties":{}},{"type":"Feature","geometry":{"type":"LineString","coordinates":[[17.13224,40.78896],[17.13197,40.78883]]},"properties":{}},{"type":"Feature","geometry":{"type":"LineString","coordinates":[[17.14598,40.79086],[17.14594,40.79082],[17.14579,40.7908],[17.14558,40.79086],[17.1446,40.79076],[17.14421,40.79067],[17.14371,40.79052],[17.1436,40.79045]]},"properties":{}},{"type":"Feature","geometry":{"type":"LineString","coordinates":[[17.12917,40.7909],[17.1289,40.79082],[17.12842,40.79074]]},"properties":{}},{"type":"Feature","geometry":{"type":"LineString","coordinates":[[17.14604,40.79096],[17.14598,40.79086]]},"properties":{}},{"type":"Feature","geometry":{"type":"LineString","coordinates":[[17.13112,40.79224],[17.13225,40.79137],[17.13259,40.79107]]},"properties":{}},{"type":"Feature","geometry":{"type":"LineString","coordinates":[[17.12028,40.79793],[17.12031,40.79787],[17.12041,40.79785],[17.12047,40.79789],[17.12047,40.79797]]},"properties":{}},{"type":"Feature","geometry":{"type":"LineString","coordinates":[[17.12047,40.79797],[17.12036,40.798],[17.12028,40.79793]]},"properties":{}},{"type":"Feature","geometry":{"type":"LineString","coordinates":[[17.14882,40.84129],[17.14875,40.84132]]},"properties":{}},{"type":"Feature","geometry":{"type":"LineString","coordinates":[[17.11807,40.84529],[17.11819,40.84523]]},"properties":{}},{"type":"Feature","geometry":{"type":"LineString","coordinates":[[17.14889,40.84126],[17.14882,40.84129],[17.14916,40.8418],[17.14944,40.84211],[17.15152,40.84364],[17.15169,40.84387],[17.15178,40.84409],[17.15177,40.84434],[17.15169,40.84457],[17.15154,40.84477],[17.15129,40.84494],[17.14722,40.84733],[17.14695,40.84743],[17.14285,40.84819],[17.14182,40.84844],[17.13338,40.85082],[17.13282,40.85101],[17.13142,40.85172],[17.13062,40.852],[17.1297,40.8522],[17.12861,40.85234]]},"properties":{}},{"type":"Feature","geometry":{"type":"LineString","coordinates":[[17.13185,40.8485],[17.13199,40.84834]]},"properties":{}},{"type":"Feature","geometry":{"type":"LineString","coordinates":[[17.13235,40.84868],[17.13197,40.84876]]},"properties":{}},{"type":"Feature","geometry":{"type":"LineString","coordinates":[[17.1286,40.85229],[17.12862,40.8524]]},"properties":{}},{"type":"Feature","geometry":{"type":"LineString","coordinates":[[17.14925,40.87531],[17.14925,40.87538],[17.14936,40.87552],[17.14942,40.87569]]},"properties":{}},{"type":"Feature","geometry":{"type":"LineString","coordinates":[[17.15098,40.87529],[17.15036,40.8749],[17.1501,40.87482],[17.14994,40.87482],[17.14975,40.87486],[17.14955,40.87495],[17.14915,40.8753],[17.1492,40.87542],[17.14941,40.87572],[17.15014,40.87621],[17.15155,40.87692],[17.15159,40.877],[17.15152,40.87712]]},"properties":{}},{"type":"Feature","geometry":{"type":"LineString","coordinates":[[17.14942,40.87569],[17.15025,40.87624],[17.15165,40.87691]]},"properties":{}},{"type":"Feature","geometry":{"type":"LineString","coordinates":[[17.15158,40.87715],[17.15164,40.87697]]},"properties":{}},{"type":"Feature","geometry":{"type":"LineString","coordinates":[[17.15173,40.87702],[17.15158,40.87715]]},"properties":{}},{"type":"Feature","geometry":{"type":"LineString","coordinates":[[17.15152,40.87712],[17.15134,40.8774],[17.15125,40.87762],[17.15122,40.8778]]},"properties":{}},{"type":"Feature","geometry":{"type":"LineString","coordinates":[[17.15122,40.8778],[17.15122,40.87785]]},"properties":{}},{"type":"Feature","geometry":{"type":"LineString","coordinates":[[17.15122,40.87785],[17.15121,40.87794]]},"properties":{}},{"type":"Feature","geometry":{"type":"LineString","coordinates":[[17.15121,40.87794],[17.1512,40.87813]]},"properties":{}},{"type":"Feature","geometry":{"type":"LineString","coordinates":[[17.15118,40.87897],[17.15125,40.87862],[17.15131,40.87767],[17.15142,40.87739],[17.15158,40.87715]]},"properties":{}},{"type":"Feature","geometry":{"type":"LineString","coordinates":[[17.16827,40.87494],[17.16884,40.87498]]},"properties":{}},{"type":"Feature","geometry":{"type":"LineString","coordinates":[[17.16819,40.87493],[17.1683,40.87497],[17.16827,40.87504]]},"properties":{}},{"type":"Feature","geometry":{"type":"LineString","coordinates":[[17.16827,40.87504],[17.16821,40.87505],[17.16815,40.87502],[17.16815,40.87496],[17.16819,40.87493]]},"properties":{}},{"type":"Feature","geometry":{"type":"LineString","coordinates":[[17.16881,40.87505],[17.16847,40.875],[17.16827,40.87504]]},"properties":{}},{"type":"Feature","geometry":{"type":"LineString","coordinates":[[17.16799,40.87514],[17.16815,40.87496]]},"properties":{}},{"type":"Feature","geometry":{"type":"LineString","coordinates":[[17.15625,40.8744],[17.15759,40.87374],[17.15783,40.87368],[17.15795,40.87369]]},"properties":{}},{"type":"Feature","geometry":{"type":"LineString","coordinates":[[17.15795,40.87369],[17.15884,40.87427],[17.15913,40.87455]]},"properties":{}},{"type":"Feature","geometry":{"type":"LineString","coordinates":[[17.15188,40.87382],[17.15157,40.87394],[17.15092,40.87441],[17.15104,40.87457],[17.15146,40.87491],[17.15095,40.87527]]},"properties":{}},{"type":"Feature","geometry":{"type":"LineString","coordinates":[[17.15913,40.87455],[17.15934,40.87469]]},"properties":{}},{"type":"Feature","geometry":{"type":"LineString","coordinates":[[17.15927,40.87477],[17.15913,40.87455]]},"properties":{}},{"type":"Feature","geometry":{"type":"LineString","coordinates":[[17.15945,40.87473],[17.15944,40.87481],[17.15937,40.87484],[17.1593,40.87482],[17.15927,40.87477],[17.15928,40.87472],[17.15934,40.87469],[17.15945,40.87473]]},"properties":{}},{"type":"Feature","geometry":{"type":"LineString","coordinates":[[17.15945,40.87473],[17.15967,40.87481]]},"properties":{}},{"type":"Feature","geometry":{"type":"LineString","coordinates":[[17.15967,40.87481],[17.15944,40.87481]]},"properties":{}},{"type":"Feature","geometry":{"type":"LineString","coordinates":[[17.15967,40.87481],[17.16002,40.87486],[17.16161,40.87498],[17.16236,40.87515],[17.16284,40.87532],[17.16375,40.87547],[17.164,40.87547],[17.16436,40.87542],[17.16528,40.87524],[17.1659,40.87521],[17.16655,40.8751],[17.16697,40.87511]]},"properties":{}},{"type":"Feature","geometry":{"type":"LineString","coordinates":[[17.15146,40.87562],[17.15132,40.87557],[17.15023,40.87494],[17.15001,40.87488],[17.14977,40.87493],[17.14925,40.87531]]},"properties":{}},{"type":"Feature","geometry":{"type":"LineString","coordinates":[[17.16881,40.87505],[17.16882,40.87501],[17.16889,40.87497],[17.16919,40.87505],[17.16921,40.8751],[17.16918,40.87515],[17.16904,40.87513]]},"properties":{}},{"type":"Feature","geometry":{"type":"LineString","coordinates":[[17.16919,40.87505],[17.16948,40.87508]]},"properties":{}},{"type":"Feature","geometry":{"type":"LineString","coordinates":[[17.16904,40.87513],[17.16881,40.87505]]},"properties":{}},{"type":"Feature","geometry":{"type":"LineString","coordinates":[[17.16824,40.87505],[17.16799,40.87514]]},"properties":{}},{"type":"Feature","geometry":{"type":"LineString","coordinates":[[17.16948,40.87508],[17.16918,40.87515]]},"properties":{}},{"type":"Feature","geometry":{"type":"LineString","coordinates":[[17.16697,40.87511],[17.16751,40.87515],[17.1679,40.87516],[17.16799,40.87514]]},"properties":{}},{"type":"Feature","geometry":{"type":"LineString","coordinates":[[17.16948,40.87508],[17.16988,40.87511],[17.17031,40.87518],[17.17058,40.87525],[17.171,40.87543]]},"properties":{}},{"type":"Feature","geometry":{"type":"LineString","coordinates":[[17.171,40.87543],[17.17134,40.87564],[17.1723,40.87607]]},"properties":{}},{"type":"Feature","geometry":{"type":"LineString","coordinates":[[17.16921,40.87674],[17.16918,40.87664],[17.16901,40.87635],[17.16892,40.87602],[17.16896,40.87581],[17.16915,40.87534],[17.16904,40.87513]]},"properties":{}},{"type":"Feature","geometry":{"type":"LineString","coordinates":[[17.17259,40.87622],[17.17244,40.87629],[17.17234,40.87642]]},"properties":{}},{"type":"Feature","geometry":{"type":"LineString","coordinates":[[17.17234,40.87642],[17.17224,40.87662]]},"properties":{}},{"type":"Feature","geometry":{"type":"LineString","coordinates":[[17.17209,40.87688],[17.17122,40.87667],[17.17068,40.87673],[17.1708,40.87699]]},"properties":{}},{"type":"Feature","geometry":{"type":"LineString","coordinates":[[17.16628,40.87775],[17.16651,40.87756],[17.16679,40.87726],[17.1693,40.87792]]},"properties":{}},{"type":"Feature","geometry":{"type":"LineString","coordinates":[[17.17224,40.87662],[17.17203,40.87696],[17.17159,40.87726],[17.17138,40.87749],[17.1713,40.87774],[17.17119,40.87794],[17.17043,40.87865],[17.17034,40.87868]]},"properties":{}},{"type":"Feature","geometry":{"type":"LineString","coordinates":[[17.16905,40.87857],[17.16921,40.87825],[17.16933,40.8777],[17.16925,40.87743],[17.16921,40.87674]]},"properties":{}},{"type":"Feature","geometry":{"type":"LineString","coordinates":[[17.1675,40.87744],[17.16743,40.87759],[17.16697,40.87775],[17.16669,40.87794]]},"properties":{}},{"type":"Feature","geometry":{"type":"LineString","coordinates":[[17.16743,40.87759],[17.16751,40.87764],[17.16756,40.87787]]},"properties":{}},{"type":"Feature","geometry":{"type":"LineString","coordinates":[[17.16628,40.87775],[17.16555,40.87826],[17.16552,40.87837],[17.16556,40.87843]]},"properties":{}},{"type":"Feature","geometry":{"type":"LineString","coordinates":[[17.16727,40.87876],[17.16667,40.87833],[17.16642,40.87799],[17.16628,40.87775]]},"properties":{}},{"type":"Feature","geometry":{"type":"LineString","coordinates":[[17.15994,40.87865],[17.15882,40.87781]]},"properties":{}},{"type":"Feature","geometry":{"type":"LineString","coordinates":[[17.1512,40.87813],[17.15116,40.87876],[17.15107,40.87902],[17.15092,40.87919]]},"properties":{}},{"type":"Feature","geometry":{"type":"LineString","coordinates":[[17.15086,40.8792],[17.14937,40.87838],[17.14915,40.87834],[17.14902,40.87835],[17.14881,40.87846],[17.14792,40.87938],[17.1478,40.87946],[17.14754,40.87959],[17.14717,40.87966],[17.147,40.87966],[17.14522,40.87947],[17.14462,40.87935],[17.14434,40.87923],[17.14337,40.87872],[17.14335,40.87865],[17.14327,40.87863]]},"properties":{}},{"type":"Feature","geometry":{"type":"LineString","coordinates":[[17.14323,40.87872],[17.14449,40.87936],[17.14479,40.87945],[17.14533,40.87955],[17.14709,40.87972],[17.14753,40.87965],[17.14784,40.87951],[17.148,40.87939],[17.14884,40.87852],[17.14907,40.87841],[17.14918,40.87839],[17.14933,40.87843],[17.15067,40.87919]]},"properties":{}},{"type":"Feature","geometry":{"type":"LineString","coordinates":[[17.15106,40.87919],[17.15099,40.87918]]},"properties":{}},{"type":"Feature","geometry":{"type":"LineString","coordinates":[[17.15099,40.87918],[17.15083,40.87922]]},"properties":{}},{"type":"Feature","geometry":{"type":"LineString","coordinates":[[17.15111,40.87922],[17.15106,40.87919]]},"properties":{}},{"type":"Feature","geometry":{"type":"LineString","coordinates":[[17.15083,40.87922],[17.1508,40.87924]]},"properties":{}},{"type":"Feature","geometry":{"type":"LineString","coordinates":[[17.15115,40.87925],[17.15111,40.87922]]},"properties":{}},{"type":"Feature","geometry":{"type":"LineString","coordinates":[[17.1508,40.87924],[17.15077,40.87927]]},"properties":{}},{"type":"Feature","geometry":{"type":"LineString","coordinates":[[17.16556,40.87843],[17.16569,40.87854],[17.16618,40.87873]]},"properties":{}},{"type":"Feature","geometry":{"type":"LineString","coordinates":[[17.16901,40.87866],[17.16905,40.87857]]},"properties":{}},{"type":"Feature","geometry":{"type":"LineString","coordinates":[[17.16894,40.87878],[17.16849,40.87863],[17.16827,40.87845]]},"properties":{}},{"type":"Feature","geometry":{"type":"LineString","coordinates":[[17.17034,40.87868],[17.17027,40.87871],[17.16965,40.87853],[17.16905,40.87857]]},"properties":{}},{"type":"Feature","geometry":{"type":"LineString","coordinates":[[17.16894,40.87878],[17.16901,40.87866]]},"properties":{}},{"type":"Feature","geometry":{"type":"LineString","coordinates":[[17.16901,40.87866],[17.1691,40.8787],[17.16912,40.87891]]},"properties":{}},{"type":"Feature","geometry":{"type":"LineString","coordinates":[[17.16912,40.87891],[17.16905,40.87887],[17.16886,40.87887]]},"properties":{}},{"type":"Feature","geometry":{"type":"LineString","coordinates":[[17.16618,40.87873],[17.16701,40.87905]]},"properties":{}},{"type":"Feature","geometry":{"type":"LineString","coordinates":[[17.16701,40.87905],[17.16727,40.87876]]},"properties":{}},{"type":"Feature","geometry":{"type":"LineString","coordinates":[[17.16727,40.87876],[17.16767,40.8791],[17.16757,40.87927]]},"properties":{}},{"type":"Feature","geometry":{"type":"LineString","coordinates":[[17.16662,40.87963],[17.16476,40.8789],[17.16556,40.87843]]},"properties":{}},{"type":"Feature","geometry":{"type":"LineString","coordinates":[[17.16835,40.87957],[17.16873,40.87903],[17.16894,40.87878]]},"properties":{}},{"type":"Feature","geometry":{"type":"LineString","coordinates":[[17.16476,40.8789],[17.16434,40.87917],[17.16553,40.87964]]},"properties":{}},{"type":"Feature","geometry":{"type":"LineString","coordinates":[[17.16921,40.87949],[17.16857,40.87925]]},"properties":{}},{"type":"Feature","geometry":{"type":"LineString","coordinates":[[17.16701,40.87905],[17.16921,40.87993]]},"properties":{}},{"type":"Feature","geometry":{"type":"LineString","coordinates":[[17.16818,40.87985],[17.16684,40.87931]]},"properties":{}},{"type":"Feature","geometry":{"type":"LineString","coordinates":[[17.1666,40.88006],[17.16724,40.87915]]},"properties":{}},{"type":"Feature","geometry":{"type":"LineString","coordinates":[[17.16912,40.87891],[17.16921,40.87949],[17.16921,40.87993],[17.16932,40.88046]]},"properties":{}},{"type":"Feature","geometry":{"type":"LineString","coordinates":[[17.16553,40.87964],[17.16638,40.87996]]},"properties":{}},{"type":"Feature","geometry":{"type":"LineString","coordinates":[[17.16618,40.87873],[17.1646,40.88099]]},"properties":{}},{"type":"Feature","geometry":{"type":"LineString","coordinates":[[17.16765,40.87931],[17.16667,40.8807]]},"properties":{}},{"type":"Feature","geometry":{"type":"LineString","coordinates":[[17.16901,40.88018],[17.16818,40.87985]]},"properties":{}},{"type":"Feature","geometry":{"type":"LineString","coordinates":[[17.16706,40.88086],[17.16412,40.87966],[17.16373,40.87952]]},"properties":{}},{"type":"Feature","geometry":{"type":"LineString","coordinates":[[17.1688,40.88049],[17.16901,40.88018],[17.16921,40.87993]]},"properties":{}},{"type":"Feature","geometry":{"type":"LineString","coordinates":[[17.16651,40.88017],[17.16692,40.88035]]},"properties":{}},{"type":"Feature","geometry":{"type":"LineString","coordinates":[[17.16636,40.88032],[17.16659,40.88041]]},"properties":{}},{"type":"Feature","geometry":{"type":"LineString","coordinates":[[17.16638,40.87996],[17.16854,40.88085]]},"properties":{}},{"type":"Feature","geometry":{"type":"LineString","coordinates":[[17.16645,40.88061],[17.16669,40.88026]]},"properties":{}},{"type":"Feature","geometry":{"type":"LineString","coordinates":[[17.16871,40.88061],[17.16788,40.88027]]},"properties":{}},{"type":"Feature","geometry":{"type":"LineString","coordinates":[[17.16975,40.88052],[17.16932,40.88046]]},"properties":{}},{"type":"Feature","geometry":{"type":"LineString","coordinates":[[17.16932,40.88046],[17.16932,40.88053],[17.16904,40.88056],[17.1688,40.88049]]},"properties":{}},{"type":"Feature","geometry":{"type":"LineString","coordinates":[[17.16871,40.88061],[17.1688,40.88049]]},"properties":{}},{"type":"Feature","geometry":{"type":"LineString","coordinates":[[17.15371,40.88088],[17.15134,40.87955]]},"properties":{}},{"type":"Feature","geometry":{"type":"LineString","coordinates":[[17.16117,40.88388],[17.16028,40.88364],[17.15845,40.88286],[17.15811,40.88257],[17.1577,40.88218],[17.15749,40.8819],[17.15695,40.88104],[17.1566,40.88058],[17.15569,40.87981],[17.15495,40.87901],[17.1539,40.87832],[17.15279,40.87748],[17.15182,40.87697]]},"properties":{}},{"type":"Feature","geometry":{"type":"LineString","coordinates":[[17.16469,40.88227],[17.15994,40.87865]]},"properties":{}},{"type":"Feature","geometry":{"type":"LineString","coordinates":[[17.15292,40.88158],[17.15371,40.88088]]},"properties":{}},{"type":"Feature","geometry":{"type":"LineString","coordinates":[[17.15572,40.88205],[17.15461,40.88242],[17.15445,40.88243],[17.15292,40.88158]]},"properties":{}},{"type":"Feature","geometry":{"type":"LineString","coordinates":[[17.16153,40.88247],[17.16287,40.88293]]},"properties":{}},{"type":"Feature","geometry":{"type":"LineString","coordinates":[[17.16385,40.88262],[17.16444,40.88282]]},"properties":{}},{"type":"Feature","geometry":{"type":"LineString","coordinates":[[17.16323,40.88367],[17.16395,40.88246],[17.16443,40.88209]]},"properties":{}},{"type":"Feature","geometry":{"type":"LineString","coordinates":[[17.16287,40.88293],[17.16412,40.88336]]},"properties":{}},{"type":"Feature","geometry":{"type":"LineString","coordinates":[[17.16287,40.88293],[17.16259,40.88343]]},"properties":{}},{"type":"Feature","geometry":{"type":"LineString","coordinates":[[17.16486,40.8814],[17.16596,40.87979]]},"properties":{}},{"type":"Feature","geometry":{"type":"LineString","coordinates":[[17.16469,40.88227],[17.16488,40.8821],[17.16701,40.87905]]},"properties":{}},{"type":"Feature","geometry":{"type":"LineString","coordinates":[[17.17041,40.8802],[17.17015,40.8813]]},"properties":{}},{"type":"Feature","geometry":{"type":"LineString","coordinates":[[17.17258,40.88038],[17.17235,40.88036],[17.17185,40.88019],[17.1717,40.88018],[17.17154,40.88021],[17.17133,40.8804],[17.17069,40.88134]]},"properties":{}},{"type":"Feature","geometry":{"type":"LineString","coordinates":[[17.16706,40.88086],[17.16715,40.88091]]},"properties":{}},{"type":"Feature","geometry":{"type":"LineString","coordinates":[[17.16721,40.88089],[17.16724,40.88091],[17.16724,40.88095],[17.16717,40.88096],[17.16715,40.88092],[17.16721,40.88089]]},"properties":{}},{"type":"Feature","geometry":{"type":"LineString","coordinates":[[17.16724,40.88095],[17.16737,40.881]]},"properties":{}},{"type":"Feature","geometry":{"type":"LineString","coordinates":[[17.16567,40.88143],[17.16628,40.88054]]},"properties":{}},{"type":"Feature","geometry":{"type":"LineString","coordinates":[[17.16965,40.88111],[17.16869,40.88103]]},"properties":{}},{"type":"Feature","geometry":{"type":"LineString","coordinates":[[17.16861,40.88117],[17.16889,40.8812],[17.1689,40.88105],[17.16869,40.88103],[17.16861,40.88117]]},"properties":{}},{"type":"Feature","geometry":{"type":"LineString","coordinates":[[17.16709,40.88139],[17.16577,40.88085]]},"properties":{}},{"type":"Feature","geometry":{"type":"LineString","coordinates":[[17.16889,40.8812],[17.1689,40.88105]]},"properties":{}},{"type":"Feature","geometry":{"type":"LineString","coordinates":[[17.16667,40.8807],[17.16606,40.88159]]},"properties":{}},{"type":"Feature","geometry":{"type":"LineString","coordinates":[[17.1646,40.88099],[17.16543,40.88133]]},"properties":{}},{"type":"Feature","geometry":{"type":"LineString","coordinates":[[17.16889,40.8812],[17.16961,40.88126]]},"properties":{}},{"type":"Feature","geometry":{"type":"LineString","coordinates":[[17.17069,40.88134],[17.16961,40.88126]]},"properties":{}},{"type":"Feature","geometry":{"type":"LineString","coordinates":[[17.16975,40.88052],[17.16946,40.88215]]},"properties":{}},{"type":"Feature","geometry":{"type":"LineString","coordinates":[[17.16835,40.87957],[17.1659,40.8831]]},"properties":{}},{"type":"Feature","geometry":{"type":"LineString","coordinates":[[17.16561,40.88296],[17.16788,40.87973]]},"properties":{}},{"type":"Feature","geometry":{"type":"LineString","coordinates":[[17.16958,40.88145],[17.16851,40.88133]]},"properties":{}},{"type":"Feature","geometry":{"type":"LineString","coordinates":[[17.16669,40.88142],[17.16698,40.88154]]},"properties":{}},{"type":"Feature","geometry":{"type":"LineString","coordinates":[[17.16525,40.88157],[17.16486,40.8814]]},"properties":{}},{"type":"Feature","geometry":{"type":"LineString","coordinates":[[17.16541,40.88163],[17.1656,40.8814]]},"properties":{}},{"type":"Feature","geometry":{"type":"LineString","coordinates":[[17.17066,40.88165],[17.1698,40.88147]]},"properties":{}},{"type":"Feature","geometry":{"type":"LineString","coordinates":[[17.16561,40.88172],[17.16578,40.88147]]},"properties":{}},{"type":"Feature","geometry":{"type":"LineString","coordinates":[[17.16543,40.88133],[17.16675,40.88187]]},"properties":{}},{"type":"Feature","geometry":{"type":"LineString","coordinates":[[17.16733,40.88261],[17.16871,40.88061]]},"properties":{}},{"type":"Feature","geometry":{"type":"LineString","coordinates":[[17.16882,40.88178],[17.16825,40.88171]]},"properties":{}},{"type":"Feature","geometry":{"type":"LineString","coordinates":[[17.16778,40.88195],[17.16693,40.88161]]},"properties":{}},{"type":"Feature","geometry":{"type":"LineString","coordinates":[[17.16628,40.882],[17.16525,40.88157]]},"properties":{}},{"type":"Feature","geometry":{"type":"LineString","coordinates":[[17.16869,40.88103],[17.16766,40.88255]]},"properties":{}},{"type":"Feature","geometry":{"type":"LineString","coordinates":[[17.16951,40.88185],[17.16904,40.8818]]},"properties":{}},{"type":"Feature","geometry":{"type":"LineString","coordinates":[[17.16515,40.88172],[17.16617,40.88215]]},"properties":{}},{"type":"Feature","geometry":{"type":"LineString","coordinates":[[17.16686,40.88223],[17.16721,40.88172]]},"properties":{}},{"type":"Feature","geometry":{"type":"LineString","coordinates":[[17.16856,40.88227],[17.16878,40.88196],[17.16882,40.88178]]},"properties":{}},{"type":"Feature","geometry":{"type":"LineString","coordinates":[[17.16709,40.88232],[17.16744,40.88181]]},"properties":{}},{"type":"Feature","geometry":{"type":"LineString","coordinates":[[17.16504,40.88188],[17.16606,40.88231]]},"properties":{}},{"type":"Feature","geometry":{"type":"LineString","coordinates":[[17.16856,40.88227],[17.16778,40.88195]]},"properties":{}},{"type":"Feature","geometry":{"type":"LineString","coordinates":[[17.16765,40.88189],[17.1673,40.8824]]},"properties":{}},{"type":"Feature","geometry":{"type":"LineString","coordinates":[[17.16675,40.88187],[17.16838,40.88252]]},"properties":{}},{"type":"Feature","geometry":{"type":"LineString","coordinates":[[17.1697,40.88217],[17.17063,40.88223]]},"properties":{}},{"type":"Feature","geometry":{"type":"LineString","coordinates":[[17.17069,40.88134],[17.17057,40.8831]]},"properties":{}},{"type":"Feature","geometry":{"type":"LineString","coordinates":[[17.16874,40.88235],[17.16896,40.8824]]},"properties":{}},{"type":"Feature","geometry":{"type":"LineString","coordinates":[[17.16665,40.88254],[17.16686,40.88223]]},"properties":{}},{"type":"Feature","geometry":{"type":"LineString","coordinates":[[17.16838,40.88252],[17.16856,40.88227]]},"properties":{}},{"type":"Feature","geometry":{"type":"LineString","coordinates":[[17.16896,40.8824],[17.1694,40.88249]]},"properties":{}},{"type":"Feature","geometry":{"type":"LineString","coordinates":[[17.1682,40.88278],[17.16657,40.88212]]},"properties":{}},{"type":"Feature","geometry":{"type":"LineString","coordinates":[[17.16765,40.88294],[17.16821,40.88212]]},"properties":{}},{"type":"Feature","geometry":{"type":"LineString","coordinates":[[17.1694,40.88249],[17.17008,40.88261]]},"properties":{}},{"type":"Feature","geometry":{"type":"LineString","coordinates":[[17.16838,40.88252],[17.16863,40.88261]]},"properties":{}},{"type":"Feature","geometry":{"type":"LineString","coordinates":[[17.16895,40.88255],[17.16937,40.88261]]},"properties":{}},{"type":"Feature","geometry":{"type":"LineString","coordinates":[[17.16655,40.88268],[17.16665,40.88254]]},"properties":{}},{"type":"Feature","geometry":{"type":"LineString","coordinates":[[17.17032,40.8831],[17.17008,40.88261],[17.1697,40.88217],[17.16946,40.88215]]},"properties":{}},{"type":"Feature","geometry":{"type":"LineString","coordinates":[[17.16676,40.88239],[17.16809,40.88293]]},"properties":{}},{"type":"Feature","geometry":{"type":"LineString","coordinates":[[17.16683,40.88279],[17.16626,40.88257]]},"properties":{}},{"type":"Feature","geometry":{"type":"LineString","coordinates":[[17.16937,40.88262],[17.17014,40.88274]]},"properties":{}},{"type":"Feature","geometry":{"type":"LineString","coordinates":[[17.16904,40.8827],[17.16935,40.88273]]},"properties":{}},{"type":"Feature","geometry":{"type":"LineString","coordinates":[[17.16693,40.88265],[17.16683,40.88279]]},"properties":{}},{"type":"Feature","geometry":{"type":"LineString","coordinates":[[17.16946,40.88215],[17.16922,40.88332]]},"properties":{}},{"type":"Feature","geometry":{"type":"LineString","coordinates":[[17.168,40.88308],[17.16838,40.88252]]},"properties":{}},{"type":"Feature","geometry":{"type":"LineString","coordinates":[[17.16935,40.88276],[17.17021,40.88291]]},"properties":{}},{"type":"Feature","geometry":{"type":"LineString","coordinates":[[17.16849,40.88289],[17.1682,40.88278]]},"properties":{}},{"type":"Feature","geometry":{"type":"LineString","coordinates":[[17.17028,40.88303],[17.16974,40.88297],[17.16978,40.88283]]},"properties":{}},{"type":"Feature","geometry":{"type":"LineString","coordinates":[[17.16636,40.88243],[17.16832,40.88321],[17.16918,40.88343]]},"properties":{}},{"type":"Feature","geometry":{"type":"LineString","coordinates":[[17.16756,40.88308],[17.16683,40.88279]]},"properties":{}},{"type":"Feature","geometry":{"type":"LineString","coordinates":[[17.16674,40.88298],[17.16657,40.88292]]},"properties":{}},{"type":"Feature","geometry":{"type":"LineString","coordinates":[[17.16809,40.88293],[17.16841,40.88306]]},"properties":{}},{"type":"Feature","geometry":{"type":"LineString","coordinates":[[17.16844,40.88325],[17.16865,40.88275]]},"properties":{}},{"type":"Feature","geometry":{"type":"LineString","coordinates":[[17.16611,40.88297],[17.16661,40.88317]]},"properties":{}},{"type":"Feature","geometry":{"type":"LineString","coordinates":[[17.17027,40.88318],[17.16928,40.88306]]},"properties":{}},{"type":"Feature","geometry":{"type":"LineString","coordinates":[[17.16644,40.88344],[17.16686,40.8828]]},"properties":{}},{"type":"Feature","geometry":{"type":"LineString","coordinates":[[17.16689,40.8834],[17.16722,40.88295]]},"properties":{}},{"type":"Feature","geometry":{"type":"LineString","coordinates":[[17.1666,40.8835],[17.16701,40.88286]]},"properties":{}},{"type":"Feature","geometry":{"type":"LineString","coordinates":[[17.16602,40.88308],[17.16653,40.88329]]},"properties":{}},{"type":"Feature","geometry":{"type":"LineString","coordinates":[[17.16614,40.88334],[17.16633,40.88306]]},"properties":{}},{"type":"Feature","geometry":{"type":"LineString","coordinates":[[17.1672,40.88329],[17.16683,40.88314]]},"properties":{}},{"type":"Feature","geometry":{"type":"LineString","coordinates":[[17.16708,40.88346],[17.1674,40.88302]]},"properties":{}},{"type":"Feature","geometry":{"type":"LineString","coordinates":[[17.16924,40.8832],[17.1705,40.88334]]},"properties":{}},{"type":"Feature","geometry":{"type":"LineString","coordinates":[[17.16714,40.8837],[17.16765,40.88294]]},"properties":{}},{"type":"Feature","geometry":{"type":"LineString","coordinates":[[17.16913,40.88358],[17.1686,40.88345],[17.16756,40.88308]]},"properties":{}},{"type":"Feature","geometry":{"type":"LineString","coordinates":[[17.16763,40.88325],[17.1675,40.88343]]},"properties":{}},{"type":"Feature","geometry":{"type":"LineString","coordinates":[[17.1705,40.88334],[17.17101,40.88339]]},"properties":{}},{"type":"Feature","geometry":{"type":"LineString","coordinates":[[17.16748,40.8832],[17.16851,40.88357]]},"properties":{}},{"type":"Feature","geometry":{"type":"LineString","coordinates":[[17.15968,40.88441],[17.15692,40.88271],[17.15572,40.88205]]},"properties":{}},{"type":"Feature","geometry":{"type":"LineString","coordinates":[[17.16179,40.88316],[17.16166,40.88341],[17.16235,40.88364],[17.1625,40.8834]]},"properties":{}},{"type":"Feature","geometry":{"type":"LineString","coordinates":[[17.16505,40.88256],[17.16495,40.88262],[17.16454,40.88274],[17.16444,40.88282],[17.16351,40.88441]]},"properties":{}},{"type":"Feature","geometry":{"type":"LineString","coordinates":[[17.16397,40.88361],[17.16338,40.88341]]},"properties":{}},{"type":"Feature","geometry":{"type":"LineString","coordinates":[[17.16412,40.88336],[17.1655,40.88385]]},"properties":{}},{"type":"Feature","geometry":{"type":"LineString","coordinates":[[17.16518,40.88437],[17.16112,40.88291]]},"properties":{}},{"type":"Feature","geometry":{"type":"LineString","coordinates":[[17.16122,40.88295],[17.16113,40.88311],[17.16112,40.88323],[17.16119,40.88332],[17.16176,40.88373],[17.16256,40.88412],[17.16351,40.88441]]},"properties":{}},{"type":"Feature","geometry":{"type":"LineString","coordinates":[[17.16397,40.88361],[17.16536,40.88409]]},"properties":{}},{"type":"Feature","geometry":{"type":"LineString","coordinates":[[17.16287,40.88421],[17.16296,40.88396],[17.16314,40.88364]]},"properties":{}},{"type":"Feature","geometry":{"type":"LineString","coordinates":[[17.16351,40.88441],[17.16458,40.88478]]},"properties":{}},{"type":"Feature","geometry":{"type":"LineString","coordinates":[[17.16922,40.88332],[17.17028,40.8835]]},"properties":{}},{"type":"Feature","geometry":{"type":"LineString","coordinates":[[17.16781,40.88332],[17.16768,40.88351]]},"properties":{}},{"type":"Feature","geometry":{"type":"LineString","coordinates":[[17.16671,40.88333],[17.16726,40.88353]]},"properties":{}},{"type":"Feature","geometry":{"type":"LineString","coordinates":[[17.16796,40.88362],[17.16737,40.88338]]},"properties":{}},{"type":"Feature","geometry":{"type":"LineString","coordinates":[[17.16585,40.8838],[17.16607,40.88331]]},"properties":{}},{"type":"Feature","geometry":{"type":"LineString","coordinates":[[17.16822,40.88347],[17.16808,40.88368]]},"properties":{}},{"type":"Feature","geometry":{"type":"LineString","coordinates":[[17.16795,40.88391],[17.16743,40.88379],[17.16587,40.88325]]},"properties":{}},{"type":"Feature","geometry":{"type":"LineString","coordinates":[[17.17027,40.8837],[17.16917,40.88347]]},"properties":{}},{"type":"Feature","geometry":{"type":"LineString","coordinates":[[17.16841,40.88374],[17.16859,40.88344]]},"properties":{}},{"type":"Feature","geometry":{"type":"LineString","coordinates":[[17.16851,40.88357],[17.1688,40.88366]]},"properties":{}},{"type":"Feature","geometry":{"type":"LineString","coordinates":[[17.16806,40.88366],[17.16796,40.88362]]},"properties":{}},{"type":"Feature","geometry":{"type":"LineString","coordinates":[[17.16953,40.88403],[17.16973,40.88326]]},"properties":{}},{"type":"Feature","geometry":{"type":"LineString","coordinates":[[17.16605,40.88394],[17.16624,40.88337]]},"properties":{}},{"type":"Feature","geometry":{"type":"LineString","coordinates":[[17.16922,40.88332],[17.16901,40.88401]]},"properties":{}},{"type":"Feature","geometry":{"type":"LineString","coordinates":[[17.16726,40.88353],[17.16801,40.88381]]},"properties":{}},{"type":"Feature","geometry":{"type":"LineString","coordinates":[[17.16808,40.88368],[17.16806,40.88366]]},"properties":{}},{"type":"Feature","geometry":{"type":"LineString","coordinates":[[17.1688,40.88366],[17.16908,40.88375]]},"properties":{}},{"type":"Feature","geometry":{"type":"LineString","coordinates":[[17.16567,40.88359],[17.16594,40.88387]]},"properties":{}},{"type":"Feature","geometry":{"type":"LineString","coordinates":[[17.16808,40.88368],[17.16801,40.88381]]},"properties":{}},{"type":"Feature","geometry":{"type":"LineString","coordinates":[[17.16611,40.88374],[17.16631,40.88377]]},"properties":{}},{"type":"Feature","geometry":{"type":"LineString","coordinates":[[17.16623,40.8841],[17.16641,40.88343]]},"properties":{}},{"type":"Feature","geometry":{"type":"LineString","coordinates":[[17.16904,40.88387],[17.16808,40.88368]]},"properties":{}},{"type":"Feature","geometry":{"type":"LineString","coordinates":[[17.16594,40.88387],[17.16557,40.88374]]},"properties":{}},{"type":"Feature","geometry":{"type":"LineString","coordinates":[[17.16788,40.88404],[17.16705,40.88384],[17.16652,40.88365]]},"properties":{}},{"type":"Feature","geometry":{"type":"LineString","coordinates":[[17.16594,40.88387],[17.16605,40.88394]]},"properties":{}},{"type":"Feature","geometry":{"type":"LineString","coordinates":[[17.16801,40.88381],[17.16901,40.88401]]},"properties":{}},{"type":"Feature","geometry":{"type":"LineString","coordinates":[[17.16934,40.88384],[17.17026,40.88405]]},"properties":{}},{"type":"Feature","geometry":{"type":"LineString","coordinates":[[17.1678,40.88417],[17.16649,40.8838]]},"properties":{}},{"type":"Feature","geometry":{"type":"LineString","coordinates":[[17.16488,40.88488],[17.1659,40.8832],[17.1659,40.8831]]},"properties":{}},{"type":"Feature","geometry":{"type":"LineString","coordinates":[[17.16795,40.88391],[17.16863,40.88411],[17.16886,40.88408],[17.16899,40.8841]]},"properties":{}},{"type":"Feature","geometry":{"type":"LineString","coordinates":[[17.17026,40.88422],[17.16903,40.88389]]},"properties":{}},{"type":"Feature","geometry":{"type":"LineString","coordinates":[[17.16664,40.8845],[17.16714,40.8837]]},"properties":{}},{"type":"Feature","geometry":{"type":"LineString","coordinates":[[17.16587,40.88429],[17.16605,40.88394]]},"properties":{}},{"type":"Feature","geometry":{"type":"LineString","coordinates":[[17.16772,40.8843],[17.16645,40.88394]]},"properties":{}},{"type":"Feature","geometry":{"type":"LineString","coordinates":[[17.16536,40.88409],[17.16587,40.88429]]},"properties":{}},{"type":"Feature","geometry":{"type":"LineString","coordinates":[[17.16605,40.88394],[17.16664,40.8845]]},"properties":{}},{"type":"Feature","geometry":{"type":"LineString","coordinates":[[17.16641,40.88406],[17.16764,40.88442]]},"properties":{}},{"type":"Feature","geometry":{"type":"LineString","coordinates":[[17.1661,40.88437],[17.16625,40.88413]]},"properties":{}},{"type":"Feature","geometry":{"type":"LineString","coordinates":[[17.16643,40.88429],[17.16619,40.88423]]},"properties":{}},{"type":"Feature","geometry":{"type":"LineString","coordinates":[[17.16672,40.88434],[17.16643,40.88425]]},"properties":{}},{"type":"Feature","geometry":{"type":"LineString","coordinates":[[17.16752,40.88472],[17.16756,40.88456],[17.16795,40.88391]]},"properties":{}},{"type":"Feature","geometry":{"type":"LineString","coordinates":[[17.16587,40.88429],[17.16639,40.88448]]},"properties":{}},{"type":"Feature","geometry":{"type":"LineString","coordinates":[[17.1668,40.88456],[17.16697,40.88421]]},"properties":{}},{"type":"Feature","geometry":{"type":"LineString","coordinates":[[17.1657,40.88454],[17.16587,40.88429]]},"properties":{}},{"type":"Feature","geometry":{"type":"LineString","coordinates":[[17.16695,40.88459],[17.16712,40.88426]]},"properties":{}},{"type":"Feature","geometry":{"type":"LineString","coordinates":[[17.16713,40.88462],[17.16729,40.88431]]},"properties":{}},{"type":"Feature","geometry":{"type":"LineString","coordinates":[[17.16731,40.88466],[17.16747,40.88437]]},"properties":{}},{"type":"Feature","geometry":{"type":"LineString","coordinates":[[17.16648,40.8848],[17.16518,40.88437]]},"properties":{}},{"type":"Feature","geometry":{"type":"LineString","coordinates":[[17.16664,40.8845],[17.1668,40.88456],[17.16752,40.88472]]},"properties":{}},{"type":"Feature","geometry":{"type":"LineString","coordinates":[[17.16648,40.8848],[17.16664,40.8845]]},"properties":{}},{"type":"Feature","geometry":{"type":"LineString","coordinates":[[17.15077,40.87927],[17.15075,40.87932]]},"properties":{}},{"type":"Feature","geometry":{"type":"LineString","coordinates":[[17.1512,40.87939],[17.1512,40.87932],[17.15115,40.87925]]},"properties":{}},{"type":"Feature","geometry":{"type":"LineString","coordinates":[[17.15075,40.87932],[17.15076,40.87942],[17.15081,40.87948]]},"properties":{}},{"type":"Feature","geometry":{"type":"LineString","coordinates":[[17.15117,40.87944],[17.1512,40.87939]]},"properties":{}},{"type":"Feature","geometry":{"type":"LineString","coordinates":[[17.15114,40.87947],[17.15117,40.87944]]},"properties":{}},{"type":"Feature","geometry":{"type":"LineString","coordinates":[[17.15112,40.87949],[17.15114,40.87947]]},"properties":{}},{"type":"Feature","geometry":{"type":"LineString","coordinates":[[17.15081,40.87948],[17.15086,40.87951]]},"properties":{}},{"type":"Feature","geometry":{"type":"LineString","coordinates":[[17.15097,40.87953],[17.15112,40.87949]]},"properties":{}},{"type":"Feature","geometry":{"type":"LineString","coordinates":[[17.15086,40.87951],[17.15091,40.87952]]},"properties":{}},{"type":"Feature","geometry":{"type":"LineString","coordinates":[[17.15091,40.87952],[17.15097,40.87953]]},"properties":{}},{"type":"Feature","geometry":{"type":"LineString","coordinates":[[17.16458,40.88478],[17.16488,40.88488]]},"properties":{}},{"type":"Feature","geometry":{"type":"LineString","coordinates":[[17.16424,40.88505],[17.16444,40.88473]]},"properties":{}},{"type":"Feature","geometry":{"type":"LineString","coordinates":[[17.16443,40.88518],[17.16464,40.8848]]},"properties":{}},{"type":"Feature","geometry":{"type":"LineString","coordinates":[[17.16466,40.88526],[17.16488,40.88488]]},"properties":{}},{"type":"Feature","geometry":{"type":"LineString","coordinates":[[17.16466,40.88526],[17.16463,40.8853]]},"properties":{}},{"type":"Feature","geometry":{"type":"LineString","coordinates":[[17.16463,40.8853],[17.1646,40.88535]]},"properties":{}},{"type":"Feature","geometry":{"type":"LineString","coordinates":[[17.1646,40.88535],[17.16451,40.88546]]},"properties":{}},{"type":"Feature","geometry":{"type":"LineString","coordinates":[[17.16504,40.88558],[17.1648,40.88546],[17.16463,40.8853]]},"properties":{}},{"type":"Feature","geometry":{"type":"LineString","coordinates":[[17.16517,40.88558],[17.16489,40.8856],[17.16468,40.88539],[17.1646,40.88535]]},"properties":{}},{"type":"Feature","geometry":{"type":"LineString","coordinates":[[17.16451,40.88546],[17.16327,40.88758],[17.16317,40.88766]]},"properties":{}},{"type":"Feature","geometry":{"type":"LineString","coordinates":[[17.16512,40.88672],[17.16391,40.88651]]},"properties":{}},{"type":"Feature","geometry":{"type":"LineString","coordinates":[[17.02875,40.90642],[17.02886,40.90634],[17.02915,40.90605]]},"properties":{}},{"type":"Feature","geometry":{"type":"LineString","coordinates":[[17.02915,40.90605],[17.029,40.90648]]},"properties":{}},{"type":"Feature","geometry":{"type":"LineString","coordinates":[[17.01718,40.91575],[17.0206,40.91612],[17.02059,40.91615]]},"properties":{}},{"type":"Feature","geometry":{"type":"LineString","coordinates":[[17.10833,40.96144],[17.10935,40.95837]]},"properties":{}},{"type":"Feature","geometry":{"type":"LineString","coordinates":[[17.11429,40.96062],[17.11427,40.96069],[17.11421,40.9607],[17.11415,40.96069],[17.11412,40.96064],[17.11418,40.96058],[17.11425,40.96058],[17.11429,40.96062]]},"properties":{}},{"type":"Feature","geometry":{"type":"LineString","coordinates":[[17.10833,40.96144],[17.10651,40.96111]]},"properties":{}},{"type":"Feature","geometry":{"type":"LineString","coordinates":[[17.10651,40.96111],[17.1059,40.96296]]},"properties":{}},{"type":"Feature","geometry":{"type":"LineString","coordinates":[[17.10833,40.96144],[17.1076,40.96362]]},"properties":{}},{"type":"Feature","geometry":{"type":"LineString","coordinates":[[17.1059,40.96296],[17.10591,40.96326],[17.10604,40.96333]]},"properties":{}},{"type":"Feature","geometry":{"type":"LineString","coordinates":[[17.10763,40.96353],[17.10589,40.96319]]},"properties":{}},{"type":"Feature","geometry":{"type":"LineString","coordinates":[[17.11561,40.96345],[17.11507,40.96348]]},"properties":{}},{"type":"Feature","geometry":{"type":"LineString","coordinates":[[17.10763,40.96353],[17.10824,40.96364]]},"properties":{}},{"type":"Feature","geometry":{"type":"LineString","coordinates":[[17.11078,40.96428],[17.11043,40.96421]]},"properties":{}},{"type":"Feature","geometry":{"type":"LineString","coordinates":[[17.11186,40.96449],[17.11078,40.96428]]},"properties":{}},{"type":"Feature","geometry":{"type":"LineString","coordinates":[[17.11262,40.96466],[17.11186,40.96449]]},"properties":{}},{"type":"Feature","geometry":{"type":"LineString","coordinates":[[17.11246,40.9653],[17.11265,40.96466],[17.11262,40.96466]]},"properties":{}},{"type":"Feature","geometry":{"type":"LineString","coordinates":[[17.11569,40.96507],[17.11524,40.9651]]},"properties":{}},{"type":"Feature","geometry":{"type":"LineString","coordinates":[[17.11525,40.96527],[17.11569,40.96525]]},"properties":{}},{"type":"Feature","geometry":{"type":"LineString","coordinates":[[17.1087,40.96548],[17.108,40.96534],[17.10757,40.96539]]},"properties":{}},{"type":"Feature","geometry":{"type":"LineString","coordinates":[[17.10931,40.9656],[17.1087,40.96548]]},"properties":{}},{"type":"Feature","geometry":{"type":"LineString","coordinates":[[17.11223,40.96583],[17.11241,40.96529]]},"properties":{}},{"type":"Feature","geometry":{"type":"LineString","coordinates":[[17.11529,40.96559],[17.11569,40.96557]]},"properties":{}},{"type":"Feature","geometry":{"type":"LineString","coordinates":[[17.1099,40.96572],[17.10931,40.9656]]},"properties":{}},{"type":"Feature","geometry":{"type":"LineString","coordinates":[[17.11037,40.96584],[17.1099,40.96572]]},"properties":{}},{"type":"Feature","geometry":{"type":"LineString","coordinates":[[17.16514,40.88497],[17.16545,40.88446]]},"properties":{}},{"type":"Feature","geometry":{"type":"LineString","coordinates":[[17.16648,40.88434],[17.16594,40.88526]]},"properties":{}},{"type":"Feature","geometry":{"type":"LineString","coordinates":[[17.16752,40.88472],[17.16775,40.88533]]},"properties":{}},{"type":"Feature","geometry":{"type":"LineString","coordinates":[[17.16763,40.88537],[17.16734,40.88512],[17.16648,40.8848]]},"properties":{}},{"type":"Feature","geometry":{"type":"LineString","coordinates":[[17.16488,40.88488],[17.16654,40.88547]]},"properties":{}},{"type":"Feature","geometry":{"type":"LineString","coordinates":[[17.16686,40.88494],[17.16654,40.88547]]},"properties":{}},{"type":"Feature","geometry":{"type":"LineString","coordinates":[[17.16723,40.88507],[17.16695,40.88553]]},"properties":{}},{"type":"Feature","geometry":{"type":"LineString","coordinates":[[17.16587,40.88582],[17.16648,40.8848]]},"properties":{}},{"type":"Feature","geometry":{"type":"LineString","coordinates":[[17.16775,40.88533],[17.16772,40.88538],[17.16763,40.88537]]},"properties":{}},{"type":"Feature","geometry":{"type":"LineString","coordinates":[[17.16564,40.88514],[17.16535,40.88564]]},"properties":{}},{"type":"Feature","geometry":{"type":"LineString","coordinates":[[17.16477,40.88508],[17.1668,40.88578]]},"properties":{}},{"type":"Feature","geometry":{"type":"LineString","coordinates":[[17.16792,40.88564],[17.16821,40.8854],[17.16859,40.88523]]},"properties":{}},{"type":"Feature","geometry":{"type":"LineString","coordinates":[[17.16775,40.88533],[17.16785,40.88563]]},"properties":{}},{"type":"Feature","geometry":{"type":"LineString","coordinates":[[17.16771,40.88561],[17.16773,40.88547],[17.16763,40.88537]]},"properties":{}},{"type":"Feature","geometry":{"type":"LineString","coordinates":[[17.16594,40.88526],[17.16565,40.88575]]},"properties":{}},{"type":"Feature","geometry":{"type":"LineString","coordinates":[[17.16654,40.88547],[17.16771,40.88561]]},"properties":{}},{"type":"Feature","geometry":{"type":"LineString","coordinates":[[17.16771,40.88561],[17.16792,40.88564],[17.16799,40.8857]]},"properties":{}},{"type":"Feature","geometry":{"type":"LineString","coordinates":[[17.16654,40.88547],[17.16626,40.88595]]},"properties":{}},{"type":"Feature","geometry":{"type":"LineString","coordinates":[[17.16752,40.88558],[17.16743,40.88599]]},"properties":{}},{"type":"Feature","geometry":{"type":"LineString","coordinates":[[17.16695,40.88553],[17.16662,40.88607]]},"properties":{}},{"type":"Feature","geometry":{"type":"LineString","coordinates":[[17.16662,40.88607],[17.16517,40.88558]]},"properties":{}},{"type":"Feature","geometry":{"type":"LineString","coordinates":[[17.16743,40.88599],[17.1668,40.88578]]},"properties":{}},{"type":"Feature","geometry":{"type":"LineString","coordinates":[[17.16489,40.8856],[17.16542,40.8862]]},"properties":{}},{"type":"Feature","geometry":{"type":"LineString","coordinates":[[17.16542,40.8862],[17.16557,40.88643],[17.16554,40.88653],[17.16538,40.88666]]},"properties":{}},{"type":"Feature","geometry":{"type":"LineString","coordinates":[[17.16627,40.88711],[17.16613,40.88691],[17.16662,40.88607]]},"properties":{}},{"type":"Feature","geometry":{"type":"LineString","coordinates":[[17.16538,40.88666],[17.16512,40.88672]]},"properties":{}},{"type":"Feature","geometry":{"type":"LineString","coordinates":[[17.17519,40.89139],[17.17515,40.89149],[17.17501,40.89166],[17.17477,40.89184],[17.17457,40.89192],[17.17436,40.892],[17.17324,40.89223],[17.17103,40.89261],[17.17017,40.89266],[17.16888,40.89263],[17.16859,40.89267],[17.16814,40.89278]]},"properties":{}},{"type":"Feature","geometry":{"type":"LineString","coordinates":[[17.18146,40.97162],[17.18114,40.97117],[17.1807,40.97067],[17.18062,40.97049],[17.18065,40.96993],[17.18071,40.96956],[17.18072,40.96817],[17.18067,40.9677],[17.18061,40.96754],[17.18026,40.96686],[17.18006,40.96665],[17.17978,40.96622],[17.1797,40.96606],[17.17971,40.96586],[17.17968,40.96578],[17.17949,40.96552],[17.17935,40.96534],[17.17882,40.96512],[17.17845,40.96464],[17.17804,40.96423],[17.17795,40.9641],[17.17792,40.96392],[17.17796,40.9636],[17.17794,40.96348],[17.17766,40.96294],[17.17763,40.96249],[17.17769,40.96203],[17.17793,40.96117],[17.17801,40.96095],[17.17834,40.96035],[17.17837,40.96017]]},"properties":{}},{"type":"Feature","geometry":{"type":"LineString","coordinates":[[17.18058,40.97168],[17.18004,40.97165],[17.17977,40.97154]]},"properties":{}},{"type":"Feature","geometry":{"type":"LineString","coordinates":[[17.18146,40.97162],[17.18058,40.97168]]},"properties":{}},{"type":"Feature","geometry":{"type":"LineString","coordinates":[[17.20595,40.98967],[17.20596,40.98963],[17.2059,40.98953],[17.2058,40.98946],[17.20527,40.9893],[17.20497,40.98916],[17.20463,40.98889],[17.20435,40.98872],[17.20375,40.9885],[17.20277,40.98824],[17.20186,40.98777],[17.20149,40.98763],[17.2012,40.98741],[17.20095,40.98694],[17.20058,40.98655],[17.20047,40.98629],[17.20034,40.98619],[17.19999,40.98606],[17.19973,40.98575],[17.19938,40.98539],[17.19885,40.98457],[17.1987,40.98424],[17.19861,40.98389],[17.19849,40.98367],[17.19773,40.98332],[17.19726,40.98317],[17.19665,40.9829],[17.19603,40.9828],[17.19448,40.98272],[17.19378,40.98277],[17.1935,40.98273],[17.19323,40.98248],[17.19294,40.98212],[17.19284,40.98183],[17.19273,40.98129],[17.19263,40.98105],[17.19189,40.98052],[17.19113,40.97983],[17.19087,40.97969],[17.19005,40.9794],[17.18892,40.97909],[17.18873,40.97896],[17.18856,40.97878],[17.18833,40.97813],[17.18821,40.97799],[17.18766,40.97754],[17.18738,40.97727],[17.18725,40.97714],[17.18706,40.97674],[17.18695,40.97663],[17.18666,40.97647],[17.18611,40.97588],[17.18607,40.97557],[17.18591,40.97513],[17.18557,40.97486],[17.1852,40.97384],[17.18516,40.97362],[17.185,40.97365],[17.18391,40.97403],[17.18365,40.97399],[17.18317,40.97368],[17.18288,40.97308],[17.1825,40.97256],[17.18239,40.97247],[17.18204,40.97239],[17.18194,40.97231],[17.18146,40.97162]]},"properties":{}},{"type":"Feature","geometry":{"type":"LineString","coordinates":[[17.23506,40.98592],[17.235,40.98609],[17.235,40.98618],[17.23506,40.9863]]},"properties":{}},{"type":"Feature","geometry":{"type":"LineString","coordinates":[[17.23481,40.98608],[17.235,40.98618]]},"properties":{}},{"type":"Feature","geometry":{"type":"LineString","coordinates":[[17.11061,40.96588],[17.11037,40.96584]]},"properties":{}},{"type":"Feature","geometry":{"type":"LineString","coordinates":[[17.11087,40.96595],[17.11061,40.96588]]},"properties":{}},{"type":"Feature","geometry":{"type":"LineString","coordinates":[[17.11223,40.96583],[17.11344,40.96606],[17.114,40.96606],[17.11432,40.96594]]},"properties":{}},{"type":"Feature","geometry":{"type":"LineString","coordinates":[[17.1111,40.96599],[17.11087,40.96595]]},"properties":{}},{"type":"Feature","geometry":{"type":"LineString","coordinates":[[17.11578,40.96582],[17.11606,40.96592],[17.11637,40.96611]]},"properties":{}},{"type":"Feature","geometry":{"type":"LineString","coordinates":[[17.11139,40.96605],[17.1111,40.96599]]},"properties":{}},{"type":"Feature","geometry":{"type":"LineString","coordinates":[[17.11162,40.9661],[17.11139,40.96605]]},"properties":{}},{"type":"Feature","geometry":{"type":"LineString","coordinates":[[17.11637,40.96611],[17.11642,40.96614]]},"properties":{}},{"type":"Feature","geometry":{"type":"LineString","coordinates":[[17.11213,40.9662],[17.11162,40.9661]]},"properties":{}},{"type":"Feature","geometry":{"type":"LineString","coordinates":[[17.11222,40.96616],[17.11214,40.96615]]},"properties":{}},{"type":"Feature","geometry":{"type":"LineString","coordinates":[[17.11225,40.96616],[17.11222,40.96616]]},"properties":{}},{"type":"Feature","geometry":{"type":"LineString","coordinates":[[17.11227,40.96617],[17.11225,40.96616]]},"properties":{}},{"type":"Feature","geometry":{"type":"LineString","coordinates":[[17.11569,40.96603],[17.11568,40.96666]]},"properties":{}},{"type":"Feature","geometry":{"type":"LineString","coordinates":[[17.11432,40.96668],[17.11227,40.96617]]},"properties":{}},{"type":"Feature","geometry":{"type":"LineString","coordinates":[[17.11063,40.96584],[17.11025,40.96707]]},"properties":{}},{"type":"Feature","geometry":{"type":"LineString","coordinates":[[17.11642,40.96614],[17.11655,40.96625],[17.11678,40.96662],[17.11679,40.96678]]},"properties":{}},{"type":"Feature","geometry":{"type":"LineString","coordinates":[[17.11454,40.96673],[17.11432,40.96668]]},"properties":{}},{"type":"Feature","geometry":{"type":"LineString","coordinates":[[17.11372,40.967],[17.11387,40.96656]]},"properties":{}},{"type":"Feature","geometry":{"type":"LineString","coordinates":[[17.11287,40.96752],[17.11338,40.96605]]},"properties":{}},{"type":"Feature","geometry":{"type":"LineString","coordinates":[[17.11454,40.96673],[17.11472,40.96678],[17.1148,40.96684]]},"properties":{}},{"type":"Feature","geometry":{"type":"LineString","coordinates":[[17.11408,40.96662],[17.11392,40.96705]]},"properties":{}},{"type":"Feature","geometry":{"type":"LineString","coordinates":[[17.10991,40.96568],[17.10915,40.96803]]},"properties":{}},{"type":"Feature","geometry":{"type":"LineString","coordinates":[[17.11679,40.96678],[17.11698,40.96702]]},"properties":{}},{"type":"Feature","geometry":{"type":"LineString","coordinates":[[17.10964,40.96807],[17.11039,40.96578]]},"properties":{}},{"type":"Feature","geometry":{"type":"LineString","coordinates":[[17.11335,40.96735],[17.11366,40.96651]]},"properties":{}},{"type":"Feature","geometry":{"type":"LineString","coordinates":[[17.1148,40.96684],[17.11511,40.96706]]},"properties":{}},{"type":"Feature","geometry":{"type":"LineString","coordinates":[[17.11016,40.96813],[17.11088,40.96589]]},"properties":{}},{"type":"Feature","geometry":{"type":"LineString","coordinates":[[17.11347,40.96646],[17.11302,40.96755]]},"properties":{}},{"type":"Feature","geometry":{"type":"LineString","coordinates":[[17.11112,40.96594],[17.11089,40.96675],[17.11043,40.96815]]},"properties":{}},{"type":"Feature","geometry":{"type":"LineString","coordinates":[[17.11511,40.96706],[17.11518,40.96711]]},"properties":{}},{"type":"Feature","geometry":{"type":"LineString","coordinates":[[17.11568,40.96666],[17.11576,40.96717],[17.11591,40.96769]]},"properties":{}},{"type":"Feature","geometry":{"type":"LineString","coordinates":[[17.11698,40.96702],[17.11716,40.9673],[17.11711,40.96738],[17.11682,40.96759]]},"properties":{}},{"type":"Feature","geometry":{"type":"LineString","coordinates":[[17.11591,40.96769],[17.11518,40.96711]]},"properties":{}},{"type":"Feature","geometry":{"type":"LineString","coordinates":[[17.11682,40.96759],[17.11683,40.96767]]},"properties":{}},{"type":"Feature","geometry":{"type":"LineString","coordinates":[[17.11315,40.966],[17.11277,40.96718],[17.11203,40.96926]]},"properties":{}},{"type":"Feature","geometry":{"type":"LineString","coordinates":[[17.11694,40.96762],[17.11683,40.96767]]},"properties":{}},{"type":"Feature","geometry":{"type":"LineString","coordinates":[[17.11591,40.96769],[17.11595,40.96778]]},"properties":{}},{"type":"Feature","geometry":{"type":"LineString","coordinates":[[17.11107,40.96941],[17.11214,40.96615]]},"properties":{}},{"type":"Feature","geometry":{"type":"LineString","coordinates":[[17.11595,40.96778],[17.11597,40.96785]]},"properties":{}},{"type":"Feature","geometry":{"type":"LineString","coordinates":[[17.11683,40.96767],[17.11616,40.968]]},"properties":{}},{"type":"Feature","geometry":{"type":"LineString","coordinates":[[17.10804,40.968],[17.10691,40.96807]]},"properties":{}},{"type":"Feature","geometry":{"type":"LineString","coordinates":[[17.11146,40.96825],[17.10848,40.96797]]},"properties":{}},{"type":"Feature","geometry":{"type":"LineString","coordinates":[[17.104,40.96763],[17.10415,40.96819],[17.10438,40.96881]]},"properties":{}},{"type":"Feature","geometry":{"type":"LineString","coordinates":[[17.12065,40.96812],[17.12058,40.96831],[17.12038,40.96842],[17.11986,40.96852],[17.11912,40.96853],[17.11877,40.96867],[17.11869,40.96878]]},"properties":{}},{"type":"Feature","geometry":{"type":"LineString","coordinates":[[17.10811,40.96859],[17.10886,40.96855],[17.10977,40.96872]]},"properties":{}},{"type":"Feature","geometry":{"type":"LineString","coordinates":[[17.10403,40.96978],[17.10438,40.96881]]},"properties":{}},{"type":"Feature","geometry":{"type":"LineString","coordinates":[[17.11107,40.96941],[17.11109,40.96947]]},"properties":{}},{"type":"Feature","geometry":{"type":"LineString","coordinates":[[17.11264,40.96931],[17.11266,40.96977]]},"properties":{}},{"type":"Feature","geometry":{"type":"LineString","coordinates":[[17.11109,40.96947],[17.11115,40.96972]]},"properties":{}},{"type":"Feature","geometry":{"type":"LineString","coordinates":[[17.11115,40.96972],[17.11116,40.96976]]},"properties":{}},{"type":"Feature","geometry":{"type":"LineString","coordinates":[[17.11266,40.96977],[17.11116,40.96976]]},"properties":{}},{"type":"Feature","geometry":{"type":"LineString","coordinates":[[17.11385,40.96978],[17.11266,40.96977]]},"properties":{}},{"type":"Feature","geometry":{"type":"LineString","coordinates":[[17.10728,40.97068],[17.10726,40.96959],[17.1073,40.96954],[17.10744,40.96952],[17.1075,40.96946]]},"properties":{}},{"type":"Feature","geometry":{"type":"LineString","coordinates":[[17.10403,40.96978],[17.10375,40.97063]]},"properties":{}},{"type":"Feature","geometry":{"type":"LineString","coordinates":[[17.11526,40.9696],[17.11544,40.97101]]},"properties":{}},{"type":"Feature","geometry":{"type":"LineString","coordinates":[[17.12037,40.97026],[17.11932,40.97048]]},"properties":{}},{"type":"Feature","geometry":{"type":"LineString","coordinates":[[17.11417,40.96981],[17.11422,40.96989],[17.11441,40.97173]]},"properties":{}},{"type":"Feature","geometry":{"type":"LineString","coordinates":[[17.10729,40.97099],[17.10728,40.97068]]},"properties":{}},{"type":"Feature","geometry":{"type":"LineString","coordinates":[[17.10729,40.97163],[17.10729,40.97099]]},"properties":{}},{"type":"Feature","geometry":{"type":"LineString","coordinates":[[17.10375,40.97063],[17.10309,40.97251]]},"properties":{}},{"type":"Feature","geometry":{"type":"LineString","coordinates":[[17.10713,40.97248],[17.10729,40.97163]]},"properties":{}},{"type":"Feature","geometry":{"type":"LineString","coordinates":[[17.10685,40.97279],[17.10694,40.9728],[17.10713,40.97248]]},"properties":{}},{"type":"Feature","geometry":{"type":"LineString","coordinates":[[17.10608,40.97307],[17.10309,40.97251]]},"properties":{}},{"type":"Feature","geometry":{"type":"LineString","coordinates":[[17.10685,40.97279],[17.10682,40.97285]]},"properties":{}},{"type":"Feature","geometry":{"type":"LineString","coordinates":[[17.10682,40.97285],[17.10658,40.97322]]},"properties":{}},{"type":"Feature","geometry":{"type":"LineString","coordinates":[[17.10658,40.97322],[17.10608,40.97307]]},"properties":{}},{"type":"Feature","geometry":{"type":"LineString","coordinates":[[17.1631,40.99378],[17.16324,40.99399],[17.16319,40.99402]]},"properties":{}},{"type":"Feature","geometry":{"type":"LineString","coordinates":[[17.23493,40.98623],[17.23483,40.98614],[17.23481,40.98608]]},"properties":{}},{"type":"Feature","geometry":{"type":"LineString","coordinates":[[17.23506,40.9863],[17.23493,40.98623],[17.23482,40.98622],[17.23461,40.98626]]},"properties":{}},{"type":"Feature","geometry":{"type":"LineString","coordinates":[[17.23655,40.9864],[17.23663,40.98648],[17.23677,40.98651]]},"properties":{}},{"type":"Feature","geometry":{"type":"LineString","coordinates":[[17.23653,40.98659],[17.23691,40.98648]]},"properties":{}},{"type":"Feature","geometry":{"type":"LineString","coordinates":[[17.23674,40.98661],[17.23653,40.98659]]},"properties":{}},{"type":"Feature","geometry":{"type":"LineString","coordinates":[[17.23691,40.98648],[17.23642,40.98679]]},"properties":{}},{"type":"Feature","geometry":{"type":"LineString","coordinates":[[17.2356,40.98687],[17.23577,40.987],[17.23585,40.98702],[17.23618,40.98701]]},"properties":{}},{"type":"Feature","geometry":{"type":"LineString","coordinates":[[17.23545,40.98731],[17.2356,40.98718],[17.23565,40.98707],[17.23565,40.987],[17.2356,40.98687]]},"properties":{}},{"type":"Feature","geometry":{"type":"LineString","coordinates":[[17.23584,40.98721],[17.23578,40.98717],[17.23565,40.987]]},"properties":{}},{"type":"Feature","geometry":{"type":"LineString","coordinates":[[17.23577,40.987],[17.23585,40.98714],[17.23584,40.98721]]},"properties":{}},{"type":"Feature","geometry":{"type":"LineString","coordinates":[[17.22866,40.98786],[17.22835,40.98781],[17.22808,40.98772]]},"properties":{}},{"type":"Feature","geometry":{"type":"LineString","coordinates":[[17.22877,40.99016],[17.22883,40.99042]]},"properties":{}},{"type":"Feature","geometry":{"type":"LineString","coordinates":[[17.22883,40.99042],[17.22867,40.99021]]},"properties":{}},{"type":"Feature","geometry":{"type":"LineString","coordinates":[[17.22881,40.99126],[17.22891,40.9911]]},"properties":{}},{"type":"Feature","geometry":{"type":"LineString","coordinates":[[17.22891,40.9911],[17.22893,40.99129]]},"properties":{}},{"type":"Feature","geometry":{"type":"LineString","coordinates":[[17.22859,40.99142],[17.22877,40.99129]]},"properties":{}},{"type":"Feature","geometry":{"type":"LineString","coordinates":[[17.21992,40.992],[17.21755,40.99241]]},"properties":{}},{"type":"Feature","geometry":{"type":"LineString","coordinates":[[17.22735,40.99561],[17.22737,40.9955],[17.22749,40.99548],[17.22781,40.99551],[17.22803,40.99534],[17.22826,40.99526],[17.22833,40.99516],[17.22837,40.99498],[17.22862,40.9947],[17.22863,40.99458],[17.22876,40.99433],[17.22894,40.99417],[17.22904,40.994],[17.22906,40.99378],[17.22929,40.99337],[17.22984,40.99318],[17.23038,40.99312],[17.23078,40.99311],[17.2311,40.99304],[17.23146,40.99309],[17.23167,40.99295],[17.23208,40.99284],[17.2322,40.99273],[17.23245,40.99265],[17.23251,40.99255],[17.23247,40.99245]]},"properties":{}},{"type":"Feature","geometry":{"type":"LineString","coordinates":[[17.21898,40.99531],[17.21891,40.99528],[17.21888,40.99508]]},"properties":{}},{"type":"Feature","geometry":{"type":"LineString","coordinates":[[17.2123,40.99814],[17.21359,40.99761],[17.21403,40.99745],[17.21491,40.99721],[17.21491,40.99717]]},"properties":{}},{"type":"Feature","geometry":{"type":"LineString","coordinates":[[17.21198,40.99828],[17.2123,40.99814]]},"properties":{}},{"type":"Feature","geometry":{"type":"LineString","coordinates":[[17.208,41.0],[17.21198,40.99828]]},"properties":{}}]}