{"type":"FeatureCollection","features":[{"type":"Feature","geometry":{"type":"LineString","coordinates":[[17.56456,40.29835],[17.56582,40.29855],[17.5658,40.29865]]},"properties":{}},{"type":"Feature","geometry":{"type":"LineString","coordinates":[[17.56525,40.29898],[17.56535,40.29848]]},"properties":{}},{"type":"Feature","geometry":{"type":"LineString","coordinates":[[17.56042,40.29868],[17.56287,40.299]]},"properties":{}},{"type":"Feature","geometry":{"type":"LineString","coordinates":[[17.56287,40.299],[17.56266,40.29979]]},"properties":{}},{"type":"Feature","geometry":{"type":"LineString","coordinates":[[17.55799,40.29952],[17.55736,40.29947]]},"properties":{}},{"type":"Feature","geometry":{"type":"LineString","coordinates":[[17.56266,40.29979],[17.55799,40.29952]]},"properties":{}},{"type":"Feature","geometry":{"type":"LineString","coordinates":[[17.565,40.30019],[17.56435,40.29919]]},"properties":{}},{"type":"Feature","geometry":{"type":"LineString","coordinates":[[17.56525,40.30057],[17.565,40.30019]]},"properties":{}},{"type":"Feature","geometry":{"type":"LineString","coordinates":[[17.72198,40.30134],[17.72413,40.30118],[17.72426,40.30123],[17.72428,40.3013]]},"properties":{}},{"type":"Feature","geometry":{"type":"LineString","coordinates":[[17.72359,40.30151],[17.72342,40.30145],[17.72337,40.30135],[17.7234,40.30129],[17.72359,40.30123]]},"properties":{}},{"type":"Feature","geometry":{"type":"LineString","coordinates":[[17.72428,40.3013],[17.7243,40.30146]]},"properties":{}},{"type":"Feature","geometry":{"type":"LineString","coordinates":[[17.72406,40.30165],[17.72359,40.30151],[17.72302,40.3014],[17.72198,40.30134]]},"properties":{}},{"type":"Feature","geometry":{"type":"LineString","coordinates":[[17.7243,40.30146],[17.72429,40.30157],[17.72424,40.30163],[17.72406,40.30165]]},"properties":{}},{"type":"Feature","geometry":{"type":"LineString","coordinates":[[17.7243,40.30146],[17.72438,40.30167],[17.7246,40.30191]]},"properties":{}},{"type":"Feature","geometry":{"type":"LineString","coordinates":[[17.7246,40.30191],[17.72406,40.30165]]},"properties":{}},{"type":"Feature","geometry":{"type":"LineString","coordinates":[[17.7444,40.30325],[17.74447,40.30346],[17.74459,40.30359]]},"properties":{}},{"type":"Feature","geometry":{"type":"LineString","coordinates":[[17.74432,40.30362],[17.74439,40.30347],[17.7444,40.30325]]},"properties":{}},{"type":"Feature","geometry":{"type":"LineString","coordinates":[[17.74465,40.30363],[17.7448,40.30367],[17.74509,40.30369]]},"properties":{}},{"type":"Feature","geometry":{"type":"LineString","coordinates":[[17.74397,40.30378],[17.74427,40.30368]]},"properties":{}},{"type":"Feature","geometry":{"type":"LineString","coordinates":[[17.74441,40.3039],[17.74427,40.30381],[17.74427,40.30368],[17.74432,40.30362],[17.7445,40.30357],[17.74465,40.30363],[17.7447,40.30374],[17.74464,40.30385],[17.74454,40.3039],[17.74441,40.3039]]},"properties":{}},{"type":"Feature","geometry":{"type":"LineString","coordinates":[[17.74509,40.30369],[17.74479,40.30377],[17.74464,40.30385]]},"properties":{}},{"type":"Feature","geometry":{"type":"LineString","coordinates":[[17.74432,40.30386],[17.74397,40.30378]]},"properties":{}},{"type":"Feature","geometry":{"type":"LineString","coordinates":[[17.7445,40.30418],[17.74435,40.30388]]},"properties":{}},{"type":"Feature","geometry":{"type":"LineString","coordinates":[[17.7446,40.30388],[17.7445,40.30418]]},"properties":{}},{"type":"Feature","geometry":{"type":"LineString","coordinates":[[17.686,40.30454],[17.68607,40.30463],[17.6861,40.30473]]},"properties":{}},{"type":"Feature","geometry":{"type":"LineString","coordinates":[[17.68596,40.30477],[17.68594,40.30464],[17.686,40.30454]]},"properties":{}},{"type":"Feature","geometry":{"type":"LineString","coordinates":[[17.68634,40.30454],[17.6861,40.30473],[17.68603,40.30485]]},"properties":{}},{"type":"Feature","geometry":{"type":"LineString","coordinates":[[17.68603,40.30485],[17.68569,40.30455]]},"properties":{}},{"type":"Feature","geometry":{"type":"LineString","coordinates":[[17.68141,40.30497],[17.68283,40.30468],[17.68343,40.30462],[17.68508,40.30457]]},"properties":{}},{"type":"Feature","geometry":{"type":"LineString","coordinates":[[17.68145,40.30508],[17.68278,40.30479],[17.68333,40.30472],[17.68464,40.30466],[17.68508,40.30457]]},"properties":{}},{"type":"Feature","geometry":{"type":"LineString","coordinates":[[17.68102,40.30506],[17.68141,40.30497]]},"properties":{}},{"type":"Feature","geometry":{"type":"LineString","coordinates":[[17.68143,40.30502],[17.68104,40.30511]]},"properties":{}},{"type":"Feature","geometry":{"type":"LineString","coordinates":[[17.68145,40.30508],[17.68107,40.30517]]},"properties":{}},{"type":"Feature","geometry":{"type":"LineString","coordinates":[[17.68107,40.30517],[17.68086,40.30521]]},"properties":{}},{"type":"Feature","geometry":{"type":"LineString","coordinates":[[17.65181,40.30449],[17.65173,40.3061]]},"properties":{}},{"type":"Feature","geometry":{"type":"LineString","coordinates":[[17.67864,40.30555],[17.6787,40.3055],[17.6792,40.30543],[17.68102,40.30506]]},"properties":{}},{"type":"Feature","geometry":{"type":"LineString","coordinates":[[17.68083,40.30515],[17.67923,40.30548],[17.67864,40.30555]]},"properties":{}},{"type":"Feature","geometry":{"type":"LineString","coordinates":[[17.68086,40.30521],[17.67946,40.3055],[17.67865,40.30561]]},"properties":{}},{"type":"Feature","geometry":{"type":"LineString","coordinates":[[17.65497,40.30531],[17.65489,40.30669]]},"properties":{}},{"type":"Feature","geometry":{"type":"LineString","coordinates":[[17.56634,40.31138],[17.56581,40.30321],[17.56573,40.30321]]},"properties":{}},{"type":"Feature","geometry":{"type":"LineString","coordinates":[[17.56577,40.30375],[17.56569,40.30378],[17.56589,40.30642],[17.56619,40.31138],[17.56626,40.31139]]},"properties":{}},{"type":"Feature","geometry":{"type":"LineString","coordinates":[[17.67246,40.30697],[17.67249,40.30826],[17.67245,40.30846],[17.67236,40.30863],[17.67154,40.30979],[17.67075,40.31078],[17.66993,40.31191],[17.66653,40.31639],[17.66516,40.31824],[17.66335,40.32079]]},"properties":{}},{"type":"Feature","geometry":{"type":"LineString","coordinates":[[17.67247,40.30713],[17.67252,40.30716],[17.67256,40.30816],[17.67252,40.30839],[17.67242,40.30863],[17.66662,40.31632],[17.66338,40.3208],[17.66335,40.32079]]},"properties":{}},{"type":"Feature","geometry":{"type":"LineString","coordinates":[[17.56834,40.31549],[17.56865,40.31544],[17.57008,40.31504],[17.57046,40.31508],[17.57066,40.31514]]},"properties":{}},{"type":"Feature","geometry":{"type":"LineString","coordinates":[[17.56794,40.31538],[17.56811,40.31523]]},"properties":{}},{"type":"Feature","geometry":{"type":"LineString","coordinates":[[17.56777,40.31546],[17.56794,40.31538]]},"properties":{}},{"type":"Feature","geometry":{"type":"LineString","coordinates":[[17.568,40.31548],[17.56777,40.31546]]},"properties":{}},{"type":"Feature","geometry":{"type":"LineString","coordinates":[[17.56837,40.31553],[17.568,40.31548]]},"properties":{}},{"type":"Feature","geometry":{"type":"LineString","coordinates":[[17.56957,40.3169],[17.57032,40.31687]]},"properties":{}},{"type":"Feature","geometry":{"type":"LineString","coordinates":[[17.57149,40.31879],[17.57061,40.31798],[17.56957,40.3169],[17.56837,40.31553]]},"properties":{}},{"type":"Feature","geometry":{"type":"LineString","coordinates":[[17.57203,40.31676],[17.57239,40.32065]]},"properties":{}},{"type":"Feature","geometry":{"type":"LineString","coordinates":[[17.57196,40.32179],[17.57159,40.31889],[17.57149,40.31879]]},"properties":{}},{"type":"Feature","geometry":{"type":"LineString","coordinates":[[17.57032,40.32129],[17.57185,40.32099]]},"properties":{}},{"type":"Feature","geometry":{"type":"LineString","coordinates":[[17.57442,40.32101],[17.57448,40.32207]]},"properties":{}},{"type":"Feature","geometry":{"type":"LineString","coordinates":[[17.57422,40.32211],[17.57397,40.32109]]},"properties":{}},{"type":"Feature","geometry":{"type":"LineString","coordinates":[[17.57189,40.32197],[17.57196,40.32179]]},"properties":{}},{"type":"Feature","geometry":{"type":"LineString","coordinates":[[17.57214,40.32237],[17.57189,40.32197]]},"properties":{}},{"type":"Feature","geometry":{"type":"LineString","coordinates":[[17.57052,40.32198],[17.56819,40.32247]]},"properties":{}},{"type":"Feature","geometry":{"type":"LineString","coordinates":[[17.56849,40.32335],[17.56819,40.32247],[17.56814,40.32223],[17.56824,40.3219]]},"properties":{}},{"type":"Feature","geometry":{"type":"LineString","coordinates":[[17.56746,40.32361],[17.56713,40.32213]]},"properties":{}},{"type":"Feature","geometry":{"type":"LineString","coordinates":[[17.57353,40.32223],[17.57345,40.32298],[17.57362,40.32453],[17.57369,40.32477]]},"properties":{}},{"type":"Feature","geometry":{"type":"LineString","coordinates":[[17.57343,40.32527],[17.57336,40.32518],[17.57312,40.32299],[17.57301,40.3223]]},"properties":{}},{"type":"Feature","geometry":{"type":"LineString","coordinates":[[17.57298,40.32598],[17.57214,40.32237]]},"properties":{}},{"type":"Feature","geometry":{"type":"LineString","coordinates":[[17.50764,40.35398],[17.50766,40.35405],[17.50761,40.35416],[17.50744,40.35424],[17.50723,40.35419],[17.50715,40.35409],[17.50718,40.35395],[17.50731,40.35387],[17.5075,40.35387],[17.50764,40.35398]]},"properties":{}},{"type":"Feature","geometry":{"type":"LineString","coordinates":[[17.75,40.35641],[17.74965,40.3563]]},"properties":{}},{"type":"Feature","geometry":{"type":"LineString","coordinates":[[17.60401,40.38629],[17.60343,40.38715],[17.60338,40.38726],[17.60331,40.3876]]},"properties":{}},{"type":"Feature","geometry":{"type":"LineString","coordinates":[[17.60253,40.38849],[17.60299,40.38845],[17.60443,40.38844]]},"properties":{}},{"type":"Feature","geometry":{"type":"LineString","coordinates":[[17.62816,40.39179],[17.63061,40.39013],[17.63099,40.39011]]},"properties":{}},{"type":"Feature","geometry":{"type":"LineString","coordinates":[[17.63102,40.39015],[17.63064,40.39017],[17.62851,40.39163],[17.62831,40.39186]]},"properties":{}},{"type":"Feature","geometry":{"type":"LineString","coordinates":[[17.62128,40.3943],[17.61879,40.39379],[17.61807,40.39358],[17.61726,40.39321],[17.6161,40.39258],[17.61515,40.39218],[17.61447,40.39195],[17.61348,40.39167],[17.61257,40.39142],[17.61159,40.39122],[17.61085,40.39098],[17.6099,40.39056],[17.60935,40.39025],[17.60913,40.3901],[17.60793,40.38907],[17.60736,40.38866],[17.60712,40.38843],[17.60706,40.38848]]},"properties":{}},{"type":"Feature","geometry":{"type":"LineString","coordinates":[[17.63419,40.39382],[17.63386,40.39327],[17.63288,40.39242],[17.63228,40.39195],[17.63194,40.3916],[17.63116,40.39037]]},"properties":{}},{"type":"Feature","geometry":{"type":"LineString","coordinates":[[17.63306,40.39258],[17.63433,40.39175]]},"properties":{}},{"type":"Feature","geometry":{"type":"LineString","coordinates":[[17.62931,40.39186],[17.63253,40.39274]]},"properties":{}},{"type":"Feature","geometry":{"type":"LineString","coordinates":[[17.63295,40.39248],[17.63253,40.39274],[17.63265,40.39257],[17.63288,40.39242]]},"properties":{}},{"type":"Feature","geometry":{"type":"LineString","coordinates":[[17.62413,40.3946],[17.62808,40.39185]]},"properties":{}},{"type":"Feature","geometry":{"type":"LineString","coordinates":[[17.62814,40.39195],[17.628,40.39201],[17.62752,40.39231],[17.62428,40.39459]]},"properties":{}},{"type":"Feature","geometry":{"type":"LineString","coordinates":[[17.62773,40.39532],[17.62931,40.39186]]},"properties":{}},{"type":"Feature","geometry":{"type":"LineString","coordinates":[[17.63952,40.39587],[17.63961,40.39316]]},"properties":{}},{"type":"Feature","geometry":{"type":"LineString","coordinates":[[17.63599,40.3959],[17.63619,40.39357]]},"properties":{}},{"type":"Feature","geometry":{"type":"LineString","coordinates":[[17.63478,40.39496],[17.63483,40.39491],[17.63611,40.39452]]},"properties":{}},{"type":"Feature","geometry":{"type":"LineString","coordinates":[[17.63253,40.39274],[17.63272,40.39287],[17.63281,40.39303],[17.63264,40.39394],[17.63119,40.39663],[17.63086,40.39717]]},"properties":{}},{"type":"Feature","geometry":{"type":"LineString","coordinates":[[17.63817,40.39354],[17.63824,40.39423],[17.63822,40.39499],[17.6383,40.3964],[17.63829,40.39659],[17.63815,40.39685]]},"properties":{}},{"type":"Feature","geometry":{"type":"LineString","coordinates":[[17.63396,40.39555],[17.63209,40.39496]]},"properties":{}},{"type":"Feature","geometry":{"type":"LineString","coordinates":[[17.63672,40.39516],[17.63606,40.39513],[17.63504,40.39543]]},"properties":{}},{"type":"Feature","geometry":{"type":"LineString","coordinates":[[17.637,40.39739],[17.63648,40.3969],[17.63557,40.3962],[17.63539,40.39599],[17.63504,40.39543],[17.63419,40.39382]]},"properties":{}},{"type":"Feature","geometry":{"type":"LineString","coordinates":[[17.63229,40.39607],[17.63276,40.39517]]},"properties":{}},{"type":"Feature","geometry":{"type":"LineString","coordinates":[[17.64156,40.39584],[17.63862,40.39673],[17.63815,40.39685]]},"properties":{}},{"type":"Feature","geometry":{"type":"LineString","coordinates":[[17.63172,40.39712],[17.62768,40.39586]]},"properties":{}},{"type":"Feature","geometry":{"type":"LineString","coordinates":[[17.63276,40.39849],[17.63283,40.39846],[17.63451,40.39539],[17.63478,40.39496]]},"properties":{}},{"type":"Feature","geometry":{"type":"LineString","coordinates":[[17.63441,40.39763],[17.62869,40.39585]]},"properties":{}},{"type":"Feature","geometry":{"type":"LineString","coordinates":[[17.62814,40.39631],[17.63158,40.39739]]},"properties":{}},{"type":"Feature","geometry":{"type":"LineString","coordinates":[[17.63141,40.39772],[17.63229,40.39607]]},"properties":{}},{"type":"Feature","geometry":{"type":"LineString","coordinates":[[17.63848,40.39802],[17.63864,40.3979],[17.63894,40.39787],[17.63918,40.39779],[17.63941,40.39766],[17.64218,40.39581]]},"properties":{}},{"type":"Feature","geometry":{"type":"LineString","coordinates":[[17.62922,40.39734],[17.62655,40.39653]]},"properties":{}},{"type":"Feature","geometry":{"type":"LineString","coordinates":[[17.63271,40.39617],[17.63183,40.39785]]},"properties":{}},{"type":"Feature","geometry":{"type":"LineString","coordinates":[[17.63815,40.39685],[17.63771,40.39727]]},"properties":{}},{"type":"Feature","geometry":{"type":"LineString","coordinates":[[17.63183,40.39785],[17.62817,40.39669]]},"properties":{}},{"type":"Feature","geometry":{"type":"LineString","coordinates":[[17.63195,40.39852],[17.63314,40.39626]]},"properties":{}},{"type":"Feature","geometry":{"type":"LineString","coordinates":[[17.63771,40.39727],[17.63749,40.39749],[17.63741,40.39753],[17.63731,40.39752],[17.637,40.39739]]},"properties":{}},{"type":"Feature","geometry":{"type":"LineString","coordinates":[[17.63771,40.39727],[17.63774,40.39733],[17.63779,40.39801]]},"properties":{}},{"type":"Feature","geometry":{"type":"LineString","coordinates":[[17.64011,40.39776],[17.64062,40.39765]]},"properties":{}},{"type":"Feature","geometry":{"type":"LineString","coordinates":[[17.64035,40.39702],[17.64102,40.39851]]},"properties":{}},{"type":"Feature","geometry":{"type":"LineString","coordinates":[[17.62969,40.39562],[17.63038,40.40008]]},"properties":{}},{"type":"Feature","geometry":{"type":"LineString","coordinates":[[17.62897,40.3956],[17.62942,40.39892],[17.62963,40.40019]]},"properties":{}},{"type":"Feature","geometry":{"type":"LineString","coordinates":[[17.62907,40.40038],[17.62869,40.39618],[17.62866,40.39559]]},"properties":{}},{"type":"Feature","geometry":{"type":"LineString","coordinates":[[17.63223,40.39798],[17.63183,40.39785],[17.63167,40.39814]]},"properties":{}},{"type":"Feature","geometry":{"type":"LineString","coordinates":[[17.62747,40.3992],[17.6276,40.39685]]},"properties":{}},{"type":"Feature","geometry":{"type":"LineString","coordinates":[[17.62979,40.39754],[17.62972,40.39854]]},"properties":{}},{"type":"Feature","geometry":{"type":"LineString","coordinates":[[17.63653,40.39843],[17.63685,40.39769]]},"properties":{}},{"type":"Feature","geometry":{"type":"LineString","coordinates":[[17.63297,40.39821],[17.63223,40.39798]]},"properties":{}},{"type":"Feature","geometry":{"type":"LineString","coordinates":[[17.63167,40.39814],[17.63209,40.39827]]},"properties":{}},{"type":"Feature","geometry":{"type":"LineString","coordinates":[[17.63582,40.39821],[17.63496,40.39827]]},"properties":{}},{"type":"Feature","geometry":{"type":"LineString","coordinates":[[17.63167,40.39814],[17.63153,40.39839]]},"properties":{}},{"type":"Feature","geometry":{"type":"LineString","coordinates":[[17.63677,40.39831],[17.63667,40.39831],[17.63663,40.39824]]},"properties":{}},{"type":"Feature","geometry":{"type":"LineString","coordinates":[[17.63209,40.39827],[17.63276,40.39849]]},"properties":{}},{"type":"Feature","geometry":{"type":"LineString","coordinates":[[17.64102,40.39851],[17.63985,40.39846],[17.63862,40.39831]]},"properties":{}},{"type":"Feature","geometry":{"type":"LineString","coordinates":[[17.63362,40.39851],[17.63446,40.39828],[17.63496,40.39827],[17.63497,40.39849],[17.63535,40.3985],[17.63576,40.39862],[17.63589,40.39858],[17.636,40.39849],[17.63624,40.39841],[17.63653,40.39843]]},"properties":{}},{"type":"Feature","geometry":{"type":"LineString","coordinates":[[17.641,40.39844],[17.64122,40.39852]]},"properties":{}},{"type":"Feature","geometry":{"type":"LineString","coordinates":[[17.63514,40.39942],[17.63481,40.39913],[17.63455,40.39878],[17.63446,40.39828],[17.63445,40.39786],[17.63441,40.39763]]},"properties":{}},{"type":"Feature","geometry":{"type":"LineString","coordinates":[[17.62832,40.39846],[17.63013,40.39856],[17.63134,40.39839],[17.63153,40.39839],[17.63252,40.3987]]},"properties":{}},{"type":"Feature","geometry":{"type":"LineString","coordinates":[[17.64102,40.39851],[17.64272,40.39866],[17.64383,40.39892]]},"properties":{}},{"type":"Feature","geometry":{"type":"LineString","coordinates":[[17.56193,40.3987],[17.56306,40.39875],[17.56653,40.39877],[17.56673,40.39883]]},"properties":{}},{"type":"Feature","geometry":{"type":"LineString","coordinates":[[17.64102,40.39851],[17.64123,40.39912]]},"properties":{}},{"type":"Feature","geometry":{"type":"LineString","coordinates":[[17.63853,40.39888],[17.6411,40.39876]]},"properties":{}},{"type":"Feature","geometry":{"type":"LineString","coordinates":[[17.63688,40.39889],[17.63607,40.39881]]},"properties":{}},{"type":"Feature","geometry":{"type":"LineString","coordinates":[[17.56192,40.39888],[17.55785,40.39906]]},"properties":{}},{"type":"Feature","geometry":{"type":"LineString","coordinates":[[17.63688,40.39889],[17.63695,40.39891],[17.63702,40.39899],[17.63713,40.39903],[17.63726,40.39927]]},"properties":{}},{"type":"Feature","geometry":{"type":"LineString","coordinates":[[17.63516,40.39941],[17.636,40.39883],[17.63607,40.39881]]},"properties":{}},{"type":"Feature","geometry":{"type":"LineString","coordinates":[[17.63607,40.39881],[17.63597,40.39942]]},"properties":{}},{"type":"Feature","geometry":{"type":"LineString","coordinates":[[17.63858,40.39933],[17.63859,40.3991],[17.63861,40.39904]]},"properties":{}},{"type":"Feature","geometry":{"type":"LineString","coordinates":[[17.62747,40.3992],[17.63089,40.39931]]},"properties":{}},{"type":"Feature","geometry":{"type":"LineString","coordinates":[[17.558,40.39938],[17.55893,40.39937],[17.5619,40.39921]]},"properties":{}},{"type":"Feature","geometry":{"type":"LineString","coordinates":[[17.63516,40.39941],[17.63521,40.39942],[17.63522,40.39948],[17.63514,40.39948],[17.63513,40.39944],[17.63516,40.39941]]},"properties":{}},{"type":"Feature","geometry":{"type":"LineString","coordinates":[[17.63597,40.39942],[17.6352,40.39949]]},"properties":{}},{"type":"Feature","geometry":{"type":"LineString","coordinates":[[17.63597,40.39942],[17.63677,40.3995]]},"properties":{}},{"type":"Feature","geometry":{"type":"LineString","coordinates":[[17.63677,40.3995],[17.63691,40.39946],[17.63722,40.39944]]},"properties":{}},{"type":"Feature","geometry":{"type":"LineString","coordinates":[[17.552,40.39956],[17.558,40.39938]]},"properties":{}},{"type":"Feature","geometry":{"type":"LineString","coordinates":[[17.63608,40.39962],[17.63597,40.39942]]},"properties":{}},{"type":"Feature","geometry":{"type":"LineString","coordinates":[[17.63095,40.3996],[17.629,40.39944]]},"properties":{}},{"type":"Feature","geometry":{"type":"LineString","coordinates":[[17.55112,40.39959],[17.552,40.39956]]},"properties":{}},{"type":"Feature","geometry":{"type":"LineString","coordinates":[[17.63427,40.39965],[17.63422,40.39981]]},"properties":{}},{"type":"Feature","geometry":{"type":"LineString","coordinates":[[17.63104,40.4],[17.63416,40.39965]]},"properties":{}},{"type":"Feature","geometry":{"type":"LineString","coordinates":[[17.62902,40.39983],[17.62718,40.39994]]},"properties":{}},{"type":"Feature","geometry":{"type":"LineString","coordinates":[[17.55636,40.39942],[17.55659,40.40038]]},"properties":{}},{"type":"Feature","geometry":{"type":"LineString","coordinates":[[17.55581,40.40049],[17.55557,40.39944]]},"properties":{}},{"type":"Feature","geometry":{"type":"LineString","coordinates":[[17.64134,40.3991],[17.6414,40.39949],[17.64192,40.40088]]},"properties":{}},{"type":"Feature","geometry":{"type":"LineString","coordinates":[[17.63094,40.40001],[17.63104,40.4]]},"properties":{}},{"type":"Feature","geometry":{"type":"LineString","coordinates":[[17.6309,40.40002],[17.63094,40.40001]]},"properties":{}},{"type":"Feature","geometry":{"type":"LineString","coordinates":[[17.62963,40.40019],[17.6309,40.40002]]},"properties":{}},{"type":"Feature","geometry":{"type":"LineString","coordinates":[[17.63422,40.39981],[17.62969,40.40067]]},"properties":{}},{"type":"Feature","geometry":{"type":"LineString","coordinates":[[17.62963,40.40019],[17.62963,40.4003]]},"properties":{}},{"type":"Feature","geometry":{"type":"LineString","coordinates":[[17.62907,40.40038],[17.62916,40.40031],[17.62963,40.40019]]},"properties":{}},{"type":"Feature","geometry":{"type":"LineString","coordinates":[[17.63759,40.40099],[17.63671,40.40039],[17.63658,40.40035],[17.63653,40.40026],[17.6364,40.40018],[17.63608,40.39962]]},"properties":{}},{"type":"Feature","geometry":{"type":"LineString","coordinates":[[17.62963,40.4003],[17.6294,40.40034]]},"properties":{}},{"type":"Feature","geometry":{"type":"LineString","coordinates":[[17.6294,40.40034],[17.62907,40.40038]]},"properties":{}},{"type":"Feature","geometry":{"type":"LineString","coordinates":[[17.63883,40.40167],[17.63871,40.40058],[17.63864,40.3997],[17.63858,40.39933]]},"properties":{}},{"type":"Feature","geometry":{"type":"LineString","coordinates":[[17.55258,40.40042],[17.55304,40.4006]]},"properties":{}},{"type":"Feature","geometry":{"type":"LineString","coordinates":[[17.63631,40.40106],[17.63739,40.40092],[17.6379,40.40042],[17.63798,40.40018],[17.63807,40.40007]]},"properties":{}},{"type":"Feature","geometry":{"type":"LineString","coordinates":[[17.55659,40.40038],[17.55672,40.40093],[17.55641,40.40117],[17.55595,40.40104],[17.55581,40.40049]]},"properties":{}},{"type":"Feature","geometry":{"type":"LineString","coordinates":[[17.63422,40.39981],[17.63395,40.40046],[17.63339,40.40198]]},"properties":{}},{"type":"Feature","geometry":{"type":"LineString","coordinates":[[17.55776,40.40122],[17.55805,40.40146],[17.55817,40.40176]]},"properties":{}},{"type":"Feature","geometry":{"type":"LineString","coordinates":[[17.6463,40.4018],[17.64603,40.40125]]},"properties":{}},{"type":"Feature","geometry":{"type":"LineString","coordinates":[[17.63636,40.40155],[17.63816,40.4015],[17.63856,40.40153]]},"properties":{}},{"type":"Feature","geometry":{"type":"LineString","coordinates":[[17.55304,40.4006],[17.55395,40.401],[17.55509,40.40134],[17.5556,40.40161],[17.55587,40.40188],[17.55605,40.40247]]},"properties":{}},{"type":"Feature","geometry":{"type":"LineString","coordinates":[[17.56566,40.40249],[17.56561,40.40215],[17.56525,40.40113],[17.56517,40.40062]]},"properties":{}},{"type":"Feature","geometry":{"type":"LineString","coordinates":[[17.55989,40.40144],[17.55876,40.40168]]},"properties":{}},{"type":"Feature","geometry":{"type":"LineString","coordinates":[[17.56673,40.39883],[17.56675,40.39901],[17.56672,40.40002],[17.56705,40.4044]]},"properties":{}},{"type":"Feature","geometry":{"type":"LineString","coordinates":[[17.55358,40.40258],[17.55294,40.40069]]},"properties":{}},{"type":"Feature","geometry":{"type":"LineString","coordinates":[[17.55817,40.40176],[17.55876,40.40168]]},"properties":{}},{"type":"Feature","geometry":{"type":"LineString","coordinates":[[17.63856,40.40153],[17.6393,40.40194],[17.6394,40.40196],[17.63958,40.40192]]},"properties":{}},{"type":"Feature","geometry":{"type":"LineString","coordinates":[[17.5566,40.40186],[17.55745,40.40163]]},"properties":{}},{"type":"Feature","geometry":{"type":"LineString","coordinates":[[17.64629,40.40128],[17.64645,40.40179],[17.64663,40.40222],[17.64659,40.40231],[17.6465,40.40225],[17.6463,40.4018]]},"properties":{}},{"type":"Feature","geometry":{"type":"LineString","coordinates":[[17.62963,40.4003],[17.62978,40.40138],[17.62994,40.40222],[17.63008,40.40331]]},"properties":{}},{"type":"Feature","geometry":{"type":"LineString","coordinates":[[17.56253,40.4026],[17.5663,40.40145]]},"properties":{}},{"type":"Feature","geometry":{"type":"LineString","coordinates":[[17.55697,40.40336],[17.55675,40.40239],[17.55641,40.40117]]},"properties":{}},{"type":"Feature","geometry":{"type":"LineString","coordinates":[[17.56127,40.40036],[17.5616,40.4043]]},"properties":{}},{"type":"Feature","geometry":{"type":"LineString","coordinates":[[17.56114,40.40435],[17.56094,40.40156],[17.5608,40.40039]]},"properties":{}},{"type":"Feature","geometry":{"type":"LineString","coordinates":[[17.55109,40.40245],[17.5511,40.40231],[17.5512,40.40244]]},"properties":{}},{"type":"Feature","geometry":{"type":"LineString","coordinates":[[17.62673,40.40323],[17.63427,40.4018],[17.63536,40.40171],[17.63601,40.40162],[17.63623,40.40155],[17.63636,40.40155]]},"properties":{}},{"type":"Feature","geometry":{"type":"LineString","coordinates":[[17.55833,40.40221],[17.55818,40.40215],[17.55766,40.40228],[17.55752,40.40233],[17.55465,40.40263],[17.55403,40.40261],[17.55313,40.40254],[17.55157,40.40249]]},"properties":{}},{"type":"Feature","geometry":{"type":"LineString","coordinates":[[17.56034,40.40042],[17.56069,40.4044]]},"properties":{}},{"type":"Feature","geometry":{"type":"LineString","coordinates":[[17.55122,40.40245],[17.55157,40.40249]]},"properties":{}},{"type":"Feature","geometry":{"type":"LineString","coordinates":[[17.55123,40.40247],[17.55123,40.40253],[17.55118,40.40256],[17.55107,40.40251],[17.55108,40.40247],[17.55114,40.40243],[17.55123,40.40247]]},"properties":{}},{"type":"Feature","geometry":{"type":"LineString","coordinates":[[17.55084,40.40256],[17.55108,40.40247]]},"properties":{}},{"type":"Feature","geometry":{"type":"LineString","coordinates":[[17.55157,40.40249],[17.55122,40.40254]]},"properties":{}},{"type":"Feature","geometry":{"type":"LineString","coordinates":[[17.55113,40.40256],[17.55084,40.40256]]},"properties":{}},{"type":"Feature","geometry":{"type":"LineString","coordinates":[[17.63955,40.4028],[17.63849,40.40278]]},"properties":{}},{"type":"Feature","geometry":{"type":"LineString","coordinates":[[17.56357,40.40461],[17.56301,40.40348],[17.56178,40.40117]]},"properties":{}},{"type":"Feature","geometry":{"type":"LineString","coordinates":[[17.55084,40.40256],[17.55063,40.4026],[17.54963,40.40264],[17.54935,40.40268],[17.54786,40.40323]]},"properties":{}},{"type":"Feature","geometry":{"type":"LineString","coordinates":[[17.63883,40.40167],[17.63878,40.40187],[17.6385,40.40257],[17.63839,40.40438]]},"properties":{}},{"type":"Feature","geometry":{"type":"LineString","coordinates":[[17.6395,40.40428],[17.63952,40.40319],[17.6396,40.40227],[17.63963,40.40214],[17.63958,40.40192]]},"properties":{}},{"type":"Feature","geometry":{"type":"LineString","coordinates":[[17.63847,40.40318],[17.63952,40.40319]]},"properties":{}},{"type":"Feature","geometry":{"type":"LineString","coordinates":[[17.56252,40.40421],[17.56235,40.40227]]},"properties":{}},{"type":"Feature","geometry":{"type":"LineString","coordinates":[[17.55738,40.40359],[17.56057,40.40297]]},"properties":{}},{"type":"Feature","geometry":{"type":"LineString","coordinates":[[17.63847,40.40318],[17.63811,40.40316],[17.63705,40.40341]]},"properties":{}},{"type":"Feature","geometry":{"type":"LineString","coordinates":[[17.56186,40.4021],[17.56209,40.4047]]},"properties":{}},{"type":"Feature","geometry":{"type":"LineString","coordinates":[[17.55481,40.4037],[17.55651,40.40346],[17.55697,40.40336]]},"properties":{}},{"type":"Feature","geometry":{"type":"LineString","coordinates":[[17.55851,40.40465],[17.56252,40.40421],[17.56288,40.40412],[17.56327,40.404],[17.56566,40.40249]]},"properties":{}},{"type":"Feature","geometry":{"type":"LineString","coordinates":[[17.55732,40.40403],[17.5573,40.40394],[17.55697,40.40336]]},"properties":{}},{"type":"Feature","geometry":{"type":"LineString","coordinates":[[17.55756,40.40387],[17.55751,40.40395],[17.55732,40.40403]]},"properties":{}},{"type":"Feature","geometry":{"type":"LineString","coordinates":[[17.55689,40.40542],[17.55624,40.40403],[17.55599,40.40301],[17.55593,40.40249]]},"properties":{}},{"type":"Feature","geometry":{"type":"LineString","coordinates":[[17.55818,40.40465],[17.55804,40.40377],[17.55788,40.40347]]},"properties":{}},{"type":"Feature","geometry":{"type":"LineString","coordinates":[[17.55763,40.40405],[17.55819,40.40503]]},"properties":{}},{"type":"Feature","geometry":{"type":"LineString","coordinates":[[17.55768,40.40518],[17.55732,40.40403]]},"properties":{}},{"type":"Feature","geometry":{"type":"LineString","coordinates":[[17.55682,40.40412],[17.55744,40.40525]]},"properties":{}},{"type":"Feature","geometry":{"type":"LineString","coordinates":[[17.55799,40.40467],[17.55851,40.40465],[17.55853,40.4049]]},"properties":{}},{"type":"Feature","geometry":{"type":"LineString","coordinates":[[17.55577,40.40431],[17.55588,40.40462],[17.55633,40.40561]]},"properties":{}},{"type":"Feature","geometry":{"type":"LineString","coordinates":[[17.55853,40.4049],[17.55819,40.40503]]},"properties":{}},{"type":"Feature","geometry":{"type":"LineString","coordinates":[[17.54918,40.40594],[17.55222,40.40502],[17.5567,40.40413],[17.55743,40.40402],[17.55763,40.40405]]},"properties":{}},{"type":"Feature","geometry":{"type":"LineString","coordinates":[[17.55482,40.40751],[17.55403,40.40261]]},"properties":{}},{"type":"Feature","geometry":{"type":"LineString","coordinates":[[17.55382,40.40766],[17.55266,40.40252]]},"properties":{}},{"type":"Feature","geometry":{"type":"LineString","coordinates":[[17.55819,40.40503],[17.55768,40.40518]]},"properties":{}},{"type":"Feature","geometry":{"type":"LineString","coordinates":[[17.55858,40.40534],[17.55968,40.40526]]},"properties":{}},{"type":"Feature","geometry":{"type":"LineString","coordinates":[[17.55968,40.40526],[17.55862,40.40559]]},"properties":{}},{"type":"Feature","geometry":{"type":"LineString","coordinates":[[17.5655,40.40678],[17.56471,40.40454]]},"properties":{}},{"type":"Feature","geometry":{"type":"LineString","coordinates":[[17.55872,40.40631],[17.55844,40.40594],[17.55805,40.40506]]},"properties":{}},{"type":"Feature","geometry":{"type":"LineString","coordinates":[[17.55222,40.40502],[17.5527,40.40662]]},"properties":{}},{"type":"Feature","geometry":{"type":"LineString","coordinates":[[17.55188,40.40703],[17.5507,40.40477]]},"properties":{}},{"type":"Feature","geometry":{"type":"LineString","coordinates":[[17.56052,40.40478],[17.56104,40.40558],[17.56201,40.40699],[17.56202,40.40712]]},"properties":{}},{"type":"Feature","geometry":{"type":"LineString","coordinates":[[17.55768,40.40518],[17.55829,40.40709]]},"properties":{}},{"type":"Feature","geometry":{"type":"LineString","coordinates":[[17.55363,40.40473],[17.55425,40.40759]]},"properties":{}},{"type":"Feature","geometry":{"type":"LineString","coordinates":[[17.56202,40.40712],[17.56114,40.40655],[17.55968,40.40526]]},"properties":{}},{"type":"Feature","geometry":{"type":"LineString","coordinates":[[17.6422,40.40602],[17.64241,40.40668],[17.64241,40.40681],[17.64235,40.40703]]},"properties":{}},{"type":"Feature","geometry":{"type":"LineString","coordinates":[[17.64235,40.40703],[17.64203,40.40605]]},"properties":{}},{"type":"Feature","geometry":{"type":"LineString","coordinates":[[17.55768,40.40518],[17.55689,40.40542],[17.5558,40.40579],[17.55459,40.40614],[17.5527,40.40662],[17.55225,40.4068],[17.55086,40.40774],[17.55046,40.40799],[17.54999,40.40822]]},"properties":{}},{"type":"Feature","geometry":{"type":"LineString","coordinates":[[17.56276,40.40468],[17.56366,40.40671],[17.56514,40.40919],[17.56364,40.40954]]},"properties":{}},{"type":"Feature","geometry":{"type":"LineString","coordinates":[[17.74391,40.41348],[17.7439,40.41343],[17.74386,40.41342],[17.74362,40.41338],[17.74236,40.41335],[17.74219,40.4134],[17.74202,40.41353],[17.74195,40.41363],[17.73858,40.42406],[17.73859,40.42409],[17.73868,40.42413],[17.73918,40.42423]]},"properties":{}},{"type":"Feature","geometry":{"type":"LineString","coordinates":[[17.73925,40.46471],[17.7393,40.46527],[17.73934,40.46539],[17.73959,40.46574]]},"properties":{}},{"type":"Feature","geometry":{"type":"LineString","coordinates":[[17.73934,40.46539],[17.73874,40.4655]]},"properties":{}},{"type":"Feature","geometry":{"type":"LineString","coordinates":[[17.73959,40.46574],[17.74016,40.46653]]},"properties":{}},{"type":"Feature","geometry":{"type":"LineString","coordinates":[[17.64304,40.49004],[17.64316,40.49],[17.64334,40.49004],[17.6434,40.49012],[17.64337,40.49026]]},"properties":{}},{"type":"Feature","geometry":{"type":"LineString","coordinates":[[17.64384,40.49007],[17.64354,40.49015],[17.64337,40.49026]]},"properties":{}},{"type":"Feature","geometry":{"type":"LineString","coordinates":[[17.64262,40.49025],[17.64282,40.4902],[17.643,40.49009]]},"properties":{}},{"type":"Feature","geometry":{"type":"LineString","coordinates":[[17.64312,40.49031],[17.64303,40.49026],[17.64298,40.49018],[17.64304,40.49004]]},"properties":{}},{"type":"Feature","geometry":{"type":"LineString","coordinates":[[17.64337,40.49026],[17.64333,40.49029]]},"properties":{}},{"type":"Feature","geometry":{"type":"LineString","coordinates":[[17.64308,40.49029],[17.64262,40.49025]]},"properties":{}},{"type":"Feature","geometry":{"type":"LineString","coordinates":[[17.64333,40.49029],[17.64312,40.49031]]},"properties":{}},{"type":"Feature","geometry":{"type":"LineString","coordinates":[[17.64333,40.49029],[17.64329,40.4904],[17.6433,40.4906]]},"properties":{}},{"type":"Feature","geometry":{"type":"LineString","coordinates":[[17.6433,40.4906],[17.64312,40.49031]]},"properties":{}},{"type":"Feature","geometry":{"type":"LineString","coordinates":[[17.55302,40.49839],[17.55322,40.4985],[17.5536,40.49864]]},"properties":{}},{"type":"Feature","geometry":{"type":"LineString","coordinates":[[17.5528,40.49865],[17.55295,40.49858],[17.55302,40.49839]]},"properties":{}},{"type":"Feature","geometry":{"type":"LineString","coordinates":[[17.5528,40.49865],[17.55324,40.49862],[17.55378,40.49868]]},"properties":{}},{"type":"Feature","geometry":{"type":"LineString","coordinates":[[17.55378,40.49868],[17.55311,40.49868],[17.5528,40.49865]]},"properties":{}},{"type":"Feature","geometry":{"type":"LineString","coordinates":[[17.55345,40.49885],[17.55309,40.4987],[17.55292,40.49867]]},"properties":{}},{"type":"Feature","geometry":{"type":"LineString","coordinates":[[17.55378,40.49868],[17.55359,40.49872],[17.55345,40.49885]]},"properties":{}},{"type":"Feature","geometry":{"type":"LineString","coordinates":[[17.63975,40.5],[17.63976,40.49931],[17.63988,40.49871]]},"properties":{}},{"type":"Feature","geometry":{"type":"LineString","coordinates":[[17.64304,40.49993],[17.64315,40.49982]]},"properties":{}},{"type":"Feature","geometry":{"type":"LineString","coordinates":[[17.64303,40.5],[17.64304,40.49993]]},"properties":{}}]}