{"type":"FeatureCollection","features":[{"type":"Feature","geometry":{"type":"LineString","coordinates":[[18.26792,40.25],[18.26773,40.25034],[18.26764,40.2506],[18.26761,40.25108],[18.26766,40.25135],[18.26777,40.2516],[18.26792,40.25186],[18.26817,40.25213],[18.26856,40.25243],[18.26927,40.25285],[18.27011,40.25328],[18.27111,40.25386],[18.27243,40.25482]]},"properties":{}},{"type":"Feature","geometry":{"type":"LineString","coordinates":[[18.43859,40.25363],[18.43874,40.25351],[18.43893,40.25321]]},"properties":{}},{"type":"Feature","geometry":{"type":"LineString","coordinates":[[18.43893,40.25321],[18.43882,40.25355],[18.43882,40.25369]]},"properties":{}},{"type":"Feature","geometry":{"type":"LineString","coordinates":[[18.43815,40.25372],[18.43846,40.2537]]},"properties":{}},{"type":"Feature","geometry":{"type":"LineString","coordinates":[[18.43841,40.25384],[18.43815,40.25372]]},"properties":{}},{"type":"Feature","geometry":{"type":"LineString","coordinates":[[18.43859,40.25399],[18.43843,40.25389],[18.43843,40.25374],[18.43859,40.25363],[18.43867,40.25363],[18.43882,40.25369],[18.43889,40.2538],[18.43887,40.25389],[18.43872,40.25399],[18.43859,40.25399]]},"properties":{}},{"type":"Feature","geometry":{"type":"LineString","coordinates":[[18.43889,40.2538],[18.43921,40.25395]]},"properties":{}},{"type":"Feature","geometry":{"type":"LineString","coordinates":[[18.43921,40.25395],[18.43883,40.25393]]},"properties":{}},{"type":"Feature","geometry":{"type":"LineString","coordinates":[[18.28793,40.25434],[18.28805,40.25426],[18.28816,40.25409]]},"properties":{}},{"type":"Feature","geometry":{"type":"LineString","coordinates":[[18.43826,40.25451],[18.43845,40.25408],[18.43847,40.25394]]},"properties":{}},{"type":"Feature","geometry":{"type":"LineString","coordinates":[[18.28816,40.25409],[18.28823,40.25441]]},"properties":{}},{"type":"Feature","geometry":{"type":"LineString","coordinates":[[18.43865,40.254],[18.43849,40.25418],[18.43826,40.25451]]},"properties":{}},{"type":"Feature","geometry":{"type":"LineString","coordinates":[[18.28811,40.25434],[18.28823,40.25441],[18.28827,40.25447],[18.28828,40.25454],[18.28822,40.25465],[18.28803,40.25473],[18.28781,40.25465],[18.28776,40.25454],[18.28782,40.2544],[18.28793,40.25434],[18.28811,40.25434]]},"properties":{}},{"type":"Feature","geometry":{"type":"LineString","coordinates":[[18.28827,40.25447],[18.28865,40.25474]]},"properties":{}},{"type":"Feature","geometry":{"type":"LineString","coordinates":[[18.28865,40.25474],[18.28835,40.2547],[18.28809,40.25472]]},"properties":{}},{"type":"Feature","geometry":{"type":"LineString","coordinates":[[18.28767,40.25492],[18.28775,40.25477],[18.28777,40.2546]]},"properties":{}},{"type":"Feature","geometry":{"type":"LineString","coordinates":[[18.28803,40.25473],[18.28767,40.25492]]},"properties":{}},{"type":"Feature","geometry":{"type":"LineString","coordinates":[[18.29437,40.25782],[18.2947,40.25808]]},"properties":{}},{"type":"Feature","geometry":{"type":"LineString","coordinates":[[18.29452,40.25817],[18.29451,40.25802],[18.29437,40.25782]]},"properties":{}},{"type":"Feature","geometry":{"type":"LineString","coordinates":[[18.29485,40.2582],[18.29482,40.25829],[18.29466,40.25834],[18.29456,40.2583],[18.29451,40.25822],[18.29459,40.2581],[18.2947,40.25808],[18.29481,40.25812],[18.29485,40.2582]]},"properties":{}},{"type":"Feature","geometry":{"type":"LineString","coordinates":[[18.29484,40.25816],[18.29534,40.25861]]},"properties":{}},{"type":"Feature","geometry":{"type":"LineString","coordinates":[[18.29451,40.25854],[18.29453,40.25826]]},"properties":{}},{"type":"Feature","geometry":{"type":"LineString","coordinates":[[18.29472,40.25833],[18.29463,40.25838],[18.29451,40.25854]]},"properties":{}},{"type":"Feature","geometry":{"type":"LineString","coordinates":[[18.29534,40.25861],[18.29499,40.25837],[18.29478,40.25832]]},"properties":{}},{"type":"Feature","geometry":{"type":"LineString","coordinates":[[18.43098,40.26643],[18.43114,40.26642],[18.43131,40.26635],[18.43146,40.26621],[18.43165,40.26596],[18.4319,40.26536]]},"properties":{}},{"type":"Feature","geometry":{"type":"LineString","coordinates":[[18.43146,40.26621],[18.43175,40.26617]]},"properties":{}},{"type":"Feature","geometry":{"type":"LineString","coordinates":[[18.43175,40.26623],[18.4316,40.26638],[18.4314,40.26645]]},"properties":{}},{"type":"Feature","geometry":{"type":"LineString","coordinates":[[18.4314,40.26645],[18.43118,40.26646],[18.43098,40.26643]]},"properties":{}},{"type":"Feature","geometry":{"type":"LineString","coordinates":[[18.43175,40.26665],[18.43167,40.26653],[18.43157,40.26647],[18.4314,40.26645]]},"properties":{}},{"type":"Feature","geometry":{"type":"LineString","coordinates":[[18.42867,40.27555],[18.42799,40.27565]]},"properties":{}},{"type":"Feature","geometry":{"type":"LineString","coordinates":[[18.42768,40.27709],[18.42896,40.27668]]},"properties":{}},{"type":"Feature","geometry":{"type":"LineString","coordinates":[[18.3408,40.2781],[18.34113,40.27809],[18.34124,40.27801],[18.34127,40.2779]]},"properties":{}},{"type":"Feature","geometry":{"type":"LineString","coordinates":[[18.34139,40.27823],[18.34127,40.2779],[18.3412,40.27782]]},"properties":{}},{"type":"Feature","geometry":{"type":"LineString","coordinates":[[18.34151,40.27799],[18.34154,40.27807],[18.34152,40.27815],[18.34139,40.27823]]},"properties":{}},{"type":"Feature","geometry":{"type":"LineString","coordinates":[[18.33746,40.27796],[18.3375,40.27818],[18.33755,40.27825],[18.33767,40.27831],[18.3379,40.27834]]},"properties":{}},{"type":"Feature","geometry":{"type":"LineString","coordinates":[[18.3412,40.27782],[18.3426,40.27862]]},"properties":{}},{"type":"Feature","geometry":{"type":"LineString","coordinates":[[18.3375,40.27848],[18.33731,40.2784],[18.33726,40.27831],[18.33735,40.27808],[18.33746,40.27796]]},"properties":{}},{"type":"Feature","geometry":{"type":"LineString","coordinates":[[18.33754,40.27823],[18.3375,40.27848]]},"properties":{}},{"type":"Feature","geometry":{"type":"LineString","coordinates":[[18.3365,40.27902],[18.3366,40.2789],[18.33704,40.27851],[18.33727,40.27825]]},"properties":{}},{"type":"Feature","geometry":{"type":"LineString","coordinates":[[18.3441,40.27885],[18.34418,40.27862]]},"properties":{}},{"type":"Feature","geometry":{"type":"LineString","coordinates":[[18.34418,40.27862],[18.34422,40.27887]]},"properties":{}},{"type":"Feature","geometry":{"type":"LineString","coordinates":[[18.34407,40.27894],[18.3441,40.27885]]},"properties":{}},{"type":"Feature","geometry":{"type":"LineString","coordinates":[[18.34422,40.27887],[18.34422,40.27898]]},"properties":{}},{"type":"Feature","geometry":{"type":"LineString","coordinates":[[18.34348,40.27895],[18.34384,40.27899],[18.34407,40.27894]]},"properties":{}},{"type":"Feature","geometry":{"type":"LineString","coordinates":[[18.34402,40.27915],[18.34407,40.27894]]},"properties":{}},{"type":"Feature","geometry":{"type":"LineString","coordinates":[[18.34422,40.27898],[18.34412,40.2791],[18.34402,40.27915]]},"properties":{}},{"type":"Feature","geometry":{"type":"LineString","coordinates":[[18.34422,40.27898],[18.34422,40.27922]]},"properties":{}},{"type":"Feature","geometry":{"type":"LineString","coordinates":[[18.4041,40.28243],[18.40451,40.28237],[18.40468,40.28238],[18.40716,40.28299]]},"properties":{}},{"type":"Feature","geometry":{"type":"LineString","coordinates":[[18.39804,40.28317],[18.39896,40.28319],[18.39989,40.28326],[18.40057,40.28337],[18.40094,40.28338],[18.40126,40.28329],[18.40199,40.28287],[18.40228,40.28275],[18.40333,40.28259],[18.4041,40.28243]]},"properties":{}},{"type":"Feature","geometry":{"type":"LineString","coordinates":[[18.30164,40.28375],[18.3017,40.28346],[18.30167,40.28319]]},"properties":{}},{"type":"Feature","geometry":{"type":"LineString","coordinates":[[18.30167,40.28319],[18.30195,40.2838]]},"properties":{}},{"type":"Feature","geometry":{"type":"LineString","coordinates":[[18.30169,40.28397],[18.3016,40.28387],[18.30164,40.28375],[18.30179,40.28371],[18.30193,40.28378],[18.30195,40.28388],[18.3019,40.28395],[18.3018,40.28398],[18.30169,40.28397]]},"properties":{}},{"type":"Feature","geometry":{"type":"LineString","coordinates":[[18.30196,40.28384],[18.30205,40.28403]]},"properties":{}},{"type":"Feature","geometry":{"type":"LineString","coordinates":[[18.30205,40.28403],[18.3019,40.28403],[18.30174,40.28398]]},"properties":{}},{"type":"Feature","geometry":{"type":"LineString","coordinates":[[18.40716,40.28299],[18.40753,40.28307],[18.40793,40.28322],[18.41043,40.28447],[18.41139,40.28502],[18.41183,40.28523],[18.41296,40.28511],[18.41459,40.28508]]},"properties":{}},{"type":"Feature","geometry":{"type":"LineString","coordinates":[[18.34576,40.28305],[18.3458,40.28415],[18.34574,40.28445],[18.3456,40.28481],[18.34549,40.28497],[18.34525,40.28521]]},"properties":{}},{"type":"Feature","geometry":{"type":"LineString","coordinates":[[18.36297,40.28675],[18.3632,40.28659],[18.36407,40.2864],[18.36503,40.28647],[18.36692,40.28652],[18.36881,40.2862],[18.37016,40.28579],[18.37189,40.28556],[18.37338,40.28499],[18.3748,40.28459],[18.37612,40.28439],[18.37746,40.28471],[18.3782,40.28479],[18.37849,40.28486],[18.37947,40.28522],[18.38108,40.28563],[18.38227,40.28589],[18.38293,40.28586],[18.38427,40.28606],[18.38512,40.28612],[18.38556,40.28611],[18.38668,40.28602],[18.38732,40.28591],[18.38869,40.28542],[18.38933,40.28511],[18.38971,40.28482],[18.38994,40.28472],[18.39145,40.28446],[18.39225,40.28442],[18.39339,40.28425],[18.39385,40.2841],[18.39456,40.28371],[18.39521,40.28353],[18.39641,40.2833],[18.39712,40.28328],[18.39804,40.28317]]},"properties":{}},{"type":"Feature","geometry":{"type":"LineString","coordinates":[[18.41459,40.28508],[18.41629,40.28504],[18.41942,40.285],[18.41958,40.28502],[18.4219,40.28624],[18.42235,40.28641],[18.42263,40.28645],[18.42578,40.28654],[18.42601,40.28662]]},"properties":{}},{"type":"Feature","geometry":{"type":"LineString","coordinates":[[18.30353,40.2884],[18.30353,40.28846]]},"properties":{}},{"type":"Feature","geometry":{"type":"LineString","coordinates":[[18.30353,40.28846],[18.30344,40.2885],[18.30337,40.28844],[18.30342,40.28838],[18.30353,40.2884]]},"properties":{}},{"type":"Feature","geometry":{"type":"LineString","coordinates":[[18.30532,40.28878],[18.30481,40.28872],[18.3045,40.28859],[18.30483,40.28858],[18.30495,40.2886],[18.30532,40.28878]]},"properties":{}},{"type":"Feature","geometry":{"type":"LineString","coordinates":[[18.3085,40.28966],[18.30881,40.28978],[18.30894,40.28979]]},"properties":{}},{"type":"Feature","geometry":{"type":"LineString","coordinates":[[18.30884,40.28989],[18.3085,40.28966]]},"properties":{}},{"type":"Feature","geometry":{"type":"LineString","coordinates":[[18.3092,40.28987],[18.30965,40.28995]]},"properties":{}},{"type":"Feature","geometry":{"type":"LineString","coordinates":[[18.30889,40.28982],[18.309,40.28978],[18.30912,40.2898],[18.3092,40.28987],[18.30919,40.28999],[18.30905,40.29007],[18.30892,40.29005],[18.30883,40.28993],[18.30889,40.28982]]},"properties":{}},{"type":"Feature","geometry":{"type":"LineString","coordinates":[[18.30965,40.28995],[18.30919,40.28999]]},"properties":{}},{"type":"Feature","geometry":{"type":"LineString","coordinates":[[18.30853,40.29013],[18.30869,40.29005],[18.30883,40.28993]]},"properties":{}},{"type":"Feature","geometry":{"type":"LineString","coordinates":[[18.30892,40.29005],[18.30853,40.29013]]},"properties":{}},{"type":"Feature","geometry":{"type":"LineString","coordinates":[[18.30427,40.29174],[18.30431,40.2918]]},"properties":{}},{"type":"Feature","geometry":{"type":"LineString","coordinates":[[18.30431,40.2918],[18.30441,40.29189],[18.30461,40.29194],[18.30477,40.29191],[18.30504,40.29181]]},"properties":{}},{"type":"Feature","geometry":{"type":"LineString","coordinates":[[18.30504,40.29181],[18.30492,40.29192],[18.3046,40.2921],[18.30452,40.29218],[18.30442,40.29246]]},"properties":{}},{"type":"Feature","geometry":{"type":"LineString","coordinates":[[18.30351,40.29259],[18.30364,40.29247],[18.3041,40.29224],[18.30418,40.29216],[18.30425,40.29201],[18.30428,40.29181]]},"properties":{}},{"type":"Feature","geometry":{"type":"LineString","coordinates":[[18.3044,40.29214],[18.30442,40.29246]]},"properties":{}},{"type":"Feature","geometry":{"type":"LineString","coordinates":[[18.30437,40.29253],[18.30431,40.29219]]},"properties":{}},{"type":"Feature","geometry":{"type":"LineString","coordinates":[[18.30437,40.29253],[18.30424,40.29242],[18.30404,40.2924],[18.30372,40.29255],[18.30351,40.29259]]},"properties":{}},{"type":"Feature","geometry":{"type":"LineString","coordinates":[[18.30442,40.29246],[18.30443,40.2927]]},"properties":{}},{"type":"Feature","geometry":{"type":"LineString","coordinates":[[18.30443,40.2927],[18.30437,40.29253]]},"properties":{}},{"type":"Feature","geometry":{"type":"LineString","coordinates":[[18.41421,40.29621],[18.42054,40.29342],[18.42146,40.29291],[18.42205,40.2924],[18.42254,40.29177],[18.42284,40.29115],[18.42355,40.28939]]},"properties":{}},{"type":"Feature","geometry":{"type":"LineString","coordinates":[[18.41027,40.29708],[18.41051,40.29697],[18.41109,40.29681],[18.41381,40.29636],[18.41436,40.29621],[18.42067,40.2934],[18.42128,40.29308],[18.42151,40.29294],[18.42202,40.29252],[18.42257,40.29181],[18.42277,40.29141],[18.42359,40.2894]]},"properties":{}},{"type":"Feature","geometry":{"type":"LineString","coordinates":[[18.30442,40.29246],[18.30449,40.29258],[18.30482,40.29442],[18.30484,40.29459],[18.30481,40.29486]]},"properties":{}},{"type":"Feature","geometry":{"type":"LineString","coordinates":[[18.29847,40.29353],[18.29853,40.29379]]},"properties":{}},{"type":"Feature","geometry":{"type":"LineString","coordinates":[[18.29826,40.29381],[18.29847,40.29353]]},"properties":{}},{"type":"Feature","geometry":{"type":"LineString","coordinates":[[18.29859,40.29381],[18.29899,40.29367]]},"properties":{}},{"type":"Feature","geometry":{"type":"LineString","coordinates":[[18.29826,40.29381],[18.29842,40.29378],[18.29859,40.29381]]},"properties":{}},{"type":"Feature","geometry":{"type":"LineString","coordinates":[[18.29899,40.29367],[18.29868,40.29403]]},"properties":{}},{"type":"Feature","geometry":{"type":"LineString","coordinates":[[18.29859,40.29381],[18.29867,40.29393],[18.29868,40.29403]]},"properties":{}},{"type":"Feature","geometry":{"type":"LineString","coordinates":[[18.29803,40.29405],[18.29826,40.29381]]},"properties":{}},{"type":"Feature","geometry":{"type":"LineString","coordinates":[[18.29868,40.29403],[18.29844,40.29429]]},"properties":{}},{"type":"Feature","geometry":{"type":"LineString","coordinates":[[18.29807,40.2943],[18.29802,40.29423],[18.298,40.29415],[18.29803,40.29405]]},"properties":{}},{"type":"Feature","geometry":{"type":"LineString","coordinates":[[18.29764,40.29446],[18.29803,40.29405]]},"properties":{}},{"type":"Feature","geometry":{"type":"LineString","coordinates":[[18.29844,40.29429],[18.29822,40.29434],[18.29807,40.2943]]},"properties":{}},{"type":"Feature","geometry":{"type":"LineString","coordinates":[[18.29807,40.2943],[18.29764,40.29446]]},"properties":{}},{"type":"Feature","geometry":{"type":"LineString","coordinates":[[18.29844,40.29429],[18.29812,40.29465]]},"properties":{}},{"type":"Feature","geometry":{"type":"LineString","coordinates":[[18.29812,40.29465],[18.29814,40.29434]]},"properties":{}},{"type":"Feature","geometry":{"type":"LineString","coordinates":[[18.34525,40.28521],[18.34513,40.28547],[18.34498,40.28602],[18.34496,40.28622],[18.34497,40.28664],[18.34486,40.28713],[18.34478,40.28732],[18.34408,40.28831],[18.34374,40.2886],[18.34361,40.28875],[18.34358,40.28886],[18.34361,40.2892],[18.34359,40.28954],[18.34355,40.2899],[18.34351,40.29003],[18.34283,40.29109],[18.34234,40.29155],[18.34198,40.29199],[18.3419,40.29216],[18.34175,40.29269],[18.34164,40.29358],[18.34165,40.29446],[18.34153,40.29589],[18.34155,40.29682],[18.34149,40.29705],[18.34137,40.2973],[18.34127,40.29743],[18.34036,40.29825],[18.34017,40.29851],[18.33978,40.29878],[18.33962,40.29886],[18.33833,40.29928],[18.33692,40.30027],[18.33578,40.30116],[18.33466,40.30239],[18.3343,40.30295],[18.33422,40.30315],[18.33366,40.30416],[18.33333,40.30466],[18.3328,40.30539],[18.33207,40.30624],[18.33184,40.30647]]},"properties":{}},{"type":"Feature","geometry":{"type":"LineString","coordinates":[[18.4052,40.29712],[18.40451,40.29668]]},"properties":{}},{"type":"Feature","geometry":{"type":"LineString","coordinates":[[18.40834,40.29866],[18.41001,40.29723],[18.41027,40.29708]]},"properties":{}},{"type":"Feature","geometry":{"type":"LineString","coordinates":[[18.40781,40.29803],[18.40825,40.29825]]},"properties":{}},{"type":"Feature","geometry":{"type":"LineString","coordinates":[[18.39879,40.30105],[18.40028,40.29953],[18.40366,40.29622],[18.40375,40.29621],[18.40439,40.29663],[18.40451,40.29668]]},"properties":{}},{"type":"Feature","geometry":{"type":"LineString","coordinates":[[18.40647,40.30028],[18.40834,40.29866]]},"properties":{}},{"type":"Feature","geometry":{"type":"LineString","coordinates":[[18.40643,40.30026],[18.40797,40.29892]]},"properties":{}},{"type":"Feature","geometry":{"type":"LineString","coordinates":[[18.40244,40.30002],[18.40252,40.30007],[18.40354,40.30036]]},"properties":{}},{"type":"Feature","geometry":{"type":"LineString","coordinates":[[18.40333,40.30077],[18.40203,40.30041]]},"properties":{}},{"type":"Feature","geometry":{"type":"LineString","coordinates":[[18.26936,40.30117],[18.26937,40.30054]]},"properties":{}},{"type":"Feature","geometry":{"type":"LineString","coordinates":[[18.40493,40.30166],[18.40517,40.30136],[18.40643,40.30026]]},"properties":{}},{"type":"Feature","geometry":{"type":"LineString","coordinates":[[18.26945,40.30077],[18.26936,40.30117]]},"properties":{}},{"type":"Feature","geometry":{"type":"LineString","coordinates":[[18.26955,40.30102],[18.26948,40.30099],[18.2694,40.30101]]},"properties":{}},{"type":"Feature","geometry":{"type":"LineString","coordinates":[[18.39847,40.30137],[18.39736,40.30105],[18.39704,40.30098]]},"properties":{}},{"type":"Feature","geometry":{"type":"LineString","coordinates":[[18.40282,40.30178],[18.40333,40.30077]]},"properties":{}},{"type":"Feature","geometry":{"type":"LineString","coordinates":[[18.40464,40.30209],[18.40493,40.30166]]},"properties":{}},{"type":"Feature","geometry":{"type":"LineString","coordinates":[[18.40418,40.30205],[18.40458,40.30209]]},"properties":{}},{"type":"Feature","geometry":{"type":"LineString","coordinates":[[18.40455,40.30221],[18.40452,40.30217],[18.40455,40.3021],[18.40461,40.30209],[18.40467,40.30212],[18.40467,40.30219],[18.40455,40.30221]]},"properties":{}},{"type":"Feature","geometry":{"type":"LineString","coordinates":[[18.40348,40.30192],[18.40319,40.3024]]},"properties":{}},{"type":"Feature","geometry":{"type":"LineString","coordinates":[[18.4047,40.30236],[18.40473,40.30229],[18.4047,40.30199]]},"properties":{}},{"type":"Feature","geometry":{"type":"LineString","coordinates":[[18.27123,40.30371],[18.27095,40.30348],[18.27082,40.3033],[18.26955,40.30102],[18.26945,40.30077]]},"properties":{}},{"type":"Feature","geometry":{"type":"LineString","coordinates":[[18.39839,40.30145],[18.40108,40.30341]]},"properties":{}},{"type":"Feature","geometry":{"type":"LineString","coordinates":[[18.40337,40.3028],[18.40392,40.30275],[18.40415,40.30268],[18.40426,40.30259],[18.40455,40.30221]]},"properties":{}},{"type":"Feature","geometry":{"type":"LineString","coordinates":[[18.26883,40.30355],[18.26922,40.30163]]},"properties":{}},{"type":"Feature","geometry":{"type":"LineString","coordinates":[[18.40339,40.30287],[18.40397,40.30281],[18.40419,40.30273],[18.40435,40.3026],[18.40452,40.30236]]},"properties":{}},{"type":"Feature","geometry":{"type":"LineString","coordinates":[[18.40291,40.30287],[18.40337,40.3028]]},"properties":{}},{"type":"Feature","geometry":{"type":"LineString","coordinates":[[18.4028,40.30287],[18.40291,40.30287]]},"properties":{}},{"type":"Feature","geometry":{"type":"LineString","coordinates":[[18.269,40.30302],[18.27108,40.3037],[18.27123,40.30371]]},"properties":{}},{"type":"Feature","geometry":{"type":"LineString","coordinates":[[18.28667,40.30722],[18.28871,40.30517],[18.28899,40.30479],[18.2903,40.30343],[18.29031,40.30327],[18.28805,40.30043],[18.28792,40.30037],[18.28778,40.30035],[18.28604,40.30055]]},"properties":{}},{"type":"Feature","geometry":{"type":"LineString","coordinates":[[18.3981,40.30594],[18.39903,40.30502],[18.39941,40.30469],[18.40069,40.30374],[18.40104,40.30352],[18.40128,40.30342],[18.40187,40.30324],[18.40339,40.30287]]},"properties":{}},{"type":"Feature","geometry":{"type":"LineString","coordinates":[[18.39769,40.30623],[18.39918,40.30481],[18.40034,40.30391],[18.40099,40.30345],[18.4015,40.30326],[18.40262,40.30295],[18.4028,40.30287]]},"properties":{}},{"type":"Feature","geometry":{"type":"LineString","coordinates":[[18.27071,40.30538],[18.27123,40.30547],[18.27217,40.3052],[18.27281,40.30498]]},"properties":{}},{"type":"Feature","geometry":{"type":"LineString","coordinates":[[18.27071,40.30538],[18.27048,40.30551]]},"properties":{}},{"type":"Feature","geometry":{"type":"LineString","coordinates":[[18.27048,40.30551],[18.27038,40.30555]]},"properties":{}},{"type":"Feature","geometry":{"type":"LineString","coordinates":[[18.27038,40.30555],[18.2699,40.30602],[18.26933,40.3065]]},"properties":{}},{"type":"Feature","geometry":{"type":"LineString","coordinates":[[18.31555,40.30668],[18.31563,40.30664],[18.31569,40.3067],[18.3156,40.30675],[18.31556,40.30673],[18.31555,40.30668]]},"properties":{}},{"type":"Feature","geometry":{"type":"LineString","coordinates":[[18.31354,40.30679],[18.31408,40.3069]]},"properties":{}},{"type":"Feature","geometry":{"type":"LineString","coordinates":[[18.26933,40.3065],[18.2688,40.30686],[18.26829,40.30706],[18.26808,40.30712],[18.26736,40.30721]]},"properties":{}},{"type":"Feature","geometry":{"type":"LineString","coordinates":[[18.31363,40.30701],[18.31354,40.30679]]},"properties":{}},{"type":"Feature","geometry":{"type":"LineString","coordinates":[[18.31408,40.3069],[18.31363,40.30701]]},"properties":{}},{"type":"Feature","geometry":{"type":"LineString","coordinates":[[18.27768,40.31444],[18.27786,40.31457],[18.27809,40.31481]]},"properties":{}},{"type":"Feature","geometry":{"type":"LineString","coordinates":[[18.27766,40.31487],[18.27772,40.31474],[18.27773,40.31461],[18.27768,40.31444]]},"properties":{}},{"type":"Feature","geometry":{"type":"LineString","coordinates":[[18.27754,40.31532],[18.27749,40.31521],[18.27752,40.31502],[18.2776,40.31492],[18.27779,40.31482],[18.27801,40.3148],[18.2782,40.31485],[18.27836,40.31497],[18.27841,40.31508],[18.27842,40.31521],[18.27836,40.31534],[18.27824,40.31544],[18.27809,40.3155],[18.27793,40.31551],[18.27778,40.31549],[18.27764,40.31542],[18.27754,40.31532]]},"properties":{}},{"type":"Feature","geometry":{"type":"LineString","coordinates":[[18.2824,40.31814],[18.28187,40.31833]]},"properties":{}},{"type":"Feature","geometry":{"type":"LineString","coordinates":[[18.2802,40.31829],[18.28048,40.31831]]},"properties":{}},{"type":"Feature","geometry":{"type":"LineString","coordinates":[[18.28048,40.31836],[18.28032,40.31837]]},"properties":{}},{"type":"Feature","geometry":{"type":"LineString","coordinates":[[18.28049,40.31854],[18.28032,40.31837],[18.2802,40.31829]]},"properties":{}},{"type":"Feature","geometry":{"type":"LineString","coordinates":[[18.28192,40.32031],[18.28241,40.31819],[18.2824,40.31814]]},"properties":{}},{"type":"Feature","geometry":{"type":"LineString","coordinates":[[18.27614,40.31941],[18.27624,40.3194],[18.27655,40.31951]]},"properties":{}},{"type":"Feature","geometry":{"type":"LineString","coordinates":[[18.28039,40.31927],[18.28019,40.31976]]},"properties":{}},{"type":"Feature","geometry":{"type":"LineString","coordinates":[[18.27655,40.31951],[18.27643,40.31953],[18.27624,40.31965]]},"properties":{}},{"type":"Feature","geometry":{"type":"LineString","coordinates":[[18.27624,40.31965],[18.27618,40.31979],[18.27605,40.3199],[18.27575,40.31997],[18.27552,40.31991],[18.27541,40.31983],[18.27535,40.31972],[18.27533,40.31961],[18.27536,40.3195],[18.27542,40.31941],[18.27563,40.31929],[18.27577,40.31927],[18.27592,40.31929],[18.2761,40.31937],[18.2762,40.31948],[18.27624,40.31965]]},"properties":{}},{"type":"Feature","geometry":{"type":"LineString","coordinates":[[18.27515,40.31977],[18.27536,40.3195]]},"properties":{}},{"type":"Feature","geometry":{"type":"LineString","coordinates":[[18.27552,40.31991],[18.27515,40.31977]]},"properties":{}},{"type":"Feature","geometry":{"type":"LineString","coordinates":[[18.28019,40.31976],[18.28055,40.32002],[18.2809,40.3201]]},"properties":{}},{"type":"Feature","geometry":{"type":"LineString","coordinates":[[18.2809,40.3201],[18.28132,40.32016],[18.28192,40.32031]]},"properties":{}},{"type":"Feature","geometry":{"type":"LineString","coordinates":[[18.31956,40.32247],[18.31968,40.32245],[18.32002,40.32246]]},"properties":{}},{"type":"Feature","geometry":{"type":"LineString","coordinates":[[18.3126,40.37482],[18.31267,40.37466],[18.31346,40.37396]]},"properties":{}},{"type":"Feature","geometry":{"type":"LineString","coordinates":[[18.25,40.37464],[18.25662,40.3764]]},"properties":{}},{"type":"Feature","geometry":{"type":"LineString","coordinates":[[18.30477,40.37416],[18.3057,40.37439],[18.30575,40.37444],[18.30573,40.37457],[18.30577,40.37468],[18.30582,40.37472],[18.30643,40.37479],[18.30974,40.37551],[18.31078,40.37576],[18.31155,40.37536],[18.31211,40.37502],[18.31244,40.37492],[18.3126,40.37482]]},"properties":{}},{"type":"Feature","geometry":{"type":"LineString","coordinates":[[18.29085,40.38119],[18.29169,40.38084],[18.30297,40.37431],[18.30313,40.3743],[18.30439,40.37452],[18.30466,40.37434]]},"properties":{}},{"type":"Feature","geometry":{"type":"LineString","coordinates":[[18.25889,40.37699],[18.27922,40.38244]]},"properties":{}},{"type":"Feature","geometry":{"type":"LineString","coordinates":[[18.31058,40.3776],[18.30932,40.37907],[18.30853,40.37987],[18.30702,40.38126],[18.30562,40.38274]]},"properties":{}},{"type":"Feature","geometry":{"type":"LineString","coordinates":[[18.2848,40.38402],[18.28497,40.38394],[18.28632,40.38349],[18.2872,40.38274],[18.29085,40.38119]]},"properties":{}},{"type":"Feature","geometry":{"type":"LineString","coordinates":[[18.30446,40.38779],[18.30427,40.388],[18.30373,40.38832],[18.30335,40.38915],[18.30329,40.38914]]},"properties":{}},{"type":"Feature","geometry":{"type":"LineString","coordinates":[[18.30385,40.3917],[18.30412,40.39159],[18.30474,40.39176],[18.30488,40.39176],[18.30499,40.3917],[18.30523,40.3914],[18.30589,40.39006],[18.30602,40.38993],[18.30605,40.38975],[18.30617,40.38948],[18.30613,40.38931],[18.30558,40.38885],[18.30545,40.38866],[18.30472,40.388],[18.30462,40.38787],[18.30441,40.38777],[18.30431,40.38764],[18.30418,40.38738],[18.30415,40.38724],[18.30418,40.38704]]},"properties":{}},{"type":"Feature","geometry":{"type":"LineString","coordinates":[[18.25073,40.43215],[18.25084,40.43209],[18.2523,40.43078],[18.25392,40.42859]]},"properties":{}},{"type":"Feature","geometry":{"type":"LineString","coordinates":[[18.25,40.43206],[18.25019,40.43213],[18.25046,40.43216]]},"properties":{}},{"type":"Feature","geometry":{"type":"LineString","coordinates":[[18.25066,40.43216],[18.25073,40.43215]]},"properties":{}},{"type":"Feature","geometry":{"type":"LineString","coordinates":[[18.25046,40.43216],[18.25066,40.43216]]},"properties":{}}]}